{"type": "FeatureCollection", "features": [{"type": "Feature", "properties": {"area_id": 10205, "city": "Rutland", "state": "VT", "city_survey": false, "cat": "Trading", "grade": "", "label": "Trading", "res": false, "com": true, "ind": false, "fill": "#000000", "GEOID10": "50021963200", "GISJOIN": "G5000210963200", "calc_area": 21623.72478, "pct_tract": 0.00351}, "geometry": {"type": "MultiPolygon", "coordinates": [[[[-72.98406, 43.60781], [-72.98126, 43.60814], [-72.98138, 43.60896], [-72.98213, 43.6088], [-72.98242, 43.60938], [-72.982201, 43.609828], [-72.98212, 43.609227], [-72.981762, 43.609256], [-72.981182, 43.609312], [-72.980829, 43.609334], [-72.98076, 43.608938], [-72.980731, 43.608803], [-72.980621, 43.608081], [-72.980587, 43.607806], [-72.980804, 43.607794], [-72.981167, 43.607748], [-72.981987, 43.60766], [-72.982466, 43.607624], [-72.982899, 43.60758], [-72.983426, 43.607531], [-72.983872, 43.607489], [-72.983927, 43.607483], [-72.98406, 43.60781]]]]}}, {"type": "Feature", "properties": {"area_id": 10205, "city": "Rutland", "state": "VT", "city_survey": false, "cat": "Trading", "grade": "", "label": "Trading", "res": false, "com": true, "ind": false, "fill": "#000000", "GEOID10": "50021963100", "GISJOIN": "G5000210963100", "calc_area": 110070.1602, "pct_tract": 0.08114}, "geometry": {"type": "MultiPolygon", "coordinates": [[[[-72.9822, 43.60983], [-72.98109, 43.60988], [-72.98059, 43.6099], [-72.98023, 43.60976], [-72.97989, 43.60844], [-72.97731, 43.60872], [-72.97675, 43.60826], [-72.97673, 43.60756], [-72.9762, 43.60702], [-72.97617, 43.60646], [-72.97723, 43.60615], [-72.977115, 43.605553], [-72.977391, 43.605525], [-72.977794, 43.605486], [-72.978378, 43.605417], [-72.978651, 43.605397], [-72.97898, 43.60568], [-72.979184, 43.605876], [-72.979392, 43.606065], [-72.979505, 43.606157], [-72.979624, 43.606241], [-72.979924, 43.606437], [-72.979987, 43.60652], [-72.980184, 43.606652], [-72.980272, 43.606685], [-72.980317, 43.606739], [-72.980356, 43.606806], [-72.980387, 43.606891], [-72.980416, 43.607037], [-72.980473, 43.607245], [-72.980587, 43.607806], [-72.980621, 43.608081], [-72.980731, 43.608803], [-72.98076, 43.608938], [-72.980829, 43.609334], [-72.981182, 43.609312], [-72.981762, 43.609256], [-72.98212, 43.609227], [-72.982201, 43.609828], [-72.9822, 43.60983]]]]}}, {"type": "Feature", "properties": {"area_id": 10205, "city": "Rutland", "state": "VT", "city_survey": false, "cat": "Trading", "grade": "", "label": "Trading", "res": false, "com": true, "ind": false, "fill": "#000000", "GEOID10": "50021963300", "GISJOIN": "G5000210963300", "calc_area": 73568.49765, "pct_tract": 0.00945}, "geometry": {"type": "MultiPolygon", "coordinates": [[[[-72.97692, 43.60454], [-72.97603, 43.60397], [-72.97485, 43.60276], [-72.97485, 43.60245], [-72.97528, 43.6022], [-72.97571, 43.60234], [-72.97895, 43.60519], [-72.98015, 43.60603], [-72.98225, 43.60713], [-72.98372, 43.60697], [-72.983927, 43.607483], [-72.983872, 43.607489], [-72.983426, 43.607531], [-72.982899, 43.60758], [-72.982466, 43.607624], [-72.981987, 43.60766], [-72.981167, 43.607748], [-72.980804, 43.607794], [-72.980587, 43.607806], [-72.980473, 43.607245], [-72.980416, 43.607037], [-72.980387, 43.606891], [-72.980356, 43.606806], [-72.980317, 43.606739], [-72.980272, 43.606685], [-72.980184, 43.606652], [-72.979987, 43.60652], [-72.979924, 43.606437], [-72.979624, 43.606241], [-72.979505, 43.606157], [-72.979392, 43.606065], [-72.979184, 43.605876], [-72.97898, 43.60568], [-72.978651, 43.605397], [-72.978378, 43.605417], [-72.977794, 43.605486], [-72.977391, 43.605525], [-72.977115, 43.605553], [-72.97692, 43.60454]]]]}}, {"type": "Feature", "properties": {"area_id": 10206, "city": "Rutland", "state": "VT", "city_survey": false, "cat": "Industrial", "grade": "", "label": "Industrial", "res": false, "com": false, "ind": true, "fill": "#80303C", "GEOID10": "50021963200", "GISJOIN": "G5000210963200", "calc_area": 81127.60144, "pct_tract": 0.01317}, "geometry": {"type": "MultiPolygon", "coordinates": [[[[-72.98512, 43.60729], [-72.98611, 43.60728], [-72.99444, 43.60561], [-72.99319, 43.60595], [-72.99003, 43.60748], [-72.98946, 43.60809], [-72.98438, 43.60854], [-72.98406, 43.60781], [-72.983927, 43.607483], [-72.984088, 43.607464], [-72.984338, 43.607419], [-72.984974, 43.607307], [-72.985105, 43.607279], [-72.98512, 43.60729]]]]}}, {"type": "Feature", "properties": {"area_id": 10206, "city": "Rutland", "state": "VT", "city_survey": false, "cat": "Industrial", "grade": "", "label": "Industrial", "res": false, "com": false, "ind": true, "fill": "#80303C", "GEOID10": "50021963300", "GISJOIN": "G5000210963300", "calc_area": 413001.25797, "pct_tract": 0.05305}, "geometry": {"type": "MultiPolygon", "coordinates": [[[[-72.98372, 43.60697], [-72.98225, 43.60713], [-72.98015, 43.60603], [-72.97895, 43.60519], [-72.97571, 43.60234], [-72.97528, 43.6022], [-72.97231, 43.59959], [-72.97135, 43.59904], [-72.97541, 43.59781], [-72.97572, 43.59813], [-72.97615, 43.5982], [-72.97848, 43.5975], [-72.98124, 43.60387], [-72.9835, 43.60551], [-72.98395, 43.6064], [-72.985105, 43.607279], [-72.984974, 43.607307], [-72.984338, 43.607419], [-72.984088, 43.607464], [-72.983927, 43.607483], [-72.98372, 43.60697]]]]}}, {"type": "Feature", "properties": {"area_id": 10207, "city": "Rutland", "state": "VT", "city_survey": false, "cat": "#1 Best Residential", "grade": "", "label": "#1 Best Residential", "res": true, "com": false, "ind": false, "fill": "#76a865", "GEOID10": "50021963200", "GISJOIN": "G5000210963200", "calc_area": 108059.36986, "pct_tract": 0.01755}, "geometry": {"type": "MultiPolygon", "coordinates": [[[[-72.98037, 43.61876], [-72.9776, 43.61937], [-72.974433, 43.620049], [-72.974209, 43.618789], [-72.974127, 43.618419], [-72.974108, 43.618284], [-72.974099, 43.618221], [-72.974067, 43.618079], [-72.973948, 43.617384], [-72.974294, 43.617338], [-72.97444, 43.61733], [-72.974802, 43.617291], [-72.975524, 43.617222], [-72.976459, 43.617125], [-72.976604, 43.617114], [-72.976891, 43.617099], [-72.977036, 43.617081], [-72.977206, 43.617043], [-72.977353, 43.617772], [-72.977381, 43.618016], [-72.978603, 43.617893], [-72.978842, 43.61786], [-72.978987, 43.617851], [-72.98018, 43.61772], [-72.980385, 43.61876], [-72.98037, 43.61876]]], [[[-72.98503, 43.61993], [-72.984766, 43.619793], [-72.984749, 43.619683], [-72.984714, 43.619501], [-72.984704, 43.619459], [-72.984691, 43.619255], [-72.984635, 43.61868], [-72.984544, 43.618148], [-72.984405, 43.617366], [-72.984343, 43.616969], [-72.98503, 43.61993]]], [[[-72.98413, 43.61605], [-72.984256, 43.616595], [-72.98421, 43.616491], [-72.983893, 43.61603], [-72.984099, 43.616007], [-72.98413, 43.61605]]]]}}, {"type": "Feature", "properties": {"area_id": 10207, "city": "Rutland", "state": "VT", "city_survey": false, "cat": "#1 Best Residential", "grade": "", "label": "#1 Best Residential", "res": true, "com": false, "ind": false, "fill": "#76a865", "GEOID10": "50021963100", "GISJOIN": "G5000210963100", "calc_area": 789976.17568, "pct_tract": 0.58232}, "geometry": {"type": "MultiPolygon", "coordinates": [[[[-72.97675, 43.60826], [-72.97731, 43.60872], [-72.97989, 43.60844], [-72.98023, 43.60976], [-72.98059, 43.6099], [-72.98109, 43.60988], [-72.9816, 43.61254], [-72.984099, 43.616007], [-72.983893, 43.61603], [-72.98421, 43.616491], [-72.984256, 43.616595], [-72.984343, 43.616969], [-72.984405, 43.617366], [-72.984544, 43.618148], [-72.984635, 43.61868], [-72.984691, 43.619255], [-72.984704, 43.619459], [-72.984714, 43.619501], [-72.984749, 43.619683], [-72.984766, 43.619793], [-72.98336, 43.61906], [-72.98271, 43.61876], [-72.980385, 43.61876], [-72.98018, 43.61772], [-72.978987, 43.617851], [-72.978842, 43.61786], [-72.978603, 43.617893], [-72.977381, 43.618016], [-72.977353, 43.617772], [-72.977206, 43.617043], [-72.977036, 43.617081], [-72.976891, 43.617099], [-72.976604, 43.617114], [-72.976459, 43.617125], [-72.975524, 43.617222], [-72.974802, 43.617291], [-72.97444, 43.61733], [-72.974294, 43.617338], [-72.973948, 43.617384], [-72.973894, 43.617082], [-72.973871, 43.617014], [-72.973854, 43.616905], [-72.973747, 43.616338], [-72.97367, 43.615886], [-72.973644, 43.615732], [-72.973584, 43.615414], [-72.973443, 43.614661], [-72.97338, 43.614352], [-72.973232, 43.613504], [-72.97321, 43.613388], [-72.973187, 43.613304], [-72.97317, 43.613165], [-72.973049, 43.612489], [-72.972838, 43.611447], [-72.972767, 43.611105], [-72.972731, 43.610965], [-72.972688, 43.610826], [-72.972644, 43.610619], [-72.97258, 43.610259], [-72.972514, 43.609938], [-72.972415, 43.609412], [-72.972395, 43.609342], [-72.97229, 43.608748], [-72.97675, 43.60826]]]]}}, {"type": "Feature", "properties": {"area_id": 10207, "city": "Rutland", "state": "VT", "city_survey": false, "cat": "#1 Best Residential", "grade": "", "label": "#1 Best Residential", "res": true, "com": false, "ind": false, "fill": "#76a865", "GEOID10": "50021963000", "GISJOIN": "G5000210963000", "calc_area": 1528958.03131, "pct_tract": 0.33254}, "geometry": {"type": "MultiPolygon", "coordinates": [[[[-72.97424, 43.62009], [-72.96995, 43.62112], [-72.96744, 43.62101], [-72.96334, 43.61996], [-72.96083, 43.61876], [-72.95994, 43.61796], [-72.95965, 43.61656], [-72.95965, 43.61307], [-72.95972, 43.61099], [-72.95982, 43.60994], [-72.96163, 43.60847], [-72.96351, 43.60767], [-72.96435, 43.60769], [-72.96549, 43.60781], [-72.96715, 43.60758], [-72.96886, 43.60699], [-72.97181, 43.60659], [-72.97227, 43.60875], [-72.97229, 43.608748], [-72.972395, 43.609342], [-72.972415, 43.609412], [-72.972514, 43.609938], [-72.97258, 43.610259], [-72.972644, 43.610619], [-72.972688, 43.610826], [-72.972731, 43.610965], [-72.972767, 43.611105], [-72.972838, 43.611447], [-72.973049, 43.612489], [-72.97317, 43.613165], [-72.973187, 43.613304], [-72.97321, 43.613388], [-72.973232, 43.613504], [-72.97338, 43.614352], [-72.973443, 43.614661], [-72.973584, 43.615414], [-72.973644, 43.615732], [-72.97367, 43.615886], [-72.973747, 43.616338], [-72.973854, 43.616905], [-72.973871, 43.617014], [-72.973894, 43.617082], [-72.973948, 43.617384], [-72.974067, 43.618079], [-72.974099, 43.618221], [-72.974108, 43.618284], [-72.974127, 43.618419], [-72.974209, 43.618789], [-72.974433, 43.620049], [-72.97424, 43.62009]]]]}}, {"type": "Feature", "properties": {"area_id": 10208, "city": "Rutland", "state": "VT", "city_survey": false, "cat": "#2 Residential", "grade": "", "label": "#2 Residential", "res": true, "com": false, "ind": false, "fill": "#7cb5bd", "GEOID10": "50021963200", "GISJOIN": "G5000210963200", "calc_area": 2851220.32335, "pct_tract": 0.46296}, "geometry": {"type": "MultiPolygon", "coordinates": [[[[-72.98242, 43.60938], [-72.98213, 43.6088], [-72.98138, 43.60896], [-72.98126, 43.60814], [-72.98406, 43.60781], [-72.98438, 43.60854], [-72.98946, 43.60809], [-72.99003, 43.60748], [-72.99319, 43.60595], [-72.99444, 43.60561], [-72.99482, 43.60505], [-72.99646, 43.60519], [-72.99834, 43.60648], [-72.99926, 43.61024], [-72.99899, 43.61256], [-72.99663, 43.61769], [-72.99267, 43.62333], [-72.98978, 43.62635], [-72.98717, 43.62835], [-72.9831, 43.62953], [-72.9809, 43.63028], [-72.97871, 43.63077], [-72.97848, 43.630822], [-72.978256, 43.630334], [-72.978193, 43.630383], [-72.978109, 43.630437], [-72.976278, 43.630405], [-72.976152, 43.629678], [-72.976121, 43.629465], [-72.976089, 43.629323], [-72.976025, 43.628967], [-72.976005, 43.628821], [-72.975932, 43.628417], [-72.97589, 43.628183], [-72.975857, 43.628042], [-72.975659, 43.6269], [-72.975581, 43.626452], [-72.97555, 43.626297], [-72.975434, 43.625619], [-72.975403, 43.625476], [-72.975179, 43.624219], [-72.975101, 43.623771], [-72.975082, 43.623701], [-72.975058, 43.623577], [-72.97503, 43.623385], [-72.974912, 43.622704], [-72.974633, 43.621178], [-72.974614, 43.621065], [-72.974433, 43.620049], [-72.9776, 43.61937], [-72.98037, 43.61876], [-72.980385, 43.61876], [-72.980408, 43.618875], [-72.980553, 43.619581], [-72.980622, 43.620012], [-72.980638, 43.62008], [-72.980736, 43.620506], [-72.981039, 43.622007], [-72.981135, 43.622573], [-72.981178, 43.622745], [-72.981331, 43.62273], [-72.981476, 43.622723], [-72.981907, 43.622684], [-72.982193, 43.622667], [-72.982525, 43.622626], [-72.982487, 43.622446], [-72.982413, 43.622033], [-72.982628, 43.622005], [-72.983561, 43.621903], [-72.983706, 43.621895], [-72.98479, 43.621806], [-72.984932, 43.621789], [-72.985112, 43.621762], [-72.984925, 43.62071], [-72.984898, 43.620537], [-72.984793, 43.619965], [-72.984766, 43.619793], [-72.98503, 43.61993], [-72.984343, 43.616969], [-72.984339, 43.616942], [-72.984306, 43.616763], [-72.984269, 43.616623], [-72.984256, 43.616595], [-72.98413, 43.61605], [-72.984099, 43.616007], [-72.984613, 43.615951], [-72.98519, 43.615895], [-72.98547, 43.615876], [-72.985628, 43.615863], [-72.985775, 43.61586], [-72.986211, 43.615834], [-72.986795, 43.615777], [-72.986937, 43.615759], [-72.987082, 43.615753], [-72.987228, 43.615753], [-72.987517, 43.615771], [-72.987947, 43.61583], [-72.988057, 43.615857], [-72.988022, 43.615574], [-72.988015, 43.615534], [-72.987853, 43.614616], [-72.987755, 43.614113], [-72.987692, 43.613829], [-72.987641, 43.613552], [-72.987628, 43.613474], [-72.987561, 43.613192], [-72.987425, 43.612482], [-72.987356, 43.612202], [-72.987288, 43.611843], [-72.987162, 43.611346], [-72.987116, 43.611077], [-72.986125, 43.611174], [-72.985838, 43.611197], [-72.984906, 43.611286], [-72.983475, 43.611414], [-72.982491, 43.611505], [-72.982459, 43.611295], [-72.982383, 43.610944], [-72.982305, 43.610521], [-72.982218, 43.609956], [-72.982201, 43.609828], [-72.98242, 43.60938]]]]}}, {"type": "Feature", "properties": {"area_id": 10208, "city": "Rutland", "state": "VT", "city_survey": false, "cat": "#2 Residential", "grade": "", "label": "#2 Residential", "res": true, "com": false, "ind": false, "fill": "#7cb5bd", "GEOID10": "50021963100", "GISJOIN": "G5000210963100", "calc_area": 456555.955, "pct_tract": 0.33654}, "geometry": {"type": "MultiPolygon", "coordinates": [[[[-72.97723, 43.60615], [-72.97617, 43.60646], [-72.9762, 43.60702], [-72.97673, 43.60756], [-72.97675, 43.60826], [-72.97229, 43.608748], [-72.972286, 43.608728], [-72.97226, 43.608574], [-72.972158, 43.60807], [-72.972102, 43.607759], [-72.972072, 43.607581], [-72.972024, 43.607342], [-72.972015, 43.607285], [-72.971999, 43.607225], [-72.971952, 43.606943], [-72.971793, 43.606105], [-72.972251, 43.606053], [-72.972372, 43.606039], [-72.972517, 43.606016], [-72.97302, 43.605957], [-72.973263, 43.605932], [-72.97376, 43.605901], [-72.974664, 43.6058], [-72.974913, 43.605781], [-72.975402, 43.60573], [-72.975639, 43.605703], [-72.975856, 43.605687], [-72.976067, 43.605659], [-72.977115, 43.605553], [-72.97723, 43.60615]]], [[[-72.9816, 43.61254], [-72.98109, 43.60988], [-72.9822, 43.60983], [-72.982201, 43.609828], [-72.982218, 43.609956], [-72.982305, 43.610521], [-72.982383, 43.610944], [-72.982459, 43.611295], [-72.982491, 43.611505], [-72.983475, 43.611414], [-72.984906, 43.611286], [-72.985838, 43.611197], [-72.986125, 43.611174], [-72.987116, 43.611077], [-72.987162, 43.611346], [-72.987288, 43.611843], [-72.987356, 43.612202], [-72.987425, 43.612482], [-72.987561, 43.613192], [-72.987628, 43.613474], [-72.987641, 43.613552], [-72.987692, 43.613829], [-72.987755, 43.614113], [-72.987853, 43.614616], [-72.988015, 43.615534], [-72.988022, 43.615574], [-72.988057, 43.615857], [-72.987947, 43.61583], [-72.987517, 43.615771], [-72.987228, 43.615753], [-72.987082, 43.615753], [-72.986937, 43.615759], [-72.986795, 43.615777], [-72.986211, 43.615834], [-72.985775, 43.61586], [-72.985628, 43.615863], [-72.98547, 43.615876], [-72.98519, 43.615895], [-72.984613, 43.615951], [-72.984099, 43.616007], [-72.9816, 43.61254]]], [[[-72.984256, 43.616595], [-72.984269, 43.616623], [-72.984306, 43.616763], [-72.984339, 43.616942], [-72.984343, 43.616969], [-72.984256, 43.616595]]], [[[-72.98271, 43.61876], [-72.98336, 43.61906], [-72.984766, 43.619793], [-72.984793, 43.619965], [-72.984898, 43.620537], [-72.984925, 43.62071], [-72.985112, 43.621762], [-72.984932, 43.621789], [-72.98479, 43.621806], [-72.983706, 43.621895], [-72.983561, 43.621903], [-72.982628, 43.622005], [-72.982413, 43.622033], [-72.982487, 43.622446], [-72.982525, 43.622626], [-72.982193, 43.622667], [-72.981907, 43.622684], [-72.981476, 43.622723], [-72.981331, 43.62273], [-72.981178, 43.622745], [-72.981135, 43.622573], [-72.981039, 43.622007], [-72.980736, 43.620506], [-72.980638, 43.62008], [-72.980622, 43.620012], [-72.980553, 43.619581], [-72.980408, 43.618875], [-72.980385, 43.61876], [-72.98271, 43.61876]]]]}}, {"type": "Feature", "properties": {"area_id": 10208, "city": "Rutland", "state": "VT", "city_survey": false, "cat": "#2 Residential", "grade": "", "label": "#2 Residential", "res": true, "com": false, "ind": false, "fill": "#7cb5bd", "GEOID10": "50021963000", "GISJOIN": "G5000210963000", "calc_area": 243194.42679, "pct_tract": 0.05289}, "geometry": {"type": "MultiPolygon", "coordinates": [[[[-72.97227, 43.60875], [-72.97181, 43.60659], [-72.96886, 43.60699], [-72.96715, 43.60758], [-72.96549, 43.60781], [-72.96435, 43.60769], [-72.96351, 43.60767], [-72.96343, 43.60519], [-72.963759, 43.603649], [-72.964738, 43.603448], [-72.965277, 43.603344], [-72.966751, 43.603038], [-72.966961, 43.602995], [-72.967302, 43.602919], [-72.967477, 43.603456], [-72.967632, 43.603984], [-72.967814, 43.604597], [-72.967919, 43.604923], [-72.96808, 43.605443], [-72.968204, 43.605889], [-72.968759, 43.605794], [-72.969111, 43.605717], [-72.969818, 43.605574], [-72.970048, 43.605524], [-72.970327, 43.605471], [-72.971622, 43.605197], [-72.971663, 43.605381], [-72.971793, 43.606105], [-72.971952, 43.606943], [-72.971999, 43.607225], [-72.972015, 43.607285], [-72.972024, 43.607342], [-72.972072, 43.607581], [-72.972102, 43.607759], [-72.972158, 43.60807], [-72.97226, 43.608574], [-72.972286, 43.608728], [-72.97229, 43.608748], [-72.97227, 43.60875]]], [[[-72.97473, 43.62405], [-72.97429, 43.62258], [-72.97424, 43.62009], [-72.974433, 43.620049], [-72.974614, 43.621065], [-72.974633, 43.621178], [-72.974912, 43.622704], [-72.97503, 43.623385], [-72.975058, 43.623577], [-72.975082, 43.623701], [-72.975101, 43.623771], [-72.975179, 43.624219], [-72.975403, 43.625476], [-72.975434, 43.625619], [-72.97555, 43.626297], [-72.975581, 43.626452], [-72.975659, 43.6269], [-72.975177, 43.626917], [-72.97473, 43.62405]]]]}}, {"type": "Feature", "properties": {"area_id": 10208, "city": "Rutland", "state": "VT", "city_survey": false, "cat": "#2 Residential", "grade": "", "label": "#2 Residential", "res": true, "com": false, "ind": false, "fill": "#7cb5bd", "GEOID10": "50021963300", "GISJOIN": "G5000210963300", "calc_area": 1612113.56889, "pct_tract": 0.20706}, "geometry": {"type": "MultiPolygon", "coordinates": [[[[-72.97301, 43.59097], [-72.9753, 43.59221], [-72.97608, 43.59343], [-72.97591, 43.59478], [-72.97588, 43.59511], [-72.97581, 43.59586], [-72.97622, 43.59635], [-72.97803, 43.59712], [-72.97848, 43.5975], [-72.97615, 43.5982], [-72.97572, 43.59813], [-72.97541, 43.59781], [-72.97135, 43.59904], [-72.97231, 43.59959], [-72.97528, 43.6022], [-72.97485, 43.60245], [-72.97485, 43.60276], [-72.97603, 43.60397], [-72.97692, 43.60454], [-72.977115, 43.605553], [-72.976067, 43.605659], [-72.975856, 43.605687], [-72.975639, 43.605703], [-72.975402, 43.60573], [-72.974913, 43.605781], [-72.974664, 43.6058], [-72.97376, 43.605901], [-72.973263, 43.605932], [-72.97302, 43.605957], [-72.972517, 43.606016], [-72.972372, 43.606039], [-72.972251, 43.606053], [-72.971793, 43.606105], [-72.971663, 43.605381], [-72.971622, 43.605197], [-72.970327, 43.605471], [-72.970048, 43.605524], [-72.969818, 43.605574], [-72.969111, 43.605717], [-72.968759, 43.605794], [-72.968204, 43.605889], [-72.96808, 43.605443], [-72.967919, 43.604923], [-72.967814, 43.604597], [-72.967632, 43.603984], [-72.967477, 43.603456], [-72.967302, 43.602919], [-72.966961, 43.602995], [-72.966751, 43.603038], [-72.965277, 43.603344], [-72.964738, 43.603448], [-72.963759, 43.603649], [-72.96403, 43.60238], [-72.96539, 43.59913], [-72.96346, 43.59873], [-72.96209, 43.5979], [-72.96134, 43.5968], [-72.9604, 43.59453], [-72.95999, 43.59237], [-72.960518, 43.591563], [-72.961414, 43.59143], [-72.961909, 43.591357], [-72.962531, 43.591264], [-72.963537, 43.591115], [-72.965084, 43.590886], [-72.965949, 43.590743], [-72.967258, 43.590529], [-72.968467, 43.590322], [-72.97301, 43.59097]]]]}}, {"type": "Feature", "properties": {"area_id": 10208, "city": "Rutland", "state": "VT", "city_survey": false, "cat": "#2 Residential", "grade": "", "label": "#2 Residential", "res": true, "com": false, "ind": false, "fill": "#7cb5bd", "GEOID10": "50021962700", "GISJOIN": "G5000210962700", "calc_area": 50953.98499, "pct_tract": 0.00102}, "geometry": {"type": "MultiPolygon", "coordinates": [[[[-72.96052, 43.59156], [-72.96315, 43.59074], [-72.96761, 43.5902], [-72.968467, 43.590322], [-72.967258, 43.590529], [-72.965949, 43.590743], [-72.965084, 43.590886], [-72.963537, 43.591115], [-72.962531, 43.591264], [-72.961909, 43.591357], [-72.961414, 43.59143], [-72.960518, 43.591563], [-72.96052, 43.59156]]], [[[-72.97656, 43.63126], [-72.97598, 43.63107], [-72.97547, 43.6288], [-72.975177, 43.626917], [-72.975659, 43.6269], [-72.975857, 43.628042], [-72.97589, 43.628183], [-72.975932, 43.628417], [-72.976005, 43.628821], [-72.976025, 43.628967], [-72.976089, 43.629323], [-72.976121, 43.629465], [-72.976152, 43.629678], [-72.976278, 43.630405], [-72.978109, 43.630437], [-72.978193, 43.630383], [-72.978256, 43.630334], [-72.97848, 43.630822], [-72.97656, 43.63126]]]]}}, {"type": "Feature", "properties": {"area_id": 10209, "city": "Rutland", "state": "VT", "city_survey": false, "cat": "#3 Residential", "grade": "", "label": "#3 Residential", "res": true, "com": false, "ind": false, "fill": "#E09A73", "GEOID10": "50021963200", "GISJOIN": "G5000210963200", "calc_area": 169283.5435, "pct_tract": 0.02749}, "geometry": {"type": "MultiPolygon", "coordinates": [[[[-72.99301, 43.60301], [-72.9946, 43.60428], [-72.99482, 43.60505], [-72.99444, 43.60561], [-72.98611, 43.60728], [-72.98512, 43.60729], [-72.985105, 43.607279], [-72.985541, 43.607185], [-72.986601, 43.606973], [-72.986929, 43.606878], [-72.987743, 43.60671], [-72.988009, 43.606657], [-72.988141, 43.606631], [-72.987998, 43.606384], [-72.987883, 43.606142], [-72.987851, 43.605967], [-72.98785, 43.605877], [-72.987888, 43.605747], [-72.988041, 43.605526], [-72.988187, 43.605407], [-72.98835, 43.605299], [-72.988644, 43.605151], [-72.989084, 43.604879], [-72.989384, 43.604584], [-72.989669, 43.60421], [-72.989887, 43.603888], [-72.990079, 43.603554], [-72.990486, 43.603028], [-72.99114, 43.602308], [-72.991594, 43.601866], [-72.991781, 43.601773], [-72.99301, 43.60301]]]]}}, {"type": "Feature", "properties": {"area_id": 10209, "city": "Rutland", "state": "VT", "city_survey": false, "cat": "#3 Residential", "grade": "", "label": "#3 Residential", "res": true, "com": false, "ind": false, "fill": "#E09A73", "GEOID10": "50021963300", "GISJOIN": "G5000210963300", "calc_area": 1801192.90034, "pct_tract": 0.23135}, "geometry": {"type": "MultiPolygon", "coordinates": [[[[-72.95205, 43.59479], [-72.95374, 43.59721], [-72.9561, 43.59845], [-72.95721, 43.59982], [-72.95793, 43.60195], [-72.95732, 43.60377], [-72.95601, 43.60481], [-72.95273, 43.6056], [-72.95035, 43.60489], [-72.94877, 43.60413], [-72.9479, 43.60282], [-72.9479, 43.60156], [-72.94851, 43.60017], [-72.94986, 43.599], [-72.94998, 43.59859], [-72.94802, 43.59662], [-72.9479, 43.59485], [-72.94862, 43.59357], [-72.948823, 43.593413], [-72.950097, 43.593212], [-72.951063, 43.593053], [-72.95205, 43.59479]]], [[[-72.98395, 43.6064], [-72.9835, 43.60551], [-72.98124, 43.60387], [-72.97848, 43.5975], [-72.97803, 43.59712], [-72.97622, 43.59635], [-72.97581, 43.59586], [-72.97588, 43.59511], [-72.97707, 43.59413], [-72.97868, 43.59343], [-72.98112, 43.59303], [-72.98228, 43.59345], [-72.98329, 43.59427], [-72.98657, 43.59598], [-72.98884, 43.59782], [-72.98908, 43.59843], [-72.9912, 43.60051], [-72.99151, 43.6015], [-72.991781, 43.601773], [-72.991594, 43.601866], [-72.99114, 43.602308], [-72.990486, 43.603028], [-72.990079, 43.603554], [-72.989887, 43.603888], [-72.989669, 43.60421], [-72.989384, 43.604584], [-72.989084, 43.604879], [-72.988644, 43.605151], [-72.98835, 43.605299], [-72.988187, 43.605407], [-72.988041, 43.605526], [-72.987888, 43.605747], [-72.98785, 43.605877], [-72.987851, 43.605967], [-72.987883, 43.606142], [-72.987998, 43.606384], [-72.988141, 43.606631], [-72.988009, 43.606657], [-72.987743, 43.60671], [-72.986929, 43.606878], [-72.986601, 43.606973], [-72.985541, 43.607185], [-72.985105, 43.607279], [-72.98395, 43.6064]]]]}}, {"type": "Feature", "properties": {"area_id": 10209, "city": "Rutland", "state": "VT", "city_survey": false, "cat": "#3 Residential", "grade": "", "label": "#3 Residential", "res": true, "com": false, "ind": false, "fill": "#E09A73", "GEOID10": "50021962700", "GISJOIN": "G5000210962700", "calc_area": 6617.14405, "pct_tract": 0.00013}, "geometry": {"type": "MultiPolygon", "coordinates": [[[[-72.94982, 43.59264], [-72.95101, 43.59296], [-72.951063, 43.593053], [-72.950097, 43.593212], [-72.948823, 43.593413], [-72.94982, 43.59264]]]]}}]}