{"type": "FeatureCollection", "features": [{"type": "Feature", "geometry": {"type": "Point", "coordinates": [-71.1725, 42.225]}, "properties": {"facility_name": "TELEDYNE PHILBRICK", "industry": null, "tri_facility_id": "02026TLDYN40ALL"}}, {"type": "Feature", "geometry": {"type": "Point", "coordinates": [-71.2194, 42.2968]}, "properties": {"facility_name": "COCA-COLA BOTTLING CO OF NEW ENGLAND", "industry": null, "tri_facility_id": "02194CCCLB9BSTR"}}, {"type": "Feature", "geometry": {"type": "Point", "coordinates": [-71.215, 42.299444]}, "properties": {"facility_name": "GENERAL DYNAMICS", "industry": null, "tri_facility_id": "02194GTCSY77AST"}}, {"type": "Feature", "geometry": {"type": "Point", "coordinates": [-71.245833, 42.293056]}, "properties": {"facility_name": "MICROWAVE DEVELOPMENT LABORATORIES INC", "industry": null, "tri_facility_id": "02194MCRWV135CR"}}, {"type": "Feature", "geometry": {"type": "Point", "coordinates": [-71.218056, 42.302222]}, "properties": {"facility_name": "NRC INC", "industry": null, "tri_facility_id": "02194NRCNC110AS"}}, {"type": "Feature", "geometry": {"type": "Point", "coordinates": [-71.215, 42.303056]}, "properties": {"facility_name": "INTERNATIONAL EQUIPMENT CO", "industry": null, "tri_facility_id": "02194NTRNT300SE"}}, {"type": "Feature", "geometry": {"type": "Point", "coordinates": [-71.22916666666667, 42.306666666666665]}, "properties": {"facility_name": "A/G TECH CORP", "industry": null, "tri_facility_id": "02494GTCHC101HA"}}]}