{"type": "FeatureCollection", "features": [{"type": "Feature", "geometry": {"type": "Point", "coordinates": [-92.41194444444444, 35.092222222222226]}, "properties": {"facility_name": "DETCO INDUSTRIES INC", "industry": null, "tri_facility_id": "72032DTCND1375T"}}, {"type": "Feature", "geometry": {"type": "Point", "coordinates": [-92.44194444444445, 35.08861111111111]}, "properties": {"facility_name": "DETCO INDUSTRIES INC", "industry": null, "tri_facility_id": "72032DTCND605EA"}}, {"type": "Feature", "geometry": {"type": "Point", "coordinates": [-92.427222, 35.0625]}, "properties": {"facility_name": "FMC CORP CONWAY PLANT", "industry": null, "tri_facility_id": "72032FMCCRINDUS"}}, {"type": "Feature", "geometry": {"type": "Point", "coordinates": [-92.406944, 35.088889]}, "properties": {"facility_name": "SFI OF ARKANSAS", "industry": null, "tri_facility_id": "72032KRKWD670EQ"}}, {"type": "Feature", "geometry": {"type": "Point", "coordinates": [-92.4238888888889, 35.04722222222222]}, "properties": {"facility_name": "NUCOR FASTENER", "industry": null, "tri_facility_id": "72032NCRFS1800S"}}, {"type": "Feature", "geometry": {"type": "Point", "coordinates": [-92.441409, 35.07097]}, "properties": {"facility_name": "POLYVEND INC", "industry": null, "tri_facility_id": "72032PLYVNSOUTH"}}, {"type": "Feature", "geometry": {"type": "Point", "coordinates": [-92.416964, 35.091429]}, "properties": {"facility_name": "RIDOUT LUMBER CO", "industry": null, "tri_facility_id": "72032RDTLM1215E"}}, {"type": "Feature", "geometry": {"type": "Point", "coordinates": [-92.422222, 35.072222]}, "properties": {"facility_name": "AERMOTOR PUMPS INC", "industry": null, "tri_facility_id": "72032RMTRP584CO"}}, {"type": "Feature", "geometry": {"type": "Point", "coordinates": [-92.443611, 35.099444]}, "properties": {"facility_name": "SAN ANTONIO SHOE INC", "industry": null, "tri_facility_id": "72032SNNTNHAIRS"}}, {"type": "Feature", "geometry": {"type": "Point", "coordinates": [-92.49722222222222, 35.05833333333333]}, "properties": {"facility_name": "CAVALIER ENTS INC SPIRIT HOMES  DIV", "industry": null, "tri_facility_id": "72032SPRTH838MC"}}, {"type": "Feature", "geometry": {"type": "Point", "coordinates": [-92.428111, 35.0532]}, "properties": {"facility_name": "STEELE PLASTICS LLC", "industry": null, "tri_facility_id": "72032STLPL1280S"}}, {"type": "Feature", "geometry": {"type": "Point", "coordinates": [-92.428111, 35.0532]}, "properties": {"facility_name": "STEELE PLASTICS INC", "industry": null, "tri_facility_id": "72032STLPLHWY65"}}, {"type": "Feature", "geometry": {"type": "Point", "coordinates": [-92.415833, 35.058333]}, "properties": {"facility_name": "TOKUSEN USA INC", "industry": null, "tri_facility_id": "72032TKSNS1500A"}}, {"type": "Feature", "geometry": {"type": "Point", "coordinates": [-92.42222222222223, 35.04861111111111]}, "properties": {"facility_name": "JV MANUFACTURING INC CONWAY", "industry": null, "tri_facility_id": "72032TLNDS108HW"}}, {"type": "Feature", "geometry": {"type": "Point", "coordinates": [-92.4113888888889, 35.05333333333333]}, "properties": {"facility_name": "VIRCO MFG CORP PLANT 3", "industry": null, "tri_facility_id": "72032VRCMF1655A"}}, {"type": "Feature", "geometry": {"type": "Point", "coordinates": [-92.43055555555556, 35.035]}, "properties": {"facility_name": "VIRCO MFG CORPORATION-PLANT 2", "industry": null, "tri_facility_id": "72032VRCMF1701S"}}, {"type": "Feature", "geometry": {"type": "Point", "coordinates": [-92.418333, 35.068611]}, "properties": {"facility_name": "VIRCO MANUFACTURING CORP MAIN FACILITY", "industry": null, "tri_facility_id": "72032VRCMFROBIN"}}, {"type": "Feature", "geometry": {"type": "Point", "coordinates": [-92.435556, 35.075]}, "properties": {"facility_name": "CARRIER REFRIGERATION OPERATION", "industry": null, "tri_facility_id": "72032WCCMM707RO"}}, {"type": "Feature", "geometry": {"type": "Point", "coordinates": [-92.49722222222222, 35.05833333333333]}, "properties": {"facility_name": "CALIER ENTS INC SPIRIT HOMES DIV", "industry": null, "tri_facility_id": "72033CLRNT901MC"}}]}