{"type": "FeatureCollection", "features": [{"type": "Feature", "properties": {"area_id": 10274, "city": "Rapid City", "state": "SD", "city_survey": false, "cat": "Best Residential Section", "grade": null, "label": "Best Residential Section", "res": true, "com": false, "ind": false, "holc_grade": null}, "geometry": {"type": "Polygon", "coordinates": [[[-103.226678, 44.06754], [-103.23971, 44.06743], [-103.23924, 44.07257], [-103.2394, 44.07484], [-103.23929, 44.07752], [-103.238669, 44.079601], [-103.23803, 44.08174], [-103.23655, 44.08163], [-103.23296, 44.08104], [-103.23314, 44.08044], [-103.22774, 44.07949], [-103.22557, 44.07915], [-103.22651, 44.076551], [-103.22698, 44.07525], [-103.226681, 44.068669], [-103.22663, 44.06754], [-103.226678, 44.06754]]]}}, {"type": "Feature", "properties": {"area_id": 10272, "city": "Rapid City", "state": "SD", "city_survey": false, "cat": "Business Section", "grade": null, "label": "Business Section", "res": false, "com": true, "ind": false, "holc_grade": null}, "geometry": {"type": "Polygon", "coordinates": [[[-103.23248, 44.08261], [-103.22496, 44.08146], [-103.21928, 44.08045], [-103.21929, 44.08011], [-103.21985, 44.07869], [-103.21994, 44.07828], [-103.22774, 44.07949], [-103.23314, 44.08044], [-103.23248, 44.08261]]]}}, {"type": "Feature", "properties": {"area_id": 10273, "city": "Rapid City", "state": "SD", "city_survey": false, "cat": "Campus", "grade": null, "label": "Campus", "res": false, "com": false, "ind": false, "holc_grade": null}, "geometry": {"type": "Polygon", "coordinates": [[[-103.20458, 44.071161], [-103.21175, 44.07115], [-103.211737, 44.073164], [-103.211735, 44.073545], [-103.2117, 44.07902], [-103.20582, 44.07631], [-103.20381, 44.0754], [-103.19923, 44.07213], [-103.199232, 44.071914], [-103.19924, 44.07117], [-103.20458, 44.071161]]]}}, {"type": "Feature", "properties": {"area_id": 10276, "city": "Rapid City", "state": "SD", "city_survey": false, "cat": "Fair Residential Section", "grade": null, "label": "Fair Residential Section", "res": true, "com": false, "ind": false, "holc_grade": null}, "geometry": {"type": "Polygon", "coordinates": [[[-103.20186, 44.07401], [-103.20381, 44.0754], [-103.2117, 44.07902], [-103.21497, 44.08035], [-103.213896, 44.084486], [-103.213828, 44.084748], [-103.213675, 44.085339], [-103.213547, 44.085831], [-103.213341, 44.086625], [-103.21301, 44.0879], [-103.21301, 44.09298], [-103.21177, 44.09298], [-103.21175, 44.096693], [-103.21175, 44.09677], [-103.211648, 44.09677], [-103.20187, 44.09677], [-103.19699, 44.09677], [-103.19672, 44.08932], [-103.196691, 44.085731], [-103.19669, 44.08565], [-103.201028, 44.085753], [-103.20172, 44.08577], [-103.20173, 44.08577], [-103.20169, 44.08203], [-103.20186, 44.07401]]]}}, {"type": "Feature", "properties": {"area_id": 10275, "city": "Rapid City", "state": "SD", "city_survey": false, "cat": "Good Residential Section", "grade": null, "label": "Good Residential Section", "res": true, "com": false, "ind": false, "holc_grade": null}, "geometry": {"type": "Polygon", "coordinates": [[[-103.22795, 44.09327], [-103.22183, 44.09299], [-103.21529, 44.09327], [-103.21314, 44.09357], [-103.21301, 44.09298], [-103.213, 44.0893], [-103.21301, 44.0879], [-103.21767, 44.08853], [-103.22626, 44.08984], [-103.22785, 44.09024], [-103.23128, 44.09082], [-103.231856, 44.090868], [-103.232, 44.09088], [-103.231887, 44.092864], [-103.23187, 44.09316], [-103.22795, 44.09327]]]}}]}