{"type": "FeatureCollection", "features": [{"type": "Feature", "properties": {"area_id": 5507, "city": "Altoona", "state": "PA", "city_survey": true, "cat": "Best", "grade": "A", "label": "A1", "res": true, "com": false, "ind": false, "holc_grade": "A"}, "geometry": {"type": "Polygon", "coordinates": [[[-78.40531, 40.49246], [-78.40524, 40.49232], [-78.40493, 40.49171], [-78.40486, 40.49039], [-78.40509, 40.48954], [-78.40477, 40.48867], [-78.40485, 40.48806], [-78.40525, 40.48717], [-78.40523, 40.48657], [-78.40513, 40.48634], [-78.40788, 40.48542], [-78.40927, 40.48801], [-78.40949, 40.48858], [-78.40957, 40.4892], [-78.40838, 40.49239], [-78.40728, 40.492], [-78.4067, 40.49207], [-78.4067, 40.49236], [-78.406527, 40.492393], [-78.406507, 40.492397], [-78.406344, 40.492428], [-78.406028, 40.492489], [-78.40576, 40.49254], [-78.40531, 40.49246]]]}}, {"type": "Feature", "properties": {"area_id": 5508, "city": "Altoona", "state": "PA", "city_survey": true, "cat": "Best", "grade": "A", "label": "A2", "res": true, "com": false, "ind": false, "holc_grade": "A"}, "geometry": {"type": "Polygon", "coordinates": [[[-78.4067, 40.49236], [-78.406749, 40.492427], [-78.40688, 40.49261], [-78.40804, 40.49331], [-78.40972, 40.49421], [-78.40691, 40.49735], [-78.40619, 40.49736], [-78.40607, 40.49736], [-78.404435, 40.496397], [-78.40186, 40.49488], [-78.40205, 40.494736], [-78.405161, 40.49238], [-78.40524, 40.49232], [-78.40531, 40.49246], [-78.40576, 40.49254], [-78.406028, 40.492489], [-78.406344, 40.492428], [-78.406507, 40.492397], [-78.406527, 40.492393], [-78.4067, 40.49236]]]}}, {"type": "Feature", "properties": {"area_id": 5501, "city": "Altoona", "state": "PA", "city_survey": true, "cat": "Still Desirable", "grade": "B", "label": "B1", "res": true, "com": false, "ind": false, "holc_grade": "B"}, "geometry": {"type": "Polygon", "coordinates": [[[-78.41726, 40.46608], [-78.417551, 40.466217], [-78.41917, 40.46698], [-78.42019, 40.46734], [-78.4209, 40.46759], [-78.42386, 40.46877], [-78.426911, 40.47033], [-78.42693, 40.47034], [-78.426894, 40.470625], [-78.42687, 40.470819], [-78.42668, 40.47233], [-78.42859, 40.47432], [-78.43009, 40.47666], [-78.42887, 40.47705], [-78.42841, 40.47628], [-78.42754, 40.47482], [-78.42659, 40.47403], [-78.424696, 40.472674], [-78.42423, 40.47234], [-78.42353, 40.47207], [-78.42331, 40.47176], [-78.42256, 40.4715], [-78.42233, 40.47155], [-78.42214, 40.47138], [-78.42182, 40.47149], [-78.41934, 40.46989], [-78.4191, 40.46982], [-78.41854, 40.46963], [-78.41736, 40.46857], [-78.41709, 40.46872], [-78.41603, 40.46705], [-78.417138, 40.466176], [-78.41726, 40.46608]]]}}, {"type": "Feature", "properties": {"area_id": 5527, "city": "Altoona", "state": "PA", "city_survey": true, "cat": "Still Desirable", "grade": "B", "label": "B10", "res": true, "com": false, "ind": false, "holc_grade": "B"}, "geometry": {"type": "Polygon", "coordinates": [[[-78.40434, 40.53494], [-78.40497, 40.53571], [-78.4062, 40.5364], [-78.40746, 40.53747], [-78.40463, 40.54085], [-78.39959, 40.53842], [-78.4003, 40.5367], [-78.40254, 40.53427], [-78.4032, 40.53437], [-78.40434, 40.53494]]]}}, {"type": "Feature", "properties": {"area_id": 5524, "city": "Altoona", "state": "PA", "city_survey": true, "cat": "Still Desirable", "grade": "B", "label": "B11", "res": true, "com": false, "ind": false, "holc_grade": "B"}, "geometry": {"type": "Polygon", "coordinates": [[[-78.39223, 40.533015], [-78.39538, 40.53465], [-78.3952, 40.53488], [-78.39586, 40.53522], [-78.39346, 40.53788], [-78.38735, 40.53468], [-78.38799, 40.53396], [-78.38982, 40.5349], [-78.39172, 40.53275], [-78.391817, 40.5328], [-78.39223, 40.533015]]]}}, {"type": "Feature", "properties": {"area_id": 5517, "city": "Altoona", "state": "PA", "city_survey": true, "cat": "Still Desirable", "grade": "B", "label": "B12", "res": true, "com": false, "ind": false, "holc_grade": "B"}, "geometry": {"type": "Polygon", "coordinates": [[[-78.36572, 40.52479], [-78.36978, 40.52047], [-78.37268, 40.51842], [-78.37711, 40.52067], [-78.380841, 40.522695], [-78.38109, 40.52283], [-78.37591, 40.52865], [-78.375537, 40.528514], [-78.36704, 40.52543], [-78.36572, 40.52479]]]}}, {"type": "Feature", "properties": {"area_id": 5506, "city": "Altoona", "state": "PA", "city_survey": true, "cat": "Still Desirable", "grade": "B", "label": "B13", "res": true, "com": false, "ind": false, "holc_grade": "B"}, "geometry": {"type": "Polygon", "coordinates": [[[-78.399906, 40.468587], [-78.400212, 40.468466], [-78.40128, 40.46804], [-78.40298, 40.47013], [-78.40185, 40.47075], [-78.40093, 40.47101], [-78.40082, 40.470834], [-78.40041, 40.47018], [-78.398703, 40.469241], [-78.39852, 40.46914], [-78.399906, 40.468587]]]}}, {"type": "Feature", "properties": {"area_id": 5504, "city": "Altoona", "state": "PA", "city_survey": true, "cat": "Still Desirable", "grade": "B", "label": "B2", "res": true, "com": false, "ind": false, "holc_grade": "B"}, "geometry": {"type": "Polygon", "coordinates": [[[-78.40414, 40.48179], [-78.40586, 40.48002], [-78.40777, 40.47899], [-78.40873, 40.47862], [-78.40905, 40.47849], [-78.40935, 40.47856], [-78.41081, 40.48009], [-78.41043, 40.48265], [-78.41012, 40.48594], [-78.41091, 40.4877], [-78.41047, 40.48773], [-78.41018, 40.48788], [-78.40927, 40.48801], [-78.40788, 40.48542], [-78.40513, 40.48634], [-78.40287, 40.48352], [-78.40414, 40.48179]]]}}, {"type": "Feature", "properties": {"area_id": 5529, "city": "Altoona", "state": "PA", "city_survey": true, "cat": "Still Desirable", "grade": "B", "label": "B3", "res": true, "com": false, "ind": false, "holc_grade": "B"}, "geometry": {"type": "Polygon", "coordinates": [[[-78.4166, 40.49524], [-78.41943, 40.48897], [-78.42209, 40.48956], [-78.42151, 40.49071], [-78.42124, 40.49157], [-78.42058, 40.49304], [-78.42063, 40.4934], [-78.42062, 40.49373], [-78.42056, 40.49405], [-78.42037, 40.49432], [-78.41999, 40.49469], [-78.41922, 40.49654], [-78.41836, 40.4963], [-78.41742, 40.49633], [-78.4166, 40.49524]]]}}, {"type": "Feature", "properties": {"area_id": 5519, "city": "Altoona", "state": "PA", "city_survey": true, "cat": "Still Desirable", "grade": "B", "label": "B4", "res": true, "com": false, "ind": false, "holc_grade": "B"}, "geometry": {"type": "Polygon", "coordinates": [[[-78.41665, 40.49713], [-78.41823, 40.498], [-78.418117, 40.498127], [-78.41439, 40.50231], [-78.4106, 40.50657], [-78.40804, 40.50522], [-78.41172, 40.50104], [-78.41164, 40.501], [-78.41352, 40.49892], [-78.41417, 40.49926], [-78.416202, 40.497027], [-78.41629, 40.49693], [-78.41665, 40.49713]]]}}, {"type": "Feature", "properties": {"area_id": 5509, "city": "Altoona", "state": "PA", "city_survey": true, "cat": "Still Desirable", "grade": "B", "label": "B5", "res": true, "com": false, "ind": false, "holc_grade": "B"}, "geometry": {"type": "Polygon", "coordinates": [[[-78.40619, 40.49736], [-78.40691, 40.49735], [-78.40972, 40.49421], [-78.41066, 40.49479], [-78.4089, 40.49679], [-78.40929, 40.49707], [-78.40764, 40.49903], [-78.40673, 40.49989], [-78.40611, 40.4995], [-78.40617, 40.49793], [-78.40619, 40.49736]]]}}, {"type": "Feature", "properties": {"area_id": 5516, "city": "Altoona", "state": "PA", "city_survey": true, "cat": "Still Desirable", "grade": "B", "label": "B6", "res": true, "com": false, "ind": false, "holc_grade": "B"}, "geometry": {"type": "Polygon", "coordinates": [[[-78.39196, 40.49336], [-78.393963, 40.489585], [-78.39429, 40.48897], [-78.397331, 40.49109], [-78.39954, 40.49263], [-78.399328, 40.493004], [-78.39873, 40.49406], [-78.39857, 40.494154], [-78.39774, 40.49464], [-78.392173, 40.493407], [-78.39196, 40.49336]]]}}, {"type": "Feature", "properties": {"area_id": 5514, "city": "Altoona", "state": "PA", "city_survey": true, "cat": "Still Desirable", "grade": "B", "label": "B7", "res": true, "com": false, "ind": false, "holc_grade": "B"}, "geometry": {"type": "Polygon", "coordinates": [[[-78.394178, 40.49633], [-78.39658, 40.49689], [-78.39535, 40.49786], [-78.39605, 40.49828], [-78.39473, 40.49972], [-78.39467, 40.49969], [-78.39461, 40.49973], [-78.39275, 40.4985], [-78.39189, 40.498], [-78.3938, 40.49673], [-78.39406, 40.496354], [-78.39409, 40.49631], [-78.394178, 40.49633]]]}}, {"type": "Feature", "properties": {"area_id": 5515, "city": "Altoona", "state": "PA", "city_survey": true, "cat": "Still Desirable", "grade": "B", "label": "B8", "res": true, "com": false, "ind": false, "holc_grade": "B"}, "geometry": {"type": "Polygon", "coordinates": [[[-78.38474, 40.496], [-78.385147, 40.496267], [-78.39058, 40.49984], [-78.38951, 40.50126], [-78.383616, 40.497379], [-78.38345, 40.49727], [-78.38474, 40.496]]]}}, {"type": "Feature", "properties": {"area_id": 5526, "city": "Altoona", "state": "PA", "city_survey": true, "cat": "Still Desirable", "grade": "B", "label": "B9", "res": true, "com": false, "ind": false, "holc_grade": "B"}, "geometry": {"type": "Polygon", "coordinates": [[[-78.41537, 40.52484], [-78.41599, 40.52507], [-78.413745, 40.527026], [-78.41242, 40.52818], [-78.412476, 40.528204], [-78.41353, 40.52865], [-78.41284, 40.52964], [-78.41299, 40.53006], [-78.41282, 40.53036], [-78.41236, 40.53079], [-78.41142, 40.53248], [-78.411297, 40.532414], [-78.40679, 40.52997], [-78.406876, 40.529188], [-78.40727, 40.5256], [-78.4091, 40.52402], [-78.40825, 40.52345], [-78.4083, 40.523407], [-78.41045, 40.52155], [-78.41489, 40.52445], [-78.41537, 40.52484]]]}}, {"type": "Feature", "properties": {"area_id": 5502, "city": "Altoona", "state": "PA", "city_survey": true, "cat": "Definitely Declining", "grade": "C", "label": "C1", "res": true, "com": false, "ind": false, "holc_grade": "C"}, "geometry": {"type": "Polygon", "coordinates": [[[-78.42182, 40.47149], [-78.42214, 40.47138], [-78.42233, 40.47155], [-78.42256, 40.4715], [-78.42331, 40.47176], [-78.42353, 40.47207], [-78.42423, 40.47234], [-78.424696, 40.472674], [-78.42659, 40.47403], [-78.42754, 40.47482], [-78.42841, 40.47628], [-78.42555, 40.47933], [-78.42089, 40.47776], [-78.4191, 40.47938], [-78.41692, 40.48453], [-78.41605, 40.4856], [-78.415905, 40.485534], [-78.41415, 40.48473], [-78.4132, 40.4859], [-78.41243, 40.48612], [-78.41325, 40.4877], [-78.414571, 40.487354], [-78.41489, 40.48727], [-78.41486, 40.48742], [-78.41536, 40.48751], [-78.41493, 40.48897], [-78.41314, 40.49329], [-78.41398, 40.49349], [-78.41351, 40.4947], [-78.41266, 40.49588], [-78.412104, 40.495631], [-78.41199, 40.49558], [-78.411901, 40.49546], [-78.41179, 40.49531], [-78.411689, 40.495172], [-78.41146, 40.49486], [-78.41123, 40.49456], [-78.41073, 40.49419], [-78.41091, 40.49373], [-78.41031, 40.49331], [-78.41184, 40.48961], [-78.40949, 40.48858], [-78.40927, 40.48801], [-78.41018, 40.48788], [-78.41047, 40.48773], [-78.41091, 40.4877], [-78.41012, 40.48594], [-78.41043, 40.48265], [-78.41213, 40.48351], [-78.41355, 40.48415], [-78.41574, 40.48134], [-78.41758, 40.4791], [-78.416325, 40.478037], [-78.415594, 40.477417], [-78.41326, 40.47544], [-78.413898, 40.474826], [-78.4191, 40.46982], [-78.41934, 40.46989], [-78.42182, 40.47149]], [[-78.41215, 40.49118], [-78.41112, 40.4937], [-78.41166, 40.49446], [-78.41289, 40.49125], [-78.41215, 40.49118]]]}}, {"type": "Feature", "properties": {"area_id": 5512, "city": "Altoona", "state": "PA", "city_survey": true, "cat": "Definitely Declining", "grade": "C", "label": "C10", "res": true, "com": false, "ind": false, "holc_grade": "C"}, "geometry": {"type": "Polygon", "coordinates": [[[-78.38092, 40.51341], [-78.37991, 40.51453], [-78.378897, 40.515633], [-78.37889, 40.51564], [-78.37733, 40.51486], [-78.378288, 40.513919], [-78.37956, 40.51267], [-78.38092, 40.51341]]]}}, {"type": "Feature", "properties": {"area_id": 5505, "city": "Altoona", "state": "PA", "city_survey": true, "cat": "Definitely Declining", "grade": "C", "label": "C2", "res": true, "com": false, "ind": false, "holc_grade": "C"}, "geometry": {"type": "Polygon", "coordinates": [[[-78.398703, 40.469241], [-78.40041, 40.47018], [-78.40082, 40.470834], [-78.40093, 40.47101], [-78.401063, 40.471222], [-78.40389, 40.47571], [-78.40473, 40.47561], [-78.40576, 40.47357], [-78.40873, 40.47862], [-78.40777, 40.47899], [-78.40586, 40.48002], [-78.40414, 40.48179], [-78.40287, 40.48352], [-78.40162, 40.48192], [-78.39615, 40.48035], [-78.396454, 40.479722], [-78.397166, 40.47825], [-78.39764, 40.47727], [-78.39689, 40.47704], [-78.39694, 40.47604], [-78.39745, 40.47526], [-78.39823, 40.471867], [-78.39851, 40.47065], [-78.39898, 40.47053], [-78.398857, 40.470312], [-78.398361, 40.469439], [-78.39826, 40.46926], [-78.39852, 40.46914], [-78.398703, 40.469241]]]}}, {"type": "Feature", "properties": {"area_id": 5530, "city": "Altoona", "state": "PA", "city_survey": true, "cat": "Definitely Declining", "grade": "C", "label": "C3", "res": true, "com": false, "ind": false, "holc_grade": "C"}, "geometry": {"type": "Polygon", "coordinates": [[[-78.426928, 40.487818], [-78.42575, 40.49055], [-78.42559, 40.49104], [-78.42443, 40.49353], [-78.42447, 40.49511], [-78.42433, 40.49522], [-78.42166, 40.49325], [-78.42058, 40.49304], [-78.42124, 40.49157], [-78.42151, 40.49071], [-78.42209, 40.48956], [-78.41943, 40.48897], [-78.4197, 40.48818], [-78.41932, 40.48815], [-78.41975, 40.48711], [-78.41907, 40.48711], [-78.42028, 40.48512], [-78.42061, 40.48517], [-78.42208, 40.48261], [-78.42233, 40.48253], [-78.42309, 40.48334], [-78.42388, 40.48408], [-78.42531, 40.48522], [-78.42533, 40.48532], [-78.42423, 40.48704], [-78.42512, 40.48724], [-78.425227, 40.487268], [-78.42697, 40.48772], [-78.426928, 40.487818]]]}}, {"type": "Feature", "properties": {"area_id": 5520, "city": "Altoona", "state": "PA", "city_survey": true, "cat": "Definitely Declining", "grade": "C", "label": "C4", "res": true, "com": false, "ind": false, "holc_grade": "C"}, "geometry": {"type": "Polygon", "coordinates": [[[-78.41665, 40.49713], [-78.41735, 40.49633], [-78.41742, 40.49633], [-78.41836, 40.4963], [-78.41922, 40.49654], [-78.42047, 40.49678], [-78.42121, 40.49667], [-78.42173, 40.4967], [-78.42208, 40.49673], [-78.42243, 40.49666], [-78.41981, 40.49896], [-78.42007, 40.49926], [-78.42068, 40.49959], [-78.420443, 40.499796], [-78.41835, 40.50161], [-78.41659, 40.50363], [-78.41439, 40.50231], [-78.418117, 40.498127], [-78.41823, 40.498], [-78.41665, 40.49713]]]}}, {"type": "Feature", "properties": {"area_id": 5521, "city": "Altoona", "state": "PA", "city_survey": true, "cat": "Definitely Declining", "grade": "C", "label": "C5", "res": true, "com": false, "ind": false, "holc_grade": "C"}, "geometry": {"type": "Polygon", "coordinates": [[[-78.40699, 40.50641], [-78.40804, 40.50522], [-78.4106, 40.50657], [-78.41439, 40.50231], [-78.41659, 40.50363], [-78.41476, 40.50575], [-78.41322, 40.50685], [-78.41194, 40.50611], [-78.41071, 40.50737], [-78.40902, 40.50643], [-78.40851, 40.50694], [-78.41037, 40.50842], [-78.40899, 40.50975], [-78.40825, 40.51021], [-78.40793, 40.5103], [-78.40704, 40.51025], [-78.40699, 40.50641]]]}}, {"type": "Feature", "properties": {"area_id": 5523, "city": "Altoona", "state": "PA", "city_survey": true, "cat": "Definitely Declining", "grade": "C", "label": "C6", "res": true, "com": false, "ind": false, "holc_grade": "C"}, "geometry": {"type": "Polygon", "coordinates": [[[-78.41979, 40.51643], [-78.41813, 40.5179], [-78.41864, 40.51822], [-78.418574, 40.518263], [-78.41747, 40.51897], [-78.41712, 40.51875], [-78.4157, 40.52021], [-78.40937, 40.51604], [-78.40859, 40.51566], [-78.40781, 40.51501], [-78.40826, 40.51489], [-78.40971, 40.51404], [-78.409649, 40.513973], [-78.4075, 40.51162], [-78.40756, 40.511588], [-78.41904, 40.50546], [-78.42144, 40.50693], [-78.42119, 40.50719], [-78.423796, 40.510006], [-78.4238, 40.51001], [-78.416166, 40.51415], [-78.416, 40.51424], [-78.41885, 40.51578], [-78.41979, 40.51643]]]}}, {"type": "Feature", "properties": {"area_id": 5525, "city": "Altoona", "state": "PA", "city_survey": true, "cat": "Definitely Declining", "grade": "C", "label": "C7", "res": true, "com": false, "ind": false, "holc_grade": "C"}, "geometry": {"type": "Polygon", "coordinates": [[[-78.40781, 40.51501], [-78.40859, 40.51566], [-78.40937, 40.51604], [-78.4157, 40.52021], [-78.41733, 40.52131], [-78.41646, 40.52209], [-78.41819, 40.52313], [-78.41599, 40.52507], [-78.41537, 40.52484], [-78.41489, 40.52445], [-78.41045, 40.52155], [-78.4083, 40.523407], [-78.40825, 40.52345], [-78.4091, 40.52402], [-78.40727, 40.5256], [-78.406876, 40.529188], [-78.40679, 40.52997], [-78.411297, 40.532414], [-78.41142, 40.53248], [-78.41064, 40.53387], [-78.410592, 40.533848], [-78.40805, 40.53268], [-78.40571, 40.53141], [-78.4032, 40.53437], [-78.40254, 40.53427], [-78.4003, 40.5367], [-78.39959, 40.53842], [-78.40463, 40.54085], [-78.403784, 40.541738], [-78.40364, 40.54189], [-78.40216, 40.54114], [-78.401459, 40.540601], [-78.401057, 40.540291], [-78.4009, 40.54017], [-78.40098, 40.53981], [-78.400414, 40.539559], [-78.398301, 40.538621], [-78.39636, 40.53776], [-78.395861, 40.538423], [-78.39581, 40.53849], [-78.395792, 40.53848], [-78.39551, 40.53832], [-78.395496, 40.538334], [-78.39441, 40.53948], [-78.39307, 40.5388], [-78.39116, 40.54072], [-78.39027, 40.54029], [-78.39001, 40.5406], [-78.389922, 40.540556], [-78.38947, 40.54033], [-78.38908, 40.5409], [-78.38889, 40.54096], [-78.38844, 40.54077], [-78.388241, 40.541074], [-78.38799, 40.54146], [-78.387903, 40.541423], [-78.387765, 40.541365], [-78.386881, 40.54099], [-78.38674, 40.54093], [-78.386414, 40.54129], [-78.38626, 40.54146], [-78.38588, 40.54129], [-78.38541, 40.5419], [-78.38412, 40.5413], [-78.384006, 40.541246], [-78.38043, 40.53957], [-78.38125, 40.5386], [-78.38193, 40.53766], [-78.38227, 40.53732], [-78.383, 40.53659], [-78.38657, 40.53249], [-78.387861, 40.532922], [-78.389564, 40.533491], [-78.38965, 40.53352], [-78.39022, 40.532904], [-78.39078, 40.5323], [-78.39153, 40.53256], [-78.39334, 40.5306], [-78.39115, 40.52935], [-78.39381, 40.52655], [-78.39151, 40.52533], [-78.39473, 40.5216], [-78.39781, 40.52324], [-78.39973, 40.52161], [-78.39759, 40.52022], [-78.397766, 40.52012], [-78.40401, 40.51658], [-78.405113, 40.516048], [-78.40573, 40.51575], [-78.40781, 40.51501]], [[-78.391817, 40.5328], [-78.39172, 40.53275], [-78.38982, 40.5349], [-78.38799, 40.53396], [-78.38735, 40.53468], [-78.39346, 40.53788], [-78.39586, 40.53522], [-78.3952, 40.53488], [-78.39538, 40.53465], [-78.39223, 40.533015], [-78.391817, 40.5328]]]}}, {"type": "Feature", "properties": {"area_id": 5510, "city": "Altoona", "state": "PA", "city_survey": true, "cat": "Definitely Declining", "grade": "C", "label": "C8", "res": true, "com": false, "ind": false, "holc_grade": "C"}, "geometry": {"type": "Polygon", "coordinates": [[[-78.411689, 40.495172], [-78.41179, 40.49531], [-78.411747, 40.495356], [-78.41071, 40.49645], [-78.41343, 40.49787], [-78.41096, 40.50056], [-78.410974, 40.500603], [-78.41101, 40.50071], [-78.40715, 40.50503], [-78.407143, 40.504841], [-78.40706, 40.50257], [-78.40272, 40.50739], [-78.40145, 40.50655], [-78.400106, 40.508044], [-78.39607, 40.51253], [-78.39533, 40.51221], [-78.391402, 40.516551], [-78.3842, 40.52451], [-78.384082, 40.524446], [-78.38109, 40.52283], [-78.380841, 40.522695], [-78.37711, 40.52067], [-78.380741, 40.516598], [-78.38172, 40.5155], [-78.38316, 40.51389], [-78.38388, 40.51256], [-78.384032, 40.512432], [-78.38569, 40.51104], [-78.38686, 40.50945], [-78.38787, 40.50857], [-78.39536, 40.50016], [-78.3965, 40.50085], [-78.39837, 40.4992], [-78.39761, 40.49754], [-78.39903, 40.49648], [-78.399133, 40.496494], [-78.3997, 40.49657], [-78.399875, 40.496699], [-78.40004, 40.49682], [-78.402452, 40.497744], [-78.40346, 40.49813], [-78.40426, 40.49745], [-78.40504, 40.49783], [-78.40617, 40.49793], [-78.40611, 40.4995], [-78.40673, 40.49989], [-78.40764, 40.49903], [-78.40929, 40.49707], [-78.4089, 40.49679], [-78.41066, 40.49479], [-78.410724, 40.494242], [-78.41073, 40.49419], [-78.41123, 40.49456], [-78.41146, 40.49486], [-78.411689, 40.495172]]]}}, {"type": "Feature", "properties": {"area_id": 5513, "city": "Altoona", "state": "PA", "city_survey": true, "cat": "Definitely Declining", "grade": "C", "label": "C9", "res": true, "com": false, "ind": false, "holc_grade": "C"}, "geometry": {"type": "Polygon", "coordinates": [[[-78.38173, 40.49829], [-78.3872, 40.50187], [-78.38635, 40.50275], [-78.38714, 40.50328], [-78.38715, 40.50334], [-78.38787, 40.50372], [-78.38959, 40.50189], [-78.39024, 40.50234], [-78.39275, 40.4985], [-78.39461, 40.49973], [-78.39467, 40.49969], [-78.39473, 40.49972], [-78.39536, 40.50016], [-78.38787, 40.50857], [-78.38686, 40.50945], [-78.38569, 40.51104], [-78.384032, 40.512432], [-78.38388, 40.51256], [-78.38316, 40.51389], [-78.38172, 40.5155], [-78.37991, 40.51453], [-78.38092, 40.51341], [-78.37956, 40.51267], [-78.378288, 40.513919], [-78.37733, 40.51486], [-78.37528, 40.51671], [-78.37268, 40.51842], [-78.36953, 40.51663], [-78.3721, 40.51493], [-78.37609, 40.50887], [-78.376116, 40.508847], [-78.378329, 40.506875], [-78.378381, 40.506828], [-78.38078, 40.50469], [-78.37722, 40.50218], [-78.38173, 40.49829]]]}}, {"type": "Feature", "properties": {"area_id": 5503, "city": "Altoona", "state": "PA", "city_survey": true, "cat": "Hazardous", "grade": "D", "label": "D1", "res": true, "com": false, "ind": false, "holc_grade": "D"}, "geometry": {"type": "Polygon", "coordinates": [[[-78.41243, 40.48612], [-78.4132, 40.4859], [-78.41415, 40.48473], [-78.415905, 40.485534], [-78.41605, 40.4856], [-78.41489, 40.48727], [-78.414571, 40.487354], [-78.41325, 40.4877], [-78.41243, 40.48612]]]}}, {"type": "Feature", "properties": {"area_id": 5522, "city": "Altoona", "state": "PA", "city_survey": true, "cat": "Hazardous", "grade": "D", "label": "D2", "res": true, "com": false, "ind": false, "holc_grade": "D"}, "geometry": {"type": "Polygon", "coordinates": [[[-78.424051, 40.496574], [-78.42578, 40.49778], [-78.425702, 40.497856], [-78.424411, 40.49911], [-78.42439, 40.49913], [-78.425154, 40.499728], [-78.42522, 40.49978], [-78.42485, 40.500101], [-78.423545, 40.501232], [-78.42139, 40.5031], [-78.42005, 40.503823], [-78.41918, 40.504292], [-78.418285, 40.504775], [-78.41809, 40.50488], [-78.418354, 40.505041], [-78.41904, 40.50546], [-78.40756, 40.511588], [-78.4075, 40.51162], [-78.40716, 40.51119], [-78.407195, 40.51117], [-78.408999, 40.510161], [-78.41406, 40.50733], [-78.41322, 40.50685], [-78.41476, 40.50575], [-78.41659, 40.50363], [-78.41835, 40.50161], [-78.420443, 40.499796], [-78.42068, 40.49959], [-78.42007, 40.49926], [-78.41981, 40.49896], [-78.42243, 40.49666], [-78.423, 40.49698], [-78.423153, 40.496848], [-78.42373, 40.49635], [-78.424051, 40.496574]]]}}, {"type": "Feature", "properties": {"area_id": 5518, "city": "Altoona", "state": "PA", "city_survey": true, "cat": "Hazardous", "grade": "D", "label": "D3", "res": true, "com": false, "ind": false, "holc_grade": "D"}, "geometry": {"type": "Polygon", "coordinates": [[[-78.40706, 40.50257], [-78.407143, 40.504841], [-78.40715, 40.50503], [-78.41101, 40.50071], [-78.41164, 40.501], [-78.41172, 40.50104], [-78.40804, 40.50522], [-78.40699, 40.50641], [-78.40704, 40.51025], [-78.40604, 40.5097], [-78.40486, 40.51071], [-78.40585, 40.5115], [-78.405307, 40.51181], [-78.40452, 40.51226], [-78.40216, 40.51047], [-78.40063, 40.51219], [-78.39882, 40.51399], [-78.395766, 40.517578], [-78.39498, 40.518501], [-78.39253, 40.52138], [-78.39232, 40.521277], [-78.3919, 40.52107], [-78.38734, 40.52358], [-78.38511, 40.52514], [-78.384615, 40.525632], [-78.38326, 40.52698], [-78.383029, 40.526845], [-78.38261, 40.5266], [-78.3845, 40.52465], [-78.3842, 40.52451], [-78.391402, 40.516551], [-78.39533, 40.51221], [-78.39607, 40.51253], [-78.400106, 40.508044], [-78.40145, 40.50655], [-78.40272, 40.50739], [-78.40706, 40.50257]]]}}, {"type": "Feature", "properties": {"area_id": 5511, "city": "Altoona", "state": "PA", "city_survey": true, "cat": "Hazardous", "grade": "D", "label": "D4", "res": true, "com": false, "ind": false, "holc_grade": "D"}, "geometry": {"type": "Polygon", "coordinates": [[[-78.38172, 40.5155], [-78.380741, 40.516598], [-78.37711, 40.52067], [-78.37268, 40.51842], [-78.37528, 40.51671], [-78.37733, 40.51486], [-78.37889, 40.51564], [-78.378897, 40.515633], [-78.37991, 40.51453], [-78.38172, 40.5155]]]}}, {"type": "Feature", "properties": {"area_id": 5528, "city": "Altoona", "state": "PA", "city_survey": true, "cat": "Hazardous", "grade": "D", "label": "D5", "res": true, "com": false, "ind": false, "holc_grade": "D"}, "geometry": {"type": "Polygon", "coordinates": [[[-78.379863, 40.536286], [-78.38227, 40.53732], [-78.38193, 40.53766], [-78.38125, 40.5386], [-78.38043, 40.53957], [-78.384006, 40.541246], [-78.38412, 40.5413], [-78.383225, 40.542406], [-78.38183, 40.54413], [-78.381859, 40.544145], [-78.38286, 40.54467], [-78.38198, 40.54571], [-78.38354, 40.54643], [-78.380752, 40.549689], [-78.38052, 40.54996], [-78.38199, 40.54996], [-78.38221, 40.54996], [-78.382049, 40.551046], [-78.38202, 40.55124], [-78.384548, 40.551698], [-78.38456, 40.5517], [-78.38404, 40.55432], [-78.382177, 40.55401], [-78.38182, 40.55395], [-78.381686, 40.554775], [-78.3816, 40.5553], [-78.3762, 40.55458], [-78.3737, 40.55426], [-78.37115, 40.553842], [-78.370173, 40.553682], [-78.37004, 40.55366], [-78.370084, 40.553381], [-78.37026, 40.55228], [-78.37067, 40.5523], [-78.370725, 40.552074], [-78.37083, 40.55164], [-78.37737, 40.53922], [-78.378317, 40.538006], [-78.37847, 40.53781], [-78.37895, 40.53711], [-78.378992, 40.537067], [-78.37978, 40.53625], [-78.379863, 40.536286]]]}}, {"type": "Feature", "properties": {"area_id": 11352, "city": "Altoona", "state": "PA", "city_survey": true, "cat": "Industrial and Commercial", "grade": null, "label": "Industrial and Commercial", "res": false, "com": true, "ind": true, "holc_grade": null}, "geometry": {"type": "MultiPolygon", "coordinates": [[[[-78.40704, 40.51025], [-78.407155, 40.511154], [-78.40716, 40.51119], [-78.4075, 40.51162], [-78.409649, 40.513973], [-78.40971, 40.51404], [-78.40826, 40.51489], [-78.40781, 40.51501], [-78.40573, 40.51575], [-78.405113, 40.516048], [-78.40401, 40.51658], [-78.397766, 40.52012], [-78.39759, 40.52022], [-78.39669, 40.51969], [-78.39502, 40.52175], [-78.39473, 40.5216], [-78.39428, 40.52212], [-78.39151, 40.52533], [-78.39182, 40.52549], [-78.386852, 40.532549], [-78.38683, 40.53258], [-78.38657, 40.53249], [-78.38347, 40.53605], [-78.38126, 40.53587], [-78.381212, 40.535858], [-78.37966, 40.53546], [-78.37776, 40.53744], [-78.37446, 40.53536], [-78.37516, 40.53432], [-78.37606, 40.5339], [-78.37716, 40.53216], [-78.3797, 40.52964], [-78.38146, 40.52862], [-78.38326, 40.52698], [-78.384615, 40.525632], [-78.38511, 40.52514], [-78.38734, 40.52358], [-78.3919, 40.52107], [-78.39232, 40.521277], [-78.39253, 40.52138], [-78.39494, 40.51855], [-78.39519, 40.51867], [-78.395246, 40.518638], [-78.39931, 40.5163], [-78.39868, 40.515616], [-78.39861, 40.51554], [-78.397639, 40.516182], [-78.396479, 40.51695], [-78.39607, 40.51722], [-78.39882, 40.51399], [-78.40063, 40.51219], [-78.40216, 40.51047], [-78.40452, 40.51226], [-78.405307, 40.51181], [-78.40585, 40.5115], [-78.40486, 40.51071], [-78.40604, 40.5097], [-78.40704, 40.51025]], [[-78.400067, 40.514889], [-78.40071, 40.51563], [-78.40201, 40.51493], [-78.401381, 40.514149], [-78.40135, 40.51411], [-78.39999, 40.5148], [-78.400067, 40.514889]]], [[[-78.42089, 40.47776], [-78.42311, 40.47851], [-78.41907, 40.48711], [-78.41975, 40.48711], [-78.41932, 40.48815], [-78.4197, 40.48818], [-78.41943, 40.48897], [-78.41899, 40.48994], [-78.41856, 40.48994], [-78.4164, 40.49484], [-78.41566, 40.49394], [-78.4181, 40.48838], [-78.4174, 40.48778], [-78.41536, 40.48751], [-78.41486, 40.48742], [-78.41489, 40.48727], [-78.41605, 40.4856], [-78.41692, 40.48453], [-78.4191, 40.47938], [-78.42089, 40.47776]]]]}}]}