{"type": "FeatureCollection", "features": [{"type": "Feature", "properties": {"area_id": 2612, "city": "Poughkeepsie", "state": "NY", "city_survey": true, "cat": "Best", "grade": "A", "label": "A1", "res": true, "com": false, "ind": false, "holc_grade": "A"}, "geometry": {"type": "Polygon", "coordinates": [[[-73.91988, 41.67751], [-73.91961, 41.67281], [-73.91988, 41.67243], [-73.92181, 41.67248], [-73.922264, 41.672471], [-73.9254, 41.67241], [-73.92876, 41.67248], [-73.92903, 41.67427], [-73.92918, 41.67527], [-73.92962, 41.67787], [-73.9301, 41.68164], [-73.93219, 41.68639], [-73.931417, 41.686968], [-73.93124, 41.6871], [-73.93143, 41.68751], [-73.931428, 41.687522], [-73.931216, 41.688911], [-73.93086, 41.69124], [-73.93086, 41.69244], [-73.93086, 41.69306], [-73.93067, 41.69391], [-73.92649, 41.69328], [-73.92597, 41.69628], [-73.9248, 41.69603], [-73.922883, 41.695808], [-73.92264, 41.69578], [-73.91983, 41.69533], [-73.91815, 41.69507], [-73.91774, 41.695], [-73.91744, 41.69251], [-73.91729, 41.69131], [-73.917928, 41.689919], [-73.91795, 41.68987], [-73.91827, 41.68958], [-73.91881, 41.68867], [-73.91925, 41.68737], [-73.91839, 41.68719], [-73.91899, 41.68619], [-73.91988, 41.68459], [-73.92015, 41.68359], [-73.92193, 41.68146], [-73.921436, 41.680031], [-73.92128, 41.67958], [-73.92018, 41.67829], [-73.91988, 41.67751]]]}}, {"type": "Feature", "properties": {"area_id": 2611, "city": "Poughkeepsie", "state": "NY", "city_survey": true, "cat": "Still Desirable", "grade": "B", "label": "B1", "res": true, "com": false, "ind": false, "holc_grade": "B"}, "geometry": {"type": "Polygon", "coordinates": [[[-73.905672, 41.693641], [-73.90589, 41.69308], [-73.90727, 41.69328], [-73.91341, 41.69461], [-73.91507, 41.69498], [-73.91671, 41.69533], [-73.9179, 41.69557], [-73.91816, 41.69555], [-73.91819, 41.69722], [-73.918312, 41.698322], [-73.91834, 41.69858], [-73.91696, 41.69849], [-73.91689, 41.69954], [-73.91583, 41.69913], [-73.91426, 41.69823], [-73.90977, 41.69722], [-73.905868, 41.696472], [-73.90466, 41.69624], [-73.905672, 41.693641]]]}}, {"type": "Feature", "properties": {"area_id": 2605, "city": "Poughkeepsie", "state": "NY", "city_survey": true, "cat": "Still Desirable", "grade": "B", "label": "B2", "res": true, "com": false, "ind": false, "holc_grade": "B"}, "geometry": {"type": "Polygon", "coordinates": [[[-73.91175, 41.69851], [-73.91394, 41.69942], [-73.913275, 41.700454], [-73.91156, 41.70312], [-73.91275, 41.70356], [-73.91256, 41.70388], [-73.91125, 41.70385], [-73.90999, 41.70524], [-73.90858, 41.70706], [-73.906511, 41.706611], [-73.90508, 41.7063], [-73.90373, 41.70593], [-73.9024, 41.70559], [-73.90312, 41.70027], [-73.90424, 41.69933], [-73.90474, 41.69764], [-73.90481, 41.69706], [-73.905841, 41.697269], [-73.90896, 41.6979], [-73.91175, 41.69851]]]}}, {"type": "Feature", "properties": {"area_id": 2613, "city": "Poughkeepsie", "state": "NY", "city_survey": true, "cat": "Still Desirable", "grade": "B", "label": "B3", "res": true, "com": false, "ind": false, "holc_grade": "B"}, "geometry": {"type": "Polygon", "coordinates": [[[-73.91034, 41.68053], [-73.91177, 41.68104], [-73.91783, 41.67933], [-73.91845, 41.67913], [-73.92018, 41.67829], [-73.92128, 41.67958], [-73.921436, 41.680031], [-73.92193, 41.68146], [-73.92015, 41.68359], [-73.91988, 41.68459], [-73.91899, 41.68619], [-73.91839, 41.68719], [-73.91925, 41.68737], [-73.91881, 41.68867], [-73.91827, 41.68958], [-73.91795, 41.68987], [-73.917928, 41.689919], [-73.91729, 41.69131], [-73.91569, 41.69118], [-73.91299, 41.69078], [-73.91082, 41.69058], [-73.9107, 41.69109], [-73.91218, 41.6914], [-73.91521, 41.69207], [-73.91744, 41.69251], [-73.91774, 41.695], [-73.91815, 41.69507], [-73.91816, 41.69555], [-73.9179, 41.69557], [-73.91671, 41.69533], [-73.91507, 41.69498], [-73.91341, 41.69461], [-73.90727, 41.69328], [-73.90589, 41.69308], [-73.905672, 41.693641], [-73.90466, 41.69624], [-73.90252, 41.69577], [-73.90231, 41.69005], [-73.9044, 41.69036], [-73.90496, 41.68885], [-73.90589, 41.68752], [-73.90701, 41.68541], [-73.90253, 41.68402], [-73.902442, 41.683458], [-73.90217, 41.68173], [-73.90802, 41.68018], [-73.91034, 41.68053]]]}}, {"type": "Feature", "properties": {"area_id": 2598, "city": "Poughkeepsie", "state": "NY", "city_survey": true, "cat": "Still Desirable", "grade": "B", "label": "B4", "res": true, "com": false, "ind": false, "holc_grade": "B"}, "geometry": {"type": "Polygon", "coordinates": [[[-73.91627, 41.7195], [-73.91746, 41.71927], [-73.92124, 41.71865], [-73.92416, 41.7189], [-73.92464, 41.72028], [-73.92483, 41.72138], [-73.92509, 41.7231], [-73.92511, 41.7232], [-73.9254, 41.72448], [-73.92661, 41.72537], [-73.92675, 41.72807], [-73.91955, 41.72883], [-73.91924, 41.72587], [-73.91128, 41.7267], [-73.91047, 41.72683], [-73.91052, 41.72615], [-73.9098, 41.72099], [-73.91054, 41.72099], [-73.91318, 41.72065], [-73.91553, 41.72035], [-73.91546, 41.71959], [-73.91627, 41.7195]]]}}, {"type": "Feature", "properties": {"area_id": 2608, "city": "Poughkeepsie", "state": "NY", "city_survey": true, "cat": "Definitely Declining", "grade": "C", "label": "C1", "res": true, "com": false, "ind": false, "holc_grade": "C"}, "geometry": {"type": "Polygon", "coordinates": [[[-73.932453, 41.687404], [-73.93222, 41.69035], [-73.93217, 41.69111], [-73.933, 41.69115], [-73.93362, 41.69115], [-73.93445, 41.69125], [-73.93495, 41.69139], [-73.93604, 41.69051], [-73.93631, 41.69267], [-73.9369, 41.69562], [-73.93704, 41.69679], [-73.93452, 41.6975], [-73.934799, 41.70261], [-73.93481, 41.70282], [-73.93604, 41.70297], [-73.93626, 41.70366], [-73.93623, 41.7044], [-73.93609, 41.70469], [-73.93602, 41.70501], [-73.93469, 41.70511], [-73.93243, 41.70453], [-73.93089, 41.70424], [-73.93072, 41.70304], [-73.930686, 41.703036], [-73.92953, 41.70291], [-73.92996, 41.701909], [-73.93017, 41.70142], [-73.930127, 41.701409], [-73.92737, 41.70073], [-73.92782, 41.69952], [-73.93067, 41.69961], [-73.93048, 41.69668], [-73.93046, 41.69574], [-73.93067, 41.69391], [-73.93086, 41.69306], [-73.93086, 41.69244], [-73.93086, 41.69124], [-73.931216, 41.688911], [-73.931428, 41.687522], [-73.93143, 41.68751], [-73.93124, 41.6871], [-73.931417, 41.686968], [-73.93219, 41.68639], [-73.93248, 41.68706], [-73.932453, 41.687404]]]}}, {"type": "Feature", "properties": {"area_id": 2609, "city": "Poughkeepsie", "state": "NY", "city_survey": true, "cat": "Definitely Declining", "grade": "C", "label": "C2", "res": true, "com": false, "ind": false, "holc_grade": "C"}, "geometry": {"type": "Polygon", "coordinates": [[[-73.92597, 41.69628], [-73.92649, 41.69328], [-73.93067, 41.69391], [-73.93046, 41.69574], [-73.93048, 41.69668], [-73.93067, 41.69961], [-73.92782, 41.69952], [-73.92561, 41.69922], [-73.924929, 41.700334], [-73.92473, 41.70066], [-73.92112, 41.69945], [-73.91834, 41.69858], [-73.918312, 41.698322], [-73.91819, 41.69722], [-73.91816, 41.69555], [-73.91815, 41.69507], [-73.91983, 41.69533], [-73.92264, 41.69578], [-73.922883, 41.695808], [-73.9248, 41.69603], [-73.92597, 41.69628]]]}}, {"type": "Feature", "properties": {"area_id": 2610, "city": "Poughkeepsie", "state": "NY", "city_survey": true, "cat": "Definitely Declining", "grade": "C", "label": "C3", "res": true, "com": false, "ind": false, "holc_grade": "C"}, "geometry": {"type": "Polygon", "coordinates": [[[-73.92782, 41.69952], [-73.92737, 41.70073], [-73.92609, 41.70043], [-73.925913, 41.700707], [-73.92499, 41.70215], [-73.91689, 41.69954], [-73.91696, 41.69849], [-73.91834, 41.69858], [-73.92112, 41.69945], [-73.92473, 41.70066], [-73.924929, 41.700334], [-73.92561, 41.69922], [-73.92782, 41.69952]]]}}, {"type": "Feature", "properties": {"area_id": 2601, "city": "Poughkeepsie", "state": "NY", "city_survey": true, "cat": "Definitely Declining", "grade": "C", "label": "C4", "res": true, "com": false, "ind": false, "holc_grade": "C"}, "geometry": {"type": "Polygon", "coordinates": [[[-73.91962, 41.70199], [-73.92211, 41.70216], [-73.9238, 41.70278], [-73.92718, 41.70402], [-73.92656, 41.70487], [-73.92739, 41.70514], [-73.927357, 41.705302], [-73.92701, 41.70698], [-73.92692, 41.70723], [-73.92684, 41.70751], [-73.92822, 41.70748], [-73.92816, 41.70788], [-73.92917, 41.71015], [-73.92577, 41.711], [-73.92368, 41.71146], [-73.92265, 41.71174], [-73.92201, 41.70926], [-73.92032, 41.70782], [-73.91941, 41.71086], [-73.91825, 41.71458], [-73.9178, 41.714753], [-73.91716, 41.715], [-73.91724, 41.7094], [-73.91872, 41.70772], [-73.91583, 41.70735], [-73.91473, 41.70704], [-73.91334, 41.70646], [-73.91125, 41.70576], [-73.90999, 41.70524], [-73.91125, 41.70385], [-73.91256, 41.70388], [-73.91275, 41.70356], [-73.91366, 41.70202], [-73.914355, 41.700864], [-73.91494, 41.69989], [-73.91962, 41.70199]]]}}, {"type": "Feature", "properties": {"area_id": 2599, "city": "Poughkeepsie", "state": "NY", "city_survey": true, "cat": "Definitely Declining", "grade": "C", "label": "C5", "res": true, "com": false, "ind": false, "holc_grade": "C"}, "geometry": {"type": "Polygon", "coordinates": [[[-73.93, 41.7143], [-73.92974, 41.71517], [-73.929613, 41.716145], [-73.92957, 41.71647], [-73.93159, 41.71967], [-73.93151, 41.72064], [-73.93179, 41.72227], [-73.93198, 41.72384], [-73.93037, 41.72394], [-73.93027, 41.72294], [-73.92511, 41.7232], [-73.92509, 41.7231], [-73.92483, 41.72138], [-73.92464, 41.72028], [-73.92416, 41.7189], [-73.92124, 41.71865], [-73.91746, 41.71927], [-73.91627, 41.7195], [-73.91546, 41.71959], [-73.9152, 41.716669], [-73.91519, 41.71656], [-73.9157, 41.7165], [-73.91691, 41.7164], [-73.917864, 41.716356], [-73.91909, 41.7163], [-73.92009, 41.7162], [-73.92062, 41.71621], [-73.92147, 41.71626], [-73.921944, 41.71632], [-73.92338, 41.7165], [-73.923345, 41.716262], [-73.92307, 41.71437], [-73.92455, 41.71431], [-73.92475, 41.71426], [-73.92729, 41.71366], [-73.929609, 41.713238], [-73.93015, 41.71314], [-73.9301, 41.7139], [-73.93, 41.7143]]]}}, {"type": "Feature", "properties": {"area_id": 2602, "city": "Poughkeepsie", "state": "NY", "city_survey": true, "cat": "Definitely Declining", "grade": "C", "label": "C6", "res": true, "com": false, "ind": false, "holc_grade": "C"}, "geometry": {"type": "Polygon", "coordinates": [[[-73.91716, 41.715], [-73.91564, 41.71546], [-73.91347, 41.71634], [-73.911, 41.71286], [-73.91001, 41.71143], [-73.91133, 41.7098], [-73.91264, 41.7091], [-73.91416, 41.70833], [-73.91724, 41.7094], [-73.91716, 41.715]]]}}, {"type": "Feature", "properties": {"area_id": 2606, "city": "Poughkeepsie", "state": "NY", "city_survey": true, "cat": "Definitely Declining", "grade": "C", "label": "C7", "res": true, "com": false, "ind": false, "holc_grade": "C"}, "geometry": {"type": "Polygon", "coordinates": [[[-73.89755, 41.69108], [-73.900421, 41.6916], [-73.90147, 41.69179], [-73.90168, 41.68989], [-73.90231, 41.69005], [-73.90252, 41.69577], [-73.8982, 41.69486], [-73.8979, 41.69561], [-73.90481, 41.69706], [-73.90474, 41.69764], [-73.90424, 41.69933], [-73.90312, 41.70027], [-73.9024, 41.70559], [-73.89383, 41.70359], [-73.89489, 41.6985], [-73.8905, 41.69277], [-73.890938, 41.692442], [-73.89385, 41.69026], [-73.89755, 41.69108]]]}}, {"type": "Feature", "properties": {"area_id": 2604, "city": "Poughkeepsie", "state": "NY", "city_survey": true, "cat": "Hazardous", "grade": "D", "label": null, "res": true, "com": false, "ind": false, "holc_grade": "D"}, "geometry": {"type": "Polygon", "coordinates": [[[-73.91494, 41.69989], [-73.914355, 41.700864], [-73.91366, 41.70202], [-73.91275, 41.70356], [-73.91156, 41.70312], [-73.913275, 41.700454], [-73.91394, 41.69942], [-73.91494, 41.69989]]]}}, {"type": "Feature", "properties": {"area_id": 2614, "city": "Poughkeepsie", "state": "NY", "city_survey": true, "cat": "Hazardous", "grade": "D", "label": "<Null>", "res": true, "com": false, "ind": false, "holc_grade": "D"}, "geometry": {"type": "Polygon", "coordinates": [[[-73.91744, 41.69251], [-73.91521, 41.69207], [-73.91218, 41.6914], [-73.9107, 41.69109], [-73.91082, 41.69058], [-73.91299, 41.69078], [-73.91569, 41.69118], [-73.91729, 41.69131], [-73.91744, 41.69251]]]}}, {"type": "Feature", "properties": {"area_id": 2607, "city": "Poughkeepsie", "state": "NY", "city_survey": true, "cat": "Hazardous", "grade": "D", "label": "D1", "res": true, "com": false, "ind": false, "holc_grade": "D"}, "geometry": {"type": "Polygon", "coordinates": [[[-73.93704, 41.69679], [-73.9369, 41.69562], [-73.93631, 41.69267], [-73.93604, 41.69051], [-73.93711, 41.69038], [-73.93723, 41.69093], [-73.9378, 41.69244], [-73.93944, 41.69649], [-73.93921, 41.69823], [-73.939021, 41.702153], [-73.93899, 41.70279], [-73.93916, 41.70478], [-73.93602, 41.70501], [-73.93609, 41.70469], [-73.93623, 41.7044], [-73.93626, 41.70366], [-73.93604, 41.70297], [-73.93481, 41.70282], [-73.934799, 41.70261], [-73.93452, 41.6975], [-73.93704, 41.69679]]]}}, {"type": "Feature", "properties": {"area_id": 2600, "city": "Poughkeepsie", "state": "NY", "city_survey": true, "cat": "Hazardous", "grade": "D", "label": "D2", "res": true, "com": false, "ind": false, "holc_grade": "D"}, "geometry": {"type": "Polygon", "coordinates": [[[-73.93077, 41.70707], [-73.93168, 41.70731], [-73.93299, 41.70779], [-73.93478, 41.70849], [-73.93571, 41.70816], [-73.93309, 41.70653], [-73.93163, 41.70602], [-73.93187, 41.70528], [-73.93587, 41.70626], [-73.93857, 41.70609], [-73.93931, 41.70596], [-73.93948, 41.70717], [-73.93893, 41.70941], [-73.93798, 41.7111], [-73.93961, 41.71144], [-73.93784, 41.71279], [-73.937455, 41.714554], [-73.93733, 41.71513], [-73.93505, 41.71691], [-73.93159, 41.71967], [-73.92957, 41.71647], [-73.929613, 41.716145], [-73.92974, 41.71517], [-73.93, 41.7143], [-73.9301, 41.7139], [-73.93015, 41.71314], [-73.929609, 41.713238], [-73.92729, 41.71366], [-73.92475, 41.71426], [-73.92455, 41.71431], [-73.92307, 41.71437], [-73.92265, 41.71174], [-73.92368, 41.71146], [-73.92577, 41.711], [-73.92917, 41.71015], [-73.92816, 41.70788], [-73.92822, 41.70748], [-73.92897, 41.707498], [-73.92948, 41.70751], [-73.929376, 41.706714], [-73.92936, 41.70659], [-73.929429, 41.706614], [-73.93077, 41.70707]]]}}, {"type": "Feature", "properties": {"area_id": 2603, "city": "Poughkeepsie", "state": "NY", "city_survey": true, "cat": "Hazardous", "grade": "D", "label": "D3", "res": true, "com": false, "ind": false, "holc_grade": "D"}, "geometry": {"type": "Polygon", "coordinates": [[[-73.90531, 41.70906], [-73.90677, 41.70889], [-73.90759, 41.7087], [-73.9105, 41.70957], [-73.91284, 41.70786], [-73.91416, 41.70833], [-73.91264, 41.7091], [-73.91133, 41.7098], [-73.91001, 41.71143], [-73.90816, 41.71415], [-73.906868, 41.714325], [-73.90447, 41.71465], [-73.904538, 41.711174], [-73.90458, 41.70904], [-73.90531, 41.70906]]]}}, {"type": "Feature", "properties": {"area_id": 11396, "city": "Poughkeepsie", "state": "NY", "city_survey": true, "cat": "Commercial", "grade": null, "label": "Commercial", "res": false, "com": true, "ind": false, "holc_grade": null}, "geometry": {"type": "Polygon", "coordinates": [[[-73.8982, 41.69486], [-73.90252, 41.69577], [-73.90466, 41.69624], [-73.905868, 41.696472], [-73.90977, 41.69722], [-73.91426, 41.69823], [-73.91583, 41.69913], [-73.91689, 41.69954], [-73.92499, 41.70215], [-73.925913, 41.700707], [-73.92609, 41.70043], [-73.92737, 41.70073], [-73.930127, 41.701409], [-73.93017, 41.70142], [-73.92996, 41.701909], [-73.92953, 41.70291], [-73.930686, 41.703036], [-73.93072, 41.70304], [-73.93089, 41.70424], [-73.93243, 41.70453], [-73.93469, 41.70511], [-73.93602, 41.70501], [-73.93916, 41.70478], [-73.93931, 41.70596], [-73.93857, 41.70609], [-73.93587, 41.70626], [-73.93187, 41.70528], [-73.93163, 41.70602], [-73.93309, 41.70653], [-73.93571, 41.70816], [-73.93478, 41.70849], [-73.93299, 41.70779], [-73.93168, 41.70731], [-73.93077, 41.70707], [-73.929429, 41.706614], [-73.92936, 41.70659], [-73.929376, 41.706714], [-73.92948, 41.70751], [-73.92897, 41.707498], [-73.92822, 41.70748], [-73.92684, 41.70751], [-73.92692, 41.70723], [-73.92701, 41.70698], [-73.927357, 41.705302], [-73.92739, 41.70514], [-73.92656, 41.70487], [-73.92718, 41.70402], [-73.9238, 41.70278], [-73.92211, 41.70216], [-73.91962, 41.70199], [-73.91494, 41.69989], [-73.91394, 41.69942], [-73.91175, 41.69851], [-73.90896, 41.6979], [-73.905841, 41.697269], [-73.90481, 41.69706], [-73.8979, 41.69561], [-73.8982, 41.69486]]]}}, {"type": "Feature", "properties": {"area_id": 11397, "city": "Poughkeepsie", "state": "NY", "city_survey": true, "cat": "Industrial", "grade": null, "label": "Industrial", "res": false, "com": false, "ind": true, "holc_grade": null}, "geometry": {"type": "MultiPolygon", "coordinates": [[[[-73.91473, 41.70704], [-73.91583, 41.70735], [-73.91872, 41.70772], [-73.91724, 41.7094], [-73.91416, 41.70833], [-73.91284, 41.70786], [-73.9105, 41.70957], [-73.90759, 41.7087], [-73.90754, 41.70816], [-73.9092, 41.70746], [-73.91078, 41.70557], [-73.91125, 41.70576], [-73.91334, 41.70646], [-73.91473, 41.70704]]], [[[-73.91909, 41.7163], [-73.917864, 41.716356], [-73.91691, 41.7164], [-73.9157, 41.7165], [-73.91519, 41.71656], [-73.91347, 41.71634], [-73.91564, 41.71546], [-73.91716, 41.715], [-73.9178, 41.714753], [-73.91825, 41.71458], [-73.91941, 41.71086], [-73.92032, 41.70782], [-73.92201, 41.70926], [-73.92265, 41.71174], [-73.92307, 41.71437], [-73.923345, 41.716262], [-73.92338, 41.7165], [-73.921944, 41.71632], [-73.92147, 41.71626], [-73.92062, 41.71621], [-73.92009, 41.7162], [-73.91909, 41.7163]]], [[[-73.9254, 41.72448], [-73.92511, 41.7232], [-73.93027, 41.72294], [-73.93037, 41.72394], [-73.92881, 41.72435], [-73.92661, 41.72537], [-73.9254, 41.72448]]], [[[-73.9391, 41.68563], [-73.93792, 41.68602], [-73.93759, 41.6869], [-73.93789, 41.68784], [-73.93846, 41.68828], [-73.93807, 41.68946], [-73.93759, 41.69021], [-73.93782, 41.69084], [-73.93864, 41.69121], [-73.93833, 41.69188], [-73.93912, 41.69242], [-73.93979, 41.69347], [-73.94061, 41.69602], [-73.94028, 41.69728], [-73.9409, 41.69753], [-73.94149, 41.69878], [-73.94159, 41.70198], [-73.941575, 41.702301], [-73.94149, 41.70406], [-73.941, 41.70495], [-73.9412, 41.70613], [-73.94069, 41.70935], [-73.94025, 41.71008], [-73.94054, 41.71088], [-73.93954, 41.71412], [-73.940215, 41.714581], [-73.94033, 41.71466], [-73.94079, 41.72039], [-73.93751, 41.71837], [-73.93733, 41.71513], [-73.937455, 41.714554], [-73.93784, 41.71279], [-73.93961, 41.71144], [-73.93798, 41.7111], [-73.93893, 41.70941], [-73.93948, 41.70717], [-73.93931, 41.70596], [-73.93916, 41.70478], [-73.93899, 41.70279], [-73.939021, 41.702153], [-73.93921, 41.69823], [-73.93944, 41.69649], [-73.9378, 41.69244], [-73.93723, 41.69093], [-73.93711, 41.69038], [-73.93604, 41.69051], [-73.93495, 41.69139], [-73.93445, 41.69125], [-73.93362, 41.69115], [-73.933, 41.69115], [-73.93217, 41.69111], [-73.93222, 41.69035], [-73.932453, 41.687404], [-73.93248, 41.68706], [-73.93236, 41.68678], [-73.93476, 41.6868], [-73.93535, 41.68628], [-73.935258, 41.685217], [-73.935221, 41.68478], [-73.9352, 41.68454], [-73.93874, 41.68441], [-73.93875, 41.684443], [-73.9391, 41.68563]]]]}}]}