{"type": "FeatureCollection", "features": [{"type": "Feature", "properties": {"area_id": 706, "city": "San Diego", "state": "CA", "city_survey": true, "cat": "Best", "grade": "A", "label": null, "res": true, "com": false, "ind": false, "holc_grade": "A"}, "geometry": {"type": "Polygon", "coordinates": [[[-117.27266, 32.82934], [-117.272353, 32.829858], [-117.27145, 32.83138], [-117.271697, 32.832623], [-117.2722, 32.83516], [-117.272079, 32.83518], [-117.27184, 32.83522], [-117.2714, 32.83512], [-117.27095, 32.83494], [-117.2705, 32.83454], [-117.26994, 32.83419], [-117.26911, 32.83417], [-117.26875, 32.83402], [-117.26801, 32.83389], [-117.26747, 32.83392], [-117.26694, 32.83379], [-117.26661, 32.83355], [-117.26623, 32.83325], [-117.26578, 32.83307], [-117.26495, 32.83295], [-117.26427, 32.83292], [-117.263956, 32.83292], [-117.26343, 32.83292], [-117.2627, 32.83302], [-117.2669, 32.82849], [-117.26832, 32.82692], [-117.26911, 32.82581], [-117.27023, 32.82474], [-117.272701, 32.824297], [-117.27514, 32.82386], [-117.273517, 32.827446], [-117.27266, 32.82934]]]}}, {"type": "Feature", "properties": {"area_id": 707, "city": "San Diego", "state": "CA", "city_survey": true, "cat": "Best", "grade": "A", "label": null, "res": true, "com": false, "ind": false, "holc_grade": "A"}, "geometry": {"type": "Polygon", "coordinates": [[[-117.25711, 32.82274], [-117.25758, 32.82246], [-117.257972, 32.82229], [-117.25924, 32.82174], [-117.26457, 32.81973], [-117.26621, 32.82445], [-117.25966, 32.82802], [-117.261625, 32.833307], [-117.26163, 32.83332], [-117.26055, 32.83489], [-117.26091, 32.83659], [-117.26115, 32.83721], [-117.26109, 32.83751], [-117.26064, 32.83801], [-117.26028, 32.83834], [-117.26034, 32.83876], [-117.25532, 32.84333], [-117.256223, 32.830834], [-117.25672, 32.82396], [-117.256726, 32.82392], [-117.25681, 32.82333], [-117.25711, 32.82274]]]}}, {"type": "Feature", "properties": {"area_id": 708, "city": "San Diego", "state": "CA", "city_survey": true, "cat": "Best", "grade": "A", "label": null, "res": true, "com": false, "ind": false, "holc_grade": "A"}, "geometry": {"type": "Polygon", "coordinates": [[[-117.26597, 32.8464], [-117.26512, 32.84729], [-117.265028, 32.847396], [-117.26478, 32.84768], [-117.26454, 32.84817], [-117.264355, 32.848293], [-117.26386, 32.84862], [-117.26343, 32.84866], [-117.2626, 32.84908], [-117.26189, 32.84954], [-117.26123, 32.84972], [-117.26065, 32.84977], [-117.260355, 32.849723], [-117.26008, 32.84968], [-117.25945, 32.8498], [-117.2594, 32.849808], [-117.25842, 32.84996], [-117.25745, 32.85001], [-117.257375, 32.849825], [-117.25699, 32.84887], [-117.25699, 32.84823], [-117.256, 32.84698], [-117.25602, 32.84631], [-117.25532, 32.84333], [-117.25678, 32.8455], [-117.26572, 32.84315], [-117.26631, 32.84342], [-117.2669, 32.8439], [-117.26709, 32.84416], [-117.26712, 32.84473], [-117.267187, 32.845064], [-117.26719, 32.84508], [-117.26651, 32.84588], [-117.26597, 32.8464]]]}}, {"type": "Feature", "properties": {"area_id": 696, "city": "San Diego", "state": "CA", "city_survey": true, "cat": "Best", "grade": "A", "label": "A1", "res": true, "com": false, "ind": false, "holc_grade": "A"}, "geometry": {"type": "Polygon", "coordinates": [[[-117.26735, 32.84185], [-117.26694, 32.84028], [-117.26806, 32.84007], [-117.26898, 32.84294], [-117.268571, 32.843759], [-117.26852, 32.84386], [-117.26995, 32.84491], [-117.26982, 32.84513], [-117.26982, 32.84528], [-117.27007, 32.84578], [-117.27047, 32.8461], [-117.27107, 32.8463], [-117.27177, 32.84633], [-117.2724, 32.84799], [-117.27238, 32.84826], [-117.27271, 32.84878], [-117.27377, 32.8481], [-117.27437, 32.84783], [-117.27436, 32.84805], [-117.2744, 32.84853], [-117.27427, 32.84877], [-117.27392, 32.84942], [-117.2737, 32.84965], [-117.27311, 32.84993], [-117.27213, 32.84997], [-117.27141, 32.85018], [-117.27124, 32.85028], [-117.270717, 32.85009], [-117.270442, 32.84999], [-117.26967, 32.84971], [-117.269575, 32.849664], [-117.269162, 32.849463], [-117.26904, 32.849403], [-117.26893, 32.84935], [-117.26829, 32.84919], [-117.26769, 32.84893], [-117.26706, 32.848845], [-117.26702, 32.84884], [-117.26675, 32.84888], [-117.26638, 32.8488], [-117.26583, 32.8488], [-117.26577, 32.8488], [-117.2655, 32.84888], [-117.26544, 32.848713], [-117.26537, 32.84852], [-117.26525, 32.84835], [-117.26501, 32.84827], [-117.264664, 32.848196], [-117.26454, 32.84817], [-117.26478, 32.84768], [-117.265028, 32.847396], [-117.26512, 32.84729], [-117.26597, 32.8464], [-117.26651, 32.84588], [-117.26719, 32.84508], [-117.267228, 32.845027], [-117.26738, 32.84481], [-117.26762, 32.84369], [-117.26758, 32.84306], [-117.26735, 32.84185]]]}}, {"type": "Feature", "properties": {"area_id": 643, "city": "San Diego", "state": "CA", "city_survey": true, "cat": "Best", "grade": "A", "label": "A10", "res": true, "com": false, "ind": false, "holc_grade": "A"}, "geometry": {"type": "Polygon", "coordinates": [[[-117.133771, 32.740949], [-117.13377, 32.7411], [-117.133635, 32.741089], [-117.13217, 32.74097], [-117.13232, 32.7383], [-117.13232, 32.73545], [-117.13232, 32.73383], [-117.133622, 32.73383], [-117.13383, 32.73383], [-117.133771, 32.740949]]]}}, {"type": "Feature", "properties": {"area_id": 654, "city": "San Diego", "state": "CA", "city_survey": true, "cat": "Best", "grade": "A", "label": "A11", "res": true, "com": false, "ind": false, "holc_grade": "A"}, "geometry": {"type": "Polygon", "coordinates": [[[-117.11198, 32.76848], [-117.112012, 32.768755], [-117.11212, 32.76968], [-117.1121, 32.76983], [-117.11204, 32.77025], [-117.1121, 32.77091], [-117.11248, 32.77176], [-117.11254, 32.77252], [-117.11214, 32.77339], [-117.11149, 32.77339], [-117.11107, 32.77339], [-117.11097, 32.77335], [-117.1106, 32.77323], [-117.11025, 32.77303], [-117.1098, 32.77283], [-117.10957, 32.77284], [-117.1094, 32.77288], [-117.10932, 32.77311], [-117.10936, 32.77342], [-117.10963, 32.77396], [-117.10987, 32.77467], [-117.10995, 32.77499], [-117.10984, 32.77539], [-117.10978, 32.77572], [-117.10936, 32.77607], [-117.10894, 32.7763], [-117.10847, 32.77649], [-117.10801, 32.77662], [-117.1074, 32.77662], [-117.10672, 32.77654], [-117.1059, 32.77634], [-117.10571, 32.77602], [-117.10501, 32.77582], [-117.10445, 32.77578], [-117.104, 32.7758], [-117.10345, 32.77591], [-117.10312, 32.77604], [-117.10259, 32.77593], [-117.10212, 32.7757], [-117.10194, 32.77542], [-117.10194, 32.77502], [-117.10212, 32.77476], [-117.10282, 32.77395], [-117.10293, 32.77339], [-117.10288, 32.77326], [-117.10265, 32.77319], [-117.10232, 32.77326], [-117.1021, 32.77332], [-117.10145, 32.77347], [-117.10105, 32.77371], [-117.10044, 32.77385], [-117.10012, 32.77387], [-117.09957, 32.77367], [-117.09938, 32.7735], [-117.09926, 32.77297], [-117.09913, 32.77236], [-117.09888, 32.77208], [-117.09843, 32.77171], [-117.09788, 32.77105], [-117.0977, 32.7706], [-117.09782, 32.77043], [-117.09814, 32.77024], [-117.09886, 32.77014], [-117.10046, 32.76961], [-117.10056, 32.76945], [-117.10039, 32.7691], [-117.1001, 32.76889], [-117.09966, 32.76873], [-117.09881, 32.76845], [-117.09831, 32.76827], [-117.09799, 32.76814], [-117.09778, 32.7679], [-117.09729, 32.76728], [-117.10164, 32.7675], [-117.10493, 32.76765], [-117.10603, 32.76774], [-117.10704, 32.76777], [-117.1085, 32.76774], [-117.1099, 32.76759], [-117.111239, 32.767445], [-117.11165, 32.7674], [-117.11198, 32.76848]]]}}, {"type": "Feature", "properties": {"area_id": 653, "city": "San Diego", "state": "CA", "city_survey": true, "cat": "Best", "grade": "A", "label": "A12", "res": true, "com": false, "ind": false, "holc_grade": "A"}, "geometry": {"type": "Polygon", "coordinates": [[[-117.09194, 32.75877], [-117.100142, 32.758973], [-117.101038, 32.758996], [-117.10242, 32.75903], [-117.10221, 32.76534], [-117.10221, 32.76616], [-117.10212, 32.7664], [-117.10194, 32.76651], [-117.10172, 32.76678], [-117.10158, 32.76701], [-117.10164, 32.7675], [-117.09729, 32.76728], [-117.097002, 32.766971], [-117.09687, 32.76683], [-117.0966, 32.76667], [-117.09601, 32.76662], [-117.09628, 32.7678], [-117.09669, 32.76888], [-117.0968, 32.76989], [-117.09695, 32.77089], [-117.09709, 32.77191], [-117.09642, 32.77191], [-117.09585, 32.77167], [-117.09505, 32.77129], [-117.09421, 32.77101], [-117.09357, 32.77077], [-117.0925, 32.77009], [-117.09148, 32.76946], [-117.09093, 32.76928], [-117.08974, 32.76886], [-117.08926, 32.768797], [-117.08837, 32.76868], [-117.088363, 32.768307], [-117.0883, 32.76504], [-117.0884, 32.76288], [-117.08875, 32.76258], [-117.0899, 32.76273], [-117.08987, 32.76271], [-117.08955, 32.76245], [-117.0905, 32.76219], [-117.09109, 32.76176], [-117.09145, 32.76108], [-117.09145, 32.76016], [-117.09158, 32.75935], [-117.09177, 32.759045], [-117.09194, 32.75877]]]}}, {"type": "Feature", "properties": {"area_id": 682, "city": "San Diego", "state": "CA", "city_survey": true, "cat": "Best", "grade": "A", "label": "A13", "res": true, "com": false, "ind": false, "holc_grade": "A"}, "geometry": {"type": "Polygon", "coordinates": [[[-117.09194, 32.75877], [-117.09177, 32.759045], [-117.09158, 32.75935], [-117.09145, 32.76016], [-117.09145, 32.76108], [-117.09109, 32.76176], [-117.0905, 32.76219], [-117.08955, 32.76245], [-117.08987, 32.76271], [-117.0899, 32.76273], [-117.08875, 32.76258], [-117.089024, 32.759034], [-117.08904, 32.75883], [-117.09194, 32.75877]]]}}, {"type": "Feature", "properties": {"area_id": 656, "city": "San Diego", "state": "CA", "city_survey": true, "cat": "Best", "grade": "A", "label": "A14", "res": true, "com": false, "ind": false, "holc_grade": "A"}, "geometry": {"type": "Polygon", "coordinates": [[[-117.071808, 32.759066], [-117.07269, 32.75895], [-117.07522, 32.75862], [-117.07501, 32.76282], [-117.0708, 32.76276], [-117.07047, 32.76278], [-117.07016, 32.76302], [-117.0698, 32.76358], [-117.06933, 32.76418], [-117.06899, 32.76466], [-117.06878, 32.76512], [-117.0684, 32.7653], [-117.06766, 32.76532], [-117.06757, 32.76642], [-117.06783, 32.7665], [-117.06833, 32.76664], [-117.06878, 32.76676], [-117.0693, 32.76694], [-117.06959, 32.76726], [-117.06968, 32.76765], [-117.06963, 32.76823], [-117.06906, 32.76875], [-117.068767, 32.768894], [-117.06857, 32.76899], [-117.06778, 32.76917], [-117.06726, 32.76917], [-117.0669, 32.76915], [-117.06652, 32.76913], [-117.06593, 32.76899], [-117.06631, 32.76644], [-117.06628, 32.76458], [-117.06624, 32.76188], [-117.06703, 32.761475], [-117.070432, 32.75973], [-117.0717, 32.75908], [-117.071808, 32.759066]]]}}, {"type": "Feature", "properties": {"area_id": 700, "city": "San Diego", "state": "CA", "city_survey": true, "cat": "Best", "grade": "A", "label": "A2", "res": true, "com": false, "ind": false, "holc_grade": "A"}, "geometry": {"type": "Polygon", "coordinates": [[[-117.281531, 32.836561], [-117.281568, 32.836776], [-117.28163, 32.83714], [-117.281738, 32.837431], [-117.28189, 32.83784], [-117.28204, 32.83881], [-117.28199, 32.83917], [-117.2818, 32.84055], [-117.2813, 32.84133], [-117.28123, 32.84193], [-117.28101, 32.84265], [-117.28059, 32.84309], [-117.27957, 32.84404], [-117.27947, 32.84354], [-117.27975, 32.84283], [-117.2802, 32.84244], [-117.28043, 32.84228], [-117.28044, 32.84206], [-117.28035, 32.84191], [-117.27955, 32.84143], [-117.27969, 32.8409], [-117.28, 32.84057], [-117.2803, 32.84032], [-117.28036, 32.84015], [-117.28027, 32.8398], [-117.279199, 32.837335], [-117.27918, 32.83729], [-117.279182, 32.837279], [-117.279188, 32.837241], [-117.27938, 32.83606], [-117.27915, 32.83543], [-117.27883, 32.83502], [-117.27845, 32.83439], [-117.27812, 32.83376], [-117.27786, 32.83245], [-117.28159, 32.83168], [-117.28168, 32.83208], [-117.28182, 32.83368], [-117.281805, 32.834388], [-117.2818, 32.8346], [-117.28161, 32.83536], [-117.281577, 32.835546], [-117.28151, 32.83592], [-117.28149, 32.83632], [-117.281531, 32.836561]]]}}, {"type": "Feature", "properties": {"area_id": 690, "city": "San Diego", "state": "CA", "city_survey": true, "cat": "Best", "grade": "A", "label": "A3", "res": true, "com": false, "ind": false, "holc_grade": "A"}, "geometry": {"type": "Polygon", "coordinates": [[[-117.26621, 32.82445], [-117.27023, 32.82474], [-117.26911, 32.82581], [-117.26832, 32.82692], [-117.2669, 32.82849], [-117.2627, 32.83302], [-117.262429, 32.833313], [-117.26186, 32.83393], [-117.26163, 32.83332], [-117.261625, 32.833307], [-117.25966, 32.82802], [-117.26621, 32.82445]]]}}, {"type": "Feature", "properties": {"area_id": 689, "city": "San Diego", "state": "CA", "city_survey": true, "cat": "Best", "grade": "A", "label": "A4", "res": true, "com": false, "ind": false, "holc_grade": "A"}, "geometry": {"type": "Polygon", "coordinates": [[[-117.27513, 32.81836], [-117.275297, 32.818387], [-117.275523, 32.818422], [-117.27576, 32.81846], [-117.275914, 32.818526], [-117.276269, 32.818678], [-117.27639, 32.81873], [-117.276676, 32.818928], [-117.27688, 32.81907], [-117.276915, 32.819115], [-117.277013, 32.819241], [-117.2773, 32.81961], [-117.27741, 32.81995], [-117.27772, 32.82014], [-117.27838, 32.8203], [-117.278698, 32.820363], [-117.27899, 32.82042], [-117.27951, 32.82074], [-117.279517, 32.820748], [-117.27973, 32.821], [-117.28008, 32.82124], [-117.28021, 32.82166], [-117.28013, 32.82191], [-117.27989, 32.82231], [-117.27989, 32.82266], [-117.27983, 32.82303], [-117.27514, 32.82386], [-117.272701, 32.824297], [-117.27023, 32.82474], [-117.26621, 32.82445], [-117.26457, 32.81973], [-117.26431, 32.81899], [-117.26699, 32.81857], [-117.267417, 32.8185], [-117.26901, 32.81824], [-117.27308, 32.81732], [-117.27338, 32.81753], [-117.273495, 32.817633], [-117.27395, 32.81804], [-117.27454, 32.8184], [-117.27513, 32.81836]]]}}, {"type": "Feature", "properties": {"area_id": 668, "city": "San Diego", "state": "CA", "city_survey": true, "cat": "Best", "grade": "A", "label": "A5", "res": true, "com": false, "ind": false, "holc_grade": "A"}, "geometry": {"type": "Polygon", "coordinates": [[[-117.2263, 32.73154], [-117.229, 32.73333], [-117.22652, 32.73632], [-117.226591, 32.736367], [-117.22962, 32.73839], [-117.2282, 32.73898], [-117.22768, 32.73947], [-117.22717, 32.73994], [-117.22666, 32.74034], [-117.22607, 32.74054], [-117.22536, 32.74072], [-117.22763, 32.74267], [-117.22837, 32.74314], [-117.22791, 32.74365], [-117.22765, 32.74406], [-117.22628, 32.74563], [-117.22261, 32.74974], [-117.21666, 32.74603], [-117.21654, 32.74621], [-117.21618, 32.74643], [-117.21574, 32.74662], [-117.2154, 32.74681], [-117.21485, 32.74721], [-117.21399, 32.74661], [-117.21386, 32.74624], [-117.213796, 32.746072], [-117.21375, 32.74595], [-117.21356, 32.74571], [-117.21325, 32.74545], [-117.2128, 32.74545], [-117.21255, 32.7455], [-117.212276, 32.744546], [-117.21226, 32.74449], [-117.2124, 32.74433], [-117.212489, 32.744225], [-117.22122, 32.73392], [-117.2232, 32.73522], [-117.2263, 32.73154]]]}}, {"type": "Feature", "properties": {"area_id": 673, "city": "San Diego", "state": "CA", "city_survey": true, "cat": "Best", "grade": "A", "label": "A6", "res": true, "com": false, "ind": false, "holc_grade": "A"}, "geometry": {"type": "Polygon", "coordinates": [[[-117.23862, 32.72355], [-117.23829, 32.72491], [-117.23654, 32.72465], [-117.236224, 32.724437], [-117.235599, 32.724014], [-117.234008, 32.722941], [-117.2326, 32.72199], [-117.232632, 32.721951], [-117.23394, 32.72033], [-117.23639, 32.71861], [-117.23713, 32.71789], [-117.23756, 32.71715], [-117.24032, 32.70791], [-117.241596, 32.707862], [-117.24243, 32.70783], [-117.242347, 32.708173], [-117.23862, 32.72355]]]}}, {"type": "Feature", "properties": {"area_id": 666, "city": "San Diego", "state": "CA", "city_survey": true, "cat": "Best", "grade": "A", "label": "A7", "res": true, "com": false, "ind": false, "holc_grade": "A"}, "geometry": {"type": "Polygon", "coordinates": [[[-117.193345, 32.755911], [-117.19139, 32.75843], [-117.19222, 32.75907], [-117.191818, 32.759076], [-117.19159, 32.75908], [-117.188712, 32.758743], [-117.1874, 32.75859], [-117.187195, 32.758568], [-117.18282, 32.75809], [-117.18207, 32.75796], [-117.18187, 32.75778], [-117.18167, 32.75733], [-117.18426, 32.75544], [-117.18505, 32.75433], [-117.18684, 32.75548], [-117.1897, 32.75194], [-117.1942, 32.75481], [-117.193957, 32.755123], [-117.193574, 32.755616], [-117.193345, 32.755911]]]}}, {"type": "Feature", "properties": {"area_id": 632, "city": "San Diego", "state": "CA", "city_survey": true, "cat": "Best", "grade": "A", "label": "A8", "res": true, "com": false, "ind": false, "holc_grade": "A"}, "geometry": {"type": "Polygon", "coordinates": [[[-117.175659, 32.680614], [-117.17769, 32.67959], [-117.17793, 32.67929], [-117.17807, 32.67925], [-117.17874, 32.67957], [-117.17933, 32.68035], [-117.18071, 32.68129], [-117.18154, 32.68219], [-117.18202, 32.68247], [-117.18461, 32.68389], [-117.18708, 32.68508], [-117.19072, 32.6866], [-117.18544, 32.69538], [-117.185424, 32.695373], [-117.185081, 32.695216], [-117.1843, 32.69486], [-117.187636, 32.689164], [-117.18765, 32.68914], [-117.18594, 32.68845], [-117.18423, 32.68776], [-117.184245, 32.687736], [-117.18451, 32.6873], [-117.18435, 32.68698], [-117.18406, 32.68664], [-117.18385, 32.68642], [-117.1838, 32.68602], [-117.18389, 32.68588], [-117.18216, 32.68542], [-117.1808, 32.68399], [-117.18019, 32.68237], [-117.17833, 32.68245], [-117.17771, 32.68215], [-117.17717, 32.68179], [-117.17691, 32.68113], [-117.17565, 32.68225], [-117.17684, 32.68285], [-117.17667, 32.68295], [-117.1766, 32.68319], [-117.17617, 32.68345], [-117.17572, 32.68363], [-117.17536, 32.68395], [-117.17524, 32.68434], [-117.175233, 32.684379], [-117.17517, 32.68476], [-117.17498, 32.68514], [-117.17474, 32.68548], [-117.17408, 32.68574], [-117.17275, 32.68588], [-117.17325, 32.68484], [-117.17332, 32.68442], [-117.17329, 32.68377], [-117.17213, 32.68424], [-117.17201, 32.68474], [-117.17168, 32.68544], [-117.17137, 32.68582], [-117.17096, 32.68612], [-117.17049, 32.68638], [-117.17013, 32.68646], [-117.171103, 32.689346], [-117.17135, 32.69008], [-117.17085, 32.69098], [-117.169513, 32.690468], [-117.16923, 32.69036], [-117.16916, 32.68928], [-117.16899, 32.68846], [-117.16852, 32.68764], [-117.16802, 32.68664], [-117.16735, 32.6862], [-117.16726, 32.68542], [-117.16733, 32.68403], [-117.16747, 32.68341], [-117.16778, 32.68285], [-117.16811, 32.68177], [-117.16802, 32.68113], [-117.16799, 32.68019], [-117.16807, 32.67983], [-117.16835, 32.67953], [-117.1693, 32.67985], [-117.16992, 32.68011], [-117.17066, 32.68085], [-117.171366, 32.681391], [-117.17173, 32.68167], [-117.17318, 32.68225], [-117.173555, 32.682316], [-117.17375, 32.68235], [-117.17448, 32.68229], [-117.17491, 32.68199], [-117.17522, 32.68155], [-117.17539, 32.68133], [-117.175431, 32.681139], [-117.175474, 32.680938], [-117.17548, 32.68091], [-117.17543, 32.68073], [-117.17552, 32.680685], [-117.175659, 32.680614]], [[-117.16828, 32.68247], [-117.16821, 32.68277], [-117.16821, 32.68289], [-117.16835, 32.68309], [-117.16866, 32.68323], [-117.16894, 32.68333], [-117.16937, 32.68333], [-117.1698, 32.68323], [-117.16999, 32.68303], [-117.17028, 32.68285], [-117.17037, 32.68247], [-117.17042, 32.68219], [-117.1703, 32.68189], [-117.17023, 32.68173], [-117.16997, 32.68149], [-117.16968, 32.68143], [-117.16918, 32.68135], [-117.16892, 32.68143], [-117.16871, 32.68157], [-117.16849, 32.68177], [-117.1683, 32.68213], [-117.16828, 32.68247]]]}}, {"type": "Feature", "properties": {"area_id": 664, "city": "San Diego", "state": "CA", "city_survey": true, "cat": "Best", "grade": "A", "label": "A9", "res": true, "com": false, "ind": false, "holc_grade": "A"}, "geometry": {"type": "Polygon", "coordinates": [[[-117.15579, 32.74064], [-117.155751, 32.741088], [-117.15565, 32.74223], [-117.15529, 32.74268], [-117.15485, 32.74287], [-117.15425, 32.74326], [-117.14925, 32.74331], [-117.149181, 32.741149], [-117.14917, 32.74081], [-117.15579, 32.74064]]]}}, {"type": "Feature", "properties": {"area_id": 703, "city": "San Diego", "state": "CA", "city_survey": true, "cat": "Still Desirable", "grade": "B", "label": null, "res": true, "com": false, "ind": false, "holc_grade": "B"}, "geometry": {"type": "Polygon", "coordinates": [[[-117.23959, 32.78219], [-117.239771, 32.783066], [-117.23995, 32.78393], [-117.240084, 32.785028], [-117.240089, 32.785062], [-117.24013, 32.7854], [-117.240178, 32.785495], [-117.24084, 32.78681], [-117.24134, 32.78786], [-117.24163, 32.78929], [-117.24284, 32.79037], [-117.24366, 32.79067], [-117.24483, 32.79106], [-117.24665, 32.79136], [-117.24883, 32.79124], [-117.24961, 32.79067], [-117.250126, 32.790473], [-117.25079, 32.79022], [-117.25244, 32.78994], [-117.25331, 32.78973], [-117.253766, 32.790916], [-117.25411, 32.79181], [-117.244929, 32.793933], [-117.237585, 32.79563], [-117.23391, 32.79648], [-117.23358, 32.7955], [-117.23189, 32.7958], [-117.231876, 32.795764], [-117.23115, 32.7939], [-117.231022, 32.793448], [-117.230918, 32.793078], [-117.23089, 32.79298], [-117.231128, 32.792191], [-117.231175, 32.792038], [-117.23118, 32.79202], [-117.23146, 32.79112], [-117.23193, 32.79016], [-117.232317, 32.789844], [-117.23296, 32.78932], [-117.23364, 32.78837], [-117.233842, 32.787891], [-117.23407, 32.78735], [-117.234007, 32.787011], [-117.23382, 32.786], [-117.23368, 32.78486], [-117.23368, 32.78363], [-117.23389, 32.78234], [-117.234, 32.78156], [-117.23453, 32.7809], [-117.23503, 32.77973], [-117.235099, 32.779328], [-117.23517, 32.77892], [-117.23567, 32.77859], [-117.235801, 32.778602], [-117.236259, 32.778645], [-117.23663, 32.77868], [-117.23767, 32.77928], [-117.23899, 32.78054], [-117.23959, 32.78219]]]}}, {"type": "Feature", "properties": {"area_id": 704, "city": "San Diego", "state": "CA", "city_survey": true, "cat": "Still Desirable", "grade": "B", "label": null, "res": true, "com": false, "ind": false, "holc_grade": "B"}, "geometry": {"type": "Polygon", "coordinates": [[[-117.246967, 32.707789], [-117.24914, 32.70777], [-117.24572, 32.72088], [-117.23862, 32.72355], [-117.242347, 32.708173], [-117.24243, 32.70783], [-117.243204, 32.707823], [-117.244482, 32.707812], [-117.246967, 32.707789]]]}}, {"type": "Feature", "properties": {"area_id": 705, "city": "San Diego", "state": "CA", "city_survey": true, "cat": "Still Desirable", "grade": "B", "label": null, "res": true, "com": false, "ind": false, "holc_grade": "B"}, "geometry": {"type": "Polygon", "coordinates": [[[-117.25746, 32.7198], [-117.25746, 32.7226], [-117.257512, 32.723141], [-117.25755, 32.72354], [-117.25777, 32.72456], [-117.257768, 32.724584], [-117.257754, 32.724771], [-117.25769, 32.72562], [-117.257473, 32.725851], [-117.25722, 32.72612], [-117.256902, 32.726348], [-117.256767, 32.726444], [-117.256572, 32.726584], [-117.25627, 32.7268], [-117.25586, 32.72736], [-117.255863, 32.727405], [-117.255893, 32.727807], [-117.25591, 32.72804], [-117.255921, 32.728059], [-117.255996, 32.728195], [-117.256408, 32.728936], [-117.25641, 32.72894], [-117.256573, 32.729274], [-117.256675, 32.729482], [-117.25684, 32.72982], [-117.256844, 32.729841], [-117.256982, 32.730563], [-117.25702, 32.730767], [-117.257059, 32.730971], [-117.25708, 32.73108], [-117.257043, 32.73126], [-117.257001, 32.731457], [-117.256964, 32.731637], [-117.25693, 32.7318], [-117.25662, 32.7324], [-117.25665, 32.73284], [-117.25693, 32.73346], [-117.256871, 32.733664], [-117.256631, 32.7345], [-117.25662, 32.73454], [-117.256574, 32.734723], [-117.25629, 32.73584], [-117.256162, 32.736015], [-117.25564, 32.73673], [-117.24978, 32.73303], [-117.24806, 32.7319], [-117.24379, 32.72918], [-117.24524, 32.72366], [-117.25289, 32.72514], [-117.25323, 32.72474], [-117.25339, 32.72406], [-117.25356, 32.72314], [-117.25356, 32.72238], [-117.25356, 32.72192], [-117.25372, 32.72128], [-117.25392, 32.72086], [-117.25415, 32.72042], [-117.25425, 32.7199], [-117.25418, 32.71944], [-117.25422, 32.71916], [-117.257397, 32.719788], [-117.25746, 32.7198]]]}}, {"type": "Feature", "properties": {"area_id": 709, "city": "San Diego", "state": "CA", "city_survey": true, "cat": "Still Desirable", "grade": "B", "label": null, "res": true, "com": false, "ind": false, "holc_grade": "B"}, "geometry": {"type": "Polygon", "coordinates": [[[-117.05677, 32.75497], [-117.06219, 32.75337], [-117.062342, 32.753505], [-117.06309, 32.75417], [-117.06385, 32.75501], [-117.06456, 32.75593], [-117.06494, 32.75685], [-117.06504, 32.75829], [-117.05796, 32.75829], [-117.05778, 32.76618], [-117.05567, 32.7665], [-117.05417, 32.76668], [-117.05386, 32.76682], [-117.05365, 32.76716], [-117.05341, 32.76752], [-117.052575, 32.767532], [-117.05069, 32.76756], [-117.050705, 32.766013], [-117.05073, 32.76333], [-117.04945, 32.76325], [-117.04945, 32.75973], [-117.05301, 32.75961], [-117.05335, 32.75937], [-117.05335, 32.755816], [-117.05335, 32.75533], [-117.053757, 32.755314], [-117.05434, 32.75529], [-117.05539, 32.75529], [-117.05677, 32.75497]]]}}, {"type": "Feature", "properties": {"area_id": 697, "city": "San Diego", "state": "CA", "city_survey": true, "cat": "Still Desirable", "grade": "B", "label": "B1", "res": true, "com": false, "ind": false, "holc_grade": "B"}, "geometry": {"type": "Polygon", "coordinates": [[[-117.26406, 32.84954], [-117.263717, 32.84992], [-117.26222, 32.851578], [-117.26201, 32.85181], [-117.26104, 32.85271], [-117.2602, 32.85379], [-117.25953, 32.85486], [-117.25798, 32.85753], [-117.25653, 32.85979], [-117.255525, 32.861425], [-117.2549, 32.86244], [-117.25332, 32.8625], [-117.25372, 32.85401], [-117.25382, 32.85227], [-117.25424, 32.85098], [-117.25473, 32.85056], [-117.255361, 32.850295], [-117.25566, 32.85017], [-117.255906, 32.850136], [-117.25631, 32.85008], [-117.25745, 32.85001], [-117.25842, 32.84996], [-117.2594, 32.849808], [-117.25945, 32.8498], [-117.26008, 32.84968], [-117.260355, 32.849723], [-117.26065, 32.84977], [-117.26123, 32.84972], [-117.26189, 32.84954], [-117.2626, 32.84908], [-117.26343, 32.84866], [-117.26386, 32.84862], [-117.264043, 32.849462], [-117.26406, 32.84954]]]}}, {"type": "Feature", "properties": {"area_id": 672, "city": "San Diego", "state": "CA", "city_survey": true, "cat": "Still Desirable", "grade": "B", "label": "B10", "res": true, "com": false, "ind": false, "holc_grade": "B"}, "geometry": {"type": "Polygon", "coordinates": [[[-117.23689, 32.70757], [-117.236934, 32.707571], [-117.239982, 32.707623], [-117.24041, 32.70763], [-117.24032, 32.70791], [-117.23756, 32.71715], [-117.23713, 32.71789], [-117.23639, 32.71861], [-117.23394, 32.72033], [-117.232632, 32.721951], [-117.2326, 32.72199], [-117.231741, 32.721415], [-117.2316, 32.72132], [-117.23269, 32.72014], [-117.23113, 32.71914], [-117.23394, 32.71783], [-117.23458, 32.71753], [-117.234927, 32.716908], [-117.23575, 32.71543], [-117.235755, 32.715424], [-117.23606, 32.71507], [-117.23611, 32.71467], [-117.236067, 32.714619], [-117.23582, 32.71433], [-117.235442, 32.713972], [-117.23508, 32.71363], [-117.23508, 32.713595], [-117.23508, 32.71327], [-117.23558, 32.71251], [-117.236314, 32.711583], [-117.23653, 32.71131], [-117.23672, 32.71033], [-117.236721, 32.710309], [-117.23689, 32.70757]]]}}, {"type": "Feature", "properties": {"area_id": 665, "city": "San Diego", "state": "CA", "city_survey": true, "cat": "Still Desirable", "grade": "B", "label": "B11", "res": true, "com": false, "ind": false, "holc_grade": "B"}, "geometry": {"type": "Polygon", "coordinates": [[[-117.17986, 32.74265], [-117.181654, 32.743773], [-117.185502, 32.746181], [-117.189793, 32.748866], [-117.19015, 32.74909], [-117.19052, 32.74999], [-117.190606, 32.750145], [-117.19083, 32.75055], [-117.19126, 32.75099], [-117.19196, 32.75128], [-117.19257, 32.751335], [-117.1933, 32.7514], [-117.19568, 32.75294], [-117.194596, 32.754309], [-117.1942, 32.75481], [-117.1897, 32.75194], [-117.18684, 32.75548], [-117.18505, 32.75433], [-117.18426, 32.75544], [-117.18167, 32.75733], [-117.18161, 32.75665], [-117.18132, 32.75639], [-117.18071, 32.75613], [-117.17987, 32.75601], [-117.17897, 32.75602], [-117.178865, 32.756006], [-117.17844, 32.75595], [-117.17801, 32.75591], [-117.17781, 32.75603], [-117.17745, 32.75665], [-117.1771, 32.75698], [-117.17672, 32.75716], [-117.17624, 32.7571], [-117.17597, 32.75692], [-117.17595, 32.75665], [-117.17597, 32.75617], [-117.17564, 32.75564], [-117.17534, 32.75554], [-117.17463, 32.75567], [-117.1742, 32.75576], [-117.17403, 32.75599], [-117.17391, 32.75626], [-117.174, 32.75723], [-117.17376, 32.75737], [-117.17342, 32.75751], [-117.17286, 32.75763], [-117.17195, 32.75739], [-117.17149, 32.75718], [-117.17105, 32.75679], [-117.17046, 32.75672], [-117.17044, 32.75004], [-117.17127, 32.75005], [-117.17127, 32.749843], [-117.17127, 32.74891], [-117.168642, 32.74892], [-117.16614, 32.74893], [-117.16612, 32.74687], [-117.16763, 32.74685], [-117.16782, 32.7466], [-117.16753, 32.74571], [-117.16753, 32.745676], [-117.16753, 32.74428], [-117.16785, 32.74422], [-117.16818, 32.74388], [-117.16853, 32.74298], [-117.16852, 32.74245], [-117.1686, 32.74219], [-117.16897, 32.74207], [-117.16929, 32.7421], [-117.16967, 32.74229], [-117.16987, 32.74221], [-117.17023, 32.74231], [-117.17027, 32.74216], [-117.1701, 32.74187], [-117.16973, 32.74153], [-117.16923, 32.74083], [-117.169206, 32.740775], [-117.16906, 32.74044], [-117.17447, 32.74054], [-117.175249, 32.740341], [-117.175369, 32.74031], [-117.17725, 32.73983], [-117.17756, 32.73967], [-117.177864, 32.740063], [-117.17986, 32.74265]]]}}, {"type": "Feature", "properties": {"area_id": 661, "city": "San Diego", "state": "CA", "city_survey": true, "cat": "Still Desirable", "grade": "B", "label": "B12", "res": true, "com": false, "ind": false, "holc_grade": "B"}, "geometry": {"type": "Polygon", "coordinates": [[[-117.16487, 32.73767], [-117.16578, 32.73767], [-117.16573, 32.73675], [-117.16399, 32.73679], [-117.16395, 32.73239], [-117.16673, 32.73237], [-117.16692, 32.73547], [-117.16825, 32.73551], [-117.1683, 32.73495], [-117.1683, 32.73463], [-117.16844, 32.73431], [-117.16868, 32.73421], [-117.1688, 32.73437], [-117.16899, 32.73463], [-117.16896, 32.73529], [-117.16908, 32.73619], [-117.1692, 32.73667], [-117.16946, 32.73693], [-117.169904, 32.737226], [-117.16994, 32.73725], [-117.17006, 32.73759], [-117.17155, 32.73751], [-117.17165, 32.73709], [-117.17208, 32.73615], [-117.172, 32.73585], [-117.17132, 32.73513], [-117.17084, 32.73455], [-117.17015, 32.73271], [-117.17133, 32.73251], [-117.17135, 32.73313], [-117.17725, 32.73983], [-117.175369, 32.74031], [-117.175249, 32.740341], [-117.17447, 32.74054], [-117.16906, 32.74044], [-117.169052, 32.74044], [-117.16497, 32.74037], [-117.16487, 32.73767]]]}}, {"type": "Feature", "properties": {"area_id": 631, "city": "San Diego", "state": "CA", "city_survey": true, "cat": "Still Desirable", "grade": "B", "label": "B13", "res": true, "com": false, "ind": false, "holc_grade": "B"}, "geometry": {"type": "Polygon", "coordinates": [[[-117.1799, 32.68438], [-117.17928, 32.68399], [-117.17893, 32.68373], [-117.17833, 32.68245], [-117.18019, 32.68237], [-117.1808, 32.68399], [-117.18216, 32.68542], [-117.18389, 32.68588], [-117.1838, 32.68602], [-117.18385, 32.68642], [-117.18406, 32.68664], [-117.18435, 32.68698], [-117.18451, 32.6873], [-117.184245, 32.687736], [-117.18423, 32.68776], [-117.18594, 32.68845], [-117.18765, 32.68914], [-117.187636, 32.689164], [-117.1843, 32.69486], [-117.185081, 32.695216], [-117.185424, 32.695373], [-117.18544, 32.69538], [-117.183857, 32.698078], [-117.18199, 32.70126], [-117.181896, 32.701388], [-117.18083, 32.70284], [-117.180603, 32.702727], [-117.179505, 32.702181], [-117.1789, 32.70188], [-117.178705, 32.701853], [-117.17802, 32.70176], [-117.17695, 32.70162], [-117.17622, 32.70152], [-117.17375, 32.70062], [-117.173778, 32.700585], [-117.17482, 32.69928], [-117.17619, 32.69684], [-117.1785, 32.69786], [-117.17928, 32.69636], [-117.174808, 32.694516], [-117.17472, 32.69448], [-117.17386, 32.69588], [-117.17096, 32.69466], [-117.17096, 32.69404], [-117.17082, 32.69368], [-117.17051, 32.6934], [-117.17025, 32.69324], [-117.16997, 32.69324], [-117.16968, 32.69326], [-117.1693, 32.69354], [-117.16899, 32.6937], [-117.16768, 32.69314], [-117.16797, 32.69272], [-117.16818, 32.69206], [-117.168385, 32.691756], [-117.16845, 32.69166], [-117.16887, 32.6911], [-117.16923, 32.69036], [-117.169513, 32.690468], [-117.17085, 32.69098], [-117.17135, 32.69008], [-117.171103, 32.689346], [-117.17013, 32.68646], [-117.17049, 32.68638], [-117.17096, 32.68612], [-117.17137, 32.68582], [-117.17168, 32.68544], [-117.17201, 32.68474], [-117.17213, 32.68424], [-117.17329, 32.68377], [-117.17332, 32.68442], [-117.17325, 32.68484], [-117.17275, 32.68588], [-117.17408, 32.68574], [-117.17474, 32.68548], [-117.17498, 32.68514], [-117.17517, 32.68476], [-117.175233, 32.684379], [-117.17524, 32.68434], [-117.17536, 32.68395], [-117.17572, 32.68363], [-117.17617, 32.68345], [-117.1766, 32.68319], [-117.17667, 32.68295], [-117.17684, 32.68285], [-117.178902, 32.6855], [-117.17912, 32.68578], [-117.17662, 32.68984], [-117.17612, 32.6897], [-117.175298, 32.691107], [-117.17529, 32.69112], [-117.176493, 32.691612], [-117.177731, 32.692118], [-117.17974, 32.69294], [-117.18064, 32.69162], [-117.17798, 32.6904], [-117.18049, 32.686167], [-117.18085, 32.68556], [-117.18071, 32.68534], [-117.18038, 32.68474], [-117.1799, 32.68438]]]}}, {"type": "Feature", "properties": {"area_id": 678, "city": "San Diego", "state": "CA", "city_survey": true, "cat": "Still Desirable", "grade": "B", "label": "B14", "res": true, "com": false, "ind": false, "holc_grade": "B"}, "geometry": {"type": "Polygon", "coordinates": [[[-117.1487, 32.76084], [-117.15805, 32.76074], [-117.15673, 32.76164], [-117.15622, 32.76171], [-117.15553, 32.76185], [-117.15528, 32.76184], [-117.15494, 32.76172], [-117.15382, 32.76137], [-117.15306, 32.76153], [-117.15256, 32.76158], [-117.15237, 32.76174], [-117.15237, 32.76188], [-117.15247, 32.76211], [-117.15264, 32.76225], [-117.153, 32.76257], [-117.15304, 32.76291], [-117.15291, 32.76324], [-117.15276, 32.76335], [-117.15245, 32.7634], [-117.15215, 32.76328], [-117.15188, 32.76315], [-117.15158, 32.76299], [-117.15032, 32.76294], [-117.15019, 32.76288], [-117.1495, 32.76288], [-117.14922, 32.76276], [-117.14867, 32.76249], [-117.1487, 32.76084]]]}}, {"type": "Feature", "properties": {"area_id": 663, "city": "San Diego", "state": "CA", "city_survey": true, "cat": "Still Desirable", "grade": "B", "label": "B15", "res": true, "com": false, "ind": false, "holc_grade": "B"}, "geometry": {"type": "Polygon", "coordinates": [[[-117.15833, 32.741047], [-117.15833, 32.74331], [-117.15645, 32.74337], [-117.15637, 32.743552], [-117.1563, 32.74371], [-117.1561, 32.74403], [-117.15576, 32.74444], [-117.15516, 32.74488], [-117.14762, 32.74486], [-117.14751, 32.741169], [-117.1475, 32.74083], [-117.14917, 32.74081], [-117.149181, 32.741149], [-117.14925, 32.74331], [-117.15425, 32.74326], [-117.15485, 32.74287], [-117.15529, 32.74268], [-117.15565, 32.74223], [-117.155751, 32.741088], [-117.15579, 32.74064], [-117.15833, 32.74052], [-117.15833, 32.741047]]]}}, {"type": "Feature", "properties": {"area_id": 684, "city": "San Diego", "state": "CA", "city_survey": true, "cat": "Still Desirable", "grade": "B", "label": "B16", "res": true, "com": false, "ind": false, "holc_grade": "B"}, "geometry": {"type": "Polygon", "coordinates": [[[-117.13902, 32.7658], [-117.13904, 32.76568], [-117.13917, 32.7654], [-117.1395, 32.76471], [-117.1395, 32.76436], [-117.13936, 32.76401], [-117.13921, 32.764042], [-117.13655, 32.76461], [-117.13651, 32.76795], [-117.13645, 32.76818], [-117.13026, 32.76821], [-117.13021, 32.76468], [-117.128013, 32.764946], [-117.12798, 32.76495], [-117.128095, 32.765152], [-117.12819, 32.76532], [-117.128183, 32.765374], [-117.12812, 32.76586], [-117.12804, 32.76621], [-117.12774, 32.7665], [-117.12781, 32.76874], [-117.12133, 32.77269], [-117.12118, 32.76721], [-117.12542, 32.76734], [-117.1254, 32.76679], [-117.12551, 32.76641], [-117.12593, 32.76606], [-117.12626, 32.76569], [-117.12646, 32.76526], [-117.12638, 32.76461], [-117.12643, 32.76439], [-117.12721, 32.76439], [-117.12721, 32.76326], [-117.127426, 32.763259], [-117.139032, 32.763181], [-117.14212, 32.76316], [-117.14224, 32.76289], [-117.14239, 32.76261], [-117.14281, 32.76239], [-117.14349, 32.76239], [-117.143803, 32.762472], [-117.14387, 32.76249], [-117.14366, 32.76634], [-117.143371, 32.76634], [-117.13925, 32.76634], [-117.13919, 32.7662], [-117.13902, 32.7658]]]}}, {"type": "Feature", "properties": {"area_id": 644, "city": "San Diego", "state": "CA", "city_survey": true, "cat": "Still Desirable", "grade": "B", "label": "B17", "res": true, "com": false, "ind": false, "holc_grade": "B"}, "geometry": {"type": "Polygon", "coordinates": [[[-117.13217, 32.74097], [-117.133635, 32.741089], [-117.13377, 32.7411], [-117.137914, 32.741036], [-117.139973, 32.741005], [-117.14352, 32.74095], [-117.143533, 32.741145], [-117.14361, 32.74232], [-117.14239, 32.74235], [-117.14236, 32.74369], [-117.14236, 32.74377], [-117.13992, 32.74377], [-117.13995, 32.7475], [-117.140092, 32.748447], [-117.1401, 32.7485], [-117.137569, 32.7485], [-117.12644, 32.7485], [-117.1233, 32.7485], [-117.123298, 32.748494], [-117.12199, 32.74492], [-117.12187, 32.74112], [-117.128039, 32.74103], [-117.13217, 32.74097]]]}}, {"type": "Feature", "properties": {"area_id": 642, "city": "San Diego", "state": "CA", "city_survey": true, "cat": "Still Desirable", "grade": "B", "label": "B18", "res": true, "com": false, "ind": false, "holc_grade": "B"}, "geometry": {"type": "Polygon", "coordinates": [[[-117.133622, 32.73383], [-117.13232, 32.73383], [-117.13232, 32.73545], [-117.13232, 32.7383], [-117.13217, 32.74097], [-117.128039, 32.74103], [-117.12187, 32.74112], [-117.12119, 32.74112], [-117.121144, 32.739242], [-117.1211, 32.73745], [-117.12033, 32.73743], [-117.12, 32.73618], [-117.12, 32.7339], [-117.12179, 32.73393], [-117.12166, 32.73048], [-117.125252, 32.730413], [-117.13077, 32.73031], [-117.133848, 32.730339], [-117.13391, 32.73034], [-117.13383, 32.73383], [-117.133622, 32.73383]]]}}, {"type": "Feature", "properties": {"area_id": 640, "city": "San Diego", "state": "CA", "city_survey": true, "cat": "Still Desirable", "grade": "B", "label": "B19", "res": true, "com": false, "ind": false, "holc_grade": "B"}, "geometry": {"type": "Polygon", "coordinates": [[[-117.13084, 32.71901], [-117.13373, 32.71901], [-117.13374, 32.71945], [-117.133868, 32.727653], [-117.133873, 32.727983], [-117.133899, 32.729626], [-117.13391, 32.73034], [-117.133848, 32.730339], [-117.13077, 32.73031], [-117.130774, 32.729654], [-117.13084, 32.71901]]]}}, {"type": "Feature", "properties": {"area_id": 693, "city": "San Diego", "state": "CA", "city_survey": true, "cat": "Still Desirable", "grade": "B", "label": "B2", "res": true, "com": false, "ind": false, "holc_grade": "B"}, "geometry": {"type": "Polygon", "coordinates": [[[-117.27953, 32.84543], [-117.27972, 32.84643], [-117.2797, 32.84679], [-117.278842, 32.846926], [-117.27882, 32.84693], [-117.27795, 32.84728], [-117.2772, 32.84771], [-117.2761, 32.84888], [-117.27509, 32.8498], [-117.27464, 32.85013], [-117.27414, 32.85047], [-117.27379, 32.85054], [-117.27351, 32.85052], [-117.27351, 32.85041], [-117.27351, 32.8502], [-117.27323, 32.85], [-117.27311, 32.84993], [-117.2737, 32.84965], [-117.27392, 32.84942], [-117.27427, 32.84877], [-117.2744, 32.84853], [-117.27436, 32.84805], [-117.27437, 32.84783], [-117.27484, 32.8474], [-117.27564, 32.84635], [-117.27582, 32.84624], [-117.27604, 32.84617], [-117.27631, 32.84605], [-117.27652, 32.84578], [-117.27665, 32.84545], [-117.2767, 32.84507], [-117.27653, 32.84454], [-117.27541, 32.84146], [-117.27916, 32.84077], [-117.27938, 32.84141], [-117.27955, 32.84143], [-117.28035, 32.84191], [-117.28044, 32.84206], [-117.28043, 32.84228], [-117.2802, 32.84244], [-117.27975, 32.84283], [-117.27947, 32.84354], [-117.27957, 32.84404], [-117.27953, 32.844238], [-117.27948, 32.84449], [-117.27953, 32.84543]]]}}, {"type": "Feature", "properties": {"area_id": 683, "city": "San Diego", "state": "CA", "city_survey": true, "cat": "Still Desirable", "grade": "B", "label": "B20", "res": true, "com": false, "ind": false, "holc_grade": "B"}, "geometry": {"type": "Polygon", "coordinates": [[[-117.11212, 32.76968], [-117.112012, 32.768755], [-117.11198, 32.76848], [-117.11165, 32.7674], [-117.11327, 32.76728], [-117.116, 32.7672], [-117.12118, 32.76721], [-117.12133, 32.77269], [-117.11614, 32.77558], [-117.116183, 32.775856], [-117.1163, 32.7766], [-117.11318, 32.77681], [-117.113174, 32.776724], [-117.11309, 32.77554], [-117.11316, 32.77515], [-117.11331, 32.77448], [-117.11338, 32.7741], [-117.11331, 32.77358], [-117.11386, 32.77356], [-117.11361, 32.77197], [-117.11349, 32.76978], [-117.112259, 32.769824], [-117.1121, 32.76983], [-117.11212, 32.76968]]]}}, {"type": "Feature", "properties": {"area_id": 652, "city": "San Diego", "state": "CA", "city_survey": true, "cat": "Still Desirable", "grade": "B", "label": "B21", "res": true, "com": false, "ind": false, "holc_grade": "B"}, "geometry": {"type": "Polygon", "coordinates": [[[-117.100786, 32.756811], [-117.10146, 32.75683], [-117.10939, 32.75679], [-117.109261, 32.760828], [-117.109253, 32.761088], [-117.109184, 32.763265], [-117.10915, 32.76433], [-117.109997, 32.76537], [-117.11125, 32.76691], [-117.11165, 32.7674], [-117.111239, 32.767445], [-117.1099, 32.76759], [-117.1085, 32.76774], [-117.10704, 32.76777], [-117.10603, 32.76774], [-117.10493, 32.76765], [-117.10164, 32.7675], [-117.10158, 32.76701], [-117.10172, 32.76678], [-117.10194, 32.76651], [-117.10212, 32.7664], [-117.10221, 32.76616], [-117.10221, 32.76534], [-117.10242, 32.75903], [-117.101038, 32.758996], [-117.100142, 32.758973], [-117.09194, 32.75877], [-117.09197, 32.75656], [-117.100786, 32.756811]]]}}, {"type": "Feature", "properties": {"area_id": 655, "city": "San Diego", "state": "CA", "city_survey": true, "cat": "Still Desirable", "grade": "B", "label": "B22", "res": true, "com": false, "ind": false, "holc_grade": "B"}, "geometry": {"type": "Polygon", "coordinates": [[[-117.076299, 32.758268], [-117.07629, 32.7585], [-117.07936, 32.757975], [-117.08366, 32.75724], [-117.08365, 32.75777], [-117.087903, 32.757152], [-117.09197, 32.75656], [-117.09194, 32.75877], [-117.08904, 32.75883], [-117.089024, 32.759034], [-117.08875, 32.76258], [-117.0884, 32.76288], [-117.0883, 32.76504], [-117.087807, 32.765015], [-117.08652, 32.76495], [-117.08641, 32.76297], [-117.08281, 32.76285], [-117.08217, 32.76411], [-117.079375, 32.763997], [-117.07921, 32.76399], [-117.07811, 32.7645], [-117.07707, 32.76489], [-117.07597, 32.76489], [-117.07508, 32.76459], [-117.07469, 32.76438], [-117.07494, 32.76372], [-117.07501, 32.76282], [-117.07522, 32.75862], [-117.07269, 32.75895], [-117.072685, 32.758784], [-117.07262, 32.75676], [-117.07636, 32.75676], [-117.076299, 32.758268]]]}}, {"type": "Feature", "properties": {"area_id": 648, "city": "San Diego", "state": "CA", "city_survey": true, "cat": "Still Desirable", "grade": "B", "label": "B23", "res": true, "com": false, "ind": false, "holc_grade": "B"}, "geometry": {"type": "Polygon", "coordinates": [[[-117.09209, 32.74265], [-117.09189, 32.74266], [-117.09119, 32.74228], [-117.09088, 32.74205], [-117.09075, 32.74186], [-117.09052, 32.73927], [-117.09189, 32.7393], [-117.09209, 32.74265]]]}}, {"type": "Feature", "properties": {"area_id": 695, "city": "San Diego", "state": "CA", "city_survey": true, "cat": "Still Desirable", "grade": "B", "label": "B3", "res": true, "com": false, "ind": false, "holc_grade": "B"}, "geometry": {"type": "Polygon", "coordinates": [[[-117.26806, 32.84007], [-117.27084, 32.83973], [-117.27129, 32.84069], [-117.271319, 32.840777], [-117.27377, 32.8481], [-117.27271, 32.84878], [-117.27238, 32.84826], [-117.2724, 32.84799], [-117.27177, 32.84633], [-117.27107, 32.8463], [-117.27047, 32.8461], [-117.27007, 32.84578], [-117.26982, 32.84528], [-117.26982, 32.84513], [-117.26995, 32.84491], [-117.26852, 32.84386], [-117.268571, 32.843759], [-117.26898, 32.84294], [-117.26806, 32.84007]]]}}, {"type": "Feature", "properties": {"area_id": 691, "city": "San Diego", "state": "CA", "city_survey": true, "cat": "Still Desirable", "grade": "B", "label": "B4", "res": true, "com": false, "ind": false, "holc_grade": "B"}, "geometry": {"type": "Polygon", "coordinates": [[[-117.280104, 32.824916], [-117.28036, 32.82668], [-117.281582, 32.831645], [-117.28159, 32.83168], [-117.27786, 32.83245], [-117.27812, 32.83376], [-117.27845, 32.83439], [-117.27883, 32.83502], [-117.27915, 32.83543], [-117.27938, 32.83606], [-117.279188, 32.837241], [-117.279182, 32.837279], [-117.27918, 32.83729], [-117.279199, 32.837335], [-117.28027, 32.8398], [-117.28036, 32.84015], [-117.2803, 32.84032], [-117.28, 32.84057], [-117.27969, 32.8409], [-117.27955, 32.84143], [-117.27938, 32.84141], [-117.27916, 32.84077], [-117.278589, 32.839094], [-117.27805, 32.83751], [-117.27832, 32.83723], [-117.27835, 32.83676], [-117.27832, 32.83629], [-117.27801, 32.83557], [-117.27731, 32.83423], [-117.27371, 32.8353], [-117.27227, 32.83554], [-117.2722, 32.83516], [-117.271697, 32.832623], [-117.27145, 32.83138], [-117.272353, 32.829858], [-117.27266, 32.82934], [-117.273517, 32.827446], [-117.27514, 32.82386], [-117.27983, 32.82303], [-117.280104, 32.824916]]]}}, {"type": "Feature", "properties": {"area_id": 688, "city": "San Diego", "state": "CA", "city_survey": true, "cat": "Still Desirable", "grade": "B", "label": "B5", "res": true, "com": false, "ind": false, "holc_grade": "B"}, "geometry": {"type": "Polygon", "coordinates": [[[-117.27323, 32.81686], [-117.273168, 32.81705], [-117.27308, 32.81732], [-117.26901, 32.81824], [-117.267417, 32.8185], [-117.26699, 32.81857], [-117.26431, 32.81899], [-117.26211, 32.81713], [-117.26513, 32.81675], [-117.265353, 32.816703], [-117.27331, 32.81502], [-117.27352, 32.81547], [-117.27386, 32.81557], [-117.27395, 32.81568], [-117.2739, 32.81584], [-117.27379, 32.815987], [-117.27354, 32.81632], [-117.27323, 32.81686]]]}}, {"type": "Feature", "properties": {"area_id": 699, "city": "San Diego", "state": "CA", "city_survey": true, "cat": "Still Desirable", "grade": "B", "label": "B6", "res": true, "com": false, "ind": false, "holc_grade": "B"}, "geometry": {"type": "Polygon", "coordinates": [[[-117.236, 32.75007], [-117.23618, 32.74955], [-117.23748, 32.7482], [-117.23833, 32.748741], [-117.24152, 32.75077], [-117.24078, 32.75131], [-117.24011, 32.75125], [-117.23927, 32.75119], [-117.23873, 32.7513], [-117.23782, 32.75152], [-117.23743, 32.75172], [-117.23685, 32.75211], [-117.236358, 32.751819], [-117.2358, 32.75149], [-117.2356, 32.751363], [-117.23539, 32.75123], [-117.236, 32.75007]]]}}, {"type": "Feature", "properties": {"area_id": 676, "city": "San Diego", "state": "CA", "city_survey": true, "cat": "Still Desirable", "grade": "B", "label": "B7", "res": true, "com": false, "ind": false, "holc_grade": "B"}, "geometry": {"type": "Polygon", "coordinates": [[[-117.24978, 32.73303], [-117.249656, 32.733173], [-117.24315, 32.740699], [-117.242, 32.74203], [-117.23811, 32.74658], [-117.23625, 32.74545], [-117.23627, 32.7452], [-117.23607, 32.74508], [-117.23827, 32.74265], [-117.241157, 32.739478], [-117.24507, 32.73518], [-117.24508, 32.73517], [-117.247898, 32.732078], [-117.24806, 32.7319], [-117.24978, 32.73303]]]}}, {"type": "Feature", "properties": {"area_id": 698, "city": "San Diego", "state": "CA", "city_survey": true, "cat": "Still Desirable", "grade": "B", "label": "B8", "res": true, "com": false, "ind": false, "holc_grade": "B"}, "geometry": {"type": "Polygon", "coordinates": [[[-117.24507, 32.73518], [-117.241157, 32.739478], [-117.23827, 32.74265], [-117.23887, 32.7394], [-117.239617, 32.738547], [-117.24341, 32.73422], [-117.24507, 32.73518]]]}}, {"type": "Feature", "properties": {"area_id": 674, "city": "San Diego", "state": "CA", "city_survey": true, "cat": "Still Desirable", "grade": "B", "label": "B9", "res": true, "com": false, "ind": false, "holc_grade": "B"}, "geometry": {"type": "Polygon", "coordinates": [[[-117.23456, 32.73267], [-117.23736, 32.73199], [-117.23924, 32.73141], [-117.24173, 32.73317], [-117.23958, 32.73554], [-117.23952, 32.73594], [-117.237671, 32.737744], [-117.236925, 32.738472], [-117.23665, 32.73874], [-117.23667, 32.73968], [-117.23644, 32.74042], [-117.23642, 32.740532], [-117.23627, 32.74136], [-117.23629, 32.74175], [-117.236121, 32.741988], [-117.236017, 32.742136], [-117.236, 32.74216], [-117.23362, 32.74087], [-117.231521, 32.739568], [-117.22962, 32.73839], [-117.22972, 32.738274], [-117.231865, 32.73579], [-117.233258, 32.734178], [-117.23456, 32.73267]]]}}, {"type": "Feature", "properties": {"area_id": 694, "city": "San Diego", "state": "CA", "city_survey": true, "cat": "Definitely Declining", "grade": "C", "label": "C1", "res": true, "com": false, "ind": false, "holc_grade": "C"}, "geometry": {"type": "Polygon", "coordinates": [[[-117.27227, 32.83554], [-117.27371, 32.8353], [-117.27731, 32.83423], [-117.27801, 32.83557], [-117.27832, 32.83629], [-117.27835, 32.83676], [-117.27832, 32.83723], [-117.27805, 32.83751], [-117.27426, 32.83833], [-117.27495, 32.83986], [-117.27314, 32.84019], [-117.272454, 32.840375], [-117.27129, 32.84069], [-117.27084, 32.83973], [-117.27214, 32.839396], [-117.27224, 32.83937], [-117.271588, 32.837668], [-117.2715, 32.83744], [-117.27159, 32.837416], [-117.271746, 32.837374], [-117.27255, 32.83716], [-117.272351, 32.83601], [-117.27227, 32.83554]]]}}, {"type": "Feature", "properties": {"area_id": 630, "city": "San Diego", "state": "CA", "city_survey": true, "cat": "Definitely Declining", "grade": "C", "label": "C10", "res": true, "com": false, "ind": false, "holc_grade": "C"}, "geometry": {"type": "Polygon", "coordinates": [[[-117.1712, 32.69894], [-117.1709, 32.6992], [-117.17073, 32.69912], [-117.17013, 32.69874], [-117.16966, 32.69864], [-117.16899, 32.69844], [-117.16662, 32.69728], [-117.16624, 32.69708], [-117.16595, 32.69682], [-117.166, 32.69648], [-117.16638, 32.69558], [-117.1665, 32.69452], [-117.16673, 32.69386], [-117.16692, 32.69358], [-117.16709, 32.69334], [-117.16768, 32.69314], [-117.16899, 32.6937], [-117.1693, 32.69354], [-117.16968, 32.69326], [-117.16997, 32.69324], [-117.17025, 32.69324], [-117.17051, 32.6934], [-117.17082, 32.69368], [-117.17096, 32.69404], [-117.17096, 32.69466], [-117.17386, 32.69588], [-117.17472, 32.69448], [-117.174808, 32.694516], [-117.17928, 32.69636], [-117.1785, 32.69786], [-117.17619, 32.69684], [-117.17482, 32.69928], [-117.173778, 32.700585], [-117.17375, 32.70062], [-117.173656, 32.700573], [-117.17219, 32.69984], [-117.17218, 32.69984], [-117.174, 32.69701], [-117.173462, 32.696783], [-117.17272, 32.69647], [-117.1712, 32.69894]]]}}, {"type": "Feature", "properties": {"area_id": 645, "city": "San Diego", "state": "CA", "city_survey": true, "cat": "Definitely Declining", "grade": "C", "label": "C11", "res": true, "com": false, "ind": false, "holc_grade": "C"}, "geometry": {"type": "Polygon", "coordinates": [[[-117.144935, 32.74843], [-117.144904, 32.755249], [-117.14488, 32.76059], [-117.14506, 32.76246], [-117.144979, 32.762472], [-117.14471, 32.76251], [-117.14387, 32.76249], [-117.143803, 32.762472], [-117.14349, 32.76239], [-117.14281, 32.76239], [-117.14239, 32.76261], [-117.14224, 32.76289], [-117.14212, 32.76316], [-117.139032, 32.763181], [-117.127426, 32.763259], [-117.12721, 32.76326], [-117.12721, 32.76439], [-117.12643, 32.76439], [-117.12638, 32.76461], [-117.12646, 32.76526], [-117.12626, 32.76569], [-117.12593, 32.76606], [-117.12551, 32.76641], [-117.1254, 32.76679], [-117.12542, 32.76734], [-117.12118, 32.76721], [-117.121217, 32.765452], [-117.12131, 32.760989], [-117.12143, 32.755261], [-117.12151, 32.75141], [-117.12153, 32.7501], [-117.12113, 32.7491], [-117.12117, 32.74909], [-117.1233, 32.7485], [-117.12644, 32.7485], [-117.137569, 32.7485], [-117.1401, 32.7485], [-117.140092, 32.748447], [-117.13995, 32.7475], [-117.13992, 32.74377], [-117.14236, 32.74377], [-117.14236, 32.74369], [-117.14239, 32.74235], [-117.14361, 32.74232], [-117.143533, 32.741145], [-117.14352, 32.74095], [-117.14497, 32.74082], [-117.144968, 32.741192], [-117.144935, 32.74843]]]}}, {"type": "Feature", "properties": {"area_id": 658, "city": "San Diego", "state": "CA", "city_survey": true, "cat": "Definitely Declining", "grade": "C", "label": "C12", "res": true, "com": false, "ind": false, "holc_grade": "C"}, "geometry": {"type": "Polygon", "coordinates": [[[-117.142523, 32.719361], [-117.134152, 32.719446], [-117.133899, 32.719448], [-117.13374, 32.71945], [-117.13373, 32.71901], [-117.13373, 32.718978], [-117.13375, 32.71691], [-117.133797, 32.71691], [-117.142495, 32.716872], [-117.14755, 32.71685], [-117.147559, 32.717392], [-117.147568, 32.717953], [-117.14759, 32.71931], [-117.145002, 32.719336], [-117.142523, 32.719361]]]}}, {"type": "Feature", "properties": {"area_id": 639, "city": "San Diego", "state": "CA", "city_survey": true, "cat": "Definitely Declining", "grade": "C", "label": "C13", "res": true, "com": false, "ind": false, "holc_grade": "C"}, "geometry": {"type": "Polygon", "coordinates": [[[-117.12474, 32.71691], [-117.13375, 32.71691], [-117.13373, 32.718978], [-117.13373, 32.71901], [-117.13084, 32.71901], [-117.130774, 32.729654], [-117.13077, 32.73031], [-117.125252, 32.730413], [-117.12166, 32.73048], [-117.12104, 32.73049], [-117.12057, 32.72015], [-117.12168, 32.72027], [-117.12449, 32.72024], [-117.124391, 32.719027], [-117.12439, 32.71901], [-117.12482, 32.71898], [-117.12474, 32.71691]]]}}, {"type": "Feature", "properties": {"area_id": 641, "city": "San Diego", "state": "CA", "city_survey": true, "cat": "Definitely Declining", "grade": "C", "label": "C14", "res": true, "com": false, "ind": false, "holc_grade": "C"}, "geometry": {"type": "Polygon", "coordinates": [[[-117.11719, 32.73046], [-117.12104, 32.73049], [-117.12166, 32.73048], [-117.12179, 32.73393], [-117.12, 32.7339], [-117.12, 32.73618], [-117.12033, 32.73743], [-117.1211, 32.73745], [-117.121144, 32.739242], [-117.12119, 32.74112], [-117.12187, 32.74112], [-117.12199, 32.74492], [-117.123298, 32.748494], [-117.1233, 32.7485], [-117.12117, 32.74909], [-117.12113, 32.7491], [-117.121091, 32.748991], [-117.119687, 32.745029], [-117.11945, 32.74436], [-117.11803, 32.740377], [-117.11451, 32.7305], [-117.11487, 32.73052], [-117.11719, 32.73046]]]}}, {"type": "Feature", "properties": {"area_id": 651, "city": "San Diego", "state": "CA", "city_survey": true, "cat": "Definitely Declining", "grade": "C", "label": "C15", "res": true, "com": false, "ind": false, "holc_grade": "C"}, "geometry": {"type": "Polygon", "coordinates": [[[-117.115547, 32.751349], [-117.12151, 32.75141], [-117.12143, 32.755261], [-117.12131, 32.760989], [-117.121217, 32.765452], [-117.12118, 32.76721], [-117.116, 32.7672], [-117.11327, 32.76728], [-117.11165, 32.7674], [-117.11125, 32.76691], [-117.109997, 32.76537], [-117.10915, 32.76433], [-117.109184, 32.763265], [-117.109253, 32.761088], [-117.109261, 32.760828], [-117.10939, 32.75679], [-117.10146, 32.75683], [-117.100786, 32.756811], [-117.09197, 32.75656], [-117.091977, 32.756099], [-117.09205, 32.75111], [-117.092258, 32.751112], [-117.10086, 32.7512], [-117.109377, 32.751286], [-117.115547, 32.751349]]]}}, {"type": "Feature", "properties": {"area_id": 646, "city": "San Diego", "state": "CA", "city_survey": true, "cat": "Definitely Declining", "grade": "C", "label": "C16", "res": true, "com": false, "ind": false, "holc_grade": "C"}, "geometry": {"type": "Polygon", "coordinates": [[[-117.119687, 32.745029], [-117.121091, 32.748991], [-117.12113, 32.7491], [-117.12153, 32.7501], [-117.12151, 32.75141], [-117.115547, 32.751349], [-117.109377, 32.751286], [-117.10086, 32.7512], [-117.092258, 32.751112], [-117.09205, 32.75111], [-117.0922, 32.74955], [-117.0922, 32.749539], [-117.0922, 32.74899], [-117.09191, 32.74761], [-117.09184, 32.74663], [-117.09194, 32.74575], [-117.0922, 32.74451], [-117.09216, 32.74382], [-117.09209, 32.74265], [-117.09189, 32.7393], [-117.09189, 32.73929], [-117.09176, 32.737077], [-117.09175, 32.73691], [-117.092227, 32.736914], [-117.09434, 32.73693], [-117.094365, 32.74026], [-117.09438, 32.74229], [-117.09448, 32.74397], [-117.100949, 32.744058], [-117.110363, 32.744185], [-117.11661, 32.74427], [-117.117842, 32.744142], [-117.11796, 32.74413], [-117.119077, 32.744302], [-117.11945, 32.74436], [-117.119687, 32.745029]]]}}, {"type": "Feature", "properties": {"area_id": 635, "city": "San Diego", "state": "CA", "city_survey": true, "cat": "Definitely Declining", "grade": "C", "label": "C17", "res": true, "com": false, "ind": false, "holc_grade": "C"}, "geometry": {"type": "Polygon", "coordinates": [[[-117.11672, 32.69807], [-117.116812, 32.701242], [-117.1169, 32.70428], [-117.10991, 32.70431], [-117.108014, 32.704198], [-117.10788, 32.70419], [-117.10186, 32.70371], [-117.09818, 32.70371], [-117.09822, 32.7041], [-117.095128, 32.704163], [-117.0938, 32.70419], [-117.08842, 32.70413], [-117.08842, 32.704118], [-117.08842, 32.7005], [-117.09276, 32.70041], [-117.095033, 32.700428], [-117.10442, 32.7005], [-117.10449, 32.69714], [-117.106044, 32.697197], [-117.10613, 32.6972], [-117.1061, 32.69807], [-117.11672, 32.69807]]]}}, {"type": "Feature", "properties": {"area_id": 650, "city": "San Diego", "state": "CA", "city_survey": true, "cat": "Definitely Declining", "grade": "C", "label": "C18", "res": true, "com": false, "ind": false, "holc_grade": "C"}, "geometry": {"type": "Polygon", "coordinates": [[[-117.08375, 32.75107], [-117.087299, 32.751087], [-117.09205, 32.75111], [-117.091977, 32.756099], [-117.09197, 32.75656], [-117.087903, 32.757152], [-117.08365, 32.75777], [-117.08366, 32.75724], [-117.08366, 32.757215], [-117.08375, 32.75107]]]}}, {"type": "Feature", "properties": {"area_id": 649, "city": "San Diego", "state": "CA", "city_survey": true, "cat": "Definitely Declining", "grade": "C", "label": "C19", "res": true, "com": false, "ind": false, "holc_grade": "C"}, "geometry": {"type": "Polygon", "coordinates": [[[-117.0794, 32.74363], [-117.079507, 32.743637], [-117.080549, 32.743701], [-117.0807, 32.74371], [-117.08495, 32.74375], [-117.08495, 32.74387], [-117.08482, 32.74427], [-117.08458, 32.74469], [-117.08464, 32.74494], [-117.08465, 32.74539], [-117.08504, 32.74604], [-117.08542, 32.74611], [-117.08584, 32.74598], [-117.085969, 32.745907], [-117.08607, 32.74585], [-117.08624, 32.74568], [-117.08634, 32.74548], [-117.08634, 32.74514], [-117.08634, 32.74485], [-117.08733, 32.74484], [-117.0884, 32.74446], [-117.08907, 32.74398], [-117.08932, 32.74322], [-117.08932, 32.74208], [-117.0901, 32.74258], [-117.08992, 32.74272], [-117.0898, 32.74285], [-117.08983, 32.74302], [-117.09026, 32.74349], [-117.09026, 32.74369], [-117.09216, 32.74382], [-117.0922, 32.74451], [-117.09194, 32.74575], [-117.09184, 32.74663], [-117.09191, 32.74761], [-117.0922, 32.74899], [-117.0922, 32.749539], [-117.0922, 32.74955], [-117.09205, 32.75111], [-117.087299, 32.751087], [-117.08375, 32.75107], [-117.08198, 32.75107], [-117.081854, 32.749061], [-117.08185, 32.74899], [-117.08087, 32.749], [-117.08015, 32.74893], [-117.080094, 32.748925], [-117.07947, 32.74887], [-117.079469, 32.748794], [-117.079457, 32.747892], [-117.0794, 32.74363]]]}}, {"type": "Feature", "properties": {"area_id": 677, "city": "San Diego", "state": "CA", "city_survey": true, "cat": "Definitely Declining", "grade": "C", "label": "C2", "res": true, "com": false, "ind": false, "holc_grade": "C"}, "geometry": {"type": "Polygon", "coordinates": [[[-117.255348, 32.790592], [-117.25619, 32.7955], [-117.256573, 32.796314], [-117.25866, 32.80075], [-117.253933, 32.801877], [-117.25153, 32.80245], [-117.251516, 32.802413], [-117.25049, 32.79967], [-117.246948, 32.800463], [-117.232276, 32.803747], [-117.22592, 32.80517], [-117.22553, 32.80362], [-117.22758, 32.80095], [-117.22687, 32.79897], [-117.22859, 32.79862], [-117.228015, 32.796703], [-117.22737, 32.79455], [-117.227642, 32.794503], [-117.229996, 32.794098], [-117.230638, 32.793988], [-117.23115, 32.7939], [-117.231876, 32.795764], [-117.23189, 32.7958], [-117.23358, 32.7955], [-117.23391, 32.79648], [-117.237585, 32.79563], [-117.244929, 32.793933], [-117.25411, 32.79181], [-117.253766, 32.790916], [-117.25331, 32.78973], [-117.25465, 32.78938], [-117.25512, 32.78926], [-117.255348, 32.790592]]]}}, {"type": "Feature", "properties": {"area_id": 681, "city": "San Diego", "state": "CA", "city_survey": true, "cat": "Definitely Declining", "grade": "C", "label": "C20", "res": true, "com": false, "ind": false, "holc_grade": "C"}, "geometry": {"type": "Polygon", "coordinates": [[[-117.07957, 32.72981], [-117.07957, 32.73527], [-117.07533, 32.7353], [-117.07534, 32.72979], [-117.07957, 32.72981]]]}}, {"type": "Feature", "properties": {"area_id": 657, "city": "San Diego", "state": "CA", "city_survey": true, "cat": "Definitely Declining", "grade": "C", "label": "C21", "res": true, "com": false, "ind": false, "holc_grade": "C"}, "geometry": {"type": "Polygon", "coordinates": [[[-117.05417, 32.76668], [-117.05567, 32.7665], [-117.05778, 32.76618], [-117.05919, 32.76524], [-117.0627, 32.7631], [-117.06625, 32.76092], [-117.066241, 32.761796], [-117.06624, 32.76188], [-117.06628, 32.76458], [-117.0636, 32.76682], [-117.05794, 32.77063], [-117.05663, 32.77189], [-117.05566, 32.77197], [-117.055619, 32.771629], [-117.05561, 32.77155], [-117.05326, 32.77149], [-117.05277, 32.77075], [-117.05165, 32.77075], [-117.05213, 32.77249], [-117.046669, 32.773115], [-117.04654, 32.77313], [-117.04666, 32.77279], [-117.046849, 32.772375], [-117.04697, 32.77211], [-117.04709, 32.77155], [-117.047021, 32.77086], [-117.04702, 32.77085], [-117.044957, 32.770869], [-117.04058, 32.77091], [-117.04048, 32.77037], [-117.039642, 32.770359], [-117.039325, 32.770355], [-117.038992, 32.770351], [-117.03894, 32.77035], [-117.038891, 32.768849], [-117.03889, 32.76883], [-117.039337, 32.768843], [-117.04031, 32.76887], [-117.040307, 32.768828], [-117.04024, 32.76773], [-117.045602, 32.767643], [-117.05069, 32.76756], [-117.052575, 32.767532], [-117.05341, 32.76752], [-117.05365, 32.76716], [-117.05386, 32.76682], [-117.05417, 32.76668]]]}}, {"type": "Feature", "properties": {"area_id": 680, "city": "San Diego", "state": "CA", "city_survey": true, "cat": "Definitely Declining", "grade": "C", "label": "C22", "res": true, "com": false, "ind": false, "holc_grade": "C"}, "geometry": {"type": "Polygon", "coordinates": [[[-117.06813, 32.71464], [-117.06806, 32.71512], [-117.06578, 32.7156], [-117.063688, 32.715879], [-117.06353, 32.7159], [-117.06289, 32.71596], [-117.06339, 32.71632], [-117.06367, 32.71656], [-117.06382, 32.71677], [-117.06375, 32.71701], [-117.0635, 32.7171], [-117.06321, 32.71698], [-117.06207, 32.71716], [-117.06121, 32.71746], [-117.06104, 32.71794], [-117.06114, 32.71863], [-117.06121, 32.71911], [-117.06107, 32.71947], [-117.06025, 32.71935], [-117.0595, 32.71908], [-117.05879, 32.71905], [-117.05747, 32.71947], [-117.05704, 32.71959], [-117.05629, 32.71974], [-117.05612, 32.71986], [-117.05583, 32.72031], [-117.05547, 32.72247], [-117.049301, 32.726357], [-117.04909, 32.72649], [-117.049304, 32.719705], [-117.04931, 32.71953], [-117.04966, 32.71947], [-117.053288, 32.715887], [-117.05455, 32.71464], [-117.06813, 32.71464]]]}}, {"type": "Feature", "properties": {"area_id": 685, "city": "San Diego", "state": "CA", "city_survey": true, "cat": "Definitely Declining", "grade": "C", "label": "C3", "res": true, "com": false, "ind": false, "holc_grade": "C"}, "geometry": {"type": "MultiPolygon", "coordinates": [[[[-117.249331, 32.759552], [-117.25043, 32.76009], [-117.25129, 32.76063], [-117.25169, 32.76105], [-117.25219, 32.76163], [-117.25231, 32.76345], [-117.25264, 32.76711], [-117.24958, 32.76707], [-117.25007, 32.76579], [-117.25012, 32.76477], [-117.24993, 32.76389], [-117.24939, 32.76261], [-117.24851, 32.76109], [-117.24796, 32.76033], [-117.24782, 32.76005], [-117.24789, 32.75973], [-117.247894, 32.759722], [-117.2481, 32.75933], [-117.24839, 32.75929], [-117.24896, 32.75937], [-117.249331, 32.759552]]], [[[-117.24953, 32.7733], [-117.24941, 32.77285], [-117.2495, 32.77251], [-117.25305, 32.77253], [-117.25345, 32.78234], [-117.25324, 32.78246], [-117.2529, 32.78248], [-117.25252, 32.78248], [-117.25091, 32.7827], [-117.250849, 32.782151], [-117.25079, 32.78162], [-117.250882, 32.781292], [-117.2511, 32.78052], [-117.25133, 32.7795], [-117.25141, 32.77846], [-117.251388, 32.777966], [-117.251363, 32.777414], [-117.25131, 32.77624], [-117.25086, 32.77556], [-117.250536, 32.775024], [-117.250384, 32.774774], [-117.25017, 32.77442], [-117.24953, 32.7733]]], [[[-117.25465, 32.78938], [-117.25331, 32.78973], [-117.25244, 32.78994], [-117.252293, 32.787396], [-117.25225, 32.78665], [-117.252264, 32.786648], [-117.25419, 32.78638], [-117.25465, 32.78938]]]]}}, {"type": "Feature", "properties": {"area_id": 675, "city": "San Diego", "state": "CA", "city_survey": true, "cat": "Definitely Declining", "grade": "C", "label": "C4", "res": true, "com": false, "ind": false, "holc_grade": "C"}, "geometry": {"type": "Polygon", "coordinates": [[[-117.24978, 32.73303], [-117.25564, 32.73673], [-117.255633, 32.73682], [-117.255623, 32.736948], [-117.255618, 32.737008], [-117.2556, 32.737233], [-117.25558, 32.737492], [-117.255575, 32.737548], [-117.255522, 32.738221], [-117.255515, 32.738313], [-117.25549, 32.73863], [-117.255487, 32.738652], [-117.255483, 32.738689], [-117.255425, 32.739187], [-117.25528, 32.74043], [-117.25529, 32.740526], [-117.25546, 32.74213], [-117.255076, 32.742543], [-117.25186, 32.746], [-117.24836, 32.74373], [-117.248262, 32.743843], [-117.24678, 32.74555], [-117.25029, 32.7477], [-117.2491, 32.7494], [-117.24871, 32.74977], [-117.248242, 32.750257], [-117.24717, 32.75137], [-117.24203, 32.74815], [-117.242944, 32.746977], [-117.24429, 32.74525], [-117.242695, 32.744259], [-117.24268, 32.74425], [-117.23918, 32.7483], [-117.239194, 32.74831], [-117.24242, 32.75047], [-117.24218, 32.7508], [-117.24185, 32.75085], [-117.24152, 32.75077], [-117.23833, 32.748741], [-117.23748, 32.7482], [-117.23618, 32.74955], [-117.236, 32.75007], [-117.23539, 32.75123], [-117.23443, 32.75062], [-117.23701, 32.7471], [-117.23614, 32.74662], [-117.23625, 32.74545], [-117.23811, 32.74658], [-117.242, 32.74203], [-117.24315, 32.740699], [-117.249656, 32.733173], [-117.24978, 32.73303]]]}}, {"type": "Feature", "properties": {"area_id": 669, "city": "San Diego", "state": "CA", "city_survey": true, "cat": "Definitely Declining", "grade": "C", "label": "C5", "res": true, "com": false, "ind": false, "holc_grade": "C"}, "geometry": {"type": "Polygon", "coordinates": [[[-117.22791, 32.74365], [-117.22837, 32.74314], [-117.22763, 32.74267], [-117.22536, 32.74072], [-117.22607, 32.74054], [-117.22666, 32.74034], [-117.22717, 32.73994], [-117.22768, 32.73947], [-117.2282, 32.73898], [-117.22962, 32.73839], [-117.231521, 32.739568], [-117.23362, 32.74087], [-117.236, 32.74216], [-117.23487, 32.74348], [-117.23557, 32.74477], [-117.23607, 32.74508], [-117.23627, 32.7452], [-117.23625, 32.74545], [-117.23614, 32.74662], [-117.23218, 32.74408], [-117.22944, 32.74745], [-117.23443, 32.75062], [-117.23539, 32.75123], [-117.2356, 32.751363], [-117.2358, 32.75149], [-117.23513, 32.75161], [-117.230365, 32.752466], [-117.22962, 32.7526], [-117.229613, 32.752525], [-117.22942, 32.75049], [-117.229377, 32.749348], [-117.229371, 32.749167], [-117.22932, 32.74781], [-117.229081, 32.747638], [-117.227128, 32.746238], [-117.22628, 32.74563], [-117.22765, 32.74406], [-117.22791, 32.74365]]]}}, {"type": "Feature", "properties": {"area_id": 670, "city": "San Diego", "state": "CA", "city_survey": true, "cat": "Definitely Declining", "grade": "C", "label": "C6", "res": true, "com": false, "ind": false, "holc_grade": "C"}, "geometry": {"type": "Polygon", "coordinates": [[[-117.23456, 32.73267], [-117.233258, 32.734178], [-117.231865, 32.73579], [-117.22972, 32.738274], [-117.22962, 32.73839], [-117.226591, 32.736367], [-117.22652, 32.73632], [-117.229, 32.73333], [-117.2263, 32.73154], [-117.2232, 32.73522], [-117.22122, 32.73392], [-117.22569, 32.72855], [-117.22315, 32.72685], [-117.22705, 32.72555], [-117.230856, 32.727927], [-117.23275, 32.72911], [-117.23736, 32.73199], [-117.23456, 32.73267]]]}}, {"type": "Feature", "properties": {"area_id": 671, "city": "San Diego", "state": "CA", "city_survey": true, "cat": "Definitely Declining", "grade": "C", "label": "C7", "res": true, "com": false, "ind": false, "holc_grade": "C"}, "geometry": {"type": "Polygon", "coordinates": [[[-117.22836, 32.72051], [-117.22893, 32.72002], [-117.23113, 32.71914], [-117.23269, 32.72014], [-117.2316, 32.72132], [-117.231741, 32.721415], [-117.2326, 32.72199], [-117.234008, 32.722941], [-117.235599, 32.724014], [-117.236224, 32.724437], [-117.23654, 32.72465], [-117.236511, 32.724684], [-117.23275, 32.72911], [-117.230856, 32.727927], [-117.22705, 32.72555], [-117.22743, 32.72483], [-117.22747, 32.72434], [-117.22758, 32.723811], [-117.22763, 32.72357], [-117.22773, 32.722713], [-117.22773, 32.72271], [-117.227846, 32.721621], [-117.22785, 32.72158], [-117.22814, 32.72107], [-117.22836, 32.72051]]]}}, {"type": "Feature", "properties": {"area_id": 662, "city": "San Diego", "state": "CA", "city_survey": true, "cat": "Definitely Declining", "grade": "C", "label": "C8", "res": true, "com": false, "ind": false, "holc_grade": "C"}, "geometry": {"type": "Polygon", "coordinates": [[[-117.1595, 32.74041], [-117.16497, 32.74037], [-117.169052, 32.74044], [-117.16906, 32.74044], [-117.169206, 32.740775], [-117.16923, 32.74083], [-117.16973, 32.74153], [-117.1701, 32.74187], [-117.17027, 32.74216], [-117.17023, 32.74231], [-117.16987, 32.74221], [-117.16967, 32.74229], [-117.16929, 32.7421], [-117.16897, 32.74207], [-117.1686, 32.74219], [-117.16852, 32.74245], [-117.16853, 32.74298], [-117.16818, 32.74388], [-117.16785, 32.74422], [-117.16753, 32.74428], [-117.16753, 32.745676], [-117.16753, 32.74571], [-117.16782, 32.7466], [-117.16763, 32.74685], [-117.16612, 32.74687], [-117.16614, 32.74893], [-117.168642, 32.74892], [-117.17127, 32.74891], [-117.17127, 32.749843], [-117.17127, 32.75005], [-117.17044, 32.75004], [-117.17046, 32.75672], [-117.16996, 32.75659], [-117.16966, 32.75655], [-117.1693, 32.75657], [-117.1689, 32.75675], [-117.16849, 32.75676], [-117.168385, 32.756651], [-117.16822, 32.75648], [-117.16782, 32.75603], [-117.16746, 32.75545], [-117.16729, 32.75532], [-117.16682, 32.75558], [-117.16622, 32.75585], [-117.16554, 32.75589], [-117.16494, 32.75589], [-117.16451, 32.75577], [-117.1643, 32.7557], [-117.16393, 32.75587], [-117.16363, 32.75587], [-117.16321, 32.75576], [-117.163, 32.75574], [-117.16287, 32.75587], [-117.16281, 32.75628], [-117.16303, 32.75684], [-117.16337, 32.75724], [-117.16395, 32.75763], [-117.16445, 32.75808], [-117.16454, 32.75851], [-117.16461, 32.75925], [-117.164606, 32.759256], [-117.16434, 32.75966], [-117.16413, 32.75995], [-117.16403, 32.76034], [-117.164, 32.76052], [-117.16361, 32.76042], [-117.16338, 32.76009], [-117.16306, 32.75959], [-117.16289, 32.75918], [-117.162733, 32.758976], [-117.16266, 32.75888], [-117.16261, 32.75863], [-117.16152, 32.75778], [-117.16072, 32.75729], [-117.16015, 32.75677], [-117.15993, 32.75639], [-117.15973, 32.75599], [-117.15921, 32.75544], [-117.15902, 32.75392], [-117.15928, 32.75375], [-117.15925, 32.75329], [-117.15901, 32.75286], [-117.15865, 32.75255], [-117.15826, 32.75257], [-117.15774, 32.75281], [-117.157575, 32.752942], [-117.15754, 32.75297], [-117.15762, 32.75529], [-117.15747, 32.75675], [-117.15822, 32.75738], [-117.15922, 32.75793], [-117.159338, 32.758361], [-117.15936, 32.75844], [-117.15926, 32.75905], [-117.15893, 32.75947], [-117.15849, 32.76002], [-117.15834, 32.76055], [-117.15805, 32.76074], [-117.1487, 32.76084], [-117.14867, 32.76249], [-117.146276, 32.76247], [-117.14506, 32.76246], [-117.14488, 32.76059], [-117.144904, 32.755249], [-117.144935, 32.74843], [-117.144968, 32.741192], [-117.14497, 32.74082], [-117.1475, 32.74083], [-117.14751, 32.741169], [-117.14762, 32.74486], [-117.15516, 32.74488], [-117.15576, 32.74444], [-117.1561, 32.74403], [-117.1563, 32.74371], [-117.15637, 32.743552], [-117.15645, 32.74337], [-117.15833, 32.74331], [-117.15833, 32.741047], [-117.15833, 32.74052], [-117.159415, 32.740418], [-117.1595, 32.74041]]]}}, {"type": "Feature", "properties": {"area_id": 659, "city": "San Diego", "state": "CA", "city_survey": true, "cat": "Definitely Declining", "grade": "C", "label": "C9", "res": true, "com": false, "ind": false, "holc_grade": "C"}, "geometry": {"type": "Polygon", "coordinates": [[[-117.156558, 32.719776], [-117.16563, 32.71963], [-117.165618, 32.719884], [-117.16554, 32.72161], [-117.16559, 32.72289], [-117.165602, 32.722994], [-117.16578, 32.72457], [-117.16597, 32.72519], [-117.166172, 32.725671], [-117.166807, 32.727178], [-117.168475, 32.731142], [-117.16884, 32.73201], [-117.16982, 32.73183], [-117.16994, 32.732151], [-117.17015, 32.73271], [-117.17084, 32.73455], [-117.17132, 32.73513], [-117.172, 32.73585], [-117.17208, 32.73615], [-117.17165, 32.73709], [-117.17155, 32.73751], [-117.17006, 32.73759], [-117.16994, 32.73725], [-117.169904, 32.737226], [-117.16946, 32.73693], [-117.1692, 32.73667], [-117.16908, 32.73619], [-117.16896, 32.73529], [-117.16899, 32.73463], [-117.1688, 32.73437], [-117.16868, 32.73421], [-117.16844, 32.73431], [-117.1683, 32.73463], [-117.1683, 32.73495], [-117.16825, 32.73551], [-117.16692, 32.73547], [-117.16673, 32.73237], [-117.16395, 32.73239], [-117.16399, 32.73679], [-117.16573, 32.73675], [-117.16578, 32.73767], [-117.16487, 32.73767], [-117.16497, 32.74037], [-117.1595, 32.74041], [-117.159479, 32.731393], [-117.159469, 32.727213], [-117.15946, 32.72317], [-117.159346, 32.72317], [-117.15572, 32.72317], [-117.155701, 32.71991], [-117.1557, 32.71979], [-117.156558, 32.719776]]]}}, {"type": "Feature", "properties": {"area_id": 692, "city": "San Diego", "state": "CA", "city_survey": true, "cat": "Hazardous", "grade": "D", "label": "D1", "res": true, "com": false, "ind": false, "holc_grade": "D"}, "geometry": {"type": "Polygon", "coordinates": [[[-117.27426, 32.83833], [-117.27805, 32.83751], [-117.278589, 32.839094], [-117.27916, 32.84077], [-117.27541, 32.84146], [-117.27505, 32.84007], [-117.274981, 32.839926], [-117.27495, 32.83986], [-117.27426, 32.83833]]]}}, {"type": "Feature", "properties": {"area_id": 679, "city": "San Diego", "state": "CA", "city_survey": true, "cat": "Hazardous", "grade": "D", "label": "D10", "res": true, "com": false, "ind": false, "holc_grade": "D"}, "geometry": {"type": "Polygon", "coordinates": [[[-117.06471, 32.68387], [-117.065917, 32.687223], [-117.065958, 32.687336], [-117.06601, 32.68748], [-117.06405, 32.68788], [-117.064411, 32.688869], [-117.064962, 32.690375], [-117.06542, 32.69163], [-117.065711, 32.691554], [-117.07154, 32.69003], [-117.071377, 32.689648], [-117.07071, 32.68808], [-117.07303, 32.68743], [-117.073561, 32.689063], [-117.07368, 32.68943], [-117.075688, 32.688924], [-117.07606, 32.68883], [-117.077089, 32.691794], [-117.07722, 32.69217], [-117.077977, 32.691949], [-117.08514, 32.68986], [-117.085108, 32.692373], [-117.08496, 32.70404], [-117.084959, 32.7041], [-117.08489, 32.70929], [-117.084895, 32.709531], [-117.084986, 32.714379], [-117.085055, 32.718029], [-117.08507, 32.71883], [-117.085221, 32.72675], [-117.08528, 32.72983], [-117.07977, 32.729811], [-117.07957, 32.72981], [-117.07534, 32.72979], [-117.064776, 32.729741], [-117.049392, 32.729671], [-117.04924, 32.72967], [-117.04924, 32.729666], [-117.049228, 32.729409], [-117.04909, 32.72649], [-117.049301, 32.726357], [-117.05547, 32.72247], [-117.05583, 32.72031], [-117.05612, 32.71986], [-117.05629, 32.71974], [-117.05704, 32.71959], [-117.05747, 32.71947], [-117.05879, 32.71905], [-117.0595, 32.71908], [-117.06025, 32.71935], [-117.06107, 32.71947], [-117.06121, 32.71911], [-117.06114, 32.71863], [-117.06104, 32.71794], [-117.06121, 32.71746], [-117.06207, 32.71716], [-117.06321, 32.71698], [-117.0635, 32.7171], [-117.06375, 32.71701], [-117.06382, 32.71677], [-117.06367, 32.71656], [-117.06339, 32.71632], [-117.06289, 32.71596], [-117.06353, 32.7159], [-117.063688, 32.715879], [-117.06578, 32.7156], [-117.06806, 32.71512], [-117.06813, 32.71464], [-117.05455, 32.71464], [-117.053288, 32.715887], [-117.04966, 32.71947], [-117.04931, 32.71953], [-117.04931, 32.715861], [-117.04931, 32.715291], [-117.04931, 32.715151], [-117.04931, 32.71467], [-117.046938, 32.714752], [-117.032841, 32.715243], [-117.03205, 32.71527], [-117.03206, 32.715447], [-117.032167, 32.717347], [-117.03227, 32.71917], [-117.031955, 32.719153], [-117.028464, 32.718958], [-117.025893, 32.718815], [-117.02364, 32.71869], [-117.023638, 32.718562], [-117.02357, 32.71479], [-117.02093, 32.71473], [-117.01872, 32.70849], [-117.02257, 32.70735], [-117.023067, 32.707228], [-117.03013, 32.70549], [-117.031367, 32.705117], [-117.03391, 32.70435], [-117.037803, 32.703192], [-117.053756, 32.698446], [-117.05408, 32.69835], [-117.06048, 32.69666], [-117.059632, 32.694619], [-117.05758, 32.68968], [-117.04926, 32.69218], [-117.04795, 32.688547], [-117.0467, 32.68508], [-117.050539, 32.683983], [-117.053795, 32.683053], [-117.05496, 32.68272], [-117.054579, 32.681716], [-117.052225, 32.675503], [-117.05098, 32.67222], [-117.05936, 32.66992], [-117.05853, 32.66752], [-117.06001, 32.66692], [-117.06001, 32.66592], [-117.06025, 32.66527], [-117.06084, 32.66477], [-117.06096, 32.66432], [-117.061073, 32.664172], [-117.06138, 32.66377], [-117.0653, 32.66257], [-117.070072, 32.674453], [-117.070844, 32.676375], [-117.07297, 32.68167], [-117.06471, 32.68387]]]}}, {"type": "Feature", "properties": {"area_id": 667, "city": "San Diego", "state": "CA", "city_survey": true, "cat": "Hazardous", "grade": "D", "label": "D2", "res": true, "com": false, "ind": false, "holc_grade": "D"}, "geometry": {"type": "Polygon", "coordinates": [[[-117.194596, 32.754309], [-117.19568, 32.75294], [-117.19956, 32.75546], [-117.20304, 32.75171], [-117.20637, 32.7538], [-117.20676, 32.75393], [-117.20969, 32.75562], [-117.20612, 32.75968], [-117.206214, 32.75975], [-117.20943, 32.76215], [-117.204909, 32.762831], [-117.197925, 32.763882], [-117.19754, 32.76394], [-117.197045, 32.762975], [-117.19612, 32.76117], [-117.1949, 32.76173], [-117.19393, 32.76167], [-117.19338, 32.7628], [-117.19298, 32.76306], [-117.19068, 32.76108], [-117.192134, 32.759183], [-117.192137, 32.759179], [-117.19222, 32.75907], [-117.19139, 32.75843], [-117.193345, 32.755911], [-117.193574, 32.755616], [-117.193957, 32.755123], [-117.1942, 32.75481], [-117.194596, 32.754309]]]}}, {"type": "Feature", "properties": {"area_id": 660, "city": "San Diego", "state": "CA", "city_survey": true, "cat": "Hazardous", "grade": "D", "label": "D3", "res": true, "com": false, "ind": false, "holc_grade": "D"}, "geometry": {"type": "Polygon", "coordinates": [[[-117.170854, 32.719873], [-117.17092, 32.72243], [-117.17109, 32.72339], [-117.173681, 32.729506], [-117.17475, 32.73203], [-117.175308, 32.732621], [-117.18053, 32.73815], [-117.180453, 32.73819], [-117.17756, 32.73967], [-117.17725, 32.73983], [-117.17135, 32.73313], [-117.17133, 32.73251], [-117.17015, 32.73271], [-117.16994, 32.732151], [-117.16982, 32.73183], [-117.16884, 32.73201], [-117.168475, 32.731142], [-117.166807, 32.727178], [-117.166172, 32.725671], [-117.16597, 32.72519], [-117.16578, 32.72457], [-117.165602, 32.722994], [-117.16559, 32.72289], [-117.16554, 32.72161], [-117.165618, 32.719884], [-117.16563, 32.71963], [-117.166488, 32.719646], [-117.17085, 32.71973], [-117.170854, 32.719873]]]}}, {"type": "Feature", "properties": {"area_id": 634, "city": "San Diego", "state": "CA", "city_survey": true, "cat": "Hazardous", "grade": "D", "label": "D4", "res": true, "com": false, "ind": false, "holc_grade": "D"}, "geometry": {"type": "Polygon", "coordinates": [[[-117.13807, 32.69726], [-117.145825, 32.702652], [-117.14933, 32.70509], [-117.149429, 32.711532], [-117.14955, 32.71934], [-117.147908, 32.719315], [-117.14759, 32.71931], [-117.147568, 32.717953], [-117.147559, 32.717392], [-117.14755, 32.71685], [-117.142495, 32.716872], [-117.133797, 32.71691], [-117.13375, 32.71691], [-117.133653, 32.711632], [-117.13365, 32.71148], [-117.13371, 32.71148], [-117.133779, 32.705342], [-117.133826, 32.701148], [-117.133833, 32.700577], [-117.133896, 32.694985], [-117.13392, 32.69285], [-117.13782, 32.69288], [-117.13821, 32.69315], [-117.13807, 32.69726]]]}}, {"type": "Feature", "properties": {"area_id": 638, "city": "San Diego", "state": "CA", "city_survey": true, "cat": "Hazardous", "grade": "D", "label": "D5", "res": true, "com": false, "ind": false, "holc_grade": "D"}, "geometry": {"type": "Polygon", "coordinates": [[[-117.118842, 32.711527], [-117.12166, 32.71163], [-117.13365, 32.71148], [-117.133653, 32.711632], [-117.13375, 32.71691], [-117.12474, 32.71691], [-117.12482, 32.71898], [-117.12439, 32.71901], [-117.124391, 32.719027], [-117.12449, 32.72024], [-117.12168, 32.72027], [-117.12057, 32.72015], [-117.12104, 32.73049], [-117.11719, 32.73046], [-117.114884, 32.723766], [-117.112882, 32.717955], [-117.110656, 32.711491], [-117.11059, 32.7113], [-117.11674, 32.71145], [-117.118842, 32.711527]]]}}, {"type": "Feature", "properties": {"area_id": 633, "city": "San Diego", "state": "CA", "city_survey": true, "cat": "Hazardous", "grade": "D", "label": "D6", "res": true, "com": false, "ind": false, "holc_grade": "D"}, "geometry": {"type": "Polygon", "coordinates": [[[-117.12114, 32.68814], [-117.12064, 32.68889], [-117.12364, 32.6912], [-117.12432, 32.69045], [-117.12524, 32.6912], [-117.12531, 32.69066], [-117.13155, 32.69069], [-117.13151, 32.69102], [-117.13179, 32.69132], [-117.13204, 32.69165], [-117.13254, 32.69183], [-117.13322, 32.69189], [-117.133691, 32.69195], [-117.13393, 32.69198], [-117.13392, 32.69285], [-117.133896, 32.694985], [-117.133833, 32.700577], [-117.133826, 32.701148], [-117.133779, 32.705342], [-117.13371, 32.71148], [-117.13365, 32.71148], [-117.12166, 32.71163], [-117.118842, 32.711527], [-117.11674, 32.71145], [-117.11699, 32.70494], [-117.10862, 32.70473], [-117.108371, 32.704715], [-117.09822, 32.7041], [-117.09818, 32.70371], [-117.10186, 32.70371], [-117.10788, 32.70419], [-117.108014, 32.704198], [-117.10991, 32.70431], [-117.1169, 32.70428], [-117.116812, 32.701242], [-117.11672, 32.69807], [-117.1061, 32.69807], [-117.10613, 32.6972], [-117.106044, 32.697197], [-117.10449, 32.69714], [-117.10442, 32.7005], [-117.095033, 32.700428], [-117.09276, 32.70041], [-117.09269, 32.6969], [-117.095061, 32.696887], [-117.09811, 32.69687], [-117.09811, 32.696821], [-117.09811, 32.69321], [-117.102361, 32.693355], [-117.1025, 32.69336], [-117.102474, 32.689807], [-117.10246, 32.68787], [-117.10157, 32.68517], [-117.1108, 32.68258], [-117.111034, 32.682608], [-117.111227, 32.682631], [-117.11605, 32.68321], [-117.12011, 32.68625], [-117.11947, 32.68694], [-117.12114, 32.68814]]]}}, {"type": "Feature", "properties": {"area_id": 647, "city": "San Diego", "state": "CA", "city_survey": true, "cat": "Hazardous", "grade": "D", "label": "D7", "res": true, "com": false, "ind": false, "holc_grade": "D"}, "geometry": {"type": "Polygon", "coordinates": [[[-117.08698, 32.73531], [-117.088342, 32.732831], [-117.09009, 32.72965], [-117.0949, 32.72947], [-117.09587, 32.72935], [-117.09694, 32.72935], [-117.09875, 32.72956], [-117.098835, 32.729565], [-117.1006, 32.72967], [-117.111538, 32.730323], [-117.1145, 32.7305], [-117.11451, 32.7305], [-117.11803, 32.740377], [-117.11945, 32.74436], [-117.119077, 32.744302], [-117.11796, 32.74413], [-117.117842, 32.744142], [-117.11661, 32.74427], [-117.110363, 32.744185], [-117.100949, 32.744058], [-117.09448, 32.74397], [-117.09438, 32.74229], [-117.094365, 32.74026], [-117.09434, 32.73693], [-117.092227, 32.736914], [-117.09175, 32.73691], [-117.08968, 32.73685], [-117.087134, 32.735398], [-117.08698, 32.73531]]]}}, {"type": "Feature", "properties": {"area_id": 637, "city": "San Diego", "state": "CA", "city_survey": true, "cat": "Hazardous", "grade": "D", "label": "D8", "res": true, "com": false, "ind": false, "holc_grade": "D"}, "geometry": {"type": "Polygon", "coordinates": [[[-117.10656, 32.7098], [-117.10663, 32.71148], [-117.110493, 32.711304], [-117.11059, 32.7113], [-117.110656, 32.711491], [-117.112882, 32.717955], [-117.114884, 32.723766], [-117.11719, 32.73046], [-117.11487, 32.73052], [-117.11451, 32.7305], [-117.1145, 32.7305], [-117.111538, 32.730323], [-117.1006, 32.72967], [-117.098835, 32.729565], [-117.09875, 32.72956], [-117.09694, 32.72935], [-117.09587, 32.72935], [-117.0949, 32.72947], [-117.09009, 32.72965], [-117.089119, 32.729686], [-117.08528, 32.72983], [-117.085221, 32.72675], [-117.08507, 32.71883], [-117.085055, 32.718029], [-117.084986, 32.714379], [-117.084895, 32.709531], [-117.08489, 32.70929], [-117.084988, 32.709292], [-117.09123, 32.70941], [-117.093664, 32.708797], [-117.093669, 32.708795], [-117.09373, 32.70878], [-117.09362, 32.71142], [-117.0979, 32.71148], [-117.098043, 32.708463], [-117.098088, 32.707502], [-117.09811, 32.70704], [-117.099334, 32.707533], [-117.10474, 32.70971], [-117.10656, 32.7098]]]}}, {"type": "Feature", "properties": {"area_id": 636, "city": "San Diego", "state": "CA", "city_survey": true, "cat": "Hazardous", "grade": "D", "label": "D9", "res": true, "com": false, "ind": false, "holc_grade": "D"}, "geometry": {"type": "Polygon", "coordinates": [[[-117.086588, 32.704082], [-117.087973, 32.704118], [-117.08814, 32.704123], [-117.08842, 32.70413], [-117.0938, 32.70419], [-117.09373, 32.70878], [-117.093669, 32.708795], [-117.093664, 32.708797], [-117.09123, 32.70941], [-117.084988, 32.709292], [-117.08489, 32.70929], [-117.084959, 32.7041], [-117.08496, 32.70404], [-117.085, 32.704041], [-117.086588, 32.704082]]]}}, {"type": "Feature", "properties": {"area_id": 11151, "city": "San Diego", "state": "CA", "city_survey": true, "cat": "Industrial and Commercial", "grade": null, "label": "Industrial and Commercial", "res": false, "com": true, "ind": true, "holc_grade": null}, "geometry": {"type": "MultiPolygon", "coordinates": [[[[-117.10147, 32.685198], [-117.10157, 32.68517], [-117.10246, 32.68787], [-117.102474, 32.689807], [-117.1025, 32.69336], [-117.102361, 32.693355], [-117.09811, 32.69321], [-117.09811, 32.696821], [-117.09811, 32.69687], [-117.095061, 32.696887], [-117.09269, 32.6969], [-117.09276, 32.70041], [-117.08842, 32.7005], [-117.08842, 32.704118], [-117.08842, 32.70413], [-117.08814, 32.704123], [-117.087973, 32.704118], [-117.086588, 32.704082], [-117.085, 32.704041], [-117.08496, 32.70404], [-117.085108, 32.692373], [-117.08514, 32.68986], [-117.093147, 32.687574], [-117.10147, 32.685198]]], [[[-117.17499, 32.71462], [-117.174939, 32.714826], [-117.174784, 32.715453], [-117.174671, 32.715907], [-117.174458, 32.71677], [-117.174158, 32.717978], [-117.173823, 32.719334], [-117.173731, 32.719704], [-117.1737, 32.71983], [-117.173476, 32.719822], [-117.17085, 32.71973], [-117.166488, 32.719646], [-117.16563, 32.71963], [-117.156558, 32.719776], [-117.1557, 32.71979], [-117.154733, 32.719719], [-117.150662, 32.719421], [-117.14955, 32.71934], [-117.149429, 32.711532], [-117.14933, 32.70509], [-117.145825, 32.702652], [-117.13807, 32.69726], [-117.13821, 32.69315], [-117.13782, 32.69288], [-117.13392, 32.69285], [-117.13393, 32.69198], [-117.133691, 32.69195], [-117.13322, 32.69189], [-117.13254, 32.69183], [-117.13204, 32.69165], [-117.13179, 32.69132], [-117.13151, 32.69102], [-117.13155, 32.69069], [-117.12531, 32.69066], [-117.12524, 32.6912], [-117.12432, 32.69045], [-117.12364, 32.6912], [-117.12064, 32.68889], [-117.12114, 32.68814], [-117.11947, 32.68694], [-117.12011, 32.68625], [-117.11605, 32.68321], [-117.111227, 32.682631], [-117.111034, 32.682608], [-117.1108, 32.68258], [-117.111001, 32.682525], [-117.111052, 32.682511], [-117.115782, 32.681225], [-117.120309, 32.679993], [-117.1219, 32.67956], [-117.12325, 32.68009], [-117.12432, 32.68179], [-117.1259, 32.68335], [-117.12567, 32.68539], [-117.1277, 32.6853], [-117.12843, 32.68762], [-117.1326, 32.68994], [-117.13366, 32.690397], [-117.13457, 32.69079], [-117.13738, 32.69155], [-117.13997, 32.6915], [-117.1474, 32.6952], [-117.149271, 32.696587], [-117.15123, 32.69804], [-117.15354, 32.70084], [-117.15253, 32.70226], [-117.1527, 32.70349], [-117.15472, 32.70415], [-117.15602, 32.70392], [-117.157595, 32.705059], [-117.15804, 32.70538], [-117.159131, 32.70444], [-117.16013, 32.70358], [-117.16075, 32.704034], [-117.16564, 32.70761], [-117.17324, 32.71259], [-117.173586, 32.712991], [-117.174453, 32.713997], [-117.17499, 32.71462]]], [[[-117.17218, 32.69984], [-117.171709, 32.699606], [-117.17073, 32.69912], [-117.1709, 32.6992], [-117.1712, 32.69894], [-117.17272, 32.69647], [-117.173462, 32.696783], [-117.174, 32.69701], [-117.17218, 32.69984]]], [[[-117.17893, 32.68373], [-117.17928, 32.68399], [-117.1799, 32.68438], [-117.18038, 32.68474], [-117.18071, 32.68534], [-117.18085, 32.68556], [-117.18049, 32.686167], [-117.17798, 32.6904], [-117.177372, 32.690149], [-117.17662, 32.68984], [-117.17912, 32.68578], [-117.178902, 32.6855], [-117.17684, 32.68285], [-117.17565, 32.68225], [-117.17691, 32.68113], [-117.17717, 32.68179], [-117.17771, 32.68215], [-117.17833, 32.68245], [-117.17893, 32.68373]]], [[[-117.208504, 32.747564], [-117.20912, 32.74794], [-117.208163, 32.750369], [-117.20676, 32.75393], [-117.20637, 32.7538], [-117.20304, 32.75171], [-117.19956, 32.75546], [-117.19568, 32.75294], [-117.1933, 32.7514], [-117.19257, 32.751335], [-117.19196, 32.75128], [-117.19126, 32.75099], [-117.19083, 32.75055], [-117.190606, 32.750145], [-117.19052, 32.74999], [-117.19015, 32.74909], [-117.189793, 32.748866], [-117.185502, 32.746181], [-117.181654, 32.743773], [-117.17986, 32.74265], [-117.177864, 32.740063], [-117.17756, 32.73967], [-117.180453, 32.73819], [-117.18053, 32.73815], [-117.18167, 32.73903], [-117.184379, 32.740322], [-117.187092, 32.741617], [-117.195183, 32.745477], [-117.19563, 32.745691], [-117.19565, 32.7457], [-117.195801, 32.745665], [-117.202164, 32.744211], [-117.20278, 32.74407], [-117.208504, 32.747564]]], [[[-117.255318, 32.743386], [-117.255282, 32.743703], [-117.255256, 32.74393], [-117.25521, 32.74434], [-117.255613, 32.74455], [-117.25596, 32.74473], [-117.25567, 32.74691], [-117.25366, 32.7477], [-117.25297, 32.75034], [-117.25297, 32.751854], [-117.25297, 32.752264], [-117.25297, 32.75264], [-117.252851, 32.753425], [-117.25276, 32.75403], [-117.252606, 32.754137], [-117.25113, 32.75516], [-117.24825, 32.75507], [-117.246694, 32.754956], [-117.2436, 32.75473], [-117.24299, 32.75382], [-117.24328, 32.75316], [-117.24411, 32.75276], [-117.24152, 32.75077], [-117.24185, 32.75085], [-117.24218, 32.7508], [-117.24242, 32.75047], [-117.239194, 32.74831], [-117.23918, 32.7483], [-117.24268, 32.74425], [-117.242695, 32.744259], [-117.24429, 32.74525], [-117.242944, 32.746977], [-117.24203, 32.74815], [-117.24717, 32.75137], [-117.248242, 32.750257], [-117.24871, 32.74977], [-117.2491, 32.7494], [-117.25029, 32.7477], [-117.24678, 32.74555], [-117.248262, 32.743843], [-117.24836, 32.74373], [-117.25186, 32.746], [-117.255076, 32.742543], [-117.25546, 32.74213], [-117.255353, 32.743075], [-117.255352, 32.743084], [-117.255318, 32.743386]]], [[[-117.27505, 32.84007], [-117.27541, 32.84146], [-117.27653, 32.84454], [-117.2767, 32.84507], [-117.27665, 32.84545], [-117.27652, 32.84578], [-117.27631, 32.84605], [-117.27604, 32.84617], [-117.27582, 32.84624], [-117.27564, 32.84635], [-117.27484, 32.8474], [-117.27437, 32.84783], [-117.27377, 32.8481], [-117.27225, 32.84357], [-117.271319, 32.840777], [-117.27129, 32.84069], [-117.272454, 32.840375], [-117.27314, 32.84019], [-117.27495, 32.83986], [-117.274981, 32.839926], [-117.27505, 32.84007]]]]}}]}