{"type": "FeatureCollection", "features": [{"type": "Feature", "properties": {"area_id": 10162, "city": "Hendersonville", "state": "NC", "city_survey": false, "cat": "Best Residential", "grade": "", "label": "Best Residential", "res": true, "com": false, "ind": false, "fill": "#993C32", "GEOID10": "37089930900", "GISJOIN": "G3700890930900", "calc_area": 233139.55889, "pct_tract": 0.03035}, "geometry": {"type": "MultiPolygon", "coordinates": [[[[-82.47409, 35.32967], [-82.47436, 35.33258], [-82.47243, 35.33257], [-82.47005, 35.33275], [-82.469752, 35.332787], [-82.46967, 35.332581], [-82.469566, 35.332321], [-82.469453, 35.332038], [-82.468735, 35.330236], [-82.468507, 35.329667], [-82.468384, 35.329359], [-82.468138, 35.328708], [-82.467834, 35.328092], [-82.467692, 35.327805], [-82.467185, 35.327088], [-82.467288, 35.327048], [-82.467406, 35.327022], [-82.467551, 35.327015], [-82.467729, 35.327035], [-82.467995, 35.327182], [-82.468581, 35.327552], [-82.469907, 35.328027], [-82.470091, 35.32809], [-82.470584, 35.328258], [-82.470753, 35.328324], [-82.471674, 35.32862], [-82.472578, 35.328939], [-82.472915, 35.329062], [-82.473295, 35.32919], [-82.473782, 35.329328], [-82.474059, 35.329402], [-82.47409, 35.32967]]]]}}, {"type": "Feature", "properties": {"area_id": 10162, "city": "Hendersonville", "state": "NC", "city_survey": false, "cat": "Best Residential", "grade": "", "label": "Best Residential", "res": true, "com": false, "ind": false, "fill": "#993C32", "GEOID10": "37089931100", "GISJOIN": "G3700890931100", "calc_area": 610498.14808, "pct_tract": 0.18432}, "geometry": {"type": "MultiPolygon", "coordinates": [[[[-82.47215, 35.3192], [-82.47079, 35.31885], [-82.46834, 35.31889], [-82.46721, 35.31911], [-82.46636, 35.31921], [-82.4651, 35.31896], [-82.46377, 35.31872], [-82.463771, 35.318697], [-82.464942, 35.318906], [-82.466187, 35.319132], [-82.466379, 35.319151], [-82.466495, 35.319151], [-82.466654, 35.319136], [-82.467259, 35.319039], [-82.468301, 35.318873], [-82.468667, 35.318831], [-82.469321, 35.318809], [-82.470668, 35.318824], [-82.470918, 35.318826], [-82.471231, 35.318836], [-82.471347, 35.318857], [-82.472153, 35.319164], [-82.47215, 35.3192]]], [[[-82.4694, 35.33283], [-82.46877, 35.33097], [-82.46856, 35.33071], [-82.46862, 35.3301], [-82.46841, 35.32953], [-82.46828, 35.32918], [-82.46789, 35.32911], [-82.46729, 35.32914], [-82.46574, 35.32938], [-82.46493, 35.32967], [-82.4639, 35.33034], [-82.46318, 35.3308], [-82.46284, 35.33075], [-82.46251, 35.33046], [-82.46238, 35.33011], [-82.45967, 35.3275], [-82.46038, 35.3275], [-82.46137, 35.32707], [-82.46133, 35.32681], [-82.46174, 35.32599], [-82.46243, 35.32461], [-82.46286, 35.32364], [-82.46296, 35.323], [-82.46471, 35.3228], [-82.46488, 35.32221], [-82.46881, 35.32248], [-82.46833, 35.32327], [-82.46839, 35.32392], [-82.46888, 35.32448], [-82.47048, 35.32559], [-82.47088, 35.32559], [-82.4717, 35.32628], [-82.47271, 35.32657], [-82.47282, 35.32694], [-82.47276, 35.32889], [-82.47405, 35.32932], [-82.474059, 35.329402], [-82.473782, 35.329328], [-82.473295, 35.32919], [-82.472915, 35.329062], [-82.472578, 35.328939], [-82.471674, 35.32862], [-82.470753, 35.328324], [-82.470584, 35.328258], [-82.470091, 35.32809], [-82.469907, 35.328027], [-82.468581, 35.327552], [-82.467995, 35.327182], [-82.467729, 35.327035], [-82.467551, 35.327015], [-82.467406, 35.327022], [-82.467288, 35.327048], [-82.467185, 35.327088], [-82.467692, 35.327805], [-82.467834, 35.328092], [-82.468138, 35.328708], [-82.468384, 35.329359], [-82.468507, 35.329667], [-82.468735, 35.330236], [-82.469453, 35.332038], [-82.469566, 35.332321], [-82.46967, 35.332581], [-82.469752, 35.332787], [-82.4694, 35.33283]]]]}}, {"type": "Feature", "properties": {"area_id": 10162, "city": "Hendersonville", "state": "NC", "city_survey": false, "cat": "Best Residential", "grade": "", "label": "Best Residential", "res": true, "com": false, "ind": false, "fill": "#993C32", "GEOID10": "37089931200", "GISJOIN": "G3700890931200", "calc_area": 325069.30591, "pct_tract": 0.12735}, "geometry": {"type": "MultiPolygon", "coordinates": [[[[-82.46386, 35.31623], [-82.46942, 35.31552], [-82.47399, 35.31492], [-82.4737, 35.31824], [-82.47224, 35.31815], [-82.472153, 35.319164], [-82.471347, 35.318857], [-82.471231, 35.318836], [-82.470918, 35.318826], [-82.470668, 35.318824], [-82.469321, 35.318809], [-82.468667, 35.318831], [-82.468301, 35.318873], [-82.467259, 35.319039], [-82.466654, 35.319136], [-82.466495, 35.319151], [-82.466379, 35.319151], [-82.466187, 35.319132], [-82.464942, 35.318906], [-82.463771, 35.318697], [-82.46386, 35.31623]]]]}}, {"type": "Feature", "properties": {"area_id": 10163, "city": "Hendersonville", "state": "NC", "city_survey": false, "cat": "Good Residential", "grade": "", "label": "Good Residential", "res": true, "com": false, "ind": false, "fill": "#7C8489", "GEOID10": "37089931700", "GISJOIN": "G3700890931700", "calc_area": 182708.97715, "pct_tract": 0.01775}, "geometry": {"type": "MultiPolygon", "coordinates": [[[[-82.47745, 35.30553], [-82.4779, 35.30548], [-82.47768, 35.30706], [-82.47864, 35.30719], [-82.47882, 35.30734], [-82.47863, 35.30835], [-82.47837, 35.30855], [-82.47738, 35.30846], [-82.47655, 35.31036], [-82.4762, 35.31073], [-82.47584, 35.31085], [-82.47606, 35.31143], [-82.47617, 35.31217], [-82.47606, 35.31246], [-82.47616, 35.31298], [-82.4758, 35.31301], [-82.47448, 35.3117], [-82.4738, 35.31061], [-82.473638, 35.310058], [-82.47368, 35.310073], [-82.47362, 35.309959], [-82.473563, 35.309705], [-82.473511, 35.30957], [-82.473456, 35.309476], [-82.473221, 35.309141], [-82.473153, 35.308981], [-82.473145, 35.308877], [-82.473199, 35.308743], [-82.473289, 35.308662], [-82.473354, 35.308614], [-82.473454, 35.308566], [-82.473558, 35.308531], [-82.47369, 35.308507], [-82.473798, 35.308506], [-82.473963, 35.30852], [-82.474114, 35.308499], [-82.474277, 35.308433], [-82.47452, 35.308316], [-82.474593, 35.30821], [-82.474789, 35.307924], [-82.475075, 35.307534], [-82.475089, 35.307518], [-82.475304, 35.307278], [-82.475421, 35.307163], [-82.47545, 35.307134], [-82.475494, 35.307088], [-82.475875, 35.306816], [-82.475915, 35.306806], [-82.476007, 35.30676], [-82.47606, 35.306712], [-82.476082, 35.306675], [-82.476108, 35.306632], [-82.476145, 35.306553], [-82.476173, 35.306494], [-82.476216, 35.306359], [-82.476241, 35.306311], [-82.476287, 35.306223], [-82.476374, 35.306123], [-82.476455, 35.306063], [-82.476611, 35.305968], [-82.476931, 35.305824], [-82.477399, 35.305611], [-82.477404, 35.305544], [-82.47745, 35.30553]]]]}}, {"type": "Feature", "properties": {"area_id": 10163, "city": "Hendersonville", "state": "NC", "city_survey": false, "cat": "Good Residential", "grade": "", "label": "Good Residential", "res": true, "com": false, "ind": false, "fill": "#7C8489", "GEOID10": "37089931600", "GISJOIN": "G3700890931600", "calc_area": 425228.41664, "pct_tract": 0.03281}, "geometry": {"type": "MultiPolygon", "coordinates": [[[[-82.4736, 35.30993], [-82.47229, 35.31064], [-82.47018, 35.30905], [-82.46925, 35.30874], [-82.46685, 35.30878], [-82.46673, 35.30655], [-82.46751, 35.30648], [-82.46584, 35.305], [-82.46742, 35.30412], [-82.46906, 35.30322], [-82.47061, 35.30237], [-82.47168, 35.30219], [-82.47212, 35.30338], [-82.47203, 35.30505], [-82.47295, 35.30589], [-82.47391, 35.30637], [-82.47444, 35.3065], [-82.47535, 35.30649], [-82.4756, 35.30673], [-82.47588, 35.30675], [-82.47636, 35.30601], [-82.47675, 35.30575], [-82.477404, 35.305544], [-82.477399, 35.305611], [-82.476931, 35.305824], [-82.476611, 35.305968], [-82.476455, 35.306063], [-82.476374, 35.306123], [-82.476287, 35.306223], [-82.476241, 35.306311], [-82.476216, 35.306359], [-82.476173, 35.306494], [-82.476145, 35.306553], [-82.476108, 35.306632], [-82.476082, 35.306675], [-82.47606, 35.306712], [-82.476007, 35.30676], [-82.475915, 35.306806], [-82.475875, 35.306816], [-82.475494, 35.307088], [-82.47545, 35.307134], [-82.475421, 35.307163], [-82.475304, 35.307278], [-82.475089, 35.307518], [-82.475075, 35.307534], [-82.474789, 35.307924], [-82.474593, 35.30821], [-82.47452, 35.308316], [-82.474277, 35.308433], [-82.474114, 35.308499], [-82.473963, 35.30852], [-82.473798, 35.308506], [-82.47369, 35.308507], [-82.473558, 35.308531], [-82.473454, 35.308566], [-82.473354, 35.308614], [-82.473289, 35.308662], [-82.473199, 35.308743], [-82.473145, 35.308877], [-82.473153, 35.308981], [-82.473221, 35.309141], [-82.473456, 35.309476], [-82.473511, 35.30957], [-82.473563, 35.309705], [-82.47362, 35.309959], [-82.47368, 35.310073], [-82.473638, 35.310058], [-82.4736, 35.30993]]]]}}, {"type": "Feature", "properties": {"area_id": 10163, "city": "Hendersonville", "state": "NC", "city_survey": false, "cat": "Good Residential", "grade": "", "label": "Good Residential", "res": true, "com": false, "ind": false, "fill": "#7C8489", "GEOID10": "37089931100", "GISJOIN": "G3700890931100", "calc_area": 510148.99043, "pct_tract": 0.15402}, "geometry": {"type": "MultiPolygon", "coordinates": [[[[-82.46193, 35.31855], [-82.46259, 35.31852], [-82.46377, 35.31872], [-82.4651, 35.31896], [-82.46636, 35.31921], [-82.46721, 35.31911], [-82.46834, 35.31889], [-82.47079, 35.31885], [-82.47215, 35.3192], [-82.47213, 35.3202], [-82.47207, 35.32274], [-82.46881, 35.32248], [-82.46488, 35.32221], [-82.46471, 35.3228], [-82.46296, 35.323], [-82.46286, 35.32364], [-82.46243, 35.32461], [-82.46057, 35.32319], [-82.45919, 35.32196], [-82.45976, 35.32143], [-82.45853, 35.32013], [-82.45959, 35.31982], [-82.45941, 35.3189], [-82.46193, 35.31855]]]]}}, {"type": "Feature", "properties": {"area_id": 10163, "city": "Hendersonville", "state": "NC", "city_survey": false, "cat": "Good Residential", "grade": "", "label": "Good Residential", "res": true, "com": false, "ind": false, "fill": "#7C8489", "GEOID10": "37089931200", "GISJOIN": "G3700890931200", "calc_area": 459945.71528, "pct_tract": 0.18019}, "geometry": {"type": "MultiPolygon", "coordinates": [[[[-82.46155, 35.31113], [-82.46218, 35.31395], [-82.45967, 35.31433], [-82.45998, 35.31588], [-82.45872, 35.31608], [-82.4578, 35.31169], [-82.46155, 35.31113]]], [[[-82.47399, 35.31492], [-82.46942, 35.31552], [-82.46386, 35.31623], [-82.46273, 35.31644], [-82.46238, 35.31515], [-82.46495, 35.31508], [-82.47543, 35.31312], [-82.47679, 35.31548], [-82.47802, 35.31517], [-82.47909, 35.31827], [-82.47814, 35.31844], [-82.47732, 35.3183], [-82.47531, 35.3182], [-82.47396, 35.31804], [-82.4737, 35.31824], [-82.47399, 35.31492]]]]}}, {"type": "Feature", "properties": {"area_id": 10164, "city": "Hendersonville", "state": "NC", "city_survey": false, "cat": "Poor Residential", "grade": "", "label": "Poor Residential", "res": true, "com": false, "ind": false, "fill": "#748B6B", "GEOID10": "37089931700", "GISJOIN": "G3700890931700", "calc_area": 24871.53778, "pct_tract": 0.00242}, "geometry": {"type": "MultiPolygon", "coordinates": [[[[-82.4738, 35.31061], [-82.47448, 35.3117], [-82.4758, 35.31301], [-82.475498, 35.3131], [-82.473551, 35.311477], [-82.473467, 35.311408], [-82.472494, 35.310904], [-82.47211, 35.310842], [-82.472339, 35.310654], [-82.472415, 35.310599], [-82.472919, 35.310313], [-82.473389, 35.310055], [-82.473445, 35.310041], [-82.473508, 35.310036], [-82.473568, 35.310041], [-82.473621, 35.310052], [-82.473638, 35.310058], [-82.4738, 35.31061]]]]}}, {"type": "Feature", "properties": {"area_id": 10164, "city": "Hendersonville", "state": "NC", "city_survey": false, "cat": "Poor Residential", "grade": "", "label": "Poor Residential", "res": true, "com": false, "ind": false, "fill": "#748B6B", "GEOID10": "37089931600", "GISJOIN": "G3700890931600", "calc_area": 362104.60931, "pct_tract": 0.02794}, "geometry": {"type": "MultiPolygon", "coordinates": [[[[-82.46088, 35.30591], [-82.46236, 35.30618], [-82.46287, 35.30571], [-82.46301, 35.30425], [-82.46356, 35.30202], [-82.46344, 35.30095], [-82.4643, 35.30043], [-82.4666, 35.3004], [-82.46627, 35.30085], [-82.46668, 35.30161], [-82.46765, 35.30239], [-82.46906, 35.30322], [-82.46742, 35.30412], [-82.46584, 35.305], [-82.46511, 35.30605], [-82.46399, 35.3084], [-82.46366, 35.30902], [-82.46279, 35.30928], [-82.462566, 35.309674], [-82.462497, 35.309672], [-82.46202, 35.30914], [-82.46195, 35.30869], [-82.46159, 35.30859], [-82.46147, 35.30794], [-82.459484, 35.307702], [-82.459525, 35.307498], [-82.459726, 35.306904], [-82.459822, 35.306587], [-82.459861, 35.306459], [-82.460054, 35.305819], [-82.46088, 35.30591]]], [[[-82.46423, 35.30928], [-82.46548, 35.30875], [-82.46685, 35.30878], [-82.46925, 35.30874], [-82.47018, 35.30905], [-82.47229, 35.31064], [-82.4736, 35.30993], [-82.473638, 35.310058], [-82.473621, 35.310052], [-82.473568, 35.310041], [-82.473508, 35.310036], [-82.473445, 35.310041], [-82.473389, 35.310055], [-82.472919, 35.310313], [-82.472415, 35.310599], [-82.472339, 35.310654], [-82.47211, 35.310842], [-82.470832, 35.309862], [-82.470742, 35.309814], [-82.470387, 35.30964], [-82.469946, 35.309395], [-82.469231, 35.309212], [-82.468117, 35.309007], [-82.466884, 35.309054], [-82.466442, 35.30909], [-82.465468, 35.309237], [-82.464133, 35.309438], [-82.46423, 35.30928]]]]}}, {"type": "Feature", "properties": {"area_id": 10164, "city": "Hendersonville", "state": "NC", "city_survey": false, "cat": "Poor Residential", "grade": "", "label": "Poor Residential", "res": true, "com": false, "ind": false, "fill": "#748B6B", "GEOID10": "37089931100", "GISJOIN": "G3700890931100", "calc_area": 251949.09305, "pct_tract": 0.07607}, "geometry": {"type": "MultiPolygon", "coordinates": [[[[-82.47359, 35.3202], [-82.47213, 35.3202], [-82.47215, 35.3192], [-82.472153, 35.319164], [-82.472168, 35.31917], [-82.473528, 35.319679], [-82.473601, 35.319698], [-82.47359, 35.3202]]], [[[-82.47594, 35.32048], [-82.47477, 35.32011], [-82.47478, 35.320011], [-82.476117, 35.320374], [-82.476897, 35.320585], [-82.476955, 35.320601], [-82.477118, 35.320649], [-82.477301, 35.320702], [-82.47594, 35.32048]]], [[[-82.479247, 35.3208], [-82.479264, 35.320794], [-82.479267, 35.3208], [-82.479247, 35.3208]]], [[[-82.45941, 35.3189], [-82.45959, 35.31982], [-82.45853, 35.32013], [-82.45976, 35.32143], [-82.45919, 35.32196], [-82.46057, 35.32319], [-82.46243, 35.32461], [-82.46174, 35.32599], [-82.46133, 35.32681], [-82.46137, 35.32707], [-82.46038, 35.3275], [-82.45967, 35.3275], [-82.45894, 35.32671], [-82.45852, 35.3258], [-82.45748, 35.32251], [-82.45715, 35.32131], [-82.45674, 35.32085], [-82.45641, 35.32004], [-82.456379, 35.31972], [-82.45668, 35.31959], [-82.457473, 35.319273], [-82.457808, 35.319163], [-82.458315, 35.31903], [-82.459405, 35.318879], [-82.45941, 35.3189]]]]}}, {"type": "Feature", "properties": {"area_id": 10164, "city": "Hendersonville", "state": "NC", "city_survey": false, "cat": "Poor Residential", "grade": "", "label": "Poor Residential", "res": true, "com": false, "ind": false, "fill": "#748B6B", "GEOID10": "37089931200", "GISJOIN": "G3700890931200", "calc_area": 898802.93141, "pct_tract": 0.35211}, "geometry": {"type": "MultiPolygon", "coordinates": [[[[-82.46254, 35.30972], [-82.462497, 35.309672], [-82.462566, 35.309674], [-82.46254, 35.30972]]], [[[-82.47543, 35.31312], [-82.46495, 35.31508], [-82.46238, 35.31515], [-82.46218, 35.31395], [-82.46155, 35.31113], [-82.46254, 35.311], [-82.4634, 35.31063], [-82.464133, 35.309438], [-82.465468, 35.309237], [-82.466442, 35.30909], [-82.466884, 35.309054], [-82.468117, 35.309007], [-82.469231, 35.309212], [-82.469946, 35.309395], [-82.470387, 35.30964], [-82.470742, 35.309814], [-82.470832, 35.309862], [-82.47211, 35.310842], [-82.472494, 35.310904], [-82.473467, 35.311408], [-82.473551, 35.311477], [-82.475498, 35.3131], [-82.47543, 35.31312]]], [[[-82.47489, 35.31893], [-82.47362, 35.31877], [-82.473601, 35.319698], [-82.473528, 35.319679], [-82.472168, 35.31917], [-82.472153, 35.319164], [-82.47224, 35.31815], [-82.4737, 35.31824], [-82.47396, 35.31804], [-82.47531, 35.3182], [-82.47732, 35.3183], [-82.47814, 35.31844], [-82.479283, 35.320786], [-82.479264, 35.320794], [-82.479247, 35.3208], [-82.4779, 35.3208], [-82.477301, 35.320702], [-82.477118, 35.320649], [-82.476955, 35.320601], [-82.476897, 35.320585], [-82.476117, 35.320374], [-82.47478, 35.320011], [-82.47489, 35.31893]]], [[[-82.45634, 35.31932], [-82.45595, 35.31828], [-82.4556, 35.31742], [-82.45493, 35.31573], [-82.45484, 35.31486], [-82.45586, 35.31363], [-82.45662, 35.31216], [-82.456687, 35.311981], [-82.456878, 35.311752], [-82.457032, 35.311516], [-82.457098, 35.311427], [-82.4578, 35.31169], [-82.45872, 35.31608], [-82.459405, 35.318879], [-82.458315, 35.31903], [-82.457808, 35.319163], [-82.457473, 35.319273], [-82.45668, 35.31959], [-82.456379, 35.31972], [-82.45634, 35.31932]]]]}}, {"type": "Feature", "properties": {"area_id": 10164, "city": "Hendersonville", "state": "NC", "city_survey": false, "cat": "Poor Residential", "grade": "", "label": "Poor Residential", "res": true, "com": false, "ind": false, "fill": "#748B6B", "GEOID10": "37089931300", "GISJOIN": "G3700890931300", "calc_area": 25566.00684, "pct_tract": 0.00379}, "geometry": {"type": "MultiPolygon", "coordinates": [[[[-82.45947, 35.3077], [-82.45884, 35.30762], [-82.45833, 35.30644], [-82.45853, 35.30556], [-82.45943, 35.30575], [-82.460054, 35.305819], [-82.459861, 35.306459], [-82.459822, 35.306587], [-82.459726, 35.306904], [-82.459525, 35.307498], [-82.459484, 35.307702], [-82.45947, 35.3077]]], [[[-82.45692, 35.31136], [-82.457098, 35.311427], [-82.457032, 35.311516], [-82.456878, 35.311752], [-82.456687, 35.311981], [-82.45692, 35.31136]]]]}}, {"type": "Feature", "properties": {"area_id": 10164, "city": "Hendersonville", "state": "NC", "city_survey": false, "cat": "Poor Residential", "grade": "", "label": "Poor Residential", "res": true, "com": false, "ind": false, "fill": "#748B6B", "GEOID10": "37089931802", "GISJOIN": "G3700890931802", "calc_area": 2.30732, "pct_tract": 0.0}, "geometry": {"type": "MultiPolygon", "coordinates": [[[[-82.47929, 35.3208], [-82.479267, 35.3208], [-82.479264, 35.320794], [-82.479283, 35.320786], [-82.47929, 35.3208]]]]}}, {"type": "Feature", "properties": {"area_id": 10165, "city": "Hendersonville", "state": "NC", "city_survey": false, "cat": "Blighted", "grade": "", "label": "Blighted", "res": true, "com": false, "ind": false, "fill": "#999958", "GEOID10": "37089931100", "GISJOIN": "G3700890931100", "calc_area": 211555.61736, "pct_tract": 0.06387}, "geometry": {"type": "MultiPolygon", "coordinates": [[[[-82.45298, 35.32231], [-82.45467, 35.32078], [-82.454568, 35.320603], [-82.455396, 35.320217], [-82.455486, 35.320175], [-82.456154, 35.319817], [-82.456272, 35.319766], [-82.456379, 35.31972], [-82.45641, 35.32004], [-82.45674, 35.32085], [-82.45715, 35.32131], [-82.45748, 35.32251], [-82.45852, 35.3258], [-82.45634, 35.32656], [-82.45502, 35.32448], [-82.4546, 35.32355], [-82.45407, 35.32393], [-82.4531, 35.32406], [-82.452295, 35.322094], [-82.452366, 35.322043], [-82.452521, 35.321933], [-82.45298, 35.32231]]]]}}, {"type": "Feature", "properties": {"area_id": 10165, "city": "Hendersonville", "state": "NC", "city_survey": false, "cat": "Blighted", "grade": "", "label": "Blighted", "res": true, "com": false, "ind": false, "fill": "#999958", "GEOID10": "37089931200", "GISJOIN": "G3700890931200", "calc_area": 66447.25175, "pct_tract": 0.02603}, "geometry": {"type": "MultiPolygon", "coordinates": [[[[-82.45298, 35.31785], [-82.4556, 35.31742], [-82.45595, 35.31828], [-82.45634, 35.31932], [-82.456379, 35.31972], [-82.456272, 35.319766], [-82.456154, 35.319817], [-82.455486, 35.320175], [-82.455396, 35.320217], [-82.454568, 35.320603], [-82.45298, 35.31785]]], [[[-82.45208, 35.32157], [-82.452521, 35.321933], [-82.452366, 35.322043], [-82.452295, 35.322094], [-82.45208, 35.32157]]]]}}, {"type": "Feature", "properties": {"area_id": 10166, "city": "Hendersonville", "state": "NC", "city_survey": false, "cat": "Industrial", "grade": "", "label": "Industrial", "res": false, "com": false, "ind": true, "fill": "#748B6B", "GEOID10": "37089931600", "GISJOIN": "G3700890931600", "calc_area": 129026.31027, "pct_tract": 0.00995}, "geometry": {"type": "MultiPolygon", "coordinates": [[[[-82.46279, 35.30928], [-82.46366, 35.30902], [-82.46399, 35.3084], [-82.46511, 35.30605], [-82.46584, 35.305], [-82.46751, 35.30648], [-82.46673, 35.30655], [-82.46685, 35.30878], [-82.46548, 35.30875], [-82.46423, 35.30928], [-82.464133, 35.309438], [-82.462614, 35.309667], [-82.462568, 35.309674], [-82.462566, 35.309674], [-82.46279, 35.30928]]], [[[-82.46147, 35.30794], [-82.46159, 35.30859], [-82.46195, 35.30869], [-82.46202, 35.30914], [-82.462497, 35.309672], [-82.461842, 35.309657], [-82.46119, 35.309481], [-82.460724, 35.309519], [-82.459934, 35.309584], [-82.459883, 35.309356], [-82.459831, 35.309217], [-82.459784, 35.309146], [-82.459702, 35.309071], [-82.459426, 35.308923], [-82.459337, 35.308866], [-82.459261, 35.308802], [-82.459184, 35.308706], [-82.459088, 35.308618], [-82.459118, 35.308595], [-82.45923, 35.308405], [-82.459478, 35.307734], [-82.459484, 35.307702], [-82.46147, 35.30794]]]]}}, {"type": "Feature", "properties": {"area_id": 10166, "city": "Hendersonville", "state": "NC", "city_survey": false, "cat": "Industrial", "grade": "", "label": "Industrial", "res": false, "com": false, "ind": true, "fill": "#748B6B", "GEOID10": "37089931200", "GISJOIN": "G3700890931200", "calc_area": 109095.49704, "pct_tract": 0.04274}, "geometry": {"type": "MultiPolygon", "coordinates": [[[[-82.45662, 35.31216], [-82.456582, 35.312107], [-82.456617, 35.312065], [-82.456687, 35.311981], [-82.45662, 35.31216]]], [[[-82.4634, 35.31063], [-82.46254, 35.311], [-82.46155, 35.31113], [-82.4578, 35.31169], [-82.457098, 35.311427], [-82.457253, 35.311219], [-82.457374, 35.311004], [-82.457615, 35.31062], [-82.45787, 35.310328], [-82.458024, 35.310076], [-82.458124, 35.309988], [-82.458473, 35.309471], [-82.458573, 35.309345], [-82.458687, 35.309224], [-82.458862, 35.308965], [-82.458989, 35.308751], [-82.459064, 35.30867], [-82.459088, 35.308618], [-82.459184, 35.308706], [-82.459261, 35.308802], [-82.459337, 35.308866], [-82.459426, 35.308923], [-82.459702, 35.309071], [-82.459784, 35.309146], [-82.459831, 35.309217], [-82.459883, 35.309356], [-82.459934, 35.309584], [-82.460724, 35.309519], [-82.46119, 35.309481], [-82.461842, 35.309657], [-82.462497, 35.309672], [-82.46254, 35.30972], [-82.462566, 35.309674], [-82.462568, 35.309674], [-82.462614, 35.309667], [-82.464133, 35.309438], [-82.4634, 35.31063]]]]}}, {"type": "Feature", "properties": {"area_id": 10166, "city": "Hendersonville", "state": "NC", "city_survey": false, "cat": "Industrial", "grade": "", "label": "Industrial", "res": false, "com": false, "ind": true, "fill": "#748B6B", "GEOID10": "37089931300", "GISJOIN": "G3700890931300", "calc_area": 50501.83669, "pct_tract": 0.00749}, "geometry": {"type": "MultiPolygon", "coordinates": [[[[-82.45609, 35.31142], [-82.45553, 35.31106], [-82.45604, 35.31006], [-82.45725, 35.30908], [-82.45917, 35.3084], [-82.45947, 35.3077], [-82.459484, 35.307702], [-82.459478, 35.307734], [-82.45923, 35.308405], [-82.459118, 35.308595], [-82.459088, 35.308618], [-82.459064, 35.30867], [-82.458989, 35.308751], [-82.458862, 35.308965], [-82.458687, 35.309224], [-82.458573, 35.309345], [-82.458473, 35.309471], [-82.458124, 35.309988], [-82.458024, 35.310076], [-82.45787, 35.310328], [-82.457615, 35.31062], [-82.457374, 35.311004], [-82.457253, 35.311219], [-82.457098, 35.311427], [-82.45692, 35.31136], [-82.456687, 35.311981], [-82.456617, 35.312065], [-82.456582, 35.312107], [-82.45609, 35.31142]]]]}}]}