{"type": "FeatureCollection", "features": [{"type": "Feature", "properties": {"tract_id": "20005081600", "name": "Census Tract 816", "income_2020": 71419, "poverty_rate_2020": 9.9, "population_2020": 4478}, "geometry": {"type": "Polygon", "coordinates": [[[-95.57032, 39.43354], [-95.57035, 39.41905], [-95.56749, 39.41909], [-95.55255, 39.41927], [-95.55096, 39.41928], [-95.55092, 39.41928], [-95.53504, 39.41977], [-95.53496, 39.41977], [-95.53368, 39.41974], [-95.53308, 39.41974], [-95.53291, 39.41972], [-95.53286, 39.41971], [-95.53279, 39.41972], [-95.53243, 39.41974], [-95.5324, 39.41974], [-95.53231, 39.41975], [-95.53091, 39.41978], [-95.52669, 39.41987], [-95.52548, 39.4199], [-95.52528, 39.4199], [-95.52449, 39.4199], [-95.5221, 39.41992], [-95.5213, 39.41993], [-95.52128, 39.41993], [-95.52034, 39.41994], [-95.51747, 39.41999], [-95.51651, 39.42001], [-95.51639, 39.42001], [-95.51605, 39.42001], [-95.51599, 39.42001], [-95.51593, 39.42002], [-95.5159, 39.42002], [-95.51586, 39.42002], [-95.51581, 39.42002], [-95.51578, 39.42002], [-95.51572, 39.42002], [-95.50668, 39.42014], [-95.50206, 39.42022], [-95.50075, 39.42025], [-95.49748, 39.42031], [-95.49733, 39.42031], [-95.49062, 39.42043], [-95.4867, 39.4205], [-95.47864, 39.42064], [-95.46896, 39.42078], [-95.4676, 39.4208], [-95.46754, 39.4208], [-95.46748, 39.4208], [-95.46005, 39.42092], [-95.45348, 39.42086], [-95.44696, 39.42082], [-95.44153, 39.42077], [-95.4404, 39.42077], [-95.43239, 39.42073], [-95.43208, 39.42073], [-95.43202, 39.42073], [-95.42806, 39.42071], [-95.42728, 39.4207], [-95.42282, 39.42068], [-95.41785, 39.42063], [-95.40914, 39.42054], [-95.40401, 39.42049], [-95.40063, 39.42047], [-95.39482, 39.42045], [-95.39157, 39.42043], [-95.39116, 39.42043], [-95.38928, 39.42042], [-95.38852, 39.42041], [-95.38527, 39.4204], [-95.38075, 39.42036], [-95.37955, 39.42036], [-95.37885, 39.42035], [-95.3775, 39.42034], [-95.37241, 39.42031], [-95.37212, 39.4203], [-95.37031, 39.42027], [-95.36707, 39.42025], [-95.36664, 39.42026], [-95.36394, 39.42021], [-95.36309, 39.42019], [-95.35728, 39.42006], [-95.35017, 39.41991], [-95.34948, 39.41989], [-95.3478, 39.41986], [-95.34586, 39.41985], [-95.33987, 39.4199], [-95.33896, 39.41991], [-95.33845, 39.41991], [-95.33837, 39.41991], [-95.33737, 39.41992], [-95.3367, 39.41992], [-95.33637, 39.41992], [-95.33381, 39.41993], [-95.33367, 39.41994], [-95.33321, 39.41994], [-95.33301, 39.41994], [-95.33228, 39.41992], [-95.33076, 39.41995], [-95.329, 39.41997], [-95.32785, 39.41996], [-95.32665, 39.41994], [-95.32557, 39.41993], [-95.32539, 39.41993], [-95.32409, 39.41991], [-95.32044, 39.41987], [-95.32006, 39.41986], [-95.3199, 39.41986], [-95.31972, 39.41986], [-95.31964, 39.41986], [-95.31863, 39.41986], [-95.31486, 39.41984], [-95.3143, 39.41983], [-95.31065, 39.41981], [-95.31037, 39.41981], [-95.30684, 39.41979], [-95.30415, 39.41977], [-95.29909, 39.41975], [-95.29423, 39.41972], [-95.29357, 39.41971], [-95.29193, 39.4197], [-95.29165, 39.4197], [-95.28194, 39.41959], [-95.27828, 39.41949], [-95.27302, 39.41948], [-95.26342, 39.41937], [-95.25415, 39.41936], [-95.25025, 39.41936], [-95.24489, 39.41922], [-95.24446, 39.4192], [-95.24387, 39.41919], [-95.24343, 39.41918], [-95.2355, 39.41911], [-95.23548, 39.41911], [-95.2353, 39.4191], [-95.23114, 39.41907], [-95.22698, 39.41903], [-95.2269, 39.41904], [-95.22669, 39.41907], [-95.22663, 39.41908], [-95.22643, 39.41911], [-95.22583, 39.41919], [-95.22569, 39.41921], [-95.22563, 39.41921], [-95.22559, 39.41922], [-95.22546, 39.41924], [-95.22542, 39.41924], [-95.22535, 39.41924], [-95.22513, 39.41924], [-95.22506, 39.41924], [-95.20544, 39.41905], [-95.20539, 39.41905], [-95.19851, 39.41917], [-95.1915, 39.41919], [-95.19073, 39.41919], [-95.18893, 39.4192], [-95.18514, 39.41921], [-95.18107, 39.41922], [-95.18089, 39.41922], [-95.17996, 39.41922], [-95.17883, 39.41921], [-95.17073, 39.41917], [-95.17046, 39.41917], [-95.17043, 39.41917], [-95.17014, 39.41917], [-95.16734, 39.41915], [-95.16249, 39.4191], [-95.16112, 39.4191], [-95.15682, 39.4191], [-95.15134, 39.41911], [-95.15037, 39.41911], [-95.14746, 39.41911], [-95.14687, 39.41911], [-95.1465, 39.41917], [-95.14649, 39.41916], [-95.14645, 39.41918], [-95.14644, 39.41918], [-95.14642, 39.41919], [-95.14547, 39.41915], [-95.14537, 39.41915], [-95.14263, 39.41909], [-95.14172, 39.41907], [-95.14168, 39.41907], [-95.13802, 39.41907], [-95.12704, 39.41907], [-95.12648, 39.41907], [-95.12345, 39.41906], [-95.12338, 39.41906], [-95.12305, 39.41906], [-95.12205, 39.41905], [-95.12181, 39.41905], [-95.12177, 39.41906], [-95.12172, 39.41906], [-95.12163, 39.41906], [-95.12159, 39.41906], [-95.12155, 39.41905], [-95.11825, 39.41905], [-95.10784, 39.41906], [-95.10453, 39.41906], [-95.10438, 39.41906], [-95.104, 39.41905], [-95.10285, 39.41904], [-95.10247, 39.41904], [-95.10166, 39.41903], [-95.10034, 39.41902], [-95.09921, 39.419], [-95.0984, 39.419], [-95.09834, 39.419], [-95.09817, 39.41899], [-95.09811, 39.41899], [-95.09729, 39.41899], [-95.09722, 39.41899], [-95.09455, 39.41902], [-95.09366, 39.41904], [-95.09207, 39.41902], [-95.08732, 39.419], [-95.08574, 39.41899], [-95.08572, 39.41899], [-95.08566, 39.419], [-95.08564, 39.419], [-95.08561, 39.41901], [-95.08545, 39.419], [-95.0849, 39.419], [-95.08472, 39.419], [-95.08427, 39.41899], [-95.08294, 39.41895], [-95.08258, 39.41894], [-95.0825, 39.41894], [-95.08205, 39.41894], [-95.08071, 39.41895], [-95.08026, 39.41895], [-95.07936, 39.41895], [-95.07666, 39.41896], [-95.07576, 39.41896], [-95.07042, 39.41898], [-95.07029, 39.41901], [-95.07013, 39.41901], [-95.07007, 39.41898], [-95.06947, 39.41899], [-95.06857, 39.41897], [-95.06698, 39.41898], [-95.06687, 39.41898], [-95.06672, 39.41898], [-95.06655, 39.41898], [-95.06644, 39.41898], [-95.0646, 39.41898], [-95.05907, 39.41897], [-95.05722, 39.41897], [-95.05593, 39.41897], [-95.05205, 39.41896], [-95.05079, 39.41896], [-95.05076, 39.41895], [-95.05075, 39.41895], [-95.0507, 39.41896], [-95.05015, 39.41896], [-95.04833, 39.41895], [-95.04772, 39.41895], [-95.04086, 39.41894], [-95.04006, 39.41894], [-95.02342, 39.41891], [-95.02245, 39.41891], [-95.02243, 39.4189], [-95.02083, 39.4189], [-95.01817, 39.41889], [-95.01813, 39.4189], [-95.01242, 39.41889], [-95.00732, 39.41888], [-95.00728, 39.41887], [-95.00725, 39.41888], [-95.00614, 39.41887], [-95.0027, 39.41887], [-95.00156, 39.41887], [-94.99919, 39.41886], [-94.99785, 39.41886], [-94.99022, 39.41885], [-94.98976, 39.41885], [-94.98945, 39.41884], [-94.98942, 39.41884], [-94.98941, 39.41884], [-94.98901, 39.41879], [-94.98858, 39.41882], [-94.98853, 39.41882], [-94.97154, 39.41881], [-94.97152, 39.41881], [-94.97141, 39.41882], [-94.97131, 39.41882], [-94.96918, 39.41887], [-94.96908, 39.41888], [-94.96897, 39.41888], [-94.96983, 39.4195], [-94.97116, 39.42035], [-94.97156, 39.4206], [-94.97236, 39.42124], [-94.97252, 39.42136], [-94.97295, 39.4217], [-94.97401, 39.4229], [-94.97513, 39.42435], [-94.9757, 39.42521], [-94.97613, 39.42586], [-94.97615, 39.4259], [-94.97661, 39.4267], [-94.97712, 39.42843], [-94.97741, 39.43085], [-94.97779, 39.43282], [-94.97789, 39.43332], [-94.97805, 39.43441], [-94.9788, 39.43624], [-94.97924, 39.43684], [-94.98042, 39.43857], [-94.98214, 39.44055], [-94.9824, 39.44076], [-94.98479, 39.4427], [-94.98749, 39.44462], [-94.9891, 39.44556], [-94.99017, 39.44619], [-94.99285, 39.44727], [-94.99548, 39.44808], [-94.99577, 39.44817], [-94.99662, 39.44848], [-94.99822, 39.44905], [-94.99983, 39.44962], [-95.00004, 39.44969], [-95.00024, 39.44976], [-95.00074, 39.44983], [-95.00123, 39.44989], [-95.0022, 39.45003], [-95.00318, 39.45016], [-95.00338, 39.45018], [-95.00642, 39.45082], [-95.00762, 39.45107], [-95.01153, 39.45202], [-95.01486, 39.45287], [-95.01576, 39.4531], [-95.02202, 39.45545], [-95.02593, 39.45716], [-95.0285, 39.45829], [-95.03341, 39.46088], [-95.0375, 39.46369], [-95.03868, 39.46465], [-95.04078, 39.46639], [-95.04215, 39.46803], [-95.04304, 39.46912], [-95.04312, 39.46921], [-95.0432, 39.46931], [-95.04343, 39.46959], [-95.04467, 39.47126], [-95.04524, 39.47257], [-95.04642, 39.4749], [-95.04658, 39.47522], [-95.04767, 39.47754], [-95.04837, 39.48042], [-95.04854, 39.48282], [-95.04876, 39.48556], [-95.04874, 39.48894], [-95.04922, 39.49189], [-95.04978, 39.49442], [-95.05055, 39.49751], [-95.05094, 39.49827], [-95.05218, 39.5], [-95.05276, 39.50056], [-95.05294, 39.50074], [-95.0533, 39.50115], [-95.05348, 39.50136], [-95.05446, 39.50265], [-95.05613, 39.50413], [-95.05781, 39.50537], [-95.0593, 39.50647], [-95.06098, 39.5072], [-95.06461, 39.50839], [-95.0708, 39.51066], [-95.07097, 39.51074], [-95.07408, 39.51209], [-95.075, 39.51249], [-95.07719, 39.51344], [-95.07744, 39.51355], [-95.07897, 39.51259], [-95.07917, 39.51252], [-95.07966, 39.51241], [-95.0798, 39.51236], [-95.08015, 39.51221], [-95.08102, 39.51183], [-95.08155, 39.51162], [-95.08193, 39.51143], [-95.08284, 39.51104], [-95.08331, 39.5108], [-95.08356, 39.51071], [-95.08379, 39.51063], [-95.0841, 39.51047], [-95.08471, 39.51024], [-95.08485, 39.51018], [-95.08504, 39.51011], [-95.0853, 39.51004], [-95.08543, 39.51], [-95.08545, 39.51], [-95.0856, 39.5101], [-95.08577, 39.51046], [-95.08595, 39.51089], [-95.08625, 39.51153], [-95.08642, 39.51188], [-95.08663, 39.51228], [-95.08716, 39.51318], [-95.08792, 39.51452], [-95.08848, 39.51517], [-95.08978, 39.51663], [-95.0901, 39.51708], [-95.09016, 39.51718], [-95.09059, 39.51795], [-95.09128, 39.51886], [-95.09139, 39.51906], [-95.09153, 39.51932], [-95.09187, 39.51951], [-95.09192, 39.51954], [-95.09208, 39.51947], [-95.09242, 39.51934], [-95.09259, 39.51934], [-95.09308, 39.51934], [-95.09393, 39.51957], [-95.09418, 39.51961], [-95.09457, 39.51968], [-95.09471, 39.51964], [-95.09518, 39.51951], [-95.09641, 39.51888], [-95.09662, 39.51877], [-95.09751, 39.51852], [-95.09874, 39.51804], [-95.09948, 39.51781], [-95.09995, 39.51762], [-95.10026, 39.51733], [-95.10059, 39.51689], [-95.1008, 39.51671], [-95.10127, 39.51652], [-95.10135, 39.5165], [-95.10193, 39.51637], [-95.10318, 39.51618], [-95.10415, 39.51597], [-95.10482, 39.51583], [-95.10562, 39.51562], [-95.10704, 39.51524], [-95.108, 39.51497], [-95.10851, 39.51483], [-95.10878, 39.51476], [-95.11008, 39.5145], [-95.1106, 39.5144], [-95.11062, 39.51449], [-95.11068, 39.51474], [-95.1107, 39.51482], [-95.11081, 39.51491], [-95.11114, 39.51518], [-95.11125, 39.51527], [-95.11196, 39.51501], [-95.11326, 39.51454], [-95.11376, 39.51428], [-95.11394, 39.51403], [-95.11399, 39.51396], [-95.11412, 39.51331], [-95.11461, 39.5131], [-95.11494, 39.51311], [-95.11752, 39.51314], [-95.11839, 39.51315], [-95.11941, 39.51316], [-95.12247, 39.51319], [-95.12346, 39.5132], [-95.1235, 39.5132], [-95.12353, 39.5132], [-95.12363, 39.51321], [-95.12367, 39.51321], [-95.12508, 39.51322], [-95.12931, 39.51328], [-95.13056, 39.51329], [-95.13072, 39.51335], [-95.13101, 39.51345], [-95.13114, 39.51352], [-95.13181, 39.51386], [-95.13227, 39.51394], [-95.13241, 39.51396], [-95.13286, 39.514], [-95.13286, 39.51455], [-95.13287, 39.51473], [-95.13288, 39.51621], [-95.13288, 39.51644], [-95.13288, 39.51677], [-95.13288, 39.51693], [-95.13288, 39.51697], [-95.13288, 39.51753], [-95.13289, 39.51981], [-95.13289, 39.52057], [-95.13302, 39.52057], [-95.13342, 39.52057], [-95.13355, 39.52057], [-95.13477, 39.52059], [-95.13841, 39.52062], [-95.13962, 39.52064], [-95.14014, 39.52064], [-95.14168, 39.52066], [-95.14219, 39.52066], [-95.14238, 39.52066], [-95.14297, 39.52067], [-95.14316, 39.52067], [-95.14479, 39.52069], [-95.14968, 39.52073], [-95.15132, 39.52075], [-95.15154, 39.52075], [-95.15222, 39.52075], [-95.15245, 39.52076], [-95.15414, 39.52077], [-95.15921, 39.52082], [-95.16089, 39.52083], [-95.16467, 39.52082], [-95.17599, 39.52079], [-95.17976, 39.52078], [-95.17985, 39.52078], [-95.18013, 39.52078], [-95.18022, 39.52078], [-95.1819, 39.52078], [-95.18697, 39.52077], [-95.18866, 39.52077], [-95.18876, 39.52077], [-95.18908, 39.52077], [-95.18919, 39.52077], [-95.1909, 39.52076], [-95.19605, 39.52075], [-95.19678, 39.52073], [-95.19763, 39.52051], [-95.19773, 39.52049], [-95.19795, 39.52045], [-95.19839, 39.52037], [-95.19861, 39.52041], [-95.19883, 39.52046], [-95.19887, 39.52047], [-95.19897, 39.52049], [-95.19901, 39.52049], [-95.19906, 39.52051], [-95.19923, 39.52054], [-95.19929, 39.52055], [-95.19933, 39.52056], [-95.19934, 39.52056], [-95.19938, 39.52057], [-95.19939, 39.52057], [-95.19944, 39.52058], [-95.19958, 39.52061], [-95.19962, 39.52062], [-95.19966, 39.52063], [-95.19977, 39.52065], [-95.1998, 39.52066], [-95.19991, 39.52067], [-95.20025, 39.5207], [-95.20036, 39.52071], [-95.20081, 39.52075], [-95.20377, 39.52074], [-95.214, 39.52074], [-95.21742, 39.52073], [-95.21742, 39.52238], [-95.21744, 39.52513], [-95.21746, 39.52731], [-95.21747, 39.52896], [-95.21747, 39.52945], [-95.21748, 39.53093], [-95.21749, 39.53142], [-95.21749, 39.53216], [-95.21751, 39.53439], [-95.21751, 39.53513], [-95.21751, 39.53528], [-95.21753, 39.53662], [-95.21755, 39.53807], [-95.21759, 39.54111], [-95.21762, 39.5426], [-95.21764, 39.54412], [-95.21773, 39.54866], [-95.21775, 39.54983], [-95.21775, 39.55017], [-95.21775, 39.5502], [-95.21775, 39.55027], [-95.21775, 39.5503], [-95.21777, 39.55163], [-95.21781, 39.55564], [-95.21782, 39.55698], [-95.21783, 39.55871], [-95.21783, 39.56048], [-95.21785, 39.56391], [-95.21785, 39.56565], [-95.21791, 39.56565], [-95.21807, 39.56565], [-95.21813, 39.56565], [-95.21997, 39.56565], [-95.22551, 39.56566], [-95.22726, 39.56566], [-95.22736, 39.56566], [-95.22753, 39.56565], [-95.22806, 39.56564], [-95.22823, 39.56564], [-95.22815, 39.56628], [-95.2281, 39.56666], [-95.22773, 39.56757], [-95.22753, 39.56811], [-95.22731, 39.56872], [-95.22731, 39.57088], [-95.22732, 39.57735], [-95.22732, 39.57951], [-95.22732, 39.5814], [-95.22733, 39.5865], [-95.22733, 39.58708], [-95.22733, 39.58897], [-95.22733, 39.59012], [-95.22734, 39.59354], [-95.22734, 39.59469], [-95.2136, 39.59474], [-95.2093, 39.59475], [-95.19978, 39.59471], [-95.19521, 39.59475], [-95.19426, 39.59476], [-95.1914, 39.59478], [-95.19045, 39.59479], [-95.19046, 39.5956], [-95.19047, 39.59624], [-95.19053, 39.60061], [-95.19056, 39.60207], [-95.18773, 39.60206], [-95.17923, 39.60204], [-95.1764, 39.60203], [-95.17547, 39.60203], [-95.17268, 39.60203], [-95.17175, 39.60203], [-95.17032, 39.60202], [-95.16628, 39.60199], [-95.16603, 39.602], [-95.16529, 39.60202], [-95.16479, 39.60217], [-95.16467, 39.60228], [-95.16422, 39.60269], [-95.16355, 39.60334], [-95.16339, 39.6035], [-95.16299, 39.60407], [-95.1624, 39.60551], [-95.16238, 39.60672], [-95.16239, 39.60766], [-95.16241, 39.6092], [-95.16241, 39.60934], [-95.16184, 39.60933], [-95.15971, 39.6093], [-95.159, 39.6093], [-95.15808, 39.60929], [-95.15783, 39.60935], [-95.15721, 39.60952], [-95.15444, 39.61039], [-95.15372, 39.61062], [-95.15331, 39.6107], [-95.15324, 39.61072], [-95.15318, 39.61073], [-95.15305, 39.61074], [-95.15298, 39.61075], [-95.15196, 39.61057], [-95.15171, 39.61053], [-95.15067, 39.61037], [-95.14912, 39.60965], [-95.14903, 39.6096], [-95.14846, 39.60935], [-95.14819, 39.60928], [-95.14808, 39.60925], [-95.14806, 39.60925], [-95.1474, 39.60922], [-95.14716, 39.60922], [-95.14445, 39.60923], [-95.14355, 39.60923], [-95.14166, 39.60922], [-95.13601, 39.60919], [-95.13413, 39.60918], [-95.13413, 39.60999], [-95.13414, 39.61062], [-95.13416, 39.61197], [-95.13418, 39.61494], [-95.13418, 39.61512], [-95.1342, 39.61639], [-95.13323, 39.61639], [-95.13034, 39.6164], [-95.12938, 39.61641], [-95.12899, 39.61641], [-95.12781, 39.61642], [-95.12742, 39.61642], [-95.12498, 39.61643], [-95.11928, 39.61646], [-95.11767, 39.61646], [-95.11524, 39.61648], [-95.11307, 39.61649], [-95.10656, 39.61655], [-95.10445, 39.61656], [-95.10439, 39.61656], [-95.10436, 39.61656], [-95.10433, 39.61656], [-95.10429, 39.61657], [-95.104, 39.61662], [-95.1039, 39.61664], [-95.10383, 39.61665], [-95.10342, 39.61696], [-95.10256, 39.61769], [-95.10254, 39.61771], [-95.10242, 39.61805], [-95.10239, 39.61843], [-95.10258, 39.61889], [-95.10277, 39.61946], [-95.10276, 39.61973], [-95.1025, 39.62006], [-95.10199, 39.62022], [-95.10134, 39.62025], [-95.10037, 39.62044], [-95.09999, 39.62053], [-95.09978, 39.62057], [-95.09881, 39.62043], [-95.09832, 39.6203], [-95.09827, 39.62041], [-95.09816, 39.62073], [-95.09814, 39.62074], [-95.09806, 39.6208], [-95.09804, 39.62082], [-95.09801, 39.62087], [-95.09804, 39.62089], [-95.09837, 39.62106], [-95.09866, 39.62132], [-95.09906, 39.62164], [-95.0992, 39.62181], [-95.09936, 39.62206], [-95.09982, 39.62258], [-95.09995, 39.62276], [-95.10024, 39.62309], [-95.10039, 39.62332], [-95.10047, 39.62352], [-95.10055, 39.62367], [-95.10061, 39.62377], [-95.10062, 39.62379], [-95.10073, 39.62414], [-95.10077, 39.62445], [-95.10078, 39.62446], [-95.10078, 39.6247], [-95.10076, 39.62489], [-95.10068, 39.62499], [-95.10055, 39.62508], [-95.10044, 39.62519], [-95.10039, 39.6253], [-95.10028, 39.62543], [-95.10021, 39.62563], [-95.10012, 39.62605], [-95.10004, 39.62632], [-95.09998, 39.62653], [-95.09994, 39.62687], [-95.09991, 39.62694], [-95.09991, 39.627], [-95.09978, 39.6271], [-95.09966, 39.62716], [-95.0992, 39.62728], [-95.09918, 39.62729], [-95.09826, 39.62747], [-95.09802, 39.62754], [-95.0978, 39.62763], [-95.09741, 39.62784], [-95.09715, 39.62803], [-95.09709, 39.62809], [-95.09707, 39.62812], [-95.09698, 39.62834], [-95.097, 39.62852], [-95.09715, 39.6288], [-95.0977, 39.62927], [-95.09806, 39.62964], [-95.09823, 39.62992], [-95.09834, 39.63012], [-95.09855, 39.63061], [-95.0986, 39.63079], [-95.09861, 39.63088], [-95.09862, 39.63102], [-95.09866, 39.63164], [-95.09867, 39.63263], [-95.09877, 39.63332], [-95.09878, 39.63383], [-95.09882, 39.6343], [-95.09888, 39.63467], [-95.09895, 39.63482], [-95.0992, 39.63512], [-95.09941, 39.63527], [-95.09963, 39.63536], [-95.10025, 39.63537], [-95.10055, 39.63539], [-95.10083, 39.63548], [-95.1015, 39.63571], [-95.10184, 39.63585], [-95.10218, 39.63595], [-95.10249, 39.63602], [-95.10254, 39.63604], [-95.10284, 39.63606], [-95.1032, 39.63606], [-95.10449, 39.63612], [-95.10497, 39.6362], [-95.10508, 39.63625], [-95.10528, 39.63627], [-95.10564, 39.63634], [-95.10591, 39.63639], [-95.10606, 39.63641], [-95.10663, 39.63645], [-95.10684, 39.6365], [-95.10701, 39.63659], [-95.10718, 39.63674], [-95.10738, 39.63697], [-95.10756, 39.63727], [-95.10788, 39.63765], [-95.10791, 39.63767], [-95.10834, 39.63796], [-95.1086, 39.63817], [-95.10932, 39.63877], [-95.11015, 39.63937], [-95.1102, 39.63942], [-95.11025, 39.63947], [-95.11052, 39.63982], [-95.111, 39.6405], [-95.11156, 39.64143], [-95.1122, 39.64268], [-95.11239, 39.64297], [-95.11259, 39.64319], [-95.11281, 39.64336], [-95.1132, 39.6435], [-95.1134, 39.6436], [-95.11367, 39.6437], [-95.11384, 39.64376], [-95.11393, 39.64376], [-95.11409, 39.64374], [-95.11415, 39.64373], [-95.11426, 39.64366], [-95.11433, 39.64355], [-95.11441, 39.64332], [-95.11441, 39.64325], [-95.11448, 39.64303], [-95.11478, 39.6422], [-95.11485, 39.64193], [-95.11486, 39.64185], [-95.11489, 39.64175], [-95.1149, 39.64163], [-95.11492, 39.64156], [-95.11495, 39.64134], [-95.11496, 39.64124], [-95.11517, 39.64074], [-95.11526, 39.64054], [-95.11526, 39.64222], [-95.11526, 39.64285], [-95.11524, 39.64474], [-95.11524, 39.64537], [-95.11523, 39.6468], [-95.1152, 39.65111], [-95.11519, 39.65255], [-95.11699, 39.65256], [-95.12239, 39.65259], [-95.12419, 39.6526], [-95.12525, 39.65288], [-95.12526, 39.65288], [-95.12859, 39.65287], [-95.1294, 39.65286], [-95.12961, 39.65286], [-95.12969, 39.65286], [-95.12979, 39.65286], [-95.12988, 39.65286], [-95.13147, 39.65286], [-95.13679, 39.65283], [-95.13838, 39.65283], [-95.13856, 39.65282], [-95.13905, 39.65282], [-95.14051, 39.65282], [-95.141, 39.65281], [-95.14104, 39.65281], [-95.14975, 39.65278], [-95.14978, 39.65278], [-95.14981, 39.65278], [-95.15448, 39.65276], [-95.15499, 39.65276], [-95.155, 39.65276], [-95.15506, 39.65276], [-95.15694, 39.65275], [-95.15702, 39.65275], [-95.15815, 39.65274], [-95.16718, 39.6527], [-95.16735, 39.65282], [-95.1677, 39.65288], [-95.16792, 39.65288], [-95.17027, 39.6529], [-95.17106, 39.65291], [-95.17114, 39.65291], [-95.17138, 39.65291], [-95.17146, 39.65291], [-95.17275, 39.65291], [-95.17348, 39.65291], [-95.17405, 39.65288], [-95.17424, 39.65287], [-95.17454, 39.65287], [-95.17529, 39.65285], [-95.17775, 39.65281], [-95.17846, 39.6528], [-95.17952, 39.65278], [-95.18071, 39.65277], [-95.18091, 39.65276], [-95.18104, 39.65276], [-95.19126, 39.65286], [-95.19204, 39.65286], [-95.19213, 39.65286], [-95.19274, 39.65286], [-95.19889, 39.65288], [-95.19914, 39.65288], [-95.20079, 39.65288], [-95.20576, 39.6529], [-95.20737, 39.6529], [-95.20741, 39.6529], [-95.20772, 39.65291], [-95.20863, 39.65294], [-95.20894, 39.65295], [-95.2123, 39.65295], [-95.21796, 39.65295], [-95.22236, 39.65295], [-95.22536, 39.65296], [-95.22572, 39.65296], [-95.22608, 39.65296], [-95.22716, 39.65296], [-95.22735, 39.65296], [-95.22752, 39.65296], [-95.231, 39.65296], [-95.24145, 39.65297], [-95.24494, 39.65297], [-95.24547, 39.65297], [-95.24705, 39.65297], [-95.24749, 39.65298], [-95.24758, 39.65298], [-95.24798, 39.65298], [-95.2492, 39.65298], [-95.24936, 39.65298], [-95.2496, 39.65296], [-95.25025, 39.65293], [-95.25197, 39.65293], [-95.25906, 39.65292], [-95.26126, 39.65292], [-95.26143, 39.65292], [-95.26211, 39.65293], [-95.26409, 39.65295], [-95.26414, 39.65295], [-95.26452, 39.65296], [-95.26482, 39.65296], [-95.26487, 39.65296], [-95.265, 39.65296], [-95.26505, 39.65296], [-95.26506, 39.65296], [-95.2657, 39.65296], [-95.2819, 39.65304], [-95.28384, 39.65305], [-95.28398, 39.65305], [-95.29697, 39.65302], [-95.30263, 39.653], [-95.30559, 39.653], [-95.30689, 39.653], [-95.31642, 39.65299], [-95.32145, 39.65299], [-95.33269, 39.65298], [-95.33974, 39.65298], [-95.33992, 39.65298], [-95.34047, 39.65298], [-95.34065, 39.65298], [-95.34424, 39.65298], [-95.355, 39.65298], [-95.35859, 39.65298], [-95.35927, 39.65298], [-95.36133, 39.65299], [-95.36202, 39.65299], [-95.36214, 39.65299], [-95.3625, 39.65299], [-95.36262, 39.65299], [-95.36274, 39.65299], [-95.36298, 39.65299], [-95.36311, 39.65299], [-95.36318, 39.65299], [-95.36323, 39.65299], [-95.36339, 39.65299], [-95.36388, 39.65299], [-95.36405, 39.65299], [-95.36444, 39.65299], [-95.36462, 39.65298], [-95.36562, 39.65298], [-95.36602, 39.65298], [-95.36657, 39.65298], [-95.36822, 39.65297], [-95.36877, 39.65297], [-95.36894, 39.65297], [-95.37051, 39.65296], [-95.37572, 39.65294], [-95.37746, 39.65293], [-95.3812, 39.65294], [-95.39243, 39.65294], [-95.39618, 39.65295], [-95.39892, 39.65294], [-95.40714, 39.65293], [-95.40988, 39.65292], [-95.4109, 39.65292], [-95.41397, 39.65292], [-95.415, 39.65292], [-95.41572, 39.65291], [-95.41877, 39.65291], [-95.41942, 39.6529], [-95.42425, 39.65289], [-95.43008, 39.65288], [-95.43385, 39.65287], [-95.43442, 39.65287], [-95.43613, 39.65286], [-95.4367, 39.65286], [-95.43698, 39.65286], [-95.43783, 39.65286], [-95.43812, 39.65286], [-95.43851, 39.65286], [-95.43968, 39.65286], [-95.44007, 39.65286], [-95.44071, 39.65286], [-95.44263, 39.65286], [-95.44327, 39.65285], [-95.4433, 39.65285], [-95.4434, 39.65285], [-95.44343, 39.65285], [-95.44513, 39.65285], [-95.45025, 39.65284], [-95.45196, 39.65284], [-95.45378, 39.65284], [-95.45923, 39.65283], [-95.46106, 39.65283], [-95.46303, 39.65283], [-95.46897, 39.65283], [-95.47081, 39.65282], [-95.47095, 39.65282], [-95.47412, 39.65283], [-95.48361, 39.65286], [-95.48677, 39.65287], [-95.48706, 39.65288], [-95.48761, 39.65288], [-95.48792, 39.65288], [-95.48821, 39.65288], [-95.48843, 39.65288], [-95.48889, 39.65288], [-95.48908, 39.65288], [-95.4893, 39.65288], [-95.49116, 39.65281], [-95.49821, 39.65276], [-95.50018, 39.65276], [-95.50212, 39.65275], [-95.50322, 39.65275], [-95.50608, 39.65277], [-95.50627, 39.65277], [-95.50668, 39.65278], [-95.50677, 39.65278], [-95.50681, 39.65278], [-95.50686, 39.65278], [-95.50806, 39.65278], [-95.51169, 39.65279], [-95.51291, 39.6528], [-95.51411, 39.65281], [-95.51433, 39.65281], [-95.51686, 39.65282], [-95.51853, 39.65282], [-95.51858, 39.65282], [-95.52, 39.65283], [-95.5201, 39.65283], [-95.52039, 39.65283], [-95.52048, 39.65284], [-95.52171, 39.65282], [-95.52539, 39.65276], [-95.52662, 39.65275], [-95.5268, 39.65275], [-95.52733, 39.65277], [-95.52751, 39.65277], [-95.5285, 39.65277], [-95.53148, 39.65278], [-95.53247, 39.65279], [-95.5326, 39.65279], [-95.53297, 39.65279], [-95.5331, 39.65279], [-95.53354, 39.65279], [-95.53486, 39.6528], [-95.5353, 39.6528], [-95.53567, 39.6528], [-95.53679, 39.6528], [-95.53716, 39.6528], [-95.5379, 39.65281], [-95.54012, 39.65281], [-95.54086, 39.65282], [-95.54087, 39.65282], [-95.54191, 39.65282], [-95.5451, 39.65283], [-95.54616, 39.65284], [-95.54671, 39.65284], [-95.54837, 39.65284], [-95.54893, 39.65284], [-95.5492, 39.65284], [-95.54954, 39.65284], [-95.55002, 39.65284], [-95.55029, 39.65284], [-95.55305, 39.65285], [-95.56136, 39.65287], [-95.56413, 39.65287], [-95.56413, 39.65142], [-95.56413, 39.64706], [-95.56413, 39.6456], [-95.56413, 39.64537], [-95.56413, 39.64492], [-95.56413, 39.64467], [-95.56413, 39.64444], [-95.56413, 39.64415], [-95.56413, 39.64328], [-95.56413, 39.643], [-95.56413, 39.64207], [-95.56413, 39.6393], [-95.56413, 39.63838], [-95.56413, 39.63548], [-95.56411, 39.62677], [-95.56411, 39.62387], [-95.56412, 39.62096], [-95.56414, 39.61226], [-95.56415, 39.60935], [-95.56416, 39.60796], [-95.56417, 39.60377], [-95.56418, 39.60238], [-95.56418, 39.60235], [-95.56418, 39.60228], [-95.56418, 39.60226], [-95.56418, 39.6017], [-95.56419, 39.60001], [-95.5642, 39.59945], [-95.5642, 39.59861], [-95.56421, 39.59609], [-95.56421, 39.59525], [-95.56421, 39.5952], [-95.56421, 39.59506], [-95.56422, 39.59501], [-95.56422, 39.59485], [-95.56422, 39.59353], [-95.56424, 39.59059], [-95.56425, 39.58907], [-95.56425, 39.58759], [-95.56425, 39.58663], [-95.56426, 39.58376], [-95.56426, 39.5828], [-95.56426, 39.58232], [-95.56426, 39.58087], [-95.56426, 39.58039], [-95.56426, 39.58], [-95.56426, 39.57881], [-95.56427, 39.57842], [-95.56427, 39.57742], [-95.56428, 39.57443], [-95.56429, 39.57343], [-95.56429, 39.57335], [-95.56429, 39.57312], [-95.56429, 39.57304], [-95.56429, 39.5716], [-95.5643, 39.56974], [-95.56431, 39.56729], [-95.56431, 39.56586], [-95.56552, 39.56586], [-95.56914, 39.56587], [-95.57022, 39.56587], [-95.57035, 39.56587], [-95.57034, 39.56563], [-95.57033, 39.56491], [-95.57033, 39.56467], [-95.57031, 39.56326], [-95.57026, 39.55903], [-95.57024, 39.55762], [-95.57024, 39.5574], [-95.57024, 39.55735], [-95.57023, 39.55672], [-95.57023, 39.5565], [-95.57023, 39.55641], [-95.5702, 39.55512], [-95.57012, 39.55099], [-95.57012, 39.55093], [-95.57011, 39.55085], [-95.57011, 39.55071], [-95.57009, 39.54961], [-95.57009, 39.54812], [-95.5701, 39.54363], [-95.57011, 39.54213], [-95.57011, 39.54097], [-95.57012, 39.5375], [-95.57012, 39.53634], [-95.57012, 39.53609], [-95.57012, 39.53533], [-95.57012, 39.53508], [-95.57012, 39.53363], [-95.57013, 39.52929], [-95.57013, 39.52785], [-95.57013, 39.52752], [-95.57013, 39.52653], [-95.57013, 39.5262], [-95.57013, 39.52607], [-95.57013, 39.52566], [-95.57013, 39.52553], [-95.57013, 39.52504], [-95.57013, 39.52357], [-95.57013, 39.52308], [-95.57013, 39.52257], [-95.57013, 39.52106], [-95.57013, 39.52056], [-95.57013, 39.51843], [-95.57013, 39.51634], [-95.57013, 39.51205], [-95.57013, 39.50992], [-95.57013, 39.50906], [-95.57013, 39.5065], [-95.57013, 39.50564], [-95.57013, 39.50556], [-95.57014, 39.50533], [-95.57014, 39.50525], [-95.57014, 39.50395], [-95.57017, 39.50006], [-95.57018, 39.49877], [-95.57018, 39.49807], [-95.57019, 39.49598], [-95.5702, 39.49529], [-95.5702, 39.49488], [-95.57021, 39.49366], [-95.57021, 39.49325], [-95.57022, 39.49146], [-95.57022, 39.49103], [-95.57025, 39.48437], [-95.57026, 39.48215], [-95.57026, 39.48203], [-95.57026, 39.48167], [-95.57026, 39.48155], [-95.57026, 39.48122], [-95.57026, 39.48024], [-95.57026, 39.47992], [-95.57026, 39.47972], [-95.57026, 39.47914], [-95.57026, 39.47894], [-95.57026, 39.47855], [-95.57026, 39.47739], [-95.57026, 39.47701], [-95.57026, 39.47697], [-95.57026, 39.47639], [-95.57027, 39.47466], [-95.57027, 39.47408], [-95.57028, 39.47211], [-95.5703, 39.46619], [-95.5703, 39.46422], [-95.5703, 39.4642], [-95.5703, 39.46415], [-95.5703, 39.46413], [-95.5703, 39.4638], [-95.57031, 39.46282], [-95.57031, 39.4625], [-95.57031, 39.46164], [-95.57032, 39.45909], [-95.57032, 39.45824], [-95.57032, 39.45619], [-95.57034, 39.45006], [-95.57034, 39.44801], [-95.57034, 39.4471], [-95.57034, 39.44438], [-95.57034, 39.44347], [-95.57034, 39.44301], [-95.57034, 39.4426], [-95.57033, 39.44162], [-95.57033, 39.44116], [-95.57032, 39.43354]]]}}, {"type": "Feature", "properties": {"tract_id": "20005081800", "name": "Census Tract 818", "income_2020": 47019, "poverty_rate_2020": 16.6, "population_2020": 2864}, "geometry": {"type": "Polygon", "coordinates": [[[-95.21775, 39.55017], [-95.21775, 39.54983], [-95.21773, 39.54866], [-95.21764, 39.54412], [-95.21762, 39.5426], [-95.21759, 39.54111], [-95.21755, 39.53807], [-95.21753, 39.53662], [-95.21751, 39.53528], [-95.21751, 39.53513], [-95.21751, 39.53439], [-95.21749, 39.53216], [-95.21749, 39.53142], [-95.21748, 39.53093], [-95.21747, 39.52945], [-95.21747, 39.52896], [-95.21746, 39.52731], [-95.21744, 39.52513], [-95.21742, 39.52238], [-95.21742, 39.52073], [-95.214, 39.52074], [-95.20377, 39.52074], [-95.20081, 39.52075], [-95.20036, 39.52071], [-95.20025, 39.5207], [-95.19991, 39.52067], [-95.1998, 39.52066], [-95.19977, 39.52065], [-95.19966, 39.52063], [-95.19962, 39.52062], [-95.19958, 39.52061], [-95.19944, 39.52058], [-95.19939, 39.52057], [-95.19938, 39.52057], [-95.19934, 39.52056], [-95.19933, 39.52056], [-95.19929, 39.52055], [-95.19923, 39.52054], [-95.19906, 39.52051], [-95.19901, 39.52049], [-95.19897, 39.52049], [-95.19887, 39.52047], [-95.19883, 39.52046], [-95.19861, 39.52041], [-95.19839, 39.52037], [-95.19795, 39.52045], [-95.19773, 39.52049], [-95.19763, 39.52051], [-95.19678, 39.52073], [-95.19605, 39.52075], [-95.1909, 39.52076], [-95.18919, 39.52077], [-95.18908, 39.52077], [-95.18876, 39.52077], [-95.18866, 39.52077], [-95.18697, 39.52077], [-95.1819, 39.52078], [-95.18022, 39.52078], [-95.18013, 39.52078], [-95.17985, 39.52078], [-95.17976, 39.52078], [-95.17599, 39.52079], [-95.16467, 39.52082], [-95.16089, 39.52083], [-95.15921, 39.52082], [-95.15414, 39.52077], [-95.15245, 39.52076], [-95.15222, 39.52075], [-95.15154, 39.52075], [-95.15132, 39.52075], [-95.14968, 39.52073], [-95.14479, 39.52069], [-95.14316, 39.52067], [-95.14297, 39.52067], [-95.14238, 39.52066], [-95.14219, 39.52066], [-95.14168, 39.52066], [-95.14014, 39.52064], [-95.13962, 39.52064], [-95.13841, 39.52062], [-95.13477, 39.52059], [-95.13355, 39.52057], [-95.13342, 39.52057], [-95.13302, 39.52057], [-95.13289, 39.52057], [-95.13289, 39.51981], [-95.13288, 39.51753], [-95.13288, 39.51697], [-95.13288, 39.51693], [-95.13288, 39.51677], [-95.13288, 39.51644], [-95.13288, 39.51621], [-95.13287, 39.51473], [-95.13286, 39.51455], [-95.13286, 39.514], [-95.13241, 39.51396], [-95.13227, 39.51394], [-95.13181, 39.51386], [-95.13114, 39.51352], [-95.13101, 39.51345], [-95.13072, 39.51335], [-95.13056, 39.51329], [-95.12931, 39.51328], [-95.12508, 39.51322], [-95.12367, 39.51321], [-95.12363, 39.51321], [-95.12353, 39.5132], [-95.1235, 39.5132], [-95.12346, 39.5132], [-95.12247, 39.51319], [-95.11941, 39.51316], [-95.11839, 39.51315], [-95.11752, 39.51314], [-95.11494, 39.51311], [-95.11461, 39.5131], [-95.11412, 39.51331], [-95.11399, 39.51396], [-95.11394, 39.51403], [-95.11376, 39.51428], [-95.11326, 39.51454], [-95.11196, 39.51501], [-95.11125, 39.51527], [-95.11114, 39.51518], [-95.11081, 39.51491], [-95.1107, 39.51482], [-95.11068, 39.51474], [-95.11062, 39.51449], [-95.1106, 39.5144], [-95.11008, 39.5145], [-95.10878, 39.51476], [-95.10851, 39.51483], [-95.108, 39.51497], [-95.10704, 39.51524], [-95.10562, 39.51562], [-95.10482, 39.51583], [-95.10415, 39.51597], [-95.10318, 39.51618], [-95.10193, 39.51637], [-95.10135, 39.5165], [-95.10127, 39.51652], [-95.1008, 39.51671], [-95.10059, 39.51689], [-95.10026, 39.51733], [-95.09995, 39.51762], [-95.09948, 39.51781], [-95.09874, 39.51804], [-95.09751, 39.51852], [-95.09662, 39.51877], [-95.09641, 39.51888], [-95.09518, 39.51951], [-95.09471, 39.51964], [-95.09457, 39.51968], [-95.09418, 39.51961], [-95.09393, 39.51957], [-95.09308, 39.51934], [-95.09259, 39.51934], [-95.09242, 39.51934], [-95.09208, 39.51947], [-95.09192, 39.51954], [-95.09187, 39.51951], [-95.09153, 39.51932], [-95.09139, 39.51906], [-95.09128, 39.51886], [-95.09059, 39.51795], [-95.09016, 39.51718], [-95.0901, 39.51708], [-95.08978, 39.51663], [-95.08848, 39.51517], [-95.08792, 39.51452], [-95.08716, 39.51318], [-95.08663, 39.51228], [-95.08642, 39.51188], [-95.08625, 39.51153], [-95.08595, 39.51089], [-95.08577, 39.51046], [-95.0856, 39.5101], [-95.08545, 39.51], [-95.08543, 39.51], [-95.0853, 39.51004], [-95.08504, 39.51011], [-95.08485, 39.51018], [-95.08471, 39.51024], [-95.0841, 39.51047], [-95.08379, 39.51063], [-95.08356, 39.51071], [-95.08331, 39.5108], [-95.08284, 39.51104], [-95.08193, 39.51143], [-95.08155, 39.51162], [-95.08102, 39.51183], [-95.08015, 39.51221], [-95.0798, 39.51236], [-95.07966, 39.51241], [-95.07917, 39.51252], [-95.07897, 39.51259], [-95.07744, 39.51355], [-95.08271, 39.51671], [-95.08759, 39.52035], [-95.0927, 39.52424], [-95.0969, 39.52782], [-95.09741, 39.52825], [-95.09797, 39.52874], [-95.10114, 39.53153], [-95.1013, 39.53167], [-95.10212, 39.53254], [-95.10225, 39.53267], [-95.10263, 39.53308], [-95.10276, 39.53321], [-95.10277, 39.53322], [-95.10279, 39.53324], [-95.1028, 39.53325], [-95.10282, 39.53327], [-95.10284, 39.5333], [-95.10287, 39.53333], [-95.10289, 39.53335], [-95.10361, 39.53411], [-95.10459, 39.53514], [-95.10567, 39.5365], [-95.10632, 39.53732], [-95.10648, 39.53752], [-95.1066, 39.53766], [-95.10691, 39.53814], [-95.10702, 39.53831], [-95.10705, 39.53836], [-95.10714, 39.5385], [-95.1072, 39.53858], [-95.10806, 39.53992], [-95.10843, 39.54062], [-95.1093, 39.54228], [-95.10941, 39.5425], [-95.11037, 39.54456], [-95.11161, 39.54789], [-95.11185, 39.54854], [-95.11251, 39.55039], [-95.11272, 39.55099], [-95.11312, 39.55211], [-95.11329, 39.55281], [-95.11343, 39.55343], [-95.1135, 39.55371], [-95.11356, 39.55394], [-95.11359, 39.55458], [-95.1136, 39.55488], [-95.11359, 39.55516], [-95.11356, 39.55559], [-95.11354, 39.55601], [-95.11352, 39.5563], [-95.11349, 39.55683], [-95.11347, 39.55696], [-95.11345, 39.5571], [-95.11328, 39.55815], [-95.11312, 39.55893], [-95.11307, 39.55918], [-95.1129, 39.55962], [-95.11345, 39.55963], [-95.11437, 39.55962], [-95.11518, 39.55963], [-95.11531, 39.55963], [-95.11572, 39.55963], [-95.11586, 39.55963], [-95.1159, 39.55963], [-95.11604, 39.55963], [-95.11608, 39.55964], [-95.11613, 39.55964], [-95.1163, 39.55964], [-95.11635, 39.55964], [-95.11663, 39.55964], [-95.11747, 39.55965], [-95.11774, 39.55965], [-95.11852, 39.55969], [-95.11917, 39.5597], [-95.11992, 39.55967], [-95.1205, 39.55967], [-95.12077, 39.55967], [-95.12152, 39.55966], [-95.12156, 39.55966], [-95.12182, 39.55964], [-95.12211, 39.55962], [-95.12251, 39.55959], [-95.12295, 39.55952], [-95.12323, 39.55947], [-95.12325, 39.55947], [-95.12353, 39.5594], [-95.12375, 39.55937], [-95.12406, 39.5593], [-95.12605, 39.55889], [-95.12623, 39.55886], [-95.12653, 39.55879], [-95.12656, 39.55878], [-95.12735, 39.55862], [-95.12772, 39.55854], [-95.12882, 39.55831], [-95.12919, 39.55823], [-95.12952, 39.55816], [-95.12992, 39.55808], [-95.13007, 39.55805], [-95.13082, 39.5579], [-95.13106, 39.55788], [-95.13127, 39.55781], [-95.13182, 39.55768], [-95.13206, 39.55765], [-95.13272, 39.55751], [-95.1336, 39.55733], [-95.13419, 39.5572], [-95.13464, 39.55711], [-95.13544, 39.55697], [-95.13544, 39.55816], [-95.13544, 39.55874], [-95.13544, 39.55877], [-95.13544, 39.55883], [-95.13544, 39.55885], [-95.13544, 39.55888], [-95.13553, 39.55886], [-95.13579, 39.55879], [-95.13588, 39.55877], [-95.136, 39.55875], [-95.13638, 39.55869], [-95.13651, 39.55867], [-95.13665, 39.55865], [-95.13705, 39.55859], [-95.13718, 39.55858], [-95.13732, 39.55855], [-95.13777, 39.55849], [-95.13791, 39.55847], [-95.13977, 39.55814], [-95.14533, 39.55716], [-95.14641, 39.55698], [-95.14719, 39.55685], [-95.14746, 39.55679], [-95.14765, 39.55674], [-95.14827, 39.55658], [-95.14854, 39.55652], [-95.14925, 39.55635], [-95.15098, 39.55593], [-95.15136, 39.55584], [-95.15207, 39.55567], [-95.15237, 39.5556], [-95.1525, 39.55555], [-95.15296, 39.55539], [-95.15345, 39.55521], [-95.15351, 39.55519], [-95.15372, 39.55513], [-95.15373, 39.55508], [-95.15431, 39.55492], [-95.15548, 39.55462], [-95.15604, 39.55441], [-95.15661, 39.55419], [-95.15709, 39.55401], [-95.15853, 39.55347], [-95.15902, 39.55329], [-95.15923, 39.55321], [-95.15987, 39.55297], [-95.16003, 39.55291], [-95.16008, 39.55288], [-95.16018, 39.55283], [-95.16048, 39.55268], [-95.16058, 39.55263], [-95.16117, 39.55234], [-95.16129, 39.55228], [-95.16284, 39.55162], [-95.16362, 39.55129], [-95.16427, 39.55101], [-95.16539, 39.55044], [-95.16561, 39.55033], [-95.16576, 39.55025], [-95.16584, 39.55021], [-95.16594, 39.55016], [-95.1659, 39.55016], [-95.16593, 39.55014], [-95.16692, 39.54953], [-95.16914, 39.54841], [-95.16955, 39.54825], [-95.17051, 39.54791], [-95.17071, 39.54784], [-95.17097, 39.54774], [-95.17433, 39.54714], [-95.17545, 39.54694], [-95.17551, 39.54693], [-95.17554, 39.54693], [-95.17848, 39.5464], [-95.17978, 39.54608], [-95.18024, 39.54606], [-95.18119, 39.54601], [-95.18332, 39.5464], [-95.18654, 39.54734], [-95.1887, 39.54746], [-95.1897, 39.54741], [-95.19136, 39.54732], [-95.19443, 39.54732], [-95.1983, 39.54732], [-95.1992, 39.54711], [-95.19999, 39.54691], [-95.20209, 39.54659], [-95.20252, 39.54662], [-95.20386, 39.54669], [-95.2074, 39.54744], [-95.21242, 39.54865], [-95.21275, 39.54873], [-95.2157, 39.54945], [-95.21612, 39.54955], [-95.21659, 39.54966], [-95.21735, 39.55], [-95.21775, 39.55017]]]}}, {"type": "Feature", "properties": {"tract_id": "20005081900", "name": "Census Tract 819", "income_2020": 39698, "poverty_rate_2020": 21.5, "population_2020": 3172}, "geometry": {"type": "Polygon", "coordinates": [[[-95.13549, 39.55982], [-95.13549, 39.55981], [-95.13548, 39.55976], [-95.13548, 39.55974], [-95.13548, 39.55959], [-95.13545, 39.55914], [-95.13545, 39.55899], [-95.13545, 39.55897], [-95.13544, 39.5589], [-95.13544, 39.55888], [-95.13544, 39.55885], [-95.13544, 39.55883], [-95.13544, 39.55877], [-95.13544, 39.55874], [-95.13544, 39.55816], [-95.13544, 39.55697], [-95.13464, 39.55711], [-95.13419, 39.5572], [-95.1336, 39.55733], [-95.13272, 39.55751], [-95.13206, 39.55765], [-95.13182, 39.55768], [-95.13127, 39.55781], [-95.13106, 39.55788], [-95.13082, 39.5579], [-95.13007, 39.55805], [-95.12992, 39.55808], [-95.12952, 39.55816], [-95.12919, 39.55823], [-95.12882, 39.55831], [-95.12772, 39.55854], [-95.12735, 39.55862], [-95.12656, 39.55878], [-95.12653, 39.55879], [-95.12623, 39.55886], [-95.12605, 39.55889], [-95.12406, 39.5593], [-95.12375, 39.55937], [-95.12353, 39.5594], [-95.12325, 39.55947], [-95.12323, 39.55947], [-95.12295, 39.55952], [-95.12251, 39.55959], [-95.12211, 39.55962], [-95.12182, 39.55964], [-95.12156, 39.55966], [-95.12152, 39.55966], [-95.12077, 39.55967], [-95.1205, 39.55967], [-95.11992, 39.55967], [-95.11917, 39.5597], [-95.11852, 39.55969], [-95.11774, 39.55965], [-95.11747, 39.55965], [-95.11663, 39.55964], [-95.11635, 39.55964], [-95.1163, 39.55964], [-95.11613, 39.55964], [-95.11608, 39.55964], [-95.11604, 39.55963], [-95.1159, 39.55963], [-95.11586, 39.55963], [-95.11572, 39.55963], [-95.11531, 39.55963], [-95.11518, 39.55963], [-95.11514, 39.55977], [-95.11504, 39.56012], [-95.11499, 39.56017], [-95.11489, 39.56028], [-95.11477, 39.56059], [-95.1144, 39.56152], [-95.11428, 39.56184], [-95.11425, 39.56191], [-95.11417, 39.56212], [-95.11414, 39.56219], [-95.11392, 39.56276], [-95.11325, 39.56447], [-95.11303, 39.56504], [-95.11326, 39.56504], [-95.11395, 39.56504], [-95.11418, 39.56504], [-95.11439, 39.56504], [-95.11501, 39.56504], [-95.11522, 39.56504], [-95.11521, 39.56526], [-95.1152, 39.56591], [-95.1152, 39.56613], [-95.11519, 39.56635], [-95.11518, 39.56701], [-95.11518, 39.56724], [-95.11518, 39.56745], [-95.11516, 39.56809], [-95.11516, 39.56831], [-95.11516, 39.56852], [-95.11514, 39.56916], [-95.11514, 39.56937], [-95.11514, 39.5696], [-95.11512, 39.57028], [-95.11512, 39.57051], [-95.1151, 39.57191], [-95.11613, 39.57191], [-95.11651, 39.57191], [-95.11755, 39.57192], [-95.1178, 39.5719], [-95.11781, 39.57192], [-95.11898, 39.57193], [-95.11902, 39.57194], [-95.11904, 39.57194], [-95.11909, 39.57193], [-95.12031, 39.57193], [-95.12037, 39.57194], [-95.12169, 39.57194], [-95.1225, 39.57194], [-95.1226, 39.57194], [-95.12291, 39.57195], [-95.12301, 39.57195], [-95.12329, 39.57195], [-95.12414, 39.57195], [-95.12442, 39.57195], [-95.12456, 39.57195], [-95.12497, 39.57196], [-95.12511, 39.57196], [-95.1258, 39.57196], [-95.12721, 39.57197], [-95.12728, 39.57197], [-95.12873, 39.57198], [-95.12929, 39.57198], [-95.12947, 39.57198], [-95.13002, 39.57198], [-95.1302, 39.57198], [-95.13025, 39.57198], [-95.13041, 39.57199], [-95.13046, 39.57199], [-95.13168, 39.57199], [-95.13166, 39.57092], [-95.13165, 39.57066], [-95.13165, 39.57062], [-95.13167, 39.56958], [-95.13171, 39.56851], [-95.13172, 39.56829], [-95.13173, 39.56762], [-95.13174, 39.56739], [-95.13175, 39.56718], [-95.13177, 39.56691], [-95.13176, 39.56653], [-95.13176, 39.56632], [-95.13176, 39.5661], [-95.13178, 39.56545], [-95.13178, 39.56524], [-95.13204, 39.56523], [-95.13282, 39.56523], [-95.13308, 39.56523], [-95.13323, 39.56524], [-95.13367, 39.56526], [-95.13382, 39.56527], [-95.13414, 39.56526], [-95.1351, 39.56526], [-95.13543, 39.56526], [-95.13542, 39.56505], [-95.13542, 39.5644], [-95.13542, 39.56419], [-95.13543, 39.56397], [-95.13543, 39.5633], [-95.13543, 39.56308], [-95.13544, 39.56286], [-95.13545, 39.56221], [-95.13545, 39.56199], [-95.13545, 39.56177], [-95.13547, 39.56113], [-95.13547, 39.56091], [-95.13547, 39.56069], [-95.13548, 39.56004], [-95.13549, 39.55982]]]}}, {"type": "Feature", "properties": {"tract_id": "20005081702", "name": "Census Tract 817.02", "income_2020": 50827, "poverty_rate_2020": 31.6, "population_2020": 2383}, "geometry": {"type": "Polygon", "coordinates": [[[-95.12455, 39.58739], [-95.12455, 39.58663], [-95.12453, 39.58437], [-95.12453, 39.58362], [-95.12453, 39.58325], [-95.12453, 39.58286], [-95.12452, 39.58212], [-95.12452, 39.58205], [-95.12451, 39.58191], [-95.12451, 39.58175], [-95.12451, 39.58172], [-95.12451, 39.58171], [-95.12451, 39.58169], [-95.12451, 39.58162], [-95.1245, 39.58095], [-95.12449, 39.58084], [-95.12444, 39.57955], [-95.1244, 39.57895], [-95.1244, 39.57891], [-95.12441, 39.57828], [-95.1244, 39.57791], [-95.12439, 39.57683], [-95.12439, 39.57647], [-95.1244, 39.57619], [-95.12443, 39.57534], [-95.12444, 39.57513], [-95.12444, 39.57505], [-95.12444, 39.57478], [-95.12443, 39.57395], [-95.12443, 39.57367], [-95.12443, 39.57333], [-95.12442, 39.5723], [-95.12442, 39.57195], [-95.12414, 39.57195], [-95.12329, 39.57195], [-95.12301, 39.57195], [-95.12291, 39.57195], [-95.1226, 39.57194], [-95.1225, 39.57194], [-95.12169, 39.57194], [-95.12037, 39.57194], [-95.12031, 39.57193], [-95.11909, 39.57193], [-95.11904, 39.57194], [-95.11902, 39.57194], [-95.11898, 39.57193], [-95.11781, 39.57192], [-95.1178, 39.5719], [-95.11755, 39.57192], [-95.11651, 39.57191], [-95.11613, 39.57191], [-95.1151, 39.57191], [-95.11512, 39.57051], [-95.11512, 39.57028], [-95.11514, 39.5696], [-95.11514, 39.56937], [-95.11514, 39.56916], [-95.11516, 39.56852], [-95.11516, 39.56831], [-95.11516, 39.56809], [-95.11518, 39.56745], [-95.11518, 39.56724], [-95.11518, 39.56701], [-95.11519, 39.56635], [-95.1152, 39.56613], [-95.1152, 39.56591], [-95.11521, 39.56526], [-95.11522, 39.56504], [-95.11501, 39.56504], [-95.11439, 39.56504], [-95.11418, 39.56504], [-95.11395, 39.56504], [-95.11326, 39.56504], [-95.11303, 39.56504], [-95.11325, 39.56447], [-95.11392, 39.56276], [-95.11414, 39.56219], [-95.11417, 39.56212], [-95.11425, 39.56191], [-95.11428, 39.56184], [-95.1144, 39.56152], [-95.11477, 39.56059], [-95.11489, 39.56028], [-95.11499, 39.56017], [-95.11504, 39.56012], [-95.11514, 39.55977], [-95.11518, 39.55963], [-95.11437, 39.55962], [-95.11345, 39.55963], [-95.1129, 39.55962], [-95.11287, 39.55971], [-95.11282, 39.55982], [-95.11265, 39.56024], [-95.11203, 39.56188], [-95.11197, 39.56204], [-95.11143, 39.56352], [-95.10984, 39.56782], [-95.1098, 39.56793], [-95.10922, 39.56939], [-95.10903, 39.56988], [-95.10844, 39.57134], [-95.10825, 39.57183], [-95.10818, 39.57202], [-95.10808, 39.57225], [-95.10795, 39.57258], [-95.10791, 39.57267], [-95.10787, 39.57277], [-95.10765, 39.57331], [-95.10747, 39.57374], [-95.10672, 39.5748], [-95.10639, 39.57528], [-95.10614, 39.5755], [-95.1057, 39.5759], [-95.10541, 39.57617], [-95.10524, 39.57633], [-95.10517, 39.57639], [-95.10495, 39.5766], [-95.10488, 39.57665], [-95.10392, 39.57731], [-95.1036, 39.57753], [-95.10323, 39.57778], [-95.10189, 39.57848], [-95.10129, 39.5788], [-95.09909, 39.57969], [-95.09725, 39.5802], [-95.09706, 39.58025], [-95.09636, 39.58045], [-95.09574, 39.58062], [-95.09443, 39.5808], [-95.09327, 39.58096], [-95.09215, 39.58112], [-95.08976, 39.58104], [-95.08952, 39.58103], [-95.08861, 39.58084], [-95.08831, 39.58077], [-95.08743, 39.58059], [-95.08742, 39.58058], [-95.08713, 39.58048], [-95.08694, 39.58041], [-95.08666, 39.58032], [-95.08638, 39.58022], [-95.08619, 39.58016], [-95.086, 39.58009], [-95.08572, 39.57999], [-95.08543, 39.57988], [-95.08525, 39.57982], [-95.08468, 39.57961], [-95.08383, 39.5793], [-95.08298, 39.57899], [-95.08242, 39.57878], [-95.0789, 39.57754], [-95.07669, 39.57676], [-95.07521, 39.57643], [-95.07216, 39.57612], [-95.06932, 39.57622], [-95.06791, 39.5764], [-95.0671, 39.5765], [-95.06452, 39.57711], [-95.06428, 39.57722], [-95.06339, 39.57747], [-95.0609, 39.57854], [-95.05952, 39.57913], [-95.0569, 39.58057], [-95.05478, 39.58253], [-95.05284, 39.5848], [-95.0525, 39.58521], [-95.05059, 39.58756], [-95.05026, 39.58807], [-95.04959, 39.5891], [-95.04928, 39.58958], [-95.04851, 39.59114], [-95.04805, 39.59246], [-95.04771, 39.59344], [-95.04765, 39.59363], [-95.04754, 39.59394], [-95.04724, 39.59488], [-95.04716, 39.59512], [-95.04714, 39.59519], [-95.04704, 39.59553], [-95.04675, 39.59653], [-95.04669, 39.59675], [-95.04668, 39.59687], [-95.04664, 39.59712], [-95.0466, 39.5975], [-95.04656, 39.59788], [-95.04653, 39.59814], [-95.04651, 39.59828], [-95.04648, 39.5985], [-95.04646, 39.59871], [-95.04644, 39.59886], [-95.04636, 39.59955], [-95.04636, 39.59956], [-95.04644, 39.60161], [-95.04645, 39.60163], [-95.04661, 39.60231], [-95.04682, 39.60319], [-95.04696, 39.6036], [-95.04732, 39.60467], [-95.04791, 39.60629], [-95.04849, 39.60728], [-95.04883, 39.60786], [-95.04919, 39.60841], [-95.04937, 39.6087], [-95.04955, 39.60898], [-95.04999, 39.60953], [-95.0502, 39.6098], [-95.05041, 39.61007], [-95.05048, 39.61015], [-95.05103, 39.61087], [-95.05124, 39.61114], [-95.05188, 39.61198], [-95.05218, 39.61249], [-95.05301, 39.61397], [-95.05347, 39.615], [-95.05359, 39.61527], [-95.05517, 39.61525], [-95.05525, 39.61525], [-95.05998, 39.61519], [-95.06009, 39.61517], [-95.06279, 39.6151], [-95.06413, 39.61506], [-95.06827, 39.61509], [-95.07026, 39.61511], [-95.0709, 39.61511], [-95.0736, 39.6151], [-95.07597, 39.6151], [-95.08307, 39.61508], [-95.08544, 39.61507], [-95.08544, 39.61511], [-95.08551, 39.61626], [-95.08558, 39.61723], [-95.08573, 39.61774], [-95.08611, 39.61867], [-95.0865, 39.61964], [-95.08666, 39.62004], [-95.08693, 39.62074], [-95.08801, 39.62073], [-95.09149, 39.62068], [-95.09185, 39.62068], [-95.0922, 39.62073], [-95.09239, 39.62075], [-95.09258, 39.62075], [-95.09271, 39.62075], [-95.09515, 39.62075], [-95.0964, 39.62076], [-95.09667, 39.62076], [-95.09754, 39.62081], [-95.09791, 39.62086], [-95.09801, 39.62087], [-95.09804, 39.62082], [-95.09806, 39.6208], [-95.09814, 39.62074], [-95.09816, 39.62073], [-95.09827, 39.62041], [-95.09832, 39.6203], [-95.09881, 39.62043], [-95.09978, 39.62057], [-95.09999, 39.62053], [-95.10037, 39.62044], [-95.10134, 39.62025], [-95.10199, 39.62022], [-95.1025, 39.62006], [-95.10276, 39.61973], [-95.10277, 39.61946], [-95.10258, 39.61889], [-95.10239, 39.61843], [-95.10242, 39.61805], [-95.10254, 39.61771], [-95.10256, 39.61769], [-95.10342, 39.61696], [-95.10383, 39.61665], [-95.1039, 39.61664], [-95.104, 39.61662], [-95.10429, 39.61657], [-95.10433, 39.61656], [-95.10436, 39.61656], [-95.10439, 39.61656], [-95.10445, 39.61656], [-95.10656, 39.61655], [-95.11307, 39.61649], [-95.11524, 39.61648], [-95.11524, 39.61531], [-95.11524, 39.61179], [-95.11524, 39.61062], [-95.11523, 39.61015], [-95.11523, 39.60931], [-95.11524, 39.60875], [-95.11524, 39.60828], [-95.11524, 39.60702], [-95.11526, 39.60322], [-95.11526, 39.60195], [-95.11526, 39.60125], [-95.11526, 39.60089], [-95.11522, 39.59538], [-95.11524, 39.59478], [-95.11524, 39.59475], [-95.11524, 39.59472], [-95.11524, 39.59469], [-95.11523, 39.59015], [-95.11523, 39.58744], [-95.12112, 39.58742], [-95.12127, 39.58741], [-95.12129, 39.58741], [-95.12181, 39.58741], [-95.12305, 39.5874], [-95.12311, 39.5874], [-95.12316, 39.5874], [-95.12387, 39.58739], [-95.12455, 39.58739]]]}}, {"type": "Feature", "properties": {"tract_id": "20005081701", "name": "Census Tract 817.01", "income_2020": 69635, "poverty_rate_2020": 6.9, "population_2020": 3412}, "geometry": {"type": "Polygon", "coordinates": [[[-95.22815, 39.56628], [-95.22823, 39.56564], [-95.22806, 39.56564], [-95.22753, 39.56565], [-95.22736, 39.56566], [-95.22726, 39.56566], [-95.22551, 39.56566], [-95.21997, 39.56565], [-95.21813, 39.56565], [-95.21807, 39.56565], [-95.21791, 39.56565], [-95.21785, 39.56565], [-95.21785, 39.56391], [-95.21783, 39.56048], [-95.21783, 39.55871], [-95.21782, 39.55698], [-95.21781, 39.55564], [-95.21777, 39.55163], [-95.21775, 39.5503], [-95.21775, 39.55027], [-95.21775, 39.5502], [-95.21775, 39.55017], [-95.21735, 39.55], [-95.21659, 39.54966], [-95.21612, 39.54955], [-95.2157, 39.54945], [-95.21275, 39.54873], [-95.21242, 39.54865], [-95.2074, 39.54744], [-95.20386, 39.54669], [-95.20252, 39.54662], [-95.20209, 39.54659], [-95.19999, 39.54691], [-95.1992, 39.54711], [-95.1983, 39.54732], [-95.19443, 39.54732], [-95.19136, 39.54732], [-95.1897, 39.54741], [-95.1887, 39.54746], [-95.18654, 39.54734], [-95.18332, 39.5464], [-95.18119, 39.54601], [-95.18024, 39.54606], [-95.17978, 39.54608], [-95.17848, 39.5464], [-95.17554, 39.54693], [-95.17551, 39.54693], [-95.17545, 39.54694], [-95.17433, 39.54714], [-95.17097, 39.54774], [-95.17071, 39.54784], [-95.17051, 39.54791], [-95.16955, 39.54825], [-95.16914, 39.54841], [-95.16692, 39.54953], [-95.16593, 39.55014], [-95.1659, 39.55016], [-95.16594, 39.55016], [-95.16584, 39.55021], [-95.16576, 39.55025], [-95.16561, 39.55033], [-95.16539, 39.55044], [-95.16427, 39.55101], [-95.16362, 39.55129], [-95.16284, 39.55162], [-95.16129, 39.55228], [-95.16117, 39.55234], [-95.16058, 39.55263], [-95.16048, 39.55268], [-95.16018, 39.55283], [-95.16008, 39.55288], [-95.16003, 39.55291], [-95.15987, 39.55297], [-95.15923, 39.55321], [-95.15902, 39.55329], [-95.15853, 39.55347], [-95.15709, 39.55401], [-95.15661, 39.55419], [-95.15604, 39.55441], [-95.15548, 39.55462], [-95.15431, 39.55492], [-95.15373, 39.55508], [-95.15372, 39.55513], [-95.15351, 39.55519], [-95.15345, 39.55521], [-95.15296, 39.55539], [-95.1525, 39.55555], [-95.15237, 39.5556], [-95.15207, 39.55567], [-95.15136, 39.55584], [-95.15098, 39.55593], [-95.14925, 39.55635], [-95.14854, 39.55652], [-95.14827, 39.55658], [-95.14765, 39.55674], [-95.14746, 39.55679], [-95.14719, 39.55685], [-95.14641, 39.55698], [-95.14533, 39.55716], [-95.13977, 39.55814], [-95.13791, 39.55847], [-95.13777, 39.55849], [-95.13732, 39.55855], [-95.13718, 39.55858], [-95.13705, 39.55859], [-95.13665, 39.55865], [-95.13651, 39.55867], [-95.13638, 39.55869], [-95.136, 39.55875], [-95.13588, 39.55877], [-95.13579, 39.55879], [-95.13553, 39.55886], [-95.13544, 39.55888], [-95.13544, 39.5589], [-95.13545, 39.55897], [-95.13545, 39.55899], [-95.13545, 39.55914], [-95.13548, 39.55959], [-95.13548, 39.55974], [-95.13548, 39.55976], [-95.13549, 39.55981], [-95.13549, 39.55982], [-95.13548, 39.56004], [-95.13547, 39.56069], [-95.13547, 39.56091], [-95.13547, 39.56113], [-95.13545, 39.56177], [-95.13545, 39.56199], [-95.13545, 39.56221], [-95.13544, 39.56286], [-95.13543, 39.56308], [-95.13543, 39.5633], [-95.13543, 39.56397], [-95.13542, 39.56419], [-95.13542, 39.5644], [-95.13542, 39.56505], [-95.13543, 39.56526], [-95.1351, 39.56526], [-95.13414, 39.56526], [-95.13382, 39.56527], [-95.13367, 39.56526], [-95.13323, 39.56524], [-95.13308, 39.56523], [-95.13282, 39.56523], [-95.13204, 39.56523], [-95.13178, 39.56524], [-95.13178, 39.56545], [-95.13176, 39.5661], [-95.13176, 39.56632], [-95.13176, 39.56653], [-95.13177, 39.56691], [-95.13175, 39.56718], [-95.13174, 39.56739], [-95.13173, 39.56762], [-95.13172, 39.56829], [-95.13171, 39.56851], [-95.13167, 39.56958], [-95.13165, 39.57062], [-95.13165, 39.57066], [-95.13166, 39.57092], [-95.13168, 39.57199], [-95.13046, 39.57199], [-95.13041, 39.57199], [-95.13025, 39.57198], [-95.1302, 39.57198], [-95.13002, 39.57198], [-95.12947, 39.57198], [-95.12929, 39.57198], [-95.12873, 39.57198], [-95.12728, 39.57197], [-95.12721, 39.57197], [-95.1258, 39.57196], [-95.12511, 39.57196], [-95.12497, 39.57196], [-95.12456, 39.57195], [-95.12442, 39.57195], [-95.12442, 39.5723], [-95.12443, 39.57333], [-95.12443, 39.57367], [-95.12443, 39.57395], [-95.12444, 39.57478], [-95.12444, 39.57505], [-95.12444, 39.57513], [-95.12443, 39.57534], [-95.1244, 39.57619], [-95.12439, 39.57647], [-95.12439, 39.57683], [-95.1244, 39.57791], [-95.12441, 39.57828], [-95.1244, 39.57891], [-95.1244, 39.57895], [-95.12444, 39.57955], [-95.12449, 39.58084], [-95.1245, 39.58095], [-95.12451, 39.58162], [-95.12451, 39.58169], [-95.12451, 39.58171], [-95.12451, 39.58172], [-95.12451, 39.58175], [-95.12451, 39.58191], [-95.12452, 39.58205], [-95.12452, 39.58212], [-95.12453, 39.58286], [-95.12453, 39.58325], [-95.12453, 39.58362], [-95.12453, 39.58437], [-95.12455, 39.58663], [-95.12455, 39.58739], [-95.12387, 39.58739], [-95.12316, 39.5874], [-95.12311, 39.5874], [-95.12305, 39.5874], [-95.12181, 39.58741], [-95.12129, 39.58741], [-95.12127, 39.58741], [-95.12112, 39.58742], [-95.11523, 39.58744], [-95.11523, 39.59015], [-95.11524, 39.59469], [-95.11524, 39.59472], [-95.11524, 39.59475], [-95.11524, 39.59478], [-95.11522, 39.59538], [-95.11526, 39.60089], [-95.11526, 39.60125], [-95.11526, 39.60195], [-95.11526, 39.60322], [-95.11524, 39.60702], [-95.11524, 39.60828], [-95.11524, 39.60875], [-95.11523, 39.60931], [-95.11523, 39.61015], [-95.11524, 39.61062], [-95.11524, 39.61179], [-95.11524, 39.61531], [-95.11524, 39.61648], [-95.11767, 39.61646], [-95.11928, 39.61646], [-95.12498, 39.61643], [-95.12742, 39.61642], [-95.12781, 39.61642], [-95.12899, 39.61641], [-95.12938, 39.61641], [-95.13034, 39.6164], [-95.13323, 39.61639], [-95.1342, 39.61639], [-95.13418, 39.61512], [-95.13418, 39.61494], [-95.13416, 39.61197], [-95.13414, 39.61062], [-95.13413, 39.60999], [-95.13413, 39.60918], [-95.13601, 39.60919], [-95.14166, 39.60922], [-95.14355, 39.60923], [-95.14445, 39.60923], [-95.14716, 39.60922], [-95.1474, 39.60922], [-95.14806, 39.60925], [-95.14808, 39.60925], [-95.14819, 39.60928], [-95.14846, 39.60935], [-95.14903, 39.6096], [-95.14912, 39.60965], [-95.15067, 39.61037], [-95.15171, 39.61053], [-95.15196, 39.61057], [-95.15298, 39.61075], [-95.15305, 39.61074], [-95.15318, 39.61073], [-95.15324, 39.61072], [-95.15331, 39.6107], [-95.15372, 39.61062], [-95.15444, 39.61039], [-95.15721, 39.60952], [-95.15783, 39.60935], [-95.15808, 39.60929], [-95.159, 39.6093], [-95.15971, 39.6093], [-95.16184, 39.60933], [-95.16241, 39.60934], [-95.16241, 39.6092], [-95.16239, 39.60766], [-95.16238, 39.60672], [-95.1624, 39.60551], [-95.16299, 39.60407], [-95.16339, 39.6035], [-95.16355, 39.60334], [-95.16422, 39.60269], [-95.16467, 39.60228], [-95.16479, 39.60217], [-95.16529, 39.60202], [-95.16603, 39.602], [-95.16628, 39.60199], [-95.17032, 39.60202], [-95.17175, 39.60203], [-95.17268, 39.60203], [-95.17547, 39.60203], [-95.1764, 39.60203], [-95.17923, 39.60204], [-95.18773, 39.60206], [-95.19056, 39.60207], [-95.19053, 39.60061], [-95.19047, 39.59624], [-95.19046, 39.5956], [-95.19045, 39.59479], [-95.1914, 39.59478], [-95.19426, 39.59476], [-95.19521, 39.59475], [-95.19978, 39.59471], [-95.2093, 39.59475], [-95.2136, 39.59474], [-95.22734, 39.59469], [-95.22734, 39.59354], [-95.22733, 39.59012], [-95.22733, 39.58897], [-95.22733, 39.58708], [-95.22733, 39.5865], [-95.22732, 39.5814], [-95.22732, 39.57951], [-95.22732, 39.57735], [-95.22731, 39.57088], [-95.22731, 39.56872], [-95.22753, 39.56811], [-95.22773, 39.56757], [-95.2281, 39.56666], [-95.22815, 39.56628]]]}}]}