{"type": "FeatureCollection", "features": [{"type": "Feature", "geometry": {"type": "Point", "coordinates": [-95.17194444444445, 39.54666666666667]}, "properties": {"facility_name": "CONAGRA FOODS CORN PROCESSING", "industry": null, "tri_facility_id": "66002CNGRF16755"}}, {"type": "Feature", "geometry": {"type": "Point", "coordinates": [-95.1333, 39.561]}, "properties": {"facility_name": "MGPI PROCESSING INC.", "industry": null, "tri_facility_id": "66002MDWST1300M"}}, {"type": "Feature", "geometry": {"type": "Point", "coordinates": [-95.15555555555557, 39.555]}, "properties": {"facility_name": "PROGRESS RAIL- FASTENER DIV", "industry": null, "tri_facility_id": "66002NTRLN2604I"}}, {"type": "Feature", "geometry": {"type": "Point", "coordinates": [-95.116111, 39.558611]}, "properties": {"facility_name": "BRADKEN ATCHISON/ST JOSEPH", "industry": null, "tri_facility_id": "66002RCKWL4THAN"}}]}