{"type": "FeatureCollection", "features": [{"type": "Feature", "properties": {"area_id": 6195, "city": "Camden", "state": "NJ", "city_survey": true, "cat": "Best", "grade": "A", "label": "A1", "res": true, "com": false, "ind": false, "holc_grade": "A"}, "geometry": {"type": "Polygon", "coordinates": [[[-75.05507, 39.94469], [-75.055, 39.9422], [-75.05686, 39.94067], [-75.0596, 39.94242], [-75.06056, 39.94335], [-75.06268, 39.94425], [-75.0616, 39.94537], [-75.060796, 39.94633], [-75.05814, 39.9495], [-75.05604, 39.94963], [-75.05634, 39.95147], [-75.05419, 39.95163], [-75.04848, 39.95227], [-75.04361, 39.95282], [-75.042334, 39.95194], [-75.04113, 39.95111], [-75.040553, 39.950904], [-75.03867, 39.95023], [-75.039604, 39.946015], [-75.03974, 39.9454], [-75.04202, 39.94449], [-75.04217, 39.94581], [-75.04292, 39.94665], [-75.04646, 39.94655], [-75.04684, 39.94654], [-75.047327, 39.946816], [-75.048555, 39.94751], [-75.04912, 39.94783], [-75.05083, 39.94785], [-75.05415, 39.94788], [-75.053986, 39.946972], [-75.05386, 39.94627], [-75.05372, 39.94471], [-75.05507, 39.94469]]]}}, {"type": "Feature", "properties": {"area_id": 6174, "city": "Camden", "state": "NJ", "city_survey": true, "cat": "Best", "grade": "A", "label": "A2", "res": true, "com": false, "ind": false, "holc_grade": "A"}, "geometry": {"type": "Polygon", "coordinates": [[[-75.084387, 39.912186], [-75.08517, 39.91341], [-75.08273, 39.91423], [-75.08339, 39.91773], [-75.08175, 39.91714], [-75.08149, 39.91646], [-75.08074, 39.91231], [-75.080768, 39.912299], [-75.08375, 39.91119], [-75.084387, 39.912186]]]}}, {"type": "Feature", "properties": {"area_id": 6171, "city": "Camden", "state": "NJ", "city_survey": true, "cat": "Best", "grade": "A", "label": "A3", "res": true, "com": false, "ind": false, "holc_grade": "A"}, "geometry": {"type": "Polygon", "coordinates": [[[-75.095925, 39.903547], [-75.0983, 39.9034], [-75.09922, 39.90388], [-75.10032, 39.90415], [-75.10103, 39.90379], [-75.10552, 39.90237], [-75.10612, 39.90324], [-75.10897, 39.9024], [-75.11072, 39.90192], [-75.11102, 39.90272], [-75.11024, 39.90304], [-75.11111, 39.90427], [-75.11063, 39.90438], [-75.11087, 39.90484], [-75.109, 39.90748], [-75.10882, 39.90828], [-75.10766, 39.90878], [-75.10656, 39.90903], [-75.10546, 39.90887], [-75.10499, 39.90794], [-75.10365, 39.90759], [-75.10317, 39.9083], [-75.10133, 39.90794], [-75.10142, 39.9075], [-75.10053, 39.90734], [-75.09898, 39.90723], [-75.09762, 39.90762], [-75.095947, 39.904046], [-75.09572, 39.90356], [-75.095925, 39.903547]]]}}, {"type": "Feature", "properties": {"area_id": 6178, "city": "Camden", "state": "NJ", "city_survey": true, "cat": "Best", "grade": "A", "label": "A4", "res": true, "com": false, "ind": false, "holc_grade": "A"}, "geometry": {"type": "Polygon", "coordinates": [[[-75.03695, 39.878779], [-75.03695, 39.87847], [-75.03714, 39.878482], [-75.03824, 39.87855], [-75.03952, 39.87899], [-75.04073, 39.87992], [-75.04176, 39.88101], [-75.04194, 39.88183], [-75.04455, 39.88246], [-75.04544, 39.88271], [-75.04594, 39.88306], [-75.045958, 39.883075], [-75.046503, 39.883522], [-75.04911, 39.88566], [-75.0541, 39.88243], [-75.05852, 39.88695], [-75.0561, 39.88779], [-75.055897, 39.888215], [-75.054381, 39.891389], [-75.05428, 39.8916], [-75.05246, 39.89422], [-75.0525, 39.89715], [-75.05025, 39.89699], [-75.048184, 39.89679], [-75.04818, 39.89679], [-75.04636, 39.89606], [-75.04433, 39.89493], [-75.041366, 39.893589], [-75.04119, 39.89351], [-75.04469, 39.89212], [-75.0475, 39.8913], [-75.04579, 39.88867], [-75.0443, 39.88842], [-75.04326, 39.88826], [-75.04169, 39.89097], [-75.03816, 39.88998], [-75.03802, 39.88719], [-75.03724, 39.88719], [-75.03492, 39.88782], [-75.03399, 39.8884], [-75.03339, 39.88875], [-75.03339, 39.88793], [-75.03292, 39.88678], [-75.03232, 39.88583], [-75.03125, 39.88509], [-75.03125, 39.88446], [-75.03217, 39.88399], [-75.03356, 39.88364], [-75.03574, 39.88309], [-75.03731, 39.8829], [-75.03731, 39.882216], [-75.03731, 39.88219], [-75.037306, 39.882178], [-75.03695, 39.88104], [-75.03695, 39.878779]]]}}, {"type": "Feature", "properties": {"area_id": 6193, "city": "Camden", "state": "NJ", "city_survey": true, "cat": "Still Desirable", "grade": "B", "label": "B1", "res": true, "com": false, "ind": false, "holc_grade": "B"}, "geometry": {"type": "Polygon", "coordinates": [[[-75.0637, 39.95787], [-75.06485, 39.95733], [-75.06699, 39.95596], [-75.0694, 39.95459], [-75.070265, 39.955545], [-75.07246, 39.95797], [-75.07409, 39.96015], [-75.07089, 39.96181], [-75.07294, 39.96452], [-75.07371, 39.96568], [-75.06979, 39.96792], [-75.06878, 39.96858], [-75.06803, 39.96919], [-75.06652, 39.96726], [-75.06465, 39.96461], [-75.061883, 39.960842], [-75.06081, 39.95938], [-75.0637, 39.95787]]]}}, {"type": "Feature", "properties": {"area_id": 6176, "city": "Camden", "state": "NJ", "city_survey": true, "cat": "Still Desirable", "grade": "B", "label": "B10", "res": true, "com": false, "ind": false, "holc_grade": "B"}, "geometry": {"type": "Polygon", "coordinates": [[[-75.057729, 39.911767], [-75.05737, 39.91237], [-75.05524, 39.91189], [-75.05271, 39.91116], [-75.05099, 39.91064], [-75.04965, 39.90996], [-75.04864, 39.90929], [-75.04713, 39.90825], [-75.046635, 39.908583], [-75.04609, 39.90895], [-75.04832, 39.91048], [-75.05016, 39.91144], [-75.05251, 39.9123], [-75.056538, 39.913251], [-75.05683, 39.91332], [-75.05678, 39.9134], [-75.05676, 39.91339], [-75.056638, 39.913602], [-75.05657, 39.91372], [-75.057121, 39.914546], [-75.057446, 39.915034], [-75.057826, 39.915603], [-75.057872, 39.915672], [-75.05989, 39.918696], [-75.059891, 39.918697], [-75.06052, 39.91964], [-75.06126, 39.92046], [-75.06147, 39.92096], [-75.06263, 39.92283], [-75.06375, 39.92431], [-75.06296, 39.92447], [-75.06175, 39.92399], [-75.06056, 39.92363], [-75.05925, 39.92351], [-75.0583, 39.92237], [-75.05774, 39.92192], [-75.05628, 39.9226], [-75.05557, 39.9229], [-75.05468, 39.92281], [-75.05325, 39.92212], [-75.05251, 39.92196], [-75.05147, 39.9219], [-75.05046, 39.92171], [-75.04968, 39.91871], [-75.0463, 39.91754], [-75.04547, 39.91836], [-75.04478, 39.91871], [-75.043968, 39.918892], [-75.0438, 39.91893], [-75.0427, 39.91898], [-75.04235, 39.91882], [-75.04235, 39.918185], [-75.04235, 39.916148], [-75.04235, 39.9147], [-75.042359, 39.914236], [-75.04248, 39.90817], [-75.042485, 39.907894], [-75.04252, 39.90606], [-75.042396, 39.9053], [-75.0422, 39.9041], [-75.04218, 39.903901], [-75.04211, 39.90319], [-75.042588, 39.90356], [-75.0457, 39.90597], [-75.04683, 39.90521], [-75.04894, 39.90699], [-75.05069, 39.90581], [-75.0528, 39.90683], [-75.0534, 39.9074], [-75.0537, 39.90843], [-75.05414, 39.90909], [-75.05518, 39.9095], [-75.0564, 39.90975], [-75.05693, 39.90918], [-75.05741, 39.90893], [-75.058955, 39.909445], [-75.05909, 39.90949], [-75.05904, 39.90957], [-75.057862, 39.911544], [-75.057729, 39.911767]]]}}, {"type": "Feature", "properties": {"area_id": 6182, "city": "Camden", "state": "NJ", "city_survey": true, "cat": "Still Desirable", "grade": "B", "label": "B11", "res": true, "com": false, "ind": false, "holc_grade": "B"}, "geometry": {"type": "Polygon", "coordinates": [[[-75.02777, 39.91661], [-75.02492, 39.91585], [-75.02236, 39.91547], [-75.01924, 39.91499], [-75.01584, 39.91463], [-75.01487, 39.91459], [-75.01744, 39.91198], [-75.01898, 39.91065], [-75.01991, 39.91], [-75.02064, 39.91009], [-75.02309, 39.91023], [-75.02514, 39.91014], [-75.0259, 39.91116], [-75.02618, 39.91184], [-75.02713, 39.91359], [-75.02827, 39.91496], [-75.02968, 39.9164], [-75.02865, 39.91705], [-75.02777, 39.91661]]]}}, {"type": "Feature", "properties": {"area_id": 6170, "city": "Camden", "state": "NJ", "city_survey": true, "cat": "Still Desirable", "grade": "B", "label": "B12", "res": true, "com": false, "ind": false, "holc_grade": "B"}, "geometry": {"type": "Polygon", "coordinates": [[[-75.11853, 39.89697], [-75.11803, 39.90094], [-75.11812, 39.90124], [-75.11723, 39.90121], [-75.11607, 39.90094], [-75.11509, 39.90035], [-75.11479, 39.89957], [-75.11479, 39.89827], [-75.11491, 39.8969], [-75.11853, 39.89697]]]}}, {"type": "Feature", "properties": {"area_id": 6177, "city": "Camden", "state": "NJ", "city_survey": true, "cat": "Still Desirable", "grade": "B", "label": "B13", "res": true, "com": false, "ind": false, "holc_grade": "B"}, "geometry": {"type": "Polygon", "coordinates": [[[-75.03492, 39.88782], [-75.03724, 39.88719], [-75.03802, 39.88719], [-75.03816, 39.88998], [-75.04169, 39.89097], [-75.04326, 39.88826], [-75.0443, 39.88842], [-75.04579, 39.88867], [-75.0475, 39.8913], [-75.04469, 39.89212], [-75.04119, 39.89351], [-75.041366, 39.893589], [-75.04433, 39.89493], [-75.04636, 39.89606], [-75.04818, 39.89679], [-75.04818, 39.896968], [-75.04818, 39.897063], [-75.04818, 39.89797], [-75.04775, 39.89934], [-75.04661, 39.89947], [-75.04576, 39.89994], [-75.046239, 39.900537], [-75.04686, 39.90131], [-75.04761, 39.90196], [-75.04804, 39.90298], [-75.04808, 39.90366], [-75.04761, 39.90462], [-75.04683, 39.90521], [-75.0457, 39.90597], [-75.042588, 39.90356], [-75.04211, 39.90319], [-75.04218, 39.903901], [-75.0422, 39.9041], [-75.042396, 39.9053], [-75.04252, 39.90606], [-75.042485, 39.907894], [-75.04248, 39.90817], [-75.039295, 39.908155], [-75.03613, 39.90814], [-75.03324, 39.90845], [-75.02964, 39.90957], [-75.02939, 39.90918], [-75.02882, 39.90675], [-75.02843, 39.90563], [-75.02761, 39.905], [-75.0254, 39.90262], [-75.024616, 39.90188], [-75.02308, 39.90043], [-75.02323, 39.89978], [-75.02319, 39.89838], [-75.02294, 39.89701], [-75.02301, 39.89608], [-75.02394, 39.89595], [-75.0244, 39.89559], [-75.02462, 39.89513], [-75.02479, 39.89379], [-75.02522, 39.89247], [-75.02576, 39.89097], [-75.02579, 39.89028], [-75.0315, 39.88935], [-75.0327, 39.889166], [-75.03274, 39.88916], [-75.03339, 39.88875], [-75.03399, 39.8884], [-75.03492, 39.88782]]]}}, {"type": "Feature", "properties": {"area_id": 6167, "city": "Camden", "state": "NJ", "city_survey": true, "cat": "Still Desirable", "grade": "B", "label": "B14", "res": true, "com": false, "ind": false, "holc_grade": "B"}, "geometry": {"type": "Polygon", "coordinates": [[[-75.1167, 39.87678], [-75.1229, 39.8756], [-75.12486, 39.87634], [-75.12322, 39.8785], [-75.12675, 39.87976], [-75.12636, 39.8805], [-75.12661, 39.8808], [-75.12604, 39.88181], [-75.12358, 39.88195], [-75.12251, 39.88192], [-75.11983, 39.8811], [-75.11859, 39.88219], [-75.11723, 39.88285], [-75.11588, 39.88288], [-75.1152, 39.88249], [-75.11274, 39.88072], [-75.11499, 39.87825], [-75.11252, 39.8775], [-75.1167, 39.87678]]]}}, {"type": "Feature", "properties": {"area_id": 6179, "city": "Camden", "state": "NJ", "city_survey": true, "cat": "Still Desirable", "grade": "B", "label": "B15", "res": true, "com": false, "ind": false, "holc_grade": "B"}, "geometry": {"type": "Polygon", "coordinates": [[[-75.07333, 39.86935], [-75.07413, 39.86962], [-75.07485, 39.87015], [-75.07532, 39.87092], [-75.07621, 39.87331], [-75.07645, 39.87375], [-75.07743, 39.87402], [-75.07868, 39.87386], [-75.0802, 39.87343], [-75.0823, 39.87279], [-75.082368, 39.872911], [-75.08282, 39.87372], [-75.08396, 39.87651], [-75.084556, 39.877965], [-75.085425, 39.880086], [-75.0855, 39.88027], [-75.083739, 39.880465], [-75.08234, 39.88062], [-75.082324, 39.880744], [-75.08222, 39.88153], [-75.082004, 39.88153], [-75.08158, 39.88153], [-75.08018, 39.87938], [-75.07818, 39.87974], [-75.07702, 39.87742], [-75.07428, 39.87792], [-75.07062, 39.8779], [-75.068581, 39.877714], [-75.06777, 39.87764], [-75.067772, 39.877674], [-75.06789, 39.87957], [-75.06903, 39.88012], [-75.07041, 39.88103], [-75.07117, 39.88223], [-75.0724, 39.88183], [-75.072591, 39.882038], [-75.07364, 39.88318], [-75.06784, 39.88526], [-75.063281, 39.886706], [-75.06289, 39.88683], [-75.06489, 39.88869], [-75.07012, 39.89398], [-75.07031, 39.89434], [-75.0696, 39.89485], [-75.07056, 39.89581], [-75.07317, 39.89844], [-75.073212, 39.898482], [-75.0733, 39.89857], [-75.07297, 39.89868], [-75.07064, 39.89948], [-75.06947, 39.89994], [-75.06565, 39.90142], [-75.065557, 39.901294], [-75.06266, 39.8974], [-75.062498, 39.89741], [-75.05757, 39.8977], [-75.05549, 39.897713], [-75.05267, 39.89773], [-75.0525, 39.89715], [-75.05246, 39.89422], [-75.05428, 39.8916], [-75.054381, 39.891389], [-75.055897, 39.888215], [-75.0561, 39.88779], [-75.05852, 39.88695], [-75.0541, 39.88243], [-75.04911, 39.88566], [-75.046503, 39.883522], [-75.045958, 39.883075], [-75.04594, 39.88306], [-75.046993, 39.881125], [-75.04897, 39.87749], [-75.04954, 39.87649], [-75.04992, 39.87585], [-75.05087, 39.87618], [-75.05229, 39.87618], [-75.052482, 39.876369], [-75.05614, 39.87997], [-75.05771, 39.87902], [-75.05671, 39.87785], [-75.0569, 39.87742], [-75.05833, 39.87654], [-75.05985, 39.87592], [-75.05833, 39.87439], [-75.05904, 39.87424], [-75.06047, 39.87373], [-75.06213, 39.87329], [-75.06375, 39.87366], [-75.06641, 39.87369], [-75.06834, 39.87363], [-75.0686, 39.87321], [-75.06867, 39.87197], [-75.06849, 39.87165], [-75.06992, 39.8711], [-75.070162, 39.870848], [-75.07158, 39.86937], [-75.07268, 39.86907], [-75.073289, 39.869333], [-75.07333, 39.86935]]]}}, {"type": "Feature", "properties": {"area_id": 6191, "city": "Camden", "state": "NJ", "city_survey": true, "cat": "Still Desirable", "grade": "B", "label": "B2", "res": true, "com": false, "ind": false, "holc_grade": "B"}, "geometry": {"type": "Polygon", "coordinates": [[[-75.073564, 39.949851], [-75.07512, 39.94977], [-75.07624, 39.94977], [-75.07673, 39.94978], [-75.07813, 39.94964], [-75.07923, 39.94971], [-75.08039, 39.94985], [-75.07896, 39.95057], [-75.08042, 39.95212], [-75.08073, 39.952], [-75.08322, 39.95463], [-75.07886, 39.95691], [-75.07738, 39.9549], [-75.07521, 39.95603], [-75.07386, 39.95451], [-75.07221, 39.95296], [-75.07472, 39.95159], [-75.074316, 39.951133], [-75.0732, 39.94987], [-75.073564, 39.949851]]]}}, {"type": "Feature", "properties": {"area_id": 6194, "city": "Camden", "state": "NJ", "city_survey": true, "cat": "Still Desirable", "grade": "B", "label": "B3", "res": true, "com": false, "ind": false, "holc_grade": "B"}, "geometry": {"type": "Polygon", "coordinates": [[[-75.075283, 39.942362], [-75.0791, 39.94384], [-75.08099, 39.94315], [-75.08114, 39.94417], [-75.084488, 39.943561], [-75.08477, 39.94351], [-75.08677, 39.94605], [-75.08644, 39.946077], [-75.08545, 39.94616], [-75.0811, 39.94668], [-75.081259, 39.946951], [-75.08137, 39.94714], [-75.07954, 39.94743], [-75.07792, 39.94767], [-75.07628, 39.94767], [-75.076588, 39.949116], [-75.07673, 39.94978], [-75.07624, 39.94977], [-75.07512, 39.94977], [-75.073564, 39.949851], [-75.0732, 39.94987], [-75.06702, 39.95043], [-75.065309, 39.950627], [-75.06093, 39.95113], [-75.057218, 39.951405], [-75.05634, 39.95147], [-75.05604, 39.94963], [-75.05814, 39.9495], [-75.060796, 39.94633], [-75.0616, 39.94537], [-75.06268, 39.94425], [-75.063392, 39.943515], [-75.06477, 39.94209], [-75.0698, 39.94477], [-75.071062, 39.943568], [-75.07147, 39.94318], [-75.07301, 39.944], [-75.07507, 39.94228], [-75.075283, 39.942362]]]}}, {"type": "Feature", "properties": {"area_id": 6198, "city": "Camden", "state": "NJ", "city_survey": true, "cat": "Still Desirable", "grade": "B", "label": "B4", "res": true, "com": false, "ind": false, "holc_grade": "B"}, "geometry": {"type": "Polygon", "coordinates": [[[-75.03194, 39.93782], [-75.03244, 39.93589], [-75.03315, 39.93537], [-75.03443, 39.93386], [-75.03645, 39.93215], [-75.038, 39.93069], [-75.03904, 39.92969], [-75.04087, 39.92812], [-75.04185, 39.92878], [-75.04145, 39.93166], [-75.04636, 39.93505], [-75.04413, 39.9368], [-75.04411, 39.938], [-75.04392, 39.93975], [-75.0437, 39.94084], [-75.04316, 39.94221], [-75.04244, 39.94361], [-75.04202, 39.94449], [-75.03974, 39.9454], [-75.039604, 39.946015], [-75.03867, 39.95023], [-75.040553, 39.950904], [-75.04113, 39.95111], [-75.042334, 39.95194], [-75.04361, 39.95282], [-75.04388, 39.95311], [-75.043583, 39.953135], [-75.03865, 39.95355], [-75.03892, 39.95423], [-75.04031, 39.95612], [-75.04218, 39.95816], [-75.041323, 39.95857], [-75.04059, 39.95892], [-75.04123, 39.95975], [-75.03931, 39.96072], [-75.0375, 39.96172], [-75.035586, 39.962366], [-75.03291, 39.96327], [-75.02932, 39.95872], [-75.02683, 39.95524], [-75.02659, 39.95487], [-75.026917, 39.95279], [-75.02714, 39.95137], [-75.0273, 39.94784], [-75.02818, 39.94554], [-75.02856, 39.9445], [-75.02982, 39.93836], [-75.030032, 39.938306], [-75.03008, 39.938294], [-75.03194, 39.93782]]]}}, {"type": "Feature", "properties": {"area_id": 6197, "city": "Camden", "state": "NJ", "city_survey": true, "cat": "Still Desirable", "grade": "B", "label": "B5", "res": true, "com": false, "ind": false, "holc_grade": "B"}, "geometry": {"type": "Polygon", "coordinates": [[[-75.061082, 39.931966], [-75.06203, 39.93102], [-75.06381, 39.93189], [-75.05661, 39.94004], [-75.05475, 39.93996], [-75.05019, 39.94466], [-75.04998, 39.94438], [-75.049752, 39.944238], [-75.04916, 39.94387], [-75.053066, 39.93997], [-75.054014, 39.939023], [-75.061082, 39.931966]]]}}, {"type": "Feature", "properties": {"area_id": 6186, "city": "Camden", "state": "NJ", "city_survey": true, "cat": "Still Desirable", "grade": "B", "label": "B6", "res": true, "com": false, "ind": false, "holc_grade": "B"}, "geometry": {"type": "Polygon", "coordinates": [[[-75.10137, 39.93666], [-75.10016, 39.93637], [-75.09957, 39.93584], [-75.09897, 39.93513], [-75.09821, 39.93475], [-75.09781, 39.9344], [-75.09731, 39.93389], [-75.09688, 39.93327], [-75.09617, 39.93209], [-75.09443, 39.9311], [-75.09717, 39.92884], [-75.09847, 39.92959], [-75.10515, 39.9342], [-75.10339, 39.93553], [-75.1024, 39.9367], [-75.10137, 39.93666]]]}}, {"type": "Feature", "properties": {"area_id": 6175, "city": "Camden", "state": "NJ", "city_survey": true, "cat": "Still Desirable", "grade": "B", "label": "B7", "res": true, "com": false, "ind": false, "holc_grade": "B"}, "geometry": {"type": "Polygon", "coordinates": [[[-75.070947, 39.907046], [-75.07086, 39.90738], [-75.07047, 39.90815], [-75.07187, 39.91059], [-75.07317, 39.91055], [-75.07484, 39.91285], [-75.07912, 39.91155], [-75.07989, 39.91267], [-75.07303, 39.91481], [-75.07216, 39.91522], [-75.08063, 39.91798], [-75.08199, 39.91842], [-75.08208, 39.91892], [-75.081999, 39.919168], [-75.0819, 39.91947], [-75.08752, 39.92104], [-75.089543, 39.922008], [-75.08986, 39.92216], [-75.088493, 39.922848], [-75.08577, 39.92422], [-75.084162, 39.9246], [-75.08319, 39.92483], [-75.07915, 39.9236], [-75.078459, 39.924727], [-75.0782, 39.92515], [-75.07615, 39.92527], [-75.076116, 39.925265], [-75.07484, 39.92506], [-75.07237, 39.92422], [-75.069164, 39.923316], [-75.06801, 39.92299], [-75.065514, 39.9238], [-75.064426, 39.924153], [-75.06379, 39.92436], [-75.06375, 39.92431], [-75.06263, 39.92283], [-75.06147, 39.92096], [-75.06126, 39.92046], [-75.06052, 39.91964], [-75.059891, 39.918697], [-75.05989, 39.918696], [-75.057872, 39.915672], [-75.057826, 39.915603], [-75.057446, 39.915034], [-75.057121, 39.914546], [-75.05657, 39.91372], [-75.056638, 39.913602], [-75.05676, 39.91339], [-75.05678, 39.9134], [-75.0585, 39.91399], [-75.06013, 39.91433], [-75.06278, 39.91504], [-75.0661, 39.91624], [-75.072438, 39.917994], [-75.07329, 39.91823], [-75.07389, 39.91757], [-75.072607, 39.917202], [-75.06726, 39.91567], [-75.06337, 39.91415], [-75.06019, 39.91321], [-75.05865, 39.91283], [-75.057386, 39.912456], [-75.05733, 39.91244], [-75.05737, 39.91237], [-75.057729, 39.911767], [-75.057862, 39.911544], [-75.05904, 39.90957], [-75.05909, 39.90949], [-75.059166, 39.909363], [-75.06082, 39.9066], [-75.06165, 39.90547], [-75.06423, 39.90629], [-75.06497, 39.9066], [-75.06438, 39.90795], [-75.067335, 39.90879], [-75.06765, 39.90888], [-75.06812, 39.90779], [-75.06857, 39.90581], [-75.06899, 39.90585], [-75.06982, 39.90567], [-75.070596, 39.9053], [-75.07068, 39.90526], [-75.07118, 39.90535], [-75.07121, 39.90604], [-75.071104, 39.906445], [-75.070947, 39.907046]]]}}, {"type": "Feature", "properties": {"area_id": 6183, "city": "Camden", "state": "NJ", "city_survey": true, "cat": "Still Desirable", "grade": "B", "label": "B8", "res": true, "com": false, "ind": false, "holc_grade": "B"}, "geometry": {"type": "Polygon", "coordinates": [[[-75.10984, 39.91366], [-75.11038, 39.91276], [-75.111, 39.91238], [-75.11283, 39.91244], [-75.11288, 39.91295], [-75.1153, 39.91295], [-75.115252, 39.91697], [-75.11525, 39.91718], [-75.10896, 39.91727], [-75.108952, 39.916874], [-75.10891, 39.91486], [-75.10984, 39.91366]]]}}, {"type": "Feature", "properties": {"area_id": 6172, "city": "Camden", "state": "NJ", "city_survey": true, "cat": "Still Desirable", "grade": "B", "label": "B9", "res": true, "com": false, "ind": false, "holc_grade": "B"}, "geometry": {"type": "Polygon", "coordinates": [[[-75.09215, 39.90942], [-75.09275, 39.91072], [-75.09156, 39.91106], [-75.09254, 39.91286], [-75.08983, 39.91366], [-75.08885, 39.91411], [-75.089, 39.9148], [-75.08963, 39.91669], [-75.0901, 39.91732], [-75.09049, 39.91874], [-75.09013, 39.9202], [-75.09028, 39.92108], [-75.09066, 39.921426], [-75.09084, 39.92159], [-75.08986, 39.92216], [-75.089543, 39.922008], [-75.08752, 39.92104], [-75.0819, 39.91947], [-75.081999, 39.919168], [-75.08208, 39.91892], [-75.08199, 39.91842], [-75.08175, 39.91714], [-75.08339, 39.91773], [-75.08273, 39.91423], [-75.08517, 39.91341], [-75.084387, 39.912186], [-75.08375, 39.91119], [-75.08267, 39.90953], [-75.08856, 39.90732], [-75.09043, 39.9063], [-75.09209, 39.90554], [-75.09144, 39.90422], [-75.09539, 39.90281], [-75.09572, 39.90356], [-75.095947, 39.904046], [-75.09762, 39.90762], [-75.096789, 39.907893], [-75.09215, 39.90942]]]}}, {"type": "Feature", "properties": {"area_id": 6200, "city": "Camden", "state": "NJ", "city_survey": true, "cat": "Definitely Declining", "grade": "C", "label": "C1", "res": true, "com": false, "ind": false, "holc_grade": "C"}, "geometry": {"type": "Polygon", "coordinates": [[[-75.05504, 39.9728], [-75.056091, 39.973943], [-75.05618, 39.97404], [-75.05872, 39.97628], [-75.06122, 39.97821], [-75.06362, 39.97991], [-75.05941, 39.98231], [-75.05715, 39.98173], [-75.05109, 39.98586], [-75.0419, 39.98397], [-75.04228, 39.98357], [-75.04147, 39.98322], [-75.04365, 39.98184], [-75.0442, 39.98024], [-75.04639, 39.98065], [-75.04682, 39.98014], [-75.04796, 39.9771], [-75.04919, 39.97634], [-75.05219, 39.97463], [-75.054616, 39.972985], [-75.0548, 39.97286], [-75.05504, 39.9728]]]}}, {"type": "Feature", "properties": {"area_id": 6181, "city": "Camden", "state": "NJ", "city_survey": true, "cat": "Definitely Declining", "grade": "C", "label": "C10", "res": true, "com": false, "ind": false, "holc_grade": "C"}, "geometry": {"type": "Polygon", "coordinates": [[[-75.077931, 39.881705], [-75.0782, 39.88255], [-75.07896, 39.88379], [-75.080679, 39.885652], [-75.08172, 39.88678], [-75.07906, 39.88824], [-75.08029, 39.89039], [-75.08186, 39.89313], [-75.07967, 39.89313], [-75.07544, 39.89452], [-75.07326, 39.89568], [-75.074018, 39.896552], [-75.07459, 39.89721], [-75.0753, 39.89743], [-75.07739, 39.89645], [-75.07772, 39.89681], [-75.07896, 39.89648], [-75.08191, 39.89721], [-75.08196, 39.89765], [-75.08447, 39.89889], [-75.0859, 39.89958], [-75.0868, 39.9001], [-75.08733, 39.89962], [-75.08799, 39.90002], [-75.09237, 39.9017], [-75.0918, 39.90192], [-75.0907, 39.90221], [-75.08966, 39.90316], [-75.0888, 39.90334], [-75.0869, 39.90225], [-75.08623, 39.90185], [-75.08524, 39.90312], [-75.08585, 39.90371], [-75.08676, 39.90425], [-75.0869, 39.9048], [-75.086284, 39.905015], [-75.08409, 39.90578], [-75.08295, 39.90629], [-75.08043, 39.90688], [-75.07753, 39.90812], [-75.07535, 39.90848], [-75.07402, 39.90808], [-75.0725, 39.90713], [-75.07188, 39.90629], [-75.071835, 39.906073], [-75.07169, 39.90538], [-75.07174, 39.90502], [-75.07283, 39.90454], [-75.06947, 39.89994], [-75.07064, 39.89948], [-75.07297, 39.89868], [-75.077189, 39.903452], [-75.07725, 39.90352], [-75.07813, 39.9031], [-75.07526, 39.89996], [-75.07373, 39.8982], [-75.073325, 39.898373], [-75.07317, 39.89844], [-75.07056, 39.89581], [-75.071986, 39.894834], [-75.07392, 39.89351], [-75.07613, 39.89268], [-75.07545, 39.89165], [-75.07398, 39.89216], [-75.07246, 39.89294], [-75.070986, 39.8939], [-75.07031, 39.89434], [-75.07012, 39.89398], [-75.06489, 39.88869], [-75.06289, 39.88683], [-75.063281, 39.886706], [-75.06784, 39.88526], [-75.07364, 39.88318], [-75.072591, 39.882038], [-75.0724, 39.88183], [-75.07397, 39.88135], [-75.07791, 39.88164], [-75.077931, 39.881705]]]}}, {"type": "Feature", "properties": {"area_id": 6166, "city": "Camden", "state": "NJ", "city_survey": true, "cat": "Definitely Declining", "grade": "C", "label": "C11", "res": true, "com": false, "ind": false, "holc_grade": "C"}, "geometry": {"type": "Polygon", "coordinates": [[[-75.11671, 39.875445], [-75.11602, 39.87579], [-75.116584, 39.876611], [-75.1167, 39.87678], [-75.11252, 39.8775], [-75.11117, 39.87773], [-75.110875, 39.877553], [-75.11017, 39.87713], [-75.10828, 39.87617], [-75.10871, 39.87587], [-75.10825, 39.87549], [-75.11007, 39.87453], [-75.11106, 39.87513], [-75.11167, 39.87527], [-75.1122, 39.87511], [-75.11335, 39.87434], [-75.11463, 39.87388], [-75.11712, 39.87292], [-75.118358, 39.874011], [-75.1188, 39.8744], [-75.11671, 39.875445]]]}}, {"type": "Feature", "properties": {"area_id": 6164, "city": "Camden", "state": "NJ", "city_survey": true, "cat": "Definitely Declining", "grade": "C", "label": "C12", "res": true, "com": false, "ind": false, "holc_grade": "C"}, "geometry": {"type": "Polygon", "coordinates": [[[-75.06439, 39.86162], [-75.06478, 39.86253], [-75.06605, 39.86631], [-75.06849, 39.86563], [-75.06929, 39.86673], [-75.07039, 39.86834], [-75.07407, 39.8672], [-75.07776, 39.86654], [-75.07767, 39.86581], [-75.0766, 39.86308], [-75.08082, 39.86221], [-75.08141, 39.86333], [-75.08168, 39.863312], [-75.08683, 39.86296], [-75.08721, 39.86645], [-75.08623, 39.86636], [-75.0856, 39.86625], [-75.08459, 39.86629], [-75.083621, 39.866207], [-75.08331, 39.86618], [-75.08432, 39.86821], [-75.08174, 39.86898], [-75.0804, 39.86928], [-75.08138, 39.87081], [-75.08212, 39.872403], [-75.0823, 39.87279], [-75.0802, 39.87343], [-75.07868, 39.87386], [-75.07743, 39.87402], [-75.07645, 39.87375], [-75.07621, 39.87331], [-75.07532, 39.87092], [-75.07485, 39.87015], [-75.07413, 39.86962], [-75.07333, 39.86935], [-75.073289, 39.869333], [-75.07268, 39.86907], [-75.07158, 39.86937], [-75.070162, 39.870848], [-75.06992, 39.8711], [-75.06849, 39.87165], [-75.068424, 39.871684], [-75.06769, 39.87206], [-75.067668, 39.872064], [-75.06697, 39.8722], [-75.066501, 39.872402], [-75.06602, 39.87261], [-75.065987, 39.87255], [-75.0654, 39.87149], [-75.06543, 39.87122], [-75.063126, 39.86732], [-75.062812, 39.866788], [-75.061821, 39.865111], [-75.06136, 39.86433], [-75.060701, 39.863553], [-75.06041, 39.86321], [-75.06121, 39.86228], [-75.061848, 39.862148], [-75.06439, 39.86162]]]}}, {"type": "Feature", "properties": {"area_id": 6180, "city": "Camden", "state": "NJ", "city_survey": true, "cat": "Definitely Declining", "grade": "C", "label": "C13", "res": true, "com": false, "ind": false, "holc_grade": "C"}, "geometry": {"type": "Polygon", "coordinates": [[[-75.04469, 39.87], [-75.046603, 39.869887], [-75.04707, 39.86986], [-75.04455, 39.86672], [-75.04997, 39.86661], [-75.05325, 39.86741], [-75.053664, 39.867539], [-75.05572, 39.86818], [-75.05525, 39.86946], [-75.0571, 39.86986], [-75.05986, 39.87099], [-75.06038, 39.87139], [-75.06076, 39.87267], [-75.060627, 39.873157], [-75.06047, 39.87373], [-75.05904, 39.87424], [-75.05833, 39.87439], [-75.058198, 39.874404], [-75.05727, 39.8745], [-75.05592, 39.87477], [-75.05466, 39.87513], [-75.053682, 39.875563], [-75.052308, 39.876172], [-75.05229, 39.87618], [-75.05087, 39.87618], [-75.04992, 39.87585], [-75.04954, 39.87649], [-75.049207, 39.876155], [-75.04821, 39.87515], [-75.044972, 39.872118], [-75.04365, 39.87088], [-75.04374, 39.87022], [-75.04469, 39.87]]]}}, {"type": "Feature", "properties": {"area_id": 6188, "city": "Camden", "state": "NJ", "city_survey": true, "cat": "Definitely Declining", "grade": "C", "label": "C2", "res": true, "com": false, "ind": false, "holc_grade": "C"}, "geometry": {"type": "Polygon", "coordinates": [[[-75.09513, 39.9523], [-75.09691, 39.95069], [-75.09829, 39.9514], [-75.09964, 39.94995], [-75.10366, 39.95222], [-75.10019, 39.9555], [-75.09677, 39.95927], [-75.097186, 39.959927], [-75.09727, 39.96006], [-75.09396, 39.96144], [-75.09123, 39.96199], [-75.08828, 39.96343], [-75.08505, 39.96523], [-75.084477, 39.964734], [-75.08446, 39.96472], [-75.08049, 39.95927], [-75.080552, 39.95923], [-75.08265, 39.95787], [-75.08522, 39.95583], [-75.085404, 39.95573], [-75.08707, 39.95483], [-75.08845, 39.95425], [-75.08902, 39.95403], [-75.08864, 39.95339], [-75.091032, 39.951919], [-75.09116, 39.95184], [-75.09315, 39.95423], [-75.09513, 39.9523]]]}}, {"type": "Feature", "properties": {"area_id": 6192, "city": "Camden", "state": "NJ", "city_survey": true, "cat": "Definitely Declining", "grade": "C", "label": "C3", "res": true, "com": false, "ind": false, "holc_grade": "C"}, "geometry": {"type": "Polygon", "coordinates": [[[-75.07386, 39.95451], [-75.07521, 39.95603], [-75.07375, 39.956756], [-75.07338, 39.95694], [-75.07537, 39.95945], [-75.07409, 39.96015], [-75.07246, 39.95797], [-75.070265, 39.955545], [-75.0694, 39.95459], [-75.06699, 39.95596], [-75.06485, 39.95733], [-75.0637, 39.95787], [-75.06081, 39.95938], [-75.061883, 39.960842], [-75.06465, 39.96461], [-75.06248, 39.96539], [-75.06096, 39.96596], [-75.05957, 39.9666], [-75.05885, 39.96612], [-75.05805, 39.96559], [-75.05627, 39.96464], [-75.05422, 39.9658], [-75.05178, 39.96707], [-75.05021, 39.96778], [-75.048216, 39.965352], [-75.04548, 39.96202], [-75.04287, 39.9589], [-75.04218, 39.95816], [-75.04031, 39.95612], [-75.03892, 39.95423], [-75.03865, 39.95355], [-75.043583, 39.953135], [-75.04388, 39.95311], [-75.04361, 39.95282], [-75.04848, 39.95227], [-75.05419, 39.95163], [-75.05634, 39.95147], [-75.057218, 39.951405], [-75.06093, 39.95113], [-75.065309, 39.950627], [-75.06702, 39.95043], [-75.0732, 39.94987], [-75.074316, 39.951133], [-75.07472, 39.95159], [-75.07221, 39.95296], [-75.07386, 39.95451]]]}}, {"type": "Feature", "properties": {"area_id": 6187, "city": "Camden", "state": "NJ", "city_survey": true, "cat": "Definitely Declining", "grade": "C", "label": "C4", "res": true, "com": false, "ind": false, "holc_grade": "C"}, "geometry": {"type": "MultiPolygon", "coordinates": [[[[-75.118716, 39.936541], [-75.11865, 39.94173], [-75.11856, 39.94415], [-75.11718, 39.94291], [-75.11597, 39.94174], [-75.11602, 39.93897], [-75.11766, 39.93903], [-75.117726, 39.936606], [-75.11787, 39.93136], [-75.11877, 39.93223], [-75.118716, 39.936541]]], [[[-75.12186, 39.93108], [-75.12222, 39.93624], [-75.122471, 39.93626], [-75.12272, 39.93628], [-75.12272, 39.93712], [-75.12174, 39.93724], [-75.12193, 39.94224], [-75.12193, 39.94255], [-75.12174, 39.9442], [-75.12015, 39.94417], [-75.120322, 39.936418], [-75.12036, 39.93473], [-75.12051, 39.93117], [-75.12186, 39.93108]]]]}}, {"type": "Feature", "properties": {"area_id": 6185, "city": "Camden", "state": "NJ", "city_survey": true, "cat": "Definitely Declining", "grade": "C", "label": "C5", "res": true, "com": false, "ind": false, "holc_grade": "C"}, "geometry": {"type": "MultiPolygon", "coordinates": [[[[-75.10023, 39.92844], [-75.10066, 39.92793], [-75.10133, 39.92788], [-75.10166, 39.92777], [-75.10168, 39.92523], [-75.10145, 39.92494], [-75.10135, 39.92372], [-75.10104, 39.92285], [-75.10121, 39.92159], [-75.10149, 39.92146], [-75.1029, 39.92113], [-75.107082, 39.929603], [-75.10793, 39.93132], [-75.10287, 39.93161], [-75.100676, 39.930091], [-75.09871, 39.92873], [-75.09983, 39.9286], [-75.10023, 39.92844]]], [[[-75.10691, 39.9354], [-75.104338, 39.937588], [-75.10416, 39.93774], [-75.103951, 39.937617], [-75.1024, 39.9367], [-75.10339, 39.93553], [-75.10515, 39.9342], [-75.10691, 39.9354]]], [[[-75.10382, 39.9322], [-75.10779, 39.93203], [-75.10786, 39.93358], [-75.10736, 39.93376], [-75.10727, 39.93438], [-75.10382, 39.9322]]], [[[-75.10941, 39.92603], [-75.1115, 39.92594], [-75.11155, 39.92655], [-75.111735, 39.929255], [-75.11186, 39.93108], [-75.10919, 39.93121], [-75.108331, 39.9295], [-75.10565, 39.92416], [-75.10703, 39.92363], [-75.1091, 39.92361], [-75.10941, 39.92603]]]]}}, {"type": "Feature", "properties": {"area_id": 6190, "city": "Camden", "state": "NJ", "city_survey": true, "cat": "Definitely Declining", "grade": "C", "label": "C6", "res": true, "com": false, "ind": false, "holc_grade": "C"}, "geometry": {"type": "MultiPolygon", "coordinates": [[[[-75.08217, 39.93465], [-75.07985, 39.93736], [-75.08384, 39.93859], [-75.085054, 39.939109], [-75.0862, 39.9396], [-75.08809, 39.94072], [-75.09126, 39.94239], [-75.0898, 39.94422], [-75.09215, 39.94545], [-75.08876, 39.94589], [-75.08677, 39.94605], [-75.08477, 39.94351], [-75.084488, 39.943561], [-75.08114, 39.94417], [-75.08099, 39.94315], [-75.0791, 39.94384], [-75.075283, 39.942362], [-75.07507, 39.94228], [-75.07301, 39.944], [-75.07147, 39.94318], [-75.07347, 39.94075], [-75.07654, 39.9375], [-75.078, 39.93616], [-75.079141, 39.935491], [-75.08131, 39.93422], [-75.081651, 39.934391], [-75.08217, 39.93465]]], [[[-75.08137, 39.94714], [-75.08179, 39.94758], [-75.08719, 39.94688], [-75.08838, 39.94858], [-75.08598, 39.94973], [-75.08538, 39.94993], [-75.08358, 39.95009], [-75.08205, 39.95042], [-75.081852, 39.950384], [-75.08144, 39.95031], [-75.08039, 39.94985], [-75.07923, 39.94971], [-75.07813, 39.94964], [-75.07673, 39.94978], [-75.076588, 39.949116], [-75.07628, 39.94767], [-75.07792, 39.94767], [-75.07954, 39.94743], [-75.08137, 39.94714]]]]}}, {"type": "Feature", "properties": {"area_id": 6173, "city": "Camden", "state": "NJ", "city_survey": true, "cat": "Definitely Declining", "grade": "C", "label": "C7", "res": true, "com": false, "ind": false, "holc_grade": "C"}, "geometry": {"type": "Polygon", "coordinates": [[[-75.09028, 39.92108], [-75.09013, 39.9202], [-75.09049, 39.91874], [-75.0901, 39.91732], [-75.08963, 39.91669], [-75.089, 39.9148], [-75.08885, 39.91411], [-75.08983, 39.91366], [-75.09254, 39.91286], [-75.09515, 39.91327], [-75.09579, 39.913381], [-75.09774, 39.91372], [-75.097747, 39.91375], [-75.09824, 39.91582], [-75.09919, 39.91593], [-75.10005, 39.91575], [-75.10029, 39.916], [-75.10032, 39.91669], [-75.10026, 39.91721], [-75.10044, 39.91739], [-75.101536, 39.917004], [-75.10166, 39.91696], [-75.10222, 39.91814], [-75.102005, 39.918201], [-75.09765, 39.91944], [-75.09156, 39.92102], [-75.09084, 39.92159], [-75.09066, 39.921426], [-75.09028, 39.92108]]]}}, {"type": "Feature", "properties": {"area_id": 6169, "city": "Camden", "state": "NJ", "city_survey": true, "cat": "Definitely Declining", "grade": "C", "label": "C8", "res": true, "com": false, "ind": false, "holc_grade": "C"}, "geometry": {"type": "Polygon", "coordinates": [[[-75.11645, 39.89], [-75.11847, 39.88779], [-75.11758, 39.88653], [-75.11862, 39.88592], [-75.119599, 39.885635], [-75.11972, 39.8856], [-75.12055, 39.88548], [-75.12055, 39.88938], [-75.11987, 39.89684], [-75.11951, 39.90133], [-75.11972, 39.90162], [-75.12029, 39.9016], [-75.1207, 39.90151], [-75.12133, 39.9021], [-75.12168, 39.90247], [-75.12174, 39.90297], [-75.12079, 39.90381], [-75.11803, 39.9037], [-75.11812, 39.90124], [-75.11803, 39.90094], [-75.11853, 39.89697], [-75.11491, 39.8969], [-75.11485, 39.89551], [-75.11488, 39.89431], [-75.114784, 39.894057], [-75.11437, 39.89296], [-75.1136, 39.89121], [-75.1125, 39.88952], [-75.11259, 39.88845], [-75.112792, 39.888262], [-75.11289, 39.88817], [-75.11645, 39.89]]]}}, {"type": "Feature", "properties": {"area_id": 6165, "city": "Camden", "state": "NJ", "city_survey": true, "cat": "Definitely Declining", "grade": "C", "label": "C9", "res": true, "com": false, "ind": false, "holc_grade": "C"}, "geometry": {"type": "MultiPolygon", "coordinates": [[[[-75.09912, 39.87853], [-75.09862, 39.87924], [-75.09452, 39.87987], [-75.09861, 39.881711], [-75.10023, 39.88244], [-75.100329, 39.882227], [-75.10065, 39.88154], [-75.10236, 39.87916], [-75.102523, 39.879058], [-75.10276, 39.87891], [-75.10343, 39.87886], [-75.10393, 39.87907], [-75.10771, 39.87998], [-75.10654, 39.88228], [-75.10515, 39.88468], [-75.10197, 39.88348], [-75.10083, 39.88827], [-75.09748, 39.88657], [-75.09748, 39.886865], [-75.09748, 39.886983], [-75.09748, 39.88751], [-75.09748, 39.890747], [-75.09748, 39.89122], [-75.097729, 39.891348], [-75.09876, 39.89188], [-75.099973, 39.892195], [-75.10076, 39.8924], [-75.10269, 39.89262], [-75.10271, 39.89352], [-75.103277, 39.893577], [-75.11007, 39.89426], [-75.11028, 39.89765], [-75.10625, 39.89735], [-75.10614, 39.89888], [-75.10212, 39.89855], [-75.10215, 39.89691], [-75.101411, 39.896883], [-75.10133, 39.89688], [-75.10008, 39.89858], [-75.09891, 39.89915], [-75.09709, 39.89959], [-75.09552, 39.89989], [-75.09427, 39.90033], [-75.090208, 39.891057], [-75.089346, 39.88909], [-75.08914, 39.88862], [-75.08661, 39.88769], [-75.085327, 39.886954], [-75.08532, 39.88695], [-75.0835, 39.88575], [-75.08286, 39.8849], [-75.082434, 39.884449], [-75.081199, 39.883143], [-75.08097, 39.8829], [-75.080698, 39.882751], [-75.078851, 39.881738], [-75.07869, 39.88165], [-75.08158, 39.88153], [-75.082004, 39.88153], [-75.08222, 39.88153], [-75.082324, 39.880744], [-75.08234, 39.88062], [-75.083739, 39.880465], [-75.0855, 39.88027], [-75.085425, 39.880086], [-75.084556, 39.877965], [-75.08396, 39.87651], [-75.08282, 39.87372], [-75.082368, 39.872911], [-75.0823, 39.87279], [-75.082313, 39.872786], [-75.08318, 39.87251], [-75.083815, 39.872245], [-75.0848, 39.871834], [-75.08529, 39.87163], [-75.08632, 39.87144], [-75.08775, 39.87174], [-75.09121, 39.87303], [-75.09338, 39.87404], [-75.094301, 39.874535], [-75.09541, 39.87513], [-75.096267, 39.875331], [-75.09673, 39.87544], [-75.10026, 39.87604], [-75.100191, 39.876218], [-75.0999, 39.87697], [-75.09912, 39.87853]]], [[[-75.106, 39.89067], [-75.10436, 39.89029], [-75.10443, 39.88994], [-75.10761, 39.88589], [-75.110289, 39.887031], [-75.11146, 39.88753], [-75.111437, 39.887603], [-75.11081, 39.88961], [-75.1106, 39.89119], [-75.106, 39.89067]]]]}}, {"type": "Feature", "properties": {"area_id": 6199, "city": "Camden", "state": "NJ", "city_survey": true, "cat": "Hazardous", "grade": "D", "label": "D1", "res": true, "com": false, "ind": false, "holc_grade": "D"}, "geometry": {"type": "Polygon", "coordinates": [[[-75.0548, 39.97286], [-75.054616, 39.972985], [-75.05219, 39.97463], [-75.04919, 39.97634], [-75.04789, 39.97519], [-75.04499, 39.97335], [-75.0491, 39.97056], [-75.050497, 39.969521], [-75.05117, 39.96902], [-75.0548, 39.97286]]]}}, {"type": "Feature", "properties": {"area_id": 6189, "city": "Camden", "state": "NJ", "city_survey": true, "cat": "Hazardous", "grade": "D", "label": "D2", "res": true, "com": false, "ind": false, "holc_grade": "D"}, "geometry": {"type": "Polygon", "coordinates": [[[-75.08358, 39.95009], [-75.08538, 39.94993], [-75.08598, 39.94973], [-75.08838, 39.94858], [-75.08719, 39.94688], [-75.08885, 39.94674], [-75.09056, 39.94663], [-75.09339, 39.94623], [-75.09539, 39.94723], [-75.09415, 39.94774], [-75.09192, 39.94867], [-75.08954, 39.94964], [-75.09047, 39.95113], [-75.089774, 39.951664], [-75.08909, 39.95219], [-75.08543, 39.95354], [-75.08436, 39.95219], [-75.08384, 39.95242], [-75.082148, 39.950529], [-75.08205, 39.95042], [-75.08358, 39.95009]]]}}, {"type": "Feature", "properties": {"area_id": 6184, "city": "Camden", "state": "NJ", "city_survey": true, "cat": "Hazardous", "grade": "D", "label": "D3", "res": true, "com": false, "ind": false, "holc_grade": "D"}, "geometry": {"type": "MultiPolygon", "coordinates": [[[[-75.11937, 39.92514], [-75.11692, 39.92516], [-75.11692, 39.92359], [-75.11672, 39.923597], [-75.1125, 39.92374], [-75.11278, 39.92645], [-75.11155, 39.92655], [-75.1115, 39.92594], [-75.10941, 39.92603], [-75.1091, 39.92361], [-75.10703, 39.92363], [-75.107047, 39.923389], [-75.10708, 39.92292], [-75.10724, 39.92007], [-75.10803, 39.91936], [-75.10801, 39.91836], [-75.11081, 39.91825], [-75.11169, 39.9184], [-75.11155, 39.92027], [-75.11476, 39.9211], [-75.11516, 39.92091], [-75.116932, 39.920845], [-75.11708, 39.92084], [-75.11713, 39.91976], [-75.11951, 39.91971], [-75.11953, 39.92412], [-75.11937, 39.92514]]], [[[-75.117726, 39.936606], [-75.11766, 39.93903], [-75.11602, 39.93897], [-75.11597, 39.94174], [-75.112222, 39.938403], [-75.11205, 39.93825], [-75.11062, 39.93743], [-75.1105, 39.93717], [-75.107357, 39.935114], [-75.10732, 39.93509], [-75.107315, 39.935016], [-75.10727, 39.93438], [-75.10736, 39.93376], [-75.10786, 39.93358], [-75.10779, 39.93203], [-75.112448, 39.93172], [-75.11787, 39.93136], [-75.117726, 39.936606]]], [[[-75.11805, 39.94639], [-75.11774, 39.9473], [-75.11898, 39.94754], [-75.11926, 39.94663], [-75.119577, 39.94665], [-75.12036, 39.9467], [-75.123421, 39.947367], [-75.12623, 39.94798], [-75.125106, 39.951316], [-75.12501, 39.9516], [-75.12661, 39.95195], [-75.12616, 39.95341], [-75.12459, 39.9533], [-75.12425, 39.95417], [-75.12525, 39.95436], [-75.12677, 39.95452], [-75.12663, 39.9557], [-75.12618, 39.95585], [-75.12578, 39.9568], [-75.119343, 39.955503], [-75.11213, 39.95405], [-75.11247, 39.95308], [-75.11361, 39.95333], [-75.11406, 39.95224], [-75.11175, 39.95164], [-75.11232, 39.9502], [-75.11273, 39.94865], [-75.11125, 39.94842], [-75.1114, 39.94765], [-75.11116, 39.94736], [-75.10923, 39.94639], [-75.10938, 39.9443], [-75.113627, 39.944219], [-75.11408, 39.94421], [-75.113782, 39.945068], [-75.11358, 39.94565], [-75.116576, 39.946146], [-75.11805, 39.94639]]], [[[-75.11887, 39.93061], [-75.11566, 39.93083], [-75.11561, 39.92901], [-75.11882, 39.92881], [-75.11887, 39.93061]]], [[[-75.12174, 39.92859], [-75.12179, 39.93039], [-75.12048, 39.93041], [-75.12036, 39.9287], [-75.12174, 39.92859]]], [[[-75.124461, 39.936088], [-75.12509, 39.93604], [-75.12457, 39.9309], [-75.12921, 39.93057], [-75.12845, 39.93546], [-75.12802, 39.93763], [-75.12688, 39.93766], [-75.12659, 39.93779], [-75.12619, 39.94076], [-75.12564, 39.94446], [-75.124334, 39.944373], [-75.12174, 39.9442], [-75.12193, 39.94255], [-75.12193, 39.94224], [-75.12174, 39.93724], [-75.12272, 39.93712], [-75.12272, 39.93628], [-75.123081, 39.936222], [-75.12341, 39.93617], [-75.12296, 39.93105], [-75.12367, 39.93099], [-75.12417, 39.93611], [-75.124461, 39.936088]]], [[[-75.12272, 39.9285], [-75.123541, 39.928444], [-75.12842, 39.92811], [-75.12902, 39.92973], [-75.123735, 39.930194], [-75.12298, 39.93026], [-75.12272, 39.9285]]]]}}, {"type": "Feature", "properties": {"area_id": 6196, "city": "Camden", "state": "NJ", "city_survey": true, "cat": "Hazardous", "grade": "D", "label": "D4", "res": true, "com": false, "ind": false, "holc_grade": "D"}, "geometry": {"type": "Polygon", "coordinates": [[[-75.04646, 39.94655], [-75.04916, 39.94387], [-75.049752, 39.944238], [-75.04998, 39.94438], [-75.05019, 39.94466], [-75.05272, 39.94594], [-75.051438, 39.947236], [-75.05083, 39.94785], [-75.04912, 39.94783], [-75.048555, 39.94751], [-75.047327, 39.946816], [-75.04684, 39.94654], [-75.04646, 39.94655]]]}}, {"type": "Feature", "properties": {"area_id": 6168, "city": "Camden", "state": "NJ", "city_survey": true, "cat": "Hazardous", "grade": "D", "label": "D5", "res": true, "com": false, "ind": false, "holc_grade": "D"}, "geometry": {"type": "Polygon", "coordinates": [[[-75.12168, 39.90247], [-75.12133, 39.9021], [-75.1207, 39.90151], [-75.12097, 39.89649], [-75.12192, 39.8853], [-75.12284, 39.88528], [-75.1226, 39.88774], [-75.12822, 39.89563], [-75.1254, 39.89841], [-75.12596, 39.89886], [-75.12252, 39.90326], [-75.12174, 39.90297], [-75.12168, 39.90247]]]}}, {"type": "Feature", "properties": {"area_id": 6163, "city": "Camden", "state": "NJ", "city_survey": true, "cat": "Hazardous", "grade": "D", "label": "D6", "res": true, "com": false, "ind": false, "holc_grade": "D"}, "geometry": {"type": "Polygon", "coordinates": [[[-75.09444, 39.86589], [-75.08964, 39.86634], [-75.08721, 39.86645], [-75.08683, 39.86296], [-75.0867, 39.86178], [-75.09022, 39.86151], [-75.09039, 39.86394], [-75.09292, 39.86392], [-75.09413, 39.86398], [-75.100906, 39.863619], [-75.10183, 39.86357], [-75.10191, 39.86553], [-75.1013, 39.865546], [-75.0989, 39.86561], [-75.09444, 39.86589]]]}}, {"type": "Feature", "properties": {"area_id": 11368, "city": "Camden", "state": "NJ", "city_survey": true, "cat": "Business", "grade": null, "label": "Business", "res": false, "com": true, "ind": false, "holc_grade": null}, "geometry": {"type": "MultiPolygon", "coordinates": [[[[-75.05524, 39.91189], [-75.05737, 39.91237], [-75.05733, 39.91244], [-75.057386, 39.912456], [-75.05865, 39.91283], [-75.06019, 39.91321], [-75.06337, 39.91415], [-75.06726, 39.91567], [-75.072607, 39.917202], [-75.07389, 39.91757], [-75.07329, 39.91823], [-75.072438, 39.917994], [-75.0661, 39.91624], [-75.06278, 39.91504], [-75.06013, 39.91433], [-75.0585, 39.91399], [-75.05678, 39.9134], [-75.05683, 39.91332], [-75.056538, 39.913251], [-75.05251, 39.9123], [-75.05016, 39.91144], [-75.04832, 39.91048], [-75.04609, 39.90895], [-75.046635, 39.908583], [-75.04713, 39.90825], [-75.04864, 39.90929], [-75.04965, 39.90996], [-75.05099, 39.91064], [-75.05271, 39.91116], [-75.05524, 39.91189]]], [[[-75.071986, 39.894834], [-75.07056, 39.89581], [-75.0696, 39.89485], [-75.07031, 39.89434], [-75.070986, 39.8939], [-75.07246, 39.89294], [-75.07398, 39.89216], [-75.07545, 39.89165], [-75.07613, 39.89268], [-75.07392, 39.89351], [-75.071986, 39.894834]]], [[[-75.07813, 39.9031], [-75.07725, 39.90352], [-75.077189, 39.903452], [-75.07535, 39.90138], [-75.07297, 39.89868], [-75.0733, 39.89857], [-75.073212, 39.898482], [-75.07317, 39.89844], [-75.073325, 39.898373], [-75.07373, 39.8982], [-75.07526, 39.89996], [-75.07583, 39.90059], [-75.07813, 39.9031]]], [[[-75.09056, 39.94663], [-75.08885, 39.94674], [-75.08719, 39.94688], [-75.08179, 39.94758], [-75.08137, 39.94714], [-75.081259, 39.946951], [-75.0811, 39.94668], [-75.08545, 39.94616], [-75.08644, 39.946077], [-75.08677, 39.94605], [-75.08876, 39.94589], [-75.09215, 39.94545], [-75.092492, 39.945665], [-75.09339, 39.94623], [-75.09056, 39.94663]]], [[[-75.10487, 39.92396], [-75.104882, 39.923963], [-75.10565, 39.92416], [-75.108331, 39.9295], [-75.10919, 39.93121], [-75.11186, 39.93108], [-75.11302, 39.93112], [-75.113047, 39.931117], [-75.11566, 39.93083], [-75.11887, 39.93061], [-75.11882, 39.92881], [-75.118833, 39.92872], [-75.11937, 39.92514], [-75.11953, 39.92412], [-75.11951, 39.91971], [-75.11936, 39.91706], [-75.12066, 39.91695], [-75.120362, 39.928626], [-75.12036, 39.9287], [-75.12048, 39.93041], [-75.12179, 39.93039], [-75.12174, 39.92859], [-75.12272, 39.9285], [-75.12298, 39.93026], [-75.123735, 39.930194], [-75.12902, 39.92973], [-75.12921, 39.93057], [-75.12457, 39.9309], [-75.12509, 39.93604], [-75.124461, 39.936088], [-75.12417, 39.93611], [-75.12367, 39.93099], [-75.12296, 39.93105], [-75.12341, 39.93617], [-75.123081, 39.936222], [-75.12272, 39.93628], [-75.122471, 39.93626], [-75.12222, 39.93624], [-75.12186, 39.93108], [-75.12051, 39.93117], [-75.12036, 39.93473], [-75.120322, 39.936418], [-75.12015, 39.94417], [-75.12174, 39.9442], [-75.124334, 39.944373], [-75.12564, 39.94446], [-75.12501, 39.94771], [-75.123421, 39.947365], [-75.12036, 39.9467], [-75.119577, 39.94665], [-75.11926, 39.94663], [-75.11898, 39.94754], [-75.11774, 39.9473], [-75.11805, 39.94639], [-75.116576, 39.946146], [-75.11358, 39.94565], [-75.113782, 39.945068], [-75.11408, 39.94421], [-75.11856, 39.94415], [-75.11865, 39.94173], [-75.118716, 39.936541], [-75.11877, 39.93223], [-75.11787, 39.93136], [-75.112448, 39.93172], [-75.10779, 39.93203], [-75.10382, 39.9322], [-75.10727, 39.93438], [-75.107315, 39.935016], [-75.10732, 39.93509], [-75.10691, 39.9354], [-75.10515, 39.9342], [-75.09847, 39.92959], [-75.09717, 39.92884], [-75.09743, 39.92844], [-75.097731, 39.928508], [-75.09871, 39.92873], [-75.100676, 39.930091], [-75.10287, 39.93161], [-75.10793, 39.93132], [-75.107082, 39.929603], [-75.1029, 39.92113], [-75.103311, 39.92087], [-75.10358, 39.9207], [-75.104819, 39.92383], [-75.10487, 39.92396]]], [[[-75.11972, 39.90162], [-75.11951, 39.90133], [-75.11987, 39.89684], [-75.12055, 39.88938], [-75.12055, 39.88548], [-75.12192, 39.8853], [-75.12097, 39.89649], [-75.1207, 39.90151], [-75.12029, 39.9016], [-75.11972, 39.90162]]]]}}, {"type": "Feature", "properties": {"area_id": 11429, "city": "Camden", "state": "NJ", "city_survey": true, "cat": "Industrial", "grade": null, "label": "Industrial", "res": false, "com": false, "ind": true, "holc_grade": null}, "geometry": {"type": "MultiPolygon", "coordinates": [[[[-75.09423, 39.96448], [-75.09238, 39.96444], [-75.08989, 39.96578], [-75.08669, 39.96609], [-75.08505, 39.96523], [-75.08828, 39.96343], [-75.09123, 39.96199], [-75.09396, 39.96144], [-75.09727, 39.96006], [-75.097186, 39.959927], [-75.09677, 39.95927], [-75.09908, 39.95672], [-75.10263, 39.95851], [-75.09928, 39.96061], [-75.098312, 39.961352], [-75.09423, 39.96448]]], [[[-75.10145, 39.92494], [-75.10168, 39.92523], [-75.10166, 39.92777], [-75.10133, 39.92788], [-75.10066, 39.92793], [-75.10023, 39.92844], [-75.09983, 39.9286], [-75.09871, 39.92873], [-75.097731, 39.928508], [-75.09743, 39.92844], [-75.09064, 39.92411], [-75.08805, 39.92307], [-75.088492, 39.922848], [-75.08986, 39.92216], [-75.09032, 39.92189], [-75.09513, 39.92457], [-75.09613, 39.92403], [-75.09798, 39.92507], [-75.10145, 39.92494]]], [[[-75.09788, 39.9415], [-75.09963, 39.94177], [-75.10377, 39.94284], [-75.10303, 39.94472], [-75.103272, 39.945302], [-75.10343, 39.94568], [-75.09923, 39.9466], [-75.09643, 39.94778], [-75.095857, 39.947477], [-75.09539, 39.94723], [-75.09339, 39.94623], [-75.092492, 39.945665], [-75.09215, 39.94545], [-75.0898, 39.94422], [-75.09126, 39.94239], [-75.09194, 39.94097], [-75.09473, 39.93959], [-75.09788, 39.9415]]], [[[-75.10166, 39.91696], [-75.101249, 39.915943], [-75.10111, 39.9156], [-75.104424, 39.916751], [-75.1052, 39.91702], [-75.10504, 39.91876], [-75.10222, 39.91814], [-75.10166, 39.91696]]], [[[-75.11597, 39.94174], [-75.11718, 39.94291], [-75.11856, 39.94415], [-75.11408, 39.94421], [-75.113627, 39.944219], [-75.10938, 39.9443], [-75.10682, 39.94426], [-75.106348, 39.943977], [-75.104701, 39.942989], [-75.10452, 39.94288], [-75.104899, 39.942445], [-75.10582, 39.94139], [-75.10707, 39.93989], [-75.10682, 39.93867], [-75.10562, 39.93832], [-75.10407, 39.93848], [-75.10416, 39.93774], [-75.104337, 39.937588], [-75.10465, 39.93732], [-75.10501, 39.937311], [-75.1105, 39.93717], [-75.11062, 39.93743], [-75.11205, 39.93825], [-75.112222, 39.938403], [-75.11597, 39.94174]]], [[[-75.12252, 39.90326], [-75.12596, 39.89886], [-75.1254, 39.89841], [-75.12822, 39.89563], [-75.1226, 39.88774], [-75.12284, 39.88528], [-75.12725, 39.88521], [-75.12895, 39.88655], [-75.13225, 39.8882], [-75.1349, 39.88882], [-75.1331, 39.89058], [-75.13045, 39.89039], [-75.13055, 39.89495], [-75.129, 39.89752], [-75.12681, 39.8997], [-75.12581, 39.90166], [-75.12616, 39.90273], [-75.12546, 39.90419], [-75.12516, 39.90622], [-75.124684, 39.907315], [-75.12346, 39.91013], [-75.12331, 39.91235], [-75.12441, 39.91407], [-75.12446, 39.91518], [-75.12581, 39.91534], [-75.131086, 39.927634], [-75.1326, 39.93116], [-75.13215, 39.93668], [-75.1317, 39.94694], [-75.13085, 39.95081], [-75.13039, 39.952219], [-75.1291, 39.95617], [-75.1272, 39.95613], [-75.12651, 39.95713], [-75.12256, 39.95805], [-75.11921, 39.95736], [-75.118758, 39.957329], [-75.11137, 39.95682], [-75.11087, 39.95636], [-75.11102, 39.95307], [-75.110467, 39.951937], [-75.11042, 39.95184], [-75.110436, 39.951838], [-75.11175, 39.95164], [-75.11406, 39.95224], [-75.11361, 39.95333], [-75.11247, 39.95308], [-75.11213, 39.95405], [-75.119343, 39.955503], [-75.12578, 39.9568], [-75.12618, 39.95585], [-75.12663, 39.9557], [-75.12677, 39.95452], [-75.12525, 39.95436], [-75.12425, 39.95417], [-75.12459, 39.9533], [-75.12616, 39.95341], [-75.12661, 39.95195], [-75.12501, 39.9516], [-75.125106, 39.951316], [-75.12623, 39.94798], [-75.12501, 39.94771], [-75.12564, 39.94446], [-75.12619, 39.94076], [-75.12659, 39.93779], [-75.12688, 39.93766], [-75.12802, 39.93763], [-75.12845, 39.93546], [-75.12921, 39.93057], [-75.12902, 39.92973], [-75.12842, 39.92811], [-75.123541, 39.928444], [-75.12272, 39.9285], [-75.12174, 39.92859], [-75.12036, 39.9287], [-75.120362, 39.928626], [-75.12066, 39.91695], [-75.11936, 39.91706], [-75.11951, 39.91971], [-75.11713, 39.91976], [-75.11708, 39.92084], [-75.116932, 39.920845], [-75.11516, 39.92091], [-75.11525, 39.91718], [-75.115252, 39.91697], [-75.1153, 39.91295], [-75.117551, 39.913064], [-75.11786, 39.91308], [-75.117822, 39.908569], [-75.11781, 39.90721], [-75.11956, 39.90499], [-75.12079, 39.90381], [-75.12174, 39.90297], [-75.12252, 39.90326]]], [[[-75.115051, 39.929052], [-75.11561, 39.92901], [-75.11566, 39.93083], [-75.113047, 39.931117], [-75.11302, 39.93112], [-75.11292, 39.92921], [-75.115051, 39.929052]]], [[[-75.11937, 39.92514], [-75.118833, 39.92872], [-75.11882, 39.92881], [-75.11656, 39.92895], [-75.116566, 39.928882], [-75.11692, 39.92516], [-75.11937, 39.92514]]]]}}]}