{"type": "FeatureCollection", "features": [{"type": "Feature", "properties": {"area_id": 10195, "city": "St. Albans", "state": "VT", "city_survey": false, "cat": "Trading", "grade": "", "label": "Trading", "res": false, "com": true, "ind": false, "fill": "#000000", "GEOID10": "50011010700", "GISJOIN": "G5000110010700", "calc_area": 99120.94251, "pct_tract": 0.0368}, "geometry": {"type": "MultiPolygon", "coordinates": [[[[-73.08907, 44.81063], [-73.0897, 44.81074], [-73.0897, 44.81094], [-73.09235, 44.81113], [-73.09247, 44.81122], [-73.09242, 44.81164], [-73.0884, 44.81142], [-73.0884, 44.81108], [-73.08816, 44.81103], [-73.0882, 44.81067], [-73.08907, 44.81063]]], [[[-73.08433, 44.80908], [-73.08514, 44.80918], [-73.0849, 44.81036], [-73.08604, 44.81054], [-73.08628, 44.81057], [-73.08615, 44.81112], [-73.08585, 44.81139], [-73.08558, 44.81276], [-73.08392, 44.81274], [-73.08369, 44.81406], [-73.082874, 44.813937], [-73.08289, 44.813841], [-73.08295, 44.813522], [-73.082966, 44.813429], [-73.083133, 44.812653], [-73.083171, 44.812424], [-73.083226, 44.812157], [-73.083399, 44.8113], [-73.083473, 44.810792], [-73.083552, 44.810366], [-73.083717, 44.809582], [-73.083836, 44.80909], [-73.083845, 44.809045], [-73.08433, 44.80908]]]]}}, {"type": "Feature", "properties": {"area_id": 10195, "city": "St. Albans", "state": "VT", "city_survey": false, "cat": "Trading", "grade": "", "label": "Trading", "res": false, "com": true, "ind": false, "fill": "#000000", "GEOID10": "50011010800", "GISJOIN": "G5000110010800", "calc_area": 92036.26421, "pct_tract": 0.03599}, "geometry": {"type": "MultiPolygon", "coordinates": [[[[-73.08276, 44.81392], [-73.08091, 44.81401], [-73.08099, 44.81302], [-73.08122, 44.81133], [-73.08165, 44.80966], [-73.08252, 44.80984], [-73.08291, 44.80972], [-73.08312, 44.80773], [-73.08339, 44.80758], [-73.08388, 44.80759], [-73.08378, 44.80904], [-73.083845, 44.809045], [-73.083836, 44.80909], [-73.083717, 44.809582], [-73.083552, 44.810366], [-73.083473, 44.810792], [-73.083399, 44.8113], [-73.083226, 44.812157], [-73.083171, 44.812424], [-73.083133, 44.812653], [-73.082966, 44.813429], [-73.08295, 44.813522], [-73.08289, 44.813841], [-73.082874, 44.813937], [-73.08276, 44.81392]]]]}}, {"type": "Feature", "properties": {"area_id": 10196, "city": "St. Albans", "state": "VT", "city_survey": false, "cat": "Industrial", "grade": "", "label": "Industrial", "res": false, "com": false, "ind": true, "fill": "#80303C", "GEOID10": "50011010700", "GISJOIN": "G5000110010700", "calc_area": 257636.10698, "pct_tract": 0.09565}, "geometry": {"type": "MultiPolygon", "coordinates": [[[[-73.08585, 44.81139], [-73.08615, 44.81112], [-73.08628, 44.81057], [-73.08604, 44.81054], [-73.08627, 44.80931], [-73.08659, 44.80936], [-73.08767, 44.80748], [-73.08915, 44.80781], [-73.0882, 44.81067], [-73.08816, 44.81103], [-73.0884, 44.81108], [-73.0884, 44.81142], [-73.08796, 44.81446], [-73.0906, 44.81485], [-73.08943, 44.81678], [-73.08893, 44.81787], [-73.08483, 44.81667], [-73.08558, 44.81276], [-73.08585, 44.81139]]]]}}, {"type": "Feature", "properties": {"area_id": 10197, "city": "St. Albans", "state": "VT", "city_survey": false, "cat": "#1 Best Residential", "grade": "", "label": "#1 Best Residential", "res": true, "com": false, "ind": false, "fill": "#76a865", "GEOID10": "50011010700", "GISJOIN": "G5000110010700", "calc_area": 236793.81016, "pct_tract": 0.08791}, "geometry": {"type": "MultiPolygon", "coordinates": [[[[-73.08944, 44.80134], [-73.09038, 44.80192], [-73.09041, 44.80225], [-73.08675, 44.80742], [-73.08514, 44.80918], [-73.08433, 44.80908], [-73.083845, 44.809045], [-73.084027, 44.808122], [-73.084115, 44.807698], [-73.084183, 44.807491], [-73.084242, 44.807366], [-73.084246, 44.807358], [-73.084459, 44.807058], [-73.084737, 44.806709], [-73.084771, 44.806663], [-73.084815, 44.806609], [-73.085312, 44.805986], [-73.085541, 44.805667], [-73.085768, 44.805385], [-73.085894, 44.805231], [-73.086343, 44.804679], [-73.086623, 44.804349], [-73.086709, 44.804242], [-73.086911, 44.803988], [-73.086976, 44.803906], [-73.087403, 44.803369], [-73.087705, 44.802993], [-73.087862, 44.802797], [-73.087944, 44.802696], [-73.088194, 44.80239], [-73.088753, 44.801674], [-73.089059, 44.80129], [-73.08944, 44.80134]]], [[[-73.08369, 44.81406], [-73.08384, 44.81492], [-73.08367, 44.81565], [-73.08272, 44.82048], [-73.08268, 44.82068], [-73.08248, 44.82184], [-73.082489, 44.822801], [-73.082252, 44.823196], [-73.081117, 44.823139], [-73.081172, 44.822859], [-73.081228, 44.822505], [-73.0813, 44.82215], [-73.081435, 44.821429], [-73.081675, 44.820208], [-73.081723, 44.820004], [-73.081842, 44.819491], [-73.081963, 44.818868], [-73.081979, 44.818778], [-73.082073, 44.818234], [-73.082115, 44.817934], [-73.08219, 44.817523], [-73.082266, 44.817171], [-73.082359, 44.816668], [-73.082409, 44.816432], [-73.082484, 44.816092], [-73.082526, 44.815795], [-73.082571, 44.815569], [-73.082644, 44.815256], [-73.08269, 44.814911], [-73.082765, 44.814561], [-73.082826, 44.814235], [-73.082874, 44.813937], [-73.08369, 44.81406]]]]}}, {"type": "Feature", "properties": {"area_id": 10197, "city": "St. Albans", "state": "VT", "city_survey": false, "cat": "#1 Best Residential", "grade": "", "label": "#1 Best Residential", "res": true, "com": false, "ind": false, "fill": "#76a865", "GEOID10": "50011010600", "GISJOIN": "G5000110010600", "calc_area": 19771.26105, "pct_tract": 0.00013}, "geometry": {"type": "MultiPolygon", "coordinates": [[[[-73.08359, 44.801371], [-73.083524, 44.801483], [-73.0833, 44.801408], [-73.08359, 44.801371]]], [[[-73.07425, 44.8211], [-73.073559, 44.820057], [-73.073644, 44.819851], [-73.07371, 44.819732], [-73.075052, 44.820672], [-73.07474, 44.821568], [-73.075513, 44.821689], [-73.075632, 44.821749], [-73.075228, 44.822275], [-73.07425, 44.8211]]], [[[-73.08249, 44.82297], [-73.08206, 44.82359], [-73.080939, 44.82404], [-73.081007, 44.823701], [-73.081117, 44.823139], [-73.082252, 44.823196], [-73.082489, 44.822801], [-73.08249, 44.82297]]]]}}, {"type": "Feature", "properties": {"area_id": 10197, "city": "St. Albans", "state": "VT", "city_survey": false, "cat": "#1 Best Residential", "grade": "", "label": "#1 Best Residential", "res": true, "com": false, "ind": false, "fill": "#76a865", "GEOID10": "50011010800", "GISJOIN": "G5000110010800", "calc_area": 1937305.73435, "pct_tract": 0.7575}, "geometry": {"type": "MultiPolygon", "coordinates": [[[[-73.08672, 44.80098], [-73.089059, 44.80129], [-73.088753, 44.801674], [-73.088194, 44.80239], [-73.087944, 44.802696], [-73.087862, 44.802797], [-73.087705, 44.802993], [-73.087403, 44.803369], [-73.086976, 44.803906], [-73.086911, 44.803988], [-73.086709, 44.804242], [-73.086623, 44.804349], [-73.086343, 44.804679], [-73.085894, 44.805231], [-73.085768, 44.805385], [-73.085541, 44.805667], [-73.085312, 44.805986], [-73.084815, 44.806609], [-73.084771, 44.806663], [-73.084737, 44.806709], [-73.084459, 44.807058], [-73.084246, 44.807358], [-73.084242, 44.807366], [-73.084183, 44.807491], [-73.084115, 44.807698], [-73.084027, 44.808122], [-73.083845, 44.809045], [-73.08378, 44.80904], [-73.08388, 44.80759], [-73.08339, 44.80758], [-73.08312, 44.80773], [-73.08291, 44.80972], [-73.08252, 44.80984], [-73.08165, 44.80966], [-73.08122, 44.81133], [-73.08099, 44.81302], [-73.08091, 44.81401], [-73.08276, 44.81392], [-73.082874, 44.813937], [-73.082826, 44.814235], [-73.082765, 44.814561], [-73.08269, 44.814911], [-73.082644, 44.815256], [-73.082571, 44.815569], [-73.082526, 44.815795], [-73.082484, 44.816092], [-73.082409, 44.816432], [-73.082359, 44.816668], [-73.082266, 44.817171], [-73.08219, 44.817523], [-73.082115, 44.817934], [-73.082073, 44.818234], [-73.081979, 44.818778], [-73.081963, 44.818868], [-73.081842, 44.819491], [-73.081723, 44.820004], [-73.081675, 44.820208], [-73.081435, 44.821429], [-73.0813, 44.82215], [-73.081228, 44.822505], [-73.081172, 44.822859], [-73.081117, 44.823139], [-73.081007, 44.823701], [-73.080939, 44.82404], [-73.08079, 44.8241], [-73.07908, 44.82439], [-73.07821, 44.82412], [-73.07774, 44.82407], [-73.07674, 44.82358], [-73.07564, 44.82277], [-73.075228, 44.822275], [-73.075632, 44.821749], [-73.075513, 44.821689], [-73.07474, 44.821568], [-73.075052, 44.820672], [-73.07371, 44.819732], [-73.073644, 44.819851], [-73.073559, 44.820057], [-73.07243, 44.81835], [-73.07221, 44.81746], [-73.07192, 44.81715], [-73.07125, 44.8149], [-73.07128, 44.81313], [-73.07112, 44.81198], [-73.07117, 44.81047], [-73.07197, 44.80744], [-73.07244, 44.80643], [-73.07439, 44.80473], [-73.07887, 44.8027], [-73.0824, 44.80152], [-73.0833, 44.801408], [-73.083524, 44.801483], [-73.08359, 44.801371], [-73.08672, 44.80098]]]]}}, {"type": "Feature", "properties": {"area_id": 10198, "city": "St. Albans", "state": "VT", "city_survey": false, "cat": "#3 Residential", "grade": "", "label": "#3 Residential", "res": true, "com": false, "ind": false, "fill": "#E09A73", "GEOID10": "50011010700", "GISJOIN": "G5000110010700", "calc_area": 725001.10654, "pct_tract": 0.26915}, "geometry": {"type": "MultiPolygon", "coordinates": [[[[-73.08306, 44.82144], [-73.08268, 44.82068], [-73.08272, 44.82048], [-73.08367, 44.81565], [-73.08384, 44.81492], [-73.08369, 44.81406], [-73.08392, 44.81274], [-73.08558, 44.81276], [-73.08483, 44.81667], [-73.08893, 44.81787], [-73.08943, 44.81678], [-73.0906, 44.81485], [-73.08796, 44.81446], [-73.0884, 44.81142], [-73.09242, 44.81164], [-73.09247, 44.81122], [-73.09275, 44.81197], [-73.09289, 44.81325], [-73.09263, 44.81522], [-73.09286, 44.81634], [-73.09289, 44.81648], [-73.09414, 44.81852], [-73.094149, 44.819118], [-73.093977, 44.819065], [-73.09383, 44.819017], [-73.093772, 44.819142], [-73.093604, 44.819456], [-73.092319, 44.821249], [-73.091506, 44.822383], [-73.0897, 44.82298], [-73.087159, 44.823144], [-73.086607, 44.822907], [-73.083248, 44.821648], [-73.08306, 44.82144]]]]}}, {"type": "Feature", "properties": {"area_id": 10198, "city": "St. Albans", "state": "VT", "city_survey": false, "cat": "#3 Residential", "grade": "", "label": "#3 Residential", "res": true, "com": false, "ind": false, "fill": "#E09A73", "GEOID10": "50011010600", "GISJOIN": "G5000110010600", "calc_area": 34910.58799, "pct_tract": 0.00022}, "geometry": {"type": "MultiPolygon", "coordinates": [[[[-73.08645, 44.82319], [-73.08488, 44.82288], [-73.08379, 44.82225], [-73.083248, 44.821648], [-73.086607, 44.822907], [-73.087159, 44.823144], [-73.08645, 44.82319]]], [[[-73.09416, 44.81986], [-73.09355, 44.82102], [-73.09191, 44.82225], [-73.091506, 44.822383], [-73.092319, 44.821249], [-73.093604, 44.819456], [-73.093772, 44.819142], [-73.09383, 44.819017], [-73.093977, 44.819065], [-73.094149, 44.819118], [-73.09416, 44.81986]]]]}}, {"type": "Feature", "properties": {"area_id": 10199, "city": "St. Albans", "state": "VT", "city_survey": false, "cat": "#2 Residential", "grade": "", "label": "#2 Residential", "res": true, "com": false, "ind": false, "fill": "#7cb5bd", "GEOID10": "50011010700", "GISJOIN": "G5000110010700", "calc_area": 765016.96001, "pct_tract": 0.28401}, "geometry": {"type": "MultiPolygon", "coordinates": [[[[-73.0913, 44.80092], [-73.08989, 44.8011], [-73.089311, 44.800973], [-73.090056, 44.800036], [-73.090463, 44.799544], [-73.09099, 44.798876], [-73.091118, 44.798745], [-73.091626, 44.798103], [-73.092416, 44.797105], [-73.09272, 44.79674], [-73.092833, 44.796604], [-73.092937, 44.796475], [-73.093567, 44.795693], [-73.094267, 44.794835], [-73.095128, 44.795102], [-73.093993, 44.796535], [-73.093812, 44.796925], [-73.093744, 44.796921], [-73.093701, 44.796972], [-73.093602, 44.797091], [-73.093958, 44.797231], [-73.092749, 44.798077], [-73.092198, 44.798747], [-73.091947, 44.79896], [-73.091498, 44.798752], [-73.09138, 44.798674], [-73.091258, 44.798811], [-73.091199, 44.798878], [-73.090688, 44.79957], [-73.090864, 44.799531], [-73.091826, 44.799572], [-73.091481, 44.799816], [-73.090938, 44.800608], [-73.091435, 44.800846], [-73.0913, 44.80092]]], [[[-73.09651, 44.81715], [-73.09286, 44.81634], [-73.09263, 44.81522], [-73.09289, 44.81325], [-73.09275, 44.81197], [-73.09247, 44.81122], [-73.09235, 44.81113], [-73.09228, 44.81044], [-73.09252, 44.80984], [-73.09284, 44.8088], [-73.09362, 44.80756], [-73.09461, 44.80645], [-73.09602, 44.80593], [-73.096256, 44.805916], [-73.096923, 44.806139], [-73.100119, 44.807223], [-73.101232, 44.807646], [-73.101217, 44.808213], [-73.101186, 44.809298], [-73.101159, 44.811594], [-73.101186, 44.811663], [-73.101121, 44.811743], [-73.101061, 44.811818], [-73.100615, 44.812949], [-73.100493, 44.813065], [-73.100446, 44.813125], [-73.100373, 44.813253], [-73.099916, 44.814481], [-73.099654, 44.815151], [-73.099489, 44.815572], [-73.099547, 44.815676], [-73.09928, 44.816413], [-73.098869, 44.817553], [-73.09651, 44.81715]]]]}}, {"type": "Feature", "properties": {"area_id": 10199, "city": "St. Albans", "state": "VT", "city_survey": false, "cat": "#2 Residential", "grade": "", "label": "#2 Residential", "res": true, "com": false, "ind": false, "fill": "#7cb5bd", "GEOID10": "50011010600", "GISJOIN": "G5000110010600", "calc_area": 594493.49063, "pct_tract": 0.00379}, "geometry": {"type": "MultiPolygon", "coordinates": [[[[-73.08713, 44.80018], [-73.08514, 44.7988], [-73.08375, 44.79703], [-73.08349, 44.79581], [-73.08382, 44.7946], [-73.08424, 44.79369], [-73.08891, 44.79408], [-73.09659, 44.79433], [-73.09398, 44.79873], [-73.09271, 44.80015], [-73.091435, 44.800846], [-73.090938, 44.800608], [-73.091481, 44.799816], [-73.091826, 44.799572], [-73.090864, 44.799531], [-73.090688, 44.79957], [-73.091199, 44.798878], [-73.091258, 44.798811], [-73.09138, 44.798674], [-73.091498, 44.798752], [-73.091947, 44.79896], [-73.092198, 44.798747], [-73.092749, 44.798077], [-73.093958, 44.797231], [-73.093602, 44.797091], [-73.093701, 44.796972], [-73.093744, 44.796921], [-73.093812, 44.796925], [-73.093993, 44.796535], [-73.095128, 44.795102], [-73.094267, 44.794835], [-73.09348, 44.794569], [-73.092784, 44.795401], [-73.092163, 44.79609], [-73.091709, 44.796849], [-73.091187, 44.797518], [-73.090935, 44.79784], [-73.090296, 44.798585], [-73.089742, 44.799235], [-73.08929, 44.799056], [-73.088877, 44.799479], [-73.088303, 44.80011], [-73.087795, 44.799872], [-73.087515, 44.800173], [-73.087388, 44.800301], [-73.08713, 44.80018]]], [[[-73.09736, 44.80585], [-73.09986, 44.80626], [-73.10253, 44.80695], [-73.10183, 44.81068], [-73.10137, 44.81322], [-73.10085, 44.81656], [-73.10067, 44.81786], [-73.098869, 44.817553], [-73.09928, 44.816413], [-73.099547, 44.815676], [-73.099489, 44.815572], [-73.099654, 44.815151], [-73.099916, 44.814481], [-73.100373, 44.813253], [-73.100446, 44.813125], [-73.100493, 44.813065], [-73.100615, 44.812949], [-73.101061, 44.811818], [-73.101121, 44.811743], [-73.101186, 44.811663], [-73.101159, 44.811594], [-73.101186, 44.809298], [-73.101217, 44.808213], [-73.101232, 44.807646], [-73.100119, 44.807223], [-73.096923, 44.806139], [-73.096256, 44.805916], [-73.09736, 44.80585]]]]}}, {"type": "Feature", "properties": {"area_id": 10199, "city": "St. Albans", "state": "VT", "city_survey": false, "cat": "#2 Residential", "grade": "", "label": "#2 Residential", "res": true, "com": false, "ind": false, "fill": "#7cb5bd", "GEOID10": "50011010800", "GISJOIN": "G5000110010800", "calc_area": 65015.84667, "pct_tract": 0.02542}, "geometry": {"type": "MultiPolygon", "coordinates": [[[[-73.08839, 44.80077], [-73.087388, 44.800301], [-73.087515, 44.800173], [-73.087795, 44.799872], [-73.088303, 44.80011], [-73.088877, 44.799479], [-73.08929, 44.799056], [-73.089742, 44.799235], [-73.090296, 44.798585], [-73.090935, 44.79784], [-73.091187, 44.797518], [-73.091709, 44.796849], [-73.092163, 44.79609], [-73.092784, 44.795401], [-73.09348, 44.794569], [-73.094267, 44.794835], [-73.093567, 44.795693], [-73.092937, 44.796475], [-73.092833, 44.796604], [-73.09272, 44.79674], [-73.092416, 44.797105], [-73.091626, 44.798103], [-73.091118, 44.798745], [-73.09099, 44.798876], [-73.090463, 44.799544], [-73.090056, 44.800036], [-73.089311, 44.800973], [-73.08839, 44.80077]]]]}}]}