{"type": "FeatureCollection", "features": [{"type": "Feature", "geometry": {"type": "Point", "coordinates": [-92.508333, 44.058333]}, "properties": {"facility_name": "IBM ROCHESTER", "industry": null, "tri_facility_id": "55901BMXXXHWY52"}}, {"type": "Feature", "geometry": {"type": "Point", "coordinates": [-92.5275, 44.05694444444444]}, "properties": {"facility_name": "CELESTICA CORP", "industry": null, "tri_facility_id": "55901CLSTC3050S"}}, {"type": "Feature", "geometry": {"type": "Point", "coordinates": [-92.50833333333334, 44.05833333333333]}, "properties": {"facility_name": "CELESTICA CORP", "industry": null, "tri_facility_id": "55901CLSTC30543"}}, {"type": "Feature", "geometry": {"type": "Point", "coordinates": [-92.508558, 44.048794]}, "properties": {"facility_name": "CRENLO ENGINEERED CABS LLC - PLANT 2", "industry": null, "tri_facility_id": "55901CRNLN2501V"}}, {"type": "Feature", "geometry": {"type": "Point", "coordinates": [-92.510577, 44.050794]}, "properties": {"facility_name": "PACE DAIRY FOODS CO", "industry": null, "tri_facility_id": "55901PCDRY2700V"}}, {"type": "Feature", "geometry": {"type": "Point", "coordinates": [-92.51444444444445, 44.05277777777778]}, "properties": {"facility_name": "BENCHMARK", "industry": null, "tri_facility_id": "55901PMSTR3535T"}}, {"type": "Feature", "geometry": {"type": "Point", "coordinates": [-92.51, 44.0656]}, "properties": {"facility_name": "PEPSI-COLA BOTTLING CO", "industry": null, "tri_facility_id": "55901PPSCL1307V"}}, {"type": "Feature", "geometry": {"type": "Point", "coordinates": [-92.497778, 44.035]}, "properties": {"facility_name": "KERRY INGREDIENTS & FLAVOURS INC.", "industry": null, "tri_facility_id": "55901STFFR24027"}}, {"type": "Feature", "geometry": {"type": "Point", "coordinates": [-92.498, 44.0353]}, "properties": {"facility_name": "WATERS INSTRUMENTS", "industry": null, "tri_facility_id": "55901WTRSN24117"}}, {"type": "Feature", "geometry": {"type": "Point", "coordinates": [-92.471944, 44.009722]}, "properties": {"facility_name": "SENECA FOODS CORP", "industry": null, "tri_facility_id": "55903SNCFD12173"}}, {"type": "Feature", "geometry": {"type": "Point", "coordinates": [-92.462222, 44.027778]}, "properties": {"facility_name": "KEMPS LLC - ROCHESTER", "industry": null, "tri_facility_id": "55904MRGLD406NB"}}, {"type": "Feature", "geometry": {"type": "Point", "coordinates": [-92.460556, 44.016111]}, "properties": {"facility_name": "KEMPS LLC", "industry": null, "tri_facility_id": "55904MRGLD700LA"}}, {"type": "Feature", "geometry": {"type": "Point", "coordinates": [-92.47194444444445, 44.00972222222222]}, "properties": {"facility_name": "SENECA FOODS CORP", "industry": null, "tri_facility_id": "55904SNCFD30820"}}, {"type": "Feature", "geometry": {"type": "Point", "coordinates": [-92.461111, 44.015833]}, "properties": {"facility_name": "ASSOCIATED MILK PRODUCERS INC", "industry": null, "tri_facility_id": "55904SSCTD7001S"}}, {"type": "Feature", "geometry": {"type": "Point", "coordinates": [-92.46055555555556, 44.02861111111111]}, "properties": {"facility_name": "ROCHESTER PUBLIC UTILITIES SILVER LAKE PLANT", "industry": null, "tri_facility_id": "55906RCHST425WS"}}]}