{"type": "FeatureCollection", "features": [{"type": "Feature", "geometry": {"type": "Point", "coordinates": [-81.3741, 40.7983]}, "properties": {"facility_name": "HARSCO METALS - CANTON", "industry": null, "tri_facility_id": "44701HRSCC8THST"}}, {"type": "Feature", "geometry": {"type": "Point", "coordinates": [-81.352778, 40.790278]}, "properties": {"facility_name": "GALT ALLOYS INC", "industry": null, "tri_facility_id": "44702GLTND155MA"}}, {"type": "Feature", "geometry": {"type": "Point", "coordinates": [-81.372222, 40.799444]}, "properties": {"facility_name": "MIDWEST INDUSTRIAL SUPPLY INC", "industry": null, "tri_facility_id": "44702MDWST526TH"}}, {"type": "Feature", "geometry": {"type": "Point", "coordinates": [-81.35, 40.808333]}, "properties": {"facility_name": "REPUBLIC STEEL-CANTON PLANT", "industry": null, "tri_facility_id": "44704LTVST26338"}}, {"type": "Feature", "geometry": {"type": "Point", "coordinates": [-81.345, 40.80972222222222]}, "properties": {"facility_name": "OHIO CAST PRODUCTS INC", "industry": null, "tri_facility_id": "44705HCSTP24081"}}, {"type": "Feature", "geometry": {"type": "Point", "coordinates": [-81.33437, 40.835236]}, "properties": {"facility_name": "KEPHACO CORP DBA AS AMERICAN MARBLE INDUSTRIES", "industry": null, "tri_facility_id": "44705KPHCN2700A"}}, {"type": "Feature", "geometry": {"type": "Point", "coordinates": [-81.339722, 40.808889]}, "properties": {"facility_name": "UNITED ROLLS INC", "industry": null, "tri_facility_id": "44705NTDFN1400G"}}, {"type": "Feature", "geometry": {"type": "Point", "coordinates": [-81.319444, 40.82]}, "properties": {"facility_name": "UNITED SURFACE FINISHING", "industry": null, "tri_facility_id": "44705NTDHR2202G"}}, {"type": "Feature", "geometry": {"type": "Point", "coordinates": [-81.355278, 40.791111]}, "properties": {"facility_name": "PARK POULTRY INC", "industry": null, "tri_facility_id": "44705PRKPL19253"}}, {"type": "Feature", "geometry": {"type": "Point", "coordinates": [-81.333333, 40.8]}, "properties": {"facility_name": "REPUBLIC STORAGE SYSTEMS LLC", "industry": null, "tri_facility_id": "44705RPBLC1038B"}}, {"type": "Feature", "geometry": {"type": "Point", "coordinates": [-81.341667, 40.8125]}, "properties": {"facility_name": "FRESH MARK CANTON", "industry": null, "tri_facility_id": "44705SGRDL1600H"}}, {"type": "Feature", "geometry": {"type": "Point", "coordinates": [-81.3175, 40.823333]}, "properties": {"facility_name": "WINTERS INDUSTRIES", "industry": null, "tri_facility_id": "44705WNTRS3000A"}}, {"type": "Feature", "geometry": {"type": "Point", "coordinates": [-81.3175, 40.823333]}, "properties": {"facility_name": "KAISER ALUMINUM & CHEMICAL CORP CASTING OPS", "industry": null, "tri_facility_id": "44705WNTRS4125M"}}, {"type": "Feature", "geometry": {"type": "Point", "coordinates": [-81.434167, 40.782778]}, "properties": {"facility_name": "CANTON DROP FORGE", "industry": null, "tri_facility_id": "44706CNTND4575S"}}, {"type": "Feature", "geometry": {"type": "Point", "coordinates": [-81.4375, 40.75416666666667]}, "properties": {"facility_name": "EDWARD C LEVY INC", "industry": null, "tri_facility_id": "44706DWRDC3715W"}}, {"type": "Feature", "geometry": {"type": "Point", "coordinates": [-81.406111, 40.767778]}, "properties": {"facility_name": "AGA GAS INC", "industry": null, "tri_facility_id": "44706GGSNC2505S"}}, {"type": "Feature", "geometry": {"type": "Point", "coordinates": [-81.386111, 40.779167]}, "properties": {"facility_name": "NAGALV-OHIO INC", "industry": null, "tri_facility_id": "44706GRGRY1723C"}}, {"type": "Feature", "geometry": {"type": "Point", "coordinates": [-81.438889, 40.782222]}, "properties": {"facility_name": "HERCULES POLISHING & PLATING CO", "industry": null, "tri_facility_id": "44706HRCLS4883S"}}, {"type": "Feature", "geometry": {"type": "Point", "coordinates": [-81.399444, 40.786667]}, "properties": {"facility_name": "HARRISON PAINT CO", "industry": null, "tri_facility_id": "44706HRRSN1329H"}}, {"type": "Feature", "geometry": {"type": "Point", "coordinates": [-81.392222, 40.774722]}, "properties": {"facility_name": "PRAXAIR INC", "industry": null, "tri_facility_id": "44706LQDCR2225B"}}, {"type": "Feature", "geometry": {"type": "Point", "coordinates": [-81.399043, 40.77452]}, "properties": {"facility_name": "PATRIOT SPECIAL METALS", "industry": null, "tri_facility_id": "44706LTVST2201H"}}, {"type": "Feature", "geometry": {"type": "Point", "coordinates": [-81.4, 40.780556]}, "properties": {"facility_name": "OLYMCO INC", "industry": null, "tri_facility_id": "44706LYMCN2125H"}}, {"type": "Feature", "geometry": {"type": "Point", "coordinates": [-81.44305555555556, 40.778888888888886]}, "properties": {"facility_name": "SRT SALES & SERVICE", "industry": null, "tri_facility_id": "44706MDWST4936S"}}, {"type": "Feature", "geometry": {"type": "Point", "coordinates": [-81.44388888888889, 40.76416666666667]}, "properties": {"facility_name": "PELOROX LLC", "industry": null, "tri_facility_id": "44706PLRXL321SA"}}, {"type": "Feature", "geometry": {"type": "Point", "coordinates": [-81.44250000000001, 40.7625]}, "properties": {"facility_name": "PELTECH 1 LLC", "industry": null, "tri_facility_id": "44706PLTCH326SA"}}, {"type": "Feature", "geometry": {"type": "Point", "coordinates": [-81.445833, 40.781944]}, "properties": {"facility_name": "REES PLATING CO", "industry": null, "tri_facility_id": "44706RSPLT5020S"}}, {"type": "Feature", "geometry": {"type": "Point", "coordinates": [-81.389722, 40.8]}, "properties": {"facility_name": "US TECH CORP", "industry": null, "tri_facility_id": "44706SCHMC1446W"}}, {"type": "Feature", "geometry": {"type": "Point", "coordinates": [-81.395075, 40.778812]}, "properties": {"facility_name": "TIMKEN CO GAMBRINUS ROLLER PLANT", "industry": null, "tri_facility_id": "44706THTMK1835D"}}, {"type": "Feature", "geometry": {"type": "Point", "coordinates": [-81.425, 40.780833]}, "properties": {"facility_name": "VAN KAY INC", "industry": null, "tri_facility_id": "44706VNKYN4124S"}}, {"type": "Feature", "geometry": {"type": "Point", "coordinates": [-81.352778, 40.786389]}, "properties": {"facility_name": "BOWDIL CO", "industry": null, "tri_facility_id": "44707BWDLC2030I"}}, {"type": "Feature", "geometry": {"type": "Point", "coordinates": [-81.376944, 40.797222]}, "properties": {"facility_name": "CANTON GLOVE COMPANY", "industry": null, "tri_facility_id": "44707DMNTN1117M"}}, {"type": "Feature", "geometry": {"type": "Point", "coordinates": [-81.35027777777778, 40.78722222222222]}, "properties": {"facility_name": "AIRGAS USA, LLC", "industry": null, "tri_facility_id": "44707GGSNC905BE"}}, {"type": "Feature", "geometry": {"type": "Point", "coordinates": [-81.3489, 40.7619]}, "properties": {"facility_name": "HENDRICKSON TRAILER SUSPENSION SYSTEMS", "industry": null, "tri_facility_id": "44707HNDRC2070I"}}, {"type": "Feature", "geometry": {"type": "Point", "coordinates": [-81.3775, 40.791111]}, "properties": {"facility_name": "HERCULES ENGINES INC", "industry": null, "tri_facility_id": "44707HRCLS101EL"}}, {"type": "Feature", "geometry": {"type": "Point", "coordinates": [-81.3875, 40.796389]}, "properties": {"facility_name": "INTERNATIONAL AUTOMOTIVE COMPONENTS", "industry": null, "tri_facility_id": "44707KRCRP1212S"}}, {"type": "Feature", "geometry": {"type": "Point", "coordinates": [-81.35027777777778, 40.78722222222222]}, "properties": {"facility_name": "LINDE GAS LLC", "industry": null, "tri_facility_id": "44707LNDGS45BEL"}}, {"type": "Feature", "geometry": {"type": "Point", "coordinates": [-81.384722, 40.783333]}, "properties": {"facility_name": "OLYMPIC PLATING INDUSTRIES INC", "industry": null, "tri_facility_id": "44707LYMPC20815"}}, {"type": "Feature", "geometry": {"type": "Point", "coordinates": [-81.3675, 40.795556]}, "properties": {"facility_name": "MIDWEST INDUSTRIAL SUPPLY INC.", "industry": null, "tri_facility_id": "44707MDWST1101T"}}, {"type": "Feature", "geometry": {"type": "Point", "coordinates": [-81.366667, 40.790833]}, "properties": {"facility_name": "M K MORSE CO", "industry": null, "tri_facility_id": "44707MKMRS11011"}}, {"type": "Feature", "geometry": {"type": "Point", "coordinates": [-81.370833, 40.775]}, "properties": {"facility_name": "IRONROCK CAPITAL INC", "industry": null, "tri_facility_id": "44707MTRPL1201M"}}, {"type": "Feature", "geometry": {"type": "Point", "coordinates": [-81.361111, 40.774444]}, "properties": {"facility_name": "SONOCO METAL PACKAGING LLC", "industry": null, "tri_facility_id": "44707NRTCH2121W"}}, {"type": "Feature", "geometry": {"type": "Point", "coordinates": [-81.37027777777777, 40.774166666666666]}, "properties": {"facility_name": "ENVIRITE OF OHIO INC", "industry": null, "tri_facility_id": "44707NVRTF2050C"}}, {"type": "Feature", "geometry": {"type": "Point", "coordinates": [-81.376944, 40.797222]}, "properties": {"facility_name": "FRITO-LAY INC", "industry": null, "tri_facility_id": "44708FRTLY40301"}}, {"type": "Feature", "geometry": {"type": "Point", "coordinates": [-81.423133, 40.788391]}, "properties": {"facility_name": "GREGORY INDUSTRIES", "industry": null, "tri_facility_id": "44708GRGRY41001"}}, {"type": "Feature", "geometry": {"type": "Point", "coordinates": [-81.4375, 40.753611]}, "properties": {"facility_name": "SUPERIOR DAIRY", "industry": null, "tri_facility_id": "44708SPRRD4719N"}}, {"type": "Feature", "geometry": {"type": "Point", "coordinates": [-81.421667, 40.786667]}, "properties": {"facility_name": "AALBERTS SURFACE TECHNOLOGIES AA LLC", "industry": null, "tri_facility_id": "44710TMSPH1501R"}}, {"type": "Feature", "geometry": {"type": "Point", "coordinates": [-81.3665, 40.794]}, "properties": {"facility_name": "DIEBOLD INC", "industry": null, "tri_facility_id": "44711DBLDN818MU"}}, {"type": "Feature", "geometry": {"type": "Point", "coordinates": [-81.351924, 40.814286]}, "properties": {"facility_name": "UNION METAL CORP", "industry": null, "tri_facility_id": "44711NNMTL19351"}}, {"type": "Feature", "geometry": {"type": "Point", "coordinates": [-81.416667, 40.770833]}, "properties": {"facility_name": "MARATHON PETROLEUM CO LP OHIO REFINING DIV", "industry": null, "tri_facility_id": "44711SHLND2408G"}}, {"type": "Feature", "geometry": {"type": "Point", "coordinates": [-81.408333, 40.875833]}, "properties": {"facility_name": "HOOVER CO PLANT 1", "industry": null, "tri_facility_id": "44720THHVR101EA"}}, {"type": "Feature", "geometry": {"type": "Point", "coordinates": [-81.27, 40.774444]}, "properties": {"facility_name": "RESCO PRODUCTS INC. EAST CANTON OPERATIONS", "industry": null, "tri_facility_id": "44730CRSCN6878O"}}, {"type": "Feature", "geometry": {"type": "Point", "coordinates": [-81.278611, 40.781111]}, "properties": {"facility_name": "STARK CERAMICS INC.", "industry": null, "tri_facility_id": "44730STRKC600WE"}}]}