{"type": "FeatureCollection", "features": [{"type": "Feature", "geometry": {"type": "Point", "coordinates": [-88.531667, 44.058611]}, "properties": {"facility_name": "AMCOR PACKAGING INC", "industry": null, "tri_facility_id": "54901BNNRPOSHKO"}}, {"type": "Feature", "geometry": {"type": "Point", "coordinates": [-88.551944, 43.9775]}, "properties": {"facility_name": "OEC GRAPHICS INC", "industry": null, "tri_facility_id": "54901CGRPH555WW"}}, {"type": "Feature", "geometry": {"type": "Point", "coordinates": [-88.557222, 43.983889]}, "properties": {"facility_name": "CORRIM CO", "industry": null, "tri_facility_id": "54901CRRMC3331C"}}, {"type": "Feature", "geometry": {"type": "Point", "coordinates": [-88.536111, 44.063889]}, "properties": {"facility_name": "CROWN CORK & SEAL USA INC", "industry": null, "tri_facility_id": "54901CRWNC3475N"}}, {"type": "Feature", "geometry": {"type": "Point", "coordinates": [-88.538889, 43.986667]}, "properties": {"facility_name": "HYDRITE CHEMICAL CO.", "industry": null, "tri_facility_id": "54901HYDRT191WE"}}, {"type": "Feature", "geometry": {"type": "Point", "coordinates": [-88.5575, 43.985278]}, "properties": {"facility_name": "LAKESIDE PLASTICS INC", "industry": null, "tri_facility_id": "54901LKSDP450W3"}}, {"type": "Feature", "geometry": {"type": "Point", "coordinates": [-88.535833, 44.016944]}, "properties": {"facility_name": "LAMICO INC", "industry": null, "tri_facility_id": "54901LMCNC474MA"}}, {"type": "Feature", "geometry": {"type": "Point", "coordinates": [-88.5397, 43.947]}, "properties": {"facility_name": "AUTOMATIC HANDLING INC WI DIV", "industry": null, "tri_facility_id": "54901NTRPR101WS"}}, {"type": "Feature", "geometry": {"type": "Point", "coordinates": [-88.530556, 44.052778]}, "properties": {"facility_name": "PACUR INC", "industry": null, "tri_facility_id": "54901PCRNC3555M"}}, {"type": "Feature", "geometry": {"type": "Point", "coordinates": [-88.579167, 44.054167]}, "properties": {"facility_name": "INTERNATIONAL PAPER CO PLUSWOOD DIV", "industry": null, "tri_facility_id": "54901PLSWD2880V"}}, {"type": "Feature", "geometry": {"type": "Point", "coordinates": [-88.534444, 44.038611]}, "properties": {"facility_name": "PONDEROSA PULP PRODUCTS", "industry": null, "tri_facility_id": "54901PNDRS2800N"}}, {"type": "Feature", "geometry": {"type": "Point", "coordinates": [-88.53, 44.062222]}, "properties": {"facility_name": "A P NONWEILER CO INC", "industry": null, "tri_facility_id": "54901PNNWL3321N"}}, {"type": "Feature", "geometry": {"type": "Point", "coordinates": [-88.55916666666667, 43.999722222222225]}, "properties": {"facility_name": "ARROWHEAD CONVEYOR CORP", "industry": null, "tri_facility_id": "54901RRWHD3255M"}}, {"type": "Feature", "geometry": {"type": "Point", "coordinates": [-88.567382, 44.001688]}, "properties": {"facility_name": "CRAFT COATING", "industry": null, "tri_facility_id": "54901SHKSH1228W"}}, {"type": "Feature", "geometry": {"type": "Point", "coordinates": [-88.550282, 43.977823]}, "properties": {"facility_name": "GE OIL & GAS OPERATIONS LLC", "industry": null, "tri_facility_id": "54901SQRDC3300M"}}, {"type": "Feature", "geometry": {"type": "Point", "coordinates": [-88.531111, 44.048611]}, "properties": {"facility_name": "SEVEN-UP BOTTLING CO", "industry": null, "tri_facility_id": "54901SVNPB2110H"}}, {"type": "Feature", "geometry": {"type": "Point", "coordinates": [-88.53807, 44.008024]}, "properties": {"facility_name": "BUCKSTAFF CO", "industry": null, "tri_facility_id": "54901THBCK1127S"}}, {"type": "Feature", "geometry": {"type": "Point", "coordinates": [-88.55, 44.016667]}, "properties": {"facility_name": "WALD WIRE & MANUFACTURING CO", "industry": null, "tri_facility_id": "54901WLDWR846WI"}}, {"type": "Feature", "geometry": {"type": "Point", "coordinates": [-88.538129, 44.063897]}, "properties": {"facility_name": "BEMISTAPE CO", "industry": null, "tri_facility_id": "54902BMSTP3450N"}}, {"type": "Feature", "geometry": {"type": "Point", "coordinates": [-88.5411111111111, 44.007777777777775]}, "properties": {"facility_name": "BLENDED WAXES INC", "industry": null, "tri_facility_id": "54903BLNDD1512S"}}, {"type": "Feature", "geometry": {"type": "Point", "coordinates": [-88.591667, 43.991667]}, "properties": {"facility_name": "OSHKOSH DOOR CO", "industry": null, "tri_facility_id": "54903FNSTR2501U"}}, {"type": "Feature", "geometry": {"type": "Point", "coordinates": [-88.5575, 43.985278]}, "properties": {"facility_name": "KINGSBURY INC OSHKOSH DIV", "industry": null, "tri_facility_id": "54903KNGSB455WA"}}, {"type": "Feature", "geometry": {"type": "Point", "coordinates": [-88.533333, 44.05]}, "properties": {"facility_name": "OSHKOSH DEFENSE LLC", "industry": null, "tri_facility_id": "54903LCHCX2737H"}}, {"type": "Feature", "geometry": {"type": "Point", "coordinates": [-88.544444, 44.017778]}, "properties": {"facility_name": "MEDALIST INDUSTRIES AUTOMATED MACHINERY DIV", "industry": null, "tri_facility_id": "54903MDLST123JA"}}, {"type": "Feature", "geometry": {"type": "Point", "coordinates": [-88.59416666666667, 43.987500000000004]}, "properties": {"facility_name": "MULTICIRCUITS INC.", "industry": null, "tri_facility_id": "54903MLTCR2301U"}}, {"type": "Feature", "geometry": {"type": "Point", "coordinates": [-88.594444, 43.995278]}, "properties": {"facility_name": "PEPSI-COLA BOTTLING CO OF OSHKOSH", "industry": null, "tri_facility_id": "54903PPSCL2541W"}}, {"type": "Feature", "geometry": {"type": "Point", "coordinates": [-88.540833, 44.020278]}, "properties": {"facility_name": "AXLETECH INTERNATIONAL", "industry": null, "tri_facility_id": "54903RCKWL1005H"}}, {"type": "Feature", "geometry": {"type": "Point", "coordinates": [-88.542778, 43.992778]}, "properties": {"facility_name": "OSHKOSH DEFENSE LLC", "industry": null, "tri_facility_id": "54903SHKSH2307O"}}, {"type": "Feature", "geometry": {"type": "Point", "coordinates": [-88.550556, 43.981944]}, "properties": {"facility_name": "OSHKOSH TRUCK CORP", "industry": null, "tri_facility_id": "54903SHKSH500WW"}}, {"type": "Feature", "geometry": {"type": "Point", "coordinates": [-88.588889, 43.994722]}, "properties": {"facility_name": "BEMIS FILMS", "industry": null, "tri_facility_id": "54904BMSFL2450B"}}, {"type": "Feature", "geometry": {"type": "Point", "coordinates": [-88.586111, 43.986111]}, "properties": {"facility_name": "AP WESTSHORE", "industry": null, "tri_facility_id": "54904PWSTS4000C"}}]}