{"type": "FeatureCollection", "features": [{"type": "Feature", "geometry": {"type": "Point", "coordinates": [-71.116667, 42.7]}, "properties": {"facility_name": "GERMANIUM POWER DEVICES CORP", "industry": null, "tri_facility_id": "01810GRMNMHAVER"}}, {"type": "Feature", "geometry": {"type": "Point", "coordinates": [-71.117222, 42.756667]}, "properties": {"facility_name": "VERNON PLASTICS INC", "industry": null, "tri_facility_id": "01830BRDNNSHELL"}}, {"type": "Feature", "geometry": {"type": "Point", "coordinates": [-71.08805555555556, 42.777499999999996]}, "properties": {"facility_name": "DYETEX INC", "industry": null, "tri_facility_id": "01830DYTXN14STE"}}, {"type": "Feature", "geometry": {"type": "Point", "coordinates": [-71.120833, 42.75]}, "properties": {"facility_name": "MULTI CORE INC", "industry": null, "tri_facility_id": "01830MLTCR12ROG"}}, {"type": "Feature", "geometry": {"type": "Point", "coordinates": [-71.110556, 42.804722]}, "properties": {"facility_name": "GARE INC", "industry": null, "tri_facility_id": "01831GRNCX165RO"}}, {"type": "Feature", "geometry": {"type": "Point", "coordinates": [-71.125, 42.770833]}, "properties": {"facility_name": "HAVERHILL SHOE CO", "industry": null, "tri_facility_id": "01831HVRHL266RI"}}, {"type": "Feature", "geometry": {"type": "Point", "coordinates": [-71.084869, 42.774828]}, "properties": {"facility_name": "PRINTED CIRCUIT DESIGN", "industry": null, "tri_facility_id": "01831PRNTD17LOC"}}, {"type": "Feature", "geometry": {"type": "Point", "coordinates": [-71.0936111111111, 42.78333333333333]}, "properties": {"facility_name": "IMI INC", "industry": null, "tri_facility_id": "01832MNCXX140HI"}}, {"type": "Feature", "geometry": {"type": "Point", "coordinates": [-71.11416666666666, 42.80166666666666]}, "properties": {"facility_name": "METAL TRONICS INC", "industry": null, "tri_facility_id": "01832MTLTR42NEW"}}, {"type": "Feature", "geometry": {"type": "Point", "coordinates": [-70.960278, 42.708889]}, "properties": {"facility_name": "BME ENGINEERING INC", "industry": null, "tri_facility_id": "01833BMNGNCARLE"}}, {"type": "Feature", "geometry": {"type": "Point", "coordinates": [-70.970059, 42.723114]}, "properties": {"facility_name": "HOOD COATINGS INC.", "industry": null, "tri_facility_id": "01833HDCTN70SEA"}}, {"type": "Feature", "geometry": {"type": "Point", "coordinates": [-71.0319, 42.7378]}, "properties": {"facility_name": "AW CHESTERTON CO", "industry": null, "tri_facility_id": "01834WCHST860SA"}}, {"type": "Feature", "geometry": {"type": "Point", "coordinates": [-71.071389, 42.768889]}, "properties": {"facility_name": "C.F. JAMESON & CO. INC.", "industry": null, "tri_facility_id": "01835CFJMS72SOK"}}, {"type": "Feature", "geometry": {"type": "Point", "coordinates": [-71.06833333333333, 42.76833333333333]}, "properties": {"facility_name": "CIRCUIT BOARD EXPRESS", "industry": null, "tri_facility_id": "01835CRCTB2AVCO"}}, {"type": "Feature", "geometry": {"type": "Point", "coordinates": [-71.05277777777778, 42.766666666666666]}, "properties": {"facility_name": "HAVERHILL PAPERBOARD CORP", "industry": null, "tri_facility_id": "01835HVRHL100SK"}}, {"type": "Feature", "geometry": {"type": "Point", "coordinates": [-71.112984, 42.761647]}, "properties": {"facility_name": "JOHNSON & JOHNSTON ASSOC", "industry": null, "tri_facility_id": "01835JHNSN12ROG"}}, {"type": "Feature", "geometry": {"type": "Point", "coordinates": [-71.114225, 42.761118]}, "properties": {"facility_name": "SANMINA CORP - TECH CENTER EAST DIV", "industry": null, "tri_facility_id": "01835LTRNT46ROG"}}, {"type": "Feature", "geometry": {"type": "Point", "coordinates": [-71.11888888888888, 42.76305555555555]}, "properties": {"facility_name": "SPEEDLINE TECHS", "industry": null, "tri_facility_id": "01835SPDLN145WA"}}, {"type": "Feature", "geometry": {"type": "Point", "coordinates": [-71.131389, 42.704167]}, "properties": {"facility_name": "CHEMCO CORP", "industry": null, "tri_facility_id": "01840CHMCC300CA"}}, {"type": "Feature", "geometry": {"type": "Point", "coordinates": [-71.18305555555555, 42.70027777777778]}, "properties": {"facility_name": "CIL ELECTROPLATING INC", "industry": null, "tri_facility_id": "01840DTCLC125GL"}}, {"type": "Feature", "geometry": {"type": "Point", "coordinates": [-71.154167, 42.7075]}, "properties": {"facility_name": "ADTEC ELECTROPLATING INC", "industry": null, "tri_facility_id": "01840DVNCD9MILL"}}, {"type": "Feature", "geometry": {"type": "Point", "coordinates": [-71.17305555555556, 42.708333333333336]}, "properties": {"facility_name": "SAFETY-KLEEN (NE) INC", "industry": null, "tri_facility_id": "01840SFTYK300CA"}}, {"type": "Feature", "geometry": {"type": "Point", "coordinates": [-71.157222, 42.704167]}, "properties": {"facility_name": "TURCO PUREX INDL CORP", "industry": null, "tri_facility_id": "01840TRCPR250CA"}}, {"type": "Feature", "geometry": {"type": "Point", "coordinates": [-71.1815, 42.7156]}, "properties": {"facility_name": "POLARTEC, LLC", "industry": null, "tri_facility_id": "01841MLDNM46STA"}}, {"type": "Feature", "geometry": {"type": "Point", "coordinates": [-71.177222, 42.714722]}, "properties": {"facility_name": "ITT SEMICONDUCTORS", "industry": null, "tri_facility_id": "01841TTSMC470BR"}}, {"type": "Feature", "geometry": {"type": "Point", "coordinates": [-71.178056, 42.713611]}, "properties": {"facility_name": "MICROSEMI LAWRENCE", "industry": null, "tri_facility_id": "01841TTSMC6LAKE"}}, {"type": "Feature", "geometry": {"type": "Point", "coordinates": [-71.179444, 42.688889]}, "properties": {"facility_name": "KEY POLYMER", "industry": null, "tri_facility_id": "01842KYPLYLAWRE"}}, {"type": "Feature", "geometry": {"type": "Point", "coordinates": [-71.164167, 42.701944]}, "properties": {"facility_name": "MERRIMAC PAPER CO INC", "industry": null, "tri_facility_id": "01842MRRMC9SOUT"}}, {"type": "Feature", "geometry": {"type": "Point", "coordinates": [-71.179291, 42.712328]}, "properties": {"facility_name": "NATIONAL NORTHEAST CORP", "industry": null, "tri_facility_id": "01842NTNLN65MAN"}}, {"type": "Feature", "geometry": {"type": "Point", "coordinates": [-71.164167, 42.701944]}, "properties": {"facility_name": "NEWARK ATLANTIC PAPERBOARD CORP", "industry": null, "tri_facility_id": "01842TLNTC250CA"}}, {"type": "Feature", "geometry": {"type": "Point", "coordinates": [-71.17944444444444, 42.68888888888888]}, "properties": {"facility_name": "LUBRIZOL ADVANCED MATERIALS", "industry": null, "tri_facility_id": "01843BFGDRONEJA"}}, {"type": "Feature", "geometry": {"type": "Point", "coordinates": [-71.1616, 42.6896]}, "properties": {"facility_name": "CHEMCO CORP", "industry": null, "tri_facility_id": "01843CHMCC19SCA"}}, {"type": "Feature", "geometry": {"type": "Point", "coordinates": [-71.155556, 42.689722]}, "properties": {"facility_name": "FRANK C MEYER CO", "industry": null, "tri_facility_id": "01843FCMYR585SU"}}, {"type": "Feature", "geometry": {"type": "Point", "coordinates": [-71.179444, 42.688611]}, "properties": {"facility_name": "FRICTION MATERIALS CO INC", "industry": null, "tri_facility_id": "01843FRCTN17SHE"}}, {"type": "Feature", "geometry": {"type": "Point", "coordinates": [-71.146434, 42.702961]}, "properties": {"facility_name": "JAYBIRD & MAIS INC", "industry": null, "tri_facility_id": "01843JYBRD360ME"}}, {"type": "Feature", "geometry": {"type": "Point", "coordinates": [-71.158611, 42.700278]}, "properties": {"facility_name": "FLOWSERVE-LAWRENCE PUMPS", "industry": null, "tri_facility_id": "01843LWRNC371MA"}}, {"type": "Feature", "geometry": {"type": "Point", "coordinates": [-71.1616, 42.6896]}, "properties": {"facility_name": "SEKISUI VOLTEK LLC", "industry": null, "tri_facility_id": "01843VLTKD100SH"}}, {"type": "Feature", "geometry": {"type": "Point", "coordinates": [-71.18472222222222, 42.73111111111111]}, "properties": {"facility_name": "GRAPHIC CONTROLS CORP", "industry": null, "tri_facility_id": "01844GRPHC55CHA"}}, {"type": "Feature", "geometry": {"type": "Point", "coordinates": [-71.13861111111112, 42.73083333333334]}, "properties": {"facility_name": "METAL TRONICS INC", "industry": null, "tri_facility_id": "01844MTLTR126ME"}}, {"type": "Feature", "geometry": {"type": "Point", "coordinates": [-71.15, 42.741667]}, "properties": {"facility_name": "PARLEX CORP", "industry": null, "tri_facility_id": "01844PRLXC145MI"}}, {"type": "Feature", "geometry": {"type": "Point", "coordinates": [-71.14, 42.731667]}, "properties": {"facility_name": "TRI-STAR TECHNOLOGY CO INC", "industry": null, "tri_facility_id": "01844WNGLB126ME"}}, {"type": "Feature", "geometry": {"type": "Point", "coordinates": [-71.123889, 42.717222]}, "properties": {"facility_name": "BORDEN PACKAGING & INDUSTRIAL PRODUCTS", "industry": null, "tri_facility_id": "01845BRDNN1CLAR"}}, {"type": "Feature", "geometry": {"type": "Point", "coordinates": [-71.131621, 42.707243]}, "properties": {"facility_name": "SERVICE CHEMICAL LLC", "industry": null, "tri_facility_id": "01845SRVCC221SU"}}, {"type": "Feature", "geometry": {"type": "Point", "coordinates": [-71.12638888888888, 42.702222222222225]}, "properties": {"facility_name": "TOUR ANDOVER CONTROLS", "industry": null, "tri_facility_id": "01845TRNDV1HIGH"}}, {"type": "Feature", "geometry": {"type": "Point", "coordinates": [-71.115833, 42.729167]}, "properties": {"facility_name": "LUCENT TECHNOLOGIES INC", "industry": null, "tri_facility_id": "01845TTNTW1600O"}}, {"type": "Feature", "geometry": {"type": "Point", "coordinates": [-71.016667, 42.833333]}, "properties": {"facility_name": "COASTAL METAL FINISHING INC", "industry": null, "tri_facility_id": "01860CSTLM2LITT"}}, {"type": "Feature", "geometry": {"type": "Point", "coordinates": [-70.960556, 42.842778]}, "properties": {"facility_name": "BRAZONICS INC", "industry": null, "tri_facility_id": "01913BRZNCHAVER"}}, {"type": "Feature", "geometry": {"type": "Point", "coordinates": [-70.953793, 42.833672]}, "properties": {"facility_name": "AMESBURY INDUSTRIES INC", "industry": null, "tri_facility_id": "01913MSBRY57HUN"}}, {"type": "Feature", "geometry": {"type": "Point", "coordinates": [-70.963889, 42.843056]}, "properties": {"facility_name": "ADAMS-RUSSELL INC BRAZONICS DIVISION", "industry": null, "tri_facility_id": "01913NTNNMHAVER"}}, {"type": "Feature", "geometry": {"type": "Point", "coordinates": [-70.944444, 42.852778]}, "properties": {"facility_name": "SAGAMORE INDL FINISH CORP", "industry": null, "tri_facility_id": "01913SGMRNROCKY"}}, {"type": "Feature", "geometry": {"type": "Point", "coordinates": [-70.95, 42.836111111111116]}, "properties": {"facility_name": "M/A-COM CERAM INC", "industry": null, "tri_facility_id": "01913TCHCR18HUB"}}]}