{"type": "FeatureCollection", "features": [{"type": "Feature", "properties": {"area_id": 10327, "city": "Russellville", "state": "AR", "city_survey": false, "cat": "Best Residential Section", "grade": null, "label": "Best Residential Section", "res": true, "com": false, "ind": false, "holc_grade": null}, "geometry": {"type": "MultiPolygon", "coordinates": [[[[-93.13301, 35.27354], [-93.133, 35.27462], [-93.12767, 35.27451], [-93.12768, 35.27442], [-93.12771, 35.27345], [-93.13143, 35.27351], [-93.13301, 35.27354]]], [[[-93.12836, 35.27546], [-93.13294, 35.27549], [-93.13293, 35.27591], [-93.1329, 35.27694], [-93.13014, 35.27691], [-93.13014, 35.27648], [-93.12833, 35.27648], [-93.12836, 35.27546]]], [[[-93.13651, 35.27181], [-93.13664, 35.27181], [-93.13663, 35.2716], [-93.13807, 35.27161], [-93.13805, 35.27461], [-93.13817, 35.27535], [-93.137756, 35.276507], [-93.13744, 35.27739], [-93.13776, 35.27746], [-93.1375, 35.27825], [-93.13824, 35.27843], [-93.13825, 35.27881], [-93.14001, 35.2794], [-93.14005, 35.27933], [-93.1406, 35.2795], [-93.14062, 35.27958], [-93.142256, 35.280053], [-93.14639, 35.28125], [-93.14628, 35.28143], [-93.14624, 35.28161], [-93.14704, 35.28185], [-93.14718, 35.2815], [-93.15006, 35.28237], [-93.15309, 35.28333], [-93.152869, 35.283757], [-93.1528, 35.28389], [-93.14991, 35.28295], [-93.14978, 35.28323], [-93.14402, 35.28157], [-93.14384, 35.28191], [-93.14293, 35.28162], [-93.14303, 35.2813], [-93.13899, 35.28008], [-93.13916, 35.27975], [-93.13885, 35.27966], [-93.13895, 35.27942], [-93.13645, 35.27865], [-93.13669, 35.27804], [-93.13563, 35.27766], [-93.136282, 35.276078], [-93.13666, 35.27516], [-93.13647, 35.27411], [-93.13651, 35.27181]]]]}}, {"type": "Feature", "properties": {"area_id": 10329, "city": "Russellville", "state": "AR", "city_survey": false, "cat": "Blighted District", "grade": null, "label": "Blighted District", "res": true, "com": false, "ind": false, "holc_grade": null}, "geometry": {"type": "MultiPolygon", "coordinates": [[[[-93.12639, 35.27598], [-93.12703, 35.27598], [-93.12691, 35.27694], [-93.12698, 35.27704], [-93.12832, 35.27703], [-93.128334, 35.277537], [-93.12834, 35.27777], [-93.1308, 35.27852], [-93.13294, 35.27946], [-93.13286, 35.28071], [-93.12442, 35.28057], [-93.12438, 35.28264], [-93.12609, 35.28266], [-93.12607, 35.28161], [-93.13204, 35.28173], [-93.13206, 35.28133], [-93.13277, 35.28135], [-93.13279, 35.28279], [-93.13204, 35.28277], [-93.1281, 35.28269], [-93.12804, 35.28695], [-93.12796, 35.28891], [-93.12908, 35.28895], [-93.12904, 35.29073], [-93.1295, 35.29075], [-93.1295, 35.2898], [-93.13165, 35.28987], [-93.13154, 35.29192], [-93.13283, 35.29194], [-93.1328, 35.29326], [-93.11985, 35.29306], [-93.12005, 35.28941], [-93.11999, 35.28807], [-93.12023, 35.28692], [-93.12043, 35.28308], [-93.12053, 35.27834], [-93.120522, 35.276154], [-93.12052, 35.27546], [-93.12196, 35.27539], [-93.12646, 35.27546], [-93.12639, 35.27598]]], [[[-93.13383, 35.26413], [-93.13366, 35.26501], [-93.13345, 35.27158], [-93.13297, 35.27157], [-93.13301, 35.27354], [-93.13143, 35.27351], [-93.13147, 35.27217], [-93.12973, 35.27215], [-93.12973, 35.27185], [-93.12904, 35.27181], [-93.1291, 35.27032], [-93.12907, 35.26899], [-93.12771, 35.26897], [-93.12767, 35.27127], [-93.12771, 35.27345], [-93.12768, 35.27442], [-93.12563, 35.2744], [-93.12567, 35.27333], [-93.12455, 35.27335], [-93.12448, 35.27434], [-93.12202, 35.27436], [-93.12058, 35.2744], [-93.12073, 35.26912], [-93.12083, 35.26848], [-93.12128, 35.26357], [-93.13383, 35.26413]]], [[[-93.13308, 35.28635], [-93.13305, 35.28698], [-93.12925, 35.28695], [-93.12924, 35.2858], [-93.13337, 35.28587], [-93.13338, 35.28635], [-93.13308, 35.28635]]], [[[-93.13507, 35.2804], [-93.14168, 35.28352], [-93.14073, 35.28489], [-93.13821, 35.28369], [-93.13817, 35.28464], [-93.13711, 35.2846], [-93.13581, 35.28454], [-93.13578, 35.28557], [-93.13358, 35.28551], [-93.13366, 35.28406], [-93.13402, 35.28405], [-93.13404, 35.28285], [-93.13507, 35.2804]]], [[[-93.13474, 35.27338], [-93.13591, 35.27335], [-93.13598, 35.27423], [-93.13613, 35.27515], [-93.13551, 35.27516], [-93.13483, 35.27514], [-93.13479, 35.27403], [-93.13474, 35.27338]]], [[[-93.14152, 35.26957], [-93.14162, 35.26705], [-93.14094, 35.26703], [-93.13866, 35.26697], [-93.13853, 35.26975], [-93.13663, 35.26972], [-93.13663, 35.2716], [-93.13664, 35.27181], [-93.13651, 35.27181], [-93.13504, 35.27173], [-93.13531, 35.26717], [-93.13602, 35.26721], [-93.13603, 35.26639], [-93.13557, 35.26637], [-93.13569, 35.26415], [-93.1371, 35.26405], [-93.13864, 35.26421], [-93.14111, 35.26426], [-93.14561, 35.26437], [-93.14552, 35.26798], [-93.14314, 35.26798], [-93.14302, 35.27162], [-93.14386, 35.27166], [-93.1437, 35.27726], [-93.1448, 35.27883], [-93.14721, 35.2789], [-93.14714, 35.28089], [-93.15269, 35.28267], [-93.1558, 35.28355], [-93.15568, 35.28405], [-93.15488, 35.2839], [-93.15309, 35.28333], [-93.15006, 35.28237], [-93.14718, 35.2815], [-93.14639, 35.28125], [-93.142256, 35.280053], [-93.14062, 35.27958], [-93.1406, 35.2795], [-93.14005, 35.27933], [-93.14023, 35.27889], [-93.14028, 35.27762], [-93.13993, 35.27756], [-93.139938, 35.276748], [-93.13999, 35.27166], [-93.14026, 35.27171], [-93.14034, 35.26954], [-93.14152, 35.26957]]], [[[-93.13877, 35.28087], [-93.13861, 35.28123], [-93.14033, 35.28174], [-93.14048, 35.28142], [-93.14254, 35.28205], [-93.14271, 35.28161], [-93.14293, 35.28162], [-93.14384, 35.28191], [-93.14376, 35.28205], [-93.14771, 35.28318], [-93.14744, 35.28386], [-93.14826, 35.28408], [-93.14853, 35.28342], [-93.14965, 35.28373], [-93.1497, 35.28362], [-93.15137, 35.28415], [-93.15141, 35.28615], [-93.14826, 35.28481], [-93.14762, 35.28589], [-93.14185, 35.28328], [-93.1368, 35.28098], [-93.13714, 35.28075], [-93.1373, 35.28042], [-93.13877, 35.28087]]]]}}, {"type": "Feature", "properties": {"area_id": 10330, "city": "Russellville", "state": "AR", "city_survey": false, "cat": "Business District", "grade": null, "label": "Business District", "res": false, "com": true, "ind": false, "holc_grade": null}, "geometry": {"type": "Polygon", "coordinates": [[[-93.13666, 35.27516], [-93.136282, 35.276078], [-93.13563, 35.27766], [-93.13669, 35.27804], [-93.13645, 35.27865], [-93.13895, 35.27942], [-93.13885, 35.27966], [-93.13767, 35.27927], [-93.1373, 35.28042], [-93.13714, 35.28075], [-93.1368, 35.28098], [-93.14185, 35.28328], [-93.14168, 35.28352], [-93.13507, 35.2804], [-93.13404, 35.28285], [-93.13402, 35.28405], [-93.13366, 35.28406], [-93.13358, 35.28551], [-93.133486, 35.28551], [-93.13337, 35.28551], [-93.13348, 35.28326], [-93.13273, 35.2832], [-93.13279, 35.28279], [-93.13277, 35.28135], [-93.13206, 35.28133], [-93.1328, 35.28114], [-93.13286, 35.28071], [-93.13294, 35.27946], [-93.1308, 35.27852], [-93.12834, 35.27777], [-93.128334, 35.277537], [-93.12832, 35.27703], [-93.1301, 35.27702], [-93.13014, 35.27691], [-93.1329, 35.27694], [-93.13293, 35.27591], [-93.133772, 35.27591], [-93.13392, 35.27591], [-93.13391, 35.27629], [-93.13454, 35.27629], [-93.1349, 35.27642], [-93.13524, 35.27583], [-93.135269, 35.275758], [-93.13551, 35.27516], [-93.13613, 35.27515], [-93.13666, 35.27516]], [[-93.13083, 35.27794], [-93.13093, 35.2782], [-93.1319, 35.27857], [-93.13286, 35.27857], [-93.13289, 35.2776], [-93.13361, 35.27758], [-93.13363, 35.27715], [-93.12961, 35.27712], [-93.129593, 35.277833], [-93.12959, 35.27794], [-93.129819, 35.27794], [-93.13083, 35.27794]], [[-93.13639, 35.27539], [-93.13573, 35.27518], [-93.135422, 35.275804], [-93.13505, 35.27656], [-93.13474, 35.27645], [-93.13435, 35.27642], [-93.13434, 35.27664], [-93.13389, 35.27662], [-93.13388, 35.27699], [-93.13433, 35.2772], [-93.13434, 35.27675], [-93.13567, 35.2772], [-93.136135, 35.276032], [-93.13639, 35.27539]]]}}, {"type": "Feature", "properties": {"area_id": 10328, "city": "Russellville", "state": "AR", "city_survey": false, "cat": "Second Best Residential Section", "grade": null, "label": "Second Best Residential Section", "res": true, "com": false, "ind": false, "holc_grade": null}, "geometry": {"type": "MultiPolygon", "coordinates": [[[[-93.13531, 35.26717], [-93.13504, 35.27173], [-93.13651, 35.27181], [-93.13647, 35.27411], [-93.13666, 35.27516], [-93.13613, 35.27515], [-93.13598, 35.27423], [-93.13591, 35.27335], [-93.13474, 35.27338], [-93.13479, 35.27403], [-93.13483, 35.27514], [-93.13551, 35.27516], [-93.135269, 35.275758], [-93.13524, 35.27583], [-93.1349, 35.27642], [-93.13454, 35.27629], [-93.13391, 35.27629], [-93.13392, 35.27591], [-93.133772, 35.27591], [-93.13293, 35.27591], [-93.13294, 35.27549], [-93.12836, 35.27546], [-93.12833, 35.27648], [-93.13014, 35.27648], [-93.13014, 35.27691], [-93.1301, 35.27702], [-93.12832, 35.27703], [-93.12698, 35.27704], [-93.12691, 35.27694], [-93.12703, 35.27598], [-93.12639, 35.27598], [-93.12646, 35.27546], [-93.12196, 35.27539], [-93.12052, 35.27546], [-93.12058, 35.2744], [-93.12202, 35.27436], [-93.12448, 35.27434], [-93.12455, 35.27335], [-93.12567, 35.27333], [-93.12563, 35.2744], [-93.12768, 35.27442], [-93.12767, 35.27451], [-93.133, 35.27462], [-93.13301, 35.27354], [-93.13297, 35.27157], [-93.13345, 35.27158], [-93.13366, 35.26501], [-93.13383, 35.26413], [-93.134272, 35.264135], [-93.13569, 35.26415], [-93.13557, 35.26637], [-93.13603, 35.26639], [-93.13602, 35.26721], [-93.13531, 35.26717]]], [[[-93.12609, 35.28266], [-93.12438, 35.28264], [-93.12442, 35.28057], [-93.13286, 35.28071], [-93.1328, 35.28114], [-93.13206, 35.28133], [-93.13204, 35.28173], [-93.12607, 35.28161], [-93.12609, 35.28266]]], [[[-93.1291, 35.27032], [-93.12904, 35.27181], [-93.12973, 35.27185], [-93.12973, 35.27215], [-93.13147, 35.27217], [-93.13143, 35.27351], [-93.12771, 35.27345], [-93.12767, 35.27127], [-93.12771, 35.26897], [-93.12907, 35.26899], [-93.1291, 35.27032]]], [[[-93.13347, 35.28941], [-93.133464, 35.289676], [-93.133428, 35.291181], [-93.13338, 35.29324], [-93.133159, 35.293248], [-93.1328, 35.29326], [-93.13283, 35.29194], [-93.13154, 35.29192], [-93.13165, 35.28987], [-93.1295, 35.2898], [-93.1295, 35.29075], [-93.12904, 35.29073], [-93.12908, 35.28895], [-93.12796, 35.28891], [-93.12804, 35.28695], [-93.1281, 35.28269], [-93.13204, 35.28277], [-93.13279, 35.28279], [-93.13273, 35.2832], [-93.13348, 35.28326], [-93.13337, 35.28551], [-93.133486, 35.28551], [-93.13358, 35.28551], [-93.13578, 35.28557], [-93.13581, 35.28454], [-93.13711, 35.2846], [-93.137, 35.2895], [-93.13347, 35.28941]], [[-93.13305, 35.28698], [-93.13308, 35.28635], [-93.13338, 35.28635], [-93.13337, 35.28587], [-93.12924, 35.2858], [-93.12925, 35.28695], [-93.13305, 35.28698]]], [[[-93.13286, 35.27857], [-93.1319, 35.27857], [-93.13093, 35.2782], [-93.13083, 35.27794], [-93.129819, 35.27794], [-93.12959, 35.27794], [-93.129593, 35.277833], [-93.12961, 35.27712], [-93.13363, 35.27715], [-93.13361, 35.27758], [-93.13289, 35.2776], [-93.13286, 35.27857]]], [[[-93.13573, 35.27518], [-93.13639, 35.27539], [-93.136135, 35.276032], [-93.13567, 35.2772], [-93.13434, 35.27675], [-93.13433, 35.2772], [-93.13388, 35.27699], [-93.13389, 35.27662], [-93.13434, 35.27664], [-93.13435, 35.27642], [-93.13474, 35.27645], [-93.13505, 35.27656], [-93.135422, 35.275804], [-93.13573, 35.27518]]], [[[-93.13663, 35.26972], [-93.13853, 35.26975], [-93.13866, 35.26697], [-93.14094, 35.26703], [-93.14162, 35.26705], [-93.14152, 35.26957], [-93.14034, 35.26954], [-93.14026, 35.27171], [-93.13999, 35.27166], [-93.139938, 35.276748], [-93.13993, 35.27756], [-93.14028, 35.27762], [-93.14023, 35.27889], [-93.14005, 35.27933], [-93.14001, 35.2794], [-93.13825, 35.27881], [-93.13824, 35.27843], [-93.1375, 35.27825], [-93.13776, 35.27746], [-93.13744, 35.27739], [-93.137756, 35.276507], [-93.13817, 35.27535], [-93.13805, 35.27461], [-93.13807, 35.27161], [-93.13663, 35.2716], [-93.13663, 35.26972]]], [[[-93.14303, 35.2813], [-93.14293, 35.28162], [-93.14271, 35.28161], [-93.14254, 35.28205], [-93.14048, 35.28142], [-93.14033, 35.28174], [-93.13861, 35.28123], [-93.13877, 35.28087], [-93.1373, 35.28042], [-93.13767, 35.27927], [-93.13885, 35.27966], [-93.13916, 35.27975], [-93.13899, 35.28008], [-93.14303, 35.2813]]], [[[-93.14965, 35.28373], [-93.14853, 35.28342], [-93.14826, 35.28408], [-93.14744, 35.28386], [-93.14771, 35.28318], [-93.14376, 35.28205], [-93.14384, 35.28191], [-93.14402, 35.28157], [-93.14978, 35.28323], [-93.14991, 35.28295], [-93.1528, 35.28389], [-93.152869, 35.283757], [-93.15309, 35.28333], [-93.15488, 35.2839], [-93.15568, 35.28405], [-93.155515, 35.284552], [-93.15527, 35.2853], [-93.15344, 35.28481], [-93.15137, 35.28415], [-93.1497, 35.28362], [-93.14965, 35.28373]]], [[[-93.14639, 35.28125], [-93.14718, 35.2815], [-93.14704, 35.28185], [-93.14624, 35.28161], [-93.14628, 35.28143], [-93.14639, 35.28125]]]]}}]}