{"type": "FeatureCollection", "features": [{"type": "Feature", "geometry": {"type": "Point", "coordinates": [-93.093889, 35.259722]}, "properties": {"facility_name": "CONAGRA FOODS PACKAGED FOODS LLC- RUSSELLVILLE", "industry": null, "tri_facility_id": "72801CNGRFHWY64"}}, {"type": "Feature", "geometry": {"type": "Point", "coordinates": [-93.116667, 35.266667]}, "properties": {"facility_name": "MAHLE ENGINE COMPONENTS USA INC", "industry": null, "tri_facility_id": "72801DNCRP2301E"}}, {"type": "Feature", "geometry": {"type": "Point", "coordinates": [-93.16, 35.236944]}, "properties": {"facility_name": "OLIN RUSSELLVILLE CELL TECHNOLOGIES LLC", "industry": null, "tri_facility_id": "72801DWCHMLOCKA"}}, {"type": "Feature", "geometry": {"type": "Point", "coordinates": [-93.127983, 35.276886]}, "properties": {"facility_name": "FROLIC FOOTWEAR", "industry": null, "tri_facility_id": "72801FRLCF2NDAN"}}, {"type": "Feature", "geometry": {"type": "Point", "coordinates": [-93.103611, 35.277778]}, "properties": {"facility_name": "FIRESTONE TUBE CO", "industry": null, "tri_facility_id": "72801FRSTNHWY64"}}, {"type": "Feature", "geometry": {"type": "Point", "coordinates": [-93.131111, 35.243056]}, "properties": {"facility_name": "GRACE MANUFACTURING INC", "industry": null, "tri_facility_id": "72801GRCNGROUTE"}}, {"type": "Feature", "geometry": {"type": "Point", "coordinates": [-93.1089, 35.2896]}, "properties": {"facility_name": "ANITOX CORP", "industry": null, "tri_facility_id": "72801NTXCRHC30B"}}, {"type": "Feature", "geometry": {"type": "Point", "coordinates": [-93.102556, 35.2692]}, "properties": {"facility_name": "POM INC", "industry": null, "tri_facility_id": "72801PMNCR200SO"}}, {"type": "Feature", "geometry": {"type": "Point", "coordinates": [-93.119606, 35.276924]}, "properties": {"facility_name": "PURINA MILLS INC", "industry": null, "tri_facility_id": "72801PRNML1110E"}}, {"type": "Feature", "geometry": {"type": "Point", "coordinates": [-93.104167, 35.272222]}, "properties": {"facility_name": "RUSSELLVILLE DISTRIBUTION CENTER", "industry": null, "tri_facility_id": "72801RSSLL1000E"}}, {"type": "Feature", "geometry": {"type": "Point", "coordinates": [-93.155, 35.236111]}, "properties": {"facility_name": "SUPERIOR GRAPHITE CO", "industry": null, "tri_facility_id": "72801SPRRGLOCKD"}}, {"type": "Feature", "geometry": {"type": "Point", "coordinates": [-93.131944, 35.249444]}, "properties": {"facility_name": "DARLING INTERNATIONAL INC", "industry": null, "tri_facility_id": "72801STNDRHWY7T"}}, {"type": "Feature", "geometry": {"type": "Point", "coordinates": [-93.102556, 35.2692]}, "properties": {"facility_name": "TABER EXTRUSIONS LLC", "industry": null, "tri_facility_id": "72801TBRMT915SO"}}, {"type": "Feature", "geometry": {"type": "Point", "coordinates": [-93.152778, 35.229167]}, "properties": {"facility_name": "STELLA-JONES CORP", "industry": null, "tri_facility_id": "72801THMPSRT1BO"}}, {"type": "Feature", "geometry": {"type": "Point", "coordinates": [-93.104167, 35.272222]}, "properties": {"facility_name": "TYSON POULTRY, INC. - TYLER ROAD", "industry": null, "tri_facility_id": "72801TYSNFPOBOX"}}, {"type": "Feature", "geometry": {"type": "Point", "coordinates": [-93.081, 35.2751]}, "properties": {"facility_name": "TYSON VALLEY DISTRIBUTION CENTER", "industry": null, "tri_facility_id": "72801TYSNVHWY64"}}, {"type": "Feature", "geometry": {"type": "Point", "coordinates": [-93.125, 35.25]}, "properties": {"facility_name": "RUSSELLVILLE STEEL CO INC", "industry": null, "tri_facility_id": "72802RSSLL280ST"}}, {"type": "Feature", "geometry": {"type": "Point", "coordinates": [-93.1, 35.266666666666666]}, "properties": {"facility_name": "HACKNEY LADISH INC", "industry": null, "tri_facility_id": "72802TRNTY708SE"}}, {"type": "Feature", "geometry": {"type": "Point", "coordinates": [-93.13361111111112, 35.274166666666666]}, "properties": {"facility_name": "CARGILL ANIMAL NUTRITION", "industry": null, "tri_facility_id": "72847CRGLLHWY64"}}]}