{"type": "FeatureCollection", "features": [{"type": "Feature", "properties": {"area_id": 5416, "city": "Indianapolis", "state": "IN", "city_survey": true, "cat": "Best", "grade": "A", "label": "A1", "res": true, "com": false, "ind": false, "holc_grade": "A"}, "geometry": {"type": "Polygon", "coordinates": [[[-86.15985, 39.8302], [-86.16139, 39.8302], [-86.16138, 39.83243], [-86.16437, 39.83247], [-86.16442, 39.83375], [-86.17654, 39.83367], [-86.176515, 39.833853], [-86.17618, 39.83633], [-86.174413, 39.839946], [-86.17297, 39.8429], [-86.1719, 39.84417], [-86.17054, 39.8458], [-86.170258, 39.846092], [-86.169703, 39.846667], [-86.168135, 39.84829], [-86.16541, 39.85111], [-86.16149, 39.85412], [-86.16056, 39.85489], [-86.159531, 39.856058], [-86.15835, 39.8574], [-86.155, 39.86288], [-86.15222, 39.8666], [-86.14616, 39.8701], [-86.14623, 39.86206], [-86.1411, 39.86206], [-86.1411, 39.859504], [-86.1411, 39.859318], [-86.1411, 39.8574], [-86.14238, 39.8573], [-86.142304, 39.854245], [-86.142124, 39.846983], [-86.141942, 39.839673], [-86.141761, 39.832373], [-86.14167, 39.82872], [-86.154513, 39.828409], [-86.15985, 39.82828], [-86.15985, 39.8302]]]}}, {"type": "Feature", "properties": {"area_id": 5466, "city": "Indianapolis", "state": "IN", "city_survey": true, "cat": "Best", "grade": "A", "label": "A2", "res": true, "com": false, "ind": false, "holc_grade": "A"}, "geometry": {"type": "Polygon", "coordinates": [[[-86.165348, 39.872045], [-86.165425, 39.897635], [-86.165469, 39.912432], [-86.16547, 39.91272], [-86.165062, 39.912724], [-86.145803, 39.912934], [-86.14522, 39.91294], [-86.14522, 39.912553], [-86.14522, 39.91212], [-86.14515, 39.89631], [-86.1452, 39.87956], [-86.145925, 39.87937], [-86.14715, 39.87905], [-86.14886, 39.8781], [-86.15024, 39.87711], [-86.152559, 39.874549], [-86.154258, 39.872674], [-86.15447, 39.87244], [-86.15618, 39.87117], [-86.15765, 39.87025], [-86.158736, 39.86921], [-86.15955, 39.86843], [-86.160216, 39.867469], [-86.16122, 39.86602], [-86.16245, 39.86248], [-86.16533, 39.86594], [-86.165348, 39.872045]]]}}, {"type": "Feature", "properties": {"area_id": 5462, "city": "Indianapolis", "state": "IN", "city_survey": true, "cat": "Best", "grade": "A", "label": "A3", "res": true, "com": false, "ind": false, "holc_grade": "A"}, "geometry": {"type": "Polygon", "coordinates": [[[-86.17871, 39.85577], [-86.16973, 39.85588], [-86.16973, 39.85781], [-86.1683, 39.85814], [-86.16802, 39.86296], [-86.16302, 39.86288], [-86.16245, 39.86248], [-86.16416, 39.85413], [-86.16535, 39.85321], [-86.16816, 39.85227], [-86.17158, 39.85179], [-86.17334, 39.85168], [-86.176, 39.85157], [-86.17866, 39.85092], [-86.17871, 39.85577]]]}}, {"type": "Feature", "properties": {"area_id": 5412, "city": "Indianapolis", "state": "IN", "city_survey": true, "cat": "Best", "grade": "A", "label": "A4", "res": true, "com": false, "ind": false, "holc_grade": "A"}, "geometry": {"type": "Polygon", "coordinates": [[[-86.19016, 39.81746], [-86.19022, 39.82005], [-86.18957, 39.8217], [-86.18954, 39.82178], [-86.187763, 39.82179], [-86.1789, 39.82184], [-86.18047, 39.82102], [-86.18104, 39.81962], [-86.18083, 39.81878], [-86.18121, 39.81749], [-86.188491, 39.817471], [-86.18873, 39.81747], [-86.19016, 39.81746]]]}}, {"type": "Feature", "properties": {"area_id": 5432, "city": "Indianapolis", "state": "IN", "city_survey": true, "cat": "Best", "grade": "A", "label": "A5", "res": true, "com": false, "ind": false, "holc_grade": "A"}, "geometry": {"type": "Polygon", "coordinates": [[[-86.07638, 39.77345], [-86.07906, 39.77345], [-86.07957, 39.77275], [-86.08026, 39.77222], [-86.0814, 39.77165], [-86.08277, 39.77174], [-86.08277, 39.77178], [-86.08277, 39.77485], [-86.08277, 39.7749], [-86.082546, 39.774912], [-86.07963, 39.77507], [-86.07968, 39.77792], [-86.07968, 39.77796], [-86.07335, 39.77814], [-86.073302, 39.781598], [-86.0733, 39.78178], [-86.08294, 39.78165], [-86.08294, 39.78169], [-86.08296, 39.7834], [-86.064258, 39.783748], [-86.06417, 39.78375], [-86.06411, 39.78169], [-86.05767, 39.78169], [-86.055121, 39.78169], [-86.0551, 39.78169], [-86.05487, 39.77647], [-86.05487, 39.77645], [-86.05487, 39.77643], [-86.05945, 39.77604], [-86.05945, 39.77608], [-86.06411, 39.77568], [-86.06411, 39.77564], [-86.06411, 39.77354], [-86.06411, 39.77349], [-86.06414, 39.77349], [-86.07119, 39.77341], [-86.071288, 39.774807], [-86.0713, 39.77498], [-86.073626, 39.774922], [-86.07649, 39.77485], [-86.07638, 39.77349], [-86.07638, 39.77345]]]}}, {"type": "Feature", "properties": {"area_id": 5417, "city": "Indianapolis", "state": "IN", "city_survey": true, "cat": "Still Desirable", "grade": "B", "label": "B1", "res": true, "com": false, "ind": false, "holc_grade": "B"}, "geometry": {"type": "MultiPolygon", "coordinates": [[[[-86.15724, 39.81389], [-86.15724, 39.81414], [-86.157268, 39.817429], [-86.15733, 39.82458], [-86.16142, 39.82462], [-86.161419, 39.824857], [-86.16139, 39.8302], [-86.15985, 39.8302], [-86.15985, 39.82828], [-86.154513, 39.828409], [-86.14167, 39.82872], [-86.141761, 39.832373], [-86.141942, 39.839673], [-86.142124, 39.846983], [-86.142304, 39.854245], [-86.14238, 39.8573], [-86.1411, 39.8574], [-86.140999, 39.854255], [-86.14079, 39.84776], [-86.140765, 39.847], [-86.140525, 39.83969], [-86.140436, 39.836979], [-86.140364, 39.834801], [-86.140285, 39.832389], [-86.14028, 39.83223], [-86.140199, 39.829589], [-86.14017, 39.82866], [-86.14003, 39.8268], [-86.139755, 39.825419], [-86.13967, 39.82499], [-86.137036, 39.820042], [-86.13696, 39.8199], [-86.13725, 39.81908], [-86.137426, 39.818003], [-86.1376, 39.81694], [-86.13953, 39.81574], [-86.14167, 39.81497], [-86.142886, 39.81379], [-86.14302, 39.81366], [-86.142975, 39.813433], [-86.14252, 39.81114], [-86.142685, 39.811134], [-86.149615, 39.810876], [-86.15436, 39.8107], [-86.15479, 39.81097], [-86.15607, 39.81064], [-86.156061, 39.810178], [-86.155942, 39.803888], [-86.15593, 39.80325], [-86.157318, 39.80325], [-86.15743, 39.80325], [-86.157307, 39.810158], [-86.15724, 39.81389]]], [[[-86.14163, 39.87011], [-86.1411, 39.86206], [-86.14623, 39.86206], [-86.14616, 39.8701], [-86.146159, 39.8701], [-86.145721, 39.870101], [-86.14163, 39.87011]]]]}}, {"type": "Feature", "properties": {"area_id": 5450, "city": "Indianapolis", "state": "IN", "city_survey": true, "cat": "Still Desirable", "grade": "B", "label": "B10", "res": true, "com": false, "ind": false, "holc_grade": "B"}, "geometry": {"type": "Polygon", "coordinates": [[[-86.13935, 39.703067], [-86.13935, 39.708325], [-86.13935, 39.70984], [-86.13011, 39.7098], [-86.130063, 39.708337], [-86.12987, 39.70239], [-86.139343, 39.70229], [-86.13935, 39.70229], [-86.13935, 39.703067]]]}}, {"type": "Feature", "properties": {"area_id": 5444, "city": "Indianapolis", "state": "IN", "city_survey": true, "cat": "Still Desirable", "grade": "B", "label": "B11", "res": true, "com": false, "ind": false, "holc_grade": "B"}, "geometry": {"type": "Polygon", "coordinates": [[[-86.158813, 39.707769], [-86.159188, 39.722432], [-86.15926, 39.72524], [-86.158879, 39.729131], [-86.15881, 39.72983], [-86.15476, 39.72989], [-86.15487, 39.72621], [-86.152973, 39.722543], [-86.14933, 39.7155], [-86.14916, 39.71076], [-86.14916, 39.70791], [-86.14916, 39.70769], [-86.1588, 39.70725], [-86.158813, 39.707769]]]}}, {"type": "Feature", "properties": {"area_id": 5441, "city": "Indianapolis", "state": "IN", "city_survey": true, "cat": "Still Desirable", "grade": "B", "label": "B12", "res": true, "com": false, "ind": false, "holc_grade": "B"}, "geometry": {"type": "Polygon", "coordinates": [[[-86.14478, 39.72302], [-86.14853, 39.72997], [-86.15344, 39.7299], [-86.15476, 39.72989], [-86.15881, 39.72983], [-86.158933, 39.731732], [-86.15904, 39.73338], [-86.158967, 39.73338], [-86.15891, 39.73338], [-86.15652, 39.73338], [-86.15179, 39.73564], [-86.15174, 39.73715], [-86.149553, 39.737164], [-86.147642, 39.737177], [-86.144549, 39.737197], [-86.13952, 39.73723], [-86.137478, 39.73726], [-86.13416, 39.73731], [-86.13409, 39.73285], [-86.13409, 39.73034], [-86.136334, 39.73026], [-86.14051, 39.73011], [-86.14045, 39.72307], [-86.14478, 39.72302]]]}}, {"type": "Feature", "properties": {"area_id": 5439, "city": "Indianapolis", "state": "IN", "city_survey": true, "cat": "Still Desirable", "grade": "B", "label": "B13", "res": true, "com": false, "ind": false, "holc_grade": "B"}, "geometry": {"type": "Polygon", "coordinates": [[[-86.14238, 39.74359], [-86.149438, 39.74363], [-86.14951, 39.74363], [-86.14962, 39.75174], [-86.149619, 39.75174], [-86.144161, 39.751676], [-86.14277, 39.75166], [-86.142633, 39.748816], [-86.14238, 39.74359]]]}}, {"type": "Feature", "properties": {"area_id": 5469, "city": "Indianapolis", "state": "IN", "city_survey": true, "cat": "Still Desirable", "grade": "B", "label": "B14", "res": true, "com": false, "ind": false, "holc_grade": "B"}, "geometry": {"type": "Polygon", "coordinates": [[[-86.063263, 39.855049], [-86.06521, 39.85517], [-86.06652, 39.85508], [-86.070008, 39.855064], [-86.07502, 39.85504], [-86.075014, 39.855079], [-86.074882, 39.856002], [-86.07473, 39.85706], [-86.074024, 39.85819], [-86.07353, 39.85898], [-86.07205, 39.86025], [-86.068849, 39.862194], [-86.068234, 39.862568], [-86.06823, 39.86257], [-86.06521, 39.86389], [-86.064692, 39.863873], [-86.06372, 39.86384], [-86.06173, 39.86297], [-86.061337, 39.862561], [-86.06076, 39.86196], [-86.05927, 39.8617], [-86.05733, 39.86192], [-86.05574, 39.86213], [-86.055622, 39.855054], [-86.05562, 39.85495], [-86.06247, 39.855], [-86.063263, 39.855049]]]}}, {"type": "Feature", "properties": {"area_id": 5403, "city": "Indianapolis", "state": "IN", "city_survey": true, "cat": "Still Desirable", "grade": "B", "label": "B15", "res": true, "com": false, "ind": false, "holc_grade": "B"}, "geometry": {"type": "Polygon", "coordinates": [[[-86.24043, 39.78663], [-86.24048, 39.78163], [-86.2503, 39.78402], [-86.250672, 39.784083], [-86.25118, 39.78417], [-86.25111, 39.78652], [-86.25118, 39.78833], [-86.25127, 39.78996], [-86.25139, 39.79149], [-86.250799, 39.791267], [-86.24027, 39.78729], [-86.24043, 39.78663]]]}}, {"type": "Feature", "properties": {"area_id": 5470, "city": "Indianapolis", "state": "IN", "city_survey": true, "cat": "Still Desirable", "grade": "B", "label": "B16", "res": true, "com": false, "ind": false, "holc_grade": "B"}, "geometry": {"type": "MultiPolygon", "coordinates": [[[[-86.13075, 39.89702], [-86.13659, 39.89563], [-86.13667, 39.90184], [-86.12661, 39.90167], [-86.12668, 39.8974], [-86.13075, 39.89702]]], [[[-86.155, 39.86288], [-86.15699, 39.86365], [-86.15599, 39.86533], [-86.15566, 39.86737], [-86.15608, 39.86828], [-86.156177, 39.871095], [-86.15618, 39.87117], [-86.15447, 39.87244], [-86.154258, 39.872674], [-86.152559, 39.874549], [-86.15024, 39.87711], [-86.14834, 39.87624], [-86.14634, 39.8762], [-86.146161, 39.870122], [-86.14616, 39.8701], [-86.15222, 39.8666], [-86.155, 39.86288]]]]}}, {"type": "Feature", "properties": {"area_id": 5414, "city": "Indianapolis", "state": "IN", "city_survey": true, "cat": "Still Desirable", "grade": "B", "label": "B17", "res": true, "com": false, "ind": false, "holc_grade": "B"}, "geometry": {"type": "Polygon", "coordinates": [[[-86.18025, 39.8244], [-86.186772, 39.824375], [-86.188, 39.82437], [-86.187913, 39.82459], [-86.18662, 39.82787], [-86.18419, 39.83156], [-86.184103, 39.831608], [-86.17839, 39.83473], [-86.178351, 39.833809], [-86.17825, 39.83145], [-86.18229, 39.82907], [-86.180398, 39.824739], [-86.18025, 39.8244]]]}}, {"type": "Feature", "properties": {"area_id": 5461, "city": "Indianapolis", "state": "IN", "city_survey": true, "cat": "Still Desirable", "grade": "B", "label": "B2", "res": true, "com": false, "ind": false, "holc_grade": "B"}, "geometry": {"type": "Polygon", "coordinates": [[[-86.19313, 39.84432], [-86.190191, 39.844271], [-86.19016, 39.84427], [-86.19324, 39.85058], [-86.19028, 39.85067], [-86.19033, 39.85452], [-86.18868, 39.85456], [-86.188768, 39.856954], [-86.18879, 39.85754], [-86.188233, 39.857611], [-86.18551, 39.85796], [-86.18285, 39.85767], [-86.17895, 39.85781], [-86.17648, 39.85836], [-86.17438, 39.85938], [-86.17158, 39.86088], [-86.17049, 39.86219], [-86.16901, 39.86299], [-86.16802, 39.86296], [-86.1683, 39.85814], [-86.16973, 39.85781], [-86.16973, 39.85588], [-86.17871, 39.85577], [-86.17866, 39.85092], [-86.17985, 39.84949], [-86.18042, 39.84752], [-86.18056, 39.84533], [-86.18028, 39.84398], [-86.17985, 39.84146], [-86.188014, 39.839765], [-86.19016, 39.83932], [-86.19313, 39.84432]]]}}, {"type": "Feature", "properties": {"area_id": 5465, "city": "Indianapolis", "state": "IN", "city_survey": true, "cat": "Still Desirable", "grade": "B", "label": "B3", "res": true, "com": false, "ind": false, "holc_grade": "B"}, "geometry": {"type": "Polygon", "coordinates": [[[-86.137725, 39.86227], [-86.137591, 39.869376], [-86.13759, 39.86944], [-86.136407, 39.869194], [-86.13398, 39.86869], [-86.12709, 39.86883], [-86.127086, 39.868658], [-86.126947, 39.862338], [-86.12694, 39.86201], [-86.13773, 39.86201], [-86.137725, 39.86227]]]}}, {"type": "Feature", "properties": {"area_id": 5431, "city": "Indianapolis", "state": "IN", "city_survey": true, "cat": "Still Desirable", "grade": "B", "label": "B4", "res": true, "com": false, "ind": false, "holc_grade": "B"}, "geometry": {"type": "Polygon", "coordinates": [[[-86.09372, 39.78164], [-86.0936, 39.78629], [-86.08883, 39.78633], [-86.083272, 39.786378], [-86.08299, 39.78638], [-86.08296, 39.7834], [-86.08294, 39.78169], [-86.08294, 39.78165], [-86.083218, 39.78165], [-86.0932, 39.78165], [-86.09372, 39.78164]]]}}, {"type": "Feature", "properties": {"area_id": 5647, "city": "Indianapolis", "state": "IN", "city_survey": true, "cat": "Still Desirable", "grade": "B", "label": "B5", "res": true, "com": false, "ind": false, "holc_grade": "B"}, "geometry": {"type": "Polygon", "coordinates": [[[-86.054683, 39.771592], [-86.05932, 39.7713], [-86.05945, 39.77604], [-86.05487, 39.77643], [-86.05493, 39.77406], [-86.05493, 39.77402], [-86.04974, 39.77419], [-86.04963, 39.77191], [-86.052528, 39.771728], [-86.054683, 39.771592]]]}}, {"type": "Feature", "properties": {"area_id": 5434, "city": "Indianapolis", "state": "IN", "city_survey": true, "cat": "Still Desirable", "grade": "B", "label": "B6", "res": true, "com": false, "ind": false, "holc_grade": "B"}, "geometry": {"type": "Polygon", "coordinates": [[[-86.093194, 39.781461], [-86.0932, 39.78165], [-86.083218, 39.78165], [-86.08294, 39.78165], [-86.0733, 39.78178], [-86.073302, 39.781598], [-86.07335, 39.77814], [-86.07968, 39.77796], [-86.07968, 39.77792], [-86.07963, 39.77507], [-86.082546, 39.774912], [-86.08277, 39.7749], [-86.08277, 39.77485], [-86.08277, 39.77178], [-86.08277, 39.77174], [-86.0814, 39.77165], [-86.08026, 39.77222], [-86.07957, 39.77275], [-86.07906, 39.77345], [-86.07638, 39.77345], [-86.07638, 39.77349], [-86.07649, 39.77485], [-86.073626, 39.774922], [-86.0713, 39.77498], [-86.071288, 39.774807], [-86.07119, 39.77341], [-86.06414, 39.77349], [-86.06411, 39.77349], [-86.06411, 39.77354], [-86.06411, 39.77564], [-86.06411, 39.77568], [-86.05945, 39.77608], [-86.05945, 39.77604], [-86.05932, 39.7713], [-86.054683, 39.771592], [-86.052528, 39.771728], [-86.04963, 39.77191], [-86.049623, 39.771881], [-86.04962, 39.77187], [-86.054682, 39.771552], [-86.05932, 39.77126], [-86.06058, 39.77121], [-86.06063, 39.77349], [-86.06211, 39.77349], [-86.06212, 39.77349], [-86.062, 39.77117], [-86.062, 39.77113], [-86.064118, 39.770996], [-86.06422, 39.77099], [-86.06423, 39.77099], [-86.06417, 39.7695], [-86.06417, 39.76946], [-86.06571, 39.7692], [-86.06748, 39.76937], [-86.07044, 39.76889], [-86.07141, 39.76906], [-86.07324, 39.76915], [-86.07392, 39.76928], [-86.07632, 39.76863], [-86.07769, 39.76854], [-86.07889, 39.76885], [-86.08151, 39.76841], [-86.08208, 39.76902], [-86.08299, 39.76915], [-86.083056, 39.769137], [-86.08499, 39.76876], [-86.08858, 39.76744], [-86.092614, 39.766637], [-86.09275, 39.76661], [-86.092751, 39.766634], [-86.092995, 39.774801], [-86.093194, 39.781461]]]}}, {"type": "Feature", "properties": {"area_id": 5427, "city": "Indianapolis", "state": "IN", "city_survey": true, "cat": "Still Desirable", "grade": "B", "label": "B7", "res": true, "com": false, "ind": false, "holc_grade": "B"}, "geometry": {"type": "Polygon", "coordinates": [[[-86.114347, 39.774501], [-86.11437, 39.77612], [-86.1191, 39.7759], [-86.1191, 39.77718], [-86.11813, 39.77779], [-86.11819, 39.781335], [-86.11819, 39.78134], [-86.1166, 39.781357], [-86.10992, 39.78143], [-86.109921, 39.78137], [-86.110044, 39.774572], [-86.11009, 39.77205], [-86.11431, 39.77191], [-86.114347, 39.774501]]]}}, {"type": "Feature", "properties": {"area_id": 5448, "city": "Indianapolis", "state": "IN", "city_survey": true, "cat": "Still Desirable", "grade": "B", "label": "B8", "res": true, "com": false, "ind": false, "holc_grade": "B"}, "geometry": {"type": "Polygon", "coordinates": [[[-86.09754, 39.72055], [-86.10108, 39.72052], [-86.10284, 39.7205], [-86.10292, 39.723384], [-86.10313, 39.73095], [-86.10313, 39.7352], [-86.10062, 39.73525], [-86.10033, 39.72415], [-86.09018, 39.72441], [-86.090162, 39.723535], [-86.09001, 39.71599], [-86.09211, 39.715938], [-86.09731, 39.71581], [-86.09754, 39.72055]]]}}, {"type": "Feature", "properties": {"area_id": 5451, "city": "Indianapolis", "state": "IN", "city_survey": true, "cat": "Still Desirable", "grade": "B", "label": "B9", "res": true, "com": false, "ind": false, "holc_grade": "B"}, "geometry": {"type": "Polygon", "coordinates": [[[-86.11083, 39.66408], [-86.11019, 39.66024], [-86.111047, 39.660231], [-86.12623, 39.66008], [-86.128013, 39.66491], [-86.12929, 39.66837], [-86.139471, 39.668282], [-86.14905, 39.6682], [-86.149124, 39.679034], [-86.14922, 39.693079], [-86.14928, 39.70194], [-86.13935, 39.70229], [-86.139343, 39.70229], [-86.12987, 39.70239], [-86.12979, 39.70118], [-86.122469, 39.700905], [-86.12102, 39.70085], [-86.120807, 39.69378], [-86.120381, 39.679661], [-86.12038, 39.67962], [-86.12074, 39.66913], [-86.111068, 39.669081], [-86.11097, 39.66908], [-86.11083, 39.66408]]]}}, {"type": "Feature", "properties": {"area_id": 5411, "city": "Indianapolis", "state": "IN", "city_survey": true, "cat": "Definitely Declining", "grade": "C", "label": "C1", "res": true, "com": false, "ind": false, "holc_grade": "C"}, "geometry": {"type": "MultiPolygon", "coordinates": [[[[-86.160216, 39.867469], [-86.15955, 39.86843], [-86.158736, 39.86921], [-86.15765, 39.87025], [-86.15618, 39.87117], [-86.156177, 39.871095], [-86.15608, 39.86828], [-86.15566, 39.86737], [-86.15599, 39.86533], [-86.15699, 39.86365], [-86.155, 39.86288], [-86.15835, 39.8574], [-86.159531, 39.856058], [-86.16056, 39.85489], [-86.16149, 39.85412], [-86.16416, 39.85413], [-86.16245, 39.86248], [-86.16122, 39.86602], [-86.160216, 39.867469]]], [[[-86.21565, 39.79542], [-86.21569, 39.79542], [-86.216, 39.80436], [-86.216026, 39.804361], [-86.22736, 39.80467], [-86.227399, 39.809542], [-86.22746, 39.8172], [-86.227936, 39.82397], [-86.227969, 39.824452], [-86.22806, 39.82574], [-86.22758, 39.84745], [-86.231873, 39.853383], [-86.24184, 39.86716], [-86.241842, 39.867392], [-86.241985, 39.882067], [-86.242127, 39.896715], [-86.24213, 39.89707], [-86.23637, 39.89755], [-86.216076, 39.897812], [-86.203015, 39.897981], [-86.18834, 39.89817], [-86.18836, 39.89748], [-86.188713, 39.885288], [-86.18914, 39.87055], [-86.189033, 39.869159], [-86.18839, 39.86083], [-86.18879, 39.85754], [-86.188768, 39.856954], [-86.18868, 39.85456], [-86.19033, 39.85452], [-86.19028, 39.85067], [-86.19324, 39.85058], [-86.19016, 39.84427], [-86.190191, 39.844271], [-86.19313, 39.84432], [-86.19016, 39.83932], [-86.18874, 39.83604], [-86.19125, 39.8345], [-86.19022, 39.83218], [-86.19324, 39.83218], [-86.19456, 39.83148], [-86.19461, 39.83004], [-86.19153, 39.82723], [-86.18988, 39.82535], [-86.189653, 39.824569], [-86.18914, 39.82281], [-86.18954, 39.82178], [-86.18957, 39.8217], [-86.19022, 39.82005], [-86.19016, 39.81746], [-86.18873, 39.81747], [-86.189152, 39.816022], [-86.18933, 39.81541], [-86.189709, 39.813089], [-86.18974, 39.8129], [-86.18963, 39.81167], [-86.18884, 39.81029], [-86.19125, 39.81023], [-86.19119, 39.80747], [-86.19123, 39.807469], [-86.196795, 39.807368], [-86.20389, 39.80724], [-86.20359, 39.79364], [-86.20989, 39.79359], [-86.21562, 39.79355], [-86.21565, 39.79542]]]]}}, {"type": "Feature", "properties": {"area_id": 5430, "city": "Indianapolis", "state": "IN", "city_survey": true, "cat": "Definitely Declining", "grade": "C", "label": "C10", "res": true, "com": false, "ind": false, "holc_grade": "C"}, "geometry": {"type": "Polygon", "coordinates": [[[-86.093398, 39.766605], [-86.096159, 39.766582], [-86.09765, 39.76657], [-86.102105, 39.766239], [-86.1025, 39.76621], [-86.1025, 39.76709], [-86.10484, 39.76709], [-86.106192, 39.769], [-86.10627, 39.76911], [-86.10627, 39.774636], [-86.10627, 39.77468], [-86.10227, 39.77485], [-86.102436, 39.781411], [-86.10244, 39.78156], [-86.10239, 39.78884], [-86.102237, 39.788839], [-86.095951, 39.788802], [-86.08876, 39.78876], [-86.08883, 39.78633], [-86.0936, 39.78629], [-86.09372, 39.78164], [-86.0932, 39.78165], [-86.093194, 39.781461], [-86.092995, 39.774801], [-86.092751, 39.766634], [-86.09275, 39.76661], [-86.093398, 39.766605]]]}}, {"type": "Feature", "properties": {"area_id": 5428, "city": "Indianapolis", "state": "IN", "city_survey": true, "cat": "Definitely Declining", "grade": "C", "label": "C11", "res": true, "com": false, "ind": false, "holc_grade": "C"}, "geometry": {"type": "Polygon", "coordinates": [[[-86.13114, 39.78158], [-86.131, 39.78454], [-86.13066, 39.78494], [-86.1227, 39.78941], [-86.11933, 39.79116], [-86.116579, 39.792093], [-86.11585, 39.79234], [-86.11351, 39.79265], [-86.11357, 39.79392], [-86.10712, 39.79396], [-86.10707, 39.79247], [-86.10244, 39.79256], [-86.10239, 39.78884], [-86.10244, 39.78156], [-86.10992, 39.78143], [-86.1166, 39.781357], [-86.11819, 39.78134], [-86.13114, 39.78158]]]}}, {"type": "Feature", "properties": {"area_id": 5426, "city": "Indianapolis", "state": "IN", "city_survey": true, "cat": "Definitely Declining", "grade": "C", "label": "C12", "res": true, "com": false, "ind": false, "holc_grade": "C"}, "geometry": {"type": "Polygon", "coordinates": [[[-86.130358, 39.767345], [-86.13045, 39.76885], [-86.13222, 39.76889], [-86.13245, 39.77069], [-86.13262, 39.77205], [-86.133451, 39.772187], [-86.13365, 39.77222], [-86.13382, 39.77459], [-86.13496, 39.77463], [-86.135018, 39.781269], [-86.13502, 39.78155], [-86.13114, 39.78158], [-86.11819, 39.78134], [-86.11819, 39.781335], [-86.11813, 39.77779], [-86.1191, 39.77718], [-86.1191, 39.7759], [-86.11437, 39.77612], [-86.114347, 39.774501], [-86.11431, 39.77191], [-86.11009, 39.77205], [-86.11009, 39.77051], [-86.121834, 39.769368], [-86.125429, 39.769019], [-86.12583, 39.76898], [-86.12583, 39.767671], [-86.12583, 39.76727], [-86.13034, 39.76705], [-86.130358, 39.767345]]]}}, {"type": "Feature", "properties": {"area_id": 8536, "city": "Indianapolis", "state": "IN", "city_survey": true, "cat": "Definitely Declining", "grade": "C", "label": "C13", "res": true, "com": false, "ind": false, "holc_grade": "C"}, "geometry": {"type": "Polygon", "coordinates": [[[-86.102105, 39.766239], [-86.09765, 39.76657], [-86.096159, 39.766582], [-86.093398, 39.766605], [-86.09275, 39.76661], [-86.083015, 39.764884], [-86.08237, 39.76477], [-86.07814, 39.76411], [-86.07832, 39.76174], [-86.07484, 39.76073], [-86.08294, 39.76043], [-86.082958, 39.759072], [-86.08299, 39.75661], [-86.10199, 39.756355], [-86.10233, 39.75635], [-86.1025, 39.76621], [-86.102105, 39.766239]]]}}, {"type": "Feature", "properties": {"area_id": 5453, "city": "Indianapolis", "state": "IN", "city_survey": true, "cat": "Definitely Declining", "grade": "C", "label": "C14", "res": true, "com": false, "ind": false, "holc_grade": "C"}, "geometry": {"type": "Polygon", "coordinates": [[[-86.04858, 39.70991], [-86.055134, 39.714048], [-86.070979, 39.724053], [-86.082193, 39.731134], [-86.08803, 39.73482], [-86.088069, 39.738188], [-86.08815, 39.74515], [-86.08785, 39.74725], [-86.08583, 39.74556], [-86.0828, 39.74583], [-86.082777, 39.74583], [-86.07549, 39.74592], [-86.06712, 39.73925], [-86.03527, 39.73994], [-86.03497, 39.72509], [-86.04537, 39.72504], [-86.044743, 39.724686], [-86.03485, 39.7191], [-86.03449, 39.71046], [-86.04858, 39.70991]]]}}, {"type": "Feature", "properties": {"area_id": 5447, "city": "Indianapolis", "state": "IN", "city_survey": true, "cat": "Definitely Declining", "grade": "C", "label": "C15", "res": true, "com": false, "ind": false, "holc_grade": "C"}, "geometry": {"type": "Polygon", "coordinates": [[[-86.11619, 39.72305], [-86.12093, 39.72314], [-86.12093, 39.723149], [-86.12116, 39.73753], [-86.111351, 39.737685], [-86.1085, 39.73773], [-86.10838, 39.73081], [-86.10313, 39.73095], [-86.10292, 39.723384], [-86.10284, 39.7205], [-86.111223, 39.720424], [-86.11163, 39.72042], [-86.11191, 39.72287], [-86.11619, 39.72305]]]}}, {"type": "Feature", "properties": {"area_id": 5438, "city": "Indianapolis", "state": "IN", "city_survey": true, "cat": "Definitely Declining", "grade": "C", "label": "C16", "res": true, "com": false, "ind": false, "holc_grade": "C"}, "geometry": {"type": "Polygon", "coordinates": [[[-86.13114, 39.74933], [-86.13211, 39.74929], [-86.13342, 39.74881], [-86.13473, 39.7478], [-86.13661, 39.74644], [-86.13867, 39.74565], [-86.138798, 39.752338], [-86.13884, 39.75451], [-86.13947, 39.75455], [-86.13952, 39.75639], [-86.13074, 39.75644], [-86.130671, 39.756441], [-86.12629, 39.75648], [-86.12623, 39.75464], [-86.12344, 39.75464], [-86.12338, 39.75245], [-86.12617, 39.75236], [-86.12583, 39.7499], [-86.12509, 39.74995], [-86.12492, 39.7453], [-86.13005, 39.74516], [-86.13017, 39.74766], [-86.130583, 39.747626], [-86.13114, 39.74758], [-86.13114, 39.74933]]]}}, {"type": "Feature", "properties": {"area_id": 5445, "city": "Indianapolis", "state": "IN", "city_survey": true, "cat": "Definitely Declining", "grade": "C", "label": "C17", "res": true, "com": false, "ind": false, "holc_grade": "C"}, "geometry": {"type": "Polygon", "coordinates": [[[-86.13416, 39.73731], [-86.13, 39.73738], [-86.13, 39.73296], [-86.13409, 39.73285], [-86.13416, 39.73731]]]}}, {"type": "Feature", "properties": {"area_id": 5440, "city": "Indianapolis", "state": "IN", "city_survey": true, "cat": "Definitely Declining", "grade": "C", "label": "C18", "res": true, "com": false, "ind": false, "holc_grade": "C"}, "geometry": {"type": "Polygon", "coordinates": [[[-86.15174, 39.73715], [-86.15179, 39.73564], [-86.15652, 39.73338], [-86.15891, 39.73338], [-86.158967, 39.73338], [-86.15904, 39.73338], [-86.15909, 39.74005], [-86.159045, 39.740051], [-86.15367, 39.74012], [-86.15367, 39.74008], [-86.153612, 39.737226], [-86.15361, 39.73714], [-86.15174, 39.73715]]]}}, {"type": "Feature", "properties": {"area_id": 5435, "city": "Indianapolis", "state": "IN", "city_survey": true, "cat": "Definitely Declining", "grade": "C", "label": "C19", "res": true, "com": false, "ind": false, "holc_grade": "C"}, "geometry": {"type": "MultiPolygon", "coordinates": [[[[-86.08299, 39.76915], [-86.08208, 39.76902], [-86.08151, 39.76841], [-86.07889, 39.76885], [-86.07769, 39.76854], [-86.07632, 39.76863], [-86.07392, 39.76928], [-86.07324, 39.76915], [-86.07141, 39.76906], [-86.07044, 39.76889], [-86.06748, 39.76937], [-86.06571, 39.7692], [-86.06417, 39.76946], [-86.064094, 39.768969], [-86.064004, 39.768383], [-86.06394, 39.76797], [-86.05915, 39.76814], [-86.05909, 39.76687], [-86.064035, 39.766658], [-86.06423, 39.76665], [-86.06417, 39.76113], [-86.07814, 39.76411], [-86.08237, 39.76477], [-86.08259, 39.76735], [-86.083036, 39.767357], [-86.084388, 39.767377], [-86.08858, 39.76744], [-86.08499, 39.76876], [-86.083056, 39.769137], [-86.08299, 39.76915]]], [[[-86.14916, 39.70791], [-86.14916, 39.71076], [-86.14933, 39.7155], [-86.152973, 39.722543], [-86.15487, 39.72621], [-86.15476, 39.72989], [-86.15344, 39.7299], [-86.14958, 39.722605], [-86.1458, 39.71546], [-86.139474, 39.715628], [-86.13941, 39.71563], [-86.13935, 39.70984], [-86.13935, 39.708325], [-86.13935, 39.703067], [-86.13935, 39.70229], [-86.14928, 39.70194], [-86.14916, 39.70769], [-86.14916, 39.70791]]]]}}, {"type": "Feature", "properties": {"area_id": 5415, "city": "Indianapolis", "state": "IN", "city_survey": true, "cat": "Definitely Declining", "grade": "C", "label": "C2", "res": true, "com": false, "ind": false, "holc_grade": "C"}, "geometry": {"type": "Polygon", "coordinates": [[[-86.16137, 39.8137], [-86.163864, 39.81359], [-86.16455, 39.81356], [-86.1647, 39.82433], [-86.17155, 39.82426], [-86.171567, 39.824797], [-86.17179, 39.83163], [-86.17654, 39.83163], [-86.17654, 39.83367], [-86.16442, 39.83375], [-86.16437, 39.83247], [-86.16138, 39.83243], [-86.16139, 39.8302], [-86.161419, 39.824857], [-86.16142, 39.82462], [-86.15733, 39.82458], [-86.157268, 39.817429], [-86.15724, 39.81414], [-86.15724, 39.81389], [-86.16137, 39.8137]]]}}, {"type": "Feature", "properties": {"area_id": 5406, "city": "Indianapolis", "state": "IN", "city_survey": true, "cat": "Definitely Declining", "grade": "C", "label": "C20", "res": true, "com": false, "ind": false, "holc_grade": "C"}, "geometry": {"type": "Polygon", "coordinates": [[[-86.22215, 39.77188], [-86.22227, 39.77365], [-86.22529, 39.77362], [-86.22544, 39.77988], [-86.22572, 39.77988], [-86.225735, 39.780354], [-86.22582, 39.78303], [-86.22574, 39.7854], [-86.22567, 39.786844], [-86.22565, 39.78725], [-86.22197, 39.7874], [-86.21545, 39.78769], [-86.215454, 39.787832], [-86.21562, 39.79355], [-86.20989, 39.79359], [-86.20359, 39.79364], [-86.20034, 39.79068], [-86.20107, 39.78858], [-86.20086, 39.78811], [-86.200855, 39.787997], [-86.20055, 39.78075], [-86.20155, 39.78078], [-86.201549, 39.780704], [-86.20145, 39.77455], [-86.20371, 39.77452], [-86.20374, 39.77375], [-86.21131, 39.776615], [-86.216133, 39.778441], [-86.21629, 39.7785], [-86.21626, 39.77198], [-86.22215, 39.77188]]]}}, {"type": "Feature", "properties": {"area_id": 5408, "city": "Indianapolis", "state": "IN", "city_survey": true, "cat": "Definitely Declining", "grade": "C", "label": "C21", "res": true, "com": false, "ind": false, "holc_grade": "C"}, "geometry": {"type": "Polygon", "coordinates": [[[-86.20336, 39.76509], [-86.20614, 39.76471], [-86.206146, 39.765318], [-86.20621, 39.77245], [-86.20366, 39.77253], [-86.196903, 39.769779], [-86.19661, 39.76966], [-86.19639, 39.76334], [-86.196871, 39.763322], [-86.20332, 39.76308], [-86.20336, 39.76509]]]}}, {"type": "Feature", "properties": {"area_id": 5402, "city": "Indianapolis", "state": "IN", "city_survey": true, "cat": "Definitely Declining", "grade": "C", "label": "C22", "res": true, "com": false, "ind": false, "holc_grade": "C"}, "geometry": {"type": "MultiPolygon", "coordinates": [[[[-86.28895, 39.73771], [-86.28916, 39.74999], [-86.289001, 39.749997], [-86.269879, 39.7508], [-86.26037, 39.7512], [-86.260558, 39.76134], [-86.26058, 39.76253], [-86.260962, 39.77224], [-86.26109, 39.77548], [-86.261185, 39.779766], [-86.26132, 39.78591], [-86.25118, 39.78417], [-86.250672, 39.784083], [-86.2503, 39.78402], [-86.24048, 39.78163], [-86.24017, 39.78155], [-86.232847, 39.780248], [-86.23224, 39.78014], [-86.23075, 39.77998], [-86.22572, 39.77988], [-86.22544, 39.77988], [-86.22529, 39.77362], [-86.22227, 39.77365], [-86.22215, 39.77188], [-86.21626, 39.77198], [-86.21624, 39.7674], [-86.213567, 39.764169], [-86.20829, 39.75779], [-86.21352, 39.75649], [-86.21608, 39.755826], [-86.225911, 39.753275], [-86.226684, 39.753075], [-86.228, 39.752733], [-86.23422, 39.75112], [-86.236042, 39.750764], [-86.23724, 39.75053], [-86.24979, 39.74788], [-86.249757, 39.747417], [-86.2497, 39.7466], [-86.250214, 39.746483], [-86.26029, 39.74418], [-86.26275, 39.74363], [-86.26279, 39.74211], [-86.26287, 39.73579], [-86.264661, 39.735725], [-86.270469, 39.735514], [-86.27802, 39.73524], [-86.278004, 39.737894], [-86.27799, 39.74019], [-86.288828, 39.737738], [-86.28895, 39.73771]]], [[[-86.25139, 39.79149], [-86.251392, 39.791864], [-86.25146, 39.80236], [-86.250994, 39.802362], [-86.239749, 39.802406], [-86.23882, 39.80241], [-86.2387, 39.78778], [-86.239523, 39.787523], [-86.239826, 39.787429], [-86.24027, 39.78729], [-86.250799, 39.791267], [-86.25139, 39.79149]]]]}}, {"type": "Feature", "properties": {"area_id": 5452, "city": "Indianapolis", "state": "IN", "city_survey": true, "cat": "Definitely Declining", "grade": "C", "label": "C23", "res": true, "com": false, "ind": false, "holc_grade": "C"}, "geometry": {"type": "Polygon", "coordinates": [[[-86.12102, 39.70085], [-86.122469, 39.700905], [-86.12979, 39.70118], [-86.12987, 39.70239], [-86.130063, 39.708337], [-86.13011, 39.7098], [-86.1296, 39.71546], [-86.12235, 39.71248], [-86.115801, 39.708807], [-86.11536, 39.70856], [-86.108769, 39.704864], [-86.106428, 39.703551], [-86.10113, 39.70058], [-86.101087, 39.694197], [-86.10099, 39.67984], [-86.111025, 39.679726], [-86.12038, 39.67962], [-86.120381, 39.679661], [-86.120807, 39.69378], [-86.12102, 39.70085]]]}}, {"type": "Feature", "properties": {"area_id": 5443, "city": "Indianapolis", "state": "IN", "city_survey": true, "cat": "Definitely Declining", "grade": "C", "label": "C24", "res": true, "com": false, "ind": false, "holc_grade": "C"}, "geometry": {"type": "Polygon", "coordinates": [[[-86.16679, 39.68579], [-86.17557, 39.68579], [-86.177478, 39.689233], [-86.18744, 39.70721], [-86.187489, 39.721949], [-86.1875, 39.72524], [-86.17626, 39.7266], [-86.16205, 39.72687], [-86.16194, 39.72516], [-86.15926, 39.72524], [-86.159188, 39.722432], [-86.158813, 39.707769], [-86.1588, 39.70725], [-86.15886, 39.70041], [-86.158461, 39.69307], [-86.1584, 39.69194], [-86.15846, 39.68619], [-86.16679, 39.68579]]]}}, {"type": "Feature", "properties": {"area_id": 5648, "city": "Indianapolis", "state": "IN", "city_survey": true, "cat": "Definitely Declining", "grade": "C", "label": "C3", "res": true, "com": false, "ind": false, "holc_grade": "C"}, "geometry": {"type": "MultiPolygon", "coordinates": [[[[-86.189709, 39.813089], [-86.18933, 39.81541], [-86.189152, 39.816022], [-86.18873, 39.81747], [-86.188491, 39.817471], [-86.18121, 39.81749], [-86.17693, 39.81751], [-86.17516, 39.81339], [-86.16455, 39.81356], [-86.16453, 39.813128], [-86.16444, 39.8112], [-86.168371, 39.811144], [-86.17362, 39.81107], [-86.17362, 39.81063], [-86.18794, 39.81031], [-86.18851, 39.810297], [-86.18884, 39.81029], [-86.18963, 39.81167], [-86.18974, 39.8129], [-86.189709, 39.813089]]], [[[-86.20034, 39.79068], [-86.20359, 39.79364], [-86.20389, 39.80724], [-86.196795, 39.807368], [-86.19123, 39.807469], [-86.19119, 39.80747], [-86.18777, 39.80747], [-86.187603, 39.800592], [-86.18748, 39.79551], [-86.18309, 39.79538], [-86.18298, 39.79095], [-86.196899, 39.790735], [-86.19915, 39.7907], [-86.19919, 39.79074], [-86.20034, 39.79068]]]]}}, {"type": "Feature", "properties": {"area_id": 5418, "city": "Indianapolis", "state": "IN", "city_survey": true, "cat": "Definitely Declining", "grade": "C", "label": "C4", "res": true, "com": false, "ind": false, "holc_grade": "C"}, "geometry": {"type": "MultiPolygon", "coordinates": [[[[-86.156643, 39.794974], [-86.15593, 39.80325], [-86.155942, 39.803888], [-86.156061, 39.810178], [-86.15607, 39.81064], [-86.15479, 39.81097], [-86.15436, 39.8107], [-86.149615, 39.810876], [-86.142685, 39.811134], [-86.14252, 39.81114], [-86.142975, 39.813433], [-86.14302, 39.81366], [-86.142886, 39.81379], [-86.14167, 39.81497], [-86.13953, 39.81574], [-86.1376, 39.81694], [-86.13974, 39.810651], [-86.14036, 39.80883], [-86.14316, 39.80875], [-86.142645, 39.795903], [-86.14264, 39.79579], [-86.14526, 39.79579], [-86.14502, 39.78768], [-86.145194, 39.782749], [-86.14521, 39.78231], [-86.153948, 39.782171], [-86.15652, 39.78213], [-86.156526, 39.782705], [-86.15666, 39.79478], [-86.156643, 39.794974]]], [[[-86.16049, 39.79087], [-86.160596, 39.794989], [-86.16078, 39.80215], [-86.16021, 39.80243], [-86.160208, 39.802471], [-86.15999, 39.8084], [-86.16135, 39.8084], [-86.161357, 39.810132], [-86.16137, 39.8137], [-86.15724, 39.81389], [-86.157307, 39.810158], [-86.15743, 39.80325], [-86.157433, 39.803212], [-86.158042, 39.795009], [-86.15835, 39.79087], [-86.16049, 39.79087]]]]}}, {"type": "Feature", "properties": {"area_id": 5468, "city": "Indianapolis", "state": "IN", "city_survey": true, "cat": "Definitely Declining", "grade": "C", "label": "C5", "res": true, "com": false, "ind": false, "holc_grade": "C"}, "geometry": {"type": "MultiPolygon", "coordinates": [[[[-86.139755, 39.825419], [-86.14003, 39.8268], [-86.14017, 39.82866], [-86.140199, 39.829589], [-86.14028, 39.83223], [-86.140136, 39.832233], [-86.12614, 39.83254], [-86.12607, 39.83522], [-86.1218, 39.835429], [-86.12158, 39.83544], [-86.121689, 39.840257], [-86.121774, 39.844039], [-86.121855, 39.8476], [-86.12186, 39.84784], [-86.140555, 39.847761], [-86.14079, 39.84776], [-86.140999, 39.854255], [-86.1411, 39.8574], [-86.1411, 39.859318], [-86.1411, 39.859504], [-86.1411, 39.86206], [-86.14163, 39.87011], [-86.145721, 39.870101], [-86.146159, 39.8701], [-86.14296, 39.87153], [-86.14125, 39.87175], [-86.140542, 39.871656], [-86.13959, 39.87153], [-86.13702, 39.87033], [-86.13566, 39.870015], [-86.13538, 39.86995], [-86.1341, 39.87044], [-86.133359, 39.871224], [-86.133029, 39.871573], [-86.13239, 39.87225], [-86.13191, 39.8737], [-86.1268, 39.87379], [-86.12704, 39.88687], [-86.122032, 39.887157], [-86.12145, 39.88719], [-86.12151, 39.89152], [-86.12003, 39.89207], [-86.119505, 39.892307], [-86.11872, 39.89266], [-86.11801, 39.89321], [-86.11747, 39.89421], [-86.11723, 39.89517], [-86.116748, 39.896499], [-86.1167, 39.89663], [-86.11628, 39.89827], [-86.11599, 39.8995], [-86.11551, 39.90091], [-86.11486, 39.9021], [-86.11409, 39.90306], [-86.1123, 39.90379], [-86.11004, 39.90438], [-86.10773, 39.90474], [-86.10594, 39.90547], [-86.1047, 39.90638], [-86.10369, 39.90807], [-86.103438, 39.909602], [-86.10339, 39.90989], [-86.10291, 39.91149], [-86.09616, 39.91103], [-86.095028, 39.911154], [-86.090774, 39.911621], [-86.08568, 39.91218], [-86.081623, 39.912224], [-86.075109, 39.912294], [-86.06992, 39.91235], [-86.069336, 39.912347], [-86.059218, 39.912302], [-86.057815, 39.912296], [-86.055653, 39.912286], [-86.047059, 39.912248], [-86.040664, 39.912219], [-86.033031, 39.912185], [-86.03192, 39.91218], [-86.032052, 39.90527], [-86.03228, 39.89337], [-86.03242, 39.87925], [-86.033029, 39.878775], [-86.033221, 39.878626], [-86.034886, 39.877328], [-86.03677, 39.87586], [-86.036759, 39.875145], [-86.036443, 39.854995], [-86.03634, 39.84844], [-86.03635, 39.84056], [-86.046067, 39.840604], [-86.083846, 39.840773], [-86.0966, 39.84083], [-86.09743, 39.84029], [-86.10028, 39.84174], [-86.10157, 39.84066], [-86.1063, 39.84036], [-86.106431, 39.840263], [-86.10801, 39.83909], [-86.10978, 39.83646], [-86.11144, 39.83528], [-86.11201, 39.83449], [-86.11799, 39.83078], [-86.12676, 39.82875], [-86.129392, 39.825406], [-86.13485, 39.81847], [-86.135046, 39.818041], [-86.1357, 39.81661], [-86.13624, 39.81802], [-86.13696, 39.8199], [-86.137036, 39.820042], [-86.13967, 39.82499], [-86.139755, 39.825419]], [[-86.075014, 39.855079], [-86.07502, 39.85504], [-86.070008, 39.855064], [-86.06652, 39.85508], [-86.06521, 39.85517], [-86.063263, 39.855049], [-86.06247, 39.855], [-86.05562, 39.85495], [-86.055622, 39.855054], [-86.05574, 39.86213], [-86.05733, 39.86192], [-86.05927, 39.8617], [-86.06076, 39.86196], [-86.061337, 39.862561], [-86.06173, 39.86297], [-86.06372, 39.86384], [-86.064692, 39.863873], [-86.06521, 39.86389], [-86.06823, 39.86257], [-86.068234, 39.862568], [-86.068849, 39.862194], [-86.07205, 39.86025], [-86.07353, 39.85898], [-86.074024, 39.85819], [-86.07473, 39.85706], [-86.074882, 39.856002], [-86.075014, 39.855079]], [[-86.137591, 39.869376], [-86.137725, 39.86227], [-86.13773, 39.86201], [-86.12694, 39.86201], [-86.126947, 39.862338], [-86.127086, 39.868658], [-86.12709, 39.86883], [-86.13398, 39.86869], [-86.136407, 39.869194], [-86.13759, 39.86944], [-86.137591, 39.869376]]], [[[-86.14077, 39.89089], [-86.14123, 39.89622], [-86.14515, 39.89631], [-86.14522, 39.91212], [-86.108279, 39.911482], [-86.10583, 39.91144], [-86.106293, 39.910729], [-86.10684, 39.90989], [-86.10903, 39.90784], [-86.112156, 39.905955], [-86.11379, 39.90497], [-86.114485, 39.904898], [-86.11729, 39.90461], [-86.12062, 39.90155], [-86.12661, 39.90167], [-86.13667, 39.90184], [-86.13659, 39.89563], [-86.13857, 39.89385], [-86.14077, 39.89089]]]]}}, {"type": "Feature", "properties": {"area_id": 5459, "city": "Indianapolis", "state": "IN", "city_survey": true, "cat": "Definitely Declining", "grade": "C", "label": "C6", "res": true, "com": false, "ind": false, "holc_grade": "C"}, "geometry": {"type": "Polygon", "coordinates": [[[-86.08391, 39.82557], [-86.102713, 39.82557], [-86.11236, 39.82557], [-86.11742, 39.82557], [-86.11799, 39.83078], [-86.11201, 39.83449], [-86.11144, 39.83528], [-86.10978, 39.83646], [-86.10801, 39.83909], [-86.106431, 39.840263], [-86.1063, 39.84036], [-86.10157, 39.84066], [-86.10028, 39.84174], [-86.09743, 39.84029], [-86.0966, 39.84083], [-86.083846, 39.840773], [-86.046067, 39.840604], [-86.03635, 39.84056], [-86.036351, 39.840372], [-86.03643, 39.825739], [-86.03647, 39.81829], [-86.06423, 39.81835], [-86.064701, 39.81835], [-86.08355, 39.81835], [-86.083631, 39.819969], [-86.083907, 39.825514], [-86.08391, 39.82557]]]}}, {"type": "Feature", "properties": {"area_id": 5460, "city": "Indianapolis", "state": "IN", "city_survey": true, "cat": "Definitely Declining", "grade": "C", "label": "C7", "res": true, "com": false, "ind": false, "holc_grade": "C"}, "geometry": {"type": "Polygon", "coordinates": [[[-86.140436, 39.836979], [-86.140525, 39.83969], [-86.140765, 39.847], [-86.14079, 39.84776], [-86.140555, 39.847761], [-86.12186, 39.84784], [-86.121855, 39.8476], [-86.121774, 39.844039], [-86.121689, 39.840257], [-86.12158, 39.83544], [-86.1218, 39.835429], [-86.12607, 39.83522], [-86.12614, 39.83254], [-86.140136, 39.832233], [-86.14028, 39.83223], [-86.140285, 39.832389], [-86.140364, 39.834801], [-86.140436, 39.836979]]]}}, {"type": "Feature", "properties": {"area_id": 5458, "city": "Indianapolis", "state": "IN", "city_survey": true, "cat": "Definitely Declining", "grade": "C", "label": "C8", "res": true, "com": false, "ind": false, "holc_grade": "C"}, "geometry": {"type": "Polygon", "coordinates": [[[-86.097803, 39.811939], [-86.10416, 39.81188], [-86.10416, 39.81457], [-86.10566, 39.81457], [-86.105583, 39.81816], [-86.10558, 39.81829], [-86.11186, 39.81829], [-86.111864, 39.818142], [-86.11203, 39.81116], [-86.12149, 39.81106], [-86.121637, 39.8155], [-86.121723, 39.818105], [-86.12173, 39.81832], [-86.13485, 39.81847], [-86.129392, 39.825406], [-86.12676, 39.82875], [-86.11799, 39.83078], [-86.11742, 39.82557], [-86.11236, 39.82557], [-86.102713, 39.82557], [-86.08391, 39.82557], [-86.083907, 39.825514], [-86.083631, 39.819969], [-86.08355, 39.81835], [-86.083606, 39.81835], [-86.08598, 39.81835], [-86.08598, 39.814655], [-86.08598, 39.8144], [-86.09767, 39.81429], [-86.09774, 39.81194], [-86.097803, 39.811939]]]}}, {"type": "Feature", "properties": {"area_id": 5454, "city": "Indianapolis", "state": "IN", "city_survey": true, "cat": "Definitely Declining", "grade": "C", "label": "C9", "res": true, "com": false, "ind": false, "holc_grade": "C"}, "geometry": {"type": "Polygon", "coordinates": [[[-86.05869, 39.75731], [-86.058848, 39.761093], [-86.05909, 39.76687], [-86.05915, 39.76814], [-86.059183, 39.768745], [-86.05932, 39.77126], [-86.054682, 39.771552], [-86.04962, 39.77187], [-86.049623, 39.771881], [-86.04963, 39.77191], [-86.04974, 39.77419], [-86.05493, 39.77402], [-86.05493, 39.77406], [-86.05487, 39.77643], [-86.05487, 39.77645], [-86.05487, 39.77647], [-86.0551, 39.78169], [-86.055121, 39.78169], [-86.05767, 39.78169], [-86.05774, 39.78444], [-86.05781, 39.78942], [-86.0459, 39.78959], [-86.046044, 39.796424], [-86.04605, 39.79671], [-86.04013, 39.7966], [-86.040127, 39.796439], [-86.03991, 39.78542], [-86.04476, 39.78635], [-86.04476, 39.78203], [-86.03542, 39.78203], [-86.035218, 39.772604], [-86.03499, 39.76197], [-86.034996, 39.761539], [-86.03514, 39.75117], [-86.0586, 39.75638], [-86.05869, 39.75731]]]}}, {"type": "Feature", "properties": {"area_id": 5463, "city": "Indianapolis", "state": "IN", "city_survey": true, "cat": "Hazardous", "grade": "D", "label": "D1", "res": true, "com": false, "ind": false, "holc_grade": "D"}, "geometry": {"type": "Polygon", "coordinates": [[[-86.170258, 39.846092], [-86.17054, 39.8458], [-86.1719, 39.84417], [-86.18028, 39.84398], [-86.18056, 39.84533], [-86.18042, 39.84752], [-86.17985, 39.84949], [-86.17866, 39.85092], [-86.176, 39.85157], [-86.17334, 39.85168], [-86.17158, 39.85179], [-86.16816, 39.85227], [-86.16535, 39.85321], [-86.16416, 39.85413], [-86.16149, 39.85412], [-86.16541, 39.85111], [-86.168135, 39.84829], [-86.169703, 39.846667], [-86.170258, 39.846092]]]}}, {"type": "Feature", "properties": {"area_id": 5425, "city": "Indianapolis", "state": "IN", "city_survey": true, "cat": "Hazardous", "grade": "D", "label": "D10", "res": true, "com": false, "ind": false, "holc_grade": "D"}, "geometry": {"type": "Polygon", "coordinates": [[[-86.14568, 39.76705], [-86.14346, 39.76902], [-86.143141, 39.769177], [-86.14186, 39.76981], [-86.14038, 39.77148], [-86.140039, 39.781239], [-86.14003, 39.78151], [-86.13502, 39.78155], [-86.135018, 39.781269], [-86.13496, 39.77463], [-86.13382, 39.77459], [-86.13365, 39.77222], [-86.133451, 39.772187], [-86.13262, 39.77205], [-86.13245, 39.77069], [-86.13222, 39.76889], [-86.13045, 39.76885], [-86.130358, 39.767345], [-86.13034, 39.76705], [-86.143278, 39.766521], [-86.14648, 39.76639], [-86.145908, 39.766862], [-86.14568, 39.76705]]]}}, {"type": "Feature", "properties": {"area_id": 5437, "city": "Indianapolis", "state": "IN", "city_survey": true, "cat": "Hazardous", "grade": "D", "label": "D11", "res": true, "com": false, "ind": false, "holc_grade": "D"}, "geometry": {"type": "Polygon", "coordinates": [[[-86.13947, 39.75455], [-86.14032, 39.75455], [-86.14393, 39.757985], [-86.14876, 39.76258], [-86.14876, 39.76507], [-86.14333, 39.764914], [-86.13062, 39.76455], [-86.130692, 39.759707], [-86.130693, 39.759641], [-86.130693, 39.75964], [-86.13069301694915, 39.759639923728784], [-86.130695, 39.759514], [-86.13074, 39.75644], [-86.13952, 39.75639], [-86.13947, 39.75455]]]}}, {"type": "Feature", "properties": {"area_id": 5436, "city": "Indianapolis", "state": "IN", "city_survey": true, "cat": "Hazardous", "grade": "D", "label": "D12", "res": true, "com": false, "ind": false, "holc_grade": "D"}, "geometry": {"type": "Polygon", "coordinates": [[[-86.13907, 39.74144], [-86.13912, 39.74525], [-86.138721, 39.745605], [-86.13867, 39.74565], [-86.13661, 39.74644], [-86.13473, 39.7478], [-86.13342, 39.74881], [-86.13211, 39.74929], [-86.13114, 39.74933], [-86.13114, 39.74758], [-86.130583, 39.747626], [-86.13017, 39.74766], [-86.13005, 39.74516], [-86.12492, 39.7453], [-86.12509, 39.74995], [-86.12583, 39.7499], [-86.12617, 39.75236], [-86.12338, 39.75245], [-86.12344, 39.75464], [-86.12623, 39.75464], [-86.12629, 39.75648], [-86.130671, 39.756441], [-86.13074, 39.75644], [-86.130695, 39.759514], [-86.130693, 39.759641], [-86.130692, 39.759707], [-86.13062, 39.76455], [-86.12458, 39.76429], [-86.12024, 39.7645], [-86.116416, 39.764798], [-86.11511, 39.7649], [-86.10986, 39.76573], [-86.10718, 39.76595], [-86.107286, 39.768946], [-86.10729, 39.76906], [-86.107213, 39.769064], [-86.10627, 39.76911], [-86.106192, 39.769], [-86.10484, 39.76709], [-86.1025, 39.76709], [-86.1025, 39.76621], [-86.10233, 39.75635], [-86.102263, 39.752693], [-86.101992, 39.73796], [-86.10199, 39.73784], [-86.1085, 39.73773], [-86.111351, 39.737685], [-86.12116, 39.73753], [-86.13, 39.73738], [-86.13416, 39.73731], [-86.137478, 39.73726], [-86.13952, 39.73723], [-86.13952, 39.74131], [-86.139396, 39.741346], [-86.13907, 39.74144]]]}}, {"type": "Feature", "properties": {"area_id": 5433, "city": "Indianapolis", "state": "IN", "city_survey": true, "cat": "Hazardous", "grade": "D", "label": "D13", "res": true, "com": false, "ind": false, "holc_grade": "D"}, "geometry": {"type": "MultiPolygon", "coordinates": [[[[-86.04537, 39.72504], [-86.03497, 39.72509], [-86.034967, 39.72493], [-86.03485, 39.7191], [-86.044743, 39.724686], [-86.04537, 39.72504]]], [[[-86.07832, 39.76174], [-86.07814, 39.76411], [-86.06417, 39.76113], [-86.06423, 39.76665], [-86.064035, 39.766658], [-86.05909, 39.76687], [-86.058848, 39.761093], [-86.05869, 39.75731], [-86.063956, 39.757158], [-86.082925, 39.756612], [-86.08299, 39.75661], [-86.082958, 39.759072], [-86.08294, 39.76043], [-86.07484, 39.76073], [-86.07832, 39.76174]]], [[[-86.06417, 39.76946], [-86.06417, 39.7695], [-86.06423, 39.77099], [-86.06422, 39.77099], [-86.064118, 39.770996], [-86.062, 39.77113], [-86.062, 39.77117], [-86.06212, 39.77349], [-86.06211, 39.77349], [-86.06063, 39.77349], [-86.06058, 39.77121], [-86.05932, 39.77126], [-86.059183, 39.768745], [-86.05915, 39.76814], [-86.06394, 39.76797], [-86.064004, 39.768383], [-86.064094, 39.768969], [-86.06417, 39.76946]]], [[[-86.088015, 39.752818], [-86.08803, 39.75332], [-86.082881, 39.75332], [-86.08262, 39.75332], [-86.07561, 39.7536], [-86.07549, 39.74592], [-86.082777, 39.74583], [-86.0828, 39.74583], [-86.08583, 39.74556], [-86.08785, 39.74725], [-86.088015, 39.752818]]], [[[-86.092614, 39.766637], [-86.08858, 39.76744], [-86.084388, 39.767377], [-86.083036, 39.767357], [-86.08259, 39.76735], [-86.08237, 39.76477], [-86.083015, 39.764884], [-86.09275, 39.76661], [-86.092614, 39.766637]]]]}}, {"type": "Feature", "properties": {"area_id": 5429, "city": "Indianapolis", "state": "IN", "city_survey": true, "cat": "Hazardous", "grade": "D", "label": "D14", "res": true, "com": false, "ind": false, "holc_grade": "D"}, "geometry": {"type": "Polygon", "coordinates": [[[-86.110008, 39.768799], [-86.11009, 39.77051], [-86.11009, 39.77205], [-86.110044, 39.774572], [-86.109921, 39.78137], [-86.10992, 39.78143], [-86.10244, 39.78156], [-86.102436, 39.781411], [-86.10227, 39.77485], [-86.10627, 39.77468], [-86.10627, 39.774636], [-86.10627, 39.76911], [-86.107213, 39.769064], [-86.10729, 39.76906], [-86.107286, 39.768946], [-86.10718, 39.76595], [-86.10986, 39.76573], [-86.110008, 39.768799]]]}}, {"type": "Feature", "properties": {"area_id": 5449, "city": "Indianapolis", "state": "IN", "city_survey": true, "cat": "Hazardous", "grade": "D", "label": "D15", "res": true, "com": false, "ind": false, "holc_grade": "D"}, "geometry": {"type": "MultiPolygon", "coordinates": [[[[-86.07712, 39.71651], [-86.082642, 39.716287], [-86.09001, 39.71599], [-86.090162, 39.723535], [-86.09018, 39.72441], [-86.10033, 39.72415], [-86.10062, 39.73525], [-86.082531, 39.724459], [-86.08208, 39.72419], [-86.082073, 39.723615], [-86.08202, 39.71954], [-86.07712, 39.71651]]], [[[-86.11146, 39.715944], [-86.11163, 39.72042], [-86.111223, 39.720424], [-86.10284, 39.7205], [-86.10108, 39.72052], [-86.10068, 39.70822], [-86.10575, 39.70831], [-86.109725, 39.70831], [-86.11117, 39.70831], [-86.111182, 39.708618], [-86.11146, 39.715944]]]]}}, {"type": "Feature", "properties": {"area_id": 5446, "city": "Indianapolis", "state": "IN", "city_survey": true, "cat": "Hazardous", "grade": "D", "label": "D16", "res": true, "com": false, "ind": false, "holc_grade": "D"}, "geometry": {"type": "Polygon", "coordinates": [[[-86.11608, 39.71269], [-86.12235, 39.71248], [-86.1296, 39.71546], [-86.13011, 39.7098], [-86.13935, 39.70984], [-86.13941, 39.71563], [-86.139474, 39.715628], [-86.1458, 39.71546], [-86.14958, 39.722605], [-86.15344, 39.7299], [-86.14853, 39.72997], [-86.14478, 39.72302], [-86.14045, 39.72307], [-86.14051, 39.73011], [-86.136334, 39.73026], [-86.13409, 39.73034], [-86.13409, 39.73285], [-86.13, 39.73296], [-86.13, 39.73738], [-86.12116, 39.73753], [-86.12093, 39.723149], [-86.12093, 39.72314], [-86.11619, 39.72305], [-86.11608, 39.71269]]]}}, {"type": "Feature", "properties": {"area_id": 5413, "city": "Indianapolis", "state": "IN", "city_survey": true, "cat": "Hazardous", "grade": "D", "label": "D17", "res": true, "com": false, "ind": false, "holc_grade": "D"}, "geometry": {"type": "MultiPolygon", "coordinates": [[[[-86.15174, 39.73715], [-86.15361, 39.73714], [-86.153612, 39.737226], [-86.15367, 39.74008], [-86.15367, 39.74012], [-86.153686, 39.741003], [-86.15378, 39.74604], [-86.15652, 39.74609], [-86.156443, 39.75341], [-86.15641, 39.75652], [-86.154887, 39.756533], [-86.15065, 39.75657], [-86.1507, 39.7585], [-86.14825, 39.7585], [-86.14444, 39.753744], [-86.143961, 39.753147], [-86.143267, 39.75228], [-86.14277, 39.75166], [-86.144161, 39.751676], [-86.149619, 39.75174], [-86.14962, 39.75174], [-86.14951, 39.74363], [-86.149438, 39.74363], [-86.14238, 39.74359], [-86.14238, 39.74135], [-86.140655, 39.741326], [-86.13952, 39.74131], [-86.13952, 39.73723], [-86.144549, 39.737197], [-86.147642, 39.737177], [-86.149553, 39.737164], [-86.15174, 39.73715]]], [[[-86.18047, 39.82102], [-86.1789, 39.82184], [-86.17693, 39.81751], [-86.18121, 39.81749], [-86.18083, 39.81878], [-86.18104, 39.81962], [-86.18047, 39.82102]]]]}}, {"type": "Feature", "properties": {"area_id": 5442, "city": "Indianapolis", "state": "IN", "city_survey": true, "cat": "Hazardous", "grade": "D", "label": "D18", "res": true, "com": false, "ind": false, "holc_grade": "D"}, "geometry": {"type": "Polygon", "coordinates": [[[-86.17563, 39.72792], [-86.174704, 39.728859], [-86.1742, 39.72937], [-86.174063, 39.729769], [-86.17375, 39.73068], [-86.171641, 39.733715], [-86.16844, 39.73832], [-86.16764, 39.74029], [-86.16776, 39.74204], [-86.16884, 39.74389], [-86.17101, 39.74608], [-86.17392, 39.75152], [-86.16976, 39.75156], [-86.169725, 39.753995], [-86.16964, 39.75985], [-86.16764, 39.7613], [-86.1608, 39.76112], [-86.1608, 39.753503], [-86.1608, 39.74108], [-86.15913, 39.74104], [-86.15909, 39.74005], [-86.15904, 39.73338], [-86.158933, 39.731732], [-86.15881, 39.72983], [-86.158879, 39.729131], [-86.15926, 39.72524], [-86.16194, 39.72516], [-86.16205, 39.72687], [-86.17626, 39.7266], [-86.175777, 39.727611], [-86.17563, 39.72792]]]}}, {"type": "Feature", "properties": {"area_id": 5404, "city": "Indianapolis", "state": "IN", "city_survey": true, "cat": "Hazardous", "grade": "D", "label": "D19", "res": true, "com": false, "ind": false, "holc_grade": "D"}, "geometry": {"type": "Polygon", "coordinates": [[[-86.19728, 39.73708], [-86.19778, 39.73708], [-86.19866, 39.7369], [-86.20097, 39.73671], [-86.20135, 39.73712], [-86.2013, 39.73792], [-86.20099, 39.73867], [-86.20097, 39.73988], [-86.20151, 39.7413], [-86.20189, 39.74262], [-86.20168, 39.74338], [-86.20161, 39.74406], [-86.20208, 39.74434], [-86.20289, 39.74499], [-86.20382, 39.74618], [-86.204497, 39.747417], [-86.20463, 39.74766], [-86.20582, 39.74914], [-86.20743, 39.75073], [-86.20876, 39.75302], [-86.21014, 39.75409], [-86.211328, 39.754643], [-86.21188, 39.7549], [-86.21276, 39.75545], [-86.212801, 39.755506], [-86.21352, 39.75649], [-86.20829, 39.75779], [-86.2034, 39.75905], [-86.20325, 39.75883], [-86.196827, 39.758932], [-86.1875, 39.75908], [-86.18753, 39.76269], [-86.18204, 39.7628], [-86.18201, 39.76091], [-86.17602, 39.761], [-86.175792, 39.754226], [-86.17545, 39.74403], [-86.18254, 39.74735], [-86.196095, 39.736579], [-86.19666, 39.73613], [-86.19669, 39.73644], [-86.19728, 39.73708]]]}}, {"type": "Feature", "properties": {"area_id": 5464, "city": "Indianapolis", "state": "IN", "city_survey": true, "cat": "Hazardous", "grade": "D", "label": "D2", "res": true, "com": false, "ind": false, "holc_grade": "D"}, "geometry": {"type": "Polygon", "coordinates": [[[-86.146161, 39.870122], [-86.14634, 39.8762], [-86.14834, 39.87624], [-86.15024, 39.87711], [-86.14886, 39.8781], [-86.14715, 39.87905], [-86.145925, 39.87937], [-86.1452, 39.87956], [-86.14249, 39.87945], [-86.13945, 39.87857], [-86.13797, 39.87748], [-86.13778, 39.8758], [-86.13869, 39.87445], [-86.13978, 39.87347], [-86.14002, 39.87277], [-86.13959, 39.87153], [-86.140542, 39.871656], [-86.14125, 39.87175], [-86.14296, 39.87153], [-86.146159, 39.8701], [-86.14616, 39.8701], [-86.146161, 39.870122]]]}}, {"type": "Feature", "properties": {"area_id": 5401, "city": "Indianapolis", "state": "IN", "city_survey": true, "cat": "Hazardous", "grade": "D", "label": "D20", "res": true, "com": false, "ind": false, "holc_grade": "D"}, "geometry": {"type": "MultiPolygon", "coordinates": [[[[-86.24014, 39.71182], [-86.24363, 39.711685], [-86.250356, 39.711424], [-86.26051, 39.71103], [-86.26051, 39.720409], [-86.26051, 39.72439], [-86.26032, 39.74192], [-86.26031, 39.74229], [-86.26279, 39.74211], [-86.26275, 39.74363], [-86.26029, 39.74418], [-86.250214, 39.746483], [-86.2497, 39.7466], [-86.249757, 39.747417], [-86.24979, 39.74788], [-86.23724, 39.75053], [-86.236042, 39.750764], [-86.23422, 39.75112], [-86.228, 39.752733], [-86.226684, 39.753075], [-86.225911, 39.753275], [-86.21608, 39.755826], [-86.21352, 39.75649], [-86.212801, 39.755506], [-86.21276, 39.75545], [-86.21188, 39.7549], [-86.211328, 39.754643], [-86.21014, 39.75409], [-86.20876, 39.75302], [-86.20743, 39.75073], [-86.20582, 39.74914], [-86.20463, 39.74766], [-86.204497, 39.747417], [-86.20382, 39.74618], [-86.20289, 39.74499], [-86.20208, 39.74434], [-86.20161, 39.74406], [-86.20168, 39.74338], [-86.20189, 39.74262], [-86.20151, 39.7413], [-86.20097, 39.73988], [-86.20099, 39.73867], [-86.2013, 39.73792], [-86.20135, 39.73712], [-86.20097, 39.73671], [-86.19866, 39.7369], [-86.19778, 39.73708], [-86.19728, 39.73708], [-86.19669, 39.73644], [-86.19666, 39.73613], [-86.19662, 39.73565], [-86.19631, 39.73476], [-86.19662, 39.7343], [-86.1965, 39.73368], [-86.19667, 39.73174], [-86.19709, 39.73087], [-86.19724, 39.73028], [-86.19707, 39.72911], [-86.19688, 39.72708], [-86.19633, 39.72502], [-86.19648, 39.72284], [-86.196175, 39.721915], [-86.196068, 39.721588], [-86.19595, 39.72123], [-86.19517, 39.71937], [-86.19667, 39.71875], [-86.19743, 39.71789], [-86.19802, 39.71617], [-86.19835, 39.71456], [-86.198369, 39.714265], [-86.1984, 39.71379], [-86.19862, 39.713776], [-86.22091, 39.7124], [-86.2274, 39.71211], [-86.238762, 39.711851], [-86.24014, 39.71182]]], [[[-86.288828, 39.737738], [-86.27799, 39.74019], [-86.278004, 39.737894], [-86.27802, 39.73524], [-86.28889, 39.73478], [-86.288947, 39.73754], [-86.28895, 39.73771], [-86.288828, 39.737738]]]]}}, {"type": "Feature", "properties": {"area_id": 5410, "city": "Indianapolis", "state": "IN", "city_survey": true, "cat": "Hazardous", "grade": "D", "label": "D21", "res": true, "com": false, "ind": false, "holc_grade": "D"}, "geometry": {"type": "Polygon", "coordinates": [[[-86.18499, 39.77036], [-86.187, 39.77273], [-86.18878, 39.77456], [-86.19021, 39.77662], [-86.19067, 39.77785], [-86.19059, 39.78047], [-86.190277, 39.780539], [-86.18977, 39.78065], [-86.18835, 39.78106], [-86.18738, 39.78108], [-86.18611, 39.78094], [-86.18519, 39.78074], [-86.18323, 39.78066], [-86.18045, 39.78035], [-86.178136, 39.780303], [-86.17801, 39.7803], [-86.17683, 39.78071], [-86.17479, 39.779378], [-86.17369, 39.77866], [-86.171573, 39.777276], [-86.16789, 39.77487], [-86.16779, 39.76871], [-86.17669, 39.7687], [-86.17871, 39.76875], [-86.18115, 39.76881], [-86.18372, 39.76964], [-86.18499, 39.77036]]]}}, {"type": "Feature", "properties": {"area_id": 5409, "city": "Indianapolis", "state": "IN", "city_survey": true, "cat": "Hazardous", "grade": "D", "label": "D22", "res": true, "com": false, "ind": false, "holc_grade": "D"}, "geometry": {"type": "Polygon", "coordinates": [[[-86.19114, 39.78076], [-86.19059, 39.78047], [-86.19067, 39.77785], [-86.19021, 39.77662], [-86.18878, 39.77456], [-86.187, 39.77273], [-86.18499, 39.77036], [-86.18372, 39.76964], [-86.18115, 39.76881], [-86.18111, 39.76723], [-86.19171, 39.76642], [-86.19172, 39.76347], [-86.19639, 39.76334], [-86.19661, 39.76966], [-86.196903, 39.769779], [-86.20366, 39.77253], [-86.20374, 39.773746], [-86.20374, 39.77375], [-86.20371, 39.77452], [-86.20145, 39.77455], [-86.201549, 39.780704], [-86.20155, 39.78078], [-86.20055, 39.78075], [-86.19674, 39.780788], [-86.19255, 39.78083], [-86.191397, 39.780773], [-86.19114, 39.78076]]]}}, {"type": "Feature", "properties": {"area_id": 5405, "city": "Indianapolis", "state": "IN", "city_survey": true, "cat": "Hazardous", "grade": "D", "label": "D23", "res": true, "com": false, "ind": false, "holc_grade": "D"}, "geometry": {"type": "Polygon", "coordinates": [[[-86.20332, 39.76308], [-86.20325, 39.75883], [-86.2034, 39.75905], [-86.20829, 39.75779], [-86.213567, 39.764169], [-86.21624, 39.7674], [-86.21626, 39.77198], [-86.21629, 39.7785], [-86.216133, 39.778441], [-86.21131, 39.776615], [-86.20374, 39.77375], [-86.20374, 39.773746], [-86.20366, 39.77253], [-86.20621, 39.77245], [-86.206146, 39.765318], [-86.20614, 39.76471], [-86.20336, 39.76509], [-86.20332, 39.76308]]]}}, {"type": "Feature", "properties": {"area_id": 5407, "city": "Indianapolis", "state": "IN", "city_survey": true, "cat": "Hazardous", "grade": "D", "label": "D24", "res": true, "com": false, "ind": false, "holc_grade": "D"}, "geometry": {"type": "MultiPolygon", "coordinates": [[[[-86.191397, 39.780773], [-86.19255, 39.78083], [-86.19674, 39.780788], [-86.20055, 39.78075], [-86.200855, 39.787997], [-86.20086, 39.78811], [-86.20107, 39.78858], [-86.20034, 39.79068], [-86.19919, 39.79074], [-86.19915, 39.7907], [-86.197562, 39.788865], [-86.19735, 39.78862], [-86.196951, 39.788419], [-86.19461, 39.78724], [-86.19253, 39.7867], [-86.18933, 39.78586], [-86.18703, 39.78488], [-86.1859, 39.78396], [-86.18593, 39.78331], [-86.18642, 39.78244], [-86.18653, 39.78192], [-86.18631, 39.78119], [-86.18611, 39.78094], [-86.18738, 39.78108], [-86.18835, 39.78106], [-86.18977, 39.78065], [-86.190277, 39.780539], [-86.19059, 39.78047], [-86.19114, 39.78076], [-86.191397, 39.780773]]], [[[-86.225658, 39.787609], [-86.22582, 39.79491], [-86.21591, 39.795409], [-86.21569, 39.79542], [-86.21565, 39.79542], [-86.21562, 39.79355], [-86.215454, 39.787832], [-86.21545, 39.78769], [-86.22197, 39.7874], [-86.22565, 39.78725], [-86.225658, 39.787609]]]]}}, {"type": "Feature", "properties": {"area_id": 5419, "city": "Indianapolis", "state": "IN", "city_survey": true, "cat": "Hazardous", "grade": "D", "label": "D25", "res": true, "com": false, "ind": false, "holc_grade": "D"}, "geometry": {"type": "MultiPolygon", "coordinates": [[[[-86.16479, 39.79459], [-86.16784, 39.79463], [-86.16893, 39.797163], [-86.16895, 39.79721], [-86.16643, 39.7968], [-86.165188, 39.797109], [-86.16486, 39.79719], [-86.163438, 39.797373], [-86.16292, 39.79744], [-86.16218, 39.79843], [-86.16263, 39.79983], [-86.16249, 39.80122], [-86.1617, 39.80193], [-86.16078, 39.80215], [-86.160596, 39.794989], [-86.16049, 39.79087], [-86.15835, 39.79087], [-86.15852, 39.78851], [-86.16273, 39.78849], [-86.16284, 39.79059], [-86.16472, 39.79178], [-86.164771, 39.793832], [-86.16479, 39.79459]]], [[[-86.17595, 39.78127], [-86.17545, 39.78209], [-86.17531, 39.78349], [-86.175265, 39.783657], [-86.17517, 39.78401], [-86.175107, 39.784036], [-86.17378, 39.78459], [-86.1731, 39.78527], [-86.17323, 39.78589], [-86.166272, 39.790654], [-86.16565, 39.79108], [-86.16476, 39.79012], [-86.16415, 39.78894], [-86.16376, 39.78738], [-86.163993, 39.782772], [-86.16404, 39.78185], [-86.1639, 39.78072], [-86.16422, 39.77576], [-86.16447, 39.77527], [-86.166989, 39.776891], [-86.17196, 39.78009], [-86.17369, 39.77866], [-86.17479, 39.779378], [-86.17683, 39.78071], [-86.176468, 39.780941], [-86.175976, 39.781254], [-86.17595, 39.78127]]]]}}, {"type": "Feature", "properties": {"area_id": 5421, "city": "Indianapolis", "state": "IN", "city_survey": true, "cat": "Hazardous", "grade": "D", "label": "D26", "res": true, "com": false, "ind": false, "holc_grade": "D"}, "geometry": {"type": "Polygon", "coordinates": [[[-86.177032, 39.780768], [-86.17773, 39.78097], [-86.18069, 39.78445], [-86.18294, 39.78642], [-86.18298, 39.79095], [-86.18309, 39.79538], [-86.18748, 39.79551], [-86.187603, 39.800592], [-86.18777, 39.80747], [-86.19119, 39.80747], [-86.19125, 39.81023], [-86.18884, 39.81029], [-86.18851, 39.810297], [-86.18794, 39.81031], [-86.187602, 39.810007], [-86.175936, 39.799526], [-86.17574, 39.79935], [-86.17684, 39.79798], [-86.178244, 39.797273], [-86.17841, 39.79719], [-86.17877, 39.79642], [-86.178647, 39.79606], [-86.17756, 39.79289], [-86.17784, 39.79006], [-86.17781, 39.7893], [-86.17667, 39.78834], [-86.175522, 39.78784], [-86.175091, 39.787653], [-86.17435, 39.78733], [-86.17335, 39.7865], [-86.17323, 39.78589], [-86.1731, 39.78527], [-86.17378, 39.78459], [-86.175107, 39.784036], [-86.17517, 39.78401], [-86.175265, 39.783657], [-86.17531, 39.78349], [-86.17545, 39.78209], [-86.17595, 39.78127], [-86.175976, 39.781254], [-86.176468, 39.780941], [-86.17683, 39.78071], [-86.177032, 39.780768]]]}}, {"type": "Feature", "properties": {"area_id": 5420, "city": "Indianapolis", "state": "IN", "city_survey": true, "cat": "Hazardous", "grade": "D", "label": "D27", "res": true, "com": false, "ind": false, "holc_grade": "D"}, "geometry": {"type": "Polygon", "coordinates": [[[-86.17346, 39.79935], [-86.17453, 39.79971], [-86.17574, 39.79935], [-86.175936, 39.799526], [-86.187602, 39.810007], [-86.18794, 39.81031], [-86.17362, 39.81063], [-86.17362, 39.81107], [-86.168371, 39.811144], [-86.16444, 39.8112], [-86.16453, 39.813128], [-86.16455, 39.81356], [-86.163864, 39.81359], [-86.16137, 39.8137], [-86.161357, 39.810132], [-86.16135, 39.8084], [-86.15999, 39.8084], [-86.160208, 39.802471], [-86.16021, 39.80243], [-86.16078, 39.80215], [-86.1617, 39.80193], [-86.16249, 39.80122], [-86.16263, 39.79983], [-86.16218, 39.79843], [-86.16292, 39.79744], [-86.163438, 39.797373], [-86.16486, 39.79719], [-86.165188, 39.797109], [-86.16643, 39.7968], [-86.16895, 39.79721], [-86.170128, 39.79769], [-86.17057, 39.79787], [-86.17203, 39.79823], [-86.17346, 39.79935]]]}}, {"type": "Feature", "properties": {"area_id": 5467, "city": "Indianapolis", "state": "IN", "city_survey": true, "cat": "Hazardous", "grade": "D", "label": "D3", "res": true, "com": false, "ind": false, "holc_grade": "D"}, "geometry": {"type": "Polygon", "coordinates": [[[-86.13411, 39.88313], [-86.134324, 39.88313], [-86.13904, 39.88313], [-86.1397, 39.88742], [-86.14077, 39.89089], [-86.13857, 39.89385], [-86.13659, 39.89563], [-86.13075, 39.89702], [-86.12668, 39.8974], [-86.12661, 39.90167], [-86.12062, 39.90155], [-86.11729, 39.90461], [-86.114485, 39.904898], [-86.11379, 39.90497], [-86.112156, 39.905955], [-86.10903, 39.90784], [-86.10684, 39.90989], [-86.106293, 39.910729], [-86.10583, 39.91144], [-86.104096, 39.91147], [-86.10291, 39.91149], [-86.10339, 39.90989], [-86.103438, 39.909602], [-86.10369, 39.90807], [-86.1047, 39.90638], [-86.10594, 39.90547], [-86.10773, 39.90474], [-86.11004, 39.90438], [-86.1123, 39.90379], [-86.11409, 39.90306], [-86.11486, 39.9021], [-86.11551, 39.90091], [-86.11599, 39.8995], [-86.11628, 39.89827], [-86.1167, 39.89663], [-86.116748, 39.896499], [-86.11723, 39.89517], [-86.11747, 39.89421], [-86.11801, 39.89321], [-86.11872, 39.89266], [-86.119505, 39.892307], [-86.12003, 39.89207], [-86.12151, 39.89152], [-86.12145, 39.88719], [-86.122032, 39.887157], [-86.12704, 39.88687], [-86.1268, 39.87379], [-86.13191, 39.8737], [-86.13197, 39.87456], [-86.13215, 39.87552], [-86.13304, 39.87734], [-86.13369, 39.87976], [-86.133733, 39.87999], [-86.134012, 39.881471], [-86.13411, 39.88199], [-86.13411, 39.88313]]]}}, {"type": "Feature", "properties": {"area_id": 5456, "city": "Indianapolis", "state": "IN", "city_survey": true, "cat": "Hazardous", "grade": "D", "label": "D4", "res": true, "com": false, "ind": false, "holc_grade": "D"}, "geometry": {"type": "Polygon", "coordinates": [[[-86.10181, 39.80219], [-86.09767, 39.80427], [-86.09774, 39.81194], [-86.09767, 39.81429], [-86.08598, 39.8144], [-86.08598, 39.814655], [-86.08598, 39.81835], [-86.083606, 39.81835], [-86.08355, 39.81835], [-86.064701, 39.81835], [-86.06423, 39.81835], [-86.064264, 39.810967], [-86.0643, 39.80306], [-86.064537, 39.803018], [-86.083345, 39.7997], [-86.10188, 39.79643], [-86.101866, 39.797621], [-86.10181, 39.80219]]]}}, {"type": "Feature", "properties": {"area_id": 5455, "city": "Indianapolis", "state": "IN", "city_survey": true, "cat": "Hazardous", "grade": "D", "label": "D5", "res": true, "com": false, "ind": false, "holc_grade": "D"}, "geometry": {"type": "Polygon", "coordinates": [[[-86.095951, 39.788802], [-86.102237, 39.788839], [-86.10239, 39.78884], [-86.10244, 39.79256], [-86.10707, 39.79247], [-86.10712, 39.79396], [-86.10708, 39.79616], [-86.102322, 39.796407], [-86.10188, 39.79643], [-86.083345, 39.7997], [-86.064537, 39.803018], [-86.0643, 39.80306], [-86.064093, 39.796307], [-86.06387, 39.78904], [-86.06429, 39.789034], [-86.08298, 39.78876], [-86.08299, 39.78638], [-86.083272, 39.786378], [-86.08883, 39.78633], [-86.08876, 39.78876], [-86.095951, 39.788802]]]}}, {"type": "Feature", "properties": {"area_id": 5457, "city": "Indianapolis", "state": "IN", "city_survey": true, "cat": "Hazardous", "grade": "D", "label": "D6", "res": true, "com": false, "ind": false, "holc_grade": "D"}, "geometry": {"type": "Polygon", "coordinates": [[[-86.1227, 39.78941], [-86.13066, 39.78494], [-86.13152, 39.78596], [-86.13199, 39.78706], [-86.131871, 39.788138], [-86.13176, 39.78914], [-86.13104, 39.79101], [-86.12829, 39.79451], [-86.12743, 39.79648], [-86.12377, 39.79626], [-86.12082, 39.79623], [-86.120051, 39.796083], [-86.11873, 39.79583], [-86.116807, 39.795648], [-86.1164, 39.79561], [-86.1145, 39.79667], [-86.114512, 39.798318], [-86.11455, 39.80335], [-86.11203, 39.80335], [-86.11203, 39.803404], [-86.11203, 39.807509], [-86.11203, 39.810762], [-86.11203, 39.81116], [-86.111864, 39.818142], [-86.11186, 39.81829], [-86.10558, 39.81829], [-86.105583, 39.81816], [-86.10566, 39.81457], [-86.10416, 39.81457], [-86.10416, 39.81188], [-86.097803, 39.811939], [-86.09774, 39.81194], [-86.09767, 39.80427], [-86.10181, 39.80219], [-86.101866, 39.797621], [-86.10188, 39.79643], [-86.102322, 39.796407], [-86.10708, 39.79616], [-86.10712, 39.79396], [-86.11357, 39.79392], [-86.11351, 39.79265], [-86.11585, 39.79234], [-86.116579, 39.792093], [-86.11933, 39.79116], [-86.1227, 39.78941]]]}}, {"type": "Feature", "properties": {"area_id": 5423, "city": "Indianapolis", "state": "IN", "city_survey": true, "cat": "Hazardous", "grade": "D", "label": "D7", "res": true, "com": false, "ind": false, "holc_grade": "D"}, "geometry": {"type": "Polygon", "coordinates": [[[-86.13152, 39.78596], [-86.13066, 39.78494], [-86.131, 39.78454], [-86.13114, 39.78158], [-86.13502, 39.78155], [-86.14003, 39.78151], [-86.14017, 39.7822], [-86.140107, 39.784331], [-86.140099, 39.784591], [-86.13998, 39.78859], [-86.140178, 39.795947], [-86.14031, 39.80087], [-86.137439, 39.810672], [-86.1357, 39.81661], [-86.135046, 39.818041], [-86.13485, 39.81847], [-86.12173, 39.81832], [-86.121723, 39.818105], [-86.121637, 39.8155], [-86.12149, 39.81106], [-86.11203, 39.81116], [-86.11203, 39.810762], [-86.11203, 39.807509], [-86.11203, 39.803404], [-86.11203, 39.80335], [-86.11455, 39.80335], [-86.114512, 39.798318], [-86.1145, 39.79667], [-86.1164, 39.79561], [-86.116807, 39.795648], [-86.11873, 39.79583], [-86.120051, 39.796083], [-86.12082, 39.79623], [-86.12377, 39.79626], [-86.12743, 39.79648], [-86.12829, 39.79451], [-86.13104, 39.79101], [-86.13176, 39.78914], [-86.131871, 39.788138], [-86.13199, 39.78706], [-86.13152, 39.78596]]]}}, {"type": "Feature", "properties": {"area_id": 5422, "city": "Indianapolis", "state": "IN", "city_survey": true, "cat": "Hazardous", "grade": "D", "label": "D8", "res": true, "com": false, "ind": false, "holc_grade": "D"}, "geometry": {"type": "Polygon", "coordinates": [[[-86.14521, 39.78231], [-86.145194, 39.782749], [-86.14502, 39.78768], [-86.14526, 39.79579], [-86.14264, 39.79579], [-86.142645, 39.795903], [-86.14316, 39.80875], [-86.14036, 39.80883], [-86.13974, 39.810651], [-86.1376, 39.81694], [-86.137426, 39.818003], [-86.13725, 39.81908], [-86.13696, 39.8199], [-86.13624, 39.81802], [-86.1357, 39.81661], [-86.137439, 39.810672], [-86.14031, 39.80087], [-86.140178, 39.795947], [-86.13998, 39.78859], [-86.140099, 39.784591], [-86.140107, 39.784331], [-86.14017, 39.7822], [-86.140575, 39.782209], [-86.14521, 39.78231]]]}}, {"type": "Feature", "properties": {"area_id": 5424, "city": "Indianapolis", "state": "IN", "city_survey": true, "cat": "Hazardous", "grade": "D", "label": "D9", "res": true, "com": false, "ind": false, "holc_grade": "D"}, "geometry": {"type": "MultiPolygon", "coordinates": [[[[-86.1466, 39.76718], [-86.14848, 39.76718], [-86.14876, 39.77362], [-86.140537, 39.781051], [-86.140328, 39.781241], [-86.14003, 39.78151], [-86.140039, 39.781239], [-86.14038, 39.77148], [-86.14186, 39.76981], [-86.143141, 39.769177], [-86.14346, 39.76902], [-86.14568, 39.76705], [-86.1466, 39.76718]]], [[[-86.15635, 39.77564], [-86.15652, 39.78213], [-86.153948, 39.782171], [-86.14521, 39.78231], [-86.140575, 39.782209], [-86.14017, 39.7822], [-86.140568, 39.781993], [-86.15281, 39.77564], [-86.154135, 39.77564], [-86.15635, 39.77564]]]]}}, {"type": "Feature", "properties": {"area_id": 11247, "city": "Indianapolis", "state": "IN", "city_survey": true, "cat": "Industrial and Commercial", "grade": null, "label": "Industrial and Commercial", "res": false, "com": true, "ind": true, "holc_grade": null}, "geometry": {"type": "MultiPolygon", "coordinates": [[[[-86.1608, 39.753503], [-86.1608, 39.76112], [-86.16764, 39.7613], [-86.16964, 39.75985], [-86.16969, 39.75658], [-86.172, 39.75658], [-86.174, 39.7588], [-86.17384, 39.7609], [-86.17224, 39.76417], [-86.17248, 39.76609], [-86.17449, 39.7687], [-86.16779, 39.76871], [-86.16789, 39.77487], [-86.171573, 39.777276], [-86.17369, 39.77866], [-86.17196, 39.78009], [-86.166989, 39.776891], [-86.16447, 39.77527], [-86.16422, 39.77576], [-86.1639, 39.78072], [-86.16404, 39.78185], [-86.163993, 39.782772], [-86.16376, 39.78738], [-86.16415, 39.78894], [-86.16476, 39.79012], [-86.16565, 39.79108], [-86.166272, 39.790654], [-86.17323, 39.78589], [-86.17335, 39.7865], [-86.17435, 39.78733], [-86.175091, 39.787653], [-86.175522, 39.78784], [-86.17667, 39.78834], [-86.17781, 39.7893], [-86.17784, 39.79006], [-86.17756, 39.79289], [-86.178647, 39.79606], [-86.17877, 39.79642], [-86.17841, 39.79719], [-86.178244, 39.797273], [-86.17684, 39.79798], [-86.17574, 39.79935], [-86.17453, 39.79971], [-86.17346, 39.79935], [-86.17203, 39.79823], [-86.17057, 39.79787], [-86.170128, 39.79769], [-86.16895, 39.79721], [-86.16893, 39.797163], [-86.16784, 39.79463], [-86.16479, 39.79459], [-86.164771, 39.793832], [-86.16472, 39.79178], [-86.16284, 39.79059], [-86.16273, 39.78849], [-86.15852, 39.78851], [-86.15835, 39.79087], [-86.158042, 39.795009], [-86.157433, 39.803212], [-86.15743, 39.80325], [-86.157318, 39.80325], [-86.15593, 39.80325], [-86.156643, 39.794974], [-86.15666, 39.79478], [-86.156526, 39.782705], [-86.15652, 39.78213], [-86.15635, 39.77564], [-86.154135, 39.77564], [-86.15281, 39.77564], [-86.140568, 39.781993], [-86.14017, 39.7822], [-86.14003, 39.78151], [-86.140328, 39.781241], [-86.140537, 39.781051], [-86.14876, 39.77362], [-86.14848, 39.76718], [-86.1466, 39.76718], [-86.14568, 39.76705], [-86.145908, 39.766862], [-86.14648, 39.76639], [-86.143278, 39.766521], [-86.13034, 39.76705], [-86.12583, 39.76727], [-86.12583, 39.767671], [-86.12583, 39.76898], [-86.125429, 39.769019], [-86.121834, 39.769368], [-86.11009, 39.77051], [-86.110008, 39.768799], [-86.10986, 39.76573], [-86.11511, 39.7649], [-86.116416, 39.764798], [-86.12024, 39.7645], [-86.12458, 39.76429], [-86.13062, 39.76455], [-86.14333, 39.764914], [-86.14876, 39.76507], [-86.14876, 39.76258], [-86.14393, 39.757985], [-86.14032, 39.75455], [-86.13947, 39.75455], [-86.13884, 39.75451], [-86.138798, 39.752338], [-86.13867, 39.74565], [-86.138721, 39.745605], [-86.13912, 39.74525], [-86.13907, 39.74144], [-86.139396, 39.741346], [-86.13952, 39.74131], [-86.140655, 39.741326], [-86.14238, 39.74135], [-86.14238, 39.74359], [-86.142633, 39.748816], [-86.14277, 39.75166], [-86.143267, 39.75228], [-86.143961, 39.753147], [-86.14444, 39.753744], [-86.14825, 39.7585], [-86.1507, 39.7585], [-86.15065, 39.75657], [-86.154887, 39.756533], [-86.15641, 39.75652], [-86.156443, 39.75341], [-86.15652, 39.74609], [-86.15378, 39.74604], [-86.153686, 39.741003], [-86.15367, 39.74012], [-86.159045, 39.740051], [-86.15909, 39.74005], [-86.15913, 39.74104], [-86.1608, 39.74108], [-86.1608, 39.753503]]], [[[-86.14002, 39.87277], [-86.13978, 39.87347], [-86.13869, 39.87445], [-86.13778, 39.8758], [-86.13797, 39.87748], [-86.13945, 39.87857], [-86.14249, 39.87945], [-86.1452, 39.87956], [-86.14517, 39.89057], [-86.14077, 39.89089], [-86.1397, 39.88742], [-86.13904, 39.88313], [-86.134324, 39.88313], [-86.13411, 39.88313], [-86.13411, 39.88199], [-86.134012, 39.881471], [-86.133733, 39.87999], [-86.13369, 39.87976], [-86.13304, 39.87734], [-86.13215, 39.87552], [-86.13197, 39.87456], [-86.13191, 39.8737], [-86.13239, 39.87225], [-86.133029, 39.871573], [-86.133359, 39.871224], [-86.1341, 39.87044], [-86.13538, 39.86995], [-86.13566, 39.870015], [-86.13702, 39.87033], [-86.13959, 39.87153], [-86.14002, 39.87277]]], [[[-86.18519, 39.78074], [-86.18611, 39.78094], [-86.18631, 39.78119], [-86.18653, 39.78192], [-86.18642, 39.78244], [-86.18593, 39.78331], [-86.1859, 39.78396], [-86.18703, 39.78488], [-86.18933, 39.78586], [-86.19253, 39.7867], [-86.19461, 39.78724], [-86.196951, 39.788419], [-86.19735, 39.78862], [-86.197562, 39.788865], [-86.19915, 39.7907], [-86.196899, 39.790735], [-86.18298, 39.79095], [-86.18294, 39.78642], [-86.18069, 39.78445], [-86.17773, 39.78097], [-86.177032, 39.780768], [-86.17683, 39.78071], [-86.17801, 39.7803], [-86.178136, 39.780303], [-86.18045, 39.78035], [-86.18323, 39.78066], [-86.18519, 39.78074]]]]}}]}