{"type": "FeatureCollection", "features": [{"type": "Feature", "geometry": {"type": "Point", "coordinates": [-86.093333, 39.733889]}, "properties": {"facility_name": "ADM MILLING CO", "industry": null, "tri_facility_id": "46107DMMLL854BE"}}, {"type": "Feature", "geometry": {"type": "Point", "coordinates": [-86.083889, 39.725556]}, "properties": {"facility_name": "JCI JONES CHEMICALS INC.", "industry": null, "tri_facility_id": "46107JNSCH600BE"}}, {"type": "Feature", "geometry": {"type": "Point", "coordinates": [-86.058722, 39.7109]}, "properties": {"facility_name": "WESTVACO CORP, ENVELOPE DIV", "industry": null, "tri_facility_id": "46107WSTVC6302C"}}, {"type": "Feature", "geometry": {"type": "Point", "coordinates": [-86.101667, 39.783889]}, "properties": {"facility_name": "BORDEN INC GROCERY & SPECIALTY PRODUCTS", "industry": null, "tri_facility_id": "46201BRDNN1213N"}}, {"type": "Feature", "geometry": {"type": "Point", "coordinates": [-86.111667, 39.768056]}, "properties": {"facility_name": "CONTACTS METALS & WELDING INC", "industry": null, "tri_facility_id": "46201CNTCT70SGR"}}, {"type": "Feature", "geometry": {"type": "Point", "coordinates": [-86.128056, 39.766389]}, "properties": {"facility_name": "HORNER ELECTRIC", "industry": null, "tri_facility_id": "46201HRNRL1521E"}}, {"type": "Feature", "geometry": {"type": "Point", "coordinates": [-86.128611, 39.788333]}, "properties": {"facility_name": "MITCHEL & SCOTT MACHINE INC", "industry": null, "tri_facility_id": "46201MTCHL1841L"}}, {"type": "Feature", "geometry": {"type": "Point", "coordinates": [-86.105, 39.775278]}, "properties": {"facility_name": "THOMSON CONSUMER ELECTRONICS INC", "industry": null, "tri_facility_id": "46201THMSN600NS"}}, {"type": "Feature", "geometry": {"type": "Point", "coordinates": [-86.183333, 39.791667]}, "properties": {"facility_name": "MASTER MIX FEEDS", "industry": null, "tri_facility_id": "46202CNTRL1160W"}}, {"type": "Feature", "geometry": {"type": "Point", "coordinates": [-86.161328, 39.784738]}, "properties": {"facility_name": "HN ADVERTISING & DISPLAY CO", "industry": null, "tri_facility_id": "46202HNDVR1324N"}}, {"type": "Feature", "geometry": {"type": "Point", "coordinates": [-86.161111, 39.785833]}, "properties": {"facility_name": "HERFF JONES INC", "industry": null, "tri_facility_id": "46202HRFFJ1411N"}}, {"type": "Feature", "geometry": {"type": "Point", "coordinates": [-86.141667, 39.806667]}, "properties": {"facility_name": "MPL CORP", "industry": null, "tri_facility_id": "46202MRBLP1017E"}}, {"type": "Feature", "geometry": {"type": "Point", "coordinates": [-86.163333, 39.785278]}, "properties": {"facility_name": "MI-TECH METALS", "industry": null, "tri_facility_id": "46202MTCHM1340N"}}, {"type": "Feature", "geometry": {"type": "Point", "coordinates": [-86.138611, 39.783611]}, "properties": {"facility_name": "NABISCO INC FLEISCHMANN'S DIV", "industry": null, "tri_facility_id": "46202NBSCB1102R"}}, {"type": "Feature", "geometry": {"type": "Point", "coordinates": [-86.168611, 39.795556]}, "properties": {"facility_name": "INDUSTRIAL HEAT TREATING & METALLURGICAL CO INC", "industry": null, "tri_facility_id": "46202NDSTR2131D"}}, {"type": "Feature", "geometry": {"type": "Point", "coordinates": [-86.180556, 39.795833]}, "properties": {"facility_name": "UNITED BRAKE SYSTEMS INC", "industry": null, "tri_facility_id": "46202NNBRK2101M"}}, {"type": "Feature", "geometry": {"type": "Point", "coordinates": [-86.164282, 39.7868]}, "properties": {"facility_name": "UNITED COATINGS INC", "industry": null, "tri_facility_id": "46202NTDCT323W1"}}, {"type": "Feature", "geometry": {"type": "Point", "coordinates": [-86.140278, 39.7975]}, "properties": {"facility_name": "PRECISION MACHINE CO INC", "industry": null, "tri_facility_id": "46202PRCSN1110E"}}, {"type": "Feature", "geometry": {"type": "Point", "coordinates": [-86.145, 39.764167]}, "properties": {"facility_name": "LILLY INDUSTRIES INC PERFECTION PAINT BUS UNIT", "industry": null, "tri_facility_id": "46202PRFCT715EM"}}, {"type": "Feature", "geometry": {"type": "Point", "coordinates": [-86.1369, 39.795047]}, "properties": {"facility_name": "PROGRESSIVE PLATING CO INC", "industry": null, "tri_facility_id": "46202PRGRS2064C"}}, {"type": "Feature", "geometry": {"type": "Point", "coordinates": [-86.166667, 39.791944]}, "properties": {"facility_name": "STERLING FLUID SYSTEMS DBA PEERLESS PUMP CO.", "industry": null, "tri_facility_id": "46202PRLSS2005D"}}, {"type": "Feature", "geometry": {"type": "Point", "coordinates": [-86.139722, 39.766111]}, "properties": {"facility_name": "QUALITY FINISHING INC", "industry": null, "tri_facility_id": "46202QLTYF50SOU"}}, {"type": "Feature", "geometry": {"type": "Point", "coordinates": [-86.1369, 39.7924]}, "properties": {"facility_name": "THREADED ROD CO INC", "industry": null, "tri_facility_id": "46202THRDD1929C"}}, {"type": "Feature", "geometry": {"type": "Point", "coordinates": [-86.147222, 39.769444]}, "properties": {"facility_name": "NATIONAL PRINTFAST", "industry": null, "tri_facility_id": "46202TLDYN600EO"}}, {"type": "Feature", "geometry": {"type": "Point", "coordinates": [-86.166667, 39.783333]}, "properties": {"facility_name": "TARPENNING-LAFOLLETTE CO INC", "industry": null, "tri_facility_id": "46202TRPNN404WE"}}, {"type": "Feature", "geometry": {"type": "Point", "coordinates": [-86.135278, 39.793889]}, "properties": {"facility_name": "WILLIAMSON POLISHING & PLATING CO. INC", "industry": null, "tri_facility_id": "46202WLLMS2080D"}}, {"type": "Feature", "geometry": {"type": "Point", "coordinates": [-86.058333, 39.725]}, "properties": {"facility_name": "SUN CHEMICAL CORP GPI", "industry": null, "tri_facility_id": "46203BSFCR5870E"}}, {"type": "Feature", "geometry": {"type": "Point", "coordinates": [-86.13916666666667, 39.72805555555556]}, "properties": {"facility_name": "CTP", "industry": null, "tri_facility_id": "46203CTPXX1146N"}}, {"type": "Feature", "geometry": {"type": "Point", "coordinates": [-86.1134, 39.7523]}, "properties": {"facility_name": "CITIZENS GAS & COKE UTILITY - MANUFACTURING DIVISIONS", "industry": null, "tri_facility_id": "46203CTZNS2950E"}}, {"type": "Feature", "geometry": {"type": "Point", "coordinates": [-86.06194444444444, 39.71527777777778]}, "properties": {"facility_name": "HOLCIM SOLUTIONS & PRODUCTS (US) LLC", "industry": null, "tri_facility_id": "46203FRSTN3525S"}}, {"type": "Feature", "geometry": {"type": "Point", "coordinates": [-86.102778, 39.745833]}, "properties": {"facility_name": "KERR MCGEE CHEMICAL LLC", "industry": null, "tri_facility_id": "46203KRRMC1450S"}}, {"type": "Feature", "geometry": {"type": "Point", "coordinates": [-86.050278, 39.700833]}, "properties": {"facility_name": "PRECISION RUBBER PLATE CO, INC", "industry": null, "tri_facility_id": "46203PRCSN5620E"}}, {"type": "Feature", "geometry": {"type": "Point", "coordinates": [-86.065278, 39.713889]}, "properties": {"facility_name": "REFINED METALS CORP", "industry": null, "tri_facility_id": "46203RFNDM3700S"}}, {"type": "Feature", "geometry": {"type": "Point", "coordinates": [-86.116667, 39.733333]}, "properties": {"facility_name": "ROYAL FOOD PRODUCTS. LLC", "industry": null, "tri_facility_id": "46203RYLFD2322E"}}, {"type": "Feature", "geometry": {"type": "Point", "coordinates": [-86.14416666666668, 39.722500000000004]}, "properties": {"facility_name": "OLDCASTLE APG - INDIANAPOLIS", "industry": null, "tri_facility_id": "46203SCHST901ET"}}, {"type": "Feature", "geometry": {"type": "Point", "coordinates": [-86.123611, 39.758611]}, "properties": {"facility_name": "TOYOSHIMA SPECIAL STEEL USA", "industry": null, "tri_facility_id": "46203TYSHM735SS"}}, {"type": "Feature", "geometry": {"type": "Point", "coordinates": [-86.131389, 39.741944]}, "properties": {"facility_name": "CAR CARE PACKAGING LLC", "industry": null, "tri_facility_id": "46203WRLDW1910S"}}, {"type": "Feature", "geometry": {"type": "Point", "coordinates": [-86.166667, 39.766667]}, "properties": {"facility_name": "ADM", "industry": null, "tri_facility_id": "46204CMVNS702WW"}}, {"type": "Feature", "geometry": {"type": "Point", "coordinates": [-86.200556, 39.731389]}, "properties": {"facility_name": "LAND O'LAKES INDIANAPOLIS FEED PLANT", "industry": null, "tri_facility_id": "46204CNTRY2435K"}}, {"type": "Feature", "geometry": {"type": "Point", "coordinates": [-86.135278, 39.793889]}, "properties": {"facility_name": "PRODUCTION PLATING CO INC", "industry": null, "tri_facility_id": "46205PRDCT2221N"}}, {"type": "Feature", "geometry": {"type": "Point", "coordinates": [-86.137827, 39.812824]}, "properties": {"facility_name": "ERBRICH-SEWELL PRODUCTS CO INC", "industry": null, "tri_facility_id": "46205RBRCH1120E"}}, {"type": "Feature", "geometry": {"type": "Point", "coordinates": [-86.136111, 39.809722]}, "properties": {"facility_name": "BRULIN HOLDING CO INC.", "industry": null, "tri_facility_id": "46205THBRL2920D"}}, {"type": "Feature", "geometry": {"type": "Point", "coordinates": [-86.264167, 39.886111]}, "properties": {"facility_name": "DELUXE CHECK PRINTERS INC", "industry": null, "tri_facility_id": "46206DLXCH5846W"}}, {"type": "Feature", "geometry": {"type": "Point", "coordinates": [-86.175, 39.763889]}, "properties": {"facility_name": "NATIONAL PRINTFAST", "industry": null, "tri_facility_id": "46206GNRLM340SW"}}, {"type": "Feature", "geometry": {"type": "Point", "coordinates": [-86.2125, 39.730556]}, "properties": {"facility_name": "ROLLS-ROYCE CORP-INDIANAPOLIS OPERATIONS CAMPUS", "industry": null, "tri_facility_id": "46206LLSNG2001S"}}, {"type": "Feature", "geometry": {"type": "Point", "coordinates": [-86.247222, 39.781944]}, "properties": {"facility_name": "ALLISON TRANSMISSION PLANT 2", "industry": null, "tri_facility_id": "46206LLSNT4500W"}}, {"type": "Feature", "geometry": {"type": "Point", "coordinates": [-86.247222, 39.779167]}, "properties": {"facility_name": "ALLISON TRANSMISSION INC", "industry": null, "tri_facility_id": "46206LLSNT4700W"}}, {"type": "Feature", "geometry": {"type": "Point", "coordinates": [-86.231944, 39.779167]}, "properties": {"facility_name": "ALLISON TRANSMISSION DIV PLANT 12/14", "industry": null, "tri_facility_id": "46206LLSNT901GR"}}, {"type": "Feature", "geometry": {"type": "Point", "coordinates": [-86.140278, 39.799444]}, "properties": {"facility_name": "THOMAS & SKINNER INC", "industry": null, "tri_facility_id": "46206THMSS1120E"}}, {"type": "Feature", "geometry": {"type": "Point", "coordinates": [-86.166667, 39.75]}, "properties": {"facility_name": "DIAMOND CHAIN CO", "industry": null, "tri_facility_id": "46207DMNDC402KE"}}, {"type": "Feature", "geometry": {"type": "Point", "coordinates": [-86.186667, 39.807778]}, "properties": {"facility_name": "D-A LUBRICANT CO", "industry": null, "tri_facility_id": "46208DLBRC1340W"}}, {"type": "Feature", "geometry": {"type": "Point", "coordinates": [-86.302222, 39.766944]}, "properties": {"facility_name": "PRYSMIAN CABLES & SYSTEMS USA LLC", "industry": null, "tri_facility_id": "46214CBLCP7950R"}}, {"type": "Feature", "geometry": {"type": "Point", "coordinates": [-86.306944, 39.789444]}, "properties": {"facility_name": "US FILTER IONPURE", "industry": null, "tri_facility_id": "46214MLLPR8211C"}}, {"type": "Feature", "geometry": {"type": "Point", "coordinates": [-86.298333, 39.765833]}, "properties": {"facility_name": "REXNORD INDUSTRIES LLC", "industry": null, "tri_facility_id": "46214PTCMP7601R"}}, {"type": "Feature", "geometry": {"type": "Point", "coordinates": [-86.19722222222222, 39.71138888888889]}, "properties": {"facility_name": "IPL HARDING STREET GENERATING STATION", "industry": null, "tri_facility_id": "46217NDNPL3700S"}}, {"type": "Feature", "geometry": {"type": "Point", "coordinates": [-86.18, 39.6975]}, "properties": {"facility_name": "BOC GASES", "industry": null, "tri_facility_id": "46217RCNDS1045H"}}, {"type": "Feature", "geometry": {"type": "Point", "coordinates": [-86.1931, 39.6731]}, "properties": {"facility_name": "ROYAL SPA CORP", "industry": null, "tri_facility_id": "46217RYLSP2041W"}}, {"type": "Feature", "geometry": {"type": "Point", "coordinates": [-86.067344, 39.818151]}, "properties": {"facility_name": "BOWES INDUSTRIES INC", "industry": null, "tri_facility_id": "46218BWSSL5902E"}}, {"type": "Feature", "geometry": {"type": "Point", "coordinates": [-86.069444, 39.818056]}, "properties": {"facility_name": "COLORS INC", "industry": null, "tri_facility_id": "46218CLRSN5780M"}}, {"type": "Feature", "geometry": {"type": "Point", "coordinates": [-86.1086111111111, 39.79888888888889]}, "properties": {"facility_name": "MICROMETL CORP", "industry": null, "tri_facility_id": "46218MCRMT3419R"}}, {"type": "Feature", "geometry": {"type": "Point", "coordinates": [-86.084722, 39.811111]}, "properties": {"facility_name": "ALEXANDRIA EXTRUSION MIDAMERICA LLC", "industry": null, "tri_facility_id": "46218MDMRC4925A"}}, {"type": "Feature", "geometry": {"type": "Point", "coordinates": [-86.15277777777779, 39.769999999999996]}, "properties": {"facility_name": "MID-STATE CHEMICAL & SUPPLY CO (DBA MS FLUID TECHNOLOGIES)", "industry": null, "tri_facility_id": "46218MDSTT2100G"}}, {"type": "Feature", "geometry": {"type": "Point", "coordinates": [-86.1125, 39.791667]}, "properties": {"facility_name": "MAJOR TOOL & MACHINE INC.", "industry": null, "tri_facility_id": "46218MJRTL1458E"}}, {"type": "Feature", "geometry": {"type": "Point", "coordinates": [-86.0994, 39.8069]}, "properties": {"facility_name": "GTP LLC./MI-TECH TUNGSTEN METALS LLC", "industry": null, "tri_facility_id": "46218MTCHM4701M"}}, {"type": "Feature", "geometry": {"type": "Point", "coordinates": [-86.101389, 39.796944]}, "properties": {"facility_name": "NONFERROUS PRODUCTS INC", "industry": null, "tri_facility_id": "46218NNFRR2205N"}}, {"type": "Feature", "geometry": {"type": "Point", "coordinates": [-86.066111, 39.820278]}, "properties": {"facility_name": "CREATIVE EXPRESSIONS INC", "industry": null, "tri_facility_id": "46218PPRRT3500N"}}, {"type": "Feature", "geometry": {"type": "Point", "coordinates": [-86.1425, 39.791667]}, "properties": {"facility_name": "IVC INDUSTRIAL COATINGS INC.", "industry": null, "tri_facility_id": "46218VCNDS22452"}}, {"type": "Feature", "geometry": {"type": "Point", "coordinates": [-86.125, 39.791667]}, "properties": {"facility_name": "CONNOR CORP", "industry": null, "tri_facility_id": "46218WTCRC3500E"}}, {"type": "Feature", "geometry": {"type": "Point", "coordinates": [-86.135278, 39.791667]}, "properties": {"facility_name": "ZIMMER CUSTOM-MADE PACKAGING", "industry": null, "tri_facility_id": "46218ZMMRP1450E"}}, {"type": "Feature", "geometry": {"type": "Point", "coordinates": [-86.041667, 39.777778]}, "properties": {"facility_name": "CROSSROAD FARMS DAIRY", "industry": null, "tri_facility_id": "46219CRSSR400SS"}}, {"type": "Feature", "geometry": {"type": "Point", "coordinates": [-86.077655, 39.7567]}, "properties": {"facility_name": "UCI SOLVENTS INC", "industry": null, "tri_facility_id": "46219CSLVN5345L"}}, {"type": "Feature", "geometry": {"type": "Point", "coordinates": [-86.083333, 39.816667]}, "properties": {"facility_name": "FIBERGLAS & PLASTIC FAB INC", "industry": null, "tri_facility_id": "46219FBRGL2832N"}}, {"type": "Feature", "geometry": {"type": "Point", "coordinates": [-86.073611, 39.766944]}, "properties": {"facility_name": "FOAMCRAFT INC INDIANAPOLIS BRANCH", "industry": null, "tri_facility_id": "46219FMCRF5529E"}}, {"type": "Feature", "geometry": {"type": "Point", "coordinates": [-86.048611, 39.763889]}, "properties": {"facility_name": "AUTOMOTIVE COMPONENTS HOLDINGS LLC INDIANAPOLIS PLANT", "industry": null, "tri_facility_id": "46219FRDMT6900E"}}, {"type": "Feature", "geometry": {"type": "Point", "coordinates": [-86.0625, 39.761111]}, "properties": {"facility_name": "GENERAL DEVICES CO INC", "industry": null, "tri_facility_id": "46219GNRLD525SW"}}, {"type": "Feature", "geometry": {"type": "Point", "coordinates": [-86.03416666666666, 39.814166666666665]}, "properties": {"facility_name": "HOUGHTON MIFFLIN CO", "industry": null, "tri_facility_id": "46219HGHTN2700N"}}, {"type": "Feature", "geometry": {"type": "Point", "coordinates": [-86.035556, 39.811944]}, "properties": {"facility_name": "ELLIOTT-WILLIAMS CO INC", "industry": null, "tri_facility_id": "46219LLTTW2900N"}}, {"type": "Feature", "geometry": {"type": "Point", "coordinates": [-86.0175, 39.80694444444444]}, "properties": {"facility_name": "MAJOR TOOL & MACHINE PLANT 3", "industry": null, "tri_facility_id": "46219MJRTL2717T"}}, {"type": "Feature", "geometry": {"type": "Point", "coordinates": [-86.054535, 39.763575]}, "properties": {"facility_name": "PIZZA BLENDS INC", "industry": null, "tri_facility_id": "46219MRCNC404SK"}}, {"type": "Feature", "geometry": {"type": "Point", "coordinates": [-86.047778, 39.808611]}, "properties": {"facility_name": "INDIANAPOLIS ELECTRICAL", "industry": null, "tri_facility_id": "46219NDNPL2900N"}}, {"type": "Feature", "geometry": {"type": "Point", "coordinates": [-86.064444, 39.796111]}, "properties": {"facility_name": "US NAVY NAVAL AIR WARFARE CENTER AIRCRAFT DIV", "industry": null, "tri_facility_id": "46219NVLRW6000E"}}, {"type": "Feature", "geometry": {"type": "Point", "coordinates": [-86.074444, 39.756389]}, "properties": {"facility_name": "PUREPOWER TECHNOLOGIES METALCASTING GROUP", "industry": null, "tri_facility_id": "46219NVSTR5565B"}}, {"type": "Feature", "geometry": {"type": "Point", "coordinates": [-86.06444444444445, 39.79611111111111]}, "properties": {"facility_name": "RAYTHEON INTELLIGENCE INFORMATION & SERVICES", "industry": null, "tri_facility_id": "46219RYTHN6125E"}}, {"type": "Feature", "geometry": {"type": "Point", "coordinates": [-86.009722, 39.810556]}, "properties": {"facility_name": "SCHLAGE LOCK CO LLC", "industry": null, "tri_facility_id": "46219VNDPR2720T"}}, {"type": "Feature", "geometry": {"type": "Point", "coordinates": [-86.03555555555555, 39.80972222222222]}, "properties": {"facility_name": "UNIVAR USA INC. - INDIANAPOLIS", "industry": null, "tri_facility_id": "46219VNWTR7425E"}}, {"type": "Feature", "geometry": {"type": "Point", "coordinates": [-86.1175, 39.850833]}, "properties": {"facility_name": "CARSON MANUFACTURING", "industry": null, "tri_facility_id": "46220CRSNM5451N"}}, {"type": "Feature", "geometry": {"type": "Point", "coordinates": [-86.083006, 39.8758]}, "properties": {"facility_name": "FIBERGLAS & PLASTIC FAB INC", "industry": null, "tri_facility_id": "46220FBRGL5151E"}}, {"type": "Feature", "geometry": {"type": "Point", "coordinates": [-86.094444, 39.875]}, "properties": {"facility_name": "LORD CORP", "industry": null, "tri_facility_id": "46220THRMS5101E"}}, {"type": "Feature", "geometry": {"type": "Point", "coordinates": [-86.19694444444445, 39.736111111111114]}, "properties": {"facility_name": "ICOR INTERNATIONAL INC", "industry": null, "tri_facility_id": "46221CRNTL2351K"}}, {"type": "Feature", "geometry": {"type": "Point", "coordinates": [-86.19472222222223, 39.738055555555555]}, "properties": {"facility_name": "JACKSON OILS & SOLVENTS", "industry": null, "tri_facility_id": "46221JCKSN1970K"}}, {"type": "Feature", "geometry": {"type": "Point", "coordinates": [-86.196667, 39.758333]}, "properties": {"facility_name": "ALUMINUM FINISHING CORP", "industry": null, "tri_facility_id": "46221LMNMF624SO"}}, {"type": "Feature", "geometry": {"type": "Point", "coordinates": [-86.163889, 39.761111]}, "properties": {"facility_name": "NATIONAL PRINTING PLATE CO", "industry": null, "tri_facility_id": "46221NTNLP1415S"}}, {"type": "Feature", "geometry": {"type": "Point", "coordinates": [-86.163889, 39.761111]}, "properties": {"facility_name": "INGREDION INC INDIANAPOLIS PLANT", "industry": null, "tri_facility_id": "46221NTNLS1515D"}}, {"type": "Feature", "geometry": {"type": "Point", "coordinates": [-86.19722222222222, 39.75972222222222]}, "properties": {"facility_name": "SHOREWOOD PACKAGING CORP", "industry": null, "tri_facility_id": "46221QNSGR620SB"}}, {"type": "Feature", "geometry": {"type": "Point", "coordinates": [-86.18722222222223, 39.74722222222222]}, "properties": {"facility_name": "CTP SHEETMETAL", "industry": null, "tri_facility_id": "46221TPCCT1401S"}}, {"type": "Feature", "geometry": {"type": "Point", "coordinates": [-86.30972222222222, 39.74777777777778]}, "properties": {"facility_name": "HERITAGE-CRYSTAL CLEAN LLC - RE-REFINERY", "industry": null, "tri_facility_id": "46222CRYST3970W"}}, {"type": "Feature", "geometry": {"type": "Point", "coordinates": [-86.17500000000001, 39.75833333333333]}, "properties": {"facility_name": "GM INDIANAPOLIS METAL CENTER", "industry": null, "tri_facility_id": "46222GMMTL340WH"}}, {"type": "Feature", "geometry": {"type": "Point", "coordinates": [-86.19166666666668, 39.775]}, "properties": {"facility_name": "CARGILL, INC.", "industry": null, "tri_facility_id": "46222LLNSC1730W"}}, {"type": "Feature", "geometry": {"type": "Point", "coordinates": [-86.22194444444445, 39.803888888888885]}, "properties": {"facility_name": "BP -- INDIANAPOLIS TERMINAL", "industry": null, "tri_facility_id": "46222MCLC02500N"}}, {"type": "Feature", "geometry": {"type": "Point", "coordinates": [-86.236944, 39.786944]}, "properties": {"facility_name": "AMERICAN ART CLAY CO INC", "industry": null, "tri_facility_id": "46222MRCNR4717W"}}, {"type": "Feature", "geometry": {"type": "Point", "coordinates": [-86.191667, 39.769444]}, "properties": {"facility_name": "INDUSTRIAL ANODIZING INC.", "industry": null, "tri_facility_id": "46222NDSTR1610W"}}, {"type": "Feature", "geometry": {"type": "Point", "coordinates": [-86.233056, 39.784444]}, "properties": {"facility_name": "PRAXAIR SURFACE TECHNOLOGIES INC", "industry": null, "tri_facility_id": "46222NNCRB4060W"}}, {"type": "Feature", "geometry": {"type": "Point", "coordinates": [-86.198333, 39.758611]}, "properties": {"facility_name": "REXNORD CORP ROLLER CHAIN DIV", "industry": null, "tri_facility_id": "46222PTCMP220SB"}}, {"type": "Feature", "geometry": {"type": "Point", "coordinates": [-86.14805555555556, 39.739444444444445]}, "properties": {"facility_name": "AEROFAB", "industry": null, "tri_facility_id": "46222RFBDV604EL"}}, {"type": "Feature", "geometry": {"type": "Point", "coordinates": [-86.244508, 39.8018]}, "properties": {"facility_name": "COCA-COLA BOTTLING CO", "industry": null, "tri_facility_id": "46224CCCLB5000W"}}, {"type": "Feature", "geometry": {"type": "Point", "coordinates": [-86.2375, 39.783333]}, "properties": {"facility_name": "LINDE GAS & EQUIPMENT", "industry": null, "tri_facility_id": "46224CCLND1400P"}}, {"type": "Feature", "geometry": {"type": "Point", "coordinates": [-86.240851, 39.784512]}, "properties": {"facility_name": "NORRIS CYLINDER CO COMPRESSED GAS CYL DIV", "industry": null, "tri_facility_id": "46224CMPRS1351M"}}, {"type": "Feature", "geometry": {"type": "Point", "coordinates": [-86.241667, 39.784722]}, "properties": {"facility_name": "ELECTRIC STEEL CASTINGS CO", "industry": null, "tri_facility_id": "46224LCTRC1045M"}}, {"type": "Feature", "geometry": {"type": "Point", "coordinates": [-86.2375, 39.783333]}, "properties": {"facility_name": "PRAXAIR SURFACE TECHNOLOGIES INC", "industry": null, "tri_facility_id": "46224NNCRB1245M"}}, {"type": "Feature", "geometry": {"type": "Point", "coordinates": [-86.2375, 39.783333]}, "properties": {"facility_name": "LINDE ADVANCED MATERIAL TECHNOLOGIES INC", "industry": null, "tri_facility_id": "46224NNCRB1500P"}}, {"type": "Feature", "geometry": {"type": "Point", "coordinates": [-86.2375, 39.783333]}, "properties": {"facility_name": "PRAXAIR SURFACE TECHNOLOGIES INC", "industry": null, "tri_facility_id": "46224NNCRB1555M"}}, {"type": "Feature", "geometry": {"type": "Point", "coordinates": [-86.2375, 39.783333]}, "properties": {"facility_name": "PRAXAIR SURFACE TECHNOLOGIES INC", "industry": null, "tri_facility_id": "46224PRXRS1415M"}}, {"type": "Feature", "geometry": {"type": "Point", "coordinates": [-86.22916666666667, 39.7875]}, "properties": {"facility_name": "MPLX TERMINALS LLC - SPEEDWAY IN TERMINAL", "industry": null, "tri_facility_id": "46224SPDWY1304O"}}, {"type": "Feature", "geometry": {"type": "Point", "coordinates": [-86.2375, 39.783333]}, "properties": {"facility_name": "TAYLOR-WHARTON", "industry": null, "tri_facility_id": "46224TYLRW1505N"}}, {"type": "Feature", "geometry": {"type": "Point", "coordinates": [-86.1625, 39.769444]}, "properties": {"facility_name": "A-1 COMPRESSOR INC", "industry": null, "tri_facility_id": "46225CMPRS733WH"}}, {"type": "Feature", "geometry": {"type": "Point", "coordinates": [-86.163333, 39.741667]}, "properties": {"facility_name": "ACME EVANS CO ADM MILLING CO", "industry": null, "tri_facility_id": "46225CMVNS733SM"}}, {"type": "Feature", "geometry": {"type": "Point", "coordinates": [-86.16361111111112, 39.74666666666667]}, "properties": {"facility_name": "GAC MIDAMERICA INC.", "industry": null, "tri_facility_id": "46225GCMDM1598S"}}, {"type": "Feature", "geometry": {"type": "Point", "coordinates": [-86.171944, 39.755278]}, "properties": {"facility_name": "CONAGRA FOODS HEBREW NATIONAL", "industry": null, "tri_facility_id": "46225HBRWN602WE"}}, {"type": "Feature", "geometry": {"type": "Point", "coordinates": [-86.168056, 39.757778]}, "properties": {"facility_name": "ENGINEERED POLYMER SOLUTIONS INC. D/B/A VALSPAR COATINGS", "industry": null, "tri_facility_id": "46225LLLYN546AB"}}, {"type": "Feature", "geometry": {"type": "Point", "coordinates": [-86.1646, 39.747367]}, "properties": {"facility_name": "METALWORKING LUBRICANTS CO", "industry": null, "tri_facility_id": "46225MTLWR1509S"}}, {"type": "Feature", "geometry": {"type": "Point", "coordinates": [-86.153889, 39.743056]}, "properties": {"facility_name": "CARLISLE TIRE & RUBBER CO, WHEEL PLANT", "industry": null, "tri_facility_id": "46225NDSWH1815M"}}, {"type": "Feature", "geometry": {"type": "Point", "coordinates": [-86.172222, 39.730556]}, "properties": {"facility_name": "NATIONAL BY-PRODUCTS INC", "industry": null, "tri_facility_id": "46225NTNLB700WS"}}, {"type": "Feature", "geometry": {"type": "Point", "coordinates": [-86.16416666666667, 39.73777777777778]}, "properties": {"facility_name": "SUPERIOR INDUSTRIAL SOLUTIONS INC.", "industry": null, "tri_facility_id": "46225SPRRL400WR"}}, {"type": "Feature", "geometry": {"type": "Point", "coordinates": [-86.133333, 39.733333]}, "properties": {"facility_name": "QUAKER OATS CO", "industry": null, "tri_facility_id": "46225THQKR2002S"}}, {"type": "Feature", "geometry": {"type": "Point", "coordinates": [-86.133333, 39.733333]}, "properties": {"facility_name": "HEEKIN CAN INC", "industry": null, "tri_facility_id": "46225THQKR2004S"}}, {"type": "Feature", "geometry": {"type": "Point", "coordinates": [-86.043889, 39.8125]}, "properties": {"facility_name": "MAYTAG CORP, JENN-AIR MAGIC CHEF PRODS", "industry": null, "tri_facility_id": "46226JNNRC3035S"}}, {"type": "Feature", "geometry": {"type": "Point", "coordinates": [-86.00972222222222, 39.81388888888888]}, "properties": {"facility_name": "BRENNTAG MID-SOUTH INC", "industry": null, "tri_facility_id": "46226LRCHC3111N"}}, {"type": "Feature", "geometry": {"type": "Point", "coordinates": [-86.1086111111111, 39.79888888888889]}, "properties": {"facility_name": "MICROMETL CORP", "industry": null, "tri_facility_id": "46226MCRMT3035N"}}, {"type": "Feature", "geometry": {"type": "Point", "coordinates": [-86.04666666666667, 39.81638888888889]}, "properties": {"facility_name": "MOORFEED CORP", "industry": null, "tri_facility_id": "46226MRFDC6996E"}}, {"type": "Feature", "geometry": {"type": "Point", "coordinates": [-86.02222222222223, 39.814166666666665]}, "properties": {"facility_name": "ASHLAND INC - INDIANAPOLIS", "industry": null, "tri_facility_id": "46226SHLND8315E"}}, {"type": "Feature", "geometry": {"type": "Point", "coordinates": [-86.02638888888889, 39.81111111111111]}, "properties": {"facility_name": "SMC CORP OF AMERICA", "industry": null, "tri_facility_id": "46226SMCPN3011N"}}, {"type": "Feature", "geometry": {"type": "Point", "coordinates": [-86.14500000000001, 39.714444444444446]}, "properties": {"facility_name": "CTP", "industry": null, "tri_facility_id": "46227CTPXX3505M"}}, {"type": "Feature", "geometry": {"type": "Point", "coordinates": [-86.1275, 39.66694444444444]}, "properties": {"facility_name": "ELECTRONICS MANUFACTURING SOLUTIONS INC", "industry": null, "tri_facility_id": "46227LCTRN6825M"}}, {"type": "Feature", "geometry": {"type": "Point", "coordinates": [-86.144302, 39.711286]}, "properties": {"facility_name": "MOBILE DRILLING CO", "industry": null, "tri_facility_id": "46227MBLDR3807M"}}, {"type": "Feature", "geometry": {"type": "Point", "coordinates": [-86.14500000000001, 39.715]}, "properties": {"facility_name": "TPC CTP SUMNER WAREHOUSE DIV", "industry": null, "tri_facility_id": "46227TBPRC747ES"}}, {"type": "Feature", "geometry": {"type": "Point", "coordinates": [-86.13944444444445, 39.711666666666666]}, "properties": {"facility_name": "CTP", "industry": null, "tri_facility_id": "46227TPCCT3750S"}}, {"type": "Feature", "geometry": {"type": "Point", "coordinates": [-85.993333, 39.811667]}, "properties": {"facility_name": "SUPERIOR METAL TECHNOLOGIES LLC", "industry": null, "tri_facility_id": "46229LMNMF9850E"}}, {"type": "Feature", "geometry": {"type": "Point", "coordinates": [-86.00027777777778, 39.81194444444444]}, "properties": {"facility_name": "LAU INDUSTRIES INC", "industry": null, "tri_facility_id": "46229LNDSN9522E"}}, {"type": "Feature", "geometry": {"type": "Point", "coordinates": [-86.291111, 39.747778]}, "properties": {"facility_name": "CARRIER CORP - INDIANAPOLIS", "industry": null, "tri_facility_id": "46231CRRRC7310W"}}, {"type": "Feature", "geometry": {"type": "Point", "coordinates": [-86.30972222222222, 39.74777777777778]}, "properties": {"facility_name": "HERITAGE ENVIRONMENTAL SERVICES LLC", "industry": null, "tri_facility_id": "46231HRTGN7901W"}}, {"type": "Feature", "geometry": {"type": "Point", "coordinates": [-86.298333, 39.742778]}, "properties": {"facility_name": "MICRONUTRIENTS USA LLC", "industry": null, "tri_facility_id": "46231MCRNT1550R"}}, {"type": "Feature", "geometry": {"type": "Point", "coordinates": [-86.299722, 39.753889]}, "properties": {"facility_name": "ECOBAT RESOURCES INDIANA LLC", "industry": null, "tri_facility_id": "46231QMTCN7870W"}}, {"type": "Feature", "geometry": {"type": "Point", "coordinates": [-86.289, 39.746]}, "properties": {"facility_name": "SUMCO LLC", "industry": null, "tri_facility_id": "46231SMMTF1351S"}}, {"type": "Feature", "geometry": {"type": "Point", "coordinates": [-86.011667, 39.751944]}, "properties": {"facility_name": "GENERAL DEVICES CO INC", "industry": null, "tri_facility_id": "46239GNRLD1410S"}}, {"type": "Feature", "geometry": {"type": "Point", "coordinates": [-86.041944, 39.749722]}, "properties": {"facility_name": "ANDRETTI MACHINE", "industry": null, "tri_facility_id": "46239LDNDR1455L"}}, {"type": "Feature", "geometry": {"type": "Point", "coordinates": [-86.223889, 39.738056]}, "properties": {"facility_name": "BRIDGEPORT BRASS  (DBA OLIN BRASS)", "industry": null, "tri_facility_id": "46241BRDGP1800S"}}, {"type": "Feature", "geometry": {"type": "Point", "coordinates": [-86.215833, 39.750278]}, "properties": {"facility_name": "INDIANAPOLIS FOUNDRY", "industry": null, "tri_facility_id": "46241CHRYS1100S"}}, {"type": "Feature", "geometry": {"type": "Point", "coordinates": [-86.223333, 39.7325]}, "properties": {"facility_name": "COLD METAL PRODUCTS INC", "industry": null, "tri_facility_id": "46241CLDMT2301S"}}, {"type": "Feature", "geometry": {"type": "Point", "coordinates": [-86.221464, 39.724265]}, "properties": {"facility_name": "GENE CONREAUX & CO INC", "industry": null, "tri_facility_id": "46241GNCNR3637F"}}, {"type": "Feature", "geometry": {"type": "Point", "coordinates": [-86.220833, 39.723611]}, "properties": {"facility_name": "HOOSIER WOOD PRESERVERS INC", "industry": null, "tri_facility_id": "46241HSRWD3605F"}}, {"type": "Feature", "geometry": {"type": "Point", "coordinates": [-86.25944444444444, 39.73527777777778]}, "properties": {"facility_name": "ROLLS-ROYCE CORP SINGLE CRYSTAL OPERATION", "industry": null, "tri_facility_id": "46241LLSNN5601F"}}, {"type": "Feature", "geometry": {"type": "Point", "coordinates": [-86.281389, 39.741944]}, "properties": {"facility_name": "PROLIANCE INTERNATIONAL INC", "industry": null, "tri_facility_id": "46241MDNMD5721P"}}, {"type": "Feature", "geometry": {"type": "Point", "coordinates": [-86.26777777777778, 39.69972222222222]}, "properties": {"facility_name": "MALLORY SONALERT PRODUCTS INC.", "industry": null, "tri_facility_id": "46241MLLRY4411S"}}, {"type": "Feature", "geometry": {"type": "Point", "coordinates": [-86.2639, 39.6994]}, "properties": {"facility_name": "MALLORY CAPACITOR CO", "industry": null, "tri_facility_id": "46241MLLRY4760K"}}, {"type": "Feature", "geometry": {"type": "Point", "coordinates": [-86.25, 39.75]}, "properties": {"facility_name": "HENRY CO", "industry": null, "tri_facility_id": "46241MNSYP4351W"}}, {"type": "Feature", "geometry": {"type": "Point", "coordinates": [-86.22611111111111, 39.725]}, "properties": {"facility_name": "MAPLEHURST FARMS INC", "industry": null, "tri_facility_id": "46241MPLHR3745F"}}, {"type": "Feature", "geometry": {"type": "Point", "coordinates": [-86.201767, 39.732134]}, "properties": {"facility_name": "INDIANA FARM BUREAU CO-OP", "industry": null, "tri_facility_id": "46241NDNFR2435K"}}, {"type": "Feature", "geometry": {"type": "Point", "coordinates": [-86.257778, 39.735556]}, "properties": {"facility_name": "SENSIENT FLAVORS INC", "industry": null, "tri_facility_id": "46241NVRSL5600W"}}, {"type": "Feature", "geometry": {"type": "Point", "coordinates": [-86.218333, 39.738611]}, "properties": {"facility_name": "1500 SOUTH TIBBS LLC", "industry": null, "tri_facility_id": "46241RLLYT1500S"}}, {"type": "Feature", "geometry": {"type": "Point", "coordinates": [-86.255658, 39.740828]}, "properties": {"facility_name": "SHELBY COATINGS CO INC", "industry": null, "tri_facility_id": "46241SHLBY5601P"}}, {"type": "Feature", "geometry": {"type": "Point", "coordinates": [-86.29888888888888, 39.68277777777777]}, "properties": {"facility_name": "SVC MANUFACTURING", "industry": null, "tri_facility_id": "46241SVCMN5858D"}}, {"type": "Feature", "geometry": {"type": "Point", "coordinates": [-86.234167, 39.758056]}, "properties": {"facility_name": "MAGNODE CORP-INDIANAP OLIS DIV", "industry": null, "tri_facility_id": "46241WBMTL4151W"}}, {"type": "Feature", "geometry": {"type": "Point", "coordinates": [-86.257222, 39.701944]}, "properties": {"facility_name": "MAGNODE CORP AWB METALS DIVISION", "industry": null, "tri_facility_id": "46241WBMTL90SOU"}}, {"type": "Feature", "geometry": {"type": "Point", "coordinates": [-86.225, 39.741667]}, "properties": {"facility_name": "WOLFE & SWICKARD", "industry": null, "tri_facility_id": "46241WLFSW1344S"}}, {"type": "Feature", "geometry": {"type": "Point", "coordinates": [-86.21833333333333, 39.73861111111111]}, "properties": {"facility_name": "MRM TOLUIC CO", "industry": null, "tri_facility_id": "46242MRMTL1800S"}}, {"type": "Feature", "geometry": {"type": "Point", "coordinates": [-86.03194444444445, 39.93055555555555]}, "properties": {"facility_name": "BOEHRINGER MANNHEIM CORP", "industry": null, "tri_facility_id": "46250BHRNG9115H"}}, {"type": "Feature", "geometry": {"type": "Point", "coordinates": [-86.065, 39.888333]}, "properties": {"facility_name": "DORMAKABA USA INC.", "industry": null, "tri_facility_id": "46250BSTLC6161E"}}, {"type": "Feature", "geometry": {"type": "Point", "coordinates": [-86.028762, 39.91605]}, "properties": {"facility_name": "CHEM LUBE CORP", "industry": null, "tri_facility_id": "46250CHMLB8010E"}}, {"type": "Feature", "geometry": {"type": "Point", "coordinates": [-86.035278, 39.924167]}, "properties": {"facility_name": "HUBBARD FEEDS INC", "industry": null, "tri_facility_id": "46250CNTNN9400C"}}, {"type": "Feature", "geometry": {"type": "Point", "coordinates": [-86.230556, 39.858889]}, "properties": {"facility_name": "ADDISION WESLEY LONGMAN", "industry": null, "tri_facility_id": "46254DDSNW5851G"}}, {"type": "Feature", "geometry": {"type": "Point", "coordinates": [-86.22027777777778, 39.86416666666667]}, "properties": {"facility_name": "DIVERSIFIED SYSTEMS INC.", "industry": null, "tri_facility_id": "46254DVRSF3939W"}}, {"type": "Feature", "geometry": {"type": "Point", "coordinates": [-86.23305555555555, 39.864444444444445]}, "properties": {"facility_name": "AMERICAN ART CLAY CO INC", "industry": null, "tri_facility_id": "46254MRCNR66GUI"}}, {"type": "Feature", "geometry": {"type": "Point", "coordinates": [-86.03583333333333, 39.926944444444445]}, "properties": {"facility_name": "CROWN TECHNOLOGY", "industry": null, "tri_facility_id": "46256CRWNT7513E"}}, {"type": "Feature", "geometry": {"type": "Point", "coordinates": [-86.026728, 39.922956]}, "properties": {"facility_name": "K-WHIT TOOLS INC", "industry": null, "tri_facility_id": "46256KWHTT9210C"}}, {"type": "Feature", "geometry": {"type": "Point", "coordinates": [-86.035556, 39.915833]}, "properties": {"facility_name": "DELPHI ENERGY & CHASSIS SYSTEMS INDIANAPOLIS", "industry": null, "tri_facility_id": "46256NVRSL7601E"}}, {"type": "Feature", "geometry": {"type": "Point", "coordinates": [-86.037222, 39.920556]}, "properties": {"facility_name": "PRINTED WIRING INC", "industry": null, "tri_facility_id": "46256PRNTD9190C"}}, {"type": "Feature", "geometry": {"type": "Point", "coordinates": [-86.255556, 39.907778]}, "properties": {"facility_name": "ASTERION FINISHING TECHNOLOGIES", "industry": null, "tri_facility_id": "46268BNCHM5425W"}}, {"type": "Feature", "geometry": {"type": "Point", "coordinates": [-86.259722, 39.907778]}, "properties": {"facility_name": "BENCHMARK PRODUCTS INC", "industry": null, "tri_facility_id": "46268BNCHM8425Z"}}, {"type": "Feature", "geometry": {"type": "Point", "coordinates": [-86.26361111111112, 39.902499999999996]}, "properties": {"facility_name": "UNIVAR USA INC. INDIANAPOLIS WEST BRANCH", "industry": null, "tri_facility_id": "46268CHMCN5850W"}}, {"type": "Feature", "geometry": {"type": "Point", "coordinates": [-86.208333, 39.875]}, "properties": {"facility_name": "DIVERSIFIED SYSTEMS INC", "industry": null, "tri_facility_id": "46268DVRSF6232L"}}, {"type": "Feature", "geometry": {"type": "Point", "coordinates": [-86.265, 39.921667]}, "properties": {"facility_name": "DOWBRANDS LP", "industry": null, "tri_facility_id": "46268DWBRN9550Z"}}, {"type": "Feature", "geometry": {"type": "Point", "coordinates": [-86.25, 39.922222]}, "properties": {"facility_name": "DOWELANCO LP", "industry": null, "tri_facility_id": "46268DWLNC9410Z"}}, {"type": "Feature", "geometry": {"type": "Point", "coordinates": [-86.250278, 39.895833]}, "properties": {"facility_name": "FLINT INK NA CORP", "industry": null, "tri_facility_id": "46268FLNTN4910W"}}, {"type": "Feature", "geometry": {"type": "Point", "coordinates": [-86.234167, 39.869167]}, "properties": {"facility_name": "CONAGRA FOODS INC", "industry": null, "tri_facility_id": "46268FLSCH4300W"}}, {"type": "Feature", "geometry": {"type": "Point", "coordinates": [-86.25111111111111, 39.913333333333334]}, "properties": {"facility_name": "FERGUSON STEEL CO", "industry": null, "tri_facility_id": "46268FRGSN8787A"}}, {"type": "Feature", "geometry": {"type": "Point", "coordinates": [-86.231111, 39.877778]}, "properties": {"facility_name": "GSC MANUFACTURING INC", "industry": null, "tri_facility_id": "46268GSCMN6727G"}}, {"type": "Feature", "geometry": {"type": "Point", "coordinates": [-86.244444, 39.867778]}, "properties": {"facility_name": "HERFF JONES INC", "industry": null, "tri_facility_id": "46268HRFFJ4719W"}}, {"type": "Feature", "geometry": {"type": "Point", "coordinates": [-86.25666666666666, 39.90694444444444]}, "properties": {"facility_name": "KERAMOS", "industry": null, "tri_facility_id": "46268KRMSX5460W"}}, {"type": "Feature", "geometry": {"type": "Point", "coordinates": [-86.260556, 39.917778]}, "properties": {"facility_name": "ELLIOTT CO OF INDIANAPOLI S INC.", "industry": null, "tri_facility_id": "46268LLTTC9200Z"}}, {"type": "Feature", "geometry": {"type": "Point", "coordinates": [-86.26972222222223, 39.72972222222222]}, "properties": {"facility_name": "EXELEAD INC.", "industry": null, "tri_facility_id": "46268LNPSN6925G"}}, {"type": "Feature", "geometry": {"type": "Point", "coordinates": [-86.243889, 39.881944]}, "properties": {"facility_name": "HARLAN BAKERIES GT LLC", "industry": null, "tri_facility_id": "46268MDFNP7575G"}}, {"type": "Feature", "geometry": {"type": "Point", "coordinates": [-86.246944, 39.914167]}, "properties": {"facility_name": "MPLX TERMINALS LLC - INDIANAPOLIS IN TERMINAL", "industry": null, "tri_facility_id": "46268MRTHN4955R"}}, {"type": "Feature", "geometry": {"type": "Point", "coordinates": [-86.247581, 39.893671]}, "properties": {"facility_name": "PEPSI-COLA METROPOLITAN BOTTLING CO", "industry": null, "tri_facility_id": "46268PPSCL5411W"}}, {"type": "Feature", "geometry": {"type": "Point", "coordinates": [-86.25833333333334, 39.88]}, "properties": {"facility_name": "EPSON AMERICA INC", "industry": null, "tri_facility_id": "46268PSNMR5359W"}}, {"type": "Feature", "geometry": {"type": "Point", "coordinates": [-86.2538888888889, 39.92444444444444]}, "properties": {"facility_name": "EQUILON ENTERPRISES LLC ZIONSVIILLE TERMINAL", "industry": null, "tri_facility_id": "46268QLNNT5405W"}}, {"type": "Feature", "geometry": {"type": "Point", "coordinates": [-86.246944, 39.914167]}, "properties": {"facility_name": "MARATHON OIL CO REFINERY", "industry": null, "tri_facility_id": "46268RCKSL5000W"}}, {"type": "Feature", "geometry": {"type": "Point", "coordinates": [-86.255, 39.894999999999996]}, "properties": {"facility_name": "3M COMPANY (FORMERLY AEARO TECHNOLOGIES)", "industry": null, "tri_facility_id": "46268RCXXX5457W"}}, {"type": "Feature", "geometry": {"type": "Point", "coordinates": [-86.259817, 39.896207]}, "properties": {"facility_name": "AEARO TECHNOLOGIES LLC", "industry": null, "tri_facility_id": "46268RDVSN7911Z"}}, {"type": "Feature", "geometry": {"type": "Point", "coordinates": [-86.25972222222222, 39.90222222222222]}, "properties": {"facility_name": "RTP CO", "industry": null, "tri_facility_id": "46268RTPC08111Z"}}, {"type": "Feature", "geometry": {"type": "Point", "coordinates": [-86.259722, 39.907778]}, "properties": {"facility_name": "SELECO INC", "industry": null, "tri_facility_id": "46268SLCNC8427Z"}}, {"type": "Feature", "geometry": {"type": "Point", "coordinates": [-86.244722, 39.911111]}, "properties": {"facility_name": "ASPHALT MATERIALS INC", "industry": null, "tri_facility_id": "46268SPHLT4900W"}}, {"type": "Feature", "geometry": {"type": "Point", "coordinates": [-86.2314, 39.8966]}, "properties": {"facility_name": "STAR AMMUNITION INC", "industry": null, "tri_facility_id": "46268STRMM5520R"}}, {"type": "Feature", "geometry": {"type": "Point", "coordinates": [-86.267778, 39.868333]}, "properties": {"facility_name": "GSC MFG INC", "industry": null, "tri_facility_id": "46278GSCMN6014C"}}, {"type": "Feature", "geometry": {"type": "Point", "coordinates": [-86.26694444444445, 39.87305555555555]}, "properties": {"facility_name": "PRC-DESOTO INTERNATIONAL INC.", "industry": null, "tri_facility_id": "46278PRCDS6022C"}}, {"type": "Feature", "geometry": {"type": "Point", "coordinates": [-86.266236, 39.883775]}, "properties": {"facility_name": "SHEPARD & POORMAN, COMMUNICATIONS INC", "industry": null, "tri_facility_id": "46278SHPRD7301W"}}, {"type": "Feature", "geometry": {"type": "Point", "coordinates": [-86.179, 39.7512]}, "properties": {"facility_name": "LILLY INDUSTRIAL CENTER 1200 KENTUCKY AVE", "industry": null, "tri_facility_id": "46285LLLLY1200K"}}, {"type": "Feature", "geometry": {"type": "Point", "coordinates": [-86.175, 39.736111]}, "properties": {"facility_name": "LILLY TECHNOLOGY CENTER", "industry": null, "tri_facility_id": "46285LLLLY1555K"}}, {"type": "Feature", "geometry": {"type": "Point", "coordinates": [-86.25525, 39.733538]}, "properties": {"facility_name": "PARK FLETCHER PLANT", "industry": null, "tri_facility_id": "46285LLLLY2301E"}}, {"type": "Feature", "geometry": {"type": "Point", "coordinates": [-86.152778, 39.758333]}, "properties": {"facility_name": "LILLY CORPORATE CENTER", "industry": null, "tri_facility_id": "46285LLLLYLILLY"}}, {"type": "Feature", "geometry": {"type": "Point", "coordinates": [-86.019722, 39.815833]}, "properties": {"facility_name": "NCH CORP MOHAWK LABS DIV", "industry": null, "tri_facility_id": "46626MHWKL8401E"}}]}