{"type": "FeatureCollection", "features": [{"type": "Feature", "properties": {"area_id": 8532, "city": "Little Rock", "state": "AR", "city_survey": true, "cat": "Best", "grade": "A", "label": "A1", "res": true, "com": false, "ind": false, "holc_grade": "A"}, "geometry": {"type": "Polygon", "coordinates": [[[-92.345185, 34.768479], [-92.34518, 34.76974], [-92.34516, 34.76974], [-92.340611, 34.769465], [-92.3359, 34.76918], [-92.33587, 34.77018], [-92.33623, 34.77022], [-92.33623, 34.77024], [-92.3361, 34.77396], [-92.33169, 34.77373], [-92.33172, 34.77393], [-92.33166, 34.77548], [-92.32941, 34.77533], [-92.32943, 34.77446], [-92.32729, 34.77439], [-92.32727, 34.77342], [-92.32296, 34.77334], [-92.32301, 34.77305], [-92.32313, 34.77174], [-92.32236, 34.77199], [-92.32173, 34.77195], [-92.32146, 34.77187], [-92.321, 34.77161], [-92.32104, 34.77132], [-92.32318, 34.76996], [-92.32424, 34.76991], [-92.32423, 34.76937], [-92.32395, 34.7688], [-92.32326, 34.76803], [-92.32273, 34.76819], [-92.32029, 34.76942], [-92.31967, 34.76963], [-92.319, 34.76946], [-92.31821, 34.76913], [-92.31703, 34.76796], [-92.31732, 34.76714], [-92.31944, 34.76634], [-92.32089, 34.76599], [-92.32196, 34.76584], [-92.32316, 34.76526], [-92.32443, 34.76526], [-92.32572, 34.76568], [-92.32683, 34.76588], [-92.3289, 34.7663], [-92.32909, 34.7663], [-92.33624, 34.7666], [-92.34065, 34.766782], [-92.34519, 34.76697], [-92.345185, 34.768479]]]}}, {"type": "Feature", "properties": {"area_id": 8501, "city": "Little Rock", "state": "AR", "city_survey": true, "cat": "Best", "grade": "A", "label": "A2", "res": true, "com": false, "ind": false, "holc_grade": "A"}, "geometry": {"type": "Polygon", "coordinates": [[[-92.30548, 34.74726], [-92.30547, 34.74907], [-92.30864, 34.74921], [-92.30981, 34.74927], [-92.30982, 34.74974], [-92.30983, 34.74974], [-92.31347, 34.74991], [-92.31425, 34.74994], [-92.31426, 34.75084], [-92.31426, 34.75086], [-92.31426, 34.75123], [-92.31533, 34.75129], [-92.31533, 34.751301], [-92.3153, 34.752], [-92.3153, 34.75203], [-92.31517, 34.7552], [-92.317076, 34.755246], [-92.33341, 34.75564], [-92.3333, 34.76096], [-92.33669, 34.76108], [-92.33684, 34.76108], [-92.336737, 34.762024], [-92.33624, 34.7666], [-92.32909, 34.7663], [-92.32867, 34.76598], [-92.32754, 34.76564], [-92.32664, 34.76547], [-92.32651, 34.76495], [-92.32691, 34.76451], [-92.32833, 34.76451], [-92.33026, 34.76397], [-92.3311, 34.76395], [-92.33168, 34.76346], [-92.33136, 34.76218], [-92.33068, 34.76266], [-92.33004, 34.76288], [-92.32973, 34.762938], [-92.329499, 34.762982], [-92.32935, 34.76301], [-92.328992, 34.762899], [-92.32822, 34.76266], [-92.32631, 34.76241], [-92.32516, 34.7626], [-92.323447, 34.762786], [-92.32291, 34.762845], [-92.32286, 34.76285], [-92.322859, 34.762851], [-92.32162, 34.76401], [-92.32041, 34.7644], [-92.319797, 34.764521], [-92.31611, 34.76525], [-92.313299, 34.765223], [-92.31304, 34.76522], [-92.313044, 34.765108], [-92.313045, 34.765076], [-92.313134, 34.762233], [-92.31319, 34.76045], [-92.30986, 34.7601], [-92.31004, 34.75612], [-92.30548, 34.75603], [-92.30556, 34.75498], [-92.30509, 34.75493], [-92.30526, 34.75109], [-92.30081, 34.75087], [-92.300814, 34.750761], [-92.30095, 34.74716], [-92.30095, 34.74709], [-92.30548, 34.74725], [-92.30548, 34.74726]]]}}, {"type": "Feature", "properties": {"area_id": 8508, "city": "Little Rock", "state": "AR", "city_survey": true, "cat": "Best", "grade": "A", "label": "A3", "res": true, "com": false, "ind": false, "holc_grade": "A"}, "geometry": {"type": "Polygon", "coordinates": [[[-92.29165, 34.7321], [-92.2919, 34.72824], [-92.29191, 34.7282], [-92.29185, 34.7282], [-92.29204, 34.72491], [-92.29204, 34.72487], [-92.2921, 34.72487], [-92.29652, 34.72503], [-92.29652, 34.72505], [-92.29648, 34.72734], [-92.2962, 34.73231], [-92.2962, 34.73232], [-92.29561, 34.7323], [-92.29561, 34.73232], [-92.29528, 34.73762], [-92.29406, 34.73761], [-92.29292, 34.7376], [-92.293187, 34.732199], [-92.29319, 34.73214], [-92.29165, 34.7321]]]}}, {"type": "Feature", "properties": {"area_id": 8510, "city": "Little Rock", "state": "AR", "city_survey": true, "cat": "Best", "grade": "A", "label": "A4", "res": true, "com": false, "ind": false, "holc_grade": "A"}, "geometry": {"type": "Polygon", "coordinates": [[[-92.27896, 34.72278], [-92.27907, 34.72158], [-92.28628, 34.72172], [-92.28609, 34.72464], [-92.28609, 34.724712], [-92.28609, 34.72473], [-92.28611, 34.72473], [-92.28615, 34.72473], [-92.28602, 34.72701], [-92.28599, 34.72701], [-92.28597, 34.727], [-92.28238, 34.72684], [-92.28224, 34.72983], [-92.27978, 34.72973], [-92.27972, 34.73172], [-92.27925, 34.7342], [-92.27678, 34.73388], [-92.2772, 34.73192], [-92.27759, 34.72645], [-92.27725, 34.72571], [-92.27885, 34.72572], [-92.27885, 34.72549], [-92.278867, 34.72443], [-92.27888, 34.72363], [-92.27896, 34.72278]]]}}, {"type": "Feature", "properties": {"area_id": 8527, "city": "Little Rock", "state": "AR", "city_survey": true, "cat": "Best", "grade": "A", "label": "A5", "res": true, "com": false, "ind": false, "holc_grade": "A"}, "geometry": {"type": "Polygon", "coordinates": [[[-92.26708, 34.78093], [-92.26741, 34.78065], [-92.267385, 34.781403], [-92.26733, 34.78305], [-92.26685, 34.78349], [-92.26676, 34.78458], [-92.26675, 34.78553], [-92.2671, 34.78591], [-92.26731, 34.78597], [-92.26767, 34.78641], [-92.26767, 34.78681], [-92.26756, 34.78727], [-92.26702, 34.78789], [-92.26704, 34.78828], [-92.26675, 34.78887], [-92.26636, 34.78944], [-92.26571, 34.79008], [-92.260278, 34.790017], [-92.25195, 34.78992], [-92.25215, 34.7826], [-92.25596, 34.78264], [-92.25556, 34.78223], [-92.25501, 34.78203], [-92.25435, 34.78197], [-92.25402, 34.78194], [-92.25354, 34.78172], [-92.25327, 34.78116], [-92.25322, 34.78097], [-92.25301, 34.78082], [-92.25298, 34.78066], [-92.25295, 34.78048], [-92.25303, 34.78035], [-92.25325, 34.78024], [-92.25386, 34.7803], [-92.25426, 34.78035], [-92.25469, 34.78044], [-92.2553, 34.78043], [-92.25581, 34.78056], [-92.25622, 34.78069], [-92.25654, 34.7807], [-92.25727, 34.78067], [-92.25756, 34.78068], [-92.25777, 34.78071], [-92.25806, 34.78091], [-92.25815, 34.78106], [-92.25817, 34.78148], [-92.25816, 34.78165], [-92.25851, 34.78178], [-92.25884, 34.78186], [-92.25916, 34.78188], [-92.25937, 34.78162], [-92.25951, 34.7815], [-92.25973, 34.78146], [-92.26001, 34.78151], [-92.26032, 34.78152], [-92.26055, 34.78147], [-92.26079, 34.78148], [-92.26132, 34.78172], [-92.26182, 34.78192], [-92.26198, 34.78167], [-92.26251, 34.78138], [-92.26292, 34.78126], [-92.263093, 34.781291], [-92.2636, 34.78138], [-92.26431, 34.78167], [-92.2648, 34.78171], [-92.26529, 34.78159], [-92.26546, 34.78155], [-92.26571, 34.78155], [-92.266469, 34.78108], [-92.26668, 34.78095], [-92.26708, 34.78093]]]}}, {"type": "Feature", "properties": {"area_id": 8534, "city": "Little Rock", "state": "AR", "city_survey": true, "cat": "Still Desirable", "grade": "B", "label": "B1", "res": true, "com": false, "ind": false, "holc_grade": "B"}, "geometry": {"type": "Polygon", "coordinates": [[[-92.3362, 34.77392], [-92.340469, 34.774115], [-92.34057, 34.77412], [-92.34058, 34.77411], [-92.3405, 34.77767], [-92.340362, 34.777666], [-92.33612, 34.77753], [-92.3362, 34.77392]]]}}, {"type": "Feature", "properties": {"area_id": 8521, "city": "Little Rock", "state": "AR", "city_survey": true, "cat": "Still Desirable", "grade": "B", "label": "B10", "res": true, "com": false, "ind": false, "holc_grade": "B"}, "geometry": {"type": "Polygon", "coordinates": [[[-92.26716, 34.7671], [-92.26732, 34.76711], [-92.26733, 34.76711], [-92.26733, 34.76717], [-92.26733, 34.7672], [-92.26733, 34.76732], [-92.26844, 34.76735], [-92.268424, 34.76837], [-92.26841, 34.76926], [-92.26838, 34.76926], [-92.26835, 34.76926], [-92.26834, 34.76932], [-92.26808, 34.7721], [-92.26811, 34.77365], [-92.26809, 34.7766], [-92.26667, 34.77656], [-92.26668, 34.77575], [-92.26667, 34.77574], [-92.26667, 34.77573], [-92.26571, 34.7757], [-92.26567, 34.77414], [-92.26344, 34.77413], [-92.26349, 34.77239], [-92.26358, 34.76918], [-92.26601, 34.76924], [-92.266028, 34.768291], [-92.26605, 34.76708], [-92.26716, 34.7671]]]}}, {"type": "Feature", "properties": {"area_id": 8528, "city": "Little Rock", "state": "AR", "city_survey": true, "cat": "Still Desirable", "grade": "B", "label": "B11", "res": true, "com": false, "ind": false, "holc_grade": "B"}, "geometry": {"type": "Polygon", "coordinates": [[[-92.26891, 34.759], [-92.26891, 34.75896], [-92.26902, 34.75704], [-92.27135, 34.75715], [-92.27401, 34.75759], [-92.27392, 34.75822], [-92.27323, 34.75821], [-92.2732, 34.75868], [-92.27188, 34.7587], [-92.27185, 34.7591], [-92.27181, 34.7591], [-92.26891, 34.759]]]}}, {"type": "Feature", "properties": {"area_id": 8526, "city": "Little Rock", "state": "AR", "city_survey": true, "cat": "Still Desirable", "grade": "B", "label": "B12", "res": true, "com": false, "ind": false, "holc_grade": "B"}, "geometry": {"type": "Polygon", "coordinates": [[[-92.23717, 34.75337], [-92.24429, 34.75356], [-92.24418, 34.75543], [-92.23712, 34.75525], [-92.23723, 34.75346], [-92.23716, 34.75345], [-92.23717, 34.75337]]]}}, {"type": "Feature", "properties": {"area_id": 8533, "city": "Little Rock", "state": "AR", "city_survey": true, "cat": "Still Desirable", "grade": "B", "label": "B2", "res": true, "com": false, "ind": false, "holc_grade": "B"}, "geometry": {"type": "Polygon", "coordinates": [[[-92.33623, 34.77022], [-92.33587, 34.77018], [-92.3359, 34.76918], [-92.340611, 34.769465], [-92.34516, 34.76974], [-92.34506, 34.77413], [-92.34079, 34.77393], [-92.34086, 34.77041], [-92.340586, 34.7704], [-92.33623, 34.77024], [-92.33623, 34.77022]]]}}, {"type": "Feature", "properties": {"area_id": 8502, "city": "Little Rock", "state": "AR", "city_survey": true, "cat": "Still Desirable", "grade": "B", "label": "B3", "res": true, "com": false, "ind": false, "holc_grade": "B"}, "geometry": {"type": "Polygon", "coordinates": [[[-92.31426, 34.75086], [-92.31426, 34.75084], [-92.31425, 34.74994], [-92.31347, 34.74991], [-92.30983, 34.74974], [-92.30982, 34.74974], [-92.30981, 34.74927], [-92.30864, 34.74921], [-92.30547, 34.74907], [-92.30548, 34.74726], [-92.31473, 34.74766], [-92.31474, 34.74766], [-92.31865, 34.74782], [-92.318561, 34.751468], [-92.31856, 34.75152], [-92.33182, 34.75197], [-92.33458, 34.75203], [-92.334752, 34.752016], [-92.33607, 34.75191], [-92.336066, 34.752008], [-92.3359, 34.75578], [-92.33686, 34.75577], [-92.33669, 34.76108], [-92.3333, 34.76096], [-92.33341, 34.75564], [-92.317076, 34.755246], [-92.31517, 34.7552], [-92.3153, 34.75203], [-92.3153, 34.752], [-92.31533, 34.751301], [-92.31533, 34.75129], [-92.31426, 34.75123], [-92.31426, 34.75086]]]}}, {"type": "Feature", "properties": {"area_id": 8505, "city": "Little Rock", "state": "AR", "city_survey": true, "cat": "Still Desirable", "grade": "B", "label": "B4", "res": true, "com": false, "ind": false, "holc_grade": "B"}, "geometry": {"type": "Polygon", "coordinates": [[[-92.3325, 34.73372], [-92.33272, 34.73019], [-92.3329, 34.72736], [-92.33293, 34.72736], [-92.33293, 34.72662], [-92.33294, 34.72661], [-92.33701, 34.72668], [-92.33719, 34.72731], [-92.336906, 34.733889], [-92.33659, 34.74123], [-92.33213, 34.74107], [-92.33213, 34.74106], [-92.332497, 34.733831], [-92.3325, 34.73378], [-92.3325, 34.73372]]]}}, {"type": "Feature", "properties": {"area_id": 8503, "city": "Little Rock", "state": "AR", "city_survey": true, "cat": "Still Desirable", "grade": "B", "label": "B5", "res": true, "com": false, "ind": false, "holc_grade": "B"}, "geometry": {"type": "Polygon", "coordinates": [[[-92.29639, 34.7496], [-92.29646, 34.74707], [-92.30095, 34.74709], [-92.30095, 34.74716], [-92.300814, 34.750761], [-92.30081, 34.75087], [-92.29643, 34.75068], [-92.29638, 34.75236], [-92.29635, 34.75236], [-92.29462, 34.75236], [-92.29463, 34.75215], [-92.29464, 34.75178], [-92.29447, 34.75177], [-92.29434, 34.75177], [-92.29441, 34.75064], [-92.29441, 34.750548], [-92.29441, 34.75053], [-92.29425, 34.75052], [-92.294204, 34.750515], [-92.29415, 34.75051], [-92.29415, 34.750498], [-92.29414, 34.7496], [-92.29639, 34.7496]]]}}, {"type": "Feature", "properties": {"area_id": 8507, "city": "Little Rock", "state": "AR", "city_survey": true, "cat": "Still Desirable", "grade": "B", "label": "B6", "res": true, "com": false, "ind": false, "holc_grade": "B"}, "geometry": {"type": "Polygon", "coordinates": [[[-92.296917, 34.732328], [-92.29712, 34.73233], [-92.299033, 34.73237], [-92.30172, 34.732426], [-92.3029, 34.73245], [-92.3029, 34.73247], [-92.30278, 34.73411], [-92.30264, 34.73585], [-92.3027, 34.73654], [-92.30273, 34.73688], [-92.30251, 34.7379], [-92.3024, 34.73984], [-92.29526, 34.73968], [-92.29501, 34.74464], [-92.29373, 34.74462], [-92.29375, 34.74415], [-92.29406, 34.73762], [-92.29406, 34.73761], [-92.29528, 34.73762], [-92.29561, 34.73232], [-92.29561, 34.7323], [-92.2962, 34.73232], [-92.296656, 34.732325], [-92.296917, 34.732328]]]}}, {"type": "Feature", "properties": {"area_id": 8511, "city": "Little Rock", "state": "AR", "city_survey": true, "cat": "Still Desirable", "grade": "B", "label": "B7", "res": true, "com": false, "ind": false, "holc_grade": "B"}, "geometry": {"type": "Polygon", "coordinates": [[[-92.27464, 34.73258], [-92.27351, 34.73244], [-92.27351, 34.73242], [-92.27366, 34.73163], [-92.27384, 34.7257], [-92.2739, 34.7257], [-92.27725, 34.72571], [-92.27759, 34.72645], [-92.2772, 34.73192], [-92.27678, 34.73388], [-92.27925, 34.7342], [-92.27972, 34.73172], [-92.27978, 34.72973], [-92.28224, 34.72983], [-92.28238, 34.72684], [-92.28597, 34.727], [-92.28599, 34.72701], [-92.28582, 34.73091], [-92.28578, 34.73091], [-92.28477, 34.73088], [-92.28214, 34.73078], [-92.28215, 34.73171], [-92.281202, 34.736479], [-92.28119, 34.73654], [-92.28007, 34.73635], [-92.27987, 34.73728], [-92.27986, 34.73728], [-92.278654, 34.737116], [-92.27744, 34.73695], [-92.27386, 34.73647], [-92.27383, 34.73647], [-92.273972, 34.735494], [-92.27399, 34.73537], [-92.27464, 34.73258]]]}}, {"type": "Feature", "properties": {"area_id": 8514, "city": "Little Rock", "state": "AR", "city_survey": true, "cat": "Still Desirable", "grade": "B", "label": "B8", "res": true, "com": false, "ind": false, "holc_grade": "B"}, "geometry": {"type": "Polygon", "coordinates": [[[-92.26722, 34.7395], [-92.26721, 34.73948], [-92.26709, 34.73756], [-92.26709, 34.73526], [-92.26346, 34.73516], [-92.26342, 34.73944], [-92.26342, 34.73954], [-92.25982, 34.73943], [-92.25843, 34.73949], [-92.25843, 34.73947], [-92.25843, 34.73946], [-92.25864, 34.73398], [-92.26334, 34.73414], [-92.26349, 34.73453], [-92.26708, 34.73454], [-92.26808, 34.73471], [-92.26808, 34.73472], [-92.270433, 34.735029], [-92.27158, 34.73518], [-92.27065, 34.74009], [-92.269469, 34.739885], [-92.26944, 34.73988], [-92.26722, 34.7395]]]}}, {"type": "Feature", "properties": {"area_id": 8519, "city": "Little Rock", "state": "AR", "city_survey": true, "cat": "Still Desirable", "grade": "B", "label": "B9", "res": true, "com": false, "ind": false, "holc_grade": "B"}, "geometry": {"type": "Polygon", "coordinates": [[[-92.27997, 34.76164], [-92.280046, 34.761643], [-92.28085, 34.76167], [-92.28293, 34.76174], [-92.28385, 34.76177], [-92.28386, 34.76177], [-92.28385, 34.76227], [-92.28515, 34.76227], [-92.28512, 34.76529], [-92.28403, 34.76542], [-92.28401, 34.77232], [-92.28281, 34.77229], [-92.282809, 34.772399], [-92.28277, 34.77585], [-92.28276, 34.77585], [-92.273688, 34.77578], [-92.27365, 34.77578], [-92.27334, 34.77509], [-92.272361, 34.772982], [-92.271952, 34.772102], [-92.27072, 34.76945], [-92.2707, 34.76942], [-92.27065, 34.76932], [-92.27197, 34.7694], [-92.27205, 34.76844], [-92.272231, 34.768444], [-92.27307, 34.76846], [-92.27308, 34.76846], [-92.27905, 34.76858], [-92.279124, 34.768416], [-92.27953, 34.76752], [-92.279562, 34.766852], [-92.27979, 34.76217], [-92.27996, 34.76163], [-92.27997, 34.76164]]]}}, {"type": "Feature", "properties": {"area_id": 8504, "city": "Little Rock", "state": "AR", "city_survey": true, "cat": "Definitely Declining", "grade": "C", "label": "C1", "res": true, "com": false, "ind": false, "holc_grade": "C"}, "geometry": {"type": "Polygon", "coordinates": [[[-92.33297, 34.72346], [-92.33293, 34.72662], [-92.33293, 34.72736], [-92.3329, 34.72736], [-92.32838, 34.72732], [-92.32819, 34.73008], [-92.33272, 34.73019], [-92.3325, 34.73372], [-92.3325, 34.73378], [-92.32817, 34.73355], [-92.325614, 34.733559], [-92.32528, 34.73356], [-92.32375, 34.73362], [-92.32327, 34.74078], [-92.33213, 34.74106], [-92.33213, 34.74107], [-92.3322, 34.74287], [-92.33206, 34.74474], [-92.31884, 34.74419], [-92.318816, 34.74464], [-92.31865, 34.74782], [-92.31474, 34.74766], [-92.31473, 34.74766], [-92.30548, 34.74726], [-92.30548, 34.74725], [-92.30095, 34.74709], [-92.29646, 34.74707], [-92.29639, 34.7496], [-92.29414, 34.7496], [-92.29415, 34.750498], [-92.29415, 34.75051], [-92.294204, 34.750515], [-92.29425, 34.75052], [-92.29441, 34.75053], [-92.29441, 34.750548], [-92.29441, 34.75064], [-92.29434, 34.75177], [-92.29447, 34.75177], [-92.29464, 34.75178], [-92.29463, 34.75215], [-92.29462, 34.75236], [-92.29635, 34.75236], [-92.29626, 34.75436], [-92.29315, 34.75424], [-92.29259, 34.75354], [-92.29195, 34.75236], [-92.29175, 34.75104], [-92.291828, 34.750306], [-92.29185, 34.7501], [-92.29246, 34.74889], [-92.29247, 34.74887], [-92.29352, 34.74809], [-92.29498, 34.74731], [-92.295327, 34.747164], [-92.29598, 34.74689], [-92.29743, 34.74642], [-92.29867, 34.74602], [-92.29956, 34.74573], [-92.29993, 34.7455], [-92.30031, 34.74524], [-92.30072, 34.74493], [-92.30106, 34.74462], [-92.3014, 34.74421], [-92.302142, 34.743112], [-92.30215, 34.7431], [-92.30271, 34.74214], [-92.303064, 34.741301], [-92.30322, 34.74093], [-92.30234, 34.74085], [-92.30239, 34.74001], [-92.3024, 34.73984], [-92.30251, 34.7379], [-92.30273, 34.73688], [-92.3027, 34.73654], [-92.30264, 34.73585], [-92.30278, 34.73411], [-92.3029, 34.73247], [-92.3029, 34.73245], [-92.302939, 34.732021], [-92.30294, 34.73201], [-92.30322, 34.73189], [-92.303586, 34.731736], [-92.30621, 34.73063], [-92.30609, 34.73265], [-92.30951, 34.73281], [-92.30964, 34.73079], [-92.30889, 34.72955], [-92.30637, 34.73055], [-92.30637, 34.72551], [-92.30859, 34.72556], [-92.30843, 34.7297], [-92.319661, 34.72518], [-92.32684, 34.72229], [-92.32784, 34.72266], [-92.32865, 34.72286], [-92.33297, 34.72346]]]}}, {"type": "Feature", "properties": {"area_id": 8524, "city": "Little Rock", "state": "AR", "city_survey": true, "cat": "Definitely Declining", "grade": "C", "label": "C10", "res": true, "com": false, "ind": false, "holc_grade": "C"}, "geometry": {"type": "Polygon", "coordinates": [[[-92.26156, 34.75825], [-92.26153, 34.75825], [-92.26159, 34.75708], [-92.2616, 34.757], [-92.26221, 34.757007], [-92.26514, 34.75704], [-92.26518, 34.75704], [-92.26509, 34.75989], [-92.26647, 34.76096], [-92.262054, 34.760861], [-92.26158, 34.76085], [-92.26156, 34.75825]]]}}, {"type": "Feature", "properties": {"area_id": 8517, "city": "Little Rock", "state": "AR", "city_survey": true, "cat": "Definitely Declining", "grade": "C", "label": "C2", "res": true, "com": false, "ind": false, "holc_grade": "C"}, "geometry": {"type": "Polygon", "coordinates": [[[-92.28413, 34.75167], [-92.28335, 34.75231], [-92.28255, 34.75287], [-92.28152, 34.75315], [-92.28096, 34.75328], [-92.27697, 34.75201], [-92.27615, 34.75145], [-92.27554, 34.75121], [-92.27456, 34.75094], [-92.27483, 34.7498], [-92.28485, 34.7511], [-92.28413, 34.75167]]]}}, {"type": "Feature", "properties": {"area_id": 8515, "city": "Little Rock", "state": "AR", "city_survey": true, "cat": "Definitely Declining", "grade": "C", "label": "C3", "res": true, "com": false, "ind": false, "holc_grade": "C"}, "geometry": {"type": "Polygon", "coordinates": [[[-92.287909, 34.744395], [-92.28784, 34.74753], [-92.28885, 34.74768], [-92.2905, 34.74761], [-92.29037, 34.74946], [-92.28879, 34.74952], [-92.28707, 34.74944], [-92.28597, 34.74926], [-92.28569, 34.75013], [-92.28115, 34.74958], [-92.27626, 34.74888], [-92.27748, 34.743], [-92.279903, 34.743318], [-92.28791, 34.74437], [-92.287909, 34.744395]]]}}, {"type": "Feature", "properties": {"area_id": 8512, "city": "Little Rock", "state": "AR", "city_survey": true, "cat": "Definitely Declining", "grade": "C", "label": "C4", "res": true, "com": false, "ind": false, "holc_grade": "C"}, "geometry": {"type": "Polygon", "coordinates": [[[-92.29204, 34.72491], [-92.29185, 34.7282], [-92.289551, 34.72807], [-92.28831, 34.728], [-92.288153, 34.737431], [-92.28812, 34.73942], [-92.28735, 34.74233], [-92.277897, 34.740964], [-92.27787, 34.74096], [-92.27785, 34.74109], [-92.27304, 34.74045], [-92.27386, 34.73647], [-92.27744, 34.73695], [-92.277438, 34.73697], [-92.27735, 34.7378], [-92.27708, 34.73891], [-92.277094, 34.738912], [-92.278137, 34.739035], [-92.27944, 34.73919], [-92.27986, 34.73728], [-92.27987, 34.73728], [-92.28007, 34.73635], [-92.28119, 34.73654], [-92.281202, 34.736479], [-92.28215, 34.73171], [-92.28214, 34.73078], [-92.28477, 34.73088], [-92.28578, 34.73091], [-92.28582, 34.73091], [-92.28599, 34.72701], [-92.28602, 34.72701], [-92.28615, 34.72473], [-92.28932, 34.724827], [-92.28967, 34.724838], [-92.29204, 34.72491]]]}}, {"type": "Feature", "properties": {"area_id": 8513, "city": "Little Rock", "state": "AR", "city_survey": true, "cat": "Definitely Declining", "grade": "C", "label": "C5", "res": true, "com": false, "ind": false, "holc_grade": "C"}, "geometry": {"type": "Polygon", "coordinates": [[[-92.26808, 34.73471], [-92.26812, 34.73472], [-92.26864, 34.73186], [-92.269, 34.72568], [-92.272675, 34.725695], [-92.27384, 34.7257], [-92.27366, 34.73163], [-92.27351, 34.73242], [-92.27224, 34.73227], [-92.271601, 34.735174], [-92.2716, 34.73518], [-92.27158, 34.73518], [-92.270433, 34.735029], [-92.26808, 34.73472], [-92.26808, 34.73471]]]}}, {"type": "Feature", "properties": {"area_id": 8516, "city": "Little Rock", "state": "AR", "city_survey": true, "cat": "Definitely Declining", "grade": "C", "label": "C6", "res": true, "com": false, "ind": false, "holc_grade": "C"}, "geometry": {"type": "Polygon", "coordinates": [[[-92.25843, 34.7395], [-92.25843, 34.73949], [-92.25982, 34.73943], [-92.26342, 34.73954], [-92.26342, 34.73944], [-92.26721, 34.73948], [-92.26722, 34.7395], [-92.26944, 34.73988], [-92.26884, 34.742832], [-92.26841, 34.74495], [-92.2648, 34.74467], [-92.262842, 34.744508], [-92.26226, 34.74446], [-92.25876, 34.7444], [-92.25828, 34.74317], [-92.2583, 34.741924], [-92.25834, 34.7395], [-92.25843, 34.7395]]]}}, {"type": "Feature", "properties": {"area_id": 8518, "city": "Little Rock", "state": "AR", "city_survey": true, "cat": "Definitely Declining", "grade": "C", "label": "C7", "res": true, "com": false, "ind": false, "holc_grade": "C"}, "geometry": {"type": "Polygon", "coordinates": [[[-92.28399, 34.75737], [-92.28338, 34.75945], [-92.28293, 34.76174], [-92.28085, 34.76167], [-92.280046, 34.761643], [-92.27997, 34.76164], [-92.28075, 34.75968], [-92.280892, 34.759373], [-92.28238, 34.75615], [-92.28399, 34.75737]]]}}, {"type": "Feature", "properties": {"area_id": 8522, "city": "Little Rock", "state": "AR", "city_survey": true, "cat": "Definitely Declining", "grade": "C", "label": "C8", "res": true, "com": false, "ind": false, "holc_grade": "C"}, "geometry": {"type": "Polygon", "coordinates": [[[-92.26733, 34.76732], [-92.26733, 34.7672], [-92.26733, 34.76717], [-92.26733, 34.76711], [-92.26732, 34.76711], [-92.26733, 34.76399], [-92.26744, 34.76399], [-92.26979, 34.76394], [-92.2703, 34.76382], [-92.27121, 34.76375], [-92.27229, 34.76387], [-92.27326, 34.76426], [-92.27308, 34.76846], [-92.27307, 34.76846], [-92.272231, 34.768444], [-92.27205, 34.76844], [-92.27197, 34.7694], [-92.27065, 34.76932], [-92.270618, 34.769319], [-92.26841, 34.76926], [-92.268424, 34.76837], [-92.26844, 34.76735], [-92.26733, 34.76732]]]}}, {"type": "Feature", "properties": {"area_id": 8529, "city": "Little Rock", "state": "AR", "city_survey": true, "cat": "Definitely Declining", "grade": "C", "label": "C9", "res": true, "com": false, "ind": false, "holc_grade": "C"}, "geometry": {"type": "Polygon", "coordinates": [[[-92.26891, 34.759], [-92.27181, 34.7591], [-92.27169, 34.76092], [-92.27172, 34.7613], [-92.27171, 34.7615], [-92.27212, 34.7615], [-92.27226, 34.76177], [-92.27225, 34.76192], [-92.27162, 34.76223], [-92.27111, 34.7625], [-92.2707, 34.7624], [-92.27045, 34.76235], [-92.27046, 34.76219], [-92.26871, 34.76213], [-92.26885, 34.75896], [-92.26891, 34.75896], [-92.26891, 34.759]]]}}, {"type": "Feature", "properties": {"area_id": 8500, "city": "Little Rock", "state": "AR", "city_survey": true, "cat": "Hazardous", "grade": "D", "label": "D1", "res": true, "com": false, "ind": false, "holc_grade": "D"}, "geometry": {"type": "Polygon", "coordinates": [[[-92.30986, 34.7601], [-92.31319, 34.76045], [-92.313134, 34.762233], [-92.313045, 34.765076], [-92.313044, 34.765108], [-92.31304, 34.76522], [-92.310096, 34.765202], [-92.30972, 34.7652], [-92.30986, 34.7601]]]}}, {"type": "Feature", "properties": {"area_id": 8506, "city": "Little Rock", "state": "AR", "city_survey": true, "cat": "Hazardous", "grade": "D", "label": "D2", "res": true, "com": false, "ind": false, "holc_grade": "D"}, "geometry": {"type": "Polygon", "coordinates": [[[-92.2919, 34.72824], [-92.29165, 34.7321], [-92.29319, 34.73214], [-92.293187, 34.732199], [-92.29292, 34.7376], [-92.29406, 34.73761], [-92.29406, 34.73762], [-92.29375, 34.74415], [-92.29373, 34.74462], [-92.29501, 34.74464], [-92.29526, 34.73968], [-92.3024, 34.73984], [-92.30239, 34.74001], [-92.30234, 34.74085], [-92.30322, 34.74093], [-92.303064, 34.741301], [-92.30271, 34.74214], [-92.30215, 34.7431], [-92.302142, 34.743112], [-92.3014, 34.74421], [-92.30106, 34.74462], [-92.30072, 34.74493], [-92.30031, 34.74524], [-92.29993, 34.7455], [-92.29956, 34.74573], [-92.29867, 34.74602], [-92.29743, 34.74642], [-92.29598, 34.74689], [-92.295327, 34.747164], [-92.29498, 34.74731], [-92.29352, 34.74809], [-92.29247, 34.74887], [-92.29246, 34.74889], [-92.29234, 34.74863], [-92.292341, 34.748615], [-92.292356, 34.748386], [-92.2926, 34.74456], [-92.290981, 34.744497], [-92.28796, 34.74438], [-92.28791, 34.74437], [-92.279903, 34.743318], [-92.279849, 34.743311], [-92.278676, 34.743156], [-92.27975197805112, 34.743298179537874], [-92.27748, 34.743], [-92.27743, 34.743], [-92.27785, 34.74109], [-92.27787, 34.74096], [-92.277897, 34.740964], [-92.28735, 34.74233], [-92.28812, 34.73942], [-92.288153, 34.737431], [-92.28831, 34.728], [-92.289551, 34.72807], [-92.29185, 34.7282], [-92.29191, 34.7282], [-92.2919, 34.72824]]]}}, {"type": "Feature", "properties": {"area_id": 8509, "city": "Little Rock", "state": "AR", "city_survey": true, "cat": "Hazardous", "grade": "D", "label": "D3", "res": true, "com": false, "ind": false, "holc_grade": "D"}, "geometry": {"type": "Polygon", "coordinates": [[[-92.28754, 34.71208], [-92.288286, 34.712116], [-92.289778, 34.712187], [-92.295315, 34.712451], [-92.29698, 34.71253], [-92.297085, 34.712957], [-92.29746, 34.71448], [-92.300745, 34.714663], [-92.30159, 34.71471], [-92.301597, 34.715471], [-92.30168, 34.72436], [-92.30322, 34.73189], [-92.30294, 34.73201], [-92.302939, 34.732021], [-92.3029, 34.73245], [-92.30172, 34.732426], [-92.299033, 34.73237], [-92.29712, 34.73233], [-92.296917, 34.732328], [-92.296656, 34.732325], [-92.2962, 34.73232], [-92.2962, 34.73231], [-92.29648, 34.72734], [-92.29652, 34.72505], [-92.29652, 34.72503], [-92.2921, 34.72487], [-92.29204, 34.72487], [-92.29204, 34.72491], [-92.28967, 34.724838], [-92.28932, 34.724827], [-92.28615, 34.72473], [-92.28611, 34.72473], [-92.28609, 34.72473], [-92.28609, 34.724712], [-92.28609, 34.72464], [-92.28628, 34.72172], [-92.27907, 34.72158], [-92.27896, 34.72278], [-92.27888, 34.72363], [-92.278867, 34.72443], [-92.27885, 34.72549], [-92.27885, 34.72572], [-92.27725, 34.72571], [-92.2739, 34.7257], [-92.27384, 34.7257], [-92.272675, 34.725695], [-92.269, 34.72568], [-92.26864, 34.73186], [-92.26812, 34.73472], [-92.26808, 34.73471], [-92.26708, 34.73454], [-92.26349, 34.73453], [-92.26334, 34.73414], [-92.25864, 34.73398], [-92.25843, 34.73946], [-92.25843, 34.73947], [-92.25843, 34.73949], [-92.25843, 34.7395], [-92.25834, 34.7395], [-92.255537, 34.7395], [-92.25532, 34.7395], [-92.254916, 34.738538], [-92.2548, 34.738263], [-92.25466, 34.73793], [-92.254667, 34.737828], [-92.25471, 34.73721], [-92.25513, 34.73072], [-92.25869, 34.73107], [-92.2608, 34.73112], [-92.26293, 34.73121], [-92.263378, 34.723822], [-92.26339, 34.72362], [-92.261541, 34.723752], [-92.26129, 34.72377], [-92.26115, 34.723744], [-92.260384, 34.723601], [-92.25882, 34.72331], [-92.25514, 34.72316], [-92.255127, 34.72222], [-92.25512, 34.72173], [-92.255628, 34.720984], [-92.2558, 34.72073], [-92.2565, 34.72], [-92.25752, 34.71966], [-92.259057, 34.719403], [-92.26093, 34.71909], [-92.26754, 34.71816], [-92.27803, 34.71605], [-92.28241, 34.71428], [-92.287464, 34.712113], [-92.28754, 34.71208]]]}}, {"type": "Feature", "properties": {"area_id": 8530, "city": "Little Rock", "state": "AR", "city_survey": true, "cat": "Hazardous", "grade": "D", "label": "D4", "res": true, "com": false, "ind": false, "holc_grade": "D"}, "geometry": {"type": "Polygon", "coordinates": [[[-92.25023, 34.74695], [-92.24865, 34.7467], [-92.24718, 34.74649], [-92.24525, 34.74617], [-92.24395, 34.74592], [-92.24489, 34.74156], [-92.24495, 34.74124], [-92.24516, 34.74021], [-92.24539, 34.73998], [-92.24553, 34.73985], [-92.25014, 34.74005], [-92.25339, 34.74521], [-92.25328, 34.74734], [-92.25023, 34.74695]]]}}, {"type": "Feature", "properties": {"area_id": 8531, "city": "Little Rock", "state": "AR", "city_survey": true, "cat": "Hazardous", "grade": "D", "label": "D5", "res": true, "com": false, "ind": false, "holc_grade": "D"}, "geometry": {"type": "Polygon", "coordinates": [[[-92.24516, 34.74021], [-92.24495, 34.74124], [-92.24051, 34.74127], [-92.23955, 34.74505], [-92.23735, 34.74509], [-92.23625, 34.74491], [-92.2354, 34.7448], [-92.23444, 34.7447], [-92.23583, 34.73886], [-92.23668, 34.73884], [-92.23691, 34.73758], [-92.24072, 34.73751], [-92.24097, 34.73343], [-92.24163, 34.73338], [-92.24729, 34.73389], [-92.24865, 34.7357], [-92.2461, 34.73707], [-92.24608, 34.73781], [-92.24562, 34.73781], [-92.24539, 34.73998], [-92.24516, 34.74021]]]}}, {"type": "Feature", "properties": {"area_id": 8520, "city": "Little Rock", "state": "AR", "city_survey": true, "cat": "Hazardous", "grade": "D", "label": "D6", "res": true, "com": false, "ind": false, "holc_grade": "D"}, "geometry": {"type": "Polygon", "coordinates": [[[-92.27072, 34.76945], [-92.271952, 34.772102], [-92.272361, 34.772982], [-92.27334, 34.77509], [-92.27365, 34.77578], [-92.273688, 34.77578], [-92.28276, 34.77585], [-92.28278, 34.77943], [-92.275307, 34.779302], [-92.26763, 34.77917], [-92.26747, 34.78061], [-92.26741, 34.78065], [-92.26708, 34.78093], [-92.26668, 34.78095], [-92.266469, 34.78108], [-92.26571, 34.78155], [-92.26546, 34.78155], [-92.26535, 34.78155], [-92.265362, 34.780976], [-92.265369, 34.780604], [-92.2654, 34.7791], [-92.26544, 34.77569], [-92.26571, 34.7757], [-92.26667, 34.77573], [-92.26667, 34.77574], [-92.26668, 34.77575], [-92.26667, 34.77656], [-92.26809, 34.7766], [-92.26811, 34.77365], [-92.26808, 34.7721], [-92.26834, 34.76932], [-92.26835, 34.76926], [-92.26838, 34.76926], [-92.26841, 34.76926], [-92.270618, 34.769319], [-92.27065, 34.76932], [-92.2707, 34.76942], [-92.27072, 34.76945]]]}}, {"type": "Feature", "properties": {"area_id": 8523, "city": "Little Rock", "state": "AR", "city_survey": true, "cat": "Hazardous", "grade": "D", "label": "D7", "res": true, "com": false, "ind": false, "holc_grade": "D"}, "geometry": {"type": "Polygon", "coordinates": [[[-92.26751, 34.76098], [-92.26744, 34.76399], [-92.26733, 34.76399], [-92.26732, 34.76711], [-92.26716, 34.7671], [-92.26605, 34.76708], [-92.266028, 34.768291], [-92.26601, 34.76924], [-92.26358, 34.76918], [-92.26349, 34.77239], [-92.261586, 34.77239], [-92.26106, 34.77239], [-92.26111, 34.77001], [-92.2526, 34.76991], [-92.25264, 34.76823], [-92.25905, 34.76592], [-92.25915, 34.76387], [-92.25254, 34.76347], [-92.25274, 34.75797], [-92.26153, 34.75825], [-92.26156, 34.75825], [-92.26158, 34.76085], [-92.262054, 34.760861], [-92.26647, 34.76096], [-92.26751, 34.76098]]]}}, {"type": "Feature", "properties": {"area_id": 8525, "city": "Little Rock", "state": "AR", "city_survey": true, "cat": "Hazardous", "grade": "D", "label": "D8", "res": true, "com": false, "ind": false, "holc_grade": "D"}, "geometry": {"type": "Polygon", "coordinates": [[[-92.26567, 34.75212], [-92.26655, 34.75211], [-92.26646, 34.75295], [-92.262428, 34.752943], [-92.26073, 34.75294], [-92.2607, 34.75389], [-92.262376, 34.753936], [-92.26539, 34.75402], [-92.26514, 34.75704], [-92.26221, 34.757007], [-92.2616, 34.757], [-92.26159, 34.75708], [-92.252306, 34.756778], [-92.251963, 34.756767], [-92.250154, 34.756708], [-92.248218, 34.756645], [-92.245819, 34.756567], [-92.23544, 34.75623], [-92.23554, 34.7544], [-92.23549, 34.7533], [-92.23716, 34.75345], [-92.23723, 34.75346], [-92.23712, 34.75525], [-92.24418, 34.75543], [-92.24429, 34.75356], [-92.24429, 34.75353], [-92.24986, 34.75376], [-92.24993, 34.75232], [-92.25507, 34.7525], [-92.25529, 34.7505], [-92.25626, 34.75078], [-92.25669, 34.75105], [-92.25715, 34.75085], [-92.25956, 34.75115], [-92.26061, 34.75149], [-92.26153, 34.7518], [-92.26244, 34.75155], [-92.262512, 34.751558], [-92.2633, 34.75164], [-92.26473, 34.75173], [-92.26567, 34.75212]]]}}, {"type": "Feature", "properties": {"area_id": 11196, "city": "Little Rock", "state": "AR", "city_survey": true, "cat": "Industrial and Commercial", "grade": null, "label": "Industrial and Commercial", "res": false, "com": true, "ind": true, "holc_grade": null}, "geometry": {"type": "MultiPolygon", "coordinates": [[[[-92.248218, 34.756645], [-92.250154, 34.756708], [-92.251963, 34.756767], [-92.252306, 34.756778], [-92.26159, 34.75708], [-92.26153, 34.75825], [-92.25274, 34.75797], [-92.25254, 34.76347], [-92.24776, 34.76361], [-92.24489, 34.76333], [-92.24034, 34.76207], [-92.23644, 34.76081], [-92.2351, 34.76084], [-92.235424, 34.756448], [-92.23544, 34.75623], [-92.245819, 34.756567], [-92.248218, 34.756645]]], [[[-92.23549, 34.7533], [-92.2358, 34.74854], [-92.23932, 34.7486], [-92.24607, 34.74958], [-92.2483, 34.7496], [-92.25054, 34.75011], [-92.25529, 34.7505], [-92.25507, 34.7525], [-92.24993, 34.75232], [-92.24986, 34.75376], [-92.24429, 34.75353], [-92.24429, 34.75356], [-92.23717, 34.75337], [-92.23716, 34.75345], [-92.23549, 34.7533]]], [[[-92.27399, 34.73537], [-92.273972, 34.735494], [-92.27383, 34.73647], [-92.27386, 34.73647], [-92.27304, 34.74045], [-92.27785, 34.74109], [-92.27743, 34.743], [-92.27748, 34.743], [-92.27626, 34.74888], [-92.28115, 34.74958], [-92.28569, 34.75013], [-92.28597, 34.74926], [-92.28707, 34.74944], [-92.28879, 34.74952], [-92.28664, 34.7505], [-92.28759, 34.75165], [-92.289921, 34.750676], [-92.29015, 34.75058], [-92.290479, 34.750199], [-92.29104, 34.74955], [-92.29245, 34.74888], [-92.29246, 34.74889], [-92.29185, 34.7501], [-92.291828, 34.750306], [-92.29175, 34.75104], [-92.29195, 34.75236], [-92.29259, 34.75354], [-92.29315, 34.75424], [-92.293088, 34.754254], [-92.29242, 34.75441], [-92.29162, 34.75479], [-92.291576, 34.754827], [-92.29097, 34.75533], [-92.290903, 34.755326], [-92.2878, 34.75512], [-92.28677, 34.75479], [-92.28597, 34.75489], [-92.2841, 34.75427], [-92.28275, 34.75362], [-92.28096, 34.75328], [-92.28152, 34.75315], [-92.28255, 34.75287], [-92.28335, 34.75231], [-92.28413, 34.75167], [-92.28485, 34.7511], [-92.27483, 34.7498], [-92.27456, 34.75094], [-92.27294, 34.75052], [-92.27119, 34.74983], [-92.26977, 34.74994], [-92.26796, 34.74954], [-92.26644, 34.74986], [-92.26521, 34.74936], [-92.26371, 34.74924], [-92.262673, 34.748841], [-92.26215, 34.74864], [-92.26071, 34.74844], [-92.25845, 34.74781], [-92.25695, 34.74767], [-92.25484, 34.74768], [-92.25328, 34.74734], [-92.25339, 34.74521], [-92.25014, 34.74005], [-92.24553, 34.73985], [-92.24539, 34.73998], [-92.24562, 34.73781], [-92.24608, 34.73781], [-92.2461, 34.73707], [-92.24865, 34.7357], [-92.24729, 34.73389], [-92.24682, 34.73299], [-92.24472, 34.72944], [-92.23954, 34.72212], [-92.24261, 34.72224], [-92.24347, 34.72244], [-92.24392, 34.72275], [-92.24806, 34.72893], [-92.24789, 34.73219], [-92.24834, 34.73306], [-92.254677, 34.733338], [-92.25496, 34.73335], [-92.25471, 34.73721], [-92.254667, 34.737828], [-92.25466, 34.73793], [-92.2548, 34.738263], [-92.254916, 34.738538], [-92.25532, 34.7395], [-92.255537, 34.7395], [-92.25834, 34.7395], [-92.2583, 34.741924], [-92.25828, 34.74317], [-92.25876, 34.7444], [-92.26226, 34.74446], [-92.262842, 34.744508], [-92.2648, 34.74467], [-92.26841, 34.74495], [-92.26884, 34.742832], [-92.26944, 34.73988], [-92.269469, 34.739885], [-92.27065, 34.74009], [-92.27158, 34.73518], [-92.2716, 34.73518], [-92.271601, 34.735174], [-92.27224, 34.73227], [-92.27351, 34.73242], [-92.27351, 34.73244], [-92.27464, 34.73258], [-92.27399, 34.73537]]], [[[-92.24495, 34.74124], [-92.24489, 34.74156], [-92.24395, 34.74592], [-92.23955, 34.74505], [-92.24051, 34.74127], [-92.24495, 34.74124]]], [[[-92.26655, 34.75211], [-92.27366, 34.75344], [-92.27482, 34.75316], [-92.27724, 34.75367], [-92.28089, 34.75541], [-92.281665, 34.755795], [-92.28238, 34.75615], [-92.280892, 34.759373], [-92.28075, 34.75968], [-92.27997, 34.76164], [-92.27996, 34.76163], [-92.27979, 34.76217], [-92.279562, 34.766852], [-92.27953, 34.76752], [-92.279124, 34.768416], [-92.27905, 34.76858], [-92.27308, 34.76846], [-92.27326, 34.76426], [-92.27481, 34.76429], [-92.27572, 34.76415], [-92.2775, 34.76312], [-92.27839, 34.76207], [-92.2776, 34.76164], [-92.27602, 34.76237], [-92.27554, 34.76203], [-92.27745, 34.76076], [-92.27903, 34.7583], [-92.2787, 34.75821], [-92.2727, 34.76187], [-92.27225, 34.76192], [-92.27226, 34.76177], [-92.27212, 34.7615], [-92.27171, 34.7615], [-92.27172, 34.7613], [-92.27169, 34.76092], [-92.27181, 34.7591], [-92.27185, 34.7591], [-92.27188, 34.7587], [-92.2732, 34.75868], [-92.27323, 34.75821], [-92.27392, 34.75822], [-92.27401, 34.75759], [-92.27135, 34.75715], [-92.26902, 34.75704], [-92.26891, 34.75896], [-92.26885, 34.75896], [-92.26885, 34.75897], [-92.2688, 34.76014], [-92.26871, 34.76213], [-92.27046, 34.76219], [-92.27045, 34.76235], [-92.2707, 34.7624], [-92.27111, 34.7625], [-92.27117, 34.76322], [-92.2703, 34.76382], [-92.26979, 34.76394], [-92.26744, 34.76399], [-92.26751, 34.76098], [-92.26647, 34.76096], [-92.26509, 34.75989], [-92.26518, 34.75706], [-92.26518, 34.75704], [-92.26514, 34.75704], [-92.26539, 34.75402], [-92.262376, 34.753936], [-92.2607, 34.75389], [-92.26073, 34.75294], [-92.262428, 34.752943], [-92.26646, 34.75295], [-92.26655, 34.75211]]]]}}]}