{"type": "FeatureCollection", "features": [{"type": "Feature", "geometry": {"type": "Point", "coordinates": [-92.383333, 34.83]}, "properties": {"facility_name": "FIB-R-DOR, A DIVISION OF CHASE INDUSTRIES, INC.", "industry": null, "tri_facility_id": "72113DVNCF7516C"}}, {"type": "Feature", "geometry": {"type": "Point", "coordinates": [-92.225378, 34.752118]}, "properties": {"facility_name": "COMMERCIAL LUMBER SALES INC", "industry": null, "tri_facility_id": "72114CMMRC102OA"}}, {"type": "Feature", "geometry": {"type": "Point", "coordinates": [-92.24527777777777, 34.7575]}, "properties": {"facility_name": "HALL TANK CO", "industry": null, "tri_facility_id": "72114HLLTN21EAS"}}, {"type": "Feature", "geometry": {"type": "Point", "coordinates": [-92.22611111111111, 34.75861111111111]}, "properties": {"facility_name": "CMC STEEL FABRICATORS INC (DBA CMC REBAR LITTLE ROCK)", "industry": null, "tri_facility_id": "72114LFLND7DIXI"}}, {"type": "Feature", "geometry": {"type": "Point", "coordinates": [-92.23777777777778, 34.76138888888889]}, "properties": {"facility_name": "LAND O'LAKES FARMLAND FEED", "industry": null, "tri_facility_id": "72114LNDLK825PA"}}, {"type": "Feature", "geometry": {"type": "Point", "coordinates": [-92.225, 34.758333]}, "properties": {"facility_name": "TYSON POULTRY INC NORTH LITTLE ROCK", "industry": null, "tri_facility_id": "72114TYSNF3800P"}}, {"type": "Feature", "geometry": {"type": "Point", "coordinates": [-92.216667, 34.766667]}, "properties": {"facility_name": "KOPPERS INC. (NORTH LITTLE ROCK AR)", "industry": null, "tri_facility_id": "72117KPPRS2201E"}}, {"type": "Feature", "geometry": {"type": "Point", "coordinates": [-92.22111111111111, 34.755833333333335]}, "properties": {"facility_name": "PRECISION PACKAGING INC", "industry": null, "tri_facility_id": "72117PRCSN315PH"}}, {"type": "Feature", "geometry": {"type": "Point", "coordinates": [-92.216667, 34.775]}, "properties": {"facility_name": "TENENBAUM RECYCLING GROUP, LLC.", "industry": null, "tri_facility_id": "72117TNNBM4500B"}}, {"type": "Feature", "geometry": {"type": "Point", "coordinates": [-92.370778, 34.8198]}, "properties": {"facility_name": "EDWARDS SHEET METAL WORKS INC", "industry": null, "tri_facility_id": "72118DWRDS9320M"}}, {"type": "Feature", "geometry": {"type": "Point", "coordinates": [-92.316667, 34.825]}, "properties": {"facility_name": "JASON INTERNATIONAL INC", "industry": null, "tri_facility_id": "72118JSNNT7500O"}}, {"type": "Feature", "geometry": {"type": "Point", "coordinates": [-92.364722, 34.8125]}, "properties": {"facility_name": "WELSCO INC.", "industry": null, "tri_facility_id": "72118WLSCN9301C"}}, {"type": "Feature", "geometry": {"type": "Point", "coordinates": [-92.266389, 34.7575]}, "properties": {"facility_name": "MOUNTAIRE (DBA PRIME QUALITY FEEDS)", "industry": null, "tri_facility_id": "72119MNTRV200E4"}}, {"type": "Feature", "geometry": {"type": "Point", "coordinates": [-92.230278, 34.756111]}, "properties": {"facility_name": "ROCK CITY FURNITURE INC", "industry": null, "tri_facility_id": "72119RCKCT426DI"}}, {"type": "Feature", "geometry": {"type": "Point", "coordinates": [-92.26, 34.756667]}, "properties": {"facility_name": "SOUTHERN COTTON OIL CO", "industry": null, "tri_facility_id": "72119STHRN324BU"}}, {"type": "Feature", "geometry": {"type": "Point", "coordinates": [-92.231389, 34.733611]}, "properties": {"facility_name": "DASSAULT FALCON JET CORP.", "industry": null, "tri_facility_id": "72201FLCNJ10THL"}}, {"type": "Feature", "geometry": {"type": "Point", "coordinates": [-92.249167, 34.730556]}, "properties": {"facility_name": "CHEYENNE IND", "industry": null, "tri_facility_id": "72202CHYNN20000"}}, {"type": "Feature", "geometry": {"type": "Point", "coordinates": [-92.253611, 34.741667]}, "properties": {"facility_name": "W&W|AFCO STEEL", "industry": null, "tri_facility_id": "72202FCSTL1423E"}}, {"type": "Feature", "geometry": {"type": "Point", "coordinates": [-92.24805555555555, 34.734722222222224]}, "properties": {"facility_name": "FORTERRA PIPE & PRECAST - LITTLE ROCK", "industry": null, "tri_facility_id": "72202HNSNP13BND"}}, {"type": "Feature", "geometry": {"type": "Point", "coordinates": [-92.252778, 34.741667]}, "properties": {"facility_name": "STERLING PAINT CO", "industry": null, "tri_facility_id": "72202STBBN1300E"}}, {"type": "Feature", "geometry": {"type": "Point", "coordinates": [-92.301524, 34.759523]}, "properties": {"facility_name": "BINNACLE INDUSTRIES LLC (DBA HOUSE OF MARBLE)", "industry": null, "tri_facility_id": "72202THHSF1021J"}}, {"type": "Feature", "geometry": {"type": "Point", "coordinates": [-92.296667, 34.756944]}, "properties": {"facility_name": "STECO CORP", "industry": null, "tri_facility_id": "72202THSTC2330C"}}, {"type": "Feature", "geometry": {"type": "Point", "coordinates": [-92.2475, 34.737778]}, "properties": {"facility_name": "ADM", "industry": null, "tri_facility_id": "72203RCHRDFOOTO"}}, {"type": "Feature", "geometry": {"type": "Point", "coordinates": [-92.233333, 34.718889]}, "properties": {"facility_name": "RAYTHEON AIRCRAFT", "industry": null, "tri_facility_id": "72203RKNSS12THH"}}, {"type": "Feature", "geometry": {"type": "Point", "coordinates": [-92.306111, 34.721944]}, "properties": {"facility_name": "SMOKY HOLLOW FOODS", "industry": null, "tri_facility_id": "72203SMKYH3200W"}}, {"type": "Feature", "geometry": {"type": "Point", "coordinates": [-92.233056, 34.73]}, "properties": {"facility_name": "TIMEX CORP", "industry": null, "tri_facility_id": "72203TMXCR19CRI"}}, {"type": "Feature", "geometry": {"type": "Point", "coordinates": [-92.363216, 34.713167]}, "properties": {"facility_name": "BORDEN INC GROCERY & SPECIALTY PRODUCTS", "industry": null, "tri_facility_id": "72204BRDNN7900A"}}, {"type": "Feature", "geometry": {"type": "Point", "coordinates": [-92.337778, 34.7175]}, "properties": {"facility_name": "COLEMAN DAIRY INC", "industry": null, "tri_facility_id": "72204CLMND5801A"}}, {"type": "Feature", "geometry": {"type": "Point", "coordinates": [-92.3236111111111, 34.72027777777778]}, "properties": {"facility_name": "CUSTOM CRAFT POULTRY LLC", "industry": null, "tri_facility_id": "72204DMSTN4701A"}}, {"type": "Feature", "geometry": {"type": "Point", "coordinates": [-92.30694444444444, 34.72]}, "properties": {"facility_name": "JOHNS MANVILLE", "industry": null, "tri_facility_id": "72204JHNSM3300S"}}, {"type": "Feature", "geometry": {"type": "Point", "coordinates": [-92.303611, 34.721667]}, "properties": {"facility_name": "PHILIPS LIGHTING CO", "industry": null, "tri_facility_id": "72204PHLPS2701W"}}, {"type": "Feature", "geometry": {"type": "Point", "coordinates": [-92.311111, 34.720833]}, "properties": {"facility_name": "SILVERWOOD PRODS INC", "industry": null, "tri_facility_id": "72204SLVRW3215B"}}, {"type": "Feature", "geometry": {"type": "Point", "coordinates": [-92.241667, 34.7175]}, "properties": {"facility_name": "CERTAINTEED LLC", "industry": null, "tri_facility_id": "72206GSRFN2701E"}}, {"type": "Feature", "geometry": {"type": "Point", "coordinates": [-92.1975, 34.72166666666667]}, "properties": {"facility_name": "LEXICON INC.", "industry": null, "tri_facility_id": "72206PRSPC8900F"}}, {"type": "Feature", "geometry": {"type": "Point", "coordinates": [-92.311389, 34.696944]}, "properties": {"facility_name": "LANXESS CORP", "industry": null, "tri_facility_id": "72208RMSTR5701M"}}, {"type": "Feature", "geometry": {"type": "Point", "coordinates": [-92.310482, 34.682921]}, "properties": {"facility_name": "COCA-COLA BOTTLING CO OF ARKANSAS", "industry": null, "tri_facility_id": "72209CCCLB7000I"}}, {"type": "Feature", "geometry": {"type": "Point", "coordinates": [-92.31666666666666, 34.68333333333333]}, "properties": {"facility_name": "ORBIT VALVE TRUSEAL DIV", "industry": null, "tri_facility_id": "72209CPRCM6424P"}}, {"type": "Feature", "geometry": {"type": "Point", "coordinates": [-92.3125, 34.689722222222215]}, "properties": {"facility_name": "HARCROS CHEMICALS INC", "industry": null, "tri_facility_id": "72209HRCRS3100W"}}, {"type": "Feature", "geometry": {"type": "Point", "coordinates": [-92.373889, 34.670833]}, "properties": {"facility_name": "MUNSEY PRODUCTS INC", "industry": null, "tri_facility_id": "72209MNSYP9911I"}}, {"type": "Feature", "geometry": {"type": "Point", "coordinates": [-92.316667, 34.683333]}, "properties": {"facility_name": "CAMERON A SCHLUMBERGER CO", "industry": null, "tri_facility_id": "72209RBTVL7200I"}}, {"type": "Feature", "geometry": {"type": "Point", "coordinates": [-92.309167, 34.691111]}, "properties": {"facility_name": "FIBER GLASS SYSTEMS", "industry": null, "tri_facility_id": "72209SMTHF2700W"}}, {"type": "Feature", "geometry": {"type": "Point", "coordinates": [-92.3162, 34.6893]}, "properties": {"facility_name": "SMITH FIBERCAST", "industry": null, "tri_facility_id": "72209SMTHF3601W"}}, {"type": "Feature", "geometry": {"type": "Point", "coordinates": [-92.3175, 34.689166666666665]}, "properties": {"facility_name": "SMITH FIBERGLASS PRODUCTS", "industry": null, "tri_facility_id": "72209SMTHF5601S"}}, {"type": "Feature", "geometry": {"type": "Point", "coordinates": [-92.311389, 34.696944]}, "properties": {"facility_name": "ESSICK AIR PRODUCTS", "industry": null, "tri_facility_id": "72209SSCKR5800M"}}, {"type": "Feature", "geometry": {"type": "Point", "coordinates": [-92.3325, 34.684722]}, "properties": {"facility_name": "AT&T LITTLE ROCK OPERATIONS CENTER", "industry": null, "tri_facility_id": "72209TTLTT7600I"}}, {"type": "Feature", "geometry": {"type": "Point", "coordinates": [-92.255, 34.765833]}, "properties": {"facility_name": "SYNGENTA CROP PROTECTION INC", "industry": null, "tri_facility_id": "72215CMRCS824E1"}}, {"type": "Feature", "geometry": {"type": "Point", "coordinates": [-92.238611, 34.709722]}, "properties": {"facility_name": "3M CO - LITTLE ROCK", "industry": null, "tri_facility_id": "72216MXXXXPOBOX"}}]}