{"type": "FeatureCollection", "features": [{"type": "Feature", "properties": {"area_id": 10391, "city": "Boulder", "state": "CO", "city_survey": false, "cat": "Business", "grade": "", "label": "Business", "res": false, "com": true, "ind": false, "fill": "#873d3c", "GEOID10": "08013012204", "GISJOIN": "G0800130012204", "calc_area": 291945.35044, "pct_tract": 0.20946}, "geometry": {"type": "MultiPolygon", "coordinates": [[[[-105.27412, 40.01731], [-105.27403, 40.01705], [-105.27532, 40.01668], [-105.27513, 40.01605], [-105.28059, 40.01495], [-105.28158, 40.01761], [-105.28253, 40.01739], [-105.28291, 40.01844], [-105.28176, 40.01883], [-105.28192, 40.01917], [-105.27518, 40.02049], [-105.27412, 40.01731]]]]}}, {"type": "Feature", "properties": {"area_id": 10391, "city": "Boulder", "state": "CO", "city_survey": false, "cat": "Business", "grade": "", "label": "Business", "res": false, "com": true, "ind": false, "fill": "#873d3c", "GEOID10": "08013012401", "GISJOIN": "G0800130012401", "calc_area": 61969.83052, "pct_tract": 0.05546}, "geometry": {"type": "MultiPolygon", "coordinates": [[[[-105.27483, 40.00721], [-105.2773, 40.00716], [-105.2773, 40.00743], [-105.27725, 40.00864], [-105.27813, 40.00908], [-105.27859, 40.00932], [-105.27899, 40.00957], [-105.27901, 40.00987], [-105.27822, 40.00997], [-105.27768, 40.01043], [-105.276887, 40.01043], [-105.276757, 40.010212], [-105.276263, 40.009483], [-105.275797, 40.008747], [-105.275139, 40.007805], [-105.274847, 40.007418], [-105.274709, 40.007285], [-105.274651, 40.007229], [-105.274628, 40.007211], [-105.274626, 40.00721], [-105.27483, 40.00721]]]]}}, {"type": "Feature", "properties": {"area_id": 10391, "city": "Boulder", "state": "CO", "city_survey": false, "cat": "Business", "grade": "", "label": "Business", "res": false, "com": true, "ind": false, "fill": "#873d3c", "GEOID10": "08013012300", "GISJOIN": "G0800130012300", "calc_area": 8390.93438, "pct_tract": 0.00588}, "geometry": {"type": "MultiPolygon", "coordinates": [[[[-105.27656, 40.01043], [-105.27453, 40.00721], [-105.274626, 40.00721], [-105.274628, 40.007211], [-105.274651, 40.007229], [-105.274709, 40.007285], [-105.274847, 40.007418], [-105.275139, 40.007805], [-105.275797, 40.008747], [-105.276263, 40.009483], [-105.276757, 40.010212], [-105.276887, 40.01043], [-105.27656, 40.01043]]]]}}, {"type": "Feature", "properties": {"area_id": 10392, "city": "Boulder", "state": "CO", "city_survey": false, "cat": "Best Residential", "grade": "", "label": "Best Residential", "res": true, "com": false, "ind": false, "fill": "#4e654f", "GEOID10": "08013012204", "GISJOIN": "G0800130012204", "calc_area": 92215.66459, "pct_tract": 0.06616}, "geometry": {"type": "MultiPolygon", "coordinates": [[[[-105.28018, 40.01062], [-105.279972, 40.010491], [-105.281148, 40.010489], [-105.282283, 40.010486], [-105.28239, 40.010624], [-105.28018, 40.01062]]], [[[-105.28377, 40.02378], [-105.28362, 40.02334], [-105.28285, 40.02232], [-105.2821, 40.0213], [-105.28202, 40.02068], [-105.28224, 40.02027], [-105.28292, 40.01995], [-105.284722, 40.019842], [-105.284899, 40.020379], [-105.284906, 40.020455], [-105.284886, 40.020559], [-105.284865, 40.020742], [-105.284864, 40.021766], [-105.284908, 40.021896], [-105.28496, 40.021979], [-105.285199, 40.022278], [-105.285457, 40.022644], [-105.285474, 40.022677], [-105.285528, 40.022781], [-105.285596, 40.022974], [-105.285628, 40.023146], [-105.285636, 40.023271], [-105.28565, 40.023689], [-105.285651, 40.023829], [-105.28377, 40.02378]]]]}}, {"type": "Feature", "properties": {"area_id": 10392, "city": "Boulder", "state": "CO", "city_survey": false, "cat": "Best Residential", "grade": "", "label": "Best Residential", "res": true, "com": false, "ind": false, "fill": "#4e654f", "GEOID10": "08013012401", "GISJOIN": "G0800130012401", "calc_area": 596373.70521, "pct_tract": 0.53374}, "geometry": {"type": "MultiPolygon", "coordinates": [[[[-105.27973, 40.01034], [-105.27901, 40.00987], [-105.27899, 40.00957], [-105.27859, 40.00932], [-105.27813, 40.00908], [-105.27828, 40.00858], [-105.27882, 40.00738], [-105.27887, 40.00644], [-105.27804, 40.00644], [-105.27808, 40.00558], [-105.27726, 40.00531], [-105.27433, 40.00531], [-105.27435, 40.00384], [-105.2735, 40.00384], [-105.27354, 40.0036], [-105.27265, 40.0036], [-105.27259, 40.00021], [-105.27111, 40.0002], [-105.271108, 40.000078], [-105.271254, 40.000078], [-105.272486, 40.000075], [-105.273717, 40.000075], [-105.274942, 40.000071], [-105.275167, 40.000071], [-105.27554, 40.00023], [-105.2798, 40.00027], [-105.27997, 40.00026], [-105.28188, 40.00018], [-105.281938, 40.00018], [-105.281948, 40.001835], [-105.281954, 40.003227], [-105.281948, 40.003709], [-105.281968, 40.005449], [-105.281973, 40.007274], [-105.281995, 40.007403], [-105.281997, 40.00868], [-105.281997, 40.008908], [-105.281996, 40.009443], [-105.281997, 40.009841], [-105.282019, 40.009976], [-105.282063, 40.010108], [-105.28222, 40.010394], [-105.282283, 40.010486], [-105.281148, 40.010489], [-105.279972, 40.010491], [-105.27973, 40.01034]]]]}}, {"type": "Feature", "properties": {"area_id": 10392, "city": "Boulder", "state": "CO", "city_survey": false, "cat": "Best Residential", "grade": "", "label": "Best Residential", "res": true, "com": false, "ind": false, "fill": "#4e654f", "GEOID10": "08013012505", "GISJOIN": "G0800130012505", "calc_area": 135923.39151, "pct_tract": 0.00901}, "geometry": {"type": "MultiPolygon", "coordinates": [[[[-105.27109, 39.99921], [-105.26985, 39.99907], [-105.26994, 39.99787], [-105.27017, 39.99772], [-105.27057, 39.99714], [-105.27144, 39.9971], [-105.27142, 39.99682], [-105.27052, 39.99692], [-105.26975, 39.99625], [-105.26976, 39.99603], [-105.27383, 39.99595], [-105.27385, 39.99996], [-105.27493, 39.99997], [-105.275167, 40.000071], [-105.274942, 40.000071], [-105.273717, 40.000075], [-105.272486, 40.000075], [-105.271254, 40.000078], [-105.271108, 40.000078], [-105.27109, 39.99921]]]]}}, {"type": "Feature", "properties": {"area_id": 10392, "city": "Boulder", "state": "CO", "city_survey": false, "cat": "Best Residential", "grade": "", "label": "Best Residential", "res": true, "com": false, "ind": false, "fill": "#4e654f", "GEOID10": "08013012101", "GISJOIN": "G0800130012101", "calc_area": 273969.04373, "pct_tract": 0.0958}, "geometry": {"type": "MultiPolygon", "coordinates": [[[[-105.28476, 40.01984], [-105.28537, 40.01951], [-105.28736, 40.01895], [-105.28756, 40.01859], [-105.28846, 40.01801], [-105.29137, 40.01851], [-105.29176, 40.01866], [-105.29232, 40.01862], [-105.29219, 40.01944], [-105.29358, 40.02034], [-105.29365, 40.02074], [-105.2923, 40.02092], [-105.29165, 40.02081], [-105.29151, 40.02114], [-105.28862, 40.02114], [-105.2886, 40.02169], [-105.2886, 40.02339], [-105.28831, 40.02348], [-105.28833, 40.02414], [-105.28571, 40.02414], [-105.28569, 40.02383], [-105.285651, 40.023829], [-105.28565, 40.023689], [-105.285636, 40.023271], [-105.285628, 40.023146], [-105.285596, 40.022974], [-105.285528, 40.022781], [-105.285474, 40.022677], [-105.285457, 40.022644], [-105.285199, 40.022278], [-105.28496, 40.021979], [-105.284908, 40.021896], [-105.284864, 40.021766], [-105.284865, 40.020742], [-105.284886, 40.020559], [-105.284906, 40.020455], [-105.284899, 40.020379], [-105.284722, 40.019842], [-105.28476, 40.01984]]]]}}, {"type": "Feature", "properties": {"area_id": 10392, "city": "Boulder", "state": "CO", "city_survey": false, "cat": "Best Residential", "grade": "", "label": "Best Residential", "res": true, "com": false, "ind": false, "fill": "#4e654f", "GEOID10": "08013012201", "GISJOIN": "G0800130012201", "calc_area": 329294.80436, "pct_tract": 0.06211}, "geometry": {"type": "MultiPolygon", "coordinates": [[[[-105.28349, 40.00017], [-105.28353, 40.00037], [-105.28355, 40.00048], [-105.28534, 40.00057], [-105.28578, 40.00076], [-105.28577, 40.00122], [-105.28541, 40.00134], [-105.28549, 40.00174], [-105.28553, 40.00209], [-105.28609, 40.00218], [-105.28608, 40.00313], [-105.28525, 40.0038], [-105.28446, 40.00383], [-105.28445, 40.00713], [-105.2857, 40.00714], [-105.28569, 40.00901], [-105.28621, 40.00938], [-105.28653, 40.01014], [-105.28552, 40.01036], [-105.28532, 40.01063], [-105.28239, 40.010624], [-105.282283, 40.010486], [-105.28222, 40.010394], [-105.282063, 40.010108], [-105.282019, 40.009976], [-105.281997, 40.009841], [-105.281996, 40.009443], [-105.281997, 40.008908], [-105.281997, 40.00868], [-105.281995, 40.007403], [-105.281973, 40.007274], [-105.281968, 40.005449], [-105.281948, 40.003709], [-105.281954, 40.003227], [-105.281948, 40.001835], [-105.281938, 40.00018], [-105.28349, 40.00017]]]]}}, {"type": "Feature", "properties": {"area_id": 10393, "city": "Boulder", "state": "CO", "city_survey": false, "cat": "2nd Class Residence", "grade": "", "label": "2nd Class Residence", "res": true, "com": false, "ind": false, "fill": "#b7a957", "GEOID10": "08013012204", "GISJOIN": "G0800130012204", "calc_area": 417682.5174, "pct_tract": 0.29967}, "geometry": {"type": "MultiPolygon", "coordinates": [[[[-105.2786, 40.01233], [-105.27852, 40.01201], [-105.27813, 40.01151], [-105.2776, 40.01162], [-105.27799, 40.01239], [-105.27619, 40.01222], [-105.27423, 40.01161], [-105.272807, 40.010834], [-105.273163, 40.010649], [-105.273274, 40.010596], [-105.273416, 40.010551], [-105.273626, 40.010517], [-105.274726, 40.010517], [-105.276, 40.010516], [-105.276923, 40.01049], [-105.278666, 40.010491], [-105.279884, 40.010491], [-105.279972, 40.010491], [-105.28018, 40.01062], [-105.28239, 40.010624], [-105.282449, 40.0107], [-105.282549, 40.010859], [-105.282623, 40.011014], [-105.282763, 40.011414], [-105.2786, 40.01233]]], [[[-105.2743, 40.01248], [-105.27494, 40.01303], [-105.27612, 40.01355], [-105.27673, 40.01377], [-105.27614, 40.01399], [-105.27615, 40.01413], [-105.27673, 40.01402], [-105.27698, 40.01451], [-105.27601, 40.01478], [-105.2747, 40.01465], [-105.27513, 40.01605], [-105.27532, 40.01668], [-105.27403, 40.01705], [-105.27412, 40.01731], [-105.27362, 40.01741], [-105.27412, 40.01856], [-105.273259, 40.018745], [-105.27308, 40.018224], [-105.27277, 40.017263], [-105.272757, 40.017207], [-105.272743, 40.017167], [-105.272571, 40.016188], [-105.272564, 40.016148], [-105.27256, 40.015405], [-105.272552, 40.014588], [-105.272549, 40.013605], [-105.272537, 40.012613], [-105.27254, 40.012343], [-105.2743, 40.01248]]], [[[-105.28292, 40.01995], [-105.28224, 40.02027], [-105.28202, 40.02068], [-105.274442, 40.022142], [-105.274342, 40.021847], [-105.274117, 40.021257], [-105.273962, 40.020773], [-105.273809, 40.020362], [-105.273776, 40.02025], [-105.273601, 40.019741], [-105.27433, 40.01959], [-105.27472, 40.02056], [-105.27518, 40.02049], [-105.28192, 40.01917], [-105.28176, 40.01883], [-105.28291, 40.01844], [-105.284114, 40.018196], [-105.284246, 40.018498], [-105.284371, 40.018837], [-105.28445, 40.019092], [-105.284698, 40.019771], [-105.284722, 40.019842], [-105.28292, 40.01995]]]]}}, {"type": "Feature", "properties": {"area_id": 10393, "city": "Boulder", "state": "CO", "city_survey": false, "cat": "2nd Class Residence", "grade": "", "label": "2nd Class Residence", "res": true, "com": false, "ind": false, "fill": "#b7a957", "GEOID10": "08013012401", "GISJOIN": "G0800130012401", "calc_area": 270031.76058, "pct_tract": 0.24167}, "geometry": {"type": "MultiPolygon", "coordinates": [[[[-105.27111, 40.0002], [-105.27259, 40.00021], [-105.27265, 40.0036], [-105.27354, 40.0036], [-105.2735, 40.00384], [-105.27435, 40.00384], [-105.27433, 40.00531], [-105.27726, 40.00531], [-105.27808, 40.00558], [-105.27804, 40.00644], [-105.27887, 40.00644], [-105.27882, 40.00738], [-105.27828, 40.00858], [-105.27813, 40.00908], [-105.27725, 40.00864], [-105.2773, 40.00743], [-105.2773, 40.00716], [-105.27483, 40.00721], [-105.27257, 40.00599], [-105.27251, 40.00386], [-105.27027, 40.00378], [-105.26881, 40.00304], [-105.26849, 40.00177], [-105.26934, 40.00172], [-105.26937, 40.00023], [-105.26745, 40.00024], [-105.267205, 40.000081], [-105.267764, 40.00008], [-105.268367, 40.000081], [-105.268785, 40.000081], [-105.270022, 40.000079], [-105.271108, 40.000078], [-105.27111, 40.0002]]], [[[-105.27768, 40.01043], [-105.27822, 40.00997], [-105.27901, 40.00987], [-105.27973, 40.01034], [-105.279972, 40.010491], [-105.279884, 40.010491], [-105.278666, 40.010491], [-105.276923, 40.01049], [-105.276887, 40.01043], [-105.27768, 40.01043]]]]}}, {"type": "Feature", "properties": {"area_id": 10393, "city": "Boulder", "state": "CO", "city_survey": false, "cat": "2nd Class Residence", "grade": "", "label": "2nd Class Residence", "res": true, "com": false, "ind": false, "fill": "#b7a957", "GEOID10": "08013012300", "GISJOIN": "G0800130012300", "calc_area": 40663.28712, "pct_tract": 0.02848}, "geometry": {"type": "MultiPolygon", "coordinates": [[[[-105.27247, 40.01065], [-105.27249, 40.01034], [-105.27656, 40.01043], [-105.276887, 40.01043], [-105.276923, 40.01049], [-105.276, 40.010516], [-105.274726, 40.010517], [-105.273626, 40.010517], [-105.273416, 40.010551], [-105.273274, 40.010596], [-105.273163, 40.010649], [-105.272807, 40.010834], [-105.27247, 40.01065]]], [[[-105.27031, 40.01409], [-105.27116, 40.01411], [-105.27112, 40.01292], [-105.27148, 40.01226], [-105.27254, 40.012343], [-105.272537, 40.012613], [-105.272549, 40.013605], [-105.272552, 40.014588], [-105.271655, 40.014593], [-105.27025, 40.014599], [-105.27031, 40.01409]]]]}}, {"type": "Feature", "properties": {"area_id": 10393, "city": "Boulder", "state": "CO", "city_survey": false, "cat": "2nd Class Residence", "grade": "", "label": "2nd Class Residence", "res": true, "com": false, "ind": false, "fill": "#b7a957", "GEOID10": "08013012505", "GISJOIN": "G0800130012505", "calc_area": 175105.81608, "pct_tract": 0.01161}, "geometry": {"type": "MultiPolygon", "coordinates": [[[[-105.26637, 39.99954], [-105.26514, 39.99926], [-105.26483, 39.99812], [-105.26483, 39.9977], [-105.2652, 39.99714], [-105.26649, 39.99642], [-105.26975, 39.99625], [-105.27052, 39.99692], [-105.27142, 39.99682], [-105.27144, 39.9971], [-105.27057, 39.99714], [-105.27017, 39.99772], [-105.26994, 39.99787], [-105.26985, 39.99907], [-105.27109, 39.99921], [-105.271108, 40.000078], [-105.270022, 40.000079], [-105.268785, 40.000081], [-105.268367, 40.000081], [-105.267764, 40.00008], [-105.267205, 40.000081], [-105.26637, 39.99954]]]]}}, {"type": "Feature", "properties": {"area_id": 10393, "city": "Boulder", "state": "CO", "city_survey": false, "cat": "2nd Class Residence", "grade": "", "label": "2nd Class Residence", "res": true, "com": false, "ind": false, "fill": "#b7a957", "GEOID10": "08013012101", "GISJOIN": "G0800130012101", "calc_area": 108667.81028, "pct_tract": 0.038}, "geometry": {"type": "MultiPolygon", "coordinates": [[[[-105.28823, 40.01736], [-105.29148, 40.01673], [-105.29258, 40.01664], [-105.29255, 40.01841], [-105.29238, 40.01843], [-105.29232, 40.01862], [-105.29176, 40.01866], [-105.29137, 40.01851], [-105.28846, 40.01801], [-105.28756, 40.01859], [-105.28736, 40.01895], [-105.28537, 40.01951], [-105.28476, 40.01984], [-105.284722, 40.019842], [-105.284698, 40.019771], [-105.28445, 40.019092], [-105.284371, 40.018837], [-105.284246, 40.018498], [-105.284114, 40.018196], [-105.28823, 40.01736]]]]}}, {"type": "Feature", "properties": {"area_id": 10393, "city": "Boulder", "state": "CO", "city_survey": false, "cat": "2nd Class Residence", "grade": "", "label": "2nd Class Residence", "res": true, "com": false, "ind": false, "fill": "#b7a957", "GEOID10": "08013012201", "GISJOIN": "G0800130012201", "calc_area": 230769.73839, "pct_tract": 0.04353}, "geometry": {"type": "MultiPolygon", "coordinates": [[[[-105.28628, 40.00025], [-105.28618, 40.00378], [-105.28525, 40.0038], [-105.28608, 40.00313], [-105.28609, 40.00218], [-105.28553, 40.00209], [-105.28549, 40.00174], [-105.28541, 40.00134], [-105.28577, 40.00122], [-105.28578, 40.00076], [-105.28534, 40.00057], [-105.28355, 40.00048], [-105.28353, 40.00037], [-105.28628, 40.00025]]], [[[-105.28532, 40.01063], [-105.28552, 40.01036], [-105.28653, 40.01014], [-105.28621, 40.00938], [-105.28569, 40.00901], [-105.2857, 40.00714], [-105.28669, 40.00716], [-105.28667, 40.00397], [-105.28866, 40.00408], [-105.28851, 40.00735], [-105.2885, 40.00835], [-105.28849, 40.00946], [-105.28917, 40.00951], [-105.28915, 40.01032], [-105.29058, 40.01167], [-105.28923, 40.01198], [-105.28704, 40.01179], [-105.28708, 40.01114], [-105.28396, 40.01115], [-105.282763, 40.011414], [-105.282623, 40.011014], [-105.282549, 40.010859], [-105.282449, 40.0107], [-105.28239, 40.010624], [-105.28532, 40.01063]]]]}}, {"type": "Feature", "properties": {"area_id": 10393, "city": "Boulder", "state": "CO", "city_survey": false, "cat": "2nd Class Residence", "grade": "", "label": "2nd Class Residence", "res": true, "com": false, "ind": false, "fill": "#b7a957", "GEOID10": "08013012202", "GISJOIN": "G0800130012202", "calc_area": 248361.02503, "pct_tract": 0.15107}, "geometry": {"type": "MultiPolygon", "coordinates": [[[[-105.26666, 40.02016], [-105.26331, 40.02084], [-105.26333, 40.01967], [-105.27043, 40.01824], [-105.27061, 40.01733], [-105.27025, 40.01663], [-105.27023, 40.01477], [-105.27025, 40.014599], [-105.271655, 40.014593], [-105.272552, 40.014588], [-105.27256, 40.015405], [-105.272564, 40.016148], [-105.272571, 40.016188], [-105.272743, 40.017167], [-105.272757, 40.017207], [-105.27277, 40.017263], [-105.27308, 40.018224], [-105.273259, 40.018745], [-105.26666, 40.02016]]], [[[-105.27435, 40.02216], [-105.27428, 40.02182], [-105.27302, 40.02207], [-105.27276, 40.02137], [-105.27137, 40.02127], [-105.26875, 40.02184], [-105.26857, 40.02123], [-105.26882, 40.02073], [-105.273601, 40.019741], [-105.273776, 40.02025], [-105.273809, 40.020362], [-105.273962, 40.020773], [-105.274117, 40.021257], [-105.274342, 40.021847], [-105.274442, 40.022142], [-105.27435, 40.02216]]]]}}, {"type": "Feature", "properties": {"area_id": 10396, "city": "Boulder", "state": "CO", "city_survey": false, "cat": "3rd Class Residence", "grade": "", "label": "3rd Class Residence", "res": true, "com": false, "ind": false, "fill": "#805143", "GEOID10": "08013012204", "GISJOIN": "G0800130012204", "calc_area": 572226.34456, "pct_tract": 0.41055}, "geometry": {"type": "MultiPolygon", "coordinates": [[[[-105.27423, 40.01161], [-105.27619, 40.01222], [-105.27799, 40.01239], [-105.2776, 40.01162], [-105.27813, 40.01151], [-105.27852, 40.01201], [-105.2786, 40.01233], [-105.282763, 40.011414], [-105.282946, 40.011938], [-105.283061, 40.01228], [-105.283389, 40.01317], [-105.283457, 40.013424], [-105.283474, 40.013578], [-105.283474, 40.013643], [-105.283457, 40.013809], [-105.283401, 40.014082], [-105.28338, 40.014199], [-105.283295, 40.014628], [-105.28326, 40.014768], [-105.283221, 40.014944], [-105.283221, 40.014996], [-105.283226, 40.015045], [-105.283239, 40.015101], [-105.283568, 40.016072], [-105.283708, 40.016491], [-105.283761, 40.016648], [-105.283791, 40.016856], [-105.283799, 40.017094], [-105.283887, 40.017559], [-105.28396, 40.017824], [-105.284082, 40.018122], [-105.284114, 40.018196], [-105.28291, 40.01844], [-105.28253, 40.01739], [-105.28158, 40.01761], [-105.28059, 40.01495], [-105.27513, 40.01605], [-105.27498, 40.01557], [-105.27492, 40.01528], [-105.2748, 40.01507], [-105.2747, 40.01465], [-105.27615, 40.01463], [-105.27698, 40.01451], [-105.27673, 40.01402], [-105.27615, 40.01413], [-105.27614, 40.01399], [-105.27673, 40.01377], [-105.27612, 40.01355], [-105.27494, 40.01303], [-105.2743, 40.01248], [-105.27254, 40.012343], [-105.272543, 40.011983], [-105.272542, 40.011805], [-105.27254, 40.011626], [-105.27254, 40.011212], [-105.272541, 40.011157], [-105.272562, 40.011069], [-105.272628, 40.010962], [-105.272732, 40.010873], [-105.272807, 40.010834], [-105.27423, 40.01161]]], [[[-105.28204, 40.02546], [-105.28126, 40.02547], [-105.280458, 40.025476], [-105.280509, 40.025438], [-105.280555, 40.02538], [-105.280577, 40.025313], [-105.28056, 40.02449], [-105.280556, 40.024017], [-105.280542, 40.023772], [-105.280495, 40.023499], [-105.280482, 40.023445], [-105.280127, 40.022453], [-105.279709, 40.021198], [-105.278418, 40.021453], [-105.277708, 40.02161], [-105.277106, 40.021727], [-105.275791, 40.021986], [-105.275143, 40.022129], [-105.274483, 40.022243], [-105.274455, 40.022181], [-105.274442, 40.022142], [-105.28202, 40.02068], [-105.2821, 40.0213], [-105.28285, 40.02232], [-105.28362, 40.02334], [-105.28377, 40.02378], [-105.285651, 40.023829], [-105.285657, 40.024508], [-105.285666, 40.025516], [-105.285671, 40.025828], [-105.285672, 40.025922], [-105.285664, 40.026004], [-105.285579, 40.026415], [-105.285559, 40.026632], [-105.285561, 40.026721], [-105.284405, 40.02672], [-105.283416, 40.026723], [-105.283249, 40.026723], [-105.282086, 40.026736], [-105.282055, 40.026736], [-105.28204, 40.02546]]], [[[-105.27412, 40.01856], [-105.27362, 40.01741], [-105.27412, 40.01731], [-105.27518, 40.02049], [-105.27472, 40.02056], [-105.27433, 40.01959], [-105.273601, 40.019741], [-105.273428, 40.019239], [-105.273259, 40.018745], [-105.27412, 40.01856]]]]}}, {"type": "Feature", "properties": {"area_id": 10396, "city": "Boulder", "state": "CO", "city_survey": false, "cat": "3rd Class Residence", "grade": "", "label": "3rd Class Residence", "res": true, "com": false, "ind": false, "fill": "#805143", "GEOID10": "08013012203", "GISJOIN": "G0800130012203", "calc_area": 4113.61199, "pct_tract": 0.00062}, "geometry": {"type": "MultiPolygon", "coordinates": [[[[-105.25821, 40.0257], [-105.25818, 40.02221], [-105.258319, 40.022182], [-105.258318, 40.022252], [-105.258317, 40.022361], [-105.258316, 40.022788], [-105.258313, 40.023415], [-105.258311, 40.024517], [-105.258313, 40.025338], [-105.258383, 40.025511], [-105.258383, 40.025697], [-105.25821, 40.0257]]]]}}, {"type": "Feature", "properties": {"area_id": 10396, "city": "Boulder", "state": "CO", "city_survey": false, "cat": "3rd Class Residence", "grade": "", "label": "3rd Class Residence", "res": true, "com": false, "ind": false, "fill": "#805143", "GEOID10": "08013012401", "GISJOIN": "G0800130012401", "calc_area": 112728.74757, "pct_tract": 0.10089}, "geometry": {"type": "MultiPolygon", "coordinates": [[[[-105.26745, 40.00024], [-105.26374, 40.00027], [-105.26364, 40.000131], [-105.263676, 40.000126], [-105.26376, 40.000082], [-105.264306, 40.000092], [-105.265055, 40.000085], [-105.266503, 40.000083], [-105.266609, 40.000083], [-105.267205, 40.000081], [-105.26745, 40.00024]]], [[[-105.28188, 40.00018], [-105.27997, 40.00026], [-105.2798, 40.00027], [-105.27554, 40.00023], [-105.275167, 40.000071], [-105.276178, 40.000071], [-105.277399, 40.000072], [-105.278404, 40.000075], [-105.278631, 40.000074], [-105.279647, 40.000072], [-105.279864, 40.000072], [-105.280372, 40.000069], [-105.281089, 40.000068], [-105.281937, 40.000068], [-105.281938, 40.00018], [-105.28188, 40.00018]]], [[[-105.26745, 40.00024], [-105.2678, 40.00024], [-105.2682, 40.00024], [-105.26937, 40.00023], [-105.26934, 40.00172], [-105.26849, 40.00177], [-105.26881, 40.00304], [-105.27027, 40.00378], [-105.27251, 40.00386], [-105.27257, 40.00599], [-105.272491, 40.005995], [-105.272252, 40.00586], [-105.271602, 40.005504], [-105.270554, 40.004912], [-105.269791, 40.004484], [-105.269725, 40.004551], [-105.269529, 40.004427], [-105.268795, 40.003976], [-105.268264, 40.003656], [-105.267958, 40.003536], [-105.26773, 40.003438], [-105.267529, 40.003413], [-105.267494, 40.0034], [-105.26745, 40.00024]]]]}}, {"type": "Feature", "properties": {"area_id": 10396, "city": "Boulder", "state": "CO", "city_survey": false, "cat": "3rd Class Residence", "grade": "", "label": "3rd Class Residence", "res": true, "com": false, "ind": false, "fill": "#805143", "GEOID10": "08013012300", "GISJOIN": "G0800130012300", "calc_area": 169756.31792, "pct_tract": 0.11889}, "geometry": {"type": "MultiPolygon", "coordinates": [[[[-105.27223, 40.00601], [-105.27081, 40.0061], [-105.26799, 40.00628], [-105.26722, 40.00523], [-105.26857, 40.00409], [-105.26842, 40.00389], [-105.2675, 40.00386], [-105.267494, 40.0034], [-105.267529, 40.003413], [-105.26773, 40.003438], [-105.267958, 40.003536], [-105.268264, 40.003656], [-105.268795, 40.003976], [-105.269529, 40.004427], [-105.269725, 40.004551], [-105.269791, 40.004484], [-105.270554, 40.004912], [-105.271602, 40.005504], [-105.272252, 40.00586], [-105.272491, 40.005995], [-105.27223, 40.00601]]], [[[-105.26414, 40.01446], [-105.26414, 40.01254], [-105.26665, 40.01257], [-105.26672, 40.01446], [-105.27, 40.01446], [-105.27, 40.01099], [-105.27207, 40.0109], [-105.27249, 40.01034], [-105.27247, 40.01065], [-105.272807, 40.010834], [-105.272732, 40.010873], [-105.272628, 40.010962], [-105.272562, 40.011069], [-105.272541, 40.011157], [-105.27254, 40.011212], [-105.27254, 40.011626], [-105.272542, 40.011805], [-105.272543, 40.011983], [-105.27254, 40.012343], [-105.27148, 40.01226], [-105.27112, 40.01292], [-105.27116, 40.01411], [-105.27031, 40.01409], [-105.27025, 40.014599], [-105.27022, 40.014599], [-105.26899, 40.014493], [-105.267829, 40.01448], [-105.266229, 40.01449], [-105.26466, 40.014515], [-105.263874, 40.014527], [-105.263027, 40.01453], [-105.263026, 40.014432], [-105.26414, 40.01446]]]]}}, {"type": "Feature", "properties": {"area_id": 10396, "city": "Boulder", "state": "CO", "city_survey": false, "cat": "3rd Class Residence", "grade": "", "label": "3rd Class Residence", "res": true, "com": false, "ind": false, "fill": "#805143", "GEOID10": "08013012505", "GISJOIN": "G0800130012505", "calc_area": 139723.18705, "pct_tract": 0.00926}, "geometry": {"type": "MultiPolygon", "coordinates": [[[[-105.26102, 39.99648], [-105.2647, 39.99645], [-105.26464, 39.99609], [-105.26976, 39.99603], [-105.26975, 39.99625], [-105.26649, 39.99642], [-105.2652, 39.99714], [-105.26483, 39.9977], [-105.26483, 39.99812], [-105.26514, 39.99926], [-105.26637, 39.99954], [-105.267205, 40.000081], [-105.266609, 40.000083], [-105.266503, 40.000083], [-105.265055, 40.000085], [-105.264306, 40.000092], [-105.26376, 40.000082], [-105.263676, 40.000126], [-105.26364, 40.000131], [-105.26102, 39.99648]]], [[[-105.27493, 39.99997], [-105.28666, 39.99987], [-105.28666, 40.000061], [-105.286647, 40.000061], [-105.285867, 40.000063], [-105.285419, 40.000064], [-105.284251, 40.000065], [-105.283446, 40.000051], [-105.283025, 40.000044], [-105.282593, 40.000052], [-105.281937, 40.000068], [-105.281089, 40.000068], [-105.280372, 40.000069], [-105.279864, 40.000072], [-105.279647, 40.000072], [-105.278631, 40.000074], [-105.278404, 40.000075], [-105.277399, 40.000072], [-105.276178, 40.000071], [-105.275167, 40.000071], [-105.27493, 39.99997]]]]}}, {"type": "Feature", "properties": {"area_id": 10396, "city": "Boulder", "state": "CO", "city_survey": false, "cat": "3rd Class Residence", "grade": "", "label": "3rd Class Residence", "res": true, "com": false, "ind": false, "fill": "#805143", "GEOID10": "08013012101", "GISJOIN": "G0800130012101", "calc_area": 997067.47958, "pct_tract": 0.34864}, "geometry": {"type": "MultiPolygon", "coordinates": [[[[-105.28569, 40.02383], [-105.28571, 40.02414], [-105.28833, 40.02414], [-105.28831, 40.02348], [-105.2886, 40.02339], [-105.2886, 40.02277], [-105.28861, 40.02228], [-105.28858, 40.02179], [-105.2886, 40.02113], [-105.29007, 40.02114], [-105.29151, 40.02114], [-105.29165, 40.02081], [-105.29155, 40.02346], [-105.29264, 40.02365], [-105.29242, 40.02491], [-105.29253, 40.02538], [-105.2927, 40.02527], [-105.29281, 40.03365], [-105.28213, 40.03368], [-105.2821, 40.03102], [-105.282091, 40.030071], [-105.282104, 40.029256], [-105.282102, 40.028859], [-105.282095, 40.028002], [-105.28208, 40.027242], [-105.282086, 40.026736], [-105.283249, 40.026723], [-105.283416, 40.026723], [-105.284405, 40.02672], [-105.285561, 40.026721], [-105.285559, 40.026632], [-105.285579, 40.026415], [-105.285664, 40.026004], [-105.285672, 40.025922], [-105.285671, 40.025828], [-105.285666, 40.025516], [-105.285657, 40.024508], [-105.285651, 40.023829], [-105.28569, 40.02383]]], [[[-105.29258, 40.01664], [-105.29148, 40.01673], [-105.28823, 40.01736], [-105.284114, 40.018196], [-105.284082, 40.018122], [-105.28536, 40.017869], [-105.287563, 40.017427], [-105.288025, 40.017333], [-105.2883, 40.017018], [-105.288417, 40.016964], [-105.288628, 40.016918], [-105.288803, 40.016927], [-105.289038, 40.016962], [-105.289311, 40.017028], [-105.289522, 40.01689], [-105.29083, 40.016724], [-105.290652, 40.0162], [-105.290453, 40.015763], [-105.291701, 40.0154], [-105.292017, 40.015333], [-105.292096, 40.015317], [-105.292299, 40.015275], [-105.292364, 40.015258], [-105.292594, 40.015196], [-105.29258, 40.01664]]]]}}, {"type": "Feature", "properties": {"area_id": 10396, "city": "Boulder", "state": "CO", "city_survey": false, "cat": "3rd Class Residence", "grade": "", "label": "3rd Class Residence", "res": true, "com": false, "ind": false, "fill": "#805143", "GEOID10": "08013012102", "GISJOIN": "G0800130012102", "calc_area": 469179.55318, "pct_tract": 0.16279}, "geometry": {"type": "MultiPolygon", "coordinates": [[[[-105.26325, 40.02561], [-105.258383, 40.025697], [-105.258383, 40.025511], [-105.258844, 40.025451], [-105.259924, 40.025244], [-105.260367, 40.025159], [-105.260968, 40.025036], [-105.261943, 40.024836], [-105.26298, 40.024624], [-105.263407, 40.024537], [-105.263718, 40.024476], [-105.263968, 40.024417], [-105.265284, 40.024146], [-105.266594, 40.023871], [-105.267911, 40.023604], [-105.269207, 40.023335], [-105.270692, 40.023037], [-105.271835, 40.022798], [-105.273158, 40.022536], [-105.273705, 40.022408], [-105.274483, 40.022243], [-105.275143, 40.022129], [-105.275791, 40.021986], [-105.277106, 40.021727], [-105.277708, 40.02161], [-105.278418, 40.021453], [-105.279709, 40.021198], [-105.280127, 40.022453], [-105.280482, 40.023445], [-105.280495, 40.023499], [-105.280542, 40.023772], [-105.280556, 40.024017], [-105.28056, 40.02449], [-105.280577, 40.025313], [-105.280555, 40.02538], [-105.280509, 40.025438], [-105.280458, 40.025476], [-105.26325, 40.02561]]], [[[-105.28207, 40.02801], [-105.282055, 40.026736], [-105.282086, 40.026736], [-105.28208, 40.027242], [-105.282095, 40.028002], [-105.282102, 40.028859], [-105.282104, 40.029256], [-105.282091, 40.030071], [-105.28207, 40.02801]]]]}}, {"type": "Feature", "properties": {"area_id": 10396, "city": "Boulder", "state": "CO", "city_survey": false, "cat": "3rd Class Residence", "grade": "", "label": "3rd Class Residence", "res": true, "com": false, "ind": false, "fill": "#805143", "GEOID10": "08013012201", "GISJOIN": "G0800130012201", "calc_area": 556982.72411, "pct_tract": 0.10506}, "geometry": {"type": "MultiPolygon", "coordinates": [[[[-105.28665, 40.00378], [-105.28618, 40.00378], [-105.28628, 40.00025], [-105.28353, 40.00037], [-105.28349, 40.00017], [-105.281938, 40.00018], [-105.281937, 40.000068], [-105.282593, 40.000052], [-105.283025, 40.000044], [-105.283446, 40.000051], [-105.284251, 40.000065], [-105.285419, 40.000064], [-105.285867, 40.000063], [-105.286647, 40.000061], [-105.28666, 40.000061], [-105.28665, 40.00378]]], [[[-105.28396, 40.01115], [-105.28708, 40.01114], [-105.28704, 40.01179], [-105.28923, 40.01198], [-105.29058, 40.01167], [-105.28915, 40.01032], [-105.28917, 40.00951], [-105.28849, 40.00946], [-105.2885, 40.00835], [-105.28851, 40.00735], [-105.28866, 40.00408], [-105.28667, 40.00397], [-105.28665, 40.00378], [-105.28934, 40.00372], [-105.28911, 40.00734], [-105.28865, 40.00732], [-105.28869, 40.00835], [-105.29023, 40.00835], [-105.29023, 40.00922], [-105.29083, 40.00924], [-105.29081, 40.01036], [-105.29034, 40.01038], [-105.29169, 40.01102], [-105.29172, 40.01334], [-105.29165, 40.01457], [-105.2926, 40.01457], [-105.292594, 40.015196], [-105.292364, 40.015258], [-105.292299, 40.015275], [-105.292096, 40.015317], [-105.292017, 40.015333], [-105.291701, 40.0154], [-105.290453, 40.015763], [-105.290652, 40.0162], [-105.29083, 40.016724], [-105.289522, 40.01689], [-105.289311, 40.017028], [-105.289038, 40.016962], [-105.288803, 40.016927], [-105.288628, 40.016918], [-105.288417, 40.016964], [-105.2883, 40.017018], [-105.288025, 40.017333], [-105.287563, 40.017427], [-105.28536, 40.017869], [-105.284082, 40.018122], [-105.28396, 40.017824], [-105.283887, 40.017559], [-105.283799, 40.017094], [-105.283791, 40.016856], [-105.283761, 40.016648], [-105.283708, 40.016491], [-105.283568, 40.016072], [-105.283239, 40.015101], [-105.283226, 40.015045], [-105.283221, 40.014996], [-105.283221, 40.014944], [-105.28326, 40.014768], [-105.283295, 40.014628], [-105.28338, 40.014199], [-105.283401, 40.014082], [-105.283457, 40.013809], [-105.283474, 40.013643], [-105.283474, 40.013578], [-105.283457, 40.013424], [-105.283389, 40.01317], [-105.283061, 40.01228], [-105.282946, 40.011938], [-105.282763, 40.011414], [-105.28396, 40.01115]]]]}}, {"type": "Feature", "properties": {"area_id": 10396, "city": "Boulder", "state": "CO", "city_survey": false, "cat": "3rd Class Residence", "grade": "", "label": "3rd Class Residence", "res": true, "com": false, "ind": false, "fill": "#805143", "GEOID10": "08013012202", "GISJOIN": "G0800130012202", "calc_area": 782374.87985, "pct_tract": 0.47589}, "geometry": {"type": "MultiPolygon", "coordinates": [[[[-105.26302, 40.02125], [-105.263, 40.01973], [-105.26294, 40.01512], [-105.26293, 40.01466], [-105.26293, 40.01443], [-105.263026, 40.014432], [-105.263027, 40.01453], [-105.263874, 40.014527], [-105.26466, 40.014515], [-105.266229, 40.01449], [-105.267829, 40.01448], [-105.26899, 40.014493], [-105.27022, 40.014599], [-105.27025, 40.014599], [-105.27023, 40.01477], [-105.27024, 40.01505], [-105.27025, 40.01663], [-105.27061, 40.01733], [-105.27043, 40.01824], [-105.26333, 40.01967], [-105.26331, 40.02084], [-105.26666, 40.02016], [-105.273259, 40.018745], [-105.273428, 40.019239], [-105.273601, 40.019741], [-105.26882, 40.02073], [-105.26857, 40.02123], [-105.26875, 40.02184], [-105.27137, 40.02127], [-105.27276, 40.02137], [-105.27302, 40.02207], [-105.27428, 40.02182], [-105.27435, 40.02216], [-105.274442, 40.022142], [-105.274455, 40.022181], [-105.274483, 40.022243], [-105.273705, 40.022408], [-105.273158, 40.022536], [-105.271835, 40.022798], [-105.270692, 40.023037], [-105.269207, 40.023335], [-105.267911, 40.023604], [-105.266594, 40.023871], [-105.265284, 40.024146], [-105.263968, 40.024417], [-105.263718, 40.024476], [-105.263407, 40.024537], [-105.26298, 40.024624], [-105.261943, 40.024836], [-105.260968, 40.025036], [-105.260367, 40.025159], [-105.259924, 40.025244], [-105.258844, 40.025451], [-105.258383, 40.025511], [-105.258313, 40.025338], [-105.258311, 40.024517], [-105.258313, 40.023415], [-105.258316, 40.022788], [-105.258317, 40.022361], [-105.258318, 40.022252], [-105.258319, 40.022182], [-105.26302, 40.02125]]]]}}]}