{"type": "FeatureCollection", "features": [{"type": "Feature", "properties": {"area_id": 573, "city": "Columbus", "state": "OH", "city_survey": true, "cat": "Best", "grade": "A", "label": "A1", "res": true, "com": false, "ind": false, "holc_grade": "A"}, "geometry": {"type": "Polygon", "coordinates": [[[-83.02009, 40.05859], [-83.02683, 40.05887], [-83.02681, 40.05945], [-83.02693, 40.06016], [-83.0275, 40.06123], [-83.02826, 40.06208], [-83.02874, 40.06281], [-83.01982, 40.0624], [-83.02009, 40.05859]]]}}, {"type": "Feature", "properties": {"area_id": 570, "city": "Columbus", "state": "OH", "city_survey": true, "cat": "Best", "grade": "A", "label": "A2", "res": true, "com": false, "ind": false, "holc_grade": "A"}, "geometry": {"type": "Polygon", "coordinates": [[[-83.02025, 40.04943], [-83.02026, 40.04943], [-83.0203, 40.04884], [-83.0254, 40.04909], [-83.0249, 40.04957], [-83.02475, 40.05013], [-83.02472, 40.05141], [-83.02475, 40.05236], [-83.02493, 40.05295], [-83.02493, 40.05355], [-83.02478, 40.05425], [-83.02012, 40.05443], [-83.01425, 40.05421], [-83.01353, 40.05358], [-83.01366, 40.05125], [-83.0199, 40.05139], [-83.0199, 40.049596], [-83.0199, 40.04942], [-83.02025, 40.04943]]]}}, {"type": "Feature", "properties": {"area_id": 567, "city": "Columbus", "state": "OH", "city_survey": true, "cat": "Best", "grade": "A", "label": "A3", "res": true, "com": false, "ind": false, "holc_grade": "A"}, "geometry": {"type": "Polygon", "coordinates": [[[-83.00116, 40.03064], [-83.00116, 40.03], [-83.00794, 40.03011], [-83.008, 40.03076], [-83.015686, 40.03094], [-83.0157, 40.03094], [-83.016459, 40.033577], [-83.01663, 40.03417], [-83.02423, 40.03444], [-83.02423, 40.033693], [-83.02423, 40.03258], [-83.02464, 40.03233], [-83.024672, 40.032373], [-83.024831, 40.032581], [-83.02535, 40.03326], [-83.025497, 40.033701], [-83.02685, 40.03777], [-83.026814, 40.038083], [-83.0268, 40.03821], [-83.02663, 40.0393], [-83.02649, 40.04115], [-83.0185, 40.04094], [-83.01867, 40.04197], [-83.018638, 40.041968], [-83.01696, 40.04185], [-83.015929, 40.040147], [-83.01472, 40.03815], [-83.0114, 40.03795], [-83.01045, 40.03906], [-83.009492, 40.039808], [-83.0094, 40.03988], [-83.00878, 40.04026], [-83.00809, 40.04048], [-83.00781, 40.04048], [-83.00764, 40.04033], [-83.00759, 40.04001], [-83.007776, 40.039722], [-83.00797, 40.03942], [-83.00862, 40.0385], [-83.00885, 40.03808], [-83.00883, 40.03782], [-83.00736, 40.03773], [-83.00576, 40.03739], [-83.00493, 40.03731], [-83.00389, 40.03744], [-83.00284, 40.03762], [-83.0007, 40.03719], [-83.000915, 40.032959], [-83.00092, 40.03286], [-82.9987, 40.03276], [-82.99838, 40.03058], [-83.00116, 40.03064]]]}}, {"type": "Feature", "properties": {"area_id": 525, "city": "Columbus", "state": "OH", "city_survey": true, "cat": "Best", "grade": "A", "label": "A4", "res": true, "com": false, "ind": false, "holc_grade": "A"}, "geometry": {"type": "Polygon", "coordinates": [[[-82.943664, 39.957331], [-82.94377, 39.95789], [-82.94419, 39.9583], [-82.94439, 39.95878], [-82.94469, 39.95978], [-82.94471, 39.9606], [-82.944712, 39.960665], [-82.94472, 39.96087], [-82.94463, 39.96124], [-82.945833, 39.962828], [-82.94585, 39.96285], [-82.94618, 39.96552], [-82.94514, 39.96834], [-82.94659, 39.96823], [-82.946586, 39.968386], [-82.9465, 39.9718], [-82.94229, 39.97164], [-82.94181, 39.97768], [-82.93242, 39.97722], [-82.932406, 39.976945], [-82.93239, 39.97663], [-82.92623, 39.97632], [-82.922813, 39.976138], [-82.92266, 39.97613], [-82.922663, 39.976087], [-82.92294, 39.97148], [-82.92361, 39.96182], [-82.923619, 39.961705], [-82.92397, 39.95743], [-82.924407, 39.957442], [-82.933957, 39.957703], [-82.93824, 39.95782], [-82.93827, 39.95721], [-82.93997, 39.95724], [-82.93998, 39.95724], [-82.940826, 39.957253], [-82.94127, 39.95726], [-82.943244, 39.957301], [-82.94366, 39.95731], [-82.943664, 39.957331]]]}}, {"type": "Feature", "properties": {"area_id": 523, "city": "Columbus", "state": "OH", "city_survey": true, "cat": "Best", "grade": "A", "label": "A5", "res": true, "com": false, "ind": false, "holc_grade": "A"}, "geometry": {"type": "Polygon", "coordinates": [[[-82.90476, 39.96066], [-82.90491, 39.960671], [-82.90661, 39.96079], [-82.91226, 39.96102], [-82.914402, 39.961171], [-82.916236, 39.9613], [-82.92361, 39.96182], [-82.92294, 39.97148], [-82.913481, 39.972644], [-82.91221, 39.9728], [-82.90676, 39.9734], [-82.90676, 39.97285], [-82.903884, 39.973099], [-82.90387, 39.9731], [-82.903876, 39.973016], [-82.90476, 39.96066]]]}}, {"type": "Feature", "properties": {"area_id": 521, "city": "Columbus", "state": "OH", "city_survey": true, "cat": "Best", "grade": "A", "label": "A6", "res": true, "com": false, "ind": false, "holc_grade": "A"}, "geometry": {"type": "Polygon", "coordinates": [[[-82.92561, 39.95374], [-82.92863, 39.95278], [-82.92909, 39.94798], [-82.93268, 39.9482], [-82.93241, 39.95009], [-82.93481, 39.95031], [-82.93426, 39.95617], [-82.92538, 39.95592], [-82.92561, 39.95374]]]}}, {"type": "Feature", "properties": {"area_id": 490, "city": "Columbus", "state": "OH", "city_survey": true, "cat": "Best", "grade": "A", "label": "A7", "res": true, "com": false, "ind": false, "holc_grade": "A"}, "geometry": {"type": "Polygon", "coordinates": [[[-83.07413, 39.93859], [-83.07944, 39.93918], [-83.07879, 39.9408], [-83.07974, 39.94082], [-83.079914, 39.943377], [-83.07995, 39.9439], [-83.08925, 39.94351], [-83.08928, 39.94444], [-83.08405, 39.9447], [-83.08408, 39.94645], [-83.08931, 39.94638], [-83.08966, 39.95173], [-83.08836, 39.95176], [-83.08854, 39.95422], [-83.08501, 39.95439], [-83.07995, 39.95465], [-83.079952, 39.954665], [-83.08022, 39.95642], [-83.07635, 39.95663], [-83.07573, 39.95494], [-83.07766, 39.95478], [-83.077659, 39.954772], [-83.07722, 39.94954], [-83.076866, 39.945399], [-83.0768, 39.94463], [-83.076807, 39.944629], [-83.077538, 39.944551], [-83.078255, 39.944474], [-83.07829, 39.94447], [-83.07823, 39.94347], [-83.078182, 39.943473], [-83.0743, 39.94372], [-83.073617, 39.943681], [-83.07306, 39.94365], [-83.07332, 39.94194], [-83.07413, 39.93859]]]}}, {"type": "Feature", "properties": {"area_id": 562, "city": "Columbus", "state": "OH", "city_survey": true, "cat": "Best", "grade": "A", "label": "A8", "res": true, "com": false, "ind": false, "holc_grade": "A"}, "geometry": {"type": "Polygon", "coordinates": [[[-83.065161, 39.990303], [-83.0653, 39.99048], [-83.06357, 39.9914], [-83.06333, 39.99173], [-83.06333, 39.99199], [-83.06342, 39.9925], [-83.06387, 39.99335], [-83.06428, 39.99381], [-83.06461, 39.99395], [-83.06513, 39.99399], [-83.06559, 39.99381], [-83.06627, 39.9935], [-83.06656, 39.99341], [-83.06713, 39.99341], [-83.06749, 39.99354], [-83.06814, 39.99363], [-83.072285, 39.997691], [-83.07261, 39.99801], [-83.07273, 39.99838], [-83.07278, 39.99893], [-83.07254, 39.9996], [-83.07204, 40.00022], [-83.07102, 40.00113], [-83.07028, 40.00171], [-83.07014, 40.00198], [-83.07019, 40.00244], [-83.07161, 40.00719], [-83.077049, 40.007406], [-83.07715, 40.00741], [-83.07739, 40.00761], [-83.07698, 40.01425], [-83.07064, 40.01385], [-83.070037, 40.013842], [-83.06032, 40.01371], [-83.0602, 40.01314], [-83.05419, 40.01274], [-83.05443, 40.00679], [-83.0569, 40.00684], [-83.057015, 40.005409], [-83.05702, 40.00535], [-83.04806, 40.0049], [-83.048191, 40.001438], [-83.04823, 40.00042], [-83.05286, 40.00067], [-83.05293, 39.99874], [-83.05526, 39.9988], [-83.05477, 39.9949], [-83.05869, 39.99501], [-83.06164, 39.99403], [-83.061107, 39.989482], [-83.06107, 39.98917], [-83.06435, 39.98927], [-83.065161, 39.990303]]]}}, {"type": "Feature", "properties": {"area_id": 579, "city": "Columbus", "state": "OH", "city_survey": true, "cat": "Still Desirable", "grade": "B", "label": "B1", "res": true, "com": false, "ind": false, "holc_grade": "B"}, "geometry": {"type": "Polygon", "coordinates": [[[-83.022519, 40.083597], [-83.02335, 40.08363], [-83.02335, 40.08441], [-83.02383, 40.08443], [-83.02404, 40.08232], [-83.02891, 40.08271], [-83.02903, 40.08332], [-83.0292, 40.08363], [-83.02925, 40.08399], [-83.02917, 40.08465], [-83.02908, 40.08516], [-83.02927, 40.08568], [-83.02939, 40.0861], [-83.02974, 40.08663], [-83.02337, 40.08645], [-83.02311, 40.0941], [-83.021891, 40.094035], [-83.017781, 40.093816], [-83.01767, 40.09381], [-83.01677, 40.09376], [-83.016817, 40.092894], [-83.01696, 40.09027], [-83.00926, 40.0899], [-83.00928, 40.08941], [-83.00916, 40.08927], [-83.00441, 40.08899], [-83.00448, 40.08718], [-83.00624, 40.08727], [-83.006299, 40.086134], [-83.00636, 40.08496], [-83.007444, 40.085031], [-83.01358, 40.08543], [-83.013429, 40.084203], [-83.01331, 40.08323], [-83.014174, 40.083264], [-83.022519, 40.083597]]]}}, {"type": "Feature", "properties": {"area_id": 549, "city": "Columbus", "state": "OH", "city_survey": true, "cat": "Still Desirable", "grade": "B", "label": "B10", "res": true, "com": false, "ind": false, "holc_grade": "B"}, "geometry": {"type": "Polygon", "coordinates": [[[-82.971782, 40.022077], [-82.97184, 40.02208], [-82.97177, 40.02298], [-82.97504, 40.02315], [-82.974198, 40.031795], [-82.97415, 40.03229], [-82.96407, 40.03188], [-82.964102, 40.031303], [-82.96464, 40.02167], [-82.971782, 40.022077]]]}}, {"type": "Feature", "properties": {"area_id": 547, "city": "Columbus", "state": "OH", "city_survey": true, "cat": "Still Desirable", "grade": "B", "label": "B11", "res": true, "com": false, "ind": false, "holc_grade": "B"}, "geometry": {"type": "Polygon", "coordinates": [[[-82.979903, 40.000527], [-82.97979, 40.00252], [-82.97851, 40.00249], [-82.97827, 40.00406], [-82.97709, 40.00396], [-82.9772, 40.00479], [-82.9752, 40.00464], [-82.97494, 40.00894], [-82.97281, 40.0088], [-82.972797, 40.008955], [-82.97237, 40.01391], [-82.97856, 40.01424], [-82.97836, 40.01688], [-82.97356, 40.01662], [-82.97349, 40.01724], [-82.967773, 40.016888], [-82.96634, 40.0168], [-82.96786, 40.01373], [-82.96633, 40.01366], [-82.968244, 40.009482], [-82.96906, 40.0077], [-82.96982, 40.00186], [-82.9723, 40.00198], [-82.972469, 40.000172], [-82.97247, 40.00016], [-82.973815, 40.000238], [-82.97574, 40.00035], [-82.975745, 40.000342], [-82.97674, 39.99873], [-82.98, 39.99882], [-82.979903, 40.000527]]]}}, {"type": "Feature", "properties": {"area_id": 539, "city": "Columbus", "state": "OH", "city_survey": true, "cat": "Still Desirable", "grade": "B", "label": "B12", "res": true, "com": false, "ind": false, "holc_grade": "B"}, "geometry": {"type": "Polygon", "coordinates": [[[-82.99707, 39.99581], [-83.00729, 39.99618], [-83.007663, 39.998014], [-83.00878, 40.0035], [-83.00916, 40.00379], [-83.01465, 40.00395], [-83.01444, 40.00463], [-83.00914, 40.00443], [-83.00902, 40.00394], [-83.008799, 40.003753], [-83.00869, 40.00366], [-83.00553, 40.00359], [-83.00538, 40.00539], [-83.00738, 40.00547], [-83.007347, 40.00599], [-83.00731, 40.00656], [-83.00529, 40.00649], [-83.00526, 40.00727], [-83.00588, 40.00781], [-83.009628, 40.007994], [-83.00976, 40.008], [-83.01014, 40.00976], [-83.01009, 40.009757], [-83.00284, 40.00938], [-83.00279, 40.00923], [-82.9982, 40.00898], [-82.998299, 40.007179], [-82.998623, 40.001321], [-82.9987, 39.99993], [-82.99687, 39.9998], [-82.99707, 39.99581]]]}}, {"type": "Feature", "properties": {"area_id": 538, "city": "Columbus", "state": "OH", "city_survey": true, "cat": "Still Desirable", "grade": "B", "label": "B13", "res": true, "com": false, "ind": false, "holc_grade": "B"}, "geometry": {"type": "Polygon", "coordinates": [[[-83.01938, 39.99157], [-83.01922, 39.9952], [-83.0152, 39.99512], [-83.01501, 39.99628], [-83.014846, 39.99627], [-83.00797, 39.99583], [-83.008142, 39.99531], [-83.0087, 39.99362], [-83.01436, 39.99391], [-83.01412, 39.99285], [-83.016272, 39.992936], [-83.01636, 39.99294], [-83.01636, 39.992245], [-83.01636, 39.99142], [-83.018579, 39.99153], [-83.01938, 39.99157]]]}}, {"type": "Feature", "properties": {"area_id": 530, "city": "Columbus", "state": "OH", "city_survey": true, "cat": "Still Desirable", "grade": "B", "label": "B14", "res": true, "com": false, "ind": false, "holc_grade": "B"}, "geometry": {"type": "Polygon", "coordinates": [[[-82.93796, 39.99026], [-82.93803, 39.98977], [-82.93784, 39.98902], [-82.93746, 39.98809], [-82.93732, 39.98767], [-82.9379, 39.98602], [-82.94766, 39.9866], [-82.94761, 39.9878], [-82.9488, 39.98991], [-82.94852, 39.99295], [-82.942127, 39.992635], [-82.94203, 39.99263], [-82.943215, 39.98997], [-82.9435, 39.98933], [-82.94524, 39.98762], [-82.94108, 39.98742], [-82.94065, 39.9894], [-82.940501, 39.989473], [-82.940268, 39.989589], [-82.93796, 39.99073], [-82.93796, 39.99026]]]}}, {"type": "Feature", "properties": {"area_id": 532, "city": "Columbus", "state": "OH", "city_survey": true, "cat": "Still Desirable", "grade": "B", "label": "B15", "res": true, "com": false, "ind": false, "holc_grade": "B"}, "geometry": {"type": "Polygon", "coordinates": [[[-82.9435, 39.98253], [-82.94834, 39.98261], [-82.94828, 39.98364], [-82.94693, 39.98533], [-82.94233, 39.98505], [-82.9435, 39.98253]]]}}, {"type": "Feature", "properties": {"area_id": 518, "city": "Columbus", "state": "OH", "city_survey": true, "cat": "Still Desirable", "grade": "B", "label": "B16", "res": true, "com": false, "ind": false, "holc_grade": "B"}, "geometry": {"type": "Polygon", "coordinates": [[[-82.94957, 39.97085], [-82.95216, 39.97098], [-82.95211, 39.97147], [-82.95178, 39.9718], [-82.95159, 39.97215], [-82.95137, 39.97227], [-82.95156, 39.97242], [-82.95163, 39.97273], [-82.95149, 39.97288], [-82.95149, 39.97317], [-82.95161, 39.97351], [-82.95149, 39.97375], [-82.95095, 39.9738], [-82.95052, 39.97382], [-82.95009, 39.97413], [-82.94964, 39.97481], [-82.94945, 39.97535], [-82.94854, 39.97584], [-82.94866, 39.97623], [-82.94871, 39.9765], [-82.94819, 39.97719], [-82.94805, 39.97801], [-82.9457, 39.97786], [-82.94696, 39.9747], [-82.94888, 39.97162], [-82.94957, 39.97085]]]}}, {"type": "Feature", "properties": {"area_id": 526, "city": "Columbus", "state": "OH", "city_survey": true, "cat": "Still Desirable", "grade": "B", "label": "B17", "res": true, "com": false, "ind": false, "holc_grade": "B"}, "geometry": {"type": "Polygon", "coordinates": [[[-82.926312, 39.979653], [-82.92586, 39.97964], [-82.926171, 39.976852], [-82.92623, 39.97632], [-82.93239, 39.97663], [-82.932406, 39.976945], [-82.93242, 39.97722], [-82.94181, 39.97768], [-82.940303, 39.981379], [-82.94029, 39.98141], [-82.940201, 39.981429], [-82.94006, 39.98146], [-82.940056, 39.981398], [-82.93998, 39.98015], [-82.93225, 39.97974], [-82.932167, 39.979809], [-82.93213, 39.97984], [-82.92656, 39.97966], [-82.926312, 39.979653]]]}}, {"type": "Feature", "properties": {"area_id": 524, "city": "Columbus", "state": "OH", "city_survey": true, "cat": "Still Desirable", "grade": "B", "label": "B18", "res": true, "com": false, "ind": false, "holc_grade": "B"}, "geometry": {"type": "Polygon", "coordinates": [[[-82.92294, 39.97148], [-82.922663, 39.976087], [-82.92266, 39.97613], [-82.917927, 39.975871], [-82.913277, 39.975616], [-82.91079, 39.97548], [-82.9067, 39.97523], [-82.90676, 39.9734], [-82.91221, 39.9728], [-82.913481, 39.972644], [-82.92294, 39.97148]]]}}, {"type": "Feature", "properties": {"area_id": 522, "city": "Columbus", "state": "OH", "city_survey": true, "cat": "Still Desirable", "grade": "B", "label": "B19", "res": true, "com": false, "ind": false, "holc_grade": "B"}, "geometry": {"type": "Polygon", "coordinates": [[[-82.91565, 39.94686], [-82.920368, 39.947146], [-82.92472, 39.94741], [-82.92429, 39.95591], [-82.9243, 39.95591], [-82.92429, 39.95594], [-82.92397, 39.95743], [-82.923619, 39.961705], [-82.92361, 39.96182], [-82.916236, 39.9613], [-82.914402, 39.961171], [-82.91226, 39.96102], [-82.90661, 39.96079], [-82.90703, 39.9564], [-82.90546, 39.95633], [-82.905462, 39.956299], [-82.90569, 39.95332], [-82.91059, 39.95367], [-82.91095, 39.94781], [-82.91098, 39.9474], [-82.91074, 39.9467], [-82.914821, 39.946833], [-82.915529, 39.946856], [-82.91565, 39.94686]], [[-82.92166, 39.95346], [-82.92172, 39.95284], [-82.92158, 39.95247], [-82.92136, 39.95225], [-82.92148, 39.95099], [-82.91614, 39.95078], [-82.91581, 39.95384], [-82.92149, 39.95416], [-82.9215, 39.95374], [-82.92166, 39.95346]]]}}, {"type": "Feature", "properties": {"area_id": 578, "city": "Columbus", "state": "OH", "city_survey": true, "cat": "Still Desirable", "grade": "B", "label": "B2", "res": true, "com": false, "ind": false, "holc_grade": "B"}, "geometry": {"type": "Polygon", "coordinates": [[[-83.02914, 40.07708], [-83.029107, 40.077327], [-83.02884, 40.07935], [-83.02872, 40.08108], [-83.02872, 40.08185], [-83.02888, 40.08227], [-83.02891, 40.08271], [-83.02404, 40.08232], [-83.02383, 40.08443], [-83.02335, 40.08441], [-83.02335, 40.08363], [-83.022519, 40.083597], [-83.014174, 40.083264], [-83.01331, 40.08323], [-83.01358, 40.08089], [-83.01354, 40.08072], [-83.01278, 40.08082], [-83.01196, 40.07935], [-83.01187, 40.07738], [-83.01457, 40.07738], [-83.01527, 40.07706], [-83.01941, 40.07721], [-83.019353, 40.079487], [-83.01935, 40.07961], [-83.02402, 40.079556], [-83.02456, 40.07955], [-83.02549, 40.07728], [-83.02914, 40.07708]]]}}, {"type": "Feature", "properties": {"area_id": 582, "city": "Columbus", "state": "OH", "city_survey": true, "cat": "Still Desirable", "grade": "B", "label": "B20", "res": true, "com": false, "ind": false, "holc_grade": "B"}, "geometry": {"type": "Polygon", "coordinates": [[[-82.9371, 39.9476], [-82.93869, 39.94764], [-82.93887, 39.948138], [-82.9414, 39.95514], [-82.94127, 39.95726], [-82.940826, 39.957253], [-82.93998, 39.95724], [-82.939979, 39.957232], [-82.93967, 39.9554], [-82.93625, 39.95522], [-82.93619, 39.95712], [-82.937096, 39.957159], [-82.93827, 39.95721], [-82.93824, 39.95782], [-82.933957, 39.957703], [-82.924407, 39.957442], [-82.92397, 39.95743], [-82.92429, 39.95594], [-82.9243, 39.95591], [-82.92472, 39.94741], [-82.920368, 39.947146], [-82.91565, 39.94686], [-82.91575, 39.94619], [-82.91593, 39.94592], [-82.915931, 39.945919], [-82.91632, 39.94548], [-82.916429, 39.945403], [-82.9181, 39.94422], [-82.92291, 39.94183], [-82.92385, 39.94195], [-82.9246, 39.9419], [-82.9275, 39.94185], [-82.9288, 39.942], [-82.92928, 39.9422], [-82.92965, 39.94283], [-82.93035, 39.94181], [-82.93082, 39.94151], [-82.93143, 39.94115], [-82.93193, 39.94095], [-82.9326, 39.94082], [-82.93293, 39.94068], [-82.93373, 39.94002], [-82.93417, 39.93976], [-82.93464, 39.93966], [-82.93512, 39.93964], [-82.93685, 39.942066], [-82.93726, 39.94264], [-82.937228, 39.942728], [-82.93642, 39.94497], [-82.9371, 39.9476]], [[-82.93268, 39.9482], [-82.92909, 39.94798], [-82.92863, 39.95278], [-82.92561, 39.95374], [-82.92538, 39.95592], [-82.93426, 39.95617], [-82.93481, 39.95031], [-82.93241, 39.95009], [-82.93268, 39.9482]]]}}, {"type": "Feature", "properties": {"area_id": 514, "city": "Columbus", "state": "OH", "city_survey": true, "cat": "Still Desirable", "grade": "B", "label": "B21", "res": true, "com": false, "ind": false, "holc_grade": "B"}, "geometry": {"type": "Polygon", "coordinates": [[[-82.95073, 39.957463], [-82.95078, 39.95932], [-82.9585, 39.95959], [-82.95834, 39.96179], [-82.95481, 39.96169], [-82.95464, 39.96269], [-82.96127, 39.96306], [-82.96103, 39.96475], [-82.96513, 39.96504], [-82.96605, 39.96495], [-82.96597, 39.96545], [-82.966065, 39.965441], [-82.97738, 39.96433], [-82.977348, 39.964896], [-82.97731, 39.96555], [-82.970151, 39.966332], [-82.96623, 39.96676], [-82.96611, 39.9669], [-82.961714, 39.967435], [-82.96069, 39.96756], [-82.96029, 39.97082], [-82.95712, 39.97067], [-82.9538, 39.97051], [-82.95254, 39.969], [-82.952359, 39.967741], [-82.95233, 39.96754], [-82.95965, 39.96676], [-82.95967, 39.96357], [-82.94858, 39.96297], [-82.94784, 39.96022], [-82.94789, 39.95901], [-82.94787, 39.95843], [-82.947645, 39.957404], [-82.94764, 39.95738], [-82.95073, 39.95745], [-82.95073, 39.957463]]]}}, {"type": "Feature", "properties": {"area_id": 511, "city": "Columbus", "state": "OH", "city_survey": true, "cat": "Still Desirable", "grade": "B", "label": "B22", "res": true, "com": false, "ind": false, "holc_grade": "B"}, "geometry": {"type": "Polygon", "coordinates": [[[-82.95353, 39.95051], [-82.95365, 39.94948], [-82.95867, 39.94975], [-82.958463, 39.953556], [-82.95844, 39.95398], [-82.95652, 39.9539], [-82.95616, 39.95747], [-82.95073, 39.95745], [-82.951083, 39.953255], [-82.95133, 39.95032], [-82.95353, 39.95051]]]}}, {"type": "Feature", "properties": {"area_id": 509, "city": "Columbus", "state": "OH", "city_survey": true, "cat": "Still Desirable", "grade": "B", "label": "B23", "res": true, "com": false, "ind": false, "holc_grade": "B"}, "geometry": {"type": "Polygon", "coordinates": [[[-82.9769, 39.935], [-82.977, 39.93508], [-82.976916, 39.935999], [-82.97644, 39.94119], [-82.97634, 39.94305], [-82.97563, 39.94301], [-82.97555, 39.94376], [-82.975549, 39.943781], [-82.97529, 39.94939], [-82.97286, 39.949325], [-82.96893, 39.94922], [-82.968895, 39.949621], [-82.96817, 39.95782], [-82.96677, 39.95779], [-82.966662, 39.957788], [-82.96546, 39.957761], [-82.96531, 39.957758], [-82.964954, 39.95775], [-82.96494, 39.95775], [-82.965232, 39.953708], [-82.96534, 39.95221], [-82.9652, 39.95205], [-82.96128, 39.95197], [-82.961527, 39.949268], [-82.96185, 39.94574], [-82.9599, 39.94569], [-82.95964, 39.94864], [-82.9561, 39.94842], [-82.95617, 39.94625], [-82.95339, 39.94609], [-82.953777, 39.942947], [-82.95392, 39.94179], [-82.95401, 39.94104], [-82.96272, 39.9415], [-82.96336, 39.93457], [-82.96442, 39.934604], [-82.965438, 39.934636], [-82.971205, 39.93482], [-82.97593, 39.93497], [-82.9769, 39.935]]]}}, {"type": "Feature", "properties": {"area_id": 497, "city": "Columbus", "state": "OH", "city_survey": true, "cat": "Still Desirable", "grade": "B", "label": "B24", "res": true, "com": false, "ind": false, "holc_grade": "B"}, "geometry": {"type": "Polygon", "coordinates": [[[-83.04481, 39.94522], [-83.04437, 39.94355], [-83.05394, 39.941], [-83.05412, 39.94178], [-83.05579, 39.94691], [-83.05163, 39.94769], [-83.05186, 39.95341], [-83.05514, 39.95321], [-83.05521, 39.9558], [-83.05228, 39.95587], [-83.04963, 39.95462], [-83.0491, 39.94799], [-83.04574, 39.94874], [-83.04481, 39.94522]]]}}, {"type": "Feature", "properties": {"area_id": 492, "city": "Columbus", "state": "OH", "city_survey": true, "cat": "Still Desirable", "grade": "B", "label": "B25", "res": true, "com": false, "ind": false, "holc_grade": "B"}, "geometry": {"type": "Polygon", "coordinates": [[[-83.07944, 39.93918], [-83.07413, 39.93859], [-83.07332, 39.94194], [-83.07306, 39.94365], [-83.072676, 39.943726], [-83.07245, 39.94377], [-83.070844, 39.944062], [-83.06525, 39.94508], [-83.065245, 39.945062], [-83.0643, 39.94145], [-83.06413, 39.93996], [-83.067581, 39.940581], [-83.06763, 39.94059], [-83.06896, 39.9412], [-83.06951, 39.93882], [-83.07255, 39.93919], [-83.072743, 39.938494], [-83.0739, 39.93433], [-83.074105, 39.934364], [-83.0806, 39.93544], [-83.079984, 39.937426], [-83.07944, 39.93918]]]}}, {"type": "Feature", "properties": {"area_id": 494, "city": "Columbus", "state": "OH", "city_survey": true, "cat": "Still Desirable", "grade": "B", "label": "B26", "res": true, "com": false, "ind": false, "holc_grade": "B"}, "geometry": {"type": "Polygon", "coordinates": [[[-83.07314, 39.95257], [-83.07513, 39.95239], [-83.0749, 39.94962], [-83.077164, 39.949542], [-83.07722, 39.94954], [-83.077659, 39.954772], [-83.07766, 39.95478], [-83.07573, 39.95494], [-83.0715572910448, 39.95507076865672], [-83.071527, 39.955072], [-83.071518, 39.955072], [-83.069247, 39.955144], [-83.06364, 39.95532], [-83.06493, 39.95456], [-83.06471, 39.9513], [-83.06576, 39.95122], [-83.06525, 39.94508], [-83.070844, 39.944062], [-83.07245, 39.94377], [-83.07314, 39.95257]]]}}, {"type": "Feature", "properties": {"area_id": 498, "city": "Columbus", "state": "OH", "city_survey": true, "cat": "Still Desirable", "grade": "B", "label": "B27", "res": true, "com": false, "ind": false, "holc_grade": "B"}, "geometry": {"type": "Polygon", "coordinates": [[[-83.085012, 39.954421], [-83.08515, 39.9566], [-83.08292, 39.95773], [-83.07519, 39.96073], [-83.07531, 39.96153], [-83.06978, 39.96268], [-83.06928, 39.96275], [-83.06702, 39.96252], [-83.06673, 39.96253], [-83.0642, 39.96285], [-83.06379, 39.96031], [-83.062824, 39.95548], [-83.0628, 39.95536], [-83.06364, 39.95532], [-83.069247, 39.955144], [-83.071518, 39.955072], [-83.07573, 39.95494], [-83.07635, 39.95663], [-83.08022, 39.95642], [-83.079952, 39.954665], [-83.07995, 39.95465], [-83.08501, 39.95439], [-83.085012, 39.954421]]]}}, {"type": "Feature", "properties": {"area_id": 558, "city": "Columbus", "state": "OH", "city_survey": true, "cat": "Still Desirable", "grade": "B", "label": "B28", "res": true, "com": false, "ind": false, "holc_grade": "B"}, "geometry": {"type": "Polygon", "coordinates": [[[-83.04503, 39.98192], [-83.044906, 39.983176], [-83.04489, 39.98334], [-83.04016, 39.9831], [-83.03994, 39.98328], [-83.03664, 39.98326], [-83.03842, 39.98408], [-83.03673, 39.98427], [-83.03422, 39.98275], [-83.03305, 39.98194], [-83.03201, 39.98104], [-83.03187, 39.98075], [-83.03436, 39.9807], [-83.03488, 39.98055], [-83.0355, 39.98021], [-83.03638, 39.97951], [-83.03681, 39.97904], [-83.03769, 39.97913], [-83.03814, 39.97928], [-83.03859, 39.97964], [-83.04223, 39.97984], [-83.04239, 39.9768], [-83.045407, 39.976939], [-83.04543, 39.97694], [-83.04503, 39.98192]]]}}, {"type": "Feature", "properties": {"area_id": 560, "city": "Columbus", "state": "OH", "city_survey": true, "cat": "Still Desirable", "grade": "B", "label": "B29", "res": true, "com": false, "ind": false, "holc_grade": "B"}, "geometry": {"type": "Polygon", "coordinates": [[[-83.05611, 39.989], [-83.05637, 39.98237], [-83.04503, 39.98192], [-83.04543, 39.97694], [-83.04835, 39.97691], [-83.04892, 39.97665], [-83.05779, 39.97738], [-83.05867, 39.97751], [-83.05895, 39.97773], [-83.06067, 39.97988], [-83.06285, 39.98536], [-83.06435, 39.98927], [-83.06107, 39.98917], [-83.05611, 39.989]]]}}, {"type": "Feature", "properties": {"area_id": 575, "city": "Columbus", "state": "OH", "city_survey": true, "cat": "Still Desirable", "grade": "B", "label": "B3", "res": true, "com": false, "ind": false, "holc_grade": "B"}, "geometry": {"type": "Polygon", "coordinates": [[[-83.01924, 40.067122], [-83.02177, 40.067], [-83.02217, 40.06688], [-83.02244, 40.06684], [-83.02328, 40.06745], [-83.02321, 40.06861], [-83.02295, 40.07311], [-83.018954, 40.073014], [-83.01422, 40.0729], [-83.01426, 40.07046], [-83.01896, 40.07066], [-83.018994, 40.06957], [-83.01907, 40.06713], [-83.01924, 40.067122]]]}}, {"type": "Feature", "properties": {"area_id": 556, "city": "Columbus", "state": "OH", "city_survey": true, "cat": "Still Desirable", "grade": "B", "label": "B30", "res": true, "com": false, "ind": false, "holc_grade": "B"}, "geometry": {"type": "Polygon", "coordinates": [[[-83.038969, 39.984442], [-83.039339, 39.984687], [-83.04042, 39.9854], [-83.0409, 39.98629], [-83.04101, 39.98683], [-83.04097, 39.98851], [-83.054713, 39.988952], [-83.05558, 39.98898], [-83.055566, 39.989273], [-83.055423, 39.992342], [-83.05539, 39.99304], [-83.0489, 39.99282], [-83.04902, 39.99257], [-83.04905, 39.992112], [-83.04908, 39.99166], [-83.04907, 39.99077], [-83.040702, 39.990461], [-83.03771, 39.99035], [-83.038, 39.98503], [-83.037415, 39.98468], [-83.03673, 39.98427], [-83.03842, 39.98408], [-83.038969, 39.984442]]]}}, {"type": "Feature", "properties": {"area_id": 561, "city": "Columbus", "state": "OH", "city_survey": true, "cat": "Still Desirable", "grade": "B", "label": "B31", "res": true, "com": false, "ind": false, "holc_grade": "B"}, "geometry": {"type": "Polygon", "coordinates": [[[-83.05611, 39.989], [-83.06107, 39.98917], [-83.061107, 39.989482], [-83.06164, 39.99403], [-83.05869, 39.99501], [-83.05477, 39.9949], [-83.05539, 39.99304], [-83.055423, 39.992342], [-83.055566, 39.989273], [-83.05558, 39.98898], [-83.05611, 39.989]]]}}, {"type": "Feature", "properties": {"area_id": 563, "city": "Columbus", "state": "OH", "city_survey": true, "cat": "Still Desirable", "grade": "B", "label": "B32", "res": true, "com": false, "ind": false, "holc_grade": "B"}, "geometry": {"type": "Polygon", "coordinates": [[[-83.05702, 40.00535], [-83.057015, 40.005409], [-83.0569, 40.00684], [-83.05443, 40.00679], [-83.05419, 40.01274], [-83.04767, 40.01236], [-83.047955, 40.006908], [-83.04806, 40.0049], [-83.05702, 40.00535]]]}}, {"type": "Feature", "properties": {"area_id": 571, "city": "Columbus", "state": "OH", "city_survey": true, "cat": "Still Desirable", "grade": "B", "label": "B4", "res": true, "com": false, "ind": false, "holc_grade": "B"}, "geometry": {"type": "Polygon", "coordinates": [[[-82.99997, 40.05236], [-83.00516, 40.05278], [-83.00715, 40.05285], [-83.00778, 40.05274], [-83.01029, 40.05111], [-83.01366, 40.05125], [-83.01353, 40.05358], [-83.01425, 40.05421], [-83.02012, 40.05443], [-83.020072, 40.05498], [-83.01976, 40.05857], [-83.02009, 40.05859], [-83.01982, 40.0624], [-83.019772, 40.062548], [-83.01965, 40.06292], [-83.019472, 40.062915], [-83.01928, 40.06291], [-83.01358, 40.06275], [-83.013614, 40.062219], [-83.01385, 40.05859], [-83.01307, 40.05852], [-83.013327, 40.055079], [-83.01337, 40.0545], [-83.00012, 40.05384], [-82.99997, 40.05236]]]}}, {"type": "Feature", "properties": {"area_id": 569, "city": "Columbus", "state": "OH", "city_survey": true, "cat": "Still Desirable", "grade": "B", "label": "B5", "res": true, "com": false, "ind": false, "holc_grade": "B"}, "geometry": {"type": "Polygon", "coordinates": [[[-83.03348, 40.04802], [-83.0331, 40.04909], [-83.03256, 40.04979], [-83.03189, 40.050273], [-83.031829, 40.050316], [-83.031769, 40.05036], [-83.031629, 40.050461], [-83.031506, 40.050549], [-83.03138, 40.05064], [-83.03105, 40.05093], [-83.030054, 40.052794], [-83.030048, 40.052804], [-83.028839, 40.055066], [-83.02873, 40.05527], [-83.0276, 40.0568], [-83.02713, 40.05755], [-83.02683, 40.05887], [-83.02009, 40.05859], [-83.01976, 40.05857], [-83.020072, 40.05498], [-83.02012, 40.05443], [-83.02478, 40.05425], [-83.02493, 40.05355], [-83.02493, 40.05295], [-83.02475, 40.05236], [-83.02472, 40.05141], [-83.02475, 40.05013], [-83.0249, 40.04957], [-83.0254, 40.04909], [-83.0203, 40.04884], [-83.02033, 40.04821], [-83.01975, 40.04601], [-83.032365, 40.046375], [-83.03322, 40.0464], [-83.03343, 40.04709], [-83.03348, 40.04802]]]}}, {"type": "Feature", "properties": {"area_id": 568, "city": "Columbus", "state": "OH", "city_survey": true, "cat": "Still Desirable", "grade": "B", "label": "B6", "res": true, "com": false, "ind": false, "holc_grade": "B"}, "geometry": {"type": "Polygon", "coordinates": [[[-83.00389, 40.03744], [-83.00493, 40.03731], [-83.00576, 40.03739], [-83.00736, 40.03773], [-83.00883, 40.03782], [-83.00885, 40.03808], [-83.00862, 40.0385], [-83.00797, 40.03942], [-83.007776, 40.039722], [-83.00759, 40.04001], [-83.00764, 40.04033], [-83.00781, 40.04048], [-83.00809, 40.04048], [-83.00878, 40.04026], [-83.0094, 40.03988], [-83.009492, 40.039808], [-83.01045, 40.03906], [-83.0114, 40.03795], [-83.01472, 40.03815], [-83.015929, 40.040147], [-83.01696, 40.04185], [-83.018638, 40.041968], [-83.01867, 40.04197], [-83.01975, 40.04601], [-83.02033, 40.04821], [-83.0203, 40.04884], [-83.02026, 40.04943], [-83.02025, 40.04943], [-83.0199, 40.04942], [-83.00793, 40.04892], [-83.00638, 40.04758], [-83.00636, 40.0469], [-83.00593, 40.04665], [-83.00622, 40.04004], [-83.00046, 40.0397], [-83.000495, 40.039335], [-83.0007, 40.03719], [-83.00284, 40.03762], [-83.00389, 40.03744]]]}}, {"type": "Feature", "properties": {"area_id": 566, "city": "Columbus", "state": "OH", "city_survey": true, "cat": "Still Desirable", "grade": "B", "label": "B7", "res": true, "com": false, "ind": false, "holc_grade": "B"}, "geometry": {"type": "Polygon", "coordinates": [[[-83.00804, 40.0278], [-83.014929, 40.028065], [-83.0239, 40.02841], [-83.023907, 40.028651], [-83.02395, 40.03022], [-83.024453, 40.031758], [-83.024629, 40.032296], [-83.02464, 40.03233], [-83.02423, 40.03258], [-83.02423, 40.033693], [-83.02423, 40.03444], [-83.01663, 40.03417], [-83.016459, 40.033577], [-83.0157, 40.03094], [-83.015686, 40.03094], [-83.008, 40.03076], [-83.00794, 40.03011], [-83.00804, 40.0278]]]}}, {"type": "Feature", "properties": {"area_id": 564, "city": "Columbus", "state": "OH", "city_survey": true, "cat": "Still Desirable", "grade": "B", "label": "B8", "res": true, "com": false, "ind": false, "holc_grade": "B"}, "geometry": {"type": "Polygon", "coordinates": [[[-83.01071, 40.0196], [-83.01375, 40.01924], [-83.01456, 40.02299], [-83.01929, 40.0231], [-83.01991, 40.02465], [-83.019786, 40.025184], [-83.01948, 40.0265], [-83.01449, 40.02638], [-83.01447, 40.02638], [-83.01457, 40.02701], [-83.00808, 40.02683], [-83.00804, 40.0278], [-83.00794, 40.03011], [-83.00116, 40.03], [-83.00116, 40.03064], [-82.99838, 40.03058], [-82.99897, 40.02902], [-82.998596, 40.024273], [-82.99825, 40.01989], [-82.99919, 40.01973], [-82.99959, 40.01979], [-82.99993, 40.01995], [-83.001901, 40.020035], [-83.00504, 40.02017], [-83.00739, 40.019934], [-83.01071, 40.0196]]]}}, {"type": "Feature", "properties": {"area_id": 542, "city": "Columbus", "state": "OH", "city_survey": true, "cat": "Still Desirable", "grade": "B", "label": "B9", "res": true, "com": false, "ind": false, "holc_grade": "B"}, "geometry": {"type": "Polygon", "coordinates": [[[-82.99828, 40.01511], [-83.00458, 40.01542], [-83.00446, 40.01646], [-83.00548, 40.01651], [-83.00538, 40.01886], [-83.00503, 40.01917], [-83.00477, 40.01926], [-83.00433, 40.01924], [-83.00386, 40.0191], [-83.00344, 40.01898], [-83.001975, 40.018808], [-83.00131, 40.01873], [-83.00021, 40.01889], [-83.00002, 40.01904], [-82.99962, 40.0193], [-82.99922, 40.01937], [-82.99893, 40.01923], [-82.99891, 40.01901], [-82.99813, 40.01882], [-82.998136, 40.018634], [-82.99825, 40.0151], [-82.99828, 40.01511]]]}}, {"type": "Feature", "properties": {"area_id": 580, "city": "Columbus", "state": "OH", "city_survey": true, "cat": "Definitely Declining", "grade": "C", "label": "C1", "res": true, "com": false, "ind": false, "holc_grade": "C"}, "geometry": {"type": "Polygon", "coordinates": [[[-83.00916, 40.08927], [-83.00928, 40.08941], [-83.00926, 40.0899], [-83.01696, 40.09027], [-83.016817, 40.092894], [-83.01677, 40.09376], [-83.01767, 40.09381], [-83.01753, 40.0973], [-83.01441, 40.09961], [-83.01109, 40.1007], [-83.0094, 40.10156], [-83.00331, 40.10141], [-83.00365, 40.09972], [-83.004096, 40.093428], [-83.00441, 40.08899], [-83.00916, 40.08927]]]}}, {"type": "Feature", "properties": {"area_id": 540, "city": "Columbus", "state": "OH", "city_survey": true, "cat": "Definitely Declining", "grade": "C", "label": "C10", "res": true, "com": false, "ind": false, "holc_grade": "C"}, "geometry": {"type": "Polygon", "coordinates": [[[-83.00553, 40.00359], [-83.00869, 40.00366], [-83.008799, 40.003753], [-83.00902, 40.00394], [-83.00914, 40.00443], [-83.01444, 40.00463], [-83.01465, 40.00395], [-83.017463, 40.003989], [-83.02254, 40.00406], [-83.0221, 40.00564], [-83.02153, 40.00627], [-83.02152, 40.00659], [-83.02142, 40.00715], [-83.02122, 40.00748], [-83.02103, 40.00772], [-83.02072, 40.00787], [-83.02005, 40.00816], [-83.01915, 40.00854], [-83.019005, 40.008626], [-83.01832, 40.00903], [-83.01792, 40.00946], [-83.01749, 40.01011], [-83.01014, 40.00976], [-83.00976, 40.008], [-83.009628, 40.007994], [-83.00588, 40.00781], [-83.00526, 40.00727], [-83.00529, 40.00649], [-83.00731, 40.00656], [-83.007347, 40.00599], [-83.00738, 40.00547], [-83.00538, 40.00539], [-83.00553, 40.00359]]]}}, {"type": "Feature", "properties": {"area_id": 545, "city": "Columbus", "state": "OH", "city_survey": true, "cat": "Definitely Declining", "grade": "C", "label": "C11", "res": true, "com": false, "ind": false, "holc_grade": "C"}, "geometry": {"type": "Polygon", "coordinates": [[[-82.99491, 40.00101], [-82.994902, 40.001143], [-82.99474, 40.00387], [-82.99398, 40.00384], [-82.99367, 40.01039], [-82.99097, 40.01022], [-82.98758, 40.01005], [-82.98818, 40.00152], [-82.98839, 40.00132], [-82.988807, 40.000903], [-82.98904, 40.00067], [-82.99491, 40.00101]]]}}, {"type": "Feature", "properties": {"area_id": 546, "city": "Columbus", "state": "OH", "city_survey": true, "cat": "Definitely Declining", "grade": "C", "label": "C12", "res": true, "com": false, "ind": false, "holc_grade": "C"}, "geometry": {"type": "Polygon", "coordinates": [[[-82.98171, 39.993689], [-82.98764, 39.99397], [-82.9876, 39.99455], [-82.98722, 40.00067], [-82.98904, 40.00067], [-82.988807, 40.000903], [-82.98839, 40.00132], [-82.98552, 40.00137], [-82.98537, 40.00497], [-82.98016, 40.00497], [-82.98025, 40.0096], [-82.98165, 40.00974], [-82.981299, 40.01427], [-82.98129, 40.01439], [-82.97856, 40.01424], [-82.97237, 40.01391], [-82.972797, 40.008955], [-82.97281, 40.0088], [-82.97494, 40.00894], [-82.9752, 40.00464], [-82.9772, 40.00479], [-82.97709, 40.00396], [-82.97827, 40.00406], [-82.97851, 40.00249], [-82.97979, 40.00252], [-82.979903, 40.000527], [-82.98, 39.99882], [-82.97674, 39.99873], [-82.975745, 40.000342], [-82.97574, 40.00035], [-82.973815, 40.000238], [-82.97247, 40.00016], [-82.972469, 40.000172], [-82.9723, 40.00198], [-82.96982, 40.00186], [-82.96906, 40.0077], [-82.968244, 40.009482], [-82.96633, 40.01366], [-82.96046, 40.01341], [-82.960473, 40.013381], [-82.96122, 40.01177], [-82.96287, 40.00632], [-82.96694, 40.00647], [-82.968982, 40.000004], [-82.96959, 39.99808], [-82.970165, 39.99763], [-82.97504, 39.99382], [-82.9792, 39.99395], [-82.9792, 39.99357], [-82.98171, 39.993689]]]}}, {"type": "Feature", "properties": {"area_id": 551, "city": "Columbus", "state": "OH", "city_survey": true, "cat": "Definitely Declining", "grade": "C", "label": "C13", "res": true, "com": false, "ind": false, "holc_grade": "C"}, "geometry": {"type": "Polygon", "coordinates": [[[-82.95811, 39.99608], [-82.96587, 39.99637], [-82.96576, 39.99899], [-82.965422, 39.999826], [-82.9654, 39.99988], [-82.95813, 39.99944], [-82.95796, 39.99943], [-82.95811, 39.99608]]]}}, {"type": "Feature", "properties": {"area_id": 531, "city": "Columbus", "state": "OH", "city_survey": true, "cat": "Definitely Declining", "grade": "C", "label": "C14", "res": true, "com": false, "ind": false, "holc_grade": "C"}, "geometry": {"type": "Polygon", "coordinates": [[[-82.940285, 39.981448], [-82.94029, 39.98141], [-82.94054, 39.981417], [-82.95239, 39.98176], [-82.952429, 39.981805], [-82.95385, 39.98345], [-82.953769, 39.984152], [-82.95337, 39.98759], [-82.95107, 39.98856], [-82.95075, 39.99305], [-82.94852, 39.99295], [-82.9488, 39.98991], [-82.94761, 39.9878], [-82.94766, 39.9866], [-82.9379, 39.98602], [-82.93796, 39.98583], [-82.93811, 39.98552], [-82.93851, 39.98496], [-82.93875, 39.98463], [-82.938971, 39.983893], [-82.93899, 39.98383], [-82.939228, 39.983283], [-82.93926, 39.98321], [-82.93972, 39.98292], [-82.94017, 39.98237], [-82.940258, 39.981665], [-82.940285, 39.981448]], [[-82.9435, 39.98253], [-82.94233, 39.98505], [-82.94693, 39.98533], [-82.94828, 39.98364], [-82.94834, 39.98261], [-82.9435, 39.98253]]]}}, {"type": "Feature", "properties": {"area_id": 528, "city": "Columbus", "state": "OH", "city_survey": true, "cat": "Definitely Declining", "grade": "C", "label": "C15", "res": true, "com": false, "ind": false, "holc_grade": "C"}, "geometry": {"type": "Polygon", "coordinates": [[[-82.94029, 39.98141], [-82.940285, 39.981448], [-82.940258, 39.981665], [-82.94017, 39.98237], [-82.93972, 39.98292], [-82.93926, 39.98321], [-82.939228, 39.983283], [-82.93899, 39.98383], [-82.938971, 39.983893], [-82.93875, 39.98463], [-82.93851, 39.98496], [-82.93811, 39.98552], [-82.93796, 39.98583], [-82.9379, 39.98602], [-82.93732, 39.98767], [-82.937185, 39.987663], [-82.93145, 39.98736], [-82.93093, 39.98986], [-82.93064, 39.99328], [-82.91662, 39.99281], [-82.91679, 39.99053], [-82.9195, 39.99057], [-82.91954, 39.98915], [-82.91978, 39.98907], [-82.91978, 39.98744], [-82.914056, 39.987257], [-82.91008, 39.98713], [-82.910107, 39.986154], [-82.91013, 39.98532], [-82.92224, 39.98571], [-82.92232, 39.98561], [-82.93142, 39.98601], [-82.93194, 39.9834], [-82.93218, 39.98219], [-82.94006, 39.98146], [-82.940201, 39.981429], [-82.94029, 39.98141]]]}}, {"type": "Feature", "properties": {"area_id": 527, "city": "Columbus", "state": "OH", "city_survey": true, "cat": "Definitely Declining", "grade": "C", "label": "C16", "res": true, "com": false, "ind": false, "holc_grade": "C"}, "geometry": {"type": "Polygon", "coordinates": [[[-82.940056, 39.981398], [-82.94006, 39.98146], [-82.93218, 39.98219], [-82.92622, 39.98274], [-82.926253, 39.982437], [-82.926524, 39.979982], [-82.92656, 39.97966], [-82.93213, 39.97984], [-82.932167, 39.979809], [-82.93225, 39.97974], [-82.93998, 39.98015], [-82.940056, 39.981398]]]}}, {"type": "Feature", "properties": {"area_id": 516, "city": "Columbus", "state": "OH", "city_survey": true, "cat": "Definitely Declining", "grade": "C", "label": "C17", "res": true, "com": false, "ind": false, "holc_grade": "C"}, "geometry": {"type": "Polygon", "coordinates": [[[-82.95233, 39.96754], [-82.952359, 39.967741], [-82.95254, 39.969], [-82.9538, 39.97051], [-82.95712, 39.97067], [-82.95692, 39.97413], [-82.956627, 39.977818], [-82.95646, 39.97992], [-82.95276, 39.980182], [-82.9518, 39.98025], [-82.95311, 39.97836], [-82.94805, 39.97801], [-82.94819, 39.97719], [-82.94871, 39.9765], [-82.94866, 39.97623], [-82.94854, 39.97584], [-82.94945, 39.97535], [-82.94964, 39.97481], [-82.95009, 39.97413], [-82.95052, 39.97382], [-82.95095, 39.9738], [-82.95149, 39.97375], [-82.95161, 39.97351], [-82.95149, 39.97317], [-82.95149, 39.97288], [-82.95163, 39.97273], [-82.95156, 39.97242], [-82.95137, 39.97227], [-82.95159, 39.97215], [-82.95178, 39.9718], [-82.95211, 39.97147], [-82.95216, 39.97098], [-82.94957, 39.97085], [-82.94888, 39.97162], [-82.94828, 39.9716], [-82.94795, 39.97144], [-82.948, 39.97124], [-82.94909, 39.97045], [-82.94933, 39.96972], [-82.94947, 39.96947], [-82.94988, 39.96918], [-82.94997, 39.96883], [-82.95004, 39.96832], [-82.95033, 39.96801], [-82.950381, 39.967954], [-82.95056, 39.96776], [-82.95233, 39.96754]]]}}, {"type": "Feature", "properties": {"area_id": 515, "city": "Columbus", "state": "OH", "city_survey": true, "cat": "Definitely Declining", "grade": "C", "label": "C18", "res": true, "com": false, "ind": false, "holc_grade": "C"}, "geometry": {"type": "Polygon", "coordinates": [[[-82.9772, 39.96773], [-82.969982, 39.96854], [-82.96579, 39.96901], [-82.961578, 39.968892], [-82.96152, 39.96889], [-82.96102, 39.97426], [-82.95692, 39.97413], [-82.95712, 39.97067], [-82.96029, 39.97082], [-82.96069, 39.96756], [-82.961714, 39.967435], [-82.96611, 39.9669], [-82.96623, 39.96676], [-82.970151, 39.966332], [-82.97731, 39.96555], [-82.9772, 39.96773]]]}}, {"type": "Feature", "properties": {"area_id": 513, "city": "Columbus", "state": "OH", "city_survey": true, "cat": "Definitely Declining", "grade": "C", "label": "C19", "res": true, "com": false, "ind": false, "holc_grade": "C"}, "geometry": {"type": "Polygon", "coordinates": [[[-82.98205, 39.95826], [-82.98207, 39.95948], [-82.98606, 39.95893], [-82.99026, 39.95858], [-82.991076, 39.963314], [-82.99146, 39.96554], [-82.99155, 39.96609], [-82.981067, 39.967288], [-82.9772, 39.96773], [-82.97731, 39.96555], [-82.977348, 39.964896], [-82.97738, 39.96433], [-82.966065, 39.965441], [-82.96597, 39.96545], [-82.96605, 39.96495], [-82.966212, 39.963343], [-82.966507, 39.960407], [-82.96677, 39.95779], [-82.96817, 39.95782], [-82.968895, 39.949621], [-82.96893, 39.94922], [-82.97286, 39.949325], [-82.97529, 39.94939], [-82.97581, 39.94945], [-82.978, 39.9504], [-82.97876, 39.95046], [-82.97842, 39.95072], [-82.978149, 39.950925], [-82.97739, 39.9515], [-82.97696, 39.95802], [-82.982018, 39.958169], [-82.98204, 39.95817], [-82.98205, 39.95826]], [[-82.98205, 39.95826], [-82.982011, 39.958259], [-82.97946, 39.95821], [-82.979399, 39.959951], [-82.97938, 39.96051], [-82.981846, 39.960538], [-82.982, 39.96054], [-82.98205, 39.95826]], [[-82.98659, 39.96045], [-82.98696, 39.96238], [-82.99063, 39.96198], [-82.99033, 39.96004], [-82.98659, 39.96045]]]}}, {"type": "Feature", "properties": {"area_id": 577, "city": "Columbus", "state": "OH", "city_survey": true, "cat": "Definitely Declining", "grade": "C", "label": "C2", "res": true, "com": false, "ind": false, "holc_grade": "C"}, "geometry": {"type": "Polygon", "coordinates": [[[-83.02404, 40.074449], [-83.02404, 40.07737], [-83.01941, 40.07721], [-83.01527, 40.07706], [-83.01457, 40.07738], [-83.01187, 40.07738], [-83.01185, 40.0768], [-83.0013, 40.07644], [-83.001296, 40.076385], [-83.00109, 40.07338], [-83.018888, 40.074117], [-83.02404, 40.07433], [-83.02404, 40.074449]]]}}, {"type": "Feature", "properties": {"area_id": 512, "city": "Columbus", "state": "OH", "city_survey": true, "cat": "Definitely Declining", "grade": "C", "label": "C20", "res": true, "com": false, "ind": false, "holc_grade": "C"}, "geometry": {"type": "Polygon", "coordinates": [[[-82.96185, 39.94574], [-82.961527, 39.949268], [-82.96128, 39.95197], [-82.9652, 39.95205], [-82.96534, 39.95221], [-82.965232, 39.953708], [-82.9649400176284, 39.95774975597955], [-82.964381, 39.95774], [-82.964954, 39.95775], [-82.96531, 39.957758], [-82.96546, 39.957761], [-82.966662, 39.957788], [-82.96677, 39.95779], [-82.966507, 39.960407], [-82.966212, 39.963343], [-82.96605, 39.96495], [-82.96513, 39.96504], [-82.96103, 39.96475], [-82.96127, 39.96306], [-82.95464, 39.96269], [-82.95481, 39.96169], [-82.95834, 39.96179], [-82.9585, 39.95959], [-82.95078, 39.95932], [-82.95073, 39.957463], [-82.95073, 39.95745], [-82.95616, 39.95747], [-82.95652, 39.9539], [-82.95844, 39.95398], [-82.958463, 39.953556], [-82.95867, 39.94975], [-82.959191, 39.949154], [-82.95964, 39.94864], [-82.9599, 39.94569], [-82.96185, 39.94574]]]}}, {"type": "Feature", "properties": {"area_id": 510, "city": "Columbus", "state": "OH", "city_survey": true, "cat": "Definitely Declining", "grade": "C", "label": "C21", "res": true, "com": false, "ind": false, "holc_grade": "C"}, "geometry": {"type": "MultiPolygon", "coordinates": [[[[-82.95339, 39.94609], [-82.95617, 39.94625], [-82.9561, 39.94842], [-82.95964, 39.94864], [-82.959191, 39.949154], [-82.95867, 39.94975], [-82.95365, 39.94948], [-82.95353, 39.95051], [-82.95133, 39.95032], [-82.951083, 39.953255], [-82.95073, 39.95745], [-82.94764, 39.95738], [-82.947893, 39.952991], [-82.948147, 39.948596], [-82.94815, 39.94855], [-82.94833, 39.94839], [-82.9491, 39.94153], [-82.949265, 39.941539], [-82.95392, 39.94179], [-82.953777, 39.942947], [-82.95339, 39.94609]]], [[[-82.94764, 39.95738], [-82.947645, 39.957404], [-82.94787, 39.95843], [-82.94789, 39.95901], [-82.94784, 39.96022], [-82.94858, 39.96297], [-82.946793, 39.962832], [-82.94664, 39.96282], [-82.94613, 39.961926], [-82.94591, 39.96154], [-82.94538, 39.96098], [-82.94471, 39.9606], [-82.94469, 39.95978], [-82.94439, 39.95878], [-82.94419, 39.9583], [-82.94377, 39.95789], [-82.943664, 39.957331], [-82.94366, 39.95731], [-82.94764, 39.95738]]]]}}, {"type": "Feature", "properties": {"area_id": 505, "city": "Columbus", "state": "OH", "city_survey": true, "cat": "Definitely Declining", "grade": "C", "label": "C22", "res": true, "com": false, "ind": false, "holc_grade": "C"}, "geometry": {"type": "Polygon", "coordinates": [[[-82.98298, 39.94417], [-82.99033, 39.94457], [-82.99692, 39.94384], [-82.99989, 39.94411], [-83.001239, 39.948709], [-83.00163, 39.95004], [-82.99452, 39.95094], [-82.9878, 39.95061], [-82.98585, 39.9505], [-82.98585, 39.95019], [-82.98254, 39.95001], [-82.982497, 39.950323], [-82.98245, 39.95066], [-82.97876, 39.95046], [-82.978, 39.9504], [-82.97581, 39.94945], [-82.97529, 39.94939], [-82.975549, 39.943781], [-82.97555, 39.94376], [-82.982964, 39.944169], [-82.98298, 39.94417]]]}}, {"type": "Feature", "properties": {"area_id": 506, "city": "Columbus", "state": "OH", "city_survey": true, "cat": "Definitely Declining", "grade": "C", "label": "C23", "res": true, "com": false, "ind": false, "holc_grade": "C"}, "geometry": {"type": "Polygon", "coordinates": [[[-82.9934, 39.92486], [-82.99555, 39.92502], [-82.99623, 39.92507], [-82.99711, 39.92878], [-82.997168, 39.929541], [-82.99742, 39.93287], [-82.998128, 39.932935], [-82.99818, 39.93294], [-82.998178, 39.933152], [-82.99816, 39.935308], [-82.99813, 39.93897], [-82.998273, 39.939389], [-82.99989, 39.94411], [-82.99692, 39.94384], [-82.99033, 39.94457], [-82.98298, 39.94417], [-82.983235, 39.941518], [-82.98389, 39.934695], [-82.98401, 39.93345], [-82.98401, 39.93113], [-82.98401, 39.93077], [-82.98584, 39.93088], [-82.98597, 39.929075], [-82.9862, 39.92587], [-82.99328, 39.92618], [-82.9934, 39.92486]], [[-82.9907, 39.94083], [-82.99057, 39.94348], [-82.99448, 39.94302], [-82.99498, 39.943], [-82.99499, 39.94248], [-82.994646, 39.940974], [-82.99464, 39.94095], [-82.993636, 39.940919], [-82.9907, 39.94083]]]}}, {"type": "Feature", "properties": {"area_id": 508, "city": "Columbus", "state": "OH", "city_survey": true, "cat": "Definitely Declining", "grade": "C", "label": "C24", "res": true, "com": false, "ind": false, "holc_grade": "C"}, "geometry": {"type": "Polygon", "coordinates": [[[-82.981284, 39.927414], [-82.98117, 39.93092], [-82.983954, 39.931126], [-82.98401, 39.93113], [-82.98401, 39.93345], [-82.98389, 39.934695], [-82.983235, 39.941518], [-82.98298, 39.94417], [-82.982964, 39.944169], [-82.97555, 39.94376], [-82.97563, 39.94301], [-82.97634, 39.94305], [-82.97644, 39.94119], [-82.976916, 39.935999], [-82.977, 39.93508], [-82.9769, 39.935], [-82.97593, 39.93497], [-82.976415, 39.927181], [-82.97647, 39.9263], [-82.98131, 39.92661], [-82.981284, 39.927414]], [[-82.97799, 39.93094], [-82.98102, 39.931], [-82.98093, 39.92765], [-82.97939, 39.92756], [-82.97918, 39.92917], [-82.97808, 39.92912], [-82.97799, 39.93094]], [[-82.97807, 39.94109], [-82.98051, 39.94117], [-82.98057, 39.93915], [-82.97812, 39.93908], [-82.97807, 39.94109]]]}}, {"type": "Feature", "properties": {"area_id": 501, "city": "Columbus", "state": "OH", "city_survey": true, "cat": "Definitely Declining", "grade": "C", "label": "C25", "res": true, "com": false, "ind": false, "holc_grade": "C"}, "geometry": {"type": "Polygon", "coordinates": [[[-83.04088, 39.94602], [-83.04481, 39.94522], [-83.04574, 39.94874], [-83.04303, 39.9492], [-83.040782, 39.952278], [-83.04054, 39.95261], [-83.03746, 39.95296], [-83.03833, 39.95739], [-83.04231, 39.95692], [-83.042376, 39.957161], [-83.04267, 39.95823], [-83.03822, 39.9587], [-83.03762, 39.95864], [-83.03741, 39.95781], [-83.02581, 39.95918], [-83.025804, 39.959147], [-83.02515, 39.95567], [-83.02591, 39.9524], [-83.02854, 39.95201], [-83.02885, 39.95406], [-83.03204, 39.95377], [-83.03151, 39.95144], [-83.03274, 39.95119], [-83.03326, 39.95348], [-83.03419, 39.95347], [-83.03379, 39.95096], [-83.039097, 39.950007], [-83.04164, 39.94955], [-83.04088, 39.94602]]]}}, {"type": "Feature", "properties": {"area_id": 496, "city": "Columbus", "state": "OH", "city_survey": true, "cat": "Definitely Declining", "grade": "C", "label": "C26", "res": true, "com": false, "ind": false, "holc_grade": "C"}, "geometry": {"type": "Polygon", "coordinates": [[[-83.05761, 39.95166], [-83.06174, 39.95153], [-83.06181, 39.95199], [-83.06286, 39.95195], [-83.06293, 39.95088], [-83.06409, 39.9509], [-83.06369, 39.94538], [-83.06525, 39.94508], [-83.06576, 39.95122], [-83.06471, 39.9513], [-83.06493, 39.95456], [-83.06364, 39.95532], [-83.0628, 39.95536], [-83.062824, 39.95548], [-83.06379, 39.96031], [-83.0642, 39.96285], [-83.06325, 39.96329], [-83.06261, 39.96359], [-83.0623, 39.96341], [-83.060795, 39.955577], [-83.06078, 39.9555], [-83.056761, 39.955716], [-83.05521, 39.9558], [-83.05514, 39.95321], [-83.05186, 39.95341], [-83.05163, 39.94769], [-83.05579, 39.94691], [-83.056089, 39.946853], [-83.05731, 39.94662], [-83.05761, 39.95166]]]}}, {"type": "Feature", "properties": {"area_id": 493, "city": "Columbus", "state": "OH", "city_survey": true, "cat": "Definitely Declining", "grade": "C", "label": "C27", "res": true, "com": false, "ind": false, "holc_grade": "C"}, "geometry": {"type": "Polygon", "coordinates": [[[-83.06469, 39.93618], [-83.07212, 39.93745], [-83.07296, 39.93408], [-83.0739, 39.93433], [-83.072743, 39.938494], [-83.07255, 39.93919], [-83.06951, 39.93882], [-83.06896, 39.9412], [-83.06763, 39.94059], [-83.067581, 39.940581], [-83.06413, 39.93996], [-83.0643, 39.94145], [-83.065245, 39.945062], [-83.06525, 39.94508], [-83.06369, 39.94538], [-83.05731, 39.94662], [-83.056089, 39.946853], [-83.05579, 39.94691], [-83.05412, 39.94178], [-83.054928, 39.941507], [-83.05678, 39.94088], [-83.05697, 39.94098], [-83.06124, 39.94029], [-83.061603, 39.93855], [-83.06221, 39.93564], [-83.06455, 39.93601], [-83.06469, 39.93618]]]}}, {"type": "Feature", "properties": {"area_id": 491, "city": "Columbus", "state": "OH", "city_survey": true, "cat": "Definitely Declining", "grade": "C", "label": "C28", "res": true, "com": false, "ind": false, "holc_grade": "C"}, "geometry": {"type": "Polygon", "coordinates": [[[-83.073617, 39.943681], [-83.0743, 39.94372], [-83.07443, 39.94468], [-83.0768, 39.94463], [-83.076866, 39.945399], [-83.07722, 39.94954], [-83.077164, 39.949542], [-83.0749, 39.94962], [-83.07513, 39.95239], [-83.07314, 39.95257], [-83.07245, 39.94377], [-83.072676, 39.943726], [-83.07306, 39.94365], [-83.073617, 39.943681]]]}}, {"type": "Feature", "properties": {"area_id": 499, "city": "Columbus", "state": "OH", "city_survey": true, "cat": "Definitely Declining", "grade": "C", "label": "C29", "res": true, "com": false, "ind": false, "holc_grade": "C"}, "geometry": {"type": "Polygon", "coordinates": [[[-83.087222, 39.94226], [-83.09118, 39.94206], [-83.091243, 39.942814], [-83.09203, 39.95219], [-83.09448, 39.952148], [-83.09616, 39.95212], [-83.10017, 39.94957], [-83.10034, 39.94972], [-83.10072, 39.95377], [-83.09761, 39.95381], [-83.0974, 39.95664], [-83.09569, 39.95654], [-83.09406, 39.95664], [-83.09447, 39.95568], [-83.0943, 39.95558], [-83.0917, 39.95576], [-83.08885, 39.95683], [-83.08919, 39.95928], [-83.08658, 39.95953], [-83.08558, 39.95934], [-83.08183, 39.95934], [-83.081423, 39.95938], [-83.08101, 39.95942], [-83.07894, 39.96039], [-83.0777, 39.9606], [-83.0771, 39.96076], [-83.07606, 39.96121], [-83.07531, 39.96153], [-83.07519, 39.96073], [-83.08292, 39.95773], [-83.08515, 39.9566], [-83.085012, 39.954421], [-83.08501, 39.95439], [-83.08854, 39.95422], [-83.08836, 39.95176], [-83.08966, 39.95173], [-83.08931, 39.94638], [-83.08928, 39.94444], [-83.08925, 39.94351], [-83.07995, 39.9439], [-83.079914, 39.943377], [-83.07974, 39.94082], [-83.079969, 39.940807], [-83.08169, 39.94071], [-83.08188, 39.94253], [-83.087222, 39.94226]]]}}, {"type": "Feature", "properties": {"area_id": 576, "city": "Columbus", "state": "OH", "city_survey": true, "cat": "Definitely Declining", "grade": "C", "label": "C3", "res": true, "com": false, "ind": false, "holc_grade": "C"}, "geometry": {"type": "Polygon", "coordinates": [[[-83.02295, 40.07311], [-83.02321, 40.06861], [-83.03207, 40.06883], [-83.03238, 40.06953], [-83.033537, 40.070732], [-83.03392, 40.07113], [-83.03498, 40.07245], [-83.03528, 40.07303], [-83.03519, 40.0734], [-83.03504, 40.07353], [-83.03475, 40.0736], [-83.034611, 40.073531], [-83.03447, 40.07346], [-83.02295, 40.07311]]]}}, {"type": "Feature", "properties": {"area_id": 500, "city": "Columbus", "state": "OH", "city_survey": true, "cat": "Definitely Declining", "grade": "C", "label": "C30", "res": true, "com": false, "ind": false, "holc_grade": "C"}, "geometry": {"type": "Polygon", "coordinates": [[[-83.0642, 39.96285], [-83.06673, 39.96253], [-83.06702, 39.96252], [-83.06928, 39.96275], [-83.06978, 39.96268], [-83.07531, 39.96153], [-83.07606, 39.96121], [-83.076123, 39.961411], [-83.07644, 39.96243], [-83.07766, 39.96257], [-83.0787, 39.96612], [-83.077424, 39.966185], [-83.07164, 39.96648], [-83.06881, 39.96649], [-83.06679, 39.96621], [-83.06358, 39.96535], [-83.063368, 39.964025], [-83.06325, 39.96329], [-83.0642, 39.96285]]]}}, {"type": "Feature", "properties": {"area_id": 559, "city": "Columbus", "state": "OH", "city_survey": true, "cat": "Definitely Declining", "grade": "C", "label": "C31", "res": true, "com": false, "ind": false, "holc_grade": "C"}, "geometry": {"type": "Polygon", "coordinates": [[[-83.03044, 39.97973], [-83.02963, 39.97911], [-83.02896, 39.97809], [-83.02851, 39.97716], [-83.02837, 39.97578], [-83.02839, 39.97487], [-83.02861, 39.97439], [-83.03807, 39.9748], [-83.03785, 39.97826], [-83.03681, 39.97904], [-83.03638, 39.97951], [-83.0355, 39.98021], [-83.03488, 39.98055], [-83.03436, 39.9807], [-83.03187, 39.98075], [-83.03172, 39.98042], [-83.03113, 39.98021], [-83.03044, 39.97973]]]}}, {"type": "Feature", "properties": {"area_id": 557, "city": "Columbus", "state": "OH", "city_survey": true, "cat": "Definitely Declining", "grade": "C", "label": "C32", "res": true, "com": false, "ind": false, "holc_grade": "C"}, "geometry": {"type": "Polygon", "coordinates": [[[-83.03994, 39.98328], [-83.04016, 39.9831], [-83.04489, 39.98334], [-83.044906, 39.983176], [-83.04503, 39.98192], [-83.05637, 39.98237], [-83.05611, 39.989], [-83.05558, 39.98898], [-83.054713, 39.988952], [-83.04097, 39.98851], [-83.04101, 39.98683], [-83.0409, 39.98629], [-83.04042, 39.9854], [-83.039339, 39.984687], [-83.038969, 39.984442], [-83.03842, 39.98408], [-83.03664, 39.98326], [-83.03994, 39.98328]]]}}, {"type": "Feature", "properties": {"area_id": 555, "city": "Columbus", "state": "OH", "city_survey": true, "cat": "Definitely Declining", "grade": "C", "label": "C33", "res": true, "com": false, "ind": false, "holc_grade": "C"}, "geometry": {"type": "Polygon", "coordinates": [[[-83.03041, 39.98272], [-83.03048, 39.98097], [-83.03113, 39.98021], [-83.03172, 39.98042], [-83.03187, 39.98075], [-83.03201, 39.98104], [-83.03305, 39.98194], [-83.03422, 39.98275], [-83.03673, 39.98427], [-83.037415, 39.98468], [-83.038, 39.98503], [-83.03771, 39.99035], [-83.040702, 39.990461], [-83.04907, 39.99077], [-83.04908, 39.99166], [-83.040626, 39.991395], [-83.03535, 39.99123], [-83.03533, 39.99042], [-83.03151, 39.99027], [-83.03167, 39.98822], [-83.02913, 39.98804], [-83.029427, 39.984268], [-83.02944, 39.9841], [-83.03041, 39.98272]]]}}, {"type": "Feature", "properties": {"area_id": 536, "city": "Columbus", "state": "OH", "city_survey": true, "cat": "Definitely Declining", "grade": "C", "label": "C34", "res": true, "com": false, "ind": false, "holc_grade": "C"}, "geometry": {"type": "Polygon", "coordinates": [[[-83.01324, 39.97754], [-83.01295, 39.98122], [-83.01805, 39.9815], [-83.01799, 39.98392], [-83.019042, 39.984042], [-83.01911, 39.98405], [-83.01901, 39.98584], [-83.02086, 39.98587], [-83.02165, 39.98769], [-83.0131, 39.98736], [-83.012756, 39.985561], [-83.011207, 39.977458], [-83.0112, 39.97742], [-83.01324, 39.97754]]]}}, {"type": "Feature", "properties": {"area_id": 535, "city": "Columbus", "state": "OH", "city_survey": true, "cat": "Definitely Declining", "grade": "C", "label": "C35", "res": true, "com": false, "ind": false, "holc_grade": "C"}, "geometry": {"type": "Polygon", "coordinates": [[[-83.011207, 39.977458], [-83.012756, 39.985561], [-83.0131, 39.98736], [-83.02165, 39.98769], [-83.021342, 39.990713], [-83.02128, 39.99132], [-83.01946, 39.99126], [-83.01938, 39.99157], [-83.018579, 39.99153], [-83.01636, 39.99142], [-83.01636, 39.992245], [-83.01636, 39.99294], [-83.016272, 39.992936], [-83.01412, 39.99285], [-83.01436, 39.99391], [-83.0087, 39.99362], [-83.008142, 39.99531], [-83.00797, 39.99583], [-83.007301, 39.996174], [-83.00729, 39.99618], [-83.007202, 39.995744], [-83.00522, 39.98596], [-83.005206, 39.985882], [-83.004298, 39.980937], [-83.004282, 39.980851], [-83.004233, 39.98058], [-83.00362, 39.97724], [-83.00522, 39.97726], [-83.00901, 39.97739], [-83.009094, 39.976574], [-83.00937, 39.9739], [-83.0105, 39.97395], [-83.0112, 39.97742], [-83.011207, 39.977458]]]}}, {"type": "Feature", "properties": {"area_id": 537, "city": "Columbus", "state": "OH", "city_survey": true, "cat": "Definitely Declining", "grade": "C", "label": "C36", "res": true, "com": false, "ind": false, "holc_grade": "C"}, "geometry": {"type": "Polygon", "coordinates": [[[-83.004233, 39.98058], [-83.004282, 39.980851], [-83.004298, 39.980937], [-83.005206, 39.985882], [-83.00522, 39.98596], [-83.007202, 39.995744], [-83.00729, 39.99618], [-82.99707, 39.99581], [-82.99511, 39.99574], [-82.99511, 39.995208], [-82.99511, 39.99479], [-82.9964, 39.99407], [-82.99682, 39.98935], [-82.99697, 39.9891], [-82.997196, 39.986776], [-82.9972, 39.98673], [-82.999569, 39.986816], [-82.99969, 39.98682], [-82.999441, 39.985647], [-82.99902, 39.98367], [-83.00026, 39.98368], [-82.99956, 39.98054], [-83.00081, 39.98063], [-83.000453, 39.978286], [-83.00039, 39.97787], [-83.003552, 39.977253], [-83.00362, 39.97724], [-83.004233, 39.98058]]]}}, {"type": "Feature", "properties": {"area_id": 574, "city": "Columbus", "state": "OH", "city_survey": true, "cat": "Definitely Declining", "grade": "C", "label": "C4", "res": true, "com": false, "ind": false, "holc_grade": "C"}, "geometry": {"type": "Polygon", "coordinates": [[[-83.02874, 40.06281], [-83.028796, 40.062903], [-83.02919, 40.06356], [-83.02945, 40.0645], [-83.02945, 40.06505], [-83.02907, 40.06539], [-83.019356, 40.065072], [-83.0193, 40.06507], [-83.01928, 40.06291], [-83.019472, 40.062915], [-83.01965, 40.06292], [-83.019772, 40.062548], [-83.01982, 40.0624], [-83.02874, 40.06281]]]}}, {"type": "Feature", "properties": {"area_id": 572, "city": "Columbus", "state": "OH", "city_survey": true, "cat": "Definitely Declining", "grade": "C", "label": "C5", "res": true, "com": false, "ind": false, "holc_grade": "C"}, "geometry": {"type": "Polygon", "coordinates": [[[-83.013327, 40.055079], [-83.01307, 40.05852], [-83.01385, 40.05859], [-83.013614, 40.062219], [-83.01358, 40.06275], [-83.00101, 40.062271], [-83.0002, 40.06224], [-83.0002, 40.06169], [-83.0002, 40.06073], [-83.00044, 40.05841], [-83.000157, 40.054374], [-83.00012, 40.05384], [-83.01337, 40.0545], [-83.013327, 40.055079]]]}}, {"type": "Feature", "properties": {"area_id": 565, "city": "Columbus", "state": "OH", "city_survey": true, "cat": "Definitely Declining", "grade": "C", "label": "C6", "res": true, "com": false, "ind": false, "holc_grade": "C"}, "geometry": {"type": "Polygon", "coordinates": [[[-83.021398, 40.023195], [-83.02216, 40.02323], [-83.0229, 40.02356], [-83.02319, 40.02401], [-83.02326, 40.02452], [-83.02342, 40.02554], [-83.023532, 40.025864], [-83.023558, 40.025938], [-83.02376, 40.02652], [-83.02402, 40.02723], [-83.02402, 40.02771], [-83.02402, 40.02805], [-83.023974, 40.028189], [-83.0239, 40.02841], [-83.014929, 40.028065], [-83.00804, 40.0278], [-83.00808, 40.02683], [-83.01457, 40.02701], [-83.01447, 40.02638], [-83.01449, 40.02638], [-83.01948, 40.0265], [-83.019786, 40.025184], [-83.01991, 40.02465], [-83.01929, 40.0231], [-83.021398, 40.023195]]]}}, {"type": "Feature", "properties": {"area_id": 543, "city": "Columbus", "state": "OH", "city_survey": true, "cat": "Definitely Declining", "grade": "C", "label": "C7", "res": true, "com": false, "ind": false, "holc_grade": "C"}, "geometry": {"type": "Polygon", "coordinates": [[[-82.99614, 40.015], [-82.996197, 40.015003], [-82.99821, 40.0151], [-82.99825, 40.0151], [-82.998136, 40.018634], [-82.99813, 40.01882], [-82.99802, 40.01905], [-82.99825, 40.01989], [-82.998596, 40.024273], [-82.99897, 40.02902], [-82.99838, 40.03058], [-82.9987, 40.03276], [-82.997473, 40.032746], [-82.99418, 40.03271], [-82.99387, 40.02677], [-82.991537, 40.026669], [-82.9888, 40.02655], [-82.98908, 40.02393], [-82.99001, 40.0239], [-82.990012, 40.023873], [-82.990657, 40.01469], [-82.99066, 40.01465], [-82.992616, 40.014775], [-82.99614, 40.015]]]}}, {"type": "Feature", "properties": {"area_id": 548, "city": "Columbus", "state": "OH", "city_survey": true, "cat": "Definitely Declining", "grade": "C", "label": "C8", "res": true, "com": false, "ind": false, "holc_grade": "C"}, "geometry": {"type": "Polygon", "coordinates": [[[-82.96046, 40.01341], [-82.96633, 40.01366], [-82.96786, 40.01373], [-82.96634, 40.0168], [-82.967773, 40.016888], [-82.97349, 40.01724], [-82.97362, 40.01848], [-82.9783, 40.0187], [-82.97822, 40.02031], [-82.9815, 40.0206], [-82.981474, 40.021428], [-82.98141, 40.02349], [-82.97504, 40.02315], [-82.97177, 40.02298], [-82.97184, 40.02208], [-82.971782, 40.022077], [-82.96464, 40.02167], [-82.964102, 40.031303], [-82.96407, 40.03188], [-82.958817, 40.031677], [-82.95059, 40.03136], [-82.95059, 40.0276], [-82.94336, 40.02738], [-82.943383, 40.026652], [-82.9435, 40.02287], [-82.94995, 40.02309], [-82.95063, 40.01283], [-82.954298, 40.013046], [-82.958203, 40.013277], [-82.96046, 40.01341]]]}}, {"type": "Feature", "properties": {"area_id": 541, "city": "Columbus", "state": "OH", "city_survey": true, "cat": "Definitely Declining", "grade": "C", "label": "C9", "res": true, "com": false, "ind": false, "holc_grade": "C"}, "geometry": {"type": "Polygon", "coordinates": [[[-83.016811, 40.01273], [-83.016067, 40.015951], [-83.016032, 40.016103], [-83.01584, 40.016936], [-83.01558, 40.01806], [-83.015423, 40.018053], [-83.01344, 40.01797], [-83.013463, 40.018065], [-83.013464, 40.018067], [-83.01347, 40.018092], [-83.013474, 40.018108], [-83.01375, 40.01924], [-83.01071, 40.0196], [-83.01049, 40.01837], [-83.007011, 40.018267], [-83.00679, 40.01826], [-83.006636, 40.018441], [-83.006549, 40.018544], [-83.00645, 40.01866], [-83.00538, 40.01886], [-83.00548, 40.01651], [-83.00446, 40.01646], [-83.00458, 40.01542], [-82.99828, 40.01511], [-82.99825, 40.0151], [-82.99821, 40.0151], [-82.996197, 40.015003], [-82.99614, 40.015], [-82.996139, 40.014938], [-82.996113, 40.013772], [-82.996094, 40.012852], [-82.995969, 40.007093], [-82.99595, 40.00621], [-82.995378, 40.001165], [-82.994873, 39.996712], [-82.99476, 39.99572], [-82.994803, 39.995722], [-82.99511, 39.99574], [-82.99707, 39.99581], [-82.99687, 39.9998], [-82.9987, 39.99993], [-82.998623, 40.001321], [-82.998299, 40.007179], [-82.9982, 40.00898], [-83.00279, 40.00923], [-83.00284, 40.00938], [-83.01009, 40.009757], [-83.01014, 40.00976], [-83.01749, 40.01011], [-83.017481, 40.010192], [-83.01734, 40.01145], [-83.01686, 40.01252], [-83.016813, 40.012723], [-83.016811, 40.01273]]]}}, {"type": "Feature", "properties": {"area_id": 544, "city": "Columbus", "state": "OH", "city_survey": true, "cat": "Hazardous", "grade": "D", "label": "D1", "res": true, "com": false, "ind": false, "holc_grade": "D"}, "geometry": {"type": "Polygon", "coordinates": [[[-82.99097, 40.01022], [-82.99066, 40.01465], [-82.990657, 40.01469], [-82.990012, 40.023873], [-82.99001, 40.0239], [-82.98908, 40.02393], [-82.9888, 40.02655], [-82.98863, 40.02874], [-82.980957, 40.028275], [-82.98087, 40.02827], [-82.98141, 40.02349], [-82.981474, 40.021428], [-82.9815, 40.0206], [-82.98129, 40.01439], [-82.981299, 40.01427], [-82.98165, 40.00974], [-82.98758, 40.01005], [-82.99097, 40.01022]]]}}, {"type": "Feature", "properties": {"area_id": 507, "city": "Columbus", "state": "OH", "city_survey": true, "cat": "Hazardous", "grade": "D", "label": "D10", "res": true, "com": false, "ind": false, "holc_grade": "D"}, "geometry": {"type": "Polygon", "coordinates": [[[-82.98226, 39.92541], [-82.98235, 39.92292], [-82.98159, 39.92292], [-82.98171, 39.92153], [-82.984645, 39.921691], [-82.99249, 39.92212], [-82.99256, 39.92187], [-82.99545, 39.92199], [-82.99555, 39.92502], [-82.9934, 39.92486], [-82.99328, 39.92618], [-82.9862, 39.92587], [-82.98597, 39.929075], [-82.98584, 39.93088], [-82.98401, 39.93077], [-82.98401, 39.93113], [-82.983954, 39.931126], [-82.98117, 39.93092], [-82.981284, 39.927414], [-82.98131, 39.92661], [-82.98134, 39.92537], [-82.98226, 39.92541]]]}}, {"type": "Feature", "properties": {"area_id": 504, "city": "Columbus", "state": "OH", "city_survey": true, "cat": "Hazardous", "grade": "D", "label": "D11", "res": true, "com": false, "ind": false, "holc_grade": "D"}, "geometry": {"type": "Polygon", "coordinates": [[[-82.98245, 39.95066], [-82.982497, 39.950323], [-82.98254, 39.95001], [-82.98585, 39.95019], [-82.98585, 39.9505], [-82.9878, 39.95061], [-82.99452, 39.95094], [-83.00163, 39.95004], [-83.00248, 39.9531], [-83.001405, 39.953227], [-82.99462, 39.95403], [-82.99483, 39.95524], [-82.99122, 39.95565], [-82.99169, 39.95846], [-82.99026, 39.95858], [-82.98606, 39.95893], [-82.98207, 39.95948], [-82.98205, 39.95826], [-82.98204, 39.95817], [-82.982018, 39.958169], [-82.97696, 39.95802], [-82.97739, 39.9515], [-82.978149, 39.950925], [-82.97842, 39.95072], [-82.97876, 39.95046], [-82.98245, 39.95066]]]}}, {"type": "Feature", "properties": {"area_id": 502, "city": "Columbus", "state": "OH", "city_survey": true, "cat": "Hazardous", "grade": "D", "label": "D12", "res": true, "com": false, "ind": false, "holc_grade": "D"}, "geometry": {"type": "Polygon", "coordinates": [[[-83.04088, 39.94602], [-83.04164, 39.94955], [-83.039097, 39.950007], [-83.03379, 39.95096], [-83.03419, 39.95347], [-83.03326, 39.95348], [-83.03274, 39.95119], [-83.03151, 39.95144], [-83.03204, 39.95377], [-83.02885, 39.95406], [-83.02854, 39.95201], [-83.02591, 39.9524], [-83.02515, 39.95567], [-83.025804, 39.959147], [-83.02581, 39.95918], [-83.03741, 39.95781], [-83.03762, 39.95864], [-83.03822, 39.9587], [-83.04267, 39.95823], [-83.04347, 39.96229], [-83.03917, 39.96214], [-83.03957, 39.9637], [-83.03013, 39.96325], [-83.02781, 39.9645], [-83.02354, 39.96427], [-83.02299, 39.96414], [-83.02261, 39.96403], [-83.02132, 39.96304], [-83.02048, 39.96281], [-83.02014, 39.96281], [-83.01932, 39.962904], [-83.01576, 39.96331], [-83.01555, 39.96208], [-83.00787, 39.96303], [-83.0061, 39.96153], [-83.00886, 39.96122], [-83.00825, 39.95797], [-83.00616, 39.95816], [-83.0067, 39.95737], [-83.00688, 39.95718], [-83.00705, 39.95698], [-83.00799, 39.95653], [-83.00913, 39.95596], [-83.01237, 39.95466], [-83.01756, 39.95402], [-83.017033, 39.951096], [-83.01703, 39.95108], [-83.02959, 39.94746], [-83.035724, 39.945837], [-83.04437, 39.94355], [-83.04481, 39.94522], [-83.04088, 39.94602]]]}}, {"type": "Feature", "properties": {"area_id": 495, "city": "Columbus", "state": "OH", "city_survey": true, "cat": "Hazardous", "grade": "D", "label": "D13", "res": true, "com": false, "ind": false, "holc_grade": "D"}, "geometry": {"type": "Polygon", "coordinates": [[[-83.06369, 39.94538], [-83.06409, 39.9509], [-83.06293, 39.95088], [-83.06286, 39.95195], [-83.06181, 39.95199], [-83.06174, 39.95153], [-83.05761, 39.95166], [-83.05731, 39.94662], [-83.06369, 39.94538]]]}}, {"type": "Feature", "properties": {"area_id": 554, "city": "Columbus", "state": "OH", "city_survey": true, "cat": "Hazardous", "grade": "D", "label": "D14", "res": true, "com": false, "ind": false, "holc_grade": "D"}, "geometry": {"type": "Polygon", "coordinates": [[[-83.03533, 39.99042], [-83.03535, 39.99123], [-83.040626, 39.991395], [-83.04908, 39.99166], [-83.04905, 39.992112], [-83.04902, 39.99257], [-83.0489, 39.99282], [-83.04866, 39.99463], [-83.048394, 39.994619], [-83.03518, 39.99409], [-83.03172, 39.99282], [-83.02594, 39.99243], [-83.02617, 39.99093], [-83.026156, 39.990882], [-83.02591, 39.99005], [-83.03151, 39.99027], [-83.03533, 39.99042]]]}}, {"type": "Feature", "properties": {"area_id": 534, "city": "Columbus", "state": "OH", "city_survey": true, "cat": "Hazardous", "grade": "D", "label": "D15", "res": true, "com": false, "ind": false, "holc_grade": "D"}, "geometry": {"type": "Polygon", "coordinates": [[[-83.00937, 39.9739], [-83.009277, 39.973896], [-83.00465, 39.97369], [-83.00522, 39.97726], [-83.00362, 39.97724], [-83.003552, 39.977253], [-83.00039, 39.97787], [-83.000453, 39.978286], [-83.00081, 39.98063], [-82.99956, 39.98054], [-83.00026, 39.98368], [-82.99902, 39.98367], [-82.999441, 39.985647], [-82.99969, 39.98682], [-82.999569, 39.986816], [-82.9972, 39.98673], [-82.997196, 39.986776], [-82.99697, 39.9891], [-82.99682, 39.98935], [-82.9964, 39.99407], [-82.99511, 39.99479], [-82.995066, 39.993952], [-82.995007, 39.992844], [-82.99474, 39.98782], [-82.994599, 39.986667], [-82.99459, 39.98659], [-82.99656, 39.98568], [-82.99675, 39.98269], [-82.996461, 39.980551], [-82.99643, 39.98032], [-82.99696, 39.98026], [-82.99694, 39.97491], [-82.99778, 39.97372], [-83.00065, 39.97375], [-83.00063, 39.97327], [-83.0027, 39.973], [-83.00247, 39.97153], [-83.00528, 39.97133], [-83.009496, 39.971451], [-83.01015, 39.97147], [-83.01093, 39.97238], [-83.01684, 39.97263], [-83.01751, 39.974], [-83.01741, 39.97535], [-83.01823, 39.97541], [-83.01798, 39.98065], [-83.02061, 39.98074], [-83.020641, 39.980901], [-83.02084, 39.98194], [-83.02108, 39.98236], [-83.0212, 39.98269], [-83.021193, 39.982952], [-83.02118, 39.98348], [-83.020994, 39.983802], [-83.020967, 39.983848], [-83.020867, 39.98402], [-83.020841, 39.984064], [-83.02078, 39.98417], [-83.020802, 39.984351], [-83.02093, 39.9854], [-83.020862, 39.985858], [-83.02086, 39.98587], [-83.01901, 39.98584], [-83.01911, 39.98405], [-83.019042, 39.984042], [-83.01799, 39.98392], [-83.01805, 39.9815], [-83.01295, 39.98122], [-83.01324, 39.97754], [-83.0112, 39.97742], [-83.0105, 39.97395], [-83.00937, 39.9739]]]}}, {"type": "Feature", "properties": {"area_id": 553, "city": "Columbus", "state": "OH", "city_survey": true, "cat": "Hazardous", "grade": "D", "label": "D2", "res": true, "com": false, "ind": false, "holc_grade": "D"}, "geometry": {"type": "Polygon", "coordinates": [[[-82.939441, 39.999294], [-82.9477, 39.99974], [-82.947688, 39.99998], [-82.94751, 40.00367], [-82.93876, 40.00328], [-82.93817, 40.00218], [-82.939082, 39.999587], [-82.93919, 39.99928], [-82.939441, 39.999294]]]}}, {"type": "Feature", "properties": {"area_id": 552, "city": "Columbus", "state": "OH", "city_survey": true, "cat": "Hazardous", "grade": "D", "label": "D3", "res": true, "com": false, "ind": false, "holc_grade": "D"}, "geometry": {"type": "Polygon", "coordinates": [[[-82.95811, 39.99608], [-82.95825, 39.99468], [-82.9591, 39.99468], [-82.95941, 39.99176], [-82.96631, 39.99203], [-82.96587, 39.99637], [-82.95811, 39.99608]]]}}, {"type": "Feature", "properties": {"area_id": 550, "city": "Columbus", "state": "OH", "city_survey": true, "cat": "Hazardous", "grade": "D", "label": "D4", "res": true, "com": false, "ind": false, "holc_grade": "D"}, "geometry": {"type": "Polygon", "coordinates": [[[-82.9792, 39.99395], [-82.97504, 39.99382], [-82.97508, 39.99263], [-82.981, 39.99275], [-82.9821, 39.9931], [-82.98321, 39.99225], [-82.983227, 39.99225], [-82.98845, 39.99234], [-82.98869, 39.99213], [-82.99333, 39.99217], [-82.99444, 39.99293], [-82.99432, 39.99476], [-82.9876, 39.99455], [-82.98764, 39.99397], [-82.98171, 39.993689], [-82.9792, 39.99357], [-82.9792, 39.99395]]]}}, {"type": "Feature", "properties": {"area_id": 533, "city": "Columbus", "state": "OH", "city_survey": true, "cat": "Hazardous", "grade": "D", "label": "D5", "res": true, "com": false, "ind": false, "holc_grade": "D"}, "geometry": {"type": "Polygon", "coordinates": [[[-82.98795, 39.979994], [-82.98969, 39.98006], [-82.98969, 39.98042], [-82.99221, 39.9806], [-82.99218, 39.98279], [-82.98951, 39.9827], [-82.98924, 39.986445], [-82.98924, 39.98645], [-82.989578, 39.986459], [-82.994471, 39.986587], [-82.99459, 39.98659], [-82.994599, 39.986667], [-82.99474, 39.98782], [-82.994561, 39.987813], [-82.99201, 39.98771], [-82.99165, 39.99158], [-82.99028, 39.99137], [-82.99028, 39.99101], [-82.98517, 39.99094], [-82.984956, 39.990557], [-82.98493, 39.99051], [-82.97947, 39.99035], [-82.97944, 39.99014], [-82.97451, 39.98998], [-82.97462, 39.98611], [-82.974378, 39.986103], [-82.95689, 39.98557], [-82.956897, 39.985097], [-82.95695, 39.98133], [-82.96348, 39.98151], [-82.96345, 39.98265], [-82.96693, 39.98279], [-82.96702, 39.98313], [-82.97522, 39.98343], [-82.97581, 39.9822], [-82.9765, 39.98136], [-82.97706, 39.98076], [-82.97795, 39.98024], [-82.97887, 39.97992], [-82.979842, 39.979711], [-82.979846, 39.97971], [-82.97994, 39.97969], [-82.98004, 39.979694], [-82.980252, 39.979702], [-82.98795, 39.979994]]]}}, {"type": "Feature", "properties": {"area_id": 529, "city": "Columbus", "state": "OH", "city_survey": true, "cat": "Hazardous", "grade": "D", "label": "D6", "res": true, "com": false, "ind": false, "holc_grade": "D"}, "geometry": {"type": "Polygon", "coordinates": [[[-82.90963, 39.98529], [-82.90963, 39.98394], [-82.92189, 39.98441], [-82.92191, 39.98312], [-82.93194, 39.9834], [-82.93142, 39.98601], [-82.92232, 39.98561], [-82.92224, 39.98571], [-82.91013, 39.98532], [-82.90963, 39.98529]]]}}, {"type": "Feature", "properties": {"area_id": 517, "city": "Columbus", "state": "OH", "city_survey": true, "cat": "Hazardous", "grade": "D", "label": "D7", "res": true, "com": false, "ind": false, "holc_grade": "D"}, "geometry": {"type": "Polygon", "coordinates": [[[-82.99155, 39.96609], [-82.99146, 39.96554], [-82.9967, 39.96508], [-82.99751, 39.96879], [-82.99295, 39.97238], [-82.98812, 39.97216], [-82.98463, 39.97278], [-82.98437, 39.97796], [-82.98064, 39.97781], [-82.98052, 39.97859], [-82.980319, 39.978583], [-82.97512, 39.97841], [-82.97496, 39.97883], [-82.968648, 39.978679], [-82.96825, 39.97867], [-82.96781, 39.97876], [-82.9637, 39.97859], [-82.963658, 39.979182], [-82.96365, 39.97929], [-82.95646, 39.97992], [-82.956627, 39.977818], [-82.95692, 39.97413], [-82.96102, 39.97426], [-82.96152, 39.96889], [-82.961578, 39.968892], [-82.96579, 39.96901], [-82.969982, 39.96854], [-82.9772, 39.96773], [-82.981067, 39.967288], [-82.99155, 39.96609]]]}}, {"type": "Feature", "properties": {"area_id": 520, "city": "Columbus", "state": "OH", "city_survey": true, "cat": "Hazardous", "grade": "D", "label": "D8", "res": true, "com": false, "ind": false, "holc_grade": "D"}, "geometry": {"type": "Polygon", "coordinates": [[[-82.94815, 39.94855], [-82.948147, 39.948596], [-82.947893, 39.952991], [-82.94764, 39.95738], [-82.94366, 39.95731], [-82.9436, 39.95708], [-82.94334, 39.95603], [-82.94301, 39.9556], [-82.94295, 39.9551], [-82.9431, 39.95434], [-82.94346, 39.95321], [-82.9434, 39.95271], [-82.94331, 39.95216], [-82.94286, 39.95154], [-82.94277, 39.9512], [-82.94316, 39.94954], [-82.94316, 39.94917], [-82.942633, 39.948312], [-82.94262, 39.94829], [-82.947693, 39.948529], [-82.94815, 39.94855]]]}}, {"type": "Feature", "properties": {"area_id": 519, "city": "Columbus", "state": "OH", "city_survey": true, "cat": "Hazardous", "grade": "D", "label": "D9", "res": true, "com": false, "ind": false, "holc_grade": "D"}, "geometry": {"type": "Polygon", "coordinates": [[[-82.985325, 39.913621], [-82.98499, 39.9193], [-82.97476, 39.91878], [-82.97522, 39.91276], [-82.985293, 39.913198], [-82.98535, 39.9132], [-82.985325, 39.913621]]]}}, {"type": "Feature", "properties": {"area_id": 11318, "city": "Columbus", "state": "OH", "city_survey": true, "cat": "Downtown Commercial District", "grade": null, "label": "Downtown Commercial District", "res": false, "com": true, "ind": false, "holc_grade": null}, "geometry": {"type": "Polygon", "coordinates": [[[-83.00444, 39.95316], [-83.004515, 39.953509], [-83.00511, 39.95629], [-83.00331, 39.95867], [-83.0032, 39.96104], [-83.00364, 39.96176], [-83.003704, 39.961868], [-83.00395, 39.96228], [-83.00619, 39.96365], [-83.00668, 39.96571], [-83.00765, 39.96979], [-83.00193, 39.9695], [-83.00189, 39.96898], [-82.99751, 39.96879], [-82.9967, 39.96508], [-82.99146, 39.96554], [-82.991076, 39.963314], [-82.99026, 39.95858], [-82.99169, 39.95846], [-82.99122, 39.95565], [-82.99483, 39.95524], [-82.99462, 39.95403], [-83.001405, 39.953227], [-83.00248, 39.9531], [-83.004373, 39.953158], [-83.00444, 39.95316]]]}}, {"type": "Feature", "properties": {"area_id": 11319, "city": "Columbus", "state": "OH", "city_survey": true, "cat": "Industrial", "grade": null, "label": "Industrial", "res": false, "com": false, "ind": true, "holc_grade": null}, "geometry": {"type": "MultiPolygon", "coordinates": [[[[-83.01576, 39.96331], [-83.01932, 39.962904], [-83.02014, 39.96281], [-83.02048, 39.96281], [-83.02132, 39.96304], [-83.02261, 39.96403], [-83.02299, 39.96414], [-83.02354, 39.96427], [-83.02781, 39.9645], [-83.03013, 39.96325], [-83.03957, 39.9637], [-83.03917, 39.96214], [-83.04347, 39.96229], [-83.05004, 39.96238], [-83.04974, 39.96601], [-83.04752, 39.96554], [-83.04513, 39.96574], [-83.04244, 39.96831], [-83.04049, 39.96974], [-83.03775, 39.96947], [-83.03588, 39.9686], [-83.03445, 39.96754], [-83.033728, 39.968035], [-83.03353, 39.96817], [-83.03605, 39.96997], [-83.03675, 39.97014], [-83.042759, 39.972019], [-83.04292, 39.97207], [-83.04292, 39.972072], [-83.04261, 39.9754], [-83.03807, 39.9748], [-83.02861, 39.97439], [-83.02371, 39.97403], [-83.026545, 39.984102], [-83.02762, 39.98792], [-83.024116, 39.987785], [-83.02165, 39.98769], [-83.02086, 39.98587], [-83.020862, 39.985858], [-83.02093, 39.9854], [-83.020802, 39.984351], [-83.02078, 39.98417], [-83.020841, 39.984064], [-83.020867, 39.98402], [-83.020967, 39.983848], [-83.020994, 39.983802], [-83.02118, 39.98348], [-83.021193, 39.982952], [-83.0212, 39.98269], [-83.02108, 39.98236], [-83.02084, 39.98194], [-83.020641, 39.980901], [-83.02061, 39.98074], [-83.01798, 39.98065], [-83.01823, 39.97541], [-83.01741, 39.97535], [-83.01751, 39.974], [-83.01684, 39.97263], [-83.01093, 39.97238], [-83.01015, 39.97147], [-83.009496, 39.971451], [-83.00528, 39.97133], [-83.00247, 39.97153], [-83.0027, 39.973], [-83.00063, 39.97327], [-83.00065, 39.97375], [-82.99778, 39.97372], [-82.99694, 39.97491], [-82.99696, 39.98026], [-82.99643, 39.98032], [-82.996461, 39.980551], [-82.99675, 39.98269], [-82.99656, 39.98568], [-82.99459, 39.98659], [-82.994471, 39.986587], [-82.989578, 39.986459], [-82.98924, 39.98645], [-82.98924, 39.986445], [-82.98951, 39.9827], [-82.99218, 39.98279], [-82.99221, 39.9806], [-82.98969, 39.98042], [-82.98969, 39.98006], [-82.98795, 39.979994], [-82.980252, 39.979702], [-82.98004, 39.979694], [-82.97994, 39.97969], [-82.979846, 39.97971], [-82.979842, 39.979711], [-82.97887, 39.97992], [-82.97795, 39.98024], [-82.97706, 39.98076], [-82.9765, 39.98136], [-82.97581, 39.9822], [-82.97522, 39.98343], [-82.96702, 39.98313], [-82.96693, 39.98279], [-82.96345, 39.98265], [-82.96348, 39.98151], [-82.95695, 39.98133], [-82.956897, 39.985097], [-82.95689, 39.98557], [-82.974378, 39.986103], [-82.97462, 39.98611], [-82.97451, 39.98998], [-82.97944, 39.99014], [-82.97947, 39.99035], [-82.98493, 39.99051], [-82.984956, 39.990557], [-82.98517, 39.99094], [-82.99028, 39.99101], [-82.99028, 39.99137], [-82.99165, 39.99158], [-82.99201, 39.98771], [-82.994561, 39.987813], [-82.99474, 39.98782], [-82.995007, 39.992844], [-82.995066, 39.993952], [-82.99511, 39.99479], [-82.994738, 39.994776], [-82.99432, 39.99476], [-82.99444, 39.99293], [-82.99333, 39.99217], [-82.98869, 39.99213], [-82.98845, 39.99234], [-82.983227, 39.99225], [-82.98321, 39.99225], [-82.9821, 39.9931], [-82.981, 39.99275], [-82.97508, 39.99263], [-82.97504, 39.99382], [-82.970165, 39.99763], [-82.96959, 39.99808], [-82.968982, 40.000004], [-82.96694, 40.00647], [-82.96349, 40.00634], [-82.9654, 39.99988], [-82.965422, 39.999826], [-82.96576, 39.99899], [-82.96587, 39.99637], [-82.96631, 39.99203], [-82.95941, 39.99176], [-82.95949, 39.99061], [-82.95515, 39.99035], [-82.95528, 39.98948], [-82.95351, 39.98636], [-82.953768, 39.984151], [-82.95385, 39.98345], [-82.952429, 39.981805], [-82.95239, 39.98176], [-82.95098, 39.98172], [-82.951764, 39.980314], [-82.9518, 39.98025], [-82.95276, 39.980182], [-82.95646, 39.97992], [-82.96365, 39.97929], [-82.963658, 39.979182], [-82.9637, 39.97859], [-82.96781, 39.97876], [-82.96825, 39.97867], [-82.968648, 39.978679], [-82.97496, 39.97883], [-82.97512, 39.97841], [-82.980319, 39.978583], [-82.98052, 39.97859], [-82.98064, 39.97781], [-82.98437, 39.97796], [-82.98463, 39.97278], [-82.98812, 39.97216], [-82.99295, 39.97238], [-82.99751, 39.96879], [-83.00189, 39.96898], [-83.00193, 39.9695], [-83.00765, 39.96979], [-83.0096, 39.969835], [-83.00981, 39.96984], [-83.01007, 39.96577], [-83.009844, 39.965766], [-83.00668, 39.96571], [-83.00619, 39.96365], [-83.00395, 39.96228], [-83.003704, 39.961868], [-83.00364, 39.96176], [-83.004956, 39.961637], [-83.0061, 39.96153], [-83.00787, 39.96303], [-83.01555, 39.96208], [-83.01576, 39.96331]]], [[[-82.99742, 39.93287], [-82.997168, 39.929541], [-82.99711, 39.92878], [-82.99623, 39.92507], [-82.99555, 39.92502], [-82.99545, 39.92199], [-82.99256, 39.92187], [-82.99249, 39.92212], [-82.98479, 39.9217], [-82.984645, 39.921692], [-82.98171, 39.92153], [-82.98159, 39.92292], [-82.98235, 39.92292], [-82.98226, 39.92541], [-82.98134, 39.92537], [-82.98131, 39.92661], [-82.97647, 39.9263], [-82.97314, 39.92615], [-82.97328, 39.92299], [-82.96527, 39.92267], [-82.96559, 39.919926], [-82.96577, 39.91838], [-82.97476, 39.91878], [-82.98499, 39.9193], [-82.985325, 39.913621], [-82.98535, 39.9132], [-82.98593, 39.91311], [-82.99338, 39.91887], [-82.9965, 39.91964], [-82.9965, 39.92094], [-82.99906, 39.92126], [-82.99961, 39.92297], [-82.99967, 39.92423], [-82.99908, 39.92644], [-82.99883, 39.92828], [-82.99981, 39.9322], [-82.999992, 39.934352], [-83.00003, 39.9348], [-82.99934, 39.93806], [-82.99937, 39.939395], [-82.99938, 39.93983], [-82.99995, 39.94083], [-83.00251, 39.94166], [-83.00316, 39.94243], [-83.00738, 39.94313], [-83.0099, 39.94386], [-83.01237, 39.94712], [-83.01216, 39.95072], [-83.010841, 39.952755], [-83.0105, 39.95328], [-83.00759, 39.95438], [-83.00511, 39.95629], [-83.004515, 39.953509], [-83.00444, 39.95316], [-83.004373, 39.953158], [-83.00248, 39.9531], [-83.00163, 39.95004], [-83.001239, 39.948709], [-82.99989, 39.94411], [-82.998273, 39.939389], [-82.99813, 39.93897], [-82.99816, 39.935308], [-82.998178, 39.933152], [-82.99818, 39.93294], [-82.998128, 39.932935], [-82.99742, 39.93287]]]]}}]}