{"type": "FeatureCollection", "features": [{"type": "Feature", "properties": {"area_id": 5097, "city": "Waltham", "state": "MA", "city_survey": true, "cat": "Best", "grade": "A", "label": "A1", "res": true, "com": false, "ind": false, "holc_grade": "A"}, "geometry": {"type": "Polygon", "coordinates": [[[-71.25556, 42.37346], [-71.25499, 42.37325], [-71.25599, 42.37154], [-71.25489, 42.37112], [-71.25383, 42.37063], [-71.25493, 42.36922], [-71.26016, 42.37068], [-71.2608, 42.37035], [-71.260866, 42.373833], [-71.26087, 42.37402], [-71.258007, 42.374131], [-71.25754, 42.37415], [-71.25727, 42.37416], [-71.25727, 42.374142], [-71.25727, 42.37393], [-71.25556, 42.37346]]]}}, {"type": "Feature", "properties": {"area_id": 5096, "city": "Waltham", "state": "MA", "city_survey": true, "cat": "Still Desirable", "grade": "B", "label": "B1", "res": true, "com": false, "ind": false, "holc_grade": "B"}, "geometry": {"type": "Polygon", "coordinates": [[[-71.25316, 42.37246], [-71.25349, 42.37159], [-71.25454, 42.37184], [-71.25489, 42.37112], [-71.25599, 42.37154], [-71.25499, 42.37325], [-71.25556, 42.37346], [-71.25727, 42.37393], [-71.25727, 42.374142], [-71.25727, 42.37416], [-71.25639, 42.374123], [-71.25466, 42.37405], [-71.254682, 42.374152], [-71.25475, 42.37447], [-71.25532, 42.37483], [-71.25551, 42.37521], [-71.25535, 42.37672], [-71.255417, 42.37732], [-71.25544, 42.37753], [-71.2553, 42.37848], [-71.25432, 42.38023], [-71.25461, 42.38118], [-71.25273, 42.38432], [-71.25161, 42.38411], [-71.25095, 42.38424], [-71.24814, 42.3835], [-71.24715, 42.38339], [-71.24705, 42.38259], [-71.24657, 42.38174], [-71.24665, 42.379922], [-71.24665, 42.37992], [-71.246933, 42.379782], [-71.25076, 42.37792], [-71.25173, 42.37755], [-71.251731, 42.377548], [-71.25235, 42.3763], [-71.25302, 42.37635], [-71.252338, 42.374351], [-71.25228, 42.37418], [-71.25245, 42.3736], [-71.25316, 42.37246]]]}}, {"type": "Feature", "properties": {"area_id": 5099, "city": "Waltham", "state": "MA", "city_survey": true, "cat": "Still Desirable", "grade": "B", "label": "B2", "res": true, "com": false, "ind": false, "holc_grade": "B"}, "geometry": {"type": "Polygon", "coordinates": [[[-71.237843, 42.385988], [-71.240594, 42.386554], [-71.24359, 42.38717], [-71.24369, 42.38742], [-71.24552, 42.38793], [-71.24866, 42.38926], [-71.24787, 42.38933], [-71.24625, 42.39213], [-71.24506, 42.3935], [-71.24439, 42.39397], [-71.244375, 42.393975], [-71.24397, 42.39411], [-71.24435, 42.39516], [-71.24291, 42.39482], [-71.24198, 42.39492], [-71.23882, 42.39427], [-71.23812, 42.39573], [-71.23736, 42.39555], [-71.23785, 42.3936], [-71.237481, 42.393484], [-71.23699, 42.39333], [-71.23867, 42.38999], [-71.23876, 42.38951], [-71.2381, 42.38836], [-71.237664, 42.386625], [-71.23766, 42.38661], [-71.237537, 42.386585], [-71.23528, 42.38613], [-71.235283, 42.386092], [-71.23532, 42.38557], [-71.23756, 42.38593], [-71.237843, 42.385988]]]}}, {"type": "Feature", "properties": {"area_id": 5095, "city": "Waltham", "state": "MA", "city_survey": true, "cat": "Still Desirable", "grade": "B", "label": "B3", "res": true, "com": false, "ind": false, "holc_grade": "B"}, "geometry": {"type": "Polygon", "coordinates": [[[-71.23078, 42.37704], [-71.230783, 42.377078], [-71.23083, 42.37774], [-71.23262, 42.37757], [-71.23378, 42.37754], [-71.23499, 42.3777], [-71.23388, 42.3793], [-71.23304, 42.38008], [-71.23291, 42.38016], [-71.23117, 42.38124], [-71.23017, 42.38111], [-71.22998, 42.38008], [-71.22749, 42.37981], [-71.22683, 42.3801], [-71.22638, 42.38023], [-71.22551, 42.38008], [-71.22502, 42.37986], [-71.22504, 42.37876], [-71.22521, 42.37839], [-71.22552, 42.37809], [-71.22747, 42.37797], [-71.22765, 42.3775], [-71.227731, 42.377489], [-71.2299, 42.37718], [-71.23078, 42.37704]]]}}, {"type": "Feature", "properties": {"area_id": 5094, "city": "Waltham", "state": "MA", "city_survey": true, "cat": "Still Desirable", "grade": "B", "label": "B4", "res": true, "com": false, "ind": false, "holc_grade": "B"}, "geometry": {"type": "Polygon", "coordinates": [[[-71.21167, 42.37495], [-71.21346, 42.37179], [-71.21485, 42.37211], [-71.21433, 42.37299], [-71.21324, 42.37484], [-71.2198, 42.37658], [-71.219102, 42.377259], [-71.21909, 42.37727], [-71.2146, 42.37627], [-71.21381, 42.37766], [-71.21517, 42.37816], [-71.21342, 42.3809], [-71.21267, 42.38122], [-71.21189, 42.38124], [-71.21125, 42.38059], [-71.21189, 42.37966], [-71.20872, 42.37853], [-71.207, 42.37777], [-71.20793, 42.37637], [-71.20832, 42.3759], [-71.20975, 42.37537], [-71.210314, 42.374539], [-71.21032, 42.37453], [-71.21167, 42.37495]]]}}, {"type": "Feature", "properties": {"area_id": 5098, "city": "Waltham", "state": "MA", "city_survey": true, "cat": "Definitely Declining", "grade": "C", "label": "C1", "res": true, "com": false, "ind": false, "holc_grade": "C"}, "geometry": {"type": "MultiPolygon", "coordinates": [[[[-71.22244, 42.37491], [-71.22146, 42.37462], [-71.22113, 42.37518], [-71.21739, 42.37387], [-71.21433, 42.37299], [-71.21485, 42.37211], [-71.21493, 42.37199], [-71.21813, 42.37297], [-71.21912, 42.3715], [-71.21769, 42.37103], [-71.21825, 42.37019], [-71.22042, 42.37096], [-71.22116, 42.37002], [-71.2219, 42.37032], [-71.22358, 42.37101], [-71.22767, 42.37315], [-71.22864, 42.37357], [-71.23011, 42.37383], [-71.23087, 42.37409], [-71.23175, 42.3741], [-71.23197, 42.37495], [-71.23038, 42.37529], [-71.22966, 42.37557], [-71.2299, 42.37718], [-71.227731, 42.377489], [-71.22765, 42.3775], [-71.227614, 42.377503], [-71.22569, 42.37768], [-71.22462, 42.37766], [-71.22331, 42.37744], [-71.22241, 42.37762], [-71.22244, 42.37491]]], [[[-71.23829, 42.36676], [-71.23727, 42.36671], [-71.23641, 42.37046], [-71.23481, 42.3703], [-71.2343, 42.37101], [-71.233754, 42.370853], [-71.2327, 42.37055], [-71.23282, 42.36971], [-71.23054, 42.36937], [-71.23054, 42.36878], [-71.22631, 42.36781], [-71.22574, 42.36861], [-71.2238, 42.36785], [-71.2246, 42.36629], [-71.22706, 42.36714], [-71.22791, 42.36537], [-71.227599, 42.365061], [-71.226379, 42.363849], [-71.22637, 42.36384], [-71.227161, 42.363606], [-71.227535, 42.363495], [-71.233181, 42.361823], [-71.23957, 42.35993], [-71.23921, 42.36094], [-71.24018, 42.36102], [-71.24086, 42.36043], [-71.24269, 42.36195], [-71.24343, 42.3614], [-71.24468, 42.3625], [-71.24445, 42.3633], [-71.2436, 42.36385], [-71.24371, 42.36469], [-71.243088, 42.366792], [-71.24286, 42.36756], [-71.24211, 42.36857], [-71.23881, 42.37127], [-71.23732, 42.37173], [-71.23829, 42.36676]]], [[[-71.2375, 42.37964], [-71.23605, 42.37979], [-71.236186, 42.38056], [-71.23625, 42.38092], [-71.23522, 42.38086], [-71.23336, 42.38124], [-71.23352, 42.38024], [-71.23291, 42.38016], [-71.23304, 42.38008], [-71.23388, 42.3793], [-71.23499, 42.3777], [-71.23378, 42.37754], [-71.23262, 42.37757], [-71.23083, 42.37774], [-71.230783, 42.377078], [-71.23078, 42.37704], [-71.23138, 42.37694], [-71.23118, 42.37551], [-71.23455, 42.375], [-71.23475, 42.37498], [-71.23498, 42.37634], [-71.23696, 42.37596], [-71.23659, 42.37454], [-71.23704, 42.37442], [-71.23744, 42.37558], [-71.23854, 42.37568], [-71.238468, 42.376161], [-71.23837, 42.37681], [-71.23702, 42.37683], [-71.23703, 42.37763], [-71.23721, 42.37801], [-71.23759, 42.37816], [-71.237502, 42.37961], [-71.2375, 42.37964]]], [[[-71.24454, 42.37068], [-71.24532, 42.36963], [-71.24618, 42.36854], [-71.24692, 42.36785], [-71.24763, 42.36735], [-71.24803, 42.36726], [-71.2486, 42.36836], [-71.24906, 42.36863], [-71.24965, 42.36896], [-71.25058, 42.36933], [-71.2507, 42.37096], [-71.25065, 42.37149], [-71.25191, 42.37163], [-71.25349, 42.37159], [-71.25316, 42.37246], [-71.25245, 42.3736], [-71.25228, 42.37418], [-71.252338, 42.374351], [-71.25302, 42.37635], [-71.25235, 42.3763], [-71.251731, 42.377548], [-71.25173, 42.37755], [-71.25076, 42.37792], [-71.246933, 42.379782], [-71.24665, 42.37992], [-71.24665, 42.379922], [-71.24657, 42.38174], [-71.24705, 42.38259], [-71.24715, 42.38339], [-71.24814, 42.3835], [-71.25095, 42.38424], [-71.25161, 42.38411], [-71.25273, 42.38432], [-71.25229, 42.38508], [-71.25455, 42.38596], [-71.25343, 42.38894], [-71.25072, 42.388], [-71.24875, 42.38735], [-71.24859, 42.38761], [-71.24866, 42.38926], [-71.24552, 42.38793], [-71.24369, 42.38742], [-71.24359, 42.38717], [-71.240594, 42.386554], [-71.237843, 42.385988], [-71.23756, 42.38593], [-71.237268, 42.384256], [-71.23703, 42.38289], [-71.23759, 42.38299], [-71.23901, 42.38326], [-71.23962, 42.38298], [-71.24031, 42.38285], [-71.24172, 42.38308], [-71.241853, 42.382712], [-71.24203, 42.38222], [-71.24216, 42.38157], [-71.24234, 42.3806], [-71.242343, 42.380552], [-71.24244, 42.37904], [-71.24028, 42.37892], [-71.240581, 42.376201], [-71.24059, 42.37612], [-71.24161, 42.37611], [-71.24165, 42.37476], [-71.241725, 42.374754], [-71.24508, 42.37449], [-71.24505, 42.37365], [-71.24627, 42.37319], [-71.24627, 42.373148], [-71.24627, 42.37181], [-71.24579, 42.37035], [-71.24403, 42.37207], [-71.24353, 42.37159], [-71.24454, 42.37068]]]]}}, {"type": "Feature", "properties": {"area_id": 5100, "city": "Waltham", "state": "MA", "city_survey": true, "cat": "Definitely Declining", "grade": "C", "label": "C2", "res": true, "com": false, "ind": false, "holc_grade": "C"}, "geometry": {"type": "MultiPolygon", "coordinates": [[[[-71.20784, 42.39605], [-71.20734, 42.39698], [-71.206418, 42.396777], [-71.20589, 42.39666], [-71.205804, 42.39681], [-71.20465, 42.39882], [-71.20294, 42.39968], [-71.201786, 42.399116], [-71.20028, 42.39838], [-71.20152, 42.39642], [-71.20037, 42.39635], [-71.20007, 42.39596], [-71.20047, 42.39482], [-71.20161, 42.39364], [-71.20263, 42.39296], [-71.205113, 42.394432], [-71.205199, 42.394484], [-71.207238, 42.395693], [-71.20784, 42.39605]]], [[[-71.21967, 42.40519], [-71.219203, 42.406103], [-71.21875, 42.40699], [-71.217972, 42.408278], [-71.2177, 42.40873], [-71.21333, 42.40735], [-71.213751, 42.406892], [-71.21636, 42.40405], [-71.216394, 42.403948], [-71.2169, 42.40243], [-71.21775, 42.40279], [-71.21876, 42.40317], [-71.21995, 42.40407], [-71.21967, 42.40519]]], [[[-71.23699, 42.39333], [-71.237481, 42.393484], [-71.23785, 42.3936], [-71.23736, 42.39555], [-71.23703, 42.3962], [-71.23555, 42.39833], [-71.23852, 42.39895], [-71.23911, 42.39866], [-71.23938, 42.39772], [-71.23965, 42.3977], [-71.24268, 42.39846], [-71.24431, 42.3996], [-71.24505, 42.40004], [-71.24603, 42.40015], [-71.24589, 42.39925], [-71.24606, 42.39849], [-71.24505, 42.39566], [-71.24435, 42.39516], [-71.24397, 42.39411], [-71.244819, 42.394507], [-71.24624, 42.39517], [-71.24805, 42.3964], [-71.248539, 42.396855], [-71.24906, 42.39734], [-71.25019, 42.39802], [-71.24984, 42.39912], [-71.2485, 42.40114], [-71.25034, 42.40147], [-71.248303, 42.405081], [-71.24699, 42.40741], [-71.24749, 42.41143], [-71.24936, 42.41156], [-71.25067, 42.41193], [-71.25106, 42.41239], [-71.25025, 42.41397], [-71.23944, 42.41231], [-71.23953, 42.41141], [-71.2398, 42.41108], [-71.24042, 42.41084], [-71.24054, 42.41035], [-71.24089, 42.40998], [-71.24161, 42.40989], [-71.24244, 42.41016], [-71.24321, 42.41024], [-71.24378, 42.40992], [-71.24425, 42.40917], [-71.24419, 42.40856], [-71.24381, 42.40816], [-71.24351, 42.40783], [-71.24381, 42.40741], [-71.24419, 42.40687], [-71.2441, 42.40643], [-71.24321, 42.40564], [-71.24309, 42.40522], [-71.24271, 42.40498], [-71.24235, 42.40515], [-71.24226, 42.40535], [-71.24205, 42.40551], [-71.24113, 42.40559], [-71.23991, 42.40577], [-71.23941, 42.40623], [-71.23908, 42.40676], [-71.23825, 42.40649], [-71.23754, 42.40505], [-71.2373, 42.40428], [-71.23751, 42.40336], [-71.237676, 42.40298], [-71.23795, 42.40235], [-71.23694, 42.40175], [-71.23578, 42.40127], [-71.23558, 42.40053], [-71.234219, 42.399935], [-71.2332, 42.39949], [-71.234, 42.39886], [-71.234592, 42.397946], [-71.235111, 42.397144], [-71.23626, 42.39537], [-71.23501, 42.39497], [-71.23549, 42.39326], [-71.23699, 42.39333]]]]}}, {"type": "Feature", "properties": {"area_id": 5025, "city": "Waltham", "state": "MA", "city_survey": true, "cat": "Hazardous", "grade": "D", "label": "D1", "res": true, "com": false, "ind": false, "holc_grade": "D"}, "geometry": {"type": "MultiPolygon", "coordinates": [[[[-71.23091, 42.37244], [-71.22844, 42.37165], [-71.22767, 42.37097], [-71.22648, 42.37047], [-71.22599, 42.36998], [-71.22678, 42.36957], [-71.22574, 42.36861], [-71.22631, 42.36781], [-71.23054, 42.36878], [-71.23054, 42.36937], [-71.23282, 42.36971], [-71.2327, 42.37055], [-71.233754, 42.370853], [-71.2343, 42.37101], [-71.23481, 42.3703], [-71.23641, 42.37046], [-71.23635, 42.37166], [-71.23518, 42.3714], [-71.23488, 42.37167], [-71.23441, 42.37189], [-71.23313, 42.37168], [-71.23212, 42.37078], [-71.23168, 42.37061], [-71.231541, 42.370679], [-71.23142, 42.37074], [-71.23146, 42.37147], [-71.23123, 42.3717], [-71.23091, 42.37244]]], [[[-71.23138, 42.37694], [-71.23078, 42.37704], [-71.2299, 42.37718], [-71.22966, 42.37557], [-71.23038, 42.37529], [-71.23197, 42.37495], [-71.23438, 42.37447], [-71.23455, 42.375], [-71.23118, 42.37551], [-71.23138, 42.37694]]], [[[-71.24627, 42.37181], [-71.24627, 42.373148], [-71.24627, 42.37319], [-71.24505, 42.37365], [-71.24508, 42.37449], [-71.241725, 42.374754], [-71.24165, 42.37476], [-71.24161, 42.37611], [-71.24059, 42.37612], [-71.240581, 42.376201], [-71.24028, 42.37892], [-71.24244, 42.37904], [-71.242343, 42.380552], [-71.24234, 42.3806], [-71.242208, 42.38061], [-71.2408, 42.38072], [-71.24075, 42.3796], [-71.239484, 42.379343], [-71.23947, 42.37934], [-71.238385, 42.379505], [-71.2375, 42.37964], [-71.237502, 42.37961], [-71.23759, 42.37816], [-71.23721, 42.37801], [-71.23703, 42.37763], [-71.23702, 42.37683], [-71.23837, 42.37681], [-71.238468, 42.376161], [-71.23854, 42.37568], [-71.23744, 42.37558], [-71.23704, 42.37442], [-71.24208, 42.37337], [-71.24189, 42.3726], [-71.242746, 42.372073], [-71.24353, 42.37159], [-71.24403, 42.37207], [-71.24579, 42.37035], [-71.24627, 42.37181]]]]}}, {"type": "Feature", "properties": {"area_id": 11593, "city": "Waltham", "state": "MA", "city_survey": true, "cat": "Commercial", "grade": null, "label": "Commercial", "res": false, "com": true, "ind": false, "holc_grade": null}, "geometry": {"type": "Polygon", "coordinates": [[[-71.23727, 42.36671], [-71.23829, 42.36676], [-71.23732, 42.37173], [-71.23635, 42.37166], [-71.23641, 42.37046], [-71.23727, 42.36671]]]}}, {"type": "Feature", "properties": {"area_id": 11594, "city": "Waltham", "state": "MA", "city_survey": true, "cat": "Industrial", "grade": null, "label": "Industrial", "res": false, "com": false, "ind": true, "holc_grade": null}, "geometry": {"type": "MultiPolygon", "coordinates": [[[[-71.22086, 42.36849], [-71.222072, 42.368815], [-71.2228, 42.36901], [-71.222784, 42.369033], [-71.2219, 42.37032], [-71.22116, 42.37002], [-71.2191, 42.36937], [-71.21749, 42.36862], [-71.21895, 42.36764], [-71.2192, 42.36833], [-71.220297, 42.368436], [-71.220648, 42.36847], [-71.22086, 42.36849]]], [[[-71.23947, 42.37934], [-71.239484, 42.379343], [-71.24075, 42.3796], [-71.2408, 42.38072], [-71.242208, 42.38061], [-71.24234, 42.3806], [-71.24216, 42.38157], [-71.242132, 42.381569], [-71.24034, 42.38153], [-71.23886, 42.38201], [-71.2376, 42.38194], [-71.23759, 42.38299], [-71.23703, 42.38289], [-71.236861, 42.382937], [-71.23484, 42.3835], [-71.23273, 42.38203], [-71.23336, 42.38124], [-71.23522, 42.38086], [-71.23625, 42.38092], [-71.236291, 42.380914], [-71.23775, 42.38071], [-71.239395, 42.3794], [-71.23947, 42.37934]]], [[[-71.241653, 42.372363], [-71.24189, 42.3726], [-71.24208, 42.37337], [-71.23704, 42.37442], [-71.23659, 42.37454], [-71.23475, 42.37498], [-71.23455, 42.375], [-71.23438, 42.37447], [-71.2329, 42.37382], [-71.23358, 42.37271], [-71.234052, 42.37261], [-71.23514, 42.37238], [-71.235219, 42.372452], [-71.23642, 42.37355], [-71.236506, 42.37355], [-71.2379, 42.37355], [-71.23836, 42.37329], [-71.24142, 42.37213], [-71.241653, 42.372363]]], [[[-71.2433, 42.368707], [-71.24211, 42.36857], [-71.24286, 42.36756], [-71.243088, 42.366792], [-71.24371, 42.36469], [-71.24509, 42.36493], [-71.24429, 42.36777], [-71.24341, 42.36872], [-71.2433, 42.368707]]], [[[-71.25869, 42.36201], [-71.25676, 42.36266], [-71.25573, 42.36168], [-71.2555, 42.3609], [-71.25615, 42.35941], [-71.25731, 42.35874], [-71.25917, 42.35798], [-71.26091, 42.35846], [-71.26086, 42.36184], [-71.25869, 42.36201]]]]}}]}