{"type": "FeatureCollection", "features": [{"type": "Feature", "properties": {"area_id": 10252, "city": "Erwin", "state": "TN", "city_survey": false, "cat": "Best Residential", "grade": "", "label": "Best Residential", "res": true, "com": false, "ind": false, "fill": "#76a865", "GEOID10": "47171080200", "GISJOIN": "G4701710080200", "calc_area": 4054.07744, "pct_tract": 6e-05}, "geometry": {"type": "MultiPolygon", "coordinates": [[[[-82.41088, 36.13218], [-82.41118, 36.13247], [-82.41074, 36.1327], [-82.41067, 36.13317], [-82.41044, 36.13318], [-82.41034, 36.13304], [-82.41019, 36.13308], [-82.4101, 36.13298], [-82.41088, 36.13218]]]]}}, {"type": "Feature", "properties": {"area_id": 10252, "city": "Erwin", "state": "TN", "city_survey": false, "cat": "Best Residential", "grade": "", "label": "Best Residential", "res": true, "com": false, "ind": false, "fill": "#76a865", "GEOID10": "47171080400", "GISJOIN": "G4701710080400", "calc_area": 105523.76847, "pct_tract": 0.02209}, "geometry": {"type": "MultiPolygon", "coordinates": [[[[-82.41356, 36.13642], [-82.41482, 36.13699], [-82.41404, 36.13807], [-82.41353, 36.13876], [-82.41323, 36.13864], [-82.41328, 36.13768], [-82.41324, 36.13753], [-82.4131, 36.13702], [-82.41334, 36.13672], [-82.41356, 36.13642]]], [[[-82.41217, 36.14566], [-82.41281, 36.14607], [-82.41193, 36.14682], [-82.41138, 36.14637], [-82.41217, 36.14566]]], [[[-82.40703, 36.1503], [-82.40856, 36.14933], [-82.40821, 36.14901], [-82.40836, 36.14886], [-82.40937, 36.14826], [-82.41056, 36.14715], [-82.41015, 36.14669], [-82.41058, 36.14646], [-82.41137, 36.14734], [-82.41165, 36.14712], [-82.4128, 36.148], [-82.41236, 36.14841], [-82.41158, 36.14866], [-82.41136, 36.14863], [-82.41097, 36.14901], [-82.41059, 36.14876], [-82.40986, 36.14942], [-82.40933, 36.15], [-82.40901, 36.15038], [-82.40879, 36.15078], [-82.40825, 36.15069], [-82.40846, 36.15013], [-82.40832, 36.15011], [-82.40771, 36.15051], [-82.40703, 36.1503]]]]}}, {"type": "Feature", "properties": {"area_id": 10253, "city": "Erwin", "state": "TN", "city_survey": false, "cat": "Poor Residential", "grade": "", "label": "Poor Residential", "res": true, "com": false, "ind": false, "fill": "#d9838d", "GEOID10": "47171080200", "GISJOIN": "G4701710080200", "calc_area": 219848.11718, "pct_tract": 0.00338}, "geometry": {"type": "MultiPolygon", "coordinates": [[[[-82.40951, 36.1345], [-82.40908, 36.13567], [-82.40891, 36.13603], [-82.40877, 36.13646], [-82.40875, 36.13695], [-82.4089, 36.13727], [-82.40911, 36.13757], [-82.40872, 36.13781], [-82.4085, 36.13754], [-82.40834, 36.13722], [-82.40805, 36.13764], [-82.40792, 36.13757], [-82.40787, 36.13765], [-82.40719, 36.13858], [-82.4077, 36.13882], [-82.40757, 36.13904], [-82.40684, 36.1392], [-82.40521, 36.13844], [-82.40573, 36.13767], [-82.40507, 36.13771], [-82.40543, 36.13724], [-82.40596, 36.13669], [-82.40686, 36.13578], [-82.40706, 36.13591], [-82.40776, 36.13574], [-82.40771, 36.1354], [-82.409, 36.13419], [-82.4091, 36.13388], [-82.40963, 36.13393], [-82.40951, 36.1345]]], [[[-82.40823, 36.14047], [-82.40848, 36.14077], [-82.40866, 36.14051], [-82.40965, 36.14082], [-82.40959, 36.14088], [-82.40804, 36.14268], [-82.40558, 36.14532], [-82.40382, 36.14368], [-82.40492, 36.14251], [-82.40619, 36.14121], [-82.40653, 36.14149], [-82.40814, 36.14022], [-82.40823, 36.14047]]]]}}, {"type": "Feature", "properties": {"area_id": 10253, "city": "Erwin", "state": "TN", "city_survey": false, "cat": "Poor Residential", "grade": "", "label": "Poor Residential", "res": true, "com": false, "ind": false, "fill": "#d9838d", "GEOID10": "47171080400", "GISJOIN": "G4701710080400", "calc_area": 73708.98668, "pct_tract": 0.01543}, "geometry": {"type": "MultiPolygon", "coordinates": [[[[-82.4162, 36.1315], [-82.41777, 36.13153], [-82.41893, 36.13249], [-82.4189, 36.13298], [-82.41887, 36.13361], [-82.42027, 36.13367], [-82.42016, 36.13466], [-82.42007, 36.13471], [-82.4186, 36.13555], [-82.41863, 36.13514], [-82.41745, 36.1351], [-82.4177, 36.13247], [-82.41623, 36.13242], [-82.41623, 36.13236], [-82.41621, 36.1316], [-82.4162, 36.1315]]]]}}, {"type": "Feature", "properties": {"area_id": 10254, "city": "Erwin", "state": "TN", "city_survey": false, "cat": "Fair Residential", "grade": "", "label": "Fair Residential", "res": true, "com": false, "ind": false, "fill": "#ffff00", "GEOID10": "47171080200", "GISJOIN": "G4701710080200", "calc_area": 279181.96148, "pct_tract": 0.00429}, "geometry": {"type": "MultiPolygon", "coordinates": [[[[-82.4117, 36.13688], [-82.41163, 36.1375], [-82.41154, 36.13773], [-82.41137, 36.13821], [-82.41083, 36.13804], [-82.41067, 36.13842], [-82.4101, 36.13863], [-82.40907, 36.1382], [-82.40872, 36.13781], [-82.40911, 36.13757], [-82.4089, 36.13727], [-82.40875, 36.13695], [-82.40877, 36.13646], [-82.40891, 36.13603], [-82.40908, 36.13567], [-82.40951, 36.1345], [-82.40963, 36.13393], [-82.40971, 36.13337], [-82.4101, 36.13298], [-82.41019, 36.13308], [-82.41034, 36.13304], [-82.41044, 36.13318], [-82.41067, 36.13317], [-82.41074, 36.1327], [-82.41118, 36.13247], [-82.41088, 36.13218], [-82.41159, 36.1315], [-82.41193, 36.13157], [-82.41288, 36.13158], [-82.41341, 36.13133], [-82.413715, 36.131654], [-82.413551, 36.131744], [-82.413239, 36.131962], [-82.413173, 36.132018], [-82.412981, 36.132183], [-82.412834, 36.132339], [-82.412759, 36.132445], [-82.412659, 36.132591], [-82.412613, 36.132671], [-82.412565, 36.132781], [-82.412525, 36.132874], [-82.4125, 36.13284], [-82.41218, 36.13279], [-82.41193, 36.13282], [-82.4117, 36.13303], [-82.41166, 36.13338], [-82.41183, 36.13358], [-82.41198, 36.13363], [-82.41221, 36.13363], [-82.41241, 36.13355], [-82.41264, 36.13334], [-82.412662, 36.133139], [-82.412671, 36.133164], [-82.41267, 36.133186], [-82.41267, 36.13327], [-82.41267, 36.133288], [-82.412656, 36.133342], [-82.412645, 36.133387], [-82.412579, 36.133481], [-82.412528, 36.133518], [-82.412469, 36.133563], [-82.412423, 36.133597], [-82.412406, 36.133606], [-82.412377, 36.133623], [-82.412274, 36.133741], [-82.412225, 36.133799], [-82.412178, 36.134001], [-82.412163, 36.134068], [-82.41211, 36.134259], [-82.412109, 36.134266], [-82.411942, 36.134781], [-82.411911, 36.134918], [-82.411893, 36.135154], [-82.411863, 36.135551], [-82.41186, 36.135588], [-82.411858, 36.135604], [-82.411857, 36.135635], [-82.411849, 36.135764], [-82.411846, 36.135818], [-82.411838, 36.135927], [-82.411816, 36.136254], [-82.41181, 36.136364], [-82.411798, 36.136457], [-82.411767, 36.136716], [-82.411766, 36.136726], [-82.411764, 36.136739], [-82.411752, 36.136833], [-82.411747, 36.136869], [-82.411746, 36.136876], [-82.4117, 36.13688]]], [[[-82.40225, 36.14487], [-82.40382, 36.14368], [-82.40558, 36.14532], [-82.40804, 36.14268], [-82.40959, 36.14088], [-82.40965, 36.14082], [-82.40866, 36.14051], [-82.40848, 36.14077], [-82.40823, 36.14047], [-82.40814, 36.14022], [-82.40804, 36.13901], [-82.4077, 36.13882], [-82.40719, 36.13858], [-82.40787, 36.13765], [-82.40838, 36.1379], [-82.40805, 36.13834], [-82.41057, 36.13955], [-82.41065, 36.13942], [-82.41073, 36.139462], [-82.410424, 36.139884], [-82.410324, 36.140007], [-82.409889, 36.14056], [-82.409776, 36.140716], [-82.409729, 36.140781], [-82.409614, 36.140937], [-82.4092, 36.141405], [-82.40831, 36.142414], [-82.407745, 36.143078], [-82.407582, 36.143256], [-82.40703, 36.143861], [-82.406762, 36.14416], [-82.40596, 36.145059], [-82.405693, 36.145359], [-82.405557, 36.145494], [-82.405458, 36.145563], [-82.405377, 36.145621], [-82.405145, 36.145738], [-82.404913, 36.145836], [-82.404601, 36.145932], [-82.404464, 36.145975], [-82.4043, 36.146015], [-82.404096, 36.146059], [-82.403485, 36.146191], [-82.403282, 36.146236], [-82.403155, 36.146255], [-82.402905, 36.146295], [-82.402777, 36.14632], [-82.402687, 36.146338], [-82.402652, 36.146345], [-82.402558, 36.146304], [-82.402498, 36.146274], [-82.402115, 36.14608], [-82.402043, 36.146052], [-82.401886, 36.145991], [-82.401782, 36.145972], [-82.401422, 36.145966], [-82.400984, 36.145985], [-82.400904, 36.145998], [-82.40225, 36.14487]]]]}}, {"type": "Feature", "properties": {"area_id": 10254, "city": "Erwin", "state": "TN", "city_survey": false, "cat": "Fair Residential", "grade": "", "label": "Fair Residential", "res": true, "com": false, "ind": false, "fill": "#ffff00", "GEOID10": "47171080400", "GISJOIN": "G4701710080400", "calc_area": 986036.88523, "pct_tract": 0.20641}, "geometry": {"type": "MultiPolygon", "coordinates": [[[[-82.41621, 36.1316], [-82.41623, 36.13236], [-82.41579, 36.13235], [-82.4158, 36.1316], [-82.41621, 36.1316]]], [[[-82.41602, 36.13536], [-82.41602, 36.13489], [-82.41612, 36.13349], [-82.41623, 36.13242], [-82.4177, 36.13247], [-82.41745, 36.1351], [-82.41741, 36.13557], [-82.41661, 36.13543], [-82.4166, 36.13561], [-82.41593, 36.13593], [-82.41602, 36.13536]]], [[[-82.41373, 36.13167], [-82.41394, 36.13158], [-82.41482, 36.13132], [-82.41479, 36.13156], [-82.41527, 36.13156], [-82.41527, 36.1316], [-82.41527, 36.13238], [-82.41519, 36.13343], [-82.41485, 36.13339], [-82.4148, 36.1339], [-82.41457, 36.13395], [-82.41448, 36.13473], [-82.41455, 36.13485], [-82.41515, 36.13488], [-82.41514, 36.13534], [-82.41503, 36.13534], [-82.41501, 36.136], [-82.41467, 36.13653], [-82.41501, 36.1367], [-82.41482, 36.13699], [-82.41356, 36.13642], [-82.41334, 36.13672], [-82.4131, 36.13664], [-82.41298, 36.13678], [-82.411746, 36.136876], [-82.411747, 36.136869], [-82.411752, 36.136833], [-82.411764, 36.136739], [-82.411766, 36.136726], [-82.411767, 36.136716], [-82.411798, 36.136457], [-82.41181, 36.136364], [-82.411816, 36.136254], [-82.411838, 36.135927], [-82.411846, 36.135818], [-82.411849, 36.135764], [-82.411857, 36.135635], [-82.411858, 36.135604], [-82.41186, 36.135588], [-82.411863, 36.135551], [-82.411893, 36.135154], [-82.411911, 36.134918], [-82.411942, 36.134781], [-82.412109, 36.134266], [-82.41211, 36.134259], [-82.412163, 36.134068], [-82.412178, 36.134001], [-82.412225, 36.133799], [-82.412274, 36.133741], [-82.412377, 36.133623], [-82.412406, 36.133606], [-82.412423, 36.133597], [-82.412469, 36.133563], [-82.412528, 36.133518], [-82.412579, 36.133481], [-82.412645, 36.133387], [-82.412656, 36.133342], [-82.41267, 36.133288], [-82.41267, 36.13327], [-82.41267, 36.133186], [-82.412671, 36.133164], [-82.412662, 36.133139], [-82.41267, 36.13307], [-82.412525, 36.132874], [-82.412565, 36.132781], [-82.412613, 36.132671], [-82.412659, 36.132591], [-82.412759, 36.132445], [-82.412834, 36.132339], [-82.412981, 36.132183], [-82.413173, 36.132018], [-82.413239, 36.131962], [-82.413551, 36.131744], [-82.413715, 36.131654], [-82.41373, 36.13167]]], [[[-82.42135, 36.13965], [-82.41947, 36.14098], [-82.41917, 36.14073], [-82.42108, 36.13939], [-82.4198, 36.13817], [-82.41802, 36.13973], [-82.41796, 36.13965], [-82.41765, 36.13993], [-82.41725, 36.1396], [-82.41662, 36.14008], [-82.41585, 36.13939], [-82.41611, 36.13902], [-82.41689, 36.1379], [-82.41731, 36.13707], [-82.41734, 36.13701], [-82.41757, 36.13653], [-82.41797, 36.13597], [-82.4186, 36.13555], [-82.41907, 36.13603], [-82.42051, 36.13518], [-82.42007, 36.13471], [-82.42016, 36.13466], [-82.42081, 36.13425], [-82.42464, 36.13785], [-82.42366, 36.13863], [-82.4228, 36.13928], [-82.4217, 36.13998], [-82.42135, 36.13965]]], [[[-82.41262, 36.13887], [-82.41312, 36.13893], [-82.41323, 36.13864], [-82.41353, 36.13876], [-82.41404, 36.13807], [-82.41493, 36.13845], [-82.41392, 36.13987], [-82.41446, 36.14011], [-82.41499, 36.14046], [-82.41403, 36.14145], [-82.41361, 36.14188], [-82.41419, 36.14234], [-82.41382, 36.1424], [-82.41367, 36.14229], [-82.41258, 36.14183], [-82.41286, 36.14144], [-82.4134, 36.14168], [-82.4137, 36.14119], [-82.41216, 36.14055], [-82.41269, 36.13986], [-82.41221, 36.13965], [-82.4125, 36.13926], [-82.41252, 36.1392], [-82.41262, 36.13887]]], [[[-82.42217, 36.14044], [-82.4204, 36.14193], [-82.42019, 36.14173], [-82.41957, 36.14228], [-82.41888, 36.14285], [-82.41865, 36.1426], [-82.41937, 36.14205], [-82.41995, 36.14151], [-82.42029, 36.14101], [-82.4217, 36.13998], [-82.42217, 36.14044]]], [[[-82.41814, 36.14308], [-82.41724, 36.14228], [-82.41749, 36.14203], [-82.4184, 36.14282], [-82.41814, 36.14308]]], [[[-82.42105, 36.14296], [-82.42059, 36.14327], [-82.42006, 36.14372], [-82.41959, 36.14424], [-82.41917, 36.14391], [-82.4196, 36.14339], [-82.42024, 36.14287], [-82.42071, 36.14247], [-82.42105, 36.14296]]], [[[-82.41163, 36.13994], [-82.41084, 36.14103], [-82.41154, 36.14125], [-82.41249, 36.14199], [-82.41207, 36.14236], [-82.41267, 36.14285], [-82.4131, 36.14254], [-82.4135, 36.14288], [-82.41253, 36.14363], [-82.41244, 36.14356], [-82.41107, 36.14476], [-82.4102, 36.14547], [-82.41064, 36.14586], [-82.41138, 36.14637], [-82.41193, 36.14682], [-82.41165, 36.14712], [-82.41137, 36.14734], [-82.41058, 36.14646], [-82.41015, 36.14669], [-82.40968, 36.14694], [-82.40896, 36.14579], [-82.40863, 36.14539], [-82.40852, 36.14544], [-82.40795, 36.14565], [-82.40816, 36.14606], [-82.40535, 36.14706], [-82.40296, 36.14644], [-82.40275, 36.14648], [-82.40187, 36.14719], [-82.40083, 36.14606], [-82.400904, 36.145998], [-82.400984, 36.145985], [-82.401422, 36.145966], [-82.401782, 36.145972], [-82.401886, 36.145991], [-82.402043, 36.146052], [-82.402115, 36.14608], [-82.402498, 36.146274], [-82.402558, 36.146304], [-82.402652, 36.146345], [-82.402687, 36.146338], [-82.402777, 36.14632], [-82.402905, 36.146295], [-82.403155, 36.146255], [-82.403282, 36.146236], [-82.403485, 36.146191], [-82.404096, 36.146059], [-82.4043, 36.146015], [-82.404464, 36.145975], [-82.404601, 36.145932], [-82.404913, 36.145836], [-82.405145, 36.145738], [-82.405377, 36.145621], [-82.405458, 36.145563], [-82.405557, 36.145494], [-82.405693, 36.145359], [-82.40596, 36.145059], [-82.406762, 36.14416], [-82.40703, 36.143861], [-82.407582, 36.143256], [-82.407745, 36.143078], [-82.40831, 36.142414], [-82.4092, 36.141405], [-82.409614, 36.140937], [-82.409729, 36.140781], [-82.409776, 36.140716], [-82.409889, 36.14056], [-82.410324, 36.140007], [-82.410424, 36.139884], [-82.41073, 36.139462], [-82.41163, 36.13994]]], [[[-82.40541, 36.15064], [-82.40541, 36.15077], [-82.40447, 36.15093], [-82.40421, 36.14998], [-82.40444, 36.14981], [-82.40541, 36.15064]]], [[[-82.40565, 36.15164], [-82.40633, 36.15168], [-82.40629, 36.15121], [-82.40603, 36.15125], [-82.40588, 36.15071], [-82.40641, 36.15062], [-82.40596, 36.15024], [-82.40821, 36.14901], [-82.40856, 36.14933], [-82.40703, 36.1503], [-82.40771, 36.15051], [-82.40738, 36.15079], [-82.4075, 36.15177], [-82.40729, 36.15201], [-82.40799, 36.15242], [-82.40821, 36.15218], [-82.40873, 36.15164], [-82.40868, 36.1515], [-82.40868, 36.15119], [-82.40879, 36.15078], [-82.40901, 36.15038], [-82.40933, 36.15], [-82.40986, 36.14942], [-82.41059, 36.14876], [-82.41097, 36.14901], [-82.41136, 36.14863], [-82.41158, 36.14866], [-82.41236, 36.14841], [-82.4128, 36.148], [-82.4131, 36.14824], [-82.41264, 36.14867], [-82.41181, 36.14967], [-82.41119, 36.1503], [-82.40928, 36.15261], [-82.40838, 36.15362], [-82.40741, 36.15301], [-82.40565, 36.1519], [-82.40565, 36.15164]]]]}}, {"type": "Feature", "properties": {"area_id": 10255, "city": "Erwin", "state": "TN", "city_survey": false, "cat": "Better Residential", "grade": "", "label": "Better Residential", "res": true, "com": false, "ind": false, "fill": "#7cb5bd", "GEOID10": "47171080200", "GISJOIN": "G4701710080200", "calc_area": 16400.97992, "pct_tract": 0.00025}, "geometry": {"type": "MultiPolygon", "coordinates": [[[[-82.41154, 36.13773], [-82.41163, 36.1375], [-82.4117, 36.13688], [-82.411746, 36.136876], [-82.411732, 36.136979], [-82.411728, 36.137016], [-82.411706, 36.137155], [-82.411686, 36.137261], [-82.411633, 36.137554], [-82.411576, 36.137738], [-82.41154, 36.13773]]], [[[-82.40907, 36.1382], [-82.4101, 36.13863], [-82.41071, 36.13902], [-82.41078, 36.13923], [-82.41065, 36.13942], [-82.41057, 36.13955], [-82.40805, 36.13834], [-82.40838, 36.1379], [-82.40907, 36.1382]]], [[[-82.41111, 36.1388], [-82.41137, 36.13821], [-82.411404, 36.138221], [-82.411334, 36.138387], [-82.411247, 36.1386], [-82.411124, 36.138852], [-82.41111, 36.1388]]]]}}, {"type": "Feature", "properties": {"area_id": 10255, "city": "Erwin", "state": "TN", "city_survey": false, "cat": "Better Residential", "grade": "", "label": "Better Residential", "res": true, "com": false, "ind": false, "fill": "#7cb5bd", "GEOID10": "47171080400", "GISJOIN": "G4701710080400", "calc_area": 750187.48765, "pct_tract": 0.15704}, "geometry": {"type": "MultiPolygon", "coordinates": [[[[-82.4158, 36.1316], [-82.41579, 36.13235], [-82.41623, 36.13236], [-82.41623, 36.13242], [-82.41612, 36.13349], [-82.41602, 36.13489], [-82.41602, 36.13536], [-82.41593, 36.13593], [-82.41583, 36.13692], [-82.41545, 36.13691], [-82.41501, 36.1367], [-82.41467, 36.13653], [-82.41501, 36.136], [-82.41503, 36.13534], [-82.41514, 36.13534], [-82.41515, 36.13488], [-82.41455, 36.13485], [-82.41448, 36.13473], [-82.41457, 36.13395], [-82.4148, 36.1339], [-82.41485, 36.13339], [-82.41519, 36.13343], [-82.41527, 36.13238], [-82.41527, 36.1316], [-82.4158, 36.1316]]], [[[-82.41298, 36.13678], [-82.4131, 36.13664], [-82.41334, 36.13672], [-82.4131, 36.13702], [-82.41324, 36.13753], [-82.41275, 36.13762], [-82.41278, 36.13799], [-82.411576, 36.137738], [-82.411633, 36.137554], [-82.411686, 36.137261], [-82.411706, 36.137155], [-82.411728, 36.137016], [-82.411732, 36.136979], [-82.411746, 36.136876], [-82.41298, 36.13678]]], [[[-82.41403, 36.14145], [-82.41499, 36.14046], [-82.41446, 36.14011], [-82.41392, 36.13987], [-82.41493, 36.13845], [-82.41551, 36.1377], [-82.41602, 36.13694], [-82.41734, 36.13701], [-82.41731, 36.13707], [-82.41689, 36.1379], [-82.41611, 36.13902], [-82.41585, 36.13939], [-82.41662, 36.14008], [-82.41725, 36.1396], [-82.41765, 36.13993], [-82.41796, 36.13965], [-82.41802, 36.13973], [-82.4198, 36.13817], [-82.42108, 36.13939], [-82.41917, 36.14073], [-82.41947, 36.14098], [-82.42135, 36.13965], [-82.4217, 36.13998], [-82.42029, 36.14101], [-82.41995, 36.14151], [-82.41937, 36.14205], [-82.41865, 36.1426], [-82.4184, 36.14282], [-82.41749, 36.14203], [-82.41724, 36.14228], [-82.41814, 36.14308], [-82.41822, 36.14313], [-82.41771, 36.14357], [-82.41704, 36.14406], [-82.41653, 36.14359], [-82.41618, 36.14336], [-82.41569, 36.14298], [-82.41528, 36.14273], [-82.41557, 36.14252], [-82.41513, 36.14216], [-82.41505, 36.14224], [-82.41403, 36.14145]]], [[[-82.41187, 36.13837], [-82.4117, 36.13879], [-82.41174, 36.13888], [-82.41252, 36.1392], [-82.4125, 36.13926], [-82.41221, 36.13965], [-82.41269, 36.13986], [-82.41216, 36.14055], [-82.4137, 36.14119], [-82.4134, 36.14168], [-82.41286, 36.14144], [-82.41258, 36.14183], [-82.41367, 36.14229], [-82.41382, 36.1424], [-82.41419, 36.14234], [-82.41458, 36.14264], [-82.41585, 36.14365], [-82.41393, 36.14518], [-82.41433, 36.14551], [-82.41454, 36.14534], [-82.41525, 36.1459], [-82.41485, 36.14619], [-82.41445, 36.14654], [-82.41445, 36.14655], [-82.41364, 36.14729], [-82.4128, 36.148], [-82.41165, 36.14712], [-82.41193, 36.14682], [-82.41281, 36.14607], [-82.41217, 36.14566], [-82.41138, 36.14637], [-82.41064, 36.14586], [-82.4102, 36.14547], [-82.41107, 36.14476], [-82.41244, 36.14356], [-82.41253, 36.14363], [-82.4135, 36.14288], [-82.4131, 36.14254], [-82.41249, 36.14199], [-82.41154, 36.14125], [-82.41084, 36.14103], [-82.41163, 36.13994], [-82.4119, 36.13951], [-82.41122, 36.1392], [-82.411124, 36.138852], [-82.411247, 36.1386], [-82.411334, 36.138387], [-82.411404, 36.138221], [-82.41187, 36.13837]]], [[[-82.40455, 36.15123], [-82.40447, 36.15093], [-82.40541, 36.15077], [-82.40541, 36.15064], [-82.40444, 36.14981], [-82.40187, 36.14719], [-82.40275, 36.14648], [-82.40296, 36.14644], [-82.40535, 36.14706], [-82.40816, 36.14606], [-82.40795, 36.14565], [-82.40852, 36.14544], [-82.40863, 36.14539], [-82.40896, 36.14579], [-82.40968, 36.14694], [-82.41015, 36.14669], [-82.41056, 36.14715], [-82.40937, 36.14826], [-82.40836, 36.14886], [-82.40821, 36.14901], [-82.40596, 36.15024], [-82.40641, 36.15062], [-82.40588, 36.15071], [-82.40603, 36.15125], [-82.40629, 36.15121], [-82.40633, 36.15168], [-82.40565, 36.15164], [-82.40565, 36.1519], [-82.40455, 36.15123]]], [[[-82.40832, 36.15011], [-82.40846, 36.15013], [-82.40825, 36.15069], [-82.40879, 36.15078], [-82.40868, 36.15119], [-82.40868, 36.1515], [-82.40873, 36.15164], [-82.40821, 36.15218], [-82.40799, 36.15242], [-82.40729, 36.15201], [-82.4075, 36.15177], [-82.40738, 36.15079], [-82.40771, 36.15051], [-82.40832, 36.15011]]]]}}, {"type": "Feature", "properties": {"area_id": 10256, "city": "Erwin", "state": "TN", "city_survey": false, "cat": "Industrial", "grade": "", "label": "Industrial", "res": false, "com": false, "ind": true, "fill": "#000000", "GEOID10": "47171080400", "GISJOIN": "G4701710080400", "calc_area": 31352.8391, "pct_tract": 0.00656}, "geometry": {"type": "MultiPolygon", "coordinates": [[[[-82.42236, 36.13334], [-82.42447, 36.13347], [-82.42217, 36.13471], [-82.42181, 36.13479], [-82.42115, 36.13405], [-82.42236, 36.13334]]], [[[-82.41505, 36.14224], [-82.41458, 36.14264], [-82.41419, 36.14234], [-82.41361, 36.14188], [-82.41403, 36.14145], [-82.41505, 36.14224]]]]}}, {"type": "Feature", "properties": {"area_id": 10257, "city": "Erwin", "state": "TN", "city_survey": false, "cat": "Business Section", "grade": "", "label": "Business Section", "res": false, "com": true, "ind": false, "fill": "#B87333", "GEOID10": "47171080200", "GISJOIN": "G4701710080200", "calc_area": 3274.64864, "pct_tract": 5e-05}, "geometry": {"type": "MultiPolygon", "coordinates": [[[[-82.41137, 36.13821], [-82.41154, 36.13773], [-82.411576, 36.137738], [-82.411537, 36.137863], [-82.411493, 36.13798], [-82.411407, 36.138214], [-82.411404, 36.138221], [-82.41137, 36.13821]]], [[[-82.410485, 36.152388], [-82.410795, 36.151727], [-82.411326, 36.150933], [-82.411549, 36.150708], [-82.410485, 36.152388]]], [[[-82.4146, 36.14793], [-82.412024, 36.150228], [-82.413147, 36.149095], [-82.41338, 36.148905], [-82.414567, 36.147946], [-82.414925, 36.147653], [-82.414998, 36.147595], [-82.415141, 36.147513], [-82.4146, 36.14793]]]]}}, {"type": "Feature", "properties": {"area_id": 10257, "city": "Erwin", "state": "TN", "city_survey": false, "cat": "Business Section", "grade": "", "label": "Business Section", "res": false, "com": true, "ind": false, "fill": "#B87333", "GEOID10": "47171080400", "GISJOIN": "G4701710080400", "calc_area": 251514.05967, "pct_tract": 0.05265}, "geometry": {"type": "MultiPolygon", "coordinates": [[[[-82.42107, 36.13307], [-82.42098, 36.13371], [-82.42027, 36.13367], [-82.41887, 36.13361], [-82.4189, 36.13298], [-82.42107, 36.13307]]], [[[-82.42007, 36.13471], [-82.42051, 36.13518], [-82.41907, 36.13603], [-82.4186, 36.13555], [-82.42007, 36.13471]]], [[[-82.41278, 36.13799], [-82.41275, 36.13762], [-82.41324, 36.13753], [-82.41328, 36.13768], [-82.41323, 36.13864], [-82.41312, 36.13893], [-82.41262, 36.13887], [-82.41252, 36.1392], [-82.41174, 36.13888], [-82.4117, 36.13879], [-82.41187, 36.13837], [-82.411404, 36.138221], [-82.411407, 36.138214], [-82.411493, 36.13798], [-82.411537, 36.137863], [-82.411576, 36.137738], [-82.41278, 36.13799]]], [[[-82.40954, 36.15388], [-82.40927, 36.15419], [-82.40838, 36.15362], [-82.40928, 36.15261], [-82.41119, 36.1503], [-82.41181, 36.14967], [-82.41264, 36.14867], [-82.4131, 36.14824], [-82.4128, 36.148], [-82.41364, 36.14729], [-82.41445, 36.14655], [-82.41445, 36.14654], [-82.41485, 36.14619], [-82.41525, 36.1459], [-82.41454, 36.14534], [-82.41433, 36.14551], [-82.41393, 36.14518], [-82.41585, 36.14365], [-82.41618, 36.14336], [-82.41653, 36.14359], [-82.41704, 36.14406], [-82.41771, 36.14357], [-82.41822, 36.14313], [-82.41814, 36.14308], [-82.4184, 36.14282], [-82.41865, 36.1426], [-82.41888, 36.14285], [-82.41957, 36.14228], [-82.42019, 36.14173], [-82.4204, 36.14193], [-82.42084, 36.14236], [-82.42071, 36.14247], [-82.42024, 36.14287], [-82.4196, 36.14339], [-82.41917, 36.14391], [-82.41959, 36.14424], [-82.41872, 36.14494], [-82.41798, 36.1454], [-82.41737, 36.14586], [-82.41701, 36.14618], [-82.41625, 36.14659], [-82.41645, 36.14676], [-82.41565, 36.14712], [-82.415141, 36.147513], [-82.414998, 36.147595], [-82.414925, 36.147653], [-82.414567, 36.147946], [-82.41338, 36.148905], [-82.413147, 36.149095], [-82.412024, 36.150228], [-82.41163, 36.15058], [-82.411549, 36.150708], [-82.411326, 36.150933], [-82.410795, 36.151727], [-82.410485, 36.152388], [-82.40954, 36.15388]]]]}}]}