{"type": "FeatureCollection", "features": [{"type": "Feature", "geometry": {"type": "Point", "coordinates": [-82.413889, 36.149167]}, "properties": {"facility_name": "PREMIER REFRACTORIES INC", "industry": null, "tri_facility_id": "37650CRFRCJONES"}}, {"type": "Feature", "geometry": {"type": "Point", "coordinates": [-82.420833, 36.146944]}, "properties": {"facility_name": "HOOVER PRECISION PRODUCTS INC", "industry": null, "tri_facility_id": "37650HVRGRPOBOX"}}, {"type": "Feature", "geometry": {"type": "Point", "coordinates": [-82.4673, 36.099]}, "properties": {"facility_name": "IMAGES PRODS CORP", "industry": null, "tri_facility_id": "37650MGSFBPOBOX"}}, {"type": "Feature", "geometry": {"type": "Point", "coordinates": [-82.4673, 36.099]}, "properties": {"facility_name": "MORRILL MOTORS INC", "industry": null, "tri_facility_id": "37650MRRLLPOBOX"}}, {"type": "Feature", "geometry": {"type": "Point", "coordinates": [-82.4673, 36.099]}, "properties": {"facility_name": "REGAL BELOIT OF AMERICA INC", "industry": null, "tri_facility_id": "37650MRRLLRTE2B"}}, {"type": "Feature", "geometry": {"type": "Point", "coordinates": [-82.432778, 36.130833]}, "properties": {"facility_name": "NUCLEAR FUEL SERVICES INC", "industry": null, "tri_facility_id": "37650NCLRF205BA"}}, {"type": "Feature", "geometry": {"type": "Point", "coordinates": [-82.432778, 36.130556]}, "properties": {"facility_name": "TN TENNESSEE LLC - ERWIN", "industry": null, "tri_facility_id": "37650NNBLL800TE"}}, {"type": "Feature", "geometry": {"type": "Point", "coordinates": [-82.441944, 36.127222]}, "properties": {"facility_name": "NRF INC", "industry": null, "tri_facility_id": "37650NRFNC1010R"}}, {"type": "Feature", "geometry": {"type": "Point", "coordinates": [-82.36222222222221, 36.18805555555555]}, "properties": {"facility_name": "SPECIALTY TIRES OF AMERICA (TN) LLC", "industry": null, "tri_facility_id": "37692SPCLT1000D"}}]}