{"type": "FeatureCollection", "features": [{"type": "Feature", "properties": {"area_id": 4224, "city": "Lexington", "state": "KY", "city_survey": true, "cat": "Best", "grade": "A", "label": "A1", "res": true, "com": false, "ind": false, "holc_grade": "A"}, "geometry": {"type": "Polygon", "coordinates": [[[-84.52164, 38.01757], [-84.515225, 38.015422], [-84.51522, 38.01542], [-84.515218, 38.01544], [-84.51516, 38.01617], [-84.514831, 38.017002], [-84.51427, 38.01842], [-84.51944, 38.02036], [-84.51879, 38.02155], [-84.513765, 38.019623], [-84.51368, 38.01959], [-84.51386, 38.01914], [-84.51133, 38.01811], [-84.5121, 38.01456], [-84.5121, 38.01383], [-84.51136, 38.01357], [-84.51202, 38.01247], [-84.5124, 38.01135], [-84.51612, 38.01247], [-84.516242, 38.012536], [-84.51965, 38.01439], [-84.52227, 38.01566], [-84.52164, 38.01757]]]}}, {"type": "Feature", "properties": {"area_id": 4208, "city": "Lexington", "state": "KY", "city_survey": true, "cat": "Best", "grade": "A", "label": "A2", "res": true, "com": false, "ind": false, "holc_grade": "A"}, "geometry": {"type": "Polygon", "coordinates": [[[-84.49823, 38.02086], [-84.496506, 38.023468], [-84.49628, 38.02381], [-84.49376, 38.02247], [-84.492622, 38.021989], [-84.49215, 38.02179], [-84.492386, 38.02146], [-84.494, 38.01921], [-84.49445, 38.019386], [-84.49823, 38.02086]]]}}, {"type": "Feature", "properties": {"area_id": 4212, "city": "Lexington", "state": "KY", "city_survey": true, "cat": "Best", "grade": "A", "label": "A3", "res": true, "com": false, "ind": false, "holc_grade": "A"}, "geometry": {"type": "Polygon", "coordinates": [[[-84.4829, 38.03293], [-84.48234, 38.03304], [-84.481978, 38.033192], [-84.48177, 38.03328], [-84.48156, 38.03356], [-84.47662, 38.02922], [-84.47708, 38.02894], [-84.477083, 38.028869], [-84.47712, 38.02786], [-84.47693, 38.02722], [-84.47679, 38.02659], [-84.4777, 38.02659], [-84.47812, 38.02577], [-84.47835, 38.02537], [-84.48064, 38.02176], [-84.48112, 38.02132], [-84.48207, 38.02031], [-84.4837, 38.02116], [-84.49163, 38.02291], [-84.49101, 38.02415], [-84.49095, 38.02467], [-84.49095, 38.0253], [-84.49039, 38.02773], [-84.490161, 38.028854], [-84.48985, 38.03038], [-84.489742, 38.030456], [-84.48429, 38.03427], [-84.4829, 38.03293]]]}}, {"type": "Feature", "properties": {"area_id": 4209, "city": "Lexington", "state": "KY", "city_survey": true, "cat": "Best", "grade": "A", "label": "A4", "res": true, "com": false, "ind": false, "holc_grade": "A"}, "geometry": {"type": "Polygon", "coordinates": [[[-84.47613, 38.02599], [-84.47679, 38.02659], [-84.47693, 38.02722], [-84.47712, 38.02786], [-84.477083, 38.028869], [-84.47708, 38.02894], [-84.47662, 38.02922], [-84.4747, 38.03037], [-84.47345, 38.0312], [-84.47223, 38.03202], [-84.46733, 38.03576], [-84.467308, 38.03576], [-84.46657, 38.03576], [-84.46543, 38.03482], [-84.465672, 38.034652], [-84.47185, 38.03037], [-84.47099, 38.02969], [-84.46985, 38.02887], [-84.473723, 38.025985], [-84.47432, 38.02554], [-84.475245, 38.02577], [-84.47613, 38.02599]]]}}, {"type": "Feature", "properties": {"area_id": 4223, "city": "Lexington", "state": "KY", "city_survey": true, "cat": "Still Desirable", "grade": "B", "label": "B1", "res": true, "com": false, "ind": false, "holc_grade": "B"}, "geometry": {"type": "Polygon", "coordinates": [[[-84.52164, 38.01757], [-84.52182, 38.01839], [-84.52298, 38.01926], [-84.524605, 38.019898], [-84.52637, 38.02059], [-84.527833, 38.021893], [-84.52948, 38.02336], [-84.52773, 38.02455], [-84.52595, 38.02282], [-84.52553, 38.02165], [-84.5212, 38.01999], [-84.52001, 38.02198], [-84.51941, 38.02221], [-84.515624, 38.029212], [-84.51516, 38.03007], [-84.51454, 38.03131], [-84.51368, 38.0326], [-84.51276, 38.03197], [-84.50959, 38.031194], [-84.50941, 38.03115], [-84.510476, 38.028063], [-84.5124, 38.02249], [-84.5097, 38.02111], [-84.51109, 38.01872], [-84.51133, 38.01811], [-84.51386, 38.01914], [-84.51368, 38.01959], [-84.513765, 38.019623], [-84.51879, 38.02155], [-84.51944, 38.02036], [-84.51427, 38.01842], [-84.514831, 38.017002], [-84.51516, 38.01617], [-84.515218, 38.01544], [-84.51522, 38.01542], [-84.515225, 38.015422], [-84.52164, 38.01757]]]}}, {"type": "Feature", "properties": {"area_id": 4215, "city": "Lexington", "state": "KY", "city_survey": true, "cat": "Still Desirable", "grade": "B", "label": "B2", "res": true, "com": false, "ind": false, "holc_grade": "B"}, "geometry": {"type": "Polygon", "coordinates": [[[-84.49568, 38.04058], [-84.49464, 38.03967], [-84.49597, 38.03873], [-84.49404, 38.037], [-84.49829, 38.03405], [-84.50098, 38.03632], [-84.4971, 38.03913], [-84.49847, 38.04049], [-84.498182, 38.04067], [-84.496, 38.04203], [-84.49585, 38.0419], [-84.49501, 38.041177], [-84.49492, 38.0411], [-84.49568, 38.04058]]]}}, {"type": "Feature", "properties": {"area_id": 4213, "city": "Lexington", "state": "KY", "city_survey": true, "cat": "Still Desirable", "grade": "B", "label": "B3", "res": true, "com": false, "ind": false, "holc_grade": "B"}, "geometry": {"type": "Polygon", "coordinates": [[[-84.49095, 38.02467], [-84.491167, 38.024775], [-84.49609, 38.02717], [-84.49648, 38.02747], [-84.496583, 38.027961], [-84.49698, 38.02986], [-84.49951, 38.03056], [-84.498058, 38.031564], [-84.49802, 38.03159], [-84.49559, 38.03337], [-84.49496, 38.03368], [-84.49446, 38.03351], [-84.49395, 38.03326], [-84.49354, 38.03328], [-84.49303, 38.03335], [-84.4927, 38.03351], [-84.49235, 38.03342], [-84.49158, 38.03337], [-84.491217, 38.033456], [-84.49116, 38.03347], [-84.49009, 38.03314], [-84.48817, 38.03446], [-84.48602, 38.03594], [-84.48429, 38.03427], [-84.489742, 38.030456], [-84.48985, 38.03038], [-84.490161, 38.028854], [-84.49039, 38.02773], [-84.49095, 38.0253], [-84.49095, 38.02467]]]}}, {"type": "Feature", "properties": {"area_id": 4211, "city": "Lexington", "state": "KY", "city_survey": true, "cat": "Still Desirable", "grade": "B", "label": "B4", "res": true, "com": false, "ind": false, "holc_grade": "B"}, "geometry": {"type": "Polygon", "coordinates": [[[-84.48629, 38.04086], [-84.48522, 38.04114], [-84.484, 38.04112], [-84.48221, 38.03943], [-84.4833, 38.03864], [-84.47931, 38.03486], [-84.47765, 38.03419], [-84.47674, 38.03415], [-84.47345, 38.0312], [-84.4747, 38.03037], [-84.47662, 38.02922], [-84.48156, 38.03356], [-84.48177, 38.03328], [-84.481978, 38.033192], [-84.48234, 38.03304], [-84.4829, 38.03293], [-84.48429, 38.03427], [-84.48602, 38.03594], [-84.48911, 38.03892], [-84.488822, 38.039114], [-84.4884, 38.0394], [-84.48629, 38.04086]]]}}, {"type": "Feature", "properties": {"area_id": 4231, "city": "Lexington", "state": "KY", "city_survey": true, "cat": "Still Desirable", "grade": "B", "label": "B5", "res": true, "com": false, "ind": false, "holc_grade": "B"}, "geometry": {"type": "Polygon", "coordinates": [[[-84.47329, 38.05202], [-84.47386, 38.05174], [-84.4741, 38.05139], [-84.47432, 38.051572], [-84.47704, 38.05382], [-84.47793, 38.05483], [-84.47864, 38.05548], [-84.47829, 38.05611], [-84.47823, 38.05667], [-84.48013, 38.0581], [-84.47891, 38.05908], [-84.478941, 38.059117], [-84.47992, 38.06028], [-84.48161, 38.06189], [-84.48069, 38.06259], [-84.47894, 38.06372], [-84.47751, 38.06472], [-84.47662, 38.06503], [-84.47555, 38.06423], [-84.47526, 38.06381], [-84.47413, 38.06322], [-84.473506, 38.062908], [-84.47335, 38.06283], [-84.47335, 38.06264], [-84.4738, 38.0621], [-84.4749, 38.06161], [-84.47552, 38.06103], [-84.47609, 38.06079], [-84.47748, 38.05969], [-84.47567, 38.05829], [-84.47401, 38.05653], [-84.47734, 38.05572], [-84.47647, 38.05483], [-84.47552, 38.05373], [-84.4743, 38.05288], [-84.47294, 38.05377], [-84.472082, 38.053014], [-84.47193, 38.05288], [-84.47329, 38.05202]]]}}, {"type": "Feature", "properties": {"area_id": 4233, "city": "Lexington", "state": "KY", "city_survey": true, "cat": "Definitely Declining", "grade": "C", "label": "C1", "res": true, "com": false, "ind": false, "holc_grade": "C"}, "geometry": {"type": "Polygon", "coordinates": [[[-84.51609, 38.0606], [-84.5159, 38.0591], [-84.51645, 38.05621], [-84.51957, 38.05796], [-84.52234, 38.05934], [-84.52107, 38.06076], [-84.519189, 38.062714], [-84.51902, 38.06289], [-84.5163, 38.06103], [-84.516308, 38.060983], [-84.51632, 38.06091], [-84.51609, 38.0606]]]}}, {"type": "Feature", "properties": {"area_id": 4226, "city": "Lexington", "state": "KY", "city_survey": true, "cat": "Definitely Declining", "grade": "C", "label": "C10", "res": true, "com": false, "ind": false, "holc_grade": "C"}, "geometry": {"type": "Polygon", "coordinates": [[[-84.47704, 38.04923], [-84.47338, 38.04643], [-84.47404, 38.04453], [-84.47481, 38.04397], [-84.47647, 38.04355], [-84.47832, 38.04332], [-84.47962, 38.04341], [-84.48023, 38.04346], [-84.48025, 38.04367], [-84.48363, 38.04568], [-84.48161, 38.04722], [-84.481998, 38.047659], [-84.48221, 38.0479], [-84.48262, 38.04858], [-84.48343, 38.04914], [-84.48402, 38.04914], [-84.48464, 38.04907], [-84.48551, 38.04926], [-84.48601, 38.0494], [-84.48643, 38.04937], [-84.48756, 38.04849], [-84.48782, 38.04849], [-84.49041, 38.05078], [-84.48672, 38.05321], [-84.48688, 38.053536], [-84.48702, 38.05382], [-84.4847, 38.05546], [-84.48446, 38.055229], [-84.47959, 38.05054], [-84.477928, 38.049308], [-84.47754, 38.04902], [-84.47704, 38.04923]]]}}, {"type": "Feature", "properties": {"area_id": 4230, "city": "Lexington", "state": "KY", "city_survey": true, "cat": "Definitely Declining", "grade": "C", "label": "C11", "res": true, "com": false, "ind": false, "holc_grade": "C"}, "geometry": {"type": "Polygon", "coordinates": [[[-84.47704, 38.04923], [-84.47546, 38.05015], [-84.47502, 38.05076], [-84.47505, 38.05099], [-84.4754, 38.05118], [-84.475496, 38.05119], [-84.47579, 38.05122], [-84.47754, 38.05274], [-84.47959, 38.05469], [-84.48087, 38.05576], [-84.48194, 38.05688], [-84.481506, 38.057257], [-84.48126, 38.05747], [-84.481272, 38.057481], [-84.48221, 38.05836], [-84.48402, 38.0599], [-84.4834, 38.06046], [-84.48161, 38.06189], [-84.47992, 38.06028], [-84.478941, 38.059117], [-84.47891, 38.05908], [-84.48013, 38.0581], [-84.47823, 38.05667], [-84.47829, 38.05611], [-84.47864, 38.05548], [-84.47793, 38.05483], [-84.47704, 38.05382], [-84.47432, 38.051572], [-84.4741, 38.05139], [-84.47386, 38.05174], [-84.47332, 38.05146], [-84.47279, 38.05087], [-84.47217, 38.05005], [-84.472356, 38.049606], [-84.47261, 38.049], [-84.47338, 38.04643], [-84.47704, 38.04923]]]}}, {"type": "Feature", "properties": {"area_id": 4234, "city": "Lexington", "state": "KY", "city_survey": true, "cat": "Definitely Declining", "grade": "C", "label": "C12", "res": true, "com": false, "ind": false, "holc_grade": "C"}, "geometry": {"type": "Polygon", "coordinates": [[[-84.46917, 38.05463], [-84.469306, 38.054787], [-84.47152, 38.05735], [-84.47401, 38.05653], [-84.47567, 38.05829], [-84.47748, 38.05969], [-84.47609, 38.06079], [-84.47552, 38.06103], [-84.4749, 38.06161], [-84.4738, 38.0621], [-84.47335, 38.06264], [-84.47335, 38.06283], [-84.47266, 38.06328], [-84.47121, 38.06203], [-84.47147, 38.06169], [-84.46943, 38.05941], [-84.466814, 38.05643], [-84.4667, 38.0563], [-84.46917, 38.05463]]]}}, {"type": "Feature", "properties": {"area_id": 4220, "city": "Lexington", "state": "KY", "city_survey": true, "cat": "Definitely Declining", "grade": "C", "label": "C2", "res": true, "com": false, "ind": false, "holc_grade": "C"}, "geometry": {"type": "Polygon", "coordinates": [[[-84.51739, 38.04524], [-84.51867, 38.04629], [-84.51938, 38.04666], [-84.5203, 38.04676], [-84.52072, 38.04645], [-84.52069, 38.0491], [-84.520424, 38.049968], [-84.52039, 38.05008], [-84.51995, 38.05015], [-84.51638, 38.05037], [-84.516323, 38.050073], [-84.51549, 38.04573], [-84.51739, 38.04524]]]}}, {"type": "Feature", "properties": {"area_id": 4222, "city": "Lexington", "state": "KY", "city_survey": true, "cat": "Definitely Declining", "grade": "C", "label": "C3", "res": true, "com": false, "ind": false, "holc_grade": "C"}, "geometry": {"type": "Polygon", "coordinates": [[[-84.51739, 38.0373], [-84.51436, 38.03354], [-84.51597, 38.03005], [-84.51876, 38.0319], [-84.51751, 38.03319], [-84.519936, 38.035795], [-84.51995, 38.03581], [-84.52069, 38.0362], [-84.52259, 38.03728], [-84.518256, 38.040264], [-84.51617, 38.0417], [-84.51401, 38.03981], [-84.51306, 38.04021], [-84.51139, 38.03878], [-84.51291, 38.03634], [-84.513973, 38.037324], [-84.51534, 38.03859], [-84.51739, 38.0373]]]}}, {"type": "Feature", "properties": {"area_id": 4221, "city": "Lexington", "state": "KY", "city_survey": true, "cat": "Definitely Declining", "grade": "C", "label": "C4", "res": true, "com": false, "ind": false, "holc_grade": "C"}, "geometry": {"type": "Polygon", "coordinates": [[[-84.50941, 38.03115], [-84.50959, 38.031194], [-84.51276, 38.03197], [-84.511543, 38.03563], [-84.51154, 38.03564], [-84.51237, 38.03609], [-84.51172, 38.03737], [-84.51098, 38.03847], [-84.50973, 38.03808], [-84.5086, 38.03796], [-84.507315, 38.037721], [-84.5072, 38.0377], [-84.50759, 38.03665], [-84.5067, 38.03616], [-84.50503, 38.03452], [-84.504791, 38.034298], [-84.50462, 38.03414], [-84.50901, 38.03106], [-84.50941, 38.03115]]]}}, {"type": "Feature", "properties": {"area_id": 4216, "city": "Lexington", "state": "KY", "city_survey": true, "cat": "Definitely Declining", "grade": "C", "label": "C5", "res": true, "com": false, "ind": false, "holc_grade": "C"}, "geometry": {"type": "Polygon", "coordinates": [[[-84.50098, 38.03632], [-84.50135, 38.03662], [-84.5001, 38.03744], [-84.49987, 38.03764], [-84.49951, 38.03794], [-84.49906, 38.03826], [-84.49891, 38.03859], [-84.49942, 38.03908], [-84.50123, 38.0407], [-84.50168, 38.04053], [-84.50224, 38.04107], [-84.50224, 38.04147], [-84.50233, 38.04212], [-84.502606, 38.042417], [-84.50272, 38.04254], [-84.50224, 38.04287], [-84.50316, 38.04388], [-84.502464, 38.044445], [-84.50215, 38.0447], [-84.50353, 38.04597], [-84.503771, 38.046195], [-84.50399, 38.0464], [-84.50548, 38.04779], [-84.50331, 38.04952], [-84.501426, 38.047861], [-84.49544, 38.04259], [-84.49585, 38.0419], [-84.496, 38.04203], [-84.498182, 38.04067], [-84.49847, 38.04049], [-84.4971, 38.03913], [-84.50098, 38.03632]]]}}, {"type": "Feature", "properties": {"area_id": 4214, "city": "Lexington", "state": "KY", "city_survey": true, "cat": "Definitely Declining", "grade": "C", "label": "C6", "res": true, "com": false, "ind": false, "holc_grade": "C"}, "geometry": {"type": "Polygon", "coordinates": [[[-84.50462, 38.03414], [-84.502666, 38.035622], [-84.50135, 38.03662], [-84.50098, 38.03632], [-84.49829, 38.03405], [-84.49404, 38.037], [-84.49597, 38.03873], [-84.49464, 38.03967], [-84.49568, 38.04058], [-84.49492, 38.0411], [-84.494552, 38.041353], [-84.49425, 38.04156], [-84.49226, 38.03957], [-84.491807, 38.039235], [-84.49134, 38.03889], [-84.49095, 38.03866], [-84.489486, 38.039702], [-84.48911, 38.03997], [-84.4884, 38.0394], [-84.488822, 38.039114], [-84.48911, 38.03892], [-84.48602, 38.03594], [-84.48817, 38.03446], [-84.49048, 38.03674], [-84.49211, 38.03571], [-84.49116, 38.03347], [-84.491217, 38.033456], [-84.49158, 38.03337], [-84.49235, 38.03342], [-84.4927, 38.03351], [-84.49303, 38.03335], [-84.49354, 38.03328], [-84.49395, 38.03326], [-84.49446, 38.03351], [-84.49496, 38.03368], [-84.49559, 38.03337], [-84.49802, 38.03159], [-84.498058, 38.031564], [-84.49951, 38.03056], [-84.50132, 38.03094], [-84.50462, 38.03414]]]}}, {"type": "Feature", "properties": {"area_id": 4210, "city": "Lexington", "state": "KY", "city_survey": true, "cat": "Definitely Declining", "grade": "C", "label": "C7", "res": true, "com": false, "ind": false, "holc_grade": "C"}, "geometry": {"type": "Polygon", "coordinates": [[[-84.47223, 38.03202], [-84.47345, 38.0312], [-84.47674, 38.03415], [-84.47765, 38.03419], [-84.47931, 38.03486], [-84.4833, 38.03864], [-84.48221, 38.03943], [-84.48074, 38.04089], [-84.48002, 38.0407], [-84.4766, 38.03744], [-84.47378, 38.03871], [-84.473741, 38.038696], [-84.47015, 38.03742], [-84.468263, 38.036309], [-84.46733, 38.03576], [-84.47223, 38.03202]]]}}, {"type": "Feature", "properties": {"area_id": 4235, "city": "Lexington", "state": "KY", "city_survey": true, "cat": "Definitely Declining", "grade": "C", "label": "C8", "res": true, "com": false, "ind": false, "holc_grade": "C"}, "geometry": {"type": "Polygon", "coordinates": [[[-84.46995, 38.04171], [-84.4684, 38.04066], [-84.47066, 38.03846], [-84.474541, 38.041368], [-84.47465, 38.04145], [-84.471682, 38.041617], [-84.47163, 38.04162], [-84.46995, 38.04171]]]}}, {"type": "Feature", "properties": {"area_id": 4227, "city": "Lexington", "state": "KY", "city_survey": true, "cat": "Definitely Declining", "grade": "C", "label": "C9", "res": true, "com": false, "ind": false, "holc_grade": "C"}, "geometry": {"type": "Polygon", "coordinates": [[[-84.494, 38.04718], [-84.49424, 38.04757], [-84.49448, 38.04771], [-84.4948, 38.04781], [-84.49504, 38.04778], [-84.497742, 38.050429], [-84.4981, 38.05078], [-84.50253, 38.05464], [-84.50205, 38.05604], [-84.50078, 38.0549], [-84.49989, 38.05546], [-84.50146, 38.05698], [-84.501244, 38.057325], [-84.50101, 38.0577], [-84.49917, 38.05628], [-84.4976, 38.05747], [-84.49724, 38.05717], [-84.49489, 38.05518], [-84.49065, 38.05805], [-84.49252, 38.05988], [-84.4899, 38.06156], [-84.48842, 38.06166], [-84.4872, 38.06105], [-84.48512, 38.05939], [-84.48708, 38.05801], [-84.48586, 38.05677], [-84.48794, 38.05527], [-84.488, 38.05471], [-84.48794, 38.05438], [-84.49148, 38.05188], [-84.490563, 38.050938], [-84.49041, 38.05078], [-84.48782, 38.04849], [-84.489861, 38.047098], [-84.49225, 38.04547], [-84.49365, 38.04673], [-84.494, 38.04718]]]}}, {"type": "Feature", "properties": {"area_id": 4219, "city": "Lexington", "state": "KY", "city_survey": true, "cat": "Hazardous", "grade": "D", "label": "D1", "res": true, "com": false, "ind": false, "holc_grade": "D"}, "geometry": {"type": "Polygon", "coordinates": [[[-84.5086, 38.03796], [-84.50973, 38.03808], [-84.51098, 38.03847], [-84.51038, 38.0392], [-84.51011, 38.04009], [-84.51014, 38.04081], [-84.51038, 38.04208], [-84.51151, 38.04533], [-84.51112, 38.04549], [-84.51202, 38.04816], [-84.51228, 38.04821], [-84.513015, 38.050433], [-84.51306, 38.05057], [-84.51638, 38.05037], [-84.51995, 38.05015], [-84.51983, 38.05345], [-84.51505, 38.05499], [-84.508148, 38.052035], [-84.50489, 38.05064], [-84.50331, 38.04952], [-84.50548, 38.04779], [-84.50399, 38.0464], [-84.504359, 38.046133], [-84.5053, 38.04545], [-84.50646, 38.04474], [-84.50786, 38.04388], [-84.50946, 38.04306], [-84.50943, 38.04154], [-84.50824, 38.04013], [-84.5067, 38.03946], [-84.506884, 38.038814], [-84.5072, 38.0377], [-84.507315, 38.037721], [-84.5086, 38.03796]]]}}, {"type": "Feature", "properties": {"area_id": 4218, "city": "Lexington", "state": "KY", "city_survey": true, "cat": "Hazardous", "grade": "D", "label": "D2", "res": true, "com": false, "ind": false, "holc_grade": "D"}, "geometry": {"type": "Polygon", "coordinates": [[[-84.50224, 38.04287], [-84.50272, 38.04254], [-84.50399, 38.04163], [-84.50474, 38.04224], [-84.50539, 38.04203], [-84.50696, 38.04357], [-84.503893, 38.045716], [-84.50353, 38.04597], [-84.50215, 38.0447], [-84.502464, 38.044445], [-84.50316, 38.04388], [-84.50224, 38.04287]]]}}, {"type": "Feature", "properties": {"area_id": 4217, "city": "Lexington", "state": "KY", "city_survey": true, "cat": "Hazardous", "grade": "D", "label": "D3", "res": true, "com": false, "ind": false, "holc_grade": "D"}, "geometry": {"type": "Polygon", "coordinates": [[[-84.50286, 38.04042], [-84.50269, 38.04058], [-84.50224, 38.04107], [-84.50168, 38.04053], [-84.50123, 38.0407], [-84.49942, 38.03908], [-84.49891, 38.03859], [-84.49906, 38.03826], [-84.49951, 38.03794], [-84.49987, 38.03764], [-84.50286, 38.04042]]]}}, {"type": "Feature", "properties": {"area_id": 4232, "city": "Lexington", "state": "KY", "city_survey": true, "cat": "Hazardous", "grade": "D", "label": "D4", "res": true, "com": false, "ind": false, "holc_grade": "D"}, "geometry": {"type": "Polygon", "coordinates": [[[-84.50078, 38.0549], [-84.50205, 38.05604], [-84.50253, 38.05464], [-84.4981, 38.05078], [-84.50006, 38.0493], [-84.50247, 38.05141], [-84.50517, 38.05387], [-84.505644, 38.054214], [-84.50746, 38.05553], [-84.50666, 38.0559], [-84.50615, 38.05656], [-84.50586, 38.05707], [-84.50253, 38.05885], [-84.50684, 38.06278], [-84.50728, 38.06365], [-84.50776, 38.06486], [-84.50972, 38.0675], [-84.50479, 38.07073], [-84.50458, 38.07087], [-84.50345, 38.06795], [-84.50134, 38.06837], [-84.5011, 38.06781], [-84.50087, 38.06755], [-84.4981, 38.06757], [-84.498216, 38.067229], [-84.49867, 38.06589], [-84.49911, 38.06425], [-84.49965, 38.06325], [-84.500285, 38.062053], [-84.50104, 38.06063], [-84.500798, 38.060422], [-84.498796, 38.058697], [-84.49873, 38.05864], [-84.4976, 38.05747], [-84.49917, 38.05628], [-84.50101, 38.0577], [-84.501244, 38.057325], [-84.50146, 38.05698], [-84.49989, 38.05546], [-84.50078, 38.0549]]]}}, {"type": "Feature", "properties": {"area_id": 4228, "city": "Lexington", "state": "KY", "city_survey": true, "cat": "Hazardous", "grade": "D", "label": "D5", "res": true, "com": false, "ind": false, "holc_grade": "D"}, "geometry": {"type": "Polygon", "coordinates": [[[-84.4965, 38.05724], [-84.49573, 38.05763], [-84.49252, 38.05988], [-84.49065, 38.05805], [-84.49489, 38.05518], [-84.49724, 38.05717], [-84.4965, 38.05724]]]}}, {"type": "Feature", "properties": {"area_id": 4225, "city": "Lexington", "state": "KY", "city_survey": true, "cat": "Hazardous", "grade": "D", "label": "D6", "res": true, "com": false, "ind": false, "holc_grade": "D"}, "geometry": {"type": "Polygon", "coordinates": [[[-84.48002, 38.0407], [-84.48074, 38.04089], [-84.48221, 38.03943], [-84.484, 38.04112], [-84.48522, 38.04114], [-84.48629, 38.04086], [-84.4884, 38.0394], [-84.48911, 38.03997], [-84.48854, 38.04062], [-84.48824, 38.04102], [-84.48845, 38.04151], [-84.488527, 38.041516], [-84.4899, 38.04163], [-84.49234, 38.04385], [-84.49169, 38.04437], [-84.49169, 38.04463], [-84.49225, 38.04547], [-84.489861, 38.047098], [-84.48782, 38.04849], [-84.48756, 38.04849], [-84.48643, 38.04937], [-84.48601, 38.0494], [-84.48551, 38.04926], [-84.48464, 38.04907], [-84.48402, 38.04914], [-84.48343, 38.04914], [-84.48262, 38.04858], [-84.48221, 38.0479], [-84.481998, 38.047659], [-84.48161, 38.04722], [-84.48363, 38.04568], [-84.48025, 38.04367], [-84.48023, 38.04346], [-84.48019, 38.04308], [-84.48045, 38.0424], [-84.481033, 38.042075], [-84.48149, 38.04182], [-84.479922, 38.041318], [-84.47921, 38.04109], [-84.47757, 38.04046], [-84.47585, 38.0399], [-84.4738, 38.038722], [-84.47378, 38.03871], [-84.4766, 38.03744], [-84.48002, 38.0407]]]}}, {"type": "Feature", "properties": {"area_id": 4229, "city": "Lexington", "state": "KY", "city_survey": true, "cat": "Hazardous", "grade": "D", "label": "D7", "res": true, "com": false, "ind": false, "holc_grade": "D"}, "geometry": {"type": "Polygon", "coordinates": [[[-84.47502, 38.05076], [-84.47546, 38.05015], [-84.47704, 38.04923], [-84.47754, 38.04902], [-84.477928, 38.049308], [-84.47959, 38.05054], [-84.48446, 38.055229], [-84.4847, 38.05546], [-84.48702, 38.05382], [-84.48688, 38.053536], [-84.48672, 38.05321], [-84.49041, 38.05078], [-84.490563, 38.050938], [-84.49148, 38.05188], [-84.48794, 38.05438], [-84.488, 38.05471], [-84.48794, 38.05527], [-84.48586, 38.05677], [-84.48708, 38.05801], [-84.48512, 38.05939], [-84.48431, 38.059766], [-84.48402, 38.0599], [-84.48221, 38.05836], [-84.481272, 38.057481], [-84.48126, 38.05747], [-84.481506, 38.057257], [-84.48194, 38.05688], [-84.48087, 38.05576], [-84.47959, 38.05469], [-84.47754, 38.05274], [-84.47579, 38.05122], [-84.475496, 38.05119], [-84.4754, 38.05118], [-84.47505, 38.05099], [-84.47502, 38.05076]]]}}, {"type": "Feature", "properties": {"area_id": 4236, "city": "Lexington", "state": "KY", "city_survey": true, "cat": "Hazardous", "grade": "D", "label": "D8", "res": true, "com": false, "ind": false, "holc_grade": "D"}, "geometry": {"type": "Polygon", "coordinates": [[[-84.46995, 38.04171], [-84.47163, 38.04162], [-84.47163, 38.041621], [-84.47197, 38.04403], [-84.46976, 38.0451], [-84.467212, 38.046532], [-84.46693, 38.04669], [-84.46691, 38.04637], [-84.4665, 38.04549], [-84.46643, 38.04405], [-84.466313, 38.042074], [-84.46631, 38.04203], [-84.46995, 38.04171]]]}}, {"type": "Feature", "properties": {"area_id": 11285, "city": "Lexington", "state": "KY", "city_survey": true, "cat": "Commercial", "grade": null, "label": "Commercial", "res": false, "com": true, "ind": false, "holc_grade": null}, "geometry": {"type": "MultiPolygon", "coordinates": [[[[-84.48845, 38.04151], [-84.48824, 38.04102], [-84.48854, 38.04062], [-84.48911, 38.03997], [-84.489486, 38.039702], [-84.49095, 38.03866], [-84.49134, 38.03889], [-84.491807, 38.039235], [-84.49226, 38.03957], [-84.49425, 38.04156], [-84.494552, 38.041353], [-84.49492, 38.0411], [-84.49501, 38.041177], [-84.49585, 38.0419], [-84.49544, 38.04259], [-84.501422, 38.047864], [-84.50177, 38.04817], [-84.50006, 38.0493], [-84.4981, 38.05078], [-84.497742, 38.050429], [-84.49504, 38.04778], [-84.4948, 38.04781], [-84.49448, 38.04771], [-84.49424, 38.04757], [-84.494, 38.04718], [-84.49365, 38.04673], [-84.49225, 38.04547], [-84.49169, 38.04463], [-84.49169, 38.04437], [-84.49234, 38.04385], [-84.4899, 38.04163], [-84.488527, 38.041516], [-84.48845, 38.04151]]], [[[-84.50946, 38.04306], [-84.50786, 38.04388], [-84.50646, 38.04474], [-84.5053, 38.04545], [-84.504359, 38.046133], [-84.50399, 38.0464], [-84.503771, 38.046195], [-84.50353, 38.04597], [-84.503893, 38.045716], [-84.50696, 38.04357], [-84.50641, 38.04303], [-84.50782, 38.04261], [-84.50946, 38.04306]]]]}}, {"type": "Feature", "properties": {"area_id": 11286, "city": "Lexington", "state": "KY", "city_survey": true, "cat": "Industrial", "grade": null, "label": "Industrial", "res": false, "com": false, "ind": true, "holc_grade": null}, "geometry": {"type": "MultiPolygon", "coordinates": [[[[-84.50177, 38.04817], [-84.50331, 38.04952], [-84.50489, 38.05064], [-84.508148, 38.052035], [-84.51505, 38.05499], [-84.51018, 38.05539], [-84.507823, 38.055511], [-84.50746, 38.05553], [-84.505644, 38.054214], [-84.50517, 38.05387], [-84.50247, 38.05141], [-84.50006, 38.0493], [-84.50177, 38.04817]]], [[[-84.50943, 38.04154], [-84.50946, 38.04306], [-84.50782, 38.04261], [-84.50641, 38.04303], [-84.50894, 38.04096], [-84.50943, 38.04154]]], [[[-84.51407, 38.03293], [-84.51436, 38.03354], [-84.51739, 38.0373], [-84.51534, 38.03859], [-84.513973, 38.037324], [-84.51291, 38.03634], [-84.51139, 38.03878], [-84.51306, 38.04021], [-84.51401, 38.03981], [-84.5156, 38.0412], [-84.51377, 38.04272], [-84.51505, 38.04401], [-84.51549, 38.04573], [-84.516323, 38.050073], [-84.51638, 38.05037], [-84.51306, 38.05057], [-84.513015, 38.050433], [-84.51228, 38.04821], [-84.51202, 38.04816], [-84.51112, 38.04549], [-84.51151, 38.04533], [-84.51038, 38.04208], [-84.51014, 38.04081], [-84.51011, 38.04009], [-84.51038, 38.0392], [-84.51098, 38.03847], [-84.51172, 38.03737], [-84.51237, 38.03609], [-84.51154, 38.03564], [-84.511543, 38.03563], [-84.51276, 38.03197], [-84.51368, 38.0326], [-84.51407, 38.03293]]]]}}]}