{"type": "FeatureCollection", "features": [{"type": "Feature", "geometry": {"type": "Point", "coordinates": [-81.958056, 34.916667]}, "properties": {"facility_name": "CR BRANDS INC", "industry": null, "tri_facility_id": "29301CHMPR141VE"}}, {"type": "Feature", "geometry": {"type": "Point", "coordinates": [-81.933685, 34.97242]}, "properties": {"facility_name": "CROWN CORK & SEAL CO (USA) INC", "industry": null, "tri_facility_id": "29301CRWNC930BE"}}, {"type": "Feature", "geometry": {"type": "Point", "coordinates": [-81.985748, 34.972904]}, "properties": {"facility_name": "HARRISON ALLOYS INC", "industry": null, "tri_facility_id": "29301DRVRH114BE"}}, {"type": "Feature", "geometry": {"type": "Point", "coordinates": [-81.926903, 34.914482]}, "properties": {"facility_name": "SOLVAY USA LLC", "industry": null, "tri_facility_id": "29301GFCHMSIMSC"}}, {"type": "Feature", "geometry": {"type": "Point", "coordinates": [-82.003578, 34.965446]}, "properties": {"facility_name": "GOODYEAR TIRE & RUBBER CO", "industry": null, "tri_facility_id": "29301LNGML1095S"}}, {"type": "Feature", "geometry": {"type": "Point", "coordinates": [-81.964584, 34.96534]}, "properties": {"facility_name": "AMOCO FABRICS & FIBERS CO", "industry": null, "tri_facility_id": "29301PHLLP11FRO"}}, {"type": "Feature", "geometry": {"type": "Point", "coordinates": [-81.925, 34.975]}, "properties": {"facility_name": "ARROW AUTOMOTIVE INDUSTRIES INC", "industry": null, "tri_facility_id": "29301RRWTM763BE"}}, {"type": "Feature", "geometry": {"type": "Point", "coordinates": [-81.888412, 34.921883]}, "properties": {"facility_name": "ISOMEDIX OPERATIONS INC.", "industry": null, "tri_facility_id": "29301SMDXN2072S"}}, {"type": "Feature", "geometry": {"type": "Point", "coordinates": [-82.009444, 34.942778]}, "properties": {"facility_name": "TIETEX INTERNATIONAL LTD", "industry": null, "tri_facility_id": "29301TTXCR3020N"}}, {"type": "Feature", "geometry": {"type": "Point", "coordinates": [-81.86138888888888, 34.92222222222222]}, "properties": {"facility_name": "FLINT INK NORTH AMERICA CORP", "industry": null, "tri_facility_id": "29302FLNTN510CE"}}, {"type": "Feature", "geometry": {"type": "Point", "coordinates": [-81.8806, 34.9889]}, "properties": {"facility_name": "AMERON FIBERGLASS PIPE DIV", "industry": null, "tri_facility_id": "29302MRNFB2400C"}}, {"type": "Feature", "geometry": {"type": "Point", "coordinates": [-81.915253, 34.954418]}, "properties": {"facility_name": "PPG PRINTING INKS", "industry": null, "tri_facility_id": "29302PPGNKROUTE"}}, {"type": "Feature", "geometry": {"type": "Point", "coordinates": [-81.865833, 34.907778]}, "properties": {"facility_name": "PARKER HANNIFIN CORP JBL DIV", "industry": null, "tri_facility_id": "29302PRKRH3025W"}}, {"type": "Feature", "geometry": {"type": "Point", "coordinates": [-81.885833, 35.018611]}, "properties": {"facility_name": "LSC COMMUNICATIONS / SPARTANBURG", "industry": null, "tri_facility_id": "29302RRDNNJONES"}}, {"type": "Feature", "geometry": {"type": "Point", "coordinates": [-81.879722, 35.012222]}, "properties": {"facility_name": "LUBRIZOL ADVANCED MATERIALS", "industry": null, "tri_facility_id": "29302SPCLT195BR"}}, {"type": "Feature", "geometry": {"type": "Point", "coordinates": [-81.86388888888888, 34.916666666666664]}, "properties": {"facility_name": "TRANSMONTAIGNE TERMINALING INC SPARTANBURG TERMINAL", "industry": null, "tri_facility_id": "29302TRNSM88006"}}, {"type": "Feature", "geometry": {"type": "Point", "coordinates": [-81.989799, 34.970184]}, "properties": {"facility_name": "HOKE INC", "industry": null, "tri_facility_id": "29303HKNCX899SI"}}, {"type": "Feature", "geometry": {"type": "Point", "coordinates": [-81.97638888888889, 35.006388888888885]}, "properties": {"facility_name": "SCA PACKAGING NORTH AMERICA INC", "industry": null, "tri_facility_id": "29303HRNDS8000V"}}, {"type": "Feature", "geometry": {"type": "Point", "coordinates": [-81.995, 34.973611]}, "properties": {"facility_name": "PRYM DRITZ CORP", "industry": null, "tri_facility_id": "29303PRYMD950BR"}}, {"type": "Feature", "geometry": {"type": "Point", "coordinates": [-81.983056, 34.977222]}, "properties": {"facility_name": "BEVERAGE-AIR", "industry": null, "tri_facility_id": "29304BVRGR700BU"}}, {"type": "Feature", "geometry": {"type": "Point", "coordinates": [-81.9224, 34.8955]}, "properties": {"facility_name": "GEORGIA-PACIFIC CORP", "industry": null, "tri_facility_id": "29304GRGPC3100S"}}, {"type": "Feature", "geometry": {"type": "Point", "coordinates": [-81.866667, 34.933333]}, "properties": {"facility_name": "KOHLER CO.", "industry": null, "tri_facility_id": "29304KHLRC4000S"}}, {"type": "Feature", "geometry": {"type": "Point", "coordinates": [-81.96388888888889, 34.986111111111114]}, "properties": {"facility_name": "MILLIKEN CO. ROGER MILLIKEN CENTER", "industry": null, "tri_facility_id": "29304MLLKN920MI"}}, {"type": "Feature", "geometry": {"type": "Point", "coordinates": [-81.923611, 35.005278]}, "properties": {"facility_name": "AMERICAN FAST PRINT", "industry": null, "tri_facility_id": "29304MRCNFINTER"}}, {"type": "Feature", "geometry": {"type": "Point", "coordinates": [-81.989444, 34.97]}, "properties": {"facility_name": "SCHAEFFLER GROUP USA INC -  PLANT IV", "industry": null, "tri_facility_id": "29304NBRNGPOBOX"}}, {"type": "Feature", "geometry": {"type": "Point", "coordinates": [-81.871162, 34.904087]}, "properties": {"facility_name": "UNION CAMP CORP.", "industry": null, "tri_facility_id": "29304NNCMPCEDAR"}}, {"type": "Feature", "geometry": {"type": "Point", "coordinates": [-81.879722, 35.024444]}, "properties": {"facility_name": "TEGRANT ALLOYD BRANDS INC", "industry": null, "tri_facility_id": "29304PRNTPI85AT"}}, {"type": "Feature", "geometry": {"type": "Point", "coordinates": [-81.973889, 34.972222]}, "properties": {"facility_name": "SPARTANBURG STEEL PRODUCTS", "industry": null, "tri_facility_id": "29304SPRTN1290N"}}, {"type": "Feature", "geometry": {"type": "Point", "coordinates": [-81.907312, 34.913497]}, "properties": {"facility_name": "SOUTHEASTERN ROOFING CO OF SPARTANBURG INC", "industry": null, "tri_facility_id": "29304STHSTPOBOX"}}, {"type": "Feature", "geometry": {"type": "Point", "coordinates": [-81.903333, 34.9275]}, "properties": {"facility_name": "COOPER STANDARD", "industry": null, "tri_facility_id": "29304STNDR100QU"}}, {"type": "Feature", "geometry": {"type": "Point", "coordinates": [-81.91888888888889, 35.00277777777778]}, "properties": {"facility_name": "AURIA SPARTANBURG", "industry": null, "tri_facility_id": "29304STNKWONEAU"}}, {"type": "Feature", "geometry": {"type": "Point", "coordinates": [-81.977222, 34.983056]}, "properties": {"facility_name": "FLOWERS BAKING CO OF SC INC", "industry": null, "tri_facility_id": "29305FLWRSI85AN"}}, {"type": "Feature", "geometry": {"type": "Point", "coordinates": [-81.997778, 34.980278]}, "properties": {"facility_name": "DFA DAIRY BRANDS FLUID LLC DBA PET DAIRY", "industry": null, "tri_facility_id": "29305LNDSN1291N"}}, {"type": "Feature", "geometry": {"type": "Point", "coordinates": [-81.94561, 34.94413]}, "properties": {"facility_name": "QUALITY PLATING INC", "industry": null, "tri_facility_id": "29306QLTYP120VE"}}, {"type": "Feature", "geometry": {"type": "Point", "coordinates": [-81.965278, 34.887778]}, "properties": {"facility_name": "SIEMENS INDUSTRY INC", "industry": null, "tri_facility_id": "29376SMNSNHIGHW"}}]}