{"type": "FeatureCollection", "features": [{"type": "Feature", "properties": {"area_id": 10846, "city": "Williston", "state": "ND", "city_survey": false, "cat": "Best", "grade": null, "label": "Best", "res": true, "com": false, "ind": false, "holc_grade": null}, "geometry": {"type": "Polygon", "coordinates": [[[-103.62067, 48.14863], [-103.62212, 48.14852], [-103.62301, 48.1542], [-103.617589, 48.15422], [-103.617395, 48.154221], [-103.616348, 48.154225], [-103.61488, 48.15423], [-103.61488, 48.154226], [-103.61493, 48.14906], [-103.62067, 48.14863]]]}}, {"type": "Feature", "properties": {"area_id": 10847, "city": "Williston", "state": "ND", "city_survey": false, "cat": "Business", "grade": null, "label": "Business", "res": false, "com": true, "ind": false, "holc_grade": null}, "geometry": {"type": "Polygon", "coordinates": [[[-103.63327, 48.14619], [-103.62573, 48.14624], [-103.62571, 48.14727], [-103.62197, 48.14755], [-103.62212, 48.14852], [-103.62067, 48.14863], [-103.62051, 48.14768], [-103.61893, 48.14778], [-103.61853, 48.1457], [-103.62007, 48.14561], [-103.61966, 48.1435], [-103.62104, 48.14339], [-103.62104, 48.14314], [-103.62575, 48.14423], [-103.62898, 48.14491], [-103.62936, 48.14397], [-103.6332, 48.14423], [-103.63327, 48.14619]]]}}, {"type": "Feature", "properties": {"area_id": 10844, "city": "Williston", "state": "ND", "city_survey": false, "cat": "Fair", "grade": null, "label": "Fair", "res": true, "com": false, "ind": false, "holc_grade": null}, "geometry": {"type": "MultiPolygon", "coordinates": [[[[-103.61488, 48.154226], [-103.61488, 48.15423], [-103.61136, 48.1543], [-103.611386, 48.154245], [-103.61488, 48.14699], [-103.61493, 48.14906], [-103.61488, 48.154226]]], [[[-103.6317, 48.15123], [-103.63164, 48.15021], [-103.63326, 48.15023], [-103.63327, 48.14619], [-103.6332, 48.14423], [-103.63637, 48.14447], [-103.63643, 48.15064], [-103.636568, 48.154219], [-103.63657, 48.15426], [-103.63008, 48.15424], [-103.630086, 48.154201], [-103.63022, 48.15329], [-103.63018, 48.15122], [-103.6317, 48.15123]]]]}}, {"type": "Feature", "properties": {"area_id": 10845, "city": "Williston", "state": "ND", "city_survey": false, "cat": "Good", "grade": null, "label": "Good", "res": true, "com": false, "ind": false, "holc_grade": null}, "geometry": {"type": "MultiPolygon", "coordinates": [[[[-103.61853, 48.1457], [-103.61893, 48.14778], [-103.62051, 48.14768], [-103.62067, 48.14863], [-103.61493, 48.14906], [-103.61488, 48.14699], [-103.61486, 48.14601], [-103.61853, 48.1457]]], [[[-103.62197, 48.14755], [-103.62571, 48.14727], [-103.62573, 48.14624], [-103.63327, 48.14619], [-103.63326, 48.15023], [-103.63164, 48.15021], [-103.6317, 48.15123], [-103.63018, 48.15122], [-103.63022, 48.15329], [-103.630086, 48.154201], [-103.63008, 48.15424], [-103.625753, 48.154216], [-103.625137, 48.154212], [-103.62301, 48.1542], [-103.62212, 48.14852], [-103.62197, 48.14755]]]]}}, {"type": "Feature", "properties": {"area_id": 10843, "city": "Williston", "state": "ND", "city_survey": false, "cat": "Poor", "grade": null, "label": "Poor", "res": true, "com": false, "ind": false, "holc_grade": null}, "geometry": {"type": "MultiPolygon", "coordinates": [[[[-103.61136, 48.1543], [-103.60404, 48.15429], [-103.60395, 48.14709], [-103.604064, 48.147089], [-103.61488, 48.14699], [-103.611386, 48.154245], [-103.61136, 48.1543]]], [[[-103.61853, 48.1457], [-103.61486, 48.14601], [-103.61537, 48.14548], [-103.61658, 48.14403], [-103.61655, 48.1437], [-103.61966, 48.1435], [-103.62007, 48.14561], [-103.61853, 48.1457]]], [[[-103.63912, 48.14406], [-103.64199, 48.14422], [-103.64224, 48.14697], [-103.63934, 48.14703], [-103.63947, 48.15067], [-103.63643, 48.15064], [-103.63637, 48.14447], [-103.639, 48.14466], [-103.63912, 48.14406]]]]}}]}