{"type": "FeatureCollection", "features": [{"type": "Feature", "properties": {"area_id": 10145, "city": "Rocky Mount", "state": "NC", "city_survey": false, "cat": "Best Residential Section", "grade": "", "label": "Best Residential Section", "res": true, "com": false, "ind": false, "fill": "#7e3032", "GEOID10": "37127010300", "GISJOIN": "G3701270010300", "calc_area": 836659.15689, "pct_tract": 0.04101}, "geometry": {"type": "MultiPolygon", "coordinates": [[[[-77.81669, 35.94468], [-77.81664, 35.94433], [-77.81622, 35.94373], [-77.81545, 35.94302], [-77.81509, 35.94262], [-77.81453, 35.94212], [-77.81503, 35.94174], [-77.81745, 35.94121], [-77.81937, 35.94029], [-77.82171, 35.93963], [-77.82329, 35.93906], [-77.82581, 35.93893], [-77.82599, 35.94021], [-77.82589, 35.94144], [-77.82549, 35.94304], [-77.82533, 35.94425], [-77.82593, 35.94576], [-77.82594, 35.9464], [-77.82632, 35.94728], [-77.8265, 35.94818], [-77.82708, 35.94938], [-77.82697, 35.94969], [-77.827039, 35.949864], [-77.826976, 35.949852], [-77.826846, 35.949827], [-77.826001, 35.949668], [-77.825788, 35.949628], [-77.822919, 35.949092], [-77.822686, 35.949047], [-77.82241, 35.948994], [-77.821832, 35.948865], [-77.82159, 35.948799], [-77.821434, 35.948757], [-77.821159, 35.948672], [-77.821096, 35.948653], [-77.820824, 35.948561], [-77.820421, 35.94841], [-77.820087, 35.94827], [-77.819906, 35.948185], [-77.819748, 35.948112], [-77.819505, 35.947986], [-77.81935, 35.947906], [-77.819108, 35.947771], [-77.818998, 35.947706], [-77.81888, 35.947636], [-77.818034, 35.947088], [-77.817539, 35.946765], [-77.817055, 35.94645], [-77.816625, 35.94617], [-77.815946, 35.945727], [-77.81669, 35.94468]]]]}}, {"type": "Feature", "properties": {"area_id": 10145, "city": "Rocky Mount", "state": "NC", "city_survey": false, "cat": "Best Residential Section", "grade": "", "label": "Best Residential Section", "res": true, "com": false, "ind": false, "fill": "#7e3032", "GEOID10": "37127010400", "GISJOIN": "G3701270010400", "calc_area": 214887.42271, "pct_tract": 0.04425}, "geometry": {"type": "MultiPolygon", "coordinates": [[[[-77.80071, 35.94185], [-77.8005, 35.94227], [-77.79976, 35.94206], [-77.80115, 35.93884], [-77.80421, 35.93962], [-77.80308, 35.94243], [-77.80071, 35.94185]]], [[[-77.82709, 35.94999], [-77.82, 35.94851], [-77.81952, 35.94833], [-77.81836, 35.9487], [-77.81776, 35.94868], [-77.81709, 35.94824], [-77.81657, 35.94808], [-77.81507, 35.9477], [-77.81555, 35.94651], [-77.81684, 35.94685], [-77.81691, 35.94641], [-77.81593, 35.94575], [-77.815946, 35.945727], [-77.816625, 35.94617], [-77.817055, 35.94645], [-77.817539, 35.946765], [-77.818034, 35.947088], [-77.81888, 35.947636], [-77.818998, 35.947706], [-77.819108, 35.947771], [-77.81935, 35.947906], [-77.819505, 35.947986], [-77.819748, 35.948112], [-77.819906, 35.948185], [-77.820087, 35.94827], [-77.820421, 35.94841], [-77.820824, 35.948561], [-77.821096, 35.948653], [-77.821159, 35.948672], [-77.821434, 35.948757], [-77.82159, 35.948799], [-77.821832, 35.948865], [-77.82241, 35.948994], [-77.822686, 35.949047], [-77.822919, 35.949092], [-77.825788, 35.949628], [-77.826001, 35.949668], [-77.826846, 35.949827], [-77.826976, 35.949852], [-77.827039, 35.949864], [-77.82709, 35.94999]]], [[[-77.79645, 35.94942], [-77.79887, 35.95259], [-77.79816, 35.9528], [-77.79757, 35.9531], [-77.79551, 35.95011], [-77.79515, 35.94971], [-77.79634, 35.94928], [-77.79645, 35.94942]]]]}}, {"type": "Feature", "properties": {"area_id": 10145, "city": "Rocky Mount", "state": "NC", "city_survey": false, "cat": "Best Residential Section", "grade": "", "label": "Best Residential Section", "res": true, "com": false, "ind": false, "fill": "#7e3032", "GEOID10": "37065020200", "GISJOIN": "G3700650020200", "calc_area": 94625.82369, "pct_tract": 0.00395}, "geometry": {"type": "MultiPolygon", "coordinates": [[[[-77.78636, 35.93439], [-77.78867, 35.93635], [-77.78938, 35.93571], [-77.79263, 35.93868], [-77.7913, 35.93956], [-77.791241, 35.939585], [-77.79121, 35.939558], [-77.791048, 35.939416], [-77.790563, 35.938992], [-77.790402, 35.938851], [-77.790171, 35.938649], [-77.789478, 35.938046], [-77.789247, 35.937845], [-77.789008, 35.937643], [-77.788291, 35.937037], [-77.788053, 35.936836], [-77.787814, 35.936634], [-77.787097, 35.936029], [-77.786858, 35.935828], [-77.786618, 35.935625], [-77.785899, 35.935018], [-77.785725, 35.934871], [-77.78636, 35.93439]]]]}}, {"type": "Feature", "properties": {"area_id": 10145, "city": "Rocky Mount", "state": "NC", "city_survey": false, "cat": "Best Residential Section", "grade": "", "label": "Best Residential Section", "res": true, "com": false, "ind": false, "fill": "#7e3032", "GEOID10": "37065020300", "GISJOIN": "G3700650020300", "calc_area": 96241.45955, "pct_tract": 0.00939}, "geometry": {"type": "MultiPolygon", "coordinates": [[[[-77.79056, 35.93987], [-77.78855, 35.9381], [-77.78767, 35.93879], [-77.78425, 35.93599], [-77.785725, 35.934871], [-77.785899, 35.935018], [-77.786618, 35.935625], [-77.786858, 35.935828], [-77.787097, 35.936029], [-77.787814, 35.936634], [-77.788053, 35.936836], [-77.788291, 35.937037], [-77.789008, 35.937643], [-77.789247, 35.937845], [-77.789478, 35.938046], [-77.790171, 35.938649], [-77.790402, 35.938851], [-77.790563, 35.938992], [-77.791048, 35.939416], [-77.79121, 35.939558], [-77.791241, 35.939585], [-77.79056, 35.93987]]]]}}, {"type": "Feature", "properties": {"area_id": 10146, "city": "Rocky Mount", "state": "NC", "city_survey": false, "cat": "Good Residential Section", "grade": "", "label": "Good Residential Section", "res": true, "com": false, "ind": false, "fill": "#3f4d70", "GEOID10": "37127010300", "GISJOIN": "G3701270010300", "calc_area": 652110.50232, "pct_tract": 0.03196}, "geometry": {"type": "MultiPolygon", "coordinates": [[[[-77.80961, 35.93983], [-77.80747, 35.93923], [-77.80722, 35.93989], [-77.80613, 35.93927], [-77.80667, 35.93794], [-77.8071, 35.93688], [-77.80756, 35.93575], [-77.81069, 35.93578], [-77.81021, 35.93698], [-77.81689, 35.93856], [-77.81762, 35.93874], [-77.81854, 35.93868], [-77.82069, 35.93767], [-77.82216, 35.93789], [-77.82329, 35.93906], [-77.82171, 35.93963], [-77.81937, 35.94029], [-77.81745, 35.94121], [-77.81503, 35.94174], [-77.81453, 35.94212], [-77.81509, 35.94262], [-77.81545, 35.94302], [-77.81622, 35.94373], [-77.81664, 35.94433], [-77.81669, 35.94468], [-77.815946, 35.945727], [-77.815338, 35.945331], [-77.814909, 35.945052], [-77.814648, 35.944882], [-77.813867, 35.944374], [-77.813607, 35.944205], [-77.812578, 35.943535], [-77.809492, 35.941525], [-77.808968, 35.941183], [-77.80961, 35.93983]]]]}}, {"type": "Feature", "properties": {"area_id": 10146, "city": "Rocky Mount", "state": "NC", "city_survey": false, "cat": "Good Residential Section", "grade": "", "label": "Good Residential Section", "res": true, "com": false, "ind": false, "fill": "#3f4d70", "GEOID10": "37127010200", "GISJOIN": "G3701270010200", "calc_area": 38240.73624, "pct_tract": 0.00348}, "geometry": {"type": "MultiPolygon", "coordinates": [[[[-77.80088, 35.93351], [-77.80144, 35.93365], [-77.80209, 35.93231], [-77.80326, 35.93261], [-77.80229, 35.93495], [-77.8004, 35.93445], [-77.80088, 35.93351]]]]}}, {"type": "Feature", "properties": {"area_id": 10146, "city": "Rocky Mount", "state": "NC", "city_survey": false, "cat": "Good Residential Section", "grade": "", "label": "Good Residential Section", "res": true, "com": false, "ind": false, "fill": "#3f4d70", "GEOID10": "37127010502", "GISJOIN": "G3701270010502", "calc_area": 457196.88237, "pct_tract": 0.028}, "geometry": {"type": "MultiPolygon", "coordinates": [[[[-77.82764, 35.95734], [-77.83259, 35.959], [-77.83466, 35.96094], [-77.83406, 35.96328], [-77.83224, 35.96486], [-77.82969, 35.96567], [-77.82823, 35.96342], [-77.82517, 35.95871], [-77.82655, 35.9582], [-77.82764, 35.95734]]]]}}, {"type": "Feature", "properties": {"area_id": 10146, "city": "Rocky Mount", "state": "NC", "city_survey": false, "cat": "Good Residential Section", "grade": "", "label": "Good Residential Section", "res": true, "com": false, "ind": false, "fill": "#3f4d70", "GEOID10": "37127010400", "GISJOIN": "G3701270010400", "calc_area": 1372632.3014, "pct_tract": 0.28267}, "geometry": {"type": "MultiPolygon", "coordinates": [[[[-77.80016, 35.95574], [-77.79991, 35.95586], [-77.79824, 35.95666], [-77.79602, 35.95373], [-77.7947, 35.95409], [-77.79386, 35.95419], [-77.79283, 35.95399], [-77.79241, 35.95384], [-77.79437, 35.94903], [-77.79534, 35.9487], [-77.79557, 35.94899], [-77.79626, 35.94881], [-77.79634, 35.94928], [-77.79515, 35.94971], [-77.79551, 35.95011], [-77.79757, 35.9531], [-77.79816, 35.9528], [-77.79887, 35.95259], [-77.79645, 35.94942], [-77.7976, 35.94942], [-77.79867, 35.9496], [-77.80246, 35.95469], [-77.80068, 35.95545], [-77.80046, 35.95503], [-77.79989, 35.95525], [-77.80016, 35.95574]], [[-77.79946, 35.95475], [-77.79927, 35.955], [-77.79966, 35.95534], [-77.79989, 35.95525], [-77.79946, 35.95475]]], [[[-77.7971, 35.9424], [-77.7977, 35.94256], [-77.79765, 35.94229], [-77.79632, 35.94198], [-77.79651, 35.94159], [-77.79737, 35.94177], [-77.79752, 35.94155], [-77.79677, 35.94129], [-77.79703, 35.94042], [-77.79873, 35.94083], [-77.79886, 35.94052], [-77.79808, 35.94031], [-77.79876, 35.93862], [-77.79946, 35.93877], [-77.79958, 35.9384], [-77.79888, 35.93808], [-77.79868, 35.9385], [-77.79775, 35.93821], [-77.79808, 35.93738], [-77.79995, 35.93805], [-77.80036, 35.93819], [-77.80057, 35.93827], [-77.80069, 35.93789], [-77.80157, 35.93811], [-77.80365, 35.93864], [-77.80495, 35.93896], [-77.80504, 35.93939], [-77.80616, 35.93959], [-77.80659, 35.93982], [-77.80659, 35.94022], [-77.80695, 35.94035], [-77.80724, 35.94014], [-77.80794, 35.94065], [-77.80825, 35.9414], [-77.80858, 35.94219], [-77.80976, 35.94404], [-77.8112, 35.94483], [-77.81271, 35.94544], [-77.81325, 35.9453], [-77.81335, 35.94525], [-77.81394, 35.94493], [-77.81453, 35.94483], [-77.80896, 35.9412], [-77.808968, 35.941183], [-77.809492, 35.941525], [-77.812578, 35.943535], [-77.813607, 35.944205], [-77.813867, 35.944374], [-77.814648, 35.944882], [-77.814909, 35.945052], [-77.815338, 35.945331], [-77.815946, 35.945727], [-77.81593, 35.94575], [-77.81691, 35.94641], [-77.81684, 35.94685], [-77.81555, 35.94651], [-77.81507, 35.9477], [-77.81657, 35.94808], [-77.81709, 35.94824], [-77.81776, 35.94868], [-77.81781, 35.94907], [-77.81725, 35.95048], [-77.81709, 35.95087], [-77.81062, 35.94919], [-77.81026, 35.94697], [-77.80246, 35.94474], [-77.80207, 35.94553], [-77.79987, 35.94495], [-77.79896, 35.94471], [-77.79805, 35.94446], [-77.79778, 35.94509], [-77.79661, 35.94474], [-77.79628, 35.94463], [-77.79611, 35.94507], [-77.79684, 35.9453], [-77.79668, 35.9456], [-77.7953, 35.94521], [-77.79645, 35.94267], [-77.79697, 35.94286], [-77.7971, 35.9424]], [[-77.79683, 35.94312], [-77.79731, 35.94328], [-77.7974, 35.94298], [-77.79697, 35.94286], [-77.79683, 35.94312]], [[-77.79645, 35.94419], [-77.79704, 35.94414], [-77.79697, 35.94383], [-77.79664, 35.94378], [-77.79645, 35.94419]], [[-77.80421, 35.93962], [-77.80115, 35.93884], [-77.79976, 35.94206], [-77.8005, 35.94227], [-77.80071, 35.94185], [-77.80308, 35.94243], [-77.80421, 35.93962]]]]}}, {"type": "Feature", "properties": {"area_id": 10146, "city": "Rocky Mount", "state": "NC", "city_survey": false, "cat": "Good Residential Section", "grade": "", "label": "Good Residential Section", "res": true, "com": false, "ind": false, "fill": "#3f4d70", "GEOID10": "37065020200", "GISJOIN": "G3700650020200", "calc_area": 873111.49917, "pct_tract": 0.03648}, "geometry": {"type": "MultiPolygon", "coordinates": [[[[-77.78578, 35.92642], [-77.78416, 35.92629], [-77.78357, 35.92552], [-77.7833, 35.92534], [-77.78327, 35.92474], [-77.78341, 35.92438], [-77.78397, 35.9241], [-77.78528, 35.92473], [-77.78636, 35.9256], [-77.78636, 35.92593], [-77.78578, 35.92642]]], [[[-77.77546, 35.92951], [-77.77797, 35.92956], [-77.77953, 35.92959], [-77.78106, 35.92992], [-77.78259, 35.93116], [-77.78401, 35.93168], [-77.78538, 35.93185], [-77.78576, 35.93178], [-77.79041, 35.93167], [-77.79061, 35.93161], [-77.79057, 35.93125], [-77.79025, 35.93042], [-77.79346, 35.93052], [-77.79473, 35.93045], [-77.79594, 35.93102], [-77.79655, 35.93122], [-77.79685, 35.93332], [-77.79688, 35.93427], [-77.7966, 35.93505], [-77.79758, 35.93531], [-77.79674, 35.93743], [-77.79643, 35.93726], [-77.79627, 35.93768], [-77.79654, 35.93785], [-77.79649, 35.93817], [-77.79564, 35.9384], [-77.79552, 35.93859], [-77.79484, 35.93848], [-77.79459, 35.93838], [-77.79423, 35.9389], [-77.79437, 35.93913], [-77.7943, 35.93981], [-77.79407, 35.94066], [-77.79374, 35.94078], [-77.7928, 35.94084], [-77.792751, 35.940866], [-77.792696, 35.940818], [-77.792616, 35.940751], [-77.792379, 35.94055], [-77.7923, 35.940483], [-77.792082, 35.940297], [-77.791428, 35.939742], [-77.791241, 35.939585], [-77.7913, 35.93956], [-77.79263, 35.93868], [-77.78938, 35.93571], [-77.78867, 35.93635], [-77.78636, 35.93439], [-77.785725, 35.934871], [-77.78566, 35.934816], [-77.784584, 35.933909], [-77.783729, 35.933168], [-77.783207, 35.932716], [-77.782029, 35.931717], [-77.781714, 35.931452], [-77.780772, 35.93066], [-77.780745, 35.930637], [-77.780505, 35.930491], [-77.780423, 35.930446], [-77.780287, 35.930373], [-77.780187, 35.930339], [-77.779959, 35.930262], [-77.779642, 35.930143], [-77.779443, 35.930134], [-77.779283, 35.930127], [-77.779184, 35.93013], [-77.778922, 35.930138], [-77.778737, 35.930139], [-77.777397, 35.930148], [-77.776951, 35.930152], [-77.776679, 35.930153], [-77.775865, 35.930157], [-77.775594, 35.930159], [-77.775389, 35.930159], [-77.774775, 35.930163], [-77.774571, 35.930164], [-77.774564, 35.929589], [-77.774563, 35.929514], [-77.77546, 35.92951]], [[-77.7907, 35.93586], [-77.79125, 35.93631], [-77.79126, 35.9358], [-77.79079, 35.93541], [-77.7907, 35.93586]], [[-77.79241, 35.93376], [-77.79199, 35.93377], [-77.7919, 35.93413], [-77.79243, 35.93415], [-77.79241, 35.93376]], [[-77.79437, 35.93407], [-77.79486, 35.93406], [-77.79481, 35.93368], [-77.79443, 35.93372], [-77.79437, 35.93407]]]]}}, {"type": "Feature", "properties": {"area_id": 10146, "city": "Rocky Mount", "state": "NC", "city_survey": false, "cat": "Good Residential Section", "grade": "", "label": "Good Residential Section", "res": true, "com": false, "ind": false, "fill": "#3f4d70", "GEOID10": "37065020300", "GISJOIN": "G3700650020300", "calc_area": 1004666.69344, "pct_tract": 0.09802}, "geometry": {"type": "MultiPolygon", "coordinates": [[[[-77.78865, 35.94219], [-77.78688, 35.94167], [-77.78589, 35.94138], [-77.78575, 35.94126], [-77.78448, 35.94108], [-77.78329, 35.94109], [-77.7825, 35.94115], [-77.78271, 35.93583], [-77.78133, 35.93574], [-77.78137, 35.93465], [-77.77643, 35.93461], [-77.77632, 35.93599], [-77.77469, 35.93601], [-77.77298, 35.93592], [-77.77244, 35.9359], [-77.77101, 35.936], [-77.77055, 35.93592], [-77.77324, 35.92952], [-77.774563, 35.929514], [-77.774564, 35.929589], [-77.774571, 35.930164], [-77.774775, 35.930163], [-77.775389, 35.930159], [-77.775594, 35.930159], [-77.775865, 35.930157], [-77.776679, 35.930153], [-77.776951, 35.930152], [-77.777397, 35.930148], [-77.778737, 35.930139], [-77.778922, 35.930138], [-77.779184, 35.93013], [-77.779283, 35.930127], [-77.779443, 35.930134], [-77.779642, 35.930143], [-77.779959, 35.930262], [-77.780187, 35.930339], [-77.780287, 35.930373], [-77.780423, 35.930446], [-77.780505, 35.930491], [-77.780745, 35.930637], [-77.780772, 35.93066], [-77.781714, 35.931452], [-77.782029, 35.931717], [-77.783207, 35.932716], [-77.783729, 35.933168], [-77.784584, 35.933909], [-77.78566, 35.934816], [-77.785725, 35.934871], [-77.78425, 35.93599], [-77.78767, 35.93879], [-77.78855, 35.9381], [-77.79056, 35.93987], [-77.791241, 35.939585], [-77.791428, 35.939742], [-77.792082, 35.940297], [-77.7923, 35.940483], [-77.792379, 35.94055], [-77.792616, 35.940751], [-77.792696, 35.940818], [-77.792751, 35.940866], [-77.79217, 35.94117], [-77.79257, 35.94234], [-77.79232, 35.94245], [-77.79218, 35.94283], [-77.791941, 35.943456], [-77.791712, 35.943394], [-77.790692, 35.943118], [-77.790353, 35.943026], [-77.790062, 35.942944], [-77.790023, 35.942933], [-77.789188, 35.942707], [-77.788897, 35.942629], [-77.78857, 35.942537], [-77.788541, 35.942529], [-77.78865, 35.94219]]]]}}, {"type": "Feature", "properties": {"area_id": 10146, "city": "Rocky Mount", "state": "NC", "city_survey": false, "cat": "Good Residential Section", "grade": "", "label": "Good Residential Section", "res": true, "com": false, "ind": false, "fill": "#3f4d70", "GEOID10": "37065020400", "GISJOIN": "G3700650020400", "calc_area": 14704.62429, "pct_tract": 0.00097}, "geometry": {"type": "MultiPolygon", "coordinates": [[[[-77.78844, 35.94284], [-77.788541, 35.942529], [-77.78857, 35.942537], [-77.788897, 35.942629], [-77.789188, 35.942707], [-77.790023, 35.942933], [-77.790062, 35.942944], [-77.790353, 35.943026], [-77.790692, 35.943118], [-77.791712, 35.943394], [-77.791941, 35.943456], [-77.79174, 35.94398], [-77.78949, 35.94335], [-77.78953, 35.94307], [-77.78956, 35.94286], [-77.78882, 35.94268], [-77.78871, 35.94296], [-77.78844, 35.94284]]]]}}, {"type": "Feature", "properties": {"area_id": 10147, "city": "Rocky Mount", "state": "NC", "city_survey": false, "cat": "Blighted Areas", "grade": "", "label": "Blighted Areas", "res": true, "com": false, "ind": false, "fill": "#89713b", "GEOID10": "37127010200", "GISJOIN": "G3701270010200", "calc_area": 1863.56273, "pct_tract": 0.00017}, "geometry": {"type": "MultiPolygon", "coordinates": [[[[-77.80726, 35.91402], [-77.80608, 35.916549], [-77.806076, 35.916528], [-77.806122, 35.916415], [-77.806129, 35.9164], [-77.806145, 35.916365], [-77.806219, 35.916184], [-77.80629, 35.916013], [-77.806728, 35.91496], [-77.806815, 35.914754], [-77.806892, 35.91462], [-77.806915, 35.914558], [-77.80695, 35.914467], [-77.807131, 35.914011], [-77.807141, 35.913985], [-77.80726, 35.91402]]]]}}, {"type": "Feature", "properties": {"area_id": 10147, "city": "Rocky Mount", "state": "NC", "city_survey": false, "cat": "Blighted Areas", "grade": "", "label": "Blighted Areas", "res": true, "com": false, "ind": false, "fill": "#89713b", "GEOID10": "37065020200", "GISJOIN": "G3700650020200", "calc_area": 458131.19077, "pct_tract": 0.01914}, "geometry": {"type": "MultiPolygon", "coordinates": [[[[-77.80586, 35.91702], [-77.80325, 35.91879], [-77.80166, 35.91824], [-77.80053, 35.91809], [-77.79993, 35.91826], [-77.79882, 35.91804], [-77.79783, 35.91697], [-77.79795, 35.91382], [-77.79888, 35.91157], [-77.807141, 35.913985], [-77.807131, 35.914011], [-77.80695, 35.914467], [-77.806915, 35.914558], [-77.806892, 35.91462], [-77.806815, 35.914754], [-77.806728, 35.91496], [-77.80629, 35.916013], [-77.806219, 35.916184], [-77.806145, 35.916365], [-77.806129, 35.9164], [-77.806122, 35.916415], [-77.806076, 35.916528], [-77.80608, 35.916549], [-77.80586, 35.91702]]]]}}, {"type": "Feature", "properties": {"area_id": 10148, "city": "Rocky Mount", "state": "NC", "city_survey": false, "cat": "Poor Residential Section", "grade": "", "label": "Poor Residential Section", "res": true, "com": false, "ind": false, "fill": "#344f41", "GEOID10": "37127010300", "GISJOIN": "G3701270010300", "calc_area": 1197164.56762, "pct_tract": 0.05868}, "geometry": {"type": "MultiPolygon", "coordinates": [[[[-77.81917, 35.92662], [-77.82139, 35.92895], [-77.82169, 35.93012], [-77.82232, 35.93162], [-77.82445, 35.93258], [-77.82318, 35.93475], [-77.82198, 35.93693], [-77.82069, 35.93767], [-77.81854, 35.93868], [-77.81762, 35.93874], [-77.81689, 35.93856], [-77.81021, 35.93698], [-77.81069, 35.93578], [-77.80756, 35.93575], [-77.8071, 35.93688], [-77.80604, 35.93655], [-77.80567, 35.93773], [-77.80667, 35.93794], [-77.80613, 35.93927], [-77.805506, 35.938933], [-77.805319, 35.938817], [-77.805245, 35.938775], [-77.80547, 35.93804], [-77.804299, 35.937743], [-77.804297, 35.937516], [-77.804386, 35.937407], [-77.804478, 35.937297], [-77.804544, 35.937207], [-77.8046, 35.937112], [-77.804624, 35.937062], [-77.804688, 35.936937], [-77.804745, 35.936744], [-77.804753, 35.936664], [-77.804761, 35.936601], [-77.804763, 35.93648], [-77.804722, 35.935821], [-77.804712, 35.935648], [-77.804715, 35.935541], [-77.804951, 35.935507], [-77.805309, 35.935457], [-77.805615, 35.935406], [-77.805661, 35.935399], [-77.805898, 35.935365], [-77.805989, 35.935349], [-77.806266, 35.935301], [-77.806358, 35.935286], [-77.806439, 35.935273], [-77.806686, 35.935236], [-77.806768, 35.935224], [-77.806825, 35.935214], [-77.807, 35.935185], [-77.807058, 35.935176], [-77.807418, 35.935103], [-77.807564, 35.935066], [-77.807762, 35.935017], [-77.808108, 35.934889], [-77.808524, 35.934692], [-77.808719, 35.934577], [-77.808966, 35.934414], [-77.809018, 35.934381], [-77.809235, 35.934225], [-77.809301, 35.934169], [-77.809375, 35.934097], [-77.809464, 35.934015], [-77.809531, 35.933955], [-77.809721, 35.93376], [-77.809806, 35.933674], [-77.809933, 35.933542], [-77.809954, 35.933522], [-77.810322, 35.933153], [-77.810452, 35.933024], [-77.810573, 35.932925], [-77.810936, 35.93263], [-77.811058, 35.932532], [-77.811153, 35.932459], [-77.811273, 35.932369], [-77.811435, 35.932235], [-77.811528, 35.932159], [-77.81158, 35.932119], [-77.811739, 35.932002], [-77.811792, 35.931963], [-77.81199, 35.93181], [-77.812587, 35.931355], [-77.812786, 35.931203], [-77.812945, 35.931064], [-77.813225, 35.930821], [-77.813434, 35.930659], [-77.813602, 35.93053], [-77.813806, 35.930377], [-77.814103, 35.930157], [-77.814405, 35.929901], [-77.814601, 35.929737], [-77.814682, 35.929643], [-77.814817, 35.929487], [-77.814886, 35.929417], [-77.814934, 35.92937], [-77.815022, 35.929283], [-77.815138, 35.92913], [-77.815179, 35.929078], [-77.81524, 35.92935], [-77.81539, 35.9294], [-77.8156, 35.92914], [-77.81594, 35.92906], [-77.81603, 35.92879], [-77.8163, 35.9286], [-77.815904, 35.928214], [-77.81605, 35.928034], [-77.816155, 35.927908], [-77.81618, 35.927879], [-77.816255, 35.927794], [-77.816281, 35.927766], [-77.816402, 35.927634], [-77.816412, 35.927625], [-77.816586, 35.927405], [-77.816719, 35.927247], [-77.816743, 35.92722], [-77.816866, 35.92709], [-77.816883, 35.927068], [-77.816938, 35.927002], [-77.816957, 35.926981], [-77.817066, 35.926848], [-77.817112, 35.926793], [-77.817401, 35.926454], [-77.817424, 35.926428], [-77.817512, 35.926323], [-77.817537, 35.926296], [-77.817614, 35.926218], [-77.81764, 35.926193], [-77.817655, 35.926173], [-77.81917, 35.92662]], [[-77.80548, 35.93555], [-77.80519, 35.93558], [-77.8054, 35.93596], [-77.80548, 35.93555]]], [[[-77.804122, 35.937698], [-77.804125, 35.937694], [-77.804137, 35.937702], [-77.804122, 35.937698]]]]}}, {"type": "Feature", "properties": {"area_id": 10148, "city": "Rocky Mount", "state": "NC", "city_survey": false, "cat": "Poor Residential Section", "grade": "", "label": "Poor Residential Section", "res": true, "com": false, "ind": false, "fill": "#344f41", "GEOID10": "37127010200", "GISJOIN": "G3701270010200", "calc_area": 2137715.86097, "pct_tract": 0.19461}, "geometry": {"type": "MultiPolygon", "coordinates": [[[[-77.80079, 35.93589], [-77.80046, 35.93591], [-77.800464, 35.935942], [-77.800103, 35.935988], [-77.799882, 35.936017], [-77.799778, 35.936026], [-77.799471, 35.936053], [-77.79945, 35.93603], [-77.79926, 35.9354], [-77.79944, 35.93519], [-77.79983, 35.93474], [-77.8003, 35.93467], [-77.8004, 35.93445], [-77.80229, 35.93495], [-77.80326, 35.93261], [-77.80209, 35.93231], [-77.80144, 35.93365], [-77.80088, 35.93351], [-77.80128, 35.93254], [-77.8006, 35.93236], [-77.80049, 35.93204], [-77.80094, 35.93085], [-77.80065, 35.93005], [-77.80199, 35.927], [-77.80215, 35.9271], [-77.80232, 35.92703], [-77.80225, 35.92681], [-77.80206, 35.92682], [-77.801985, 35.926684], [-77.802278, 35.926045], [-77.80238, 35.925826], [-77.802402, 35.925674], [-77.802489, 35.925202], [-77.802525, 35.925059], [-77.802731, 35.92456], [-77.803356, 35.923067], [-77.803566, 35.92257], [-77.803588, 35.922505], [-77.803648, 35.92237], [-77.803684, 35.92228], [-77.804053, 35.921417], [-77.804177, 35.92113], [-77.804215, 35.920999], [-77.804386, 35.920584], [-77.805062, 35.918963], [-77.805094, 35.918884], [-77.805271, 35.918462], [-77.805296, 35.918429], [-77.805324, 35.918355], [-77.805412, 35.918134], [-77.805442, 35.918062], [-77.805499, 35.917915], [-77.805534, 35.91783], [-77.805693, 35.917482], [-77.805761, 35.917337], [-77.805783, 35.917231], [-77.805806, 35.917183], [-77.806019, 35.916755], [-77.806092, 35.916613], [-77.806083, 35.916566], [-77.80608, 35.916549], [-77.80726, 35.91402], [-77.8123, 35.91557], [-77.81418, 35.91643], [-77.81472, 35.91749], [-77.81335, 35.91943], [-77.81291, 35.9221], [-77.81392, 35.92245], [-77.81588, 35.92565], [-77.817655, 35.926173], [-77.81764, 35.926193], [-77.817614, 35.926218], [-77.817537, 35.926296], [-77.817512, 35.926323], [-77.817424, 35.926428], [-77.817401, 35.926454], [-77.817112, 35.926793], [-77.817066, 35.926848], [-77.816957, 35.926981], [-77.816938, 35.927002], [-77.816883, 35.927068], [-77.816866, 35.92709], [-77.816743, 35.92722], [-77.816719, 35.927247], [-77.816586, 35.927405], [-77.816412, 35.927625], [-77.816402, 35.927634], [-77.816281, 35.927766], [-77.816255, 35.927794], [-77.81618, 35.927879], [-77.816155, 35.927908], [-77.81605, 35.928034], [-77.815904, 35.928214], [-77.8159, 35.92821], [-77.81567, 35.92849], [-77.81553, 35.9281], [-77.81531, 35.92816], [-77.81548, 35.92853], [-77.81502, 35.92837], [-77.815179, 35.929078], [-77.815138, 35.92913], [-77.815022, 35.929283], [-77.814934, 35.92937], [-77.814886, 35.929417], [-77.814817, 35.929487], [-77.814682, 35.929643], [-77.814601, 35.929737], [-77.814405, 35.929901], [-77.814103, 35.930157], [-77.813806, 35.930377], [-77.813602, 35.93053], [-77.813434, 35.930659], [-77.813225, 35.930821], [-77.812945, 35.931064], [-77.812786, 35.931203], [-77.812587, 35.931355], [-77.81199, 35.93181], [-77.811792, 35.931963], [-77.811739, 35.932002], [-77.81158, 35.932119], [-77.811528, 35.932159], [-77.811435, 35.932235], [-77.811273, 35.932369], [-77.811153, 35.932459], [-77.811058, 35.932532], [-77.810936, 35.93263], [-77.810573, 35.932925], [-77.810452, 35.933024], [-77.810322, 35.933153], [-77.809954, 35.933522], [-77.809933, 35.933542], [-77.809806, 35.933674], [-77.809721, 35.93376], [-77.809531, 35.933955], [-77.809464, 35.934015], [-77.809375, 35.934097], [-77.809301, 35.934169], [-77.809235, 35.934225], [-77.809018, 35.934381], [-77.808966, 35.934414], [-77.808719, 35.934577], [-77.808524, 35.934692], [-77.808108, 35.934889], [-77.807762, 35.935017], [-77.807564, 35.935066], [-77.807418, 35.935103], [-77.807058, 35.935176], [-77.807, 35.935185], [-77.806825, 35.935214], [-77.806768, 35.935224], [-77.806686, 35.935236], [-77.806439, 35.935273], [-77.806358, 35.935286], [-77.806266, 35.935301], [-77.805989, 35.935349], [-77.805898, 35.935365], [-77.805661, 35.935399], [-77.805615, 35.935406], [-77.805309, 35.935457], [-77.804951, 35.935507], [-77.804715, 35.935541], [-77.804363, 35.935566], [-77.804352, 35.935566], [-77.803439, 35.935612], [-77.803265, 35.935623], [-77.802903, 35.935647], [-77.802826, 35.935653], [-77.802669, 35.935666], [-77.802643, 35.935669], [-77.801972, 35.935746], [-77.80174, 35.935774], [-77.801671, 35.935781], [-77.801467, 35.935804], [-77.8014, 35.935812], [-77.801142, 35.935857], [-77.801077, 35.935865], [-77.800793, 35.935901], [-77.80079, 35.93589]], [[-77.8046, 35.93511], [-77.8043, 35.93514], [-77.80416, 35.93528], [-77.80428, 35.93551], [-77.80458, 35.93549], [-77.8046, 35.93511]], [[-77.80543, 35.93536], [-77.80567, 35.93531], [-77.80556, 35.93505], [-77.80532, 35.93511], [-77.80543, 35.93536]], [[-77.80172, 35.93175], [-77.80167, 35.932], [-77.80197, 35.93206], [-77.80205, 35.93185], [-77.80172, 35.93175]], [[-77.80242, 35.92998], [-77.80232, 35.93029], [-77.80271, 35.93041], [-77.80265, 35.93011], [-77.80242, 35.92998]], [[-77.80762, 35.92885], [-77.80728, 35.92886], [-77.80749, 35.92928], [-77.80762, 35.92885]], [[-77.80963, 35.92832], [-77.80936, 35.92837], [-77.80951, 35.92863], [-77.80982, 35.9286], [-77.80963, 35.92832]], [[-77.80423, 35.92813], [-77.80409, 35.9279], [-77.80401, 35.92818], [-77.80413, 35.92841], [-77.80423, 35.92813]], [[-77.80433, 35.92794], [-77.80458, 35.92733], [-77.80405, 35.92613], [-77.80337, 35.92769], [-77.80376, 35.9278], [-77.80411, 35.92782], [-77.80433, 35.92794]], [[-77.80238, 35.92604], [-77.80209, 35.92665], [-77.80262, 35.92661], [-77.80238, 35.92604]], [[-77.80786, 35.92789], [-77.80828, 35.92785], [-77.80823, 35.92676], [-77.80785, 35.92677], [-77.80786, 35.92789]], [[-77.81608, 35.92787], [-77.81651, 35.92739], [-77.8164, 35.92711], [-77.81597, 35.92749], [-77.81608, 35.92787]], [[-77.80391, 35.92242], [-77.8036, 35.92316], [-77.80505, 35.92355], [-77.80555, 35.92353], [-77.80559, 35.92324], [-77.8055, 35.92282], [-77.80391, 35.92242]], [[-77.80643, 35.91906], [-77.80625, 35.91946], [-77.80648, 35.91953], [-77.80663, 35.91911], [-77.80643, 35.91906]], [[-77.8066, 35.91866], [-77.80648, 35.91869], [-77.80645, 35.91893], [-77.8067, 35.919], [-77.80676, 35.91885], [-77.8066, 35.91866]], [[-77.8067, 35.91828], [-77.80664, 35.91843], [-77.80688, 35.91853], [-77.80695, 35.91837], [-77.8067, 35.91828]], [[-77.80777, 35.91707], [-77.80769, 35.91727], [-77.80796, 35.91734], [-77.80801, 35.91713], [-77.80777, 35.91707]], [[-77.80763, 35.91653], [-77.80745, 35.91668], [-77.80757, 35.91688], [-77.80771, 35.91672], [-77.80763, 35.91653]], [[-77.80808, 35.91469], [-77.80808, 35.9149], [-77.80823, 35.91505], [-77.80861, 35.91506], [-77.80874, 35.91488], [-77.80808, 35.91469]]], [[[-77.79882, 35.93397], [-77.7987, 35.93425], [-77.798692, 35.934249], [-77.798758, 35.934087], [-77.798824, 35.933932], [-77.798993, 35.933568], [-77.79882, 35.93397]]], [[[-77.797909, 35.936205], [-77.797886, 35.936207], [-77.797942, 35.936122], [-77.797909, 35.936205]]]]}}, {"type": "Feature", "properties": {"area_id": 10148, "city": "Rocky Mount", "state": "NC", "city_survey": false, "cat": "Poor Residential Section", "grade": "", "label": "Poor Residential Section", "res": true, "com": false, "ind": false, "fill": "#344f41", "GEOID10": "37127010502", "GISJOIN": "G3701270010502", "calc_area": 1092231.58923, "pct_tract": 0.0669}, "geometry": {"type": "MultiPolygon", "coordinates": [[[[-77.81672, 35.9546], [-77.81484, 35.95651], [-77.8128, 35.95748], [-77.812285, 35.957465], [-77.812331, 35.957373], [-77.812406, 35.957221], [-77.812458, 35.957205], [-77.812979, 35.956988], [-77.813442, 35.956656], [-77.814659, 35.955788], [-77.815466, 35.955087], [-77.816086, 35.95432], [-77.816599, 35.953866], [-77.816884, 35.95367], [-77.817244, 35.953424], [-77.81733, 35.953382], [-77.81738, 35.95355], [-77.81672, 35.9546]]], [[[-77.80927, 35.95738], [-77.80768, 35.9577], [-77.807076, 35.957607], [-77.807279, 35.957545], [-77.807886, 35.957408], [-77.808887, 35.957255], [-77.809454, 35.957167], [-77.809913, 35.957122], [-77.810106, 35.957118], [-77.810443, 35.957157], [-77.810663, 35.95722], [-77.810849, 35.957284], [-77.810977, 35.957329], [-77.811179, 35.957358], [-77.811779, 35.957451], [-77.80927, 35.95738]]], [[[-77.81834, 35.95311], [-77.82007, 35.95241], [-77.82089, 35.95226], [-77.821912, 35.952285], [-77.822272, 35.952356], [-77.822295, 35.95236], [-77.82257, 35.95247], [-77.8238, 35.95267], [-77.82655, 35.9582], [-77.82517, 35.95871], [-77.82823, 35.96342], [-77.82597, 35.96339], [-77.82376, 35.96179], [-77.81738, 35.95355], [-77.81834, 35.95311]]], [[[-77.80449, 35.96067], [-77.80476, 35.96091], [-77.80514, 35.96087], [-77.80481, 35.96054], [-77.80563, 35.96034], [-77.80674, 35.95982], [-77.80876, 35.96061], [-77.80883, 35.96112], [-77.80996, 35.96178], [-77.81353, 35.96266], [-77.8153, 35.96608], [-77.81602, 35.96853], [-77.804536, 35.965357], [-77.804704, 35.965158], [-77.804943, 35.964875], [-77.805094, 35.964681], [-77.805215, 35.964513], [-77.805246, 35.964469], [-77.805293, 35.964405], [-77.805336, 35.964336], [-77.805365, 35.964291], [-77.805542, 35.964011], [-77.805657, 35.963805], [-77.805766, 35.963562], [-77.805801, 35.96347], [-77.805827, 35.963383], [-77.805851, 35.963271], [-77.805867, 35.963163], [-77.805876, 35.963045], [-77.805883, 35.962802], [-77.805883, 35.96269], [-77.805868, 35.962513], [-77.805137, 35.961557], [-77.804475, 35.960678], [-77.80449, 35.96067]], [[-77.81107, 35.96344], [-77.81055, 35.96356], [-77.81093, 35.96396], [-77.81145, 35.96381], [-77.81107, 35.96344]]]]}}, {"type": "Feature", "properties": {"area_id": 10148, "city": "Rocky Mount", "state": "NC", "city_survey": false, "cat": "Poor Residential Section", "grade": "", "label": "Poor Residential Section", "res": true, "com": false, "ind": false, "fill": "#344f41", "GEOID10": "37127010602", "GISJOIN": "G3701270010602", "calc_area": 222982.76198, "pct_tract": 0.01261}, "geometry": {"type": "MultiPolygon", "coordinates": [[[[-77.80046, 35.95989], [-77.79942, 35.96022], [-77.79613, 35.96014], [-77.79549, 35.959825], [-77.795556, 35.959848], [-77.796223, 35.960046], [-77.796921, 35.960116], [-77.797163, 35.960117], [-77.797803, 35.96012], [-77.797916, 35.960132], [-77.7981, 35.96007], [-77.798283, 35.960007], [-77.798795, 35.959833], [-77.799186, 35.9597], [-77.799445, 35.959613], [-77.800714, 35.959669], [-77.800764, 35.959689], [-77.80046, 35.95989]]], [[[-77.79153, 35.95908], [-77.78941, 35.95869], [-77.78906, 35.95893], [-77.788566, 35.958857], [-77.788623, 35.958715], [-77.78883, 35.958148], [-77.789459, 35.956456], [-77.789612, 35.956044], [-77.789637, 35.955977], [-77.789652, 35.955934], [-77.789671, 35.955898], [-77.790127, 35.956218], [-77.791031, 35.956989], [-77.791655, 35.957522], [-77.791684, 35.957547], [-77.792164, 35.957907], [-77.792836, 35.958413], [-77.793617, 35.958934], [-77.79153, 35.95908]]], [[[-77.80352, 35.96139], [-77.8038, 35.96136], [-77.8035, 35.96108], [-77.80403, 35.96092], [-77.804475, 35.960678], [-77.805137, 35.961557], [-77.805868, 35.962513], [-77.805883, 35.96269], [-77.805883, 35.962802], [-77.805876, 35.963045], [-77.805867, 35.963163], [-77.805851, 35.963271], [-77.805827, 35.963383], [-77.805801, 35.96347], [-77.805766, 35.963562], [-77.805657, 35.963805], [-77.805542, 35.964011], [-77.805365, 35.964291], [-77.805336, 35.964336], [-77.805293, 35.964405], [-77.805246, 35.964469], [-77.805215, 35.964513], [-77.805094, 35.964681], [-77.804943, 35.964875], [-77.804704, 35.965158], [-77.804536, 35.965357], [-77.80176, 35.96459], [-77.80183, 35.96276], [-77.80252, 35.96225], [-77.80213, 35.96132], [-77.80326, 35.96111], [-77.80352, 35.96139]]]]}}, {"type": "Feature", "properties": {"area_id": 10148, "city": "Rocky Mount", "state": "NC", "city_survey": false, "cat": "Poor Residential Section", "grade": "", "label": "Poor Residential Section", "res": true, "com": false, "ind": false, "fill": "#344f41", "GEOID10": "37127010400", "GISJOIN": "G3701270010400", "calc_area": 2244027.92873, "pct_tract": 0.46212}, "geometry": {"type": "MultiPolygon", "coordinates": [[[[-77.811779, 35.957451], [-77.811179, 35.957358], [-77.810977, 35.957329], [-77.810849, 35.957284], [-77.810663, 35.95722], [-77.810443, 35.957157], [-77.810106, 35.957118], [-77.809913, 35.957122], [-77.809454, 35.957167], [-77.808887, 35.957255], [-77.807886, 35.957408], [-77.807279, 35.957545], [-77.807076, 35.957607], [-77.8069, 35.95758], [-77.80526, 35.95854], [-77.80407, 35.95738], [-77.80305, 35.958], [-77.80287, 35.95762], [-77.80223, 35.95791], [-77.80274, 35.95838], [-77.80179, 35.95901], [-77.800764, 35.959689], [-77.800714, 35.959669], [-77.799445, 35.959613], [-77.799186, 35.9597], [-77.798795, 35.959833], [-77.798283, 35.960007], [-77.7981, 35.96007], [-77.797916, 35.960132], [-77.797803, 35.96012], [-77.797163, 35.960117], [-77.796921, 35.960116], [-77.796223, 35.960046], [-77.795556, 35.959848], [-77.79549, 35.959825], [-77.79367, 35.95893], [-77.793617, 35.958934], [-77.792836, 35.958413], [-77.792164, 35.957907], [-77.791684, 35.957547], [-77.791655, 35.957522], [-77.791031, 35.956989], [-77.790127, 35.956218], [-77.789671, 35.955898], [-77.789716, 35.955785], [-77.789746, 35.955701], [-77.789758, 35.955674], [-77.789987, 35.955125], [-77.790039, 35.955002], [-77.790071, 35.954935], [-77.790172, 35.954726], [-77.790477, 35.954103], [-77.790581, 35.953898], [-77.790725, 35.953543], [-77.791157, 35.952477], [-77.791302, 35.952123], [-77.791322, 35.952064], [-77.79222, 35.95231], [-77.79244, 35.95176], [-77.79302, 35.95093], [-77.7931, 35.95068], [-77.79353, 35.94971], [-77.79356, 35.94939], [-77.79374, 35.94901], [-77.79418, 35.94857], [-77.79465, 35.94833], [-77.79437, 35.94903], [-77.79241, 35.95384], [-77.79283, 35.95399], [-77.79386, 35.95419], [-77.7947, 35.95409], [-77.79602, 35.95373], [-77.79824, 35.95666], [-77.79991, 35.95586], [-77.80005, 35.95611], [-77.80079, 35.95559], [-77.80068, 35.95545], [-77.80246, 35.95469], [-77.79867, 35.9496], [-77.7976, 35.94942], [-77.79645, 35.94942], [-77.79634, 35.94928], [-77.79626, 35.94881], [-77.79692, 35.94856], [-77.79666, 35.94823], [-77.79683, 35.94781], [-77.79674, 35.94749], [-77.79693, 35.94697], [-77.79741, 35.94711], [-77.79668, 35.9456], [-77.79684, 35.9453], [-77.79661, 35.94474], [-77.79778, 35.94509], [-77.79805, 35.94446], [-77.79896, 35.94471], [-77.7987, 35.94533], [-77.79908, 35.94543], [-77.79816, 35.94814], [-77.79962, 35.94854], [-77.80009, 35.94854], [-77.80052, 35.94866], [-77.80091, 35.94903], [-77.80147, 35.94748], [-77.80016, 35.94716], [-77.80028, 35.94675], [-77.79984, 35.94565], [-77.80006, 35.94569], [-77.79987, 35.94495], [-77.80207, 35.94553], [-77.80246, 35.94474], [-77.81026, 35.94697], [-77.81062, 35.94919], [-77.81709, 35.95087], [-77.81725, 35.95048], [-77.81784, 35.95065], [-77.8179, 35.95142], [-77.81754, 35.9517], [-77.81765, 35.95229], [-77.81721, 35.95298], [-77.81733, 35.953382], [-77.817244, 35.953424], [-77.816884, 35.95367], [-77.816599, 35.953866], [-77.816086, 35.95432], [-77.815466, 35.955087], [-77.814659, 35.955788], [-77.813442, 35.956656], [-77.812979, 35.956988], [-77.812458, 35.957205], [-77.812406, 35.957221], [-77.812331, 35.957373], [-77.812285, 35.957465], [-77.811779, 35.957451]], [[-77.80289, 35.95023], [-77.80326, 35.95011], [-77.80221, 35.94873], [-77.80119, 35.94913], [-77.80077, 35.94973], [-77.80116, 35.95087], [-77.80192, 35.95218], [-77.80259, 35.95182], [-77.80369, 35.95337], [-77.80319, 35.95364], [-77.8037, 35.95477], [-77.80551, 35.95392], [-77.80368, 35.95128], [-77.80289, 35.95023]], [[-77.80454, 35.94963], [-77.80455, 35.94921], [-77.80425, 35.94913], [-77.8041, 35.94943], [-77.80454, 35.94963]], [[-77.80443, 35.94704], [-77.80462, 35.94753], [-77.80477, 35.94713], [-77.80443, 35.94704]], [[-77.80368, 35.94683], [-77.80245, 35.94647], [-77.80261, 35.94688], [-77.8037, 35.94719], [-77.80368, 35.94683]], [[-77.80117, 35.94565], [-77.80087, 35.94556], [-77.80079, 35.94578], [-77.80118, 35.94587], [-77.80117, 35.94565]], [[-77.80297, 35.9458], [-77.80284, 35.94541], [-77.80252, 35.94533], [-77.80265, 35.94575], [-77.80297, 35.9458]]], [[[-77.79315, 35.94761], [-77.792761, 35.948482], [-77.792915, 35.948114], [-77.792989, 35.947939], [-77.793023, 35.947883], [-77.793135, 35.947606], [-77.79315, 35.94761]]], [[[-77.82212, 35.95229], [-77.822295, 35.95236], [-77.822272, 35.952356], [-77.821912, 35.952285], [-77.82212, 35.95229]]], [[[-77.80894, 35.94182], [-77.80895, 35.94206], [-77.81046, 35.9432], [-77.81129, 35.94417], [-77.81194, 35.94477], [-77.81335, 35.94525], [-77.81325, 35.9453], [-77.81271, 35.94544], [-77.8112, 35.94483], [-77.80976, 35.94404], [-77.80858, 35.94219], [-77.80825, 35.9414], [-77.80894, 35.94182]]], [[[-77.80157, 35.93811], [-77.80164, 35.93771], [-77.80077, 35.93746], [-77.80121, 35.93649], [-77.80094, 35.93651], [-77.800793, 35.935901], [-77.801077, 35.935865], [-77.801142, 35.935857], [-77.8014, 35.935812], [-77.801467, 35.935804], [-77.801671, 35.935781], [-77.80174, 35.935774], [-77.801972, 35.935746], [-77.802643, 35.935669], [-77.802669, 35.935666], [-77.802826, 35.935653], [-77.802903, 35.935647], [-77.803265, 35.935623], [-77.803439, 35.935612], [-77.804352, 35.935566], [-77.804363, 35.935566], [-77.804715, 35.935541], [-77.804712, 35.935648], [-77.804722, 35.935821], [-77.804763, 35.93648], [-77.804761, 35.936601], [-77.804753, 35.936664], [-77.804745, 35.936744], [-77.804688, 35.936937], [-77.804624, 35.937062], [-77.8046, 35.937112], [-77.804544, 35.937207], [-77.804478, 35.937297], [-77.804386, 35.937407], [-77.804297, 35.937516], [-77.804299, 35.937743], [-77.80417, 35.93771], [-77.804137, 35.937702], [-77.804125, 35.937694], [-77.804122, 35.937698], [-77.80262, 35.93732], [-77.80239, 35.93787], [-77.80383, 35.93825], [-77.80365, 35.93864], [-77.80157, 35.93811]]], [[[-77.80053, 35.93655], [-77.8002, 35.93661], [-77.79975, 35.93636], [-77.799471, 35.936053], [-77.799778, 35.936026], [-77.799882, 35.936017], [-77.800103, 35.935988], [-77.800464, 35.935942], [-77.80053, 35.93655]]], [[[-77.80524, 35.93879], [-77.805245, 35.938775], [-77.805319, 35.938817], [-77.805506, 35.938933], [-77.80524, 35.93879]]], [[[-77.79733, 35.93764], [-77.797295, 35.937628], [-77.797817, 35.936369], [-77.797886, 35.936207], [-77.797909, 35.936205], [-77.79733, 35.93764]]]]}}, {"type": "Feature", "properties": {"area_id": 10148, "city": "Rocky Mount", "state": "NC", "city_survey": false, "cat": "Poor Residential Section", "grade": "", "label": "Poor Residential Section", "res": true, "com": false, "ind": false, "fill": "#344f41", "GEOID10": "37065020600", "GISJOIN": "G3700650020600", "calc_area": 84524.04141, "pct_tract": 0.00061}, "geometry": {"type": "MultiPolygon", "coordinates": [[[[-77.7873, 35.95867], [-77.78712, 35.95669], [-77.786439, 35.954206], [-77.78654, 35.954229], [-77.78689, 35.954309], [-77.787437, 35.954535], [-77.787521, 35.954569], [-77.788012, 35.954803], [-77.789432, 35.95573], [-77.789671, 35.955898], [-77.789652, 35.955934], [-77.789637, 35.955977], [-77.789612, 35.956044], [-77.789459, 35.956456], [-77.78883, 35.958148], [-77.788623, 35.958715], [-77.788566, 35.958857], [-77.7873, 35.95867]]]]}}, {"type": "Feature", "properties": {"area_id": 10148, "city": "Rocky Mount", "state": "NC", "city_survey": false, "cat": "Poor Residential Section", "grade": "", "label": "Poor Residential Section", "res": true, "com": false, "ind": false, "fill": "#344f41", "GEOID10": "37065020200", "GISJOIN": "G3700650020200", "calc_area": 1879055.81739, "pct_tract": 0.07852}, "geometry": {"type": "MultiPolygon", "coordinates": [[[[-77.8019, 35.92653], [-77.8049, 35.91912], [-77.80417, 35.91892], [-77.80396, 35.91904], [-77.80325, 35.91879], [-77.80586, 35.91702], [-77.80608, 35.916549], [-77.806083, 35.916566], [-77.806092, 35.916613], [-77.806019, 35.916755], [-77.805806, 35.917183], [-77.805783, 35.917231], [-77.805761, 35.917337], [-77.805693, 35.917482], [-77.805534, 35.91783], [-77.805499, 35.917915], [-77.805442, 35.918062], [-77.805412, 35.918134], [-77.805324, 35.918355], [-77.805296, 35.918429], [-77.805271, 35.918462], [-77.805094, 35.918884], [-77.805062, 35.918963], [-77.804386, 35.920584], [-77.804215, 35.920999], [-77.804177, 35.92113], [-77.804053, 35.921417], [-77.803684, 35.92228], [-77.803648, 35.92237], [-77.803588, 35.922505], [-77.803566, 35.92257], [-77.803356, 35.923067], [-77.802731, 35.92456], [-77.802525, 35.925059], [-77.802489, 35.925202], [-77.802402, 35.925674], [-77.80238, 35.925826], [-77.802278, 35.926045], [-77.801985, 35.926684], [-77.8019, 35.92653]]], [[[-77.78019, 35.92763], [-77.77971, 35.92739], [-77.77959, 35.92714], [-77.77989, 35.92651], [-77.77974, 35.92606], [-77.77918, 35.92601], [-77.77942, 35.92543], [-77.77979, 35.92552], [-77.77996, 35.92518], [-77.77985, 35.92481], [-77.7803, 35.92464], [-77.78006, 35.92417], [-77.77985, 35.92352], [-77.7807, 35.92386], [-77.78074, 35.92371], [-77.78038, 35.9233], [-77.78062, 35.92262], [-77.7802, 35.92247], [-77.7801, 35.92192], [-77.78264, 35.9226], [-77.78275, 35.9223], [-77.78373, 35.92241], [-77.78406, 35.9222], [-77.78521, 35.92052], [-77.78624, 35.92052], [-77.78635, 35.92018], [-77.78858, 35.92022], [-77.78884, 35.91991], [-77.79198, 35.92048], [-77.79238, 35.92033], [-77.79284, 35.91978], [-77.79337, 35.91957], [-77.7951, 35.91974], [-77.79599, 35.9194], [-77.7971, 35.91925], [-77.79719, 35.91838], [-77.79882, 35.91804], [-77.79993, 35.91826], [-77.80053, 35.91809], [-77.80166, 35.91824], [-77.80079, 35.91828], [-77.80007, 35.91864], [-77.79965, 35.91911], [-77.79893, 35.91968], [-77.79818, 35.92029], [-77.79783, 35.92088], [-77.79481, 35.92831], [-77.79499, 35.92868], [-77.79758, 35.9288], [-77.79852, 35.92907], [-77.79925, 35.92947], [-77.79947, 35.92977], [-77.79985, 35.93076], [-77.79977, 35.93136], [-77.79904, 35.93132], [-77.79866, 35.93157], [-77.79839, 35.93206], [-77.7981, 35.93321], [-77.79907, 35.93339], [-77.798993, 35.933568], [-77.798824, 35.933932], [-77.798758, 35.934087], [-77.798692, 35.934249], [-77.79808, 35.9342], [-77.79768, 35.93409], [-77.79758, 35.93446], [-77.7985, 35.93474], [-77.797942, 35.936122], [-77.797886, 35.936207], [-77.797817, 35.936369], [-77.797295, 35.937628], [-77.79674, 35.93743], [-77.79758, 35.93531], [-77.7966, 35.93505], [-77.79688, 35.93427], [-77.79685, 35.93332], [-77.79655, 35.93122], [-77.79594, 35.93102], [-77.79473, 35.93045], [-77.79346, 35.93052], [-77.79025, 35.93042], [-77.79057, 35.93125], [-77.79061, 35.93161], [-77.79041, 35.93167], [-77.78576, 35.93178], [-77.78538, 35.93185], [-77.78401, 35.93168], [-77.78259, 35.93116], [-77.78106, 35.92992], [-77.77953, 35.92959], [-77.77797, 35.92956], [-77.78019, 35.92763]], [[-77.78634, 35.92625], [-77.78668, 35.9265], [-77.78671, 35.92617], [-77.78636, 35.92593], [-77.78634, 35.92625]], [[-77.78636, 35.9256], [-77.78528, 35.92473], [-77.78397, 35.9241], [-77.78341, 35.92438], [-77.78327, 35.92474], [-77.7833, 35.92534], [-77.78357, 35.92552], [-77.78416, 35.92629], [-77.78578, 35.92642], [-77.78636, 35.92593], [-77.78636, 35.9256]], [[-77.79517, 35.93007], [-77.79509, 35.92984], [-77.79483, 35.92984], [-77.79482, 35.93012], [-77.79505, 35.93019], [-77.79517, 35.93007]], [[-77.79751, 35.92987], [-77.79787, 35.92989], [-77.79786, 35.92958], [-77.79754, 35.92954], [-77.79751, 35.92987]], [[-77.7955, 35.92986], [-77.7956, 35.93012], [-77.79578, 35.93012], [-77.79577, 35.9299], [-77.7955, 35.92986]], [[-77.79634, 35.92947], [-77.79601, 35.92945], [-77.79597, 35.92975], [-77.79639, 35.92977], [-77.79634, 35.92947]], [[-77.79503, 35.92935], [-77.79483, 35.92942], [-77.79482, 35.92968], [-77.79523, 35.92968], [-77.79503, 35.92935]], [[-77.78942, 35.92905], [-77.78981, 35.92911], [-77.79057, 35.92894], [-77.7921, 35.9291], [-77.7921, 35.9286], [-77.7885, 35.92823], [-77.78798, 35.92824], [-77.78824, 35.92867], [-77.78861, 35.92858], [-77.78911, 35.92916], [-77.78942, 35.92905]], [[-77.78832, 35.92716], [-77.78828, 35.92773], [-77.78882, 35.92775], [-77.78893, 35.92753], [-77.78879, 35.9273], [-77.78832, 35.92716]], [[-77.78749, 35.92679], [-77.78721, 35.92664], [-77.7872, 35.92695], [-77.78747, 35.92717], [-77.78749, 35.92679]], [[-77.79219, 35.92671], [-77.79222, 35.92654], [-77.79186, 35.92632], [-77.79191, 35.92658], [-77.79219, 35.92671]]]]}}, {"type": "Feature", "properties": {"area_id": 10148, "city": "Rocky Mount", "state": "NC", "city_survey": false, "cat": "Poor Residential Section", "grade": "", "label": "Poor Residential Section", "res": true, "com": false, "ind": false, "fill": "#344f41", "GEOID10": "37065020300", "GISJOIN": "G3700650020300", "calc_area": 752221.61615, "pct_tract": 0.07339}, "geometry": {"type": "MultiPolygon", "coordinates": [[[[-77.77158, 35.94492], [-77.77304, 35.94464], [-77.77315, 35.94383], [-77.77291, 35.94222], [-77.77396, 35.94173], [-77.77348, 35.93657], [-77.77298, 35.93592], [-77.77469, 35.93601], [-77.77632, 35.93599], [-77.77643, 35.93461], [-77.78137, 35.93465], [-77.78133, 35.93574], [-77.7811, 35.93966], [-77.78125, 35.94003], [-77.781101, 35.942882], [-77.780936, 35.942926], [-77.780847, 35.942951], [-77.780419, 35.943072], [-77.780247, 35.943121], [-77.780179, 35.94314], [-77.779976, 35.943197], [-77.779909, 35.943217], [-77.779684, 35.94328], [-77.779009, 35.943469], [-77.778785, 35.943533], [-77.778568, 35.943604], [-77.77792, 35.943817], [-77.777704, 35.943889], [-77.777559, 35.943936], [-77.77754, 35.9439], [-77.77714, 35.94403], [-77.777156, 35.944068], [-77.776828, 35.944176], [-77.77661, 35.944248], [-77.776514, 35.944279], [-77.776342, 35.944336], [-77.77623, 35.944376], [-77.776137, 35.944411], [-77.775627, 35.944596], [-77.775249, 35.944734], [-77.774132, 35.945229], [-77.773637, 35.945449], [-77.773497, 35.94551], [-77.77308, 35.945695], [-77.772941, 35.945758], [-77.772863, 35.945793], [-77.772666, 35.945863], [-77.772544, 35.945908], [-77.771884, 35.946067], [-77.771809, 35.946077], [-77.771517, 35.946117], [-77.771417, 35.94613], [-77.771274, 35.94615], [-77.771056, 35.946181], [-77.771008, 35.946184], [-77.77158, 35.94492]], [[-77.77583, 35.94436], [-77.77574, 35.94411], [-77.77536, 35.94413], [-77.77506, 35.94434], [-77.77519, 35.94463], [-77.77583, 35.94436]], [[-77.77862, 35.94317], [-77.77828, 35.94303], [-77.77825, 35.94336], [-77.77843, 35.94364], [-77.77881, 35.94351], [-77.77862, 35.94317]], [[-77.77954, 35.94328], [-77.77991, 35.94321], [-77.77981, 35.94286], [-77.77952, 35.94272], [-77.77937, 35.94298], [-77.77954, 35.94328]]], [[[-77.7825, 35.94115], [-77.78329, 35.94109], [-77.78448, 35.94108], [-77.78575, 35.94126], [-77.785603, 35.941906], [-77.785483, 35.941932], [-77.785271, 35.94198], [-77.785042, 35.942009], [-77.784894, 35.942029], [-77.784798, 35.942047], [-77.784512, 35.942103], [-77.784417, 35.942122], [-77.784226, 35.942159], [-77.783656, 35.942272], [-77.783467, 35.94231], [-77.783413, 35.942321], [-77.783252, 35.942354], [-77.783199, 35.942366], [-77.783072, 35.942392], [-77.78269, 35.942473], [-77.782564, 35.942501], [-77.782549, 35.942504], [-77.7825, 35.94115]]], [[[-77.78688, 35.94167], [-77.78865, 35.94219], [-77.788541, 35.942529], [-77.78759, 35.942264], [-77.787544, 35.942252], [-77.787265, 35.94217], [-77.787012, 35.942096], [-77.786939, 35.942075], [-77.78688, 35.94167]]], [[[-77.79218, 35.94283], [-77.79273, 35.94304], [-77.79268, 35.94323], [-77.79241, 35.94324], [-77.79237, 35.94354], [-77.79254, 35.94362], [-77.792542, 35.943636], [-77.792239, 35.943543], [-77.792052, 35.943486], [-77.791941, 35.943456], [-77.79218, 35.94283]]]]}}, {"type": "Feature", "properties": {"area_id": 10148, "city": "Rocky Mount", "state": "NC", "city_survey": false, "cat": "Poor Residential Section", "grade": "", "label": "Poor Residential Section", "res": true, "com": false, "ind": false, "fill": "#344f41", "GEOID10": "37065020400", "GISJOIN": "G3700650020400", "calc_area": 1855121.3638, "pct_tract": 0.12191}, "geometry": {"type": "MultiPolygon", "coordinates": [[[[-77.78638, 35.95399], [-77.78521, 35.95385], [-77.78396, 35.95408], [-77.78305, 35.9544], [-77.78233, 35.9545], [-77.781, 35.95493], [-77.77869, 35.95413], [-77.77675, 35.95207], [-77.7762, 35.95138], [-77.77485, 35.95085], [-77.77498, 35.94882], [-77.77197, 35.94715], [-77.7708, 35.94711], [-77.77086, 35.94651], [-77.771008, 35.946184], [-77.771056, 35.946181], [-77.771274, 35.94615], [-77.771417, 35.94613], [-77.771517, 35.946117], [-77.771809, 35.946077], [-77.771884, 35.946067], [-77.772544, 35.945908], [-77.772666, 35.945863], [-77.772863, 35.945793], [-77.772941, 35.945758], [-77.77308, 35.945695], [-77.773497, 35.94551], [-77.773637, 35.945449], [-77.774132, 35.945229], [-77.775249, 35.944734], [-77.775627, 35.944596], [-77.776137, 35.944411], [-77.77623, 35.944376], [-77.776342, 35.944336], [-77.776514, 35.944279], [-77.77661, 35.944248], [-77.776828, 35.944176], [-77.777156, 35.944068], [-77.77731, 35.94443], [-77.77775, 35.94429], [-77.777559, 35.943936], [-77.777704, 35.943889], [-77.77792, 35.943817], [-77.778568, 35.943604], [-77.778785, 35.943533], [-77.779009, 35.943469], [-77.779684, 35.94328], [-77.779909, 35.943217], [-77.779976, 35.943197], [-77.780179, 35.94314], [-77.780247, 35.943121], [-77.780419, 35.943072], [-77.780847, 35.942951], [-77.780936, 35.942926], [-77.781101, 35.942882], [-77.7811, 35.94291], [-77.78255, 35.94253], [-77.782549, 35.942504], [-77.782564, 35.942501], [-77.78269, 35.942473], [-77.783072, 35.942392], [-77.783199, 35.942366], [-77.783252, 35.942354], [-77.783413, 35.942321], [-77.783467, 35.94231], [-77.783656, 35.942272], [-77.784226, 35.942159], [-77.784417, 35.942122], [-77.784512, 35.942103], [-77.784798, 35.942047], [-77.784894, 35.942029], [-77.785042, 35.942009], [-77.785271, 35.94198], [-77.785483, 35.941932], [-77.785603, 35.941906], [-77.7856, 35.94192], [-77.78294, 35.94244], [-77.78312, 35.94289], [-77.78343, 35.94269], [-77.78347, 35.94244], [-77.7839, 35.94233], [-77.78408, 35.94276], [-77.78488, 35.94255], [-77.78482, 35.94221], [-77.78518, 35.94212], [-77.78529, 35.94241], [-77.78557, 35.94229], [-77.78575, 35.94227], [-77.78601, 35.9422], [-77.78625, 35.94224], [-77.78625, 35.94193], [-77.78694, 35.94208], [-77.786939, 35.942075], [-77.787012, 35.942096], [-77.787265, 35.94217], [-77.787544, 35.942252], [-77.78759, 35.942264], [-77.788541, 35.942529], [-77.78844, 35.94284], [-77.78871, 35.94296], [-77.78805, 35.94293], [-77.78794, 35.94321], [-77.78857, 35.94333], [-77.78868, 35.94313], [-77.78953, 35.94307], [-77.78949, 35.94335], [-77.79174, 35.94398], [-77.791941, 35.943456], [-77.792052, 35.943486], [-77.792239, 35.943543], [-77.792542, 35.943636], [-77.79259, 35.94398], [-77.79288, 35.94398], [-77.79273, 35.9445], [-77.79196, 35.94431], [-77.79194, 35.94473], [-77.79261, 35.94491], [-77.79233, 35.94583], [-77.7928, 35.94596], [-77.79229, 35.94694], [-77.79243, 35.94744], [-77.793135, 35.947606], [-77.793023, 35.947883], [-77.792989, 35.947939], [-77.792915, 35.948114], [-77.792761, 35.948482], [-77.79196, 35.95028], [-77.79062, 35.94998], [-77.78992, 35.95168], [-77.791322, 35.952064], [-77.791302, 35.952123], [-77.791157, 35.952477], [-77.790725, 35.953543], [-77.790581, 35.953898], [-77.790477, 35.954103], [-77.790172, 35.954726], [-77.790071, 35.954935], [-77.790039, 35.955002], [-77.789987, 35.955125], [-77.789758, 35.955674], [-77.789746, 35.955701], [-77.789716, 35.955785], [-77.789671, 35.955898], [-77.789432, 35.95573], [-77.788012, 35.954803], [-77.787521, 35.954569], [-77.787437, 35.954535], [-77.78689, 35.954309], [-77.78654, 35.954229], [-77.786439, 35.954206], [-77.78638, 35.95399]], [[-77.79105, 35.9455], [-77.79122, 35.94503], [-77.7908, 35.94493], [-77.79069, 35.94537], [-77.79028, 35.94528], [-77.79028, 35.94571], [-77.79094, 35.94582], [-77.7906, 35.94681], [-77.79137, 35.94697], [-77.79145, 35.94733], [-77.79166, 35.94738], [-77.7918, 35.94706], [-77.79233, 35.94583], [-77.79105, 35.9455]], [[-77.78638, 35.94475], [-77.78507, 35.94443], [-77.78449, 35.94597], [-77.78567, 35.94646], [-77.78638, 35.94475]], [[-77.79108, 35.94458], [-77.7913, 35.94483], [-77.79147, 35.94432], [-77.79117, 35.94434], [-77.79108, 35.94458]], [[-77.78579, 35.94342], [-77.78672, 35.94339], [-77.78686, 35.94291], [-77.78573, 35.94296], [-77.78579, 35.94342]], [[-77.78647, 35.94746], [-77.78659, 35.94712], [-77.78624, 35.94704], [-77.78612, 35.94737], [-77.78647, 35.94746]], [[-77.78834, 35.94878], [-77.78848, 35.94845], [-77.78829, 35.94831], [-77.78815, 35.94853], [-77.78834, 35.94878]], [[-77.78615, 35.9492], [-77.7863, 35.94907], [-77.78626, 35.94892], [-77.78601, 35.94884], [-77.78594, 35.94907], [-77.78615, 35.9492]], [[-77.78705, 35.94938], [-77.78733, 35.9495], [-77.78736, 35.94925], [-77.78711, 35.94917], [-77.78705, 35.94938]], [[-77.78501, 35.95075], [-77.78514, 35.95043], [-77.78476, 35.95035], [-77.78477, 35.95063], [-77.78501, 35.95075]], [[-77.78767, 35.95157], [-77.78802, 35.95141], [-77.78809, 35.95127], [-77.78759, 35.95116], [-77.78745, 35.95152], [-77.78767, 35.95157]]]]}}, {"type": "Feature", "properties": {"area_id": 10149, "city": "Rocky Mount", "state": "NC", "city_survey": false, "cat": "Industrial Areas", "grade": "", "label": "Industrial Areas", "res": false, "com": false, "ind": true, "fill": "#000000", "GEOID10": "37127010300", "GISJOIN": "G3701270010300", "calc_area": 97700.29885, "pct_tract": 0.00479}, "geometry": {"type": "MultiPolygon", "coordinates": [[[[-77.8163, 35.9286], [-77.81603, 35.92879], [-77.81594, 35.92906], [-77.8156, 35.92914], [-77.81539, 35.9294], [-77.81524, 35.92935], [-77.815179, 35.929078], [-77.815206, 35.929043], [-77.815514, 35.928692], [-77.815641, 35.928548], [-77.815741, 35.928418], [-77.815838, 35.928294], [-77.815904, 35.928214], [-77.8163, 35.9286]]], [[[-77.82232, 35.93162], [-77.82169, 35.93012], [-77.82354, 35.93057], [-77.82466, 35.93103], [-77.82472, 35.93136], [-77.82453, 35.93193], [-77.82482, 35.93174], [-77.8249, 35.93193], [-77.82445, 35.93258], [-77.82232, 35.93162]]], [[[-77.82523, 35.93245], [-77.82558, 35.93252], [-77.82573, 35.93299], [-77.82551, 35.9331], [-77.82499, 35.93282], [-77.82523, 35.93245]]], [[[-77.80519, 35.93558], [-77.80548, 35.93555], [-77.8054, 35.93596], [-77.80519, 35.93558]]], [[[-77.80667, 35.93794], [-77.80567, 35.93773], [-77.80604, 35.93655], [-77.8071, 35.93688], [-77.80667, 35.93794]]], [[[-77.80613, 35.93927], [-77.80722, 35.93989], [-77.80747, 35.93923], [-77.80961, 35.93983], [-77.808968, 35.941183], [-77.808464, 35.940855], [-77.808401, 35.940814], [-77.808212, 35.940691], [-77.80815, 35.940651], [-77.807953, 35.940523], [-77.807365, 35.940139], [-77.807169, 35.940012], [-77.806972, 35.939884], [-77.806384, 35.9395], [-77.806188, 35.939373], [-77.805746, 35.939085], [-77.805677, 35.93904], [-77.805506, 35.938933], [-77.80613, 35.93927]]], [[[-77.80547, 35.93804], [-77.805245, 35.938775], [-77.805055, 35.938666], [-77.804752, 35.938505], [-77.804383, 35.938327], [-77.804366, 35.938319], [-77.803913, 35.938125], [-77.803882, 35.938113], [-77.8039, 35.938069], [-77.803997, 35.937865], [-77.804064, 35.937765], [-77.804122, 35.937698], [-77.804137, 35.937702], [-77.8043, 35.937807], [-77.804299, 35.937743], [-77.80547, 35.93804]]]]}}, {"type": "Feature", "properties": {"area_id": 10149, "city": "Rocky Mount", "state": "NC", "city_survey": false, "cat": "Industrial Areas", "grade": "", "label": "Industrial Areas", "res": false, "com": false, "ind": true, "fill": "#000000", "GEOID10": "37127010200", "GISJOIN": "G3701270010200", "calc_area": 127381.84547, "pct_tract": 0.0116}, "geometry": {"type": "MultiPolygon", "coordinates": [[[[-77.80861, 35.91506], [-77.80823, 35.91505], [-77.80808, 35.9149], [-77.80808, 35.91469], [-77.80874, 35.91488], [-77.80861, 35.91506]]], [[[-77.80757, 35.91688], [-77.80745, 35.91668], [-77.80763, 35.91653], [-77.80771, 35.91672], [-77.80757, 35.91688]]], [[[-77.80796, 35.91734], [-77.80769, 35.91727], [-77.80777, 35.91707], [-77.80801, 35.91713], [-77.80796, 35.91734]]], [[[-77.80688, 35.91853], [-77.80664, 35.91843], [-77.8067, 35.91828], [-77.80695, 35.91837], [-77.80688, 35.91853]]], [[[-77.8067, 35.919], [-77.80645, 35.91893], [-77.80648, 35.91869], [-77.8066, 35.91866], [-77.80676, 35.91885], [-77.8067, 35.919]]], [[[-77.80648, 35.91953], [-77.80625, 35.91946], [-77.80643, 35.91906], [-77.80663, 35.91911], [-77.80648, 35.91953]]], [[[-77.80559, 35.92324], [-77.80555, 35.92353], [-77.80505, 35.92355], [-77.8036, 35.92316], [-77.80391, 35.92242], [-77.8055, 35.92282], [-77.80559, 35.92324]]], [[[-77.80209, 35.92665], [-77.80238, 35.92604], [-77.80262, 35.92661], [-77.80209, 35.92665]]], [[[-77.8164, 35.92711], [-77.81651, 35.92739], [-77.81608, 35.92787], [-77.81597, 35.92749], [-77.8164, 35.92711]]], [[[-77.80823, 35.92676], [-77.80828, 35.92785], [-77.80786, 35.92789], [-77.80785, 35.92677], [-77.80823, 35.92676]]], [[[-77.80376, 35.9278], [-77.80337, 35.92769], [-77.80405, 35.92613], [-77.80458, 35.92733], [-77.80433, 35.92794], [-77.80411, 35.92782], [-77.80376, 35.9278]]], [[[-77.80401, 35.92818], [-77.80409, 35.9279], [-77.80423, 35.92813], [-77.80413, 35.92841], [-77.80401, 35.92818]]], [[[-77.80951, 35.92863], [-77.80936, 35.92837], [-77.80963, 35.92832], [-77.80982, 35.9286], [-77.80951, 35.92863]]], [[[-77.80728, 35.92886], [-77.80762, 35.92885], [-77.80749, 35.92928], [-77.80728, 35.92886]]], [[[-77.81502, 35.92837], [-77.81548, 35.92853], [-77.81531, 35.92816], [-77.81553, 35.9281], [-77.81567, 35.92849], [-77.8159, 35.92821], [-77.815904, 35.928214], [-77.815838, 35.928294], [-77.815741, 35.928418], [-77.815641, 35.928548], [-77.815514, 35.928692], [-77.815206, 35.929043], [-77.815179, 35.929078], [-77.81502, 35.92837]]], [[[-77.80271, 35.93041], [-77.80232, 35.93029], [-77.80242, 35.92998], [-77.80265, 35.93011], [-77.80271, 35.93041]]], [[[-77.80197, 35.93206], [-77.80167, 35.932], [-77.80172, 35.93175], [-77.80205, 35.93185], [-77.80197, 35.93206]]], [[[-77.80556, 35.93505], [-77.80567, 35.93531], [-77.80543, 35.93536], [-77.80532, 35.93511], [-77.80556, 35.93505]]], [[[-77.80428, 35.93551], [-77.80416, 35.93528], [-77.8043, 35.93514], [-77.8046, 35.93511], [-77.80458, 35.93549], [-77.80428, 35.93551]]], [[[-77.80046, 35.93591], [-77.80079, 35.93589], [-77.800793, 35.935901], [-77.800464, 35.935942], [-77.80046, 35.93591]]], [[[-77.80206, 35.92682], [-77.80225, 35.92681], [-77.80232, 35.92703], [-77.80215, 35.9271], [-77.80199, 35.927], [-77.80065, 35.93005], [-77.80094, 35.93085], [-77.80049, 35.93204], [-77.8006, 35.93236], [-77.80128, 35.93254], [-77.80088, 35.93351], [-77.8004, 35.93445], [-77.8003, 35.93467], [-77.79983, 35.93474], [-77.79944, 35.93519], [-77.79926, 35.9354], [-77.79945, 35.93603], [-77.799471, 35.936053], [-77.798672, 35.936125], [-77.797909, 35.936205], [-77.797942, 35.936122], [-77.797971, 35.936079], [-77.798232, 35.935708], [-77.798321, 35.935586], [-77.798361, 35.935414], [-77.798482, 35.934897], [-77.798524, 35.934726], [-77.798558, 35.934579], [-77.798566, 35.934556], [-77.798692, 35.934249], [-77.7987, 35.93425], [-77.79882, 35.93397], [-77.798993, 35.933568], [-77.799057, 35.933431], [-77.799759, 35.931933], [-77.799994, 35.931434], [-77.800084, 35.931155], [-77.800357, 35.930318], [-77.800441, 35.930064], [-77.800456, 35.930044], [-77.800498, 35.929974], [-77.800624, 35.929763], [-77.800667, 35.929695], [-77.800773, 35.929466], [-77.801094, 35.928778], [-77.801201, 35.92855], [-77.801245, 35.92844], [-77.80138, 35.92811], [-77.801425, 35.928001], [-77.801451, 35.927887], [-77.80153, 35.927548], [-77.801557, 35.927435], [-77.801582, 35.927324], [-77.801586, 35.927319], [-77.801801, 35.927023], [-77.801874, 35.926925], [-77.801975, 35.926705], [-77.801985, 35.926684], [-77.80206, 35.92682]]]]}}, {"type": "Feature", "properties": {"area_id": 10149, "city": "Rocky Mount", "state": "NC", "city_survey": false, "cat": "Industrial Areas", "grade": "", "label": "Industrial Areas", "res": false, "com": false, "ind": true, "fill": "#000000", "GEOID10": "37127010502", "GISJOIN": "G3701270010502", "calc_area": 11448.99885, "pct_tract": 0.0007}, "geometry": {"type": "MultiPolygon", "coordinates": [[[[-77.82089, 35.95226], [-77.82007, 35.95241], [-77.81834, 35.95311], [-77.81738, 35.95355], [-77.81733, 35.953382], [-77.817969, 35.95307], [-77.818237, 35.952973], [-77.819412, 35.952548], [-77.819843, 35.952389], [-77.8202, 35.952257], [-77.820698, 35.95215], [-77.821193, 35.952166], [-77.821334, 35.952171], [-77.821912, 35.952285], [-77.82089, 35.95226]]], [[[-77.8238, 35.95267], [-77.82257, 35.95247], [-77.822295, 35.95236], [-77.823775, 35.952618], [-77.8238, 35.95267]]], [[[-77.80531, 35.95996], [-77.805154, 35.960001], [-77.805277, 35.959957], [-77.805332, 35.9599], [-77.80531, 35.95996]]], [[[-77.80554, 35.95933], [-77.805363, 35.959814], [-77.805376, 35.959675], [-77.805379, 35.959041], [-77.805367, 35.958841], [-77.80554, 35.95933]]], [[[-77.80481, 35.96054], [-77.80514, 35.96087], [-77.80476, 35.96091], [-77.80449, 35.96067], [-77.80481, 35.96054]]], [[[-77.81093, 35.96396], [-77.81055, 35.96356], [-77.81107, 35.96344], [-77.81145, 35.96381], [-77.81093, 35.96396]]]]}}, {"type": "Feature", "properties": {"area_id": 10149, "city": "Rocky Mount", "state": "NC", "city_survey": false, "cat": "Industrial Areas", "grade": "", "label": "Industrial Areas", "res": false, "com": false, "ind": true, "fill": "#000000", "GEOID10": "37127010602", "GISJOIN": "G3701270010602", "calc_area": 5923.75251, "pct_tract": 0.00034}, "geometry": {"type": "MultiPolygon", "coordinates": [[[[-77.80208, 35.96031], [-77.8013, 35.96012], [-77.80046, 35.95989], [-77.800764, 35.959689], [-77.801389, 35.959937], [-77.801491, 35.959947], [-77.802076, 35.960005], [-77.802406, 35.96009], [-77.802662, 35.960229], [-77.802892, 35.960326], [-77.80208, 35.96031]]], [[[-77.8035, 35.96108], [-77.8038, 35.96136], [-77.80352, 35.96139], [-77.80326, 35.96111], [-77.8035, 35.96108]]]]}}, {"type": "Feature", "properties": {"area_id": 10149, "city": "Rocky Mount", "state": "NC", "city_survey": false, "cat": "Industrial Areas", "grade": "", "label": "Industrial Areas", "res": false, "com": false, "ind": true, "fill": "#000000", "GEOID10": "37127010400", "GISJOIN": "G3701270010400", "calc_area": 844963.16014, "pct_tract": 0.174}, "geometry": {"type": "MultiPolygon", "coordinates": [[[[-77.7974, 35.94298], [-77.79731, 35.94328], [-77.79683, 35.94312], [-77.79697, 35.94286], [-77.7974, 35.94298]]], [[[-77.79697, 35.94383], [-77.79704, 35.94414], [-77.79645, 35.94419], [-77.79664, 35.94378], [-77.79697, 35.94383]]], [[[-77.80896, 35.9412], [-77.81453, 35.94483], [-77.81394, 35.94493], [-77.81335, 35.94525], [-77.81194, 35.94477], [-77.81129, 35.94417], [-77.81046, 35.9432], [-77.80895, 35.94206], [-77.80894, 35.94182], [-77.80825, 35.9414], [-77.80794, 35.94065], [-77.80724, 35.94014], [-77.80695, 35.94035], [-77.80659, 35.94022], [-77.80659, 35.93982], [-77.80616, 35.93959], [-77.80504, 35.93939], [-77.80495, 35.93896], [-77.80365, 35.93864], [-77.80383, 35.93825], [-77.80239, 35.93787], [-77.80262, 35.93732], [-77.804122, 35.937698], [-77.804064, 35.937765], [-77.803997, 35.937865], [-77.8039, 35.938069], [-77.803882, 35.938113], [-77.803913, 35.938125], [-77.804366, 35.938319], [-77.804383, 35.938327], [-77.804752, 35.938505], [-77.805055, 35.938666], [-77.805245, 35.938775], [-77.80524, 35.93879], [-77.805506, 35.938933], [-77.805677, 35.93904], [-77.805746, 35.939085], [-77.806188, 35.939373], [-77.806384, 35.9395], [-77.806972, 35.939884], [-77.807169, 35.940012], [-77.807365, 35.940139], [-77.807953, 35.940523], [-77.80815, 35.940651], [-77.808212, 35.940691], [-77.808401, 35.940814], [-77.808464, 35.940855], [-77.808968, 35.941183], [-77.80896, 35.9412]]], [[[-77.80417, 35.93771], [-77.804299, 35.937743], [-77.8043, 35.937807], [-77.804137, 35.937702], [-77.80417, 35.93771]]], [[[-77.79684, 35.9453], [-77.79611, 35.94507], [-77.79628, 35.94463], [-77.79661, 35.94474], [-77.79684, 35.9453]]], [[[-77.80252, 35.94533], [-77.80284, 35.94541], [-77.80297, 35.9458], [-77.80265, 35.94575], [-77.80252, 35.94533]]], [[[-77.80079, 35.94578], [-77.80087, 35.94556], [-77.80117, 35.94565], [-77.80118, 35.94587], [-77.80079, 35.94578]]], [[[-77.80261, 35.94688], [-77.80245, 35.94647], [-77.80368, 35.94683], [-77.8037, 35.94719], [-77.80261, 35.94688]]], [[[-77.80462, 35.94753], [-77.80443, 35.94704], [-77.80477, 35.94713], [-77.80462, 35.94753]]], [[[-77.79987, 35.94495], [-77.80006, 35.94569], [-77.79984, 35.94565], [-77.80028, 35.94675], [-77.80016, 35.94716], [-77.80147, 35.94748], [-77.80091, 35.94903], [-77.80052, 35.94866], [-77.80009, 35.94854], [-77.79962, 35.94854], [-77.79816, 35.94814], [-77.79908, 35.94543], [-77.7987, 35.94533], [-77.79896, 35.94471], [-77.79987, 35.94495]]], [[[-77.80425, 35.94913], [-77.80455, 35.94921], [-77.80454, 35.94963], [-77.8041, 35.94943], [-77.80425, 35.94913]]], [[[-77.79315, 35.94761], [-77.793135, 35.947606], [-77.793158, 35.94755], [-77.793566, 35.946549], [-77.793705, 35.94622], [-77.7938, 35.94602], [-77.794092, 35.945425], [-77.794191, 35.945228], [-77.794221, 35.945012], [-77.794227, 35.944968], [-77.794465, 35.944391], [-77.794553, 35.944187], [-77.794707, 35.943807], [-77.79518, 35.942674], [-77.79534, 35.942298], [-77.795443, 35.942043], [-77.795761, 35.941283], [-77.7958, 35.941185], [-77.795868, 35.941032], [-77.796336, 35.939909], [-77.7964, 35.939756], [-77.796628, 35.939238], [-77.797295, 35.937628], [-77.79733, 35.93764], [-77.797909, 35.936205], [-77.798672, 35.936125], [-77.799471, 35.936053], [-77.79975, 35.93636], [-77.8002, 35.93661], [-77.80053, 35.93655], [-77.800464, 35.935942], [-77.800793, 35.935901], [-77.80094, 35.93651], [-77.80121, 35.93649], [-77.80077, 35.93746], [-77.80164, 35.93771], [-77.80157, 35.93811], [-77.80069, 35.93789], [-77.80057, 35.93827], [-77.80036, 35.93819], [-77.79995, 35.93805], [-77.79808, 35.93738], [-77.79775, 35.93821], [-77.79868, 35.9385], [-77.79888, 35.93808], [-77.79958, 35.9384], [-77.79946, 35.93877], [-77.79876, 35.93862], [-77.79808, 35.94031], [-77.79886, 35.94052], [-77.79873, 35.94083], [-77.79703, 35.94042], [-77.79677, 35.94129], [-77.79752, 35.94155], [-77.79737, 35.94177], [-77.79651, 35.94159], [-77.79632, 35.94198], [-77.79765, 35.94229], [-77.7977, 35.94256], [-77.7971, 35.9424], [-77.79697, 35.94286], [-77.79645, 35.94267], [-77.7953, 35.94521], [-77.79668, 35.9456], [-77.79741, 35.94711], [-77.79693, 35.94697], [-77.79674, 35.94749], [-77.79683, 35.94781], [-77.79666, 35.94823], [-77.79692, 35.94856], [-77.79626, 35.94881], [-77.79557, 35.94899], [-77.79534, 35.9487], [-77.79437, 35.94903], [-77.79465, 35.94833], [-77.79418, 35.94857], [-77.79374, 35.94901], [-77.79356, 35.94939], [-77.79353, 35.94971], [-77.7931, 35.95068], [-77.79302, 35.95093], [-77.79244, 35.95176], [-77.79222, 35.95231], [-77.791322, 35.952064], [-77.791352, 35.951973], [-77.791504, 35.951525], [-77.791553, 35.951382], [-77.791555, 35.951375], [-77.791642, 35.951165], [-77.791903, 35.950535], [-77.791993, 35.950328], [-77.792097, 35.950073], [-77.792415, 35.949314], [-77.792489, 35.949138], [-77.792521, 35.949061], [-77.792619, 35.948823], [-77.792761, 35.948482], [-77.79315, 35.94761]]], [[[-77.81721, 35.95298], [-77.81765, 35.95229], [-77.81754, 35.9517], [-77.8179, 35.95142], [-77.81784, 35.95065], [-77.81725, 35.95048], [-77.81781, 35.94907], [-77.81821, 35.94972], [-77.81867, 35.94983], [-77.81979, 35.94936], [-77.82036, 35.94974], [-77.82085, 35.95011], [-77.82171, 35.95031], [-77.82241, 35.95033], [-77.82293, 35.95084], [-77.823775, 35.952618], [-77.822295, 35.95236], [-77.82212, 35.95229], [-77.821912, 35.952285], [-77.821334, 35.952171], [-77.821193, 35.952166], [-77.820698, 35.95215], [-77.8202, 35.952257], [-77.819843, 35.952389], [-77.819412, 35.952548], [-77.818237, 35.952973], [-77.817969, 35.95307], [-77.81733, 35.953382], [-77.81721, 35.95298]]], [[[-77.80551, 35.95392], [-77.8037, 35.95477], [-77.80319, 35.95364], [-77.80369, 35.95337], [-77.80259, 35.95182], [-77.80192, 35.95218], [-77.80116, 35.95087], [-77.80077, 35.94973], [-77.80119, 35.94913], [-77.80221, 35.94873], [-77.80326, 35.95011], [-77.80289, 35.95023], [-77.80368, 35.95128], [-77.80551, 35.95392]]], [[[-77.79966, 35.95534], [-77.79927, 35.955], [-77.79946, 35.95475], [-77.79989, 35.95525], [-77.79966, 35.95534]]], [[[-77.80046, 35.95503], [-77.80068, 35.95545], [-77.80079, 35.95559], [-77.80005, 35.95611], [-77.79991, 35.95586], [-77.80016, 35.95574], [-77.79989, 35.95525], [-77.80046, 35.95503]]], [[[-77.80179, 35.95901], [-77.80274, 35.95838], [-77.80223, 35.95791], [-77.80287, 35.95762], [-77.80305, 35.958], [-77.80407, 35.95738], [-77.80526, 35.95854], [-77.805367, 35.958841], [-77.805379, 35.959041], [-77.805376, 35.959675], [-77.805363, 35.959814], [-77.805332, 35.9599], [-77.805277, 35.959957], [-77.805154, 35.960001], [-77.80451, 35.96017], [-77.80311, 35.96033], [-77.802892, 35.960326], [-77.802662, 35.960229], [-77.802406, 35.96009], [-77.802076, 35.960005], [-77.801491, 35.959947], [-77.801389, 35.959937], [-77.800764, 35.959689], [-77.80179, 35.95901]]]]}}, {"type": "Feature", "properties": {"area_id": 10149, "city": "Rocky Mount", "state": "NC", "city_survey": false, "cat": "Industrial Areas", "grade": "", "label": "Industrial Areas", "res": false, "com": false, "ind": true, "fill": "#000000", "GEOID10": "37065020200", "GISJOIN": "G3700650020200", "calc_area": 821881.42492, "pct_tract": 0.03434}, "geometry": {"type": "MultiPolygon", "coordinates": [[[[-77.78671, 35.92617], [-77.78668, 35.9265], [-77.78634, 35.92625], [-77.78636, 35.92593], [-77.78671, 35.92617]]], [[[-77.79186, 35.92632], [-77.79222, 35.92654], [-77.79219, 35.92671], [-77.79191, 35.92658], [-77.79186, 35.92632]]], [[[-77.7872, 35.92695], [-77.78721, 35.92664], [-77.78749, 35.92679], [-77.78747, 35.92717], [-77.7872, 35.92695]]], [[[-77.78893, 35.92753], [-77.78882, 35.92775], [-77.78828, 35.92773], [-77.78832, 35.92716], [-77.78879, 35.9273], [-77.78893, 35.92753]]], [[[-77.78861, 35.92858], [-77.78824, 35.92867], [-77.78798, 35.92824], [-77.7885, 35.92823], [-77.7921, 35.9286], [-77.7921, 35.9291], [-77.79057, 35.92894], [-77.78981, 35.92911], [-77.78942, 35.92905], [-77.78911, 35.92916], [-77.78861, 35.92858]]], [[[-77.79482, 35.92968], [-77.79483, 35.92942], [-77.79503, 35.92935], [-77.79523, 35.92968], [-77.79482, 35.92968]]], [[[-77.79597, 35.92975], [-77.79601, 35.92945], [-77.79634, 35.92947], [-77.79639, 35.92977], [-77.79597, 35.92975]]], [[[-77.79786, 35.92958], [-77.79787, 35.92989], [-77.79751, 35.92987], [-77.79754, 35.92954], [-77.79786, 35.92958]]], [[[-77.79578, 35.93012], [-77.7956, 35.93012], [-77.7955, 35.92986], [-77.79577, 35.9299], [-77.79578, 35.93012]]], [[[-77.79482, 35.93012], [-77.79483, 35.92984], [-77.79509, 35.92984], [-77.79517, 35.93007], [-77.79505, 35.93019], [-77.79482, 35.93012]]], [[[-77.79481, 35.93368], [-77.79486, 35.93406], [-77.79437, 35.93407], [-77.79443, 35.93372], [-77.79481, 35.93368]]], [[[-77.7919, 35.93413], [-77.79199, 35.93377], [-77.79241, 35.93376], [-77.79243, 35.93415], [-77.7919, 35.93413]]], [[[-77.79126, 35.9358], [-77.79125, 35.93631], [-77.7907, 35.93586], [-77.79079, 35.93541], [-77.79126, 35.9358]]], [[[-77.79907, 35.93339], [-77.7981, 35.93321], [-77.79839, 35.93206], [-77.79866, 35.93157], [-77.79904, 35.93132], [-77.79977, 35.93136], [-77.79985, 35.93076], [-77.79947, 35.92977], [-77.79925, 35.92947], [-77.79852, 35.92907], [-77.79758, 35.9288], [-77.79499, 35.92868], [-77.79481, 35.92831], [-77.79783, 35.92088], [-77.79818, 35.92029], [-77.79893, 35.91968], [-77.79965, 35.91911], [-77.80007, 35.91864], [-77.80079, 35.91828], [-77.80166, 35.91824], [-77.80325, 35.91879], [-77.80396, 35.91904], [-77.80417, 35.91892], [-77.8049, 35.91912], [-77.8019, 35.92653], [-77.801985, 35.926684], [-77.801975, 35.926705], [-77.801874, 35.926925], [-77.801801, 35.927023], [-77.801586, 35.927319], [-77.801582, 35.927324], [-77.801557, 35.927435], [-77.80153, 35.927548], [-77.801451, 35.927887], [-77.801425, 35.928001], [-77.80138, 35.92811], [-77.801245, 35.92844], [-77.801201, 35.92855], [-77.801094, 35.928778], [-77.800773, 35.929466], [-77.800667, 35.929695], [-77.800624, 35.929763], [-77.800498, 35.929974], [-77.800456, 35.930044], [-77.800441, 35.930064], [-77.800357, 35.930318], [-77.800084, 35.931155], [-77.799994, 35.931434], [-77.799759, 35.931933], [-77.799057, 35.933431], [-77.798993, 35.933568], [-77.79907, 35.93339]]], [[[-77.7985, 35.93474], [-77.79758, 35.93446], [-77.79768, 35.93409], [-77.79808, 35.9342], [-77.798692, 35.934249], [-77.798566, 35.934556], [-77.798558, 35.934579], [-77.798524, 35.934726], [-77.798482, 35.934897], [-77.798361, 35.935414], [-77.798321, 35.935586], [-77.798232, 35.935708], [-77.797971, 35.936079], [-77.797942, 35.936122], [-77.7985, 35.93474]]], [[[-77.7928, 35.94084], [-77.79374, 35.94078], [-77.79407, 35.94066], [-77.7943, 35.93981], [-77.79437, 35.93913], [-77.79423, 35.9389], [-77.79459, 35.93838], [-77.79484, 35.93848], [-77.79552, 35.93859], [-77.79564, 35.9384], [-77.79649, 35.93817], [-77.79654, 35.93785], [-77.79627, 35.93768], [-77.79643, 35.93726], [-77.79674, 35.93743], [-77.797295, 35.937628], [-77.796628, 35.939238], [-77.7964, 35.939756], [-77.796336, 35.939909], [-77.795868, 35.941032], [-77.7958, 35.941185], [-77.795761, 35.941283], [-77.795443, 35.942043], [-77.79534, 35.942298], [-77.795245, 35.942289], [-77.795172, 35.942283], [-77.794195, 35.94212], [-77.793996, 35.941947], [-77.792751, 35.940866], [-77.7928, 35.94084]]]]}}, {"type": "Feature", "properties": {"area_id": 10149, "city": "Rocky Mount", "state": "NC", "city_survey": false, "cat": "Industrial Areas", "grade": "", "label": "Industrial Areas", "res": false, "com": false, "ind": true, "fill": "#000000", "GEOID10": "37065020300", "GISJOIN": "G3700650020300", "calc_area": 167304.36862, "pct_tract": 0.01632}, "geometry": {"type": "MultiPolygon", "coordinates": [[[[-77.78575, 35.94126], [-77.78589, 35.94138], [-77.78688, 35.94167], [-77.786939, 35.942075], [-77.786799, 35.942034], [-77.786776, 35.942032], [-77.786251, 35.941884], [-77.785998, 35.941813], [-77.785969, 35.941823], [-77.785924, 35.941832], [-77.785702, 35.941882], [-77.785629, 35.9419], [-77.785603, 35.941906], [-77.78575, 35.94126]]], [[[-77.78125, 35.94003], [-77.7811, 35.93966], [-77.78133, 35.93574], [-77.78271, 35.93583], [-77.7825, 35.94115], [-77.782549, 35.942504], [-77.782535, 35.942507], [-77.78245, 35.942526], [-77.782422, 35.942533], [-77.782197, 35.942584], [-77.782157, 35.942594], [-77.781371, 35.942808], [-77.781109, 35.94288], [-77.781101, 35.942882], [-77.78125, 35.94003]]], [[[-77.77952, 35.94272], [-77.77981, 35.94286], [-77.77991, 35.94321], [-77.77954, 35.94328], [-77.77937, 35.94298], [-77.77952, 35.94272]]], [[[-77.77843, 35.94364], [-77.77825, 35.94336], [-77.77828, 35.94303], [-77.77862, 35.94317], [-77.77881, 35.94351], [-77.77843, 35.94364]]], [[[-77.77714, 35.94403], [-77.77754, 35.9439], [-77.777559, 35.943936], [-77.777485, 35.94396], [-77.777156, 35.944068], [-77.77714, 35.94403]]], [[[-77.77506, 35.94434], [-77.77536, 35.94413], [-77.77574, 35.94411], [-77.77583, 35.94436], [-77.77519, 35.94463], [-77.77506, 35.94434]]], [[[-77.79254, 35.94362], [-77.79237, 35.94354], [-77.79241, 35.94324], [-77.79268, 35.94323], [-77.79273, 35.94304], [-77.79218, 35.94283], [-77.79232, 35.94245], [-77.79257, 35.94234], [-77.79217, 35.94117], [-77.792751, 35.940866], [-77.793996, 35.941947], [-77.794195, 35.94212], [-77.795172, 35.942283], [-77.795245, 35.942289], [-77.79534, 35.942298], [-77.79518, 35.942674], [-77.794707, 35.943807], [-77.794553, 35.944187], [-77.794469, 35.944156], [-77.794405, 35.944133], [-77.794364, 35.944123], [-77.794241, 35.944095], [-77.794201, 35.944086], [-77.793957, 35.944025], [-77.793339, 35.943872], [-77.793229, 35.943841], [-77.792989, 35.943773], [-77.792801, 35.943715], [-77.792542, 35.943636], [-77.79254, 35.94362]]]]}}, {"type": "Feature", "properties": {"area_id": 10149, "city": "Rocky Mount", "state": "NC", "city_survey": false, "cat": "Industrial Areas", "grade": "", "label": "Industrial Areas", "res": false, "com": false, "ind": true, "fill": "#000000", "GEOID10": "37065020400", "GISJOIN": "G3700650020400", "calc_area": 156046.05899, "pct_tract": 0.01025}, "geometry": {"type": "MultiPolygon", "coordinates": [[[[-77.78694, 35.94208], [-77.78625, 35.94193], [-77.78625, 35.94224], [-77.78601, 35.9422], [-77.78575, 35.94227], [-77.78557, 35.94229], [-77.78529, 35.94241], [-77.78518, 35.94212], [-77.78482, 35.94221], [-77.78488, 35.94255], [-77.78408, 35.94276], [-77.7839, 35.94233], [-77.78347, 35.94244], [-77.78343, 35.94269], [-77.78312, 35.94289], [-77.78294, 35.94244], [-77.7856, 35.94192], [-77.785603, 35.941906], [-77.785629, 35.9419], [-77.785702, 35.941882], [-77.785924, 35.941832], [-77.785969, 35.941823], [-77.785998, 35.941813], [-77.786251, 35.941884], [-77.786776, 35.942032], [-77.786799, 35.942034], [-77.786939, 35.942075], [-77.78694, 35.94208]]], [[[-77.78255, 35.94253], [-77.7811, 35.94291], [-77.781101, 35.942882], [-77.781109, 35.94288], [-77.781371, 35.942808], [-77.782157, 35.942594], [-77.782197, 35.942584], [-77.782422, 35.942533], [-77.78245, 35.942526], [-77.782535, 35.942507], [-77.782549, 35.942504], [-77.78255, 35.94253]]], [[[-77.78882, 35.94268], [-77.78956, 35.94286], [-77.78953, 35.94307], [-77.78868, 35.94313], [-77.78857, 35.94333], [-77.78794, 35.94321], [-77.78805, 35.94293], [-77.78871, 35.94296], [-77.78882, 35.94268]]], [[[-77.78686, 35.94291], [-77.78672, 35.94339], [-77.78579, 35.94342], [-77.78573, 35.94296], [-77.78686, 35.94291]]], [[[-77.77775, 35.94429], [-77.77731, 35.94443], [-77.777156, 35.944068], [-77.777485, 35.94396], [-77.777559, 35.943936], [-77.77775, 35.94429]]], [[[-77.79147, 35.94432], [-77.7913, 35.94483], [-77.79108, 35.94458], [-77.79117, 35.94434], [-77.79147, 35.94432]]], [[[-77.78449, 35.94597], [-77.78507, 35.94443], [-77.78638, 35.94475], [-77.78567, 35.94646], [-77.78449, 35.94597]]], [[[-77.7918, 35.94706], [-77.79166, 35.94738], [-77.79145, 35.94733], [-77.79137, 35.94697], [-77.7906, 35.94681], [-77.79094, 35.94582], [-77.79028, 35.94571], [-77.79028, 35.94528], [-77.79069, 35.94537], [-77.7908, 35.94493], [-77.79122, 35.94503], [-77.79105, 35.9455], [-77.79233, 35.94583], [-77.7918, 35.94706]]], [[[-77.78624, 35.94704], [-77.78659, 35.94712], [-77.78647, 35.94746], [-77.78612, 35.94737], [-77.78624, 35.94704]]], [[[-77.78829, 35.94831], [-77.78848, 35.94845], [-77.78834, 35.94878], [-77.78815, 35.94853], [-77.78829, 35.94831]]], [[[-77.78601, 35.94884], [-77.78626, 35.94892], [-77.7863, 35.94907], [-77.78615, 35.9492], [-77.78594, 35.94907], [-77.78601, 35.94884]]], [[[-77.78736, 35.94925], [-77.78733, 35.9495], [-77.78705, 35.94938], [-77.78711, 35.94917], [-77.78736, 35.94925]]], [[[-77.78476, 35.95035], [-77.78514, 35.95043], [-77.78501, 35.95075], [-77.78477, 35.95063], [-77.78476, 35.95035]]], [[[-77.78759, 35.95116], [-77.78809, 35.95127], [-77.78802, 35.95141], [-77.78767, 35.95157], [-77.78745, 35.95152], [-77.78759, 35.95116]]], [[[-77.79243, 35.94744], [-77.79229, 35.94694], [-77.7928, 35.94596], [-77.79233, 35.94583], [-77.79261, 35.94491], [-77.79194, 35.94473], [-77.79196, 35.94431], [-77.79273, 35.9445], [-77.79288, 35.94398], [-77.79259, 35.94398], [-77.792542, 35.943636], [-77.792801, 35.943715], [-77.792989, 35.943773], [-77.793229, 35.943841], [-77.793339, 35.943872], [-77.793957, 35.944025], [-77.794201, 35.944086], [-77.794241, 35.944095], [-77.794364, 35.944123], [-77.794405, 35.944133], [-77.794469, 35.944156], [-77.794553, 35.944187], [-77.794465, 35.944391], [-77.794227, 35.944968], [-77.794221, 35.945012], [-77.794191, 35.945228], [-77.794092, 35.945425], [-77.7938, 35.94602], [-77.793705, 35.94622], [-77.793566, 35.946549], [-77.793158, 35.94755], [-77.793135, 35.947606], [-77.79243, 35.94744]]], [[[-77.78992, 35.95168], [-77.79062, 35.94998], [-77.79196, 35.95028], [-77.792761, 35.948482], [-77.792619, 35.948823], [-77.792521, 35.949061], [-77.792489, 35.949138], [-77.792415, 35.949314], [-77.792097, 35.950073], [-77.791993, 35.950328], [-77.791903, 35.950535], [-77.791642, 35.951165], [-77.791555, 35.951375], [-77.791553, 35.951382], [-77.791504, 35.951525], [-77.791352, 35.951973], [-77.791322, 35.952064], [-77.78992, 35.95168]]]]}}]}