{"type": "FeatureCollection", "features": [{"type": "Feature", "geometry": {"type": "Point", "coordinates": [-77.80556, 35.951657]}, "properties": {"facility_name": "ROCKY MOUNT WEAVING", "industry": null, "tri_facility_id": "27801RCKYM750NP"}}, {"type": "Feature", "geometry": {"type": "Point", "coordinates": [-77.7777, 35.9891]}, "properties": {"facility_name": "TORPEDO SPECIALITY WIRE INC", "industry": null, "tri_facility_id": "27801TRPDWRT6IN"}}, {"type": "Feature", "geometry": {"type": "Point", "coordinates": [-77.8286, 35.8696]}, "properties": {"facility_name": "HOSPIRA INC", "industry": null, "tri_facility_id": "27802BBTTLPOBOX"}}, {"type": "Feature", "geometry": {"type": "Point", "coordinates": [-77.7875, 35.9625]}, "properties": {"facility_name": "FAST FOOD MERCHANDISERS INC", "industry": null, "tri_facility_id": "27802FSTFD1233H"}}, {"type": "Feature", "geometry": {"type": "Point", "coordinates": [-77.79277777777777, 35.97083333333334]}, "properties": {"facility_name": "DIMON INTERNATIONAL INC", "industry": null, "tri_facility_id": "27804DMNNT431AI"}}, {"type": "Feature", "geometry": {"type": "Point", "coordinates": [-77.803889, 35.99]}, "properties": {"facility_name": "HI-RAM INC COMPASS DIV", "industry": null, "tri_facility_id": "27804HRMNC640IN"}}, {"type": "Feature", "geometry": {"type": "Point", "coordinates": [-77.7875, 35.9873]}, "properties": {"facility_name": "KABA ILCO CORP", "industry": null, "tri_facility_id": "27804LCNCN400JE"}}, {"type": "Feature", "geometry": {"type": "Point", "coordinates": [-77.786111, 35.978333]}, "properties": {"facility_name": "PEPSI COLA BOTTLING CO OF ROCKY MOUNT", "industry": null, "tri_facility_id": "27804PPSCL2245N"}}, {"type": "Feature", "geometry": {"type": "Point", "coordinates": [-77.784722, 35.971389]}, "properties": {"facility_name": "DRAKA ELEVATOR PRODUCT INC.", "industry": null, "tri_facility_id": "27804SCRCR2151N"}}, {"type": "Feature", "geometry": {"type": "Point", "coordinates": [-77.793056, 35.978333]}, "properties": {"facility_name": "BURLINGTON INDUSTRIES INC SHEFFIELD PLANT", "industry": null, "tri_facility_id": "27804SHFFL500AI"}}, {"type": "Feature", "geometry": {"type": "Point", "coordinates": [-77.885, 35.972222]}, "properties": {"facility_name": "COOPER STANDARD AUTOMOTIVE INC", "industry": null, "tri_facility_id": "27804THSTN1040D"}}, {"type": "Feature", "geometry": {"type": "Point", "coordinates": [-77.781944, 35.963889]}, "properties": {"facility_name": "SEPRO DISTRIBUTION CENTER", "industry": null, "tri_facility_id": "27801MCFBRATLAN"}}, {"type": "Feature", "geometry": {"type": "Point", "coordinates": [-77.796389, 35.923056]}, "properties": {"facility_name": "TRINITY CONTAINERS LLC PLT 1004", "industry": null, "tri_facility_id": "27801TRNTY1549V"}}, {"type": "Feature", "geometry": {"type": "Point", "coordinates": [-77.752222, 35.9175]}, "properties": {"facility_name": "ROYSTER-CLARK INC", "industry": null, "tri_facility_id": "27802TDWTRPOBOX"}}]}