{"type": "FeatureCollection", "features": [{"type": "Feature", "geometry": {"type": "Point", "coordinates": [-95.9042, 36.105106]}, "properties": {"facility_name": "HEVI-DUTY/NELSON", "industry": null, "tri_facility_id": "74035NLSNL4041S"}}, {"type": "Feature", "geometry": {"type": "Point", "coordinates": [-96.08463, 36.141563]}, "properties": {"facility_name": "ALLIED STAMP CORP", "industry": null, "tri_facility_id": "74063LLDST8232C"}}, {"type": "Feature", "geometry": {"type": "Point", "coordinates": [-95.996778, 36.1589]}, "properties": {"facility_name": "CHROMIUM PLATING CO", "industry": null, "tri_facility_id": "74101CHRMM412NC"}}, {"type": "Feature", "geometry": {"type": "Point", "coordinates": [-96.005833, 36.16]}, "properties": {"facility_name": "PRAIRE FARMS TULSA LLC", "industry": null, "tri_facility_id": "74101MDWGL215ND"}}, {"type": "Feature", "geometry": {"type": "Point", "coordinates": [-95.981111, 36.155]}, "properties": {"facility_name": "NORDAM MFG DIV", "industry": null, "tri_facility_id": "74101NRDMR510SO"}}, {"type": "Feature", "geometry": {"type": "Point", "coordinates": [-96.0121, 36.1331]}, "properties": {"facility_name": "TEREX CORP UNIT RIG DIV", "industry": null, "tri_facility_id": "74101NTRQQ5400S"}}, {"type": "Feature", "geometry": {"type": "Point", "coordinates": [-96.04694444444445, 36.135555555555555]}, "properties": {"facility_name": "D & L OIL TOOLS", "industry": null, "tri_facility_id": "74101VLMNT1915S"}}, {"type": "Feature", "geometry": {"type": "Point", "coordinates": [-95.995833, 36.155556]}, "properties": {"facility_name": "THERMAL SYS INC", "industry": null, "tri_facility_id": "74102THRML202SF"}}, {"type": "Feature", "geometry": {"type": "Point", "coordinates": [-95.965556, 36.167778]}, "properties": {"facility_name": "WHEATLEY GASO INC PLANT 9", "industry": null, "tri_facility_id": "74104WHTLY1023N"}}, {"type": "Feature", "geometry": {"type": "Point", "coordinates": [-95.975, 36.170833]}, "properties": {"facility_name": "CUSTOM ENG & MFG CO INC", "industry": null, "tri_facility_id": "74106CSTMN1120N"}}, {"type": "Feature", "geometry": {"type": "Point", "coordinates": [-95.971667, 36.171389]}, "properties": {"facility_name": "DOWELL SCHLUMBERGER INC", "industry": null, "tri_facility_id": "74106DWLLS1151N"}}, {"type": "Feature", "geometry": {"type": "Point", "coordinates": [-95.9824, 36.1917]}, "properties": {"facility_name": "FLUOROCARBON CO FO-MAC DIV", "industry": null, "tri_facility_id": "74106FLRCR2621N"}}, {"type": "Feature", "geometry": {"type": "Point", "coordinates": [-95.98266, 36.170968]}, "properties": {"facility_name": "METAL DYNAMICS CORP", "industry": null, "tri_facility_id": "74106MTLDY1145N"}}, {"type": "Feature", "geometry": {"type": "Point", "coordinates": [-96.04833333333333, 36.132777777777775]}, "properties": {"facility_name": "BUILDERS STEEL CO INC", "industry": null, "tri_facility_id": "74107BLDRS1924S"}}, {"type": "Feature", "geometry": {"type": "Point", "coordinates": [-96.000278, 36.097778]}, "properties": {"facility_name": "BUNDY BUMPER", "industry": null, "tri_facility_id": "74107BNDYB4530S"}}, {"type": "Feature", "geometry": {"type": "Point", "coordinates": [-96.009444, 36.108333]}, "properties": {"facility_name": "RUST-OLEUM CONCRETE PROTECTION SYS", "industry": null, "tri_facility_id": "74107CNCRT1238W"}}, {"type": "Feature", "geometry": {"type": "Point", "coordinates": [-96.020833, 36.140278]}, "properties": {"facility_name": "CONTAINER PRODS, OF OKLAHOMA INC", "industry": null, "tri_facility_id": "74107CNTNR3717W"}}, {"type": "Feature", "geometry": {"type": "Point", "coordinates": [-95.99694444444445, 36.10444444444445]}, "properties": {"facility_name": "FINTUBE LLC", "industry": null, "tri_facility_id": "74107FNTBL555WE"}}, {"type": "Feature", "geometry": {"type": "Point", "coordinates": [-96.043056, 36.082222]}, "properties": {"facility_name": "FRONTIER PLASTIC FABRICATORS", "industry": null, "tri_facility_id": "74107FRNTR4518W"}}, {"type": "Feature", "geometry": {"type": "Point", "coordinates": [-96.006972, 36.130524]}, "properties": {"facility_name": "FISHER PRODUCTS LLC", "industry": null, "tri_facility_id": "74107FSHRP1320W"}}, {"type": "Feature", "geometry": {"type": "Point", "coordinates": [-96.018611, 36.122222]}, "properties": {"facility_name": "SUN CHEMICAL CORP GPI DIV", "industry": null, "tri_facility_id": "74107GNRLP2801S"}}, {"type": "Feature", "geometry": {"type": "Point", "coordinates": [-95.99444444444444, 36.106944444444444]}, "properties": {"facility_name": "HARCROS CHEMICALS INC", "industry": null, "tri_facility_id": "74107HRCRS3810S"}}, {"type": "Feature", "geometry": {"type": "Point", "coordinates": [-96.04638888888888, 36.091944444444444]}, "properties": {"facility_name": "HYDROTEX-TULSA MANUFACTURING", "industry": null, "tri_facility_id": "74107HYDRT4912S"}}, {"type": "Feature", "geometry": {"type": "Point", "coordinates": [-96.04722222222222, 36.08583333333333]}, "properties": {"facility_name": "OKLAHOMA FORGE", "industry": null, "tri_facility_id": "74107KLHMF5259S"}}, {"type": "Feature", "geometry": {"type": "Point", "coordinates": [-96.0, 36.083333333333336]}, "properties": {"facility_name": "TAT-LIMCO THERMAL SOLUTIONS", "industry": null, "tri_facility_id": "74107LMCRP5304S"}}, {"type": "Feature", "geometry": {"type": "Point", "coordinates": [-96.00027777777778, 36.10277777777778]}, "properties": {"facility_name": "METAL SERVICES INC", "industry": null, "tri_facility_id": "74107MTLSR640W4"}}, {"type": "Feature", "geometry": {"type": "Point", "coordinates": [-96.036944, 36.124167]}, "properties": {"facility_name": "AAON INC", "industry": null, "tri_facility_id": "74107NNCXX2425S"}}, {"type": "Feature", "geometry": {"type": "Point", "coordinates": [-96.046667, 36.097222]}, "properties": {"facility_name": "DOVER RESOURCE CO NORRIS", "industry": null, "tri_facility_id": "74107NRRSD4615S"}}, {"type": "Feature", "geometry": {"type": "Point", "coordinates": [-96.041667, 36.091667]}, "properties": {"facility_name": "NORRIS RODS INC.", "industry": null, "tri_facility_id": "74107NRRSS4801W"}}, {"type": "Feature", "geometry": {"type": "Point", "coordinates": [-96.04166666666667, 36.093611111111116]}, "properties": {"facility_name": "JM EAGLE", "industry": null, "tri_facility_id": "74107PNRLD451W4"}}, {"type": "Feature", "geometry": {"type": "Point", "coordinates": [-95.996389, 36.088611]}, "properties": {"facility_name": "PEPSI BOTTLING GROUP (PBG)", "industry": null, "tri_facility_id": "74107PPSCL510WE"}}, {"type": "Feature", "geometry": {"type": "Point", "coordinates": [-96.02027777777778, 36.12277777777778]}, "properties": {"facility_name": "US ECOLOGY TULSA INC", "industry": null, "tri_facility_id": "74107PRMFX2500S"}}, {"type": "Feature", "geometry": {"type": "Point", "coordinates": [-96.014444, 36.133056]}, "properties": {"facility_name": "AZZ GALVANIZING-TULSA", "industry": null, "tri_facility_id": "74107RGRSG1800W"}}, {"type": "Feature", "geometry": {"type": "Point", "coordinates": [-96.0017, 36.1262]}, "properties": {"facility_name": "NORTH AMERICAN GALVANIZING CO. PLANT2", "industry": null, "tri_facility_id": "74107RGRSG2506W"}}, {"type": "Feature", "geometry": {"type": "Point", "coordinates": [-96.03444444444445, 36.134166666666665]}, "properties": {"facility_name": "ASHLAND INC - TULSA", "industry": null, "tri_facility_id": "74107SHLND3535W"}}, {"type": "Feature", "geometry": {"type": "Point", "coordinates": [-95.99777777777778, 36.10444444444445]}, "properties": {"facility_name": "SULZER CHEMTECH", "industry": null, "tri_facility_id": "74107SLZRC639W4"}}, {"type": "Feature", "geometry": {"type": "Point", "coordinates": [-96.0, 36.132778]}, "properties": {"facility_name": "HF SIINCLAIR TULSA REFINING LLC EAST FACILITY", "industry": null, "tri_facility_id": "74107SNCLR902W2"}}, {"type": "Feature", "geometry": {"type": "Point", "coordinates": [-96.020833, 36.140278]}, "properties": {"facility_name": "HF SINCLAIR TULSA REFINING WEST FACILITY", "industry": null, "tri_facility_id": "74107SNRFN1700S"}}, {"type": "Feature", "geometry": {"type": "Point", "coordinates": [-96.021667, 36.133056]}, "properties": {"facility_name": "ROGERS GALVANIZING CO SPIN-GALV DIV", "industry": null, "tri_facility_id": "74107SPNGL2302S"}}, {"type": "Feature", "geometry": {"type": "Point", "coordinates": [-96.02916666666667, 36.135]}, "properties": {"facility_name": "CMC STEEL FABRICATORS INC (DBA CMC CONSTRUCTION SERVICES)", "industry": null, "tri_facility_id": "74107THLFL1925S"}}, {"type": "Feature", "geometry": {"type": "Point", "coordinates": [-95.9997, 36.101961]}, "properties": {"facility_name": "WORSHAM ENTERPRISES INC", "industry": null, "tri_facility_id": "74107WRSHM4242S"}}, {"type": "Feature", "geometry": {"type": "Point", "coordinates": [-96.051389, 36.135556]}, "properties": {"facility_name": "CHEMTRADE REFINERY SERVICES INC", "industry": null, "tri_facility_id": "74107WSTSD5201W"}}, {"type": "Feature", "geometry": {"type": "Point", "coordinates": [-96.049444, 36.138889]}, "properties": {"facility_name": "OZARK FLUORINE SPECIALTIES INC", "industry": null, "tri_facility_id": "74107ZRKMH5101W"}}, {"type": "Feature", "geometry": {"type": "Point", "coordinates": [-95.946111, 36.1925]}, "properties": {"facility_name": "DOLPHIN MANUFACTURING", "industry": null, "tri_facility_id": "74110DLPHN2929E"}}, {"type": "Feature", "geometry": {"type": "Point", "coordinates": [-95.946944, 36.189444]}, "properties": {"facility_name": "PENLOYD", "industry": null, "tri_facility_id": "74110KLHMF2900E"}}, {"type": "Feature", "geometry": {"type": "Point", "coordinates": [-95.957222, 36.166111]}, "properties": {"facility_name": "ALPHA INVESTMENT CASTING LLC", "industry": null, "tri_facility_id": "74110LPHNV2441E"}}, {"type": "Feature", "geometry": {"type": "Point", "coordinates": [-95.958333, 36.190833]}, "properties": {"facility_name": "APACHE FIXTURE CO", "industry": null, "tri_facility_id": "74110PCHFX2400N"}}, {"type": "Feature", "geometry": {"type": "Point", "coordinates": [-95.928889, 36.194722]}, "properties": {"facility_name": "PROGRESSIVE BRASS MFG CO", "industry": null, "tri_facility_id": "74110PRGRS2929E"}}, {"type": "Feature", "geometry": {"type": "Point", "coordinates": [-95.933333, 36.166667]}, "properties": {"facility_name": "CROSBY GROUP MCKISSICK PLANT", "industry": null, "tri_facility_id": "74110THCRS28012"}}, {"type": "Feature", "geometry": {"type": "Point", "coordinates": [-95.9625, 36.165278]}, "properties": {"facility_name": "VALMONT NEWMARK", "industry": null, "tri_facility_id": "74110VLMNT801NO"}}, {"type": "Feature", "geometry": {"type": "Point", "coordinates": [-95.896667, 36.146944]}, "properties": {"facility_name": "GRAPHIC ELECTRONICS", "industry": null, "tri_facility_id": "74112GRPHC1143S"}}, {"type": "Feature", "geometry": {"type": "Point", "coordinates": [-95.9133, 36.148793]}, "properties": {"facility_name": "OKLAHOMA FIXTURE CO", "industry": null, "tri_facility_id": "74112KLHMF924SH"}}, {"type": "Feature", "geometry": {"type": "Point", "coordinates": [-95.904167, 36.151389]}, "properties": {"facility_name": "MODERN PLATING CORP", "industry": null, "tri_facility_id": "74112MDRNP1125S"}}, {"type": "Feature", "geometry": {"type": "Point", "coordinates": [-95.91, 36.136667]}, "properties": {"facility_name": "METAL PROCESSING CO INC.", "industry": null, "tri_facility_id": "74112MTLPR1220S"}}, {"type": "Feature", "geometry": {"type": "Point", "coordinates": [-95.901944, 36.142778]}, "properties": {"facility_name": "ANCHOR PAINT MANUFACTURING CO INC", "industry": null, "tri_facility_id": "74112NCHRP6707E"}}, {"type": "Feature", "geometry": {"type": "Point", "coordinates": [-95.903611, 36.146389]}, "properties": {"facility_name": "PENNWELL PRINTING CO", "industry": null, "tri_facility_id": "74112PNNWL1421S"}}, {"type": "Feature", "geometry": {"type": "Point", "coordinates": [-95.908333, 36.143056]}, "properties": {"facility_name": "ASSOCIATED MILK PRODUCERS INC", "industry": null, "tri_facility_id": "74112SSCTD6240E"}}, {"type": "Feature", "geometry": {"type": "Point", "coordinates": [-95.9, 36.179167]}, "properties": {"facility_name": "CRANE CARRIER CO", "industry": null, "tri_facility_id": "74115CRNCR1925N"}}, {"type": "Feature", "geometry": {"type": "Point", "coordinates": [-95.92, 36.20638888888889]}, "properties": {"facility_name": "DIAMOND VOGEL INC.", "industry": null, "tri_facility_id": "74115DVSFR5111E"}}, {"type": "Feature", "geometry": {"type": "Point", "coordinates": [-95.9, 36.183333]}, "properties": {"facility_name": "GEOPHYSICAL RESEARCH CORP", "industry": null, "tri_facility_id": "74115GPHYS6540E"}}, {"type": "Feature", "geometry": {"type": "Point", "coordinates": [-95.915264, 36.167246]}, "properties": {"facility_name": "HUGHES-ANDERSON HEAT EXCHANGERS INC", "industry": null, "tri_facility_id": "74115HGHSN1001N"}}, {"type": "Feature", "geometry": {"type": "Point", "coordinates": [-95.940278, 36.166667]}, "properties": {"facility_name": "BODYCOTE THERMAL PROCESSING INC", "industry": null, "tri_facility_id": "74115HNDRL1240N"}}, {"type": "Feature", "geometry": {"type": "Point", "coordinates": [-95.908333, 36.180556]}, "properties": {"facility_name": "ALUMINUM HARDCOAT CO", "industry": null, "tri_facility_id": "74115LMNMH6016E"}}, {"type": "Feature", "geometry": {"type": "Point", "coordinates": [-95.900278, 36.179167]}, "properties": {"facility_name": "MCDONNELL DOUGLAS", "industry": null, "tri_facility_id": "74115MCDNN11333"}}, {"type": "Feature", "geometry": {"type": "Point", "coordinates": [-95.875, 36.188611]}, "properties": {"facility_name": "MCDONNELL DOUGLAS TULSA", "industry": null, "tri_facility_id": "74115MCDNN2000N"}}, {"type": "Feature", "geometry": {"type": "Point", "coordinates": [-95.906111, 36.166667]}, "properties": {"facility_name": "MCELROY MANUFACTURING INC", "industry": null, "tri_facility_id": "74115MCLRY833NF"}}, {"type": "Feature", "geometry": {"type": "Point", "coordinates": [-95.92, 36.208056]}, "properties": {"facility_name": "LILLY INDUSTRIES INC", "industry": null, "tri_facility_id": "74115MLNPN5111E"}}, {"type": "Feature", "geometry": {"type": "Point", "coordinates": [-95.9, 36.19166666666666]}, "properties": {"facility_name": "PRYER MACHINE & TOOL CO, INC", "industry": null, "tri_facility_id": "74115PRYRM2230N"}}, {"type": "Feature", "geometry": {"type": "Point", "coordinates": [-95.917222, 36.194444]}, "properties": {"facility_name": "QUALITY PLATING CO OF TULSA", "industry": null, "tri_facility_id": "74115QLTYP2665N"}}, {"type": "Feature", "geometry": {"type": "Point", "coordinates": [-95.880556, 36.185833]}, "properties": {"facility_name": "US AIR FORCE PLANT 03 OK", "industry": null, "tri_facility_id": "74115SDDSF3330N"}}, {"type": "Feature", "geometry": {"type": "Point", "coordinates": [-95.881944, 36.218333]}, "properties": {"facility_name": "US AIR FORCE TULSA ANG AFB OK", "industry": null, "tri_facility_id": "74115THFGH4200N"}}, {"type": "Feature", "geometry": {"type": "Point", "coordinates": [-95.91805555555555, 36.17638888888889]}, "properties": {"facility_name": "TULCO OILS INC", "industry": null, "tri_facility_id": "74115TLCLS5240E"}}, {"type": "Feature", "geometry": {"type": "Point", "coordinates": [-95.91527777777779, 36.19472222222222]}, "properties": {"facility_name": "WALDEN'S MACHINE INC", "industry": null, "tri_facility_id": "74115WLDNS3030N"}}, {"type": "Feature", "geometry": {"type": "Point", "coordinates": [-95.86055555555555, 36.17861111111111]}, "properties": {"facility_name": "GKN AEROSPACE CHEM-TRONICS INC", "industry": null, "tri_facility_id": "74116GKNRS1550N"}}, {"type": "Feature", "geometry": {"type": "Point", "coordinates": [-95.86777777777777, 36.18472222222222]}, "properties": {"facility_name": "IC OF OKLAHOMA LLC", "industry": null, "tri_facility_id": "74116MRCNT2322N"}}, {"type": "Feature", "geometry": {"type": "Point", "coordinates": [-95.866667, 36.229167]}, "properties": {"facility_name": "H&L TOOTH", "industry": null, "tri_facility_id": "74117HLTTH10055"}}, {"type": "Feature", "geometry": {"type": "Point", "coordinates": [-95.868889, 36.230556]}, "properties": {"facility_name": "BRADEN MANUFACTURING", "industry": null, "tri_facility_id": "74117MCNTR5199N"}}, {"type": "Feature", "geometry": {"type": "Point", "coordinates": [-95.866944, 36.236111]}, "properties": {"facility_name": "RAMCO PANELING", "industry": null, "tri_facility_id": "74117RMCPN9741E"}}, {"type": "Feature", "geometry": {"type": "Point", "coordinates": [-95.979137, 36.1593]}, "properties": {"facility_name": "CRANE/CENTER LINE", "industry": null, "tri_facility_id": "74120CNTRL1007E"}}, {"type": "Feature", "geometry": {"type": "Point", "coordinates": [-95.971111, 36.151667]}, "properties": {"facility_name": "DELTA T LTD", "industry": null, "tri_facility_id": "74120DLTTL1507E"}}, {"type": "Feature", "geometry": {"type": "Point", "coordinates": [-95.98194444444445, 36.16222222222222]}, "properties": {"facility_name": "KENTUBE ENGINEERED PRODS", "industry": null, "tri_facility_id": "74120KNTBN186NL"}}, {"type": "Feature", "geometry": {"type": "Point", "coordinates": [-95.97277777777778, 36.155833333333334]}, "properties": {"facility_name": "NAMEPLATES INC", "industry": null, "tri_facility_id": "74120NMPLT325SQ"}}, {"type": "Feature", "geometry": {"type": "Point", "coordinates": [-95.978642, 36.162]}, "properties": {"facility_name": "NORDAM TRANSPARENCY DIV CASTING DIV", "industry": null, "tri_facility_id": "74120NRDMC1050E"}}, {"type": "Feature", "geometry": {"type": "Point", "coordinates": [-95.970556, 36.155556]}, "properties": {"facility_name": "SOUTHWEST UNITED INDUSTRIES INC", "industry": null, "tri_facility_id": "74120STHWS422SO"}}, {"type": "Feature", "geometry": {"type": "Point", "coordinates": [-95.976111, 36.149722]}, "properties": {"facility_name": "JIMMIE JONES CO", "industry": null, "tri_facility_id": "74120THJMM31NOR"}}, {"type": "Feature", "geometry": {"type": "Point", "coordinates": [-95.976111, 36.149722]}, "properties": {"facility_name": "AUTOMOTIVE RADIATOR SUPPLY CO", "industry": null, "tri_facility_id": "74120TMTVR810EA"}}, {"type": "Feature", "geometry": {"type": "Point", "coordinates": [-95.971111, 36.1625]}, "properties": {"facility_name": "TRINITY CONTAINERS, LLC PLT 27", "industry": null, "tri_facility_id": "74120TRNTY160NR"}}, {"type": "Feature", "geometry": {"type": "Point", "coordinates": [-96.05666666666666, 36.03472222222222]}, "properties": {"facility_name": "ADJUVANTS UNLIMITED- #3507", "industry": null, "tri_facility_id": "74127DJVNT3634C"}}, {"type": "Feature", "geometry": {"type": "Point", "coordinates": [-96.086111, 36.136667]}, "properties": {"facility_name": "SOUTHWESTERN WIRE TULSA", "industry": null, "tri_facility_id": "74127GNRLW1800S"}}, {"type": "Feature", "geometry": {"type": "Point", "coordinates": [-96.047222, 36.141667]}, "properties": {"facility_name": "HYDROTEX PARTNERS LTD", "industry": null, "tri_facility_id": "74127MJSTC515S2"}}, {"type": "Feature", "geometry": {"type": "Point", "coordinates": [-96.0398, 36.1702]}, "properties": {"facility_name": "PICKERING METAL CASTING LLC", "industry": null, "tri_facility_id": "74127MPRFN2729W"}}, {"type": "Feature", "geometry": {"type": "Point", "coordinates": [-96.032777, 36.148098]}, "properties": {"facility_name": "INDUSTRIAL OILS UNLIMITED LLC", "industry": null, "tri_facility_id": "74127NDSTR3633C"}}, {"type": "Feature", "geometry": {"type": "Point", "coordinates": [-96.020278, 36.152222]}, "properties": {"facility_name": "ROYAL MFG CO INC", "industry": null, "tri_facility_id": "74127RYLMF320S2"}}, {"type": "Feature", "geometry": {"type": "Point", "coordinates": [-96.031944, 36.150833]}, "properties": {"facility_name": "WHEATLEY GASO INC PLANT 1", "industry": null, "tri_facility_id": "74127WHTLY3620W"}}, {"type": "Feature", "geometry": {"type": "Point", "coordinates": [-95.95, 36.03333333333333]}, "properties": {"facility_name": "CONLEY COMPOSITES", "industry": null, "tri_facility_id": "74137CNLYC2795E"}}, {"type": "Feature", "geometry": {"type": "Point", "coordinates": [-95.893264, 36.097424]}, "properties": {"facility_name": "BS&B SAFETY SYSTEMS LLC", "industry": null, "tri_facility_id": "74145BSBSF7455E"}}, {"type": "Feature", "geometry": {"type": "Point", "coordinates": [-95.9756, 36.1493]}, "properties": {"facility_name": "CONTINENTAL INDUSTRIES", "industry": null, "tri_facility_id": "74145CNTNN4102S"}}, {"type": "Feature", "geometry": {"type": "Point", "coordinates": [-95.8938888888889, 36.10194444444445]}, "properties": {"facility_name": "OCV CONTROL VALVE", "industry": null, "tri_facility_id": "74145CVCNT7400E"}}, {"type": "Feature", "geometry": {"type": "Point", "coordinates": [-95.87916666666666, 36.09916666666667]}, "properties": {"facility_name": "FLOWSERVE CORP", "industry": null, "tri_facility_id": "74145FLWSR4501S"}}, {"type": "Feature", "geometry": {"type": "Point", "coordinates": [-95.88361111111112, 36.094722222222224]}, "properties": {"facility_name": "GD ENERGY PRODUCTS - TULSA", "industry": null, "tri_facility_id": "74145GRDNR4747S"}}, {"type": "Feature", "geometry": {"type": "Point", "coordinates": [-95.875, 36.083333]}, "properties": {"facility_name": "LABARGE ELECTRONICS", "industry": null, "tri_facility_id": "74145LBRGL9422E"}}, {"type": "Feature", "geometry": {"type": "Point", "coordinates": [-95.894444, 36.102778]}, "properties": {"facility_name": "BODYCOTE THERMAL PROCESSING INC - TULSA 74TH", "industry": null, "tri_facility_id": "74145LNDBR4208S"}}, {"type": "Feature", "geometry": {"type": "Point", "coordinates": [-95.89444444444445, 36.08888888888889]}, "properties": {"facility_name": "MESA PRODUCTS INC.", "industry": null, "tri_facility_id": "74145MSPRD4445S"}}, {"type": "Feature", "geometry": {"type": "Point", "coordinates": [-95.877222, 36.096944]}, "properties": {"facility_name": "AIREPAIR INTERNATIONAL INC", "industry": null, "tri_facility_id": "74145RPRNT4250S"}}, {"type": "Feature", "geometry": {"type": "Point", "coordinates": [-95.89217, 36.096326]}, "properties": {"facility_name": "TK INTL", "industry": null, "tri_facility_id": "74145TKNTR7498E"}}, {"type": "Feature", "geometry": {"type": "Point", "coordinates": [-95.871944, 36.101944]}, "properties": {"facility_name": "TULSA WINCH INC", "industry": null, "tri_facility_id": "74145TLSWN9260B"}}, {"type": "Feature", "geometry": {"type": "Point", "coordinates": [-95.861795, 36.08067]}, "properties": {"facility_name": "OIL STATES INDUSTRIES INC. - TULSA", "industry": null, "tri_facility_id": "74146BRLWH10338"}}, {"type": "Feature", "geometry": {"type": "Point", "coordinates": [-95.865, 36.08916666666667]}, "properties": {"facility_name": "OKLAHOMA OFFSET INC", "industry": null, "tri_facility_id": "74146KLHMF5124S"}}, {"type": "Feature", "geometry": {"type": "Point", "coordinates": [-95.90416666666667, 36.10194444444445]}, "properties": {"facility_name": "BRAINERD CHEMICAL CO INC", "industry": null, "tri_facility_id": "74147BRNRD12NPE"}}, {"type": "Feature", "geometry": {"type": "Point", "coordinates": [-95.891667, 36.108333]}, "properties": {"facility_name": "KAISER ALUMINUM & SPECIALTY PRODS", "industry": null, "tri_facility_id": "74147KSRLM7311E"}}, {"type": "Feature", "geometry": {"type": "Point", "coordinates": [-95.97611111111111, 36.21472222222223]}, "properties": {"facility_name": "UNIVAR USA INC - TULSA", "industry": null, "tri_facility_id": "74148CHMCN4500N"}}, {"type": "Feature", "geometry": {"type": "Point", "coordinates": [-96.027926, 36.1505]}, "properties": {"facility_name": "PRECISION TUBULARS", "industry": null, "tri_facility_id": "74149PRCSN3101C"}}, {"type": "Feature", "geometry": {"type": "Point", "coordinates": [-95.9498, 36.169058]}, "properties": {"facility_name": "INTERSTATE TOOL MANUFACTURING", "industry": null, "tri_facility_id": "74150NTRST1044N"}}, {"type": "Feature", "geometry": {"type": "Point", "coordinates": [-95.93, 36.18]}, "properties": {"facility_name": "ACME BRICK CO TULSA PLANT", "industry": null, "tri_facility_id": "74158CMBRC4103D"}}, {"type": "Feature", "geometry": {"type": "Point", "coordinates": [-95.880556, 36.185833]}, "properties": {"facility_name": "US AIR FORCE PLANT 3 - ROCKWELL INTL CORP", "industry": null, "tri_facility_id": "74158RCKWL2000N"}}, {"type": "Feature", "geometry": {"type": "Point", "coordinates": [-95.95, 36.133333]}, "properties": {"facility_name": "BAMA COS INC", "industry": null, "tri_facility_id": "74159BMPLT2727E"}}, {"type": "Feature", "geometry": {"type": "Point", "coordinates": [-95.985, 36.104722]}, "properties": {"facility_name": "NUTTER ENGINEERING", "industry": null, "tri_facility_id": "74170NTTRN639WE"}}]}