{"type": "FeatureCollection", "features": [{"type": "Feature", "properties": {"area_id": 10373, "city": "Grand Junction", "state": "CO", "city_survey": false, "cat": "Business", "grade": null, "label": "Business", "res": false, "com": true, "ind": false, "holc_grade": null}, "geometry": {"type": "MultiPolygon", "coordinates": [[[[-108.56108, 39.06637], [-108.56176, 39.0664], [-108.56169, 39.06537], [-108.56959, 39.06539], [-108.56959, 39.06767], [-108.56786, 39.06786], [-108.5662, 39.0683], [-108.56531, 39.0683], [-108.561041, 39.068293], [-108.5594, 39.06829], [-108.55943, 39.0677], [-108.5579, 39.06754], [-108.55791, 39.06716], [-108.55929, 39.067], [-108.55929, 39.06683], [-108.561041, 39.06682], [-108.5611, 39.06682], [-108.56108, 39.06637]]], [[[-108.5765, 39.07113], [-108.57499, 39.07136], [-108.57467, 39.0701], [-108.57484, 39.06929], [-108.57579, 39.06929], [-108.5765, 39.07113]]]]}}, {"type": "Feature", "properties": {"area_id": 10375, "city": "Grand Junction", "state": "CO", "city_survey": false, "cat": "Fair", "grade": null, "label": "Fair", "res": true, "com": false, "ind": false, "holc_grade": null}, "geometry": {"type": "MultiPolygon", "coordinates": [[[[-108.55241, 39.0641], [-108.5543, 39.0641], [-108.55431, 39.06397], [-108.56033, 39.06397], [-108.560343, 39.064379], [-108.56036, 39.06493], [-108.55596, 39.0649], [-108.552427, 39.064887], [-108.548207, 39.064872], [-108.54759, 39.06487], [-108.5476, 39.06427], [-108.54875, 39.06429], [-108.55242, 39.06425], [-108.55241, 39.0641]]], [[[-108.565939, 39.077413], [-108.56171, 39.07745], [-108.561048, 39.07746], [-108.55711, 39.07752], [-108.55707, 39.08095], [-108.552378, 39.081009], [-108.54995, 39.08104], [-108.54989, 39.07829], [-108.55221, 39.07832], [-108.55226, 39.07744], [-108.552388, 39.077442], [-108.55299, 39.07745], [-108.55307, 39.0793], [-108.55244, 39.07931], [-108.5525, 39.08048], [-108.55596, 39.0804], [-108.556054, 39.077402], [-108.55607, 39.0769], [-108.55953, 39.0769], [-108.55954, 39.07654], [-108.561044, 39.076522], [-108.56282, 39.0765], [-108.5629, 39.07685], [-108.56613, 39.07673], [-108.56768, 39.07643], [-108.5694, 39.07556], [-108.56943, 39.07055], [-108.56864, 39.07048], [-108.56867, 39.06923], [-108.56521, 39.06918], [-108.56531, 39.0683], [-108.5662, 39.0683], [-108.56786, 39.06786], [-108.56959, 39.06767], [-108.5707, 39.06765], [-108.57071, 39.07022], [-108.57091, 39.07021], [-108.570911, 39.070339], [-108.57095, 39.07737], [-108.565939, 39.077413]]], [[[-108.55234, 39.06105], [-108.55223, 39.05832], [-108.55822, 39.05819], [-108.55817, 39.0567], [-108.55691, 39.05664], [-108.55699, 39.05565], [-108.56437, 39.0558], [-108.56433, 39.05798], [-108.5634, 39.05797], [-108.56337, 39.05939], [-108.56182, 39.05936], [-108.55885, 39.06194], [-108.55778, 39.06219], [-108.55467, 39.06213], [-108.5547, 39.06119], [-108.55234, 39.06105]]], [[[-108.55678, 39.0447], [-108.56182, 39.04477], [-108.56176, 39.04849], [-108.5703, 39.04851], [-108.57133, 39.0487], [-108.56954, 39.0496], [-108.56806, 39.05141], [-108.56785, 39.0525], [-108.56802, 39.05401], [-108.567705, 39.054983], [-108.5677, 39.055], [-108.567615, 39.054952], [-108.56484, 39.05338], [-108.56329, 39.05224], [-108.562585, 39.051921], [-108.562415, 39.051844], [-108.56181, 39.05157], [-108.56043, 39.05128], [-108.55683, 39.05081], [-108.55678, 39.0447]]], [[[-108.57768, 39.0628], [-108.57859, 39.06384], [-108.57928, 39.06543], [-108.58033, 39.06673], [-108.58049, 39.06816], [-108.58082, 39.06997], [-108.57822, 39.07013], [-108.57825, 39.06749], [-108.57544, 39.06739], [-108.57544, 39.06661], [-108.5731, 39.06439], [-108.57313, 39.06308], [-108.5715, 39.06307], [-108.57082, 39.06248], [-108.57077, 39.05936], [-108.57343, 39.05934], [-108.57429, 39.05974], [-108.57549, 39.06113], [-108.57615, 39.06277], [-108.57768, 39.0628]]]]}}, {"type": "Feature", "properties": {"area_id": 10376, "city": "Grand Junction", "state": "CO", "city_survey": false, "cat": "Good", "grade": null, "label": "Good", "res": true, "com": false, "ind": false, "holc_grade": null}, "geometry": {"type": "Polygon", "coordinates": [[[-108.56451, 39.07438], [-108.56104, 39.074414], [-108.55844, 39.07444], [-108.55755, 39.07494], [-108.55606, 39.07494], [-108.55596, 39.07538], [-108.55442, 39.07551], [-108.55421, 39.07688], [-108.552389, 39.076899], [-108.55231, 39.0769], [-108.55237, 39.07337], [-108.552428, 39.069965], [-108.55244, 39.06924], [-108.561039, 39.06924], [-108.56453, 39.06924], [-108.56451, 39.07438]]]}}, {"type": "Feature", "properties": {"area_id": 10377, "city": "Grand Junction", "state": "CO", "city_survey": false, "cat": "Medium", "grade": null, "label": "Medium", "res": true, "com": false, "ind": false, "holc_grade": null}, "geometry": {"type": "Polygon", "coordinates": [[[-108.548207, 39.064872], [-108.552427, 39.064887], [-108.55596, 39.0649], [-108.56036, 39.06493], [-108.561054, 39.06493], [-108.5612, 39.06493], [-108.56122, 39.06533], [-108.56169, 39.06537], [-108.56176, 39.0664], [-108.56108, 39.06637], [-108.5611, 39.06682], [-108.561041, 39.06682], [-108.55929, 39.06683], [-108.55929, 39.067], [-108.55791, 39.06716], [-108.5579, 39.06754], [-108.55943, 39.0677], [-108.5594, 39.06829], [-108.561041, 39.068293], [-108.56531, 39.0683], [-108.56521, 39.06918], [-108.56867, 39.06923], [-108.56864, 39.07048], [-108.56943, 39.07055], [-108.5694, 39.07556], [-108.56768, 39.07643], [-108.56613, 39.07673], [-108.5629, 39.07685], [-108.56282, 39.0765], [-108.561044, 39.076522], [-108.55954, 39.07654], [-108.55953, 39.0769], [-108.55607, 39.0769], [-108.556054, 39.077402], [-108.55596, 39.0804], [-108.5525, 39.08048], [-108.55244, 39.07931], [-108.55307, 39.0793], [-108.55299, 39.07745], [-108.552388, 39.077442], [-108.55226, 39.07744], [-108.552264, 39.077392], [-108.55231, 39.0769], [-108.552389, 39.076899], [-108.55421, 39.07688], [-108.55442, 39.07551], [-108.55596, 39.07538], [-108.55606, 39.07494], [-108.55755, 39.07494], [-108.55844, 39.07444], [-108.56104, 39.074414], [-108.56451, 39.07438], [-108.56453, 39.06924], [-108.561039, 39.06924], [-108.55244, 39.06924], [-108.552428, 39.069965], [-108.55237, 39.07337], [-108.54769, 39.07339], [-108.54778, 39.06956], [-108.547596, 39.065015], [-108.54759, 39.06487], [-108.548207, 39.064872]]]}}, {"type": "Feature", "properties": {"area_id": 10374, "city": "Grand Junction", "state": "CO", "city_survey": false, "cat": "Poor", "grade": null, "label": "Poor", "res": true, "com": false, "ind": false, "holc_grade": null}, "geometry": {"type": "MultiPolygon", "coordinates": [[[[-108.57563, 39.07199], [-108.57316, 39.072], [-108.57313, 39.07017], [-108.57515, 39.06799], [-108.57728, 39.07008], [-108.57731, 39.07201], [-108.57563, 39.07199]], [[-108.57484, 39.06929], [-108.57467, 39.0701], [-108.57499, 39.07136], [-108.5765, 39.07113], [-108.57579, 39.06929], [-108.57484, 39.06929]]], [[[-108.57313, 39.07017], [-108.57091, 39.07021], [-108.57071, 39.07022], [-108.5707, 39.06765], [-108.56959, 39.06767], [-108.56959, 39.06539], [-108.56169, 39.06537], [-108.56122, 39.06533], [-108.5612, 39.06493], [-108.561054, 39.06493], [-108.56036, 39.06493], [-108.560343, 39.064379], [-108.56033, 39.06397], [-108.55431, 39.06397], [-108.5543, 39.0641], [-108.55241, 39.0641], [-108.55242, 39.06425], [-108.54875, 39.06429], [-108.5476, 39.06427], [-108.54755, 39.06273], [-108.55466, 39.06291], [-108.55778, 39.06219], [-108.55885, 39.06194], [-108.56025, 39.06162], [-108.56113, 39.06144], [-108.56122, 39.06286], [-108.564461, 39.062878], [-108.56831, 39.0629], [-108.56943, 39.0638], [-108.57249, 39.06641], [-108.57321, 39.06649], [-108.57347, 39.06732], [-108.57311, 39.06732], [-108.57313, 39.07017]]]]}}]}