{"type": "FeatureCollection", "features": [{"type": "Feature", "properties": {"area_id": 10836, "city": "Grand Forks", "state": "ND", "city_survey": false, "cat": "Best Residential District", "grade": "A", "label": "Best Residential District", "res": true, "com": false, "ind": false, "holc_grade": "A"}, "geometry": {"type": "MultiPolygon", "coordinates": [[[[-97.03583, 47.93687], [-97.03582, 47.93638], [-97.03618, 47.93572], [-97.03661, 47.93491], [-97.03709, 47.93443], [-97.03781, 47.93313], [-97.04194, 47.93311], [-97.04263, 47.93311], [-97.04494, 47.9331], [-97.04496, 47.93404], [-97.04501, 47.9368], [-97.04502, 47.937166], [-97.04502, 47.93717], [-97.039659, 47.93719], [-97.03959, 47.93719], [-97.03956, 47.93671], [-97.03928, 47.93611], [-97.03583, 47.93687]]], [[[-97.04675, 47.93171], [-97.04772, 47.93097], [-97.04936, 47.9331], [-97.04675, 47.93171]]], [[[-97.05981, 47.9221], [-97.059657, 47.922101], [-97.0552, 47.92212], [-97.05526, 47.92124], [-97.059668, 47.921186], [-97.06256, 47.92115], [-97.06267, 47.92208], [-97.05981, 47.9221]]]]}}, {"type": "Feature", "properties": {"area_id": 10840, "city": "Grand Forks", "state": "ND", "city_survey": false, "cat": "Good Residential District", "grade": "B", "label": "Good Residential District", "res": true, "com": false, "ind": false, "holc_grade": "B"}, "geometry": {"type": "MultiPolygon", "coordinates": [[[[-97.03721, 47.91116], [-97.037222, 47.91197], [-97.03729, 47.91642], [-97.033281, 47.91637], [-97.03328, 47.91637], [-97.03321, 47.91838], [-97.02874, 47.91834], [-97.02856, 47.92132], [-97.02719, 47.92056], [-97.02525, 47.92216], [-97.0275, 47.92358], [-97.02603, 47.92466], [-97.02497, 47.92382], [-97.0236, 47.92288], [-97.02224, 47.92209], [-97.02122, 47.92167], [-97.02255, 47.9206], [-97.02037, 47.91951], [-97.02107, 47.91825], [-97.02775, 47.91838], [-97.02769, 47.91523], [-97.02871, 47.91522], [-97.02871, 47.914021], [-97.02871, 47.90887], [-97.03164, 47.90881], [-97.033331, 47.908793], [-97.03554, 47.90877], [-97.03649, 47.90876], [-97.03656, 47.91116], [-97.03721, 47.91116]]], [[[-97.059802, 47.922257], [-97.05975, 47.92324], [-97.05518, 47.92324], [-97.05075, 47.92324], [-97.05082, 47.9243], [-97.04934, 47.92431], [-97.04935, 47.92327], [-97.044986, 47.92327], [-97.04342, 47.92327], [-97.04342, 47.92223], [-97.04057, 47.92218], [-97.04044, 47.92122], [-97.044996, 47.921226], [-97.05526, 47.92124], [-97.0552, 47.92212], [-97.059657, 47.922101], [-97.05981, 47.9221], [-97.059802, 47.922257]]], [[[-97.04642, 47.9253], [-97.04639, 47.92822], [-97.04799, 47.92823], [-97.04794, 47.92923], [-97.046555, 47.92923], [-97.04612, 47.92923], [-97.04363, 47.92652], [-97.04355, 47.92524], [-97.04498, 47.92527], [-97.04642, 47.9253]]]]}}, {"type": "Feature", "properties": {"area_id": 10839, "city": "Grand Forks", "state": "ND", "city_survey": false, "cat": "Fair Residential District", "grade": "C", "label": "Fair Residential District", "res": true, "com": false, "ind": false, "holc_grade": "C"}, "geometry": {"type": "MultiPolygon", "coordinates": [[[[-97.02883, 47.90633], [-97.03173, 47.90638], [-97.03164, 47.90881], [-97.02871, 47.90887], [-97.02883, 47.90633]]], [[[-97.04024, 47.91646], [-97.040232, 47.917958], [-97.040232, 47.918106], [-97.04023, 47.91845], [-97.04094, 47.91844], [-97.039032, 47.919284], [-97.03384, 47.92158], [-97.03329, 47.92153], [-97.033398, 47.918447], [-97.0334, 47.91838], [-97.033269, 47.91838], [-97.03321, 47.91838], [-97.03328, 47.91637], [-97.033281, 47.91637], [-97.03729, 47.91642], [-97.04024, 47.91646]]], [[[-97.04936, 47.9331], [-97.04791, 47.93301], [-97.04792, 47.93404], [-97.04496, 47.93404], [-97.04494, 47.9331], [-97.04654, 47.93305], [-97.04431, 47.93171], [-97.04336, 47.93251], [-97.03649, 47.92862], [-97.03942, 47.92625], [-97.03583, 47.92421], [-97.0378, 47.92268], [-97.03963, 47.92127], [-97.03956, 47.92209], [-97.04268, 47.92548], [-97.04363, 47.92652], [-97.04612, 47.92923], [-97.046555, 47.92923], [-97.04794, 47.92923], [-97.04791, 47.93016], [-97.04936, 47.93019], [-97.04936, 47.932028], [-97.04936, 47.9331]], [[-97.04936, 47.9331], [-97.04772, 47.93097], [-97.04675, 47.93171], [-97.04936, 47.9331]]], [[[-97.03959, 47.93719], [-97.039645, 47.93844], [-97.03967, 47.93901], [-97.03962, 47.938992], [-97.03733, 47.93816], [-97.03731, 47.93963], [-97.0366, 47.93929], [-97.03612, 47.93857], [-97.03589, 47.93777], [-97.03583, 47.93687], [-97.03928, 47.93611], [-97.03956, 47.93671], [-97.03959, 47.93719]]], [[[-97.04044, 47.92122], [-97.04049, 47.92037], [-97.04072, 47.92015], [-97.044972, 47.920141], [-97.05533, 47.92012], [-97.05526, 47.92124], [-97.044996, 47.921226], [-97.04044, 47.92122]]], [[[-97.04342, 47.92327], [-97.044986, 47.92327], [-97.04935, 47.92327], [-97.04934, 47.92431], [-97.05082, 47.9243], [-97.05083, 47.92529], [-97.04944, 47.9253], [-97.04941, 47.92824], [-97.04799, 47.92823], [-97.04639, 47.92822], [-97.04642, 47.9253], [-97.04498, 47.92527], [-97.04355, 47.92524], [-97.04342, 47.92327]]], [[[-97.05109, 47.933061], [-97.05044, 47.93306], [-97.05042, 47.93267], [-97.05034, 47.9311], [-97.05532, 47.93115], [-97.06104, 47.93119], [-97.06103, 47.93307], [-97.05109, 47.933061]]]]}}, {"type": "Feature", "properties": {"area_id": 10841, "city": "Grand Forks", "state": "ND", "city_survey": false, "cat": "Poor Residential District", "grade": "D", "label": "Poor Residential District", "res": true, "com": false, "ind": false, "holc_grade": "D"}, "geometry": {"type": "MultiPolygon", "coordinates": [[[[-97.01763, 47.91215], [-97.01807, 47.91174], [-97.01803, 47.91079], [-97.02117, 47.91081], [-97.02256, 47.91125], [-97.02406, 47.91203], [-97.02547, 47.91284], [-97.0255, 47.91392], [-97.023889, 47.913891], [-97.0222, 47.91386], [-97.022187, 47.913871], [-97.02152, 47.91444], [-97.02005, 47.9142], [-97.01851, 47.91374], [-97.017331, 47.913056], [-97.01727, 47.91302], [-97.017254, 47.912999], [-97.01658, 47.91214], [-97.01763, 47.91215]]], [[[-97.03554, 47.90877], [-97.033331, 47.908793], [-97.03164, 47.90881], [-97.03173, 47.90638], [-97.033349, 47.906393], [-97.033434, 47.906393], [-97.03554, 47.90641], [-97.03554, 47.90877]]], [[[-97.03574, 47.92923], [-97.03649, 47.92862], [-97.04336, 47.93251], [-97.04263, 47.93311], [-97.04194, 47.93311], [-97.03788, 47.93088], [-97.03574, 47.92923]]], [[[-97.0613, 47.92058], [-97.06256, 47.92059], [-97.06256, 47.92115], [-97.059668, 47.921186], [-97.05526, 47.92124], [-97.05533, 47.92012], [-97.044972, 47.920141], [-97.04072, 47.92015], [-97.04132, 47.9193], [-97.04189, 47.91905], [-97.04487, 47.919], [-97.044894, 47.918567], [-97.044899, 47.918483], [-97.0449, 47.91847], [-97.055974, 47.91849], [-97.06137, 47.9185], [-97.061369, 47.91852], [-97.0613, 47.92058]]], [[[-97.0449, 47.91847], [-97.04094, 47.91844], [-97.04023, 47.91845], [-97.040232, 47.918106], [-97.040232, 47.917958], [-97.04024, 47.91646], [-97.03729, 47.91642], [-97.037222, 47.91197], [-97.03721, 47.91116], [-97.04491, 47.91124], [-97.04483, 47.90756], [-97.05045, 47.90766], [-97.050421, 47.91125], [-97.05041, 47.9126], [-97.055552, 47.91261], [-97.05563, 47.91261], [-97.055568, 47.915401], [-97.05553, 47.91714], [-97.04495, 47.91706], [-97.0449, 47.91847]]], [[[-97.04941, 47.92824], [-97.04944, 47.9253], [-97.05083, 47.92529], [-97.05082, 47.9243], [-97.05075, 47.92324], [-97.05518, 47.92324], [-97.05522, 47.92579], [-97.0508, 47.92581], [-97.05032, 47.92581], [-97.05034, 47.9311], [-97.05042, 47.93267], [-97.05044, 47.93306], [-97.04936, 47.9331], [-97.04936, 47.932028], [-97.04936, 47.93019], [-97.04791, 47.93016], [-97.04794, 47.92923], [-97.04799, 47.92823], [-97.04941, 47.92824]]], [[[-97.04936, 47.9331], [-97.049366, 47.933106], [-97.05268, 47.93685], [-97.046445, 47.936887], [-97.04595, 47.93689], [-97.04501, 47.9368], [-97.04496, 47.93404], [-97.04792, 47.93404], [-97.04791, 47.93301], [-97.04936, 47.9331]]]]}}, {"type": "Feature", "properties": {"area_id": 10838, "city": "Grand Forks", "state": "ND", "city_survey": false, "cat": "Business District", "grade": null, "label": "Business District", "res": false, "com": true, "ind": false, "holc_grade": null}, "geometry": {"type": "Polygon", "coordinates": [[[-97.033398, 47.918447], [-97.03329, 47.92153], [-97.02879, 47.9215], [-97.02949, 47.92197], [-97.02853, 47.92278], [-97.02993, 47.92352], [-97.03376, 47.92241], [-97.035785, 47.921588], [-97.03583, 47.92157], [-97.0378, 47.92268], [-97.03583, 47.92421], [-97.03942, 47.92625], [-97.03649, 47.92862], [-97.03574, 47.92923], [-97.0328, 47.92833], [-97.02875, 47.92673], [-97.028694, 47.926692], [-97.02727, 47.92572], [-97.02603, 47.92466], [-97.0275, 47.92358], [-97.02525, 47.92216], [-97.02719, 47.92056], [-97.02856, 47.92132], [-97.02874, 47.91834], [-97.03321, 47.91838], [-97.033269, 47.91838], [-97.0334, 47.91838], [-97.033398, 47.918447]]]}}, {"type": "Feature", "properties": {"area_id": 10837, "city": "Grand Forks", "state": "ND", "city_survey": false, "cat": "Scattered", "grade": null, "label": "Scattered", "res": true, "com": false, "ind": false, "holc_grade": null}, "geometry": {"type": "MultiPolygon", "coordinates": [[[[-97.01559, 47.91012], [-97.01552, 47.90977], [-97.01529, 47.90881], [-97.01521, 47.90805], [-97.0151, 47.90744], [-97.01528, 47.90719], [-97.01916, 47.90722], [-97.0226, 47.90993], [-97.02256, 47.91125], [-97.02117, 47.91081], [-97.01803, 47.91079], [-97.01807, 47.91174], [-97.01763, 47.91215], [-97.01658, 47.91214], [-97.01583, 47.91073], [-97.01559, 47.91012]]], [[[-97.0508, 47.92581], [-97.05522, 47.92579], [-97.05992, 47.92577], [-97.05982, 47.92916], [-97.06095, 47.92915], [-97.06104, 47.93119], [-97.05532, 47.93115], [-97.05034, 47.9311], [-97.05032, 47.92581], [-97.0508, 47.92581]]]]}}]}