{"type": "FeatureCollection", "features": [{"type": "Feature", "geometry": {"type": "Point", "coordinates": [-97.0625, 47.945833]}, "properties": {"facility_name": "AGSCO INC", "industry": null, "tri_facility_id": "58201GSLNC2600M"}}, {"type": "Feature", "geometry": {"type": "Point", "coordinates": [-97.0825, 47.933333]}, "properties": {"facility_name": "J. R. SIMPLOT CO", "industry": null, "tri_facility_id": "58201JRSMP3630G"}}, {"type": "Feature", "geometry": {"type": "Point", "coordinates": [-97.1, 47.915]}, "properties": {"facility_name": "LYSTADS JANITORIAL PRODUCTS", "industry": null, "tri_facility_id": "58201LYSTD810SO"}}, {"type": "Feature", "geometry": {"type": "Point", "coordinates": [-97.05916666666667, 47.94499999999999]}, "properties": {"facility_name": "RDO FROZEN CO. OF DELAWARE D/B /A RDO FOODS CO.", "industry": null, "tri_facility_id": "58203RDFRZ25MIL"}}, {"type": "Feature", "geometry": {"type": "Point", "coordinates": [-97.0875, 47.958333]}, "properties": {"facility_name": "US DEFENSE LOGISTICS AGENCY GRAND FORKS FUEL SUPPORT POINT", "industry": null, "tri_facility_id": "58203SDFNS4128A"}}, {"type": "Feature", "geometry": {"type": "Point", "coordinates": [-97.10083333333333, 47.89694444444444]}, "properties": {"facility_name": "LM WIND POWER BLADES INC", "industry": null, "tri_facility_id": "58206LMGLS1580S"}}, {"type": "Feature", "geometry": {"type": "Point", "coordinates": [-97.056667, 47.938611]}, "properties": {"facility_name": "NORTH DAKOTA MILL", "industry": null, "tri_facility_id": "58206NRTHD1823M"}}]}