{"type": "FeatureCollection", "features": [{"type": "Feature", "properties": {"area_id": 2345, "city": "Troy", "state": "NY", "city_survey": true, "cat": "Best", "grade": "A", "label": "A1", "res": true, "com": false, "ind": false, "holc_grade": "A"}, "geometry": {"type": "Polygon", "coordinates": [[[-73.67816, 42.726831], [-73.67813, 42.72698], [-73.67813, 42.72699], [-73.67808, 42.726997], [-73.67748, 42.72708], [-73.67712, 42.72711], [-73.67678, 42.72701], [-73.67642, 42.72691], [-73.67625, 42.72683], [-73.67607, 42.72688], [-73.67626, 42.72716], [-73.67664, 42.72767], [-73.67678, 42.72818], [-73.67674, 42.72874], [-73.67653, 42.72944], [-73.67642, 42.73007], [-73.67642, 42.73021], [-73.67659, 42.73067], [-73.67657, 42.73092], [-73.67592, 42.73289], [-73.67333, 42.73251], [-73.67271, 42.73539], [-73.67179, 42.73845], [-73.67252, 42.73856], [-73.672473, 42.738615], [-73.67177, 42.73943], [-73.67006, 42.74285], [-73.66978, 42.74403], [-73.66495, 42.74398], [-73.66467, 42.74173], [-73.66463, 42.7406], [-73.66484, 42.7394], [-73.6647, 42.73881], [-73.66497, 42.73764], [-73.664951, 42.73757], [-73.66442, 42.73557], [-73.66659, 42.73531], [-73.67056, 42.73592], [-73.67096, 42.7342], [-73.67174, 42.73177], [-73.67316, 42.72623], [-73.66993, 42.72645], [-73.66647, 42.72652], [-73.66731, 42.72525], [-73.66735, 42.7249], [-73.67181, 42.72456], [-73.67343, 42.72437], [-73.67355, 42.725], [-73.67836, 42.72582], [-73.678253, 42.726362], [-73.67816, 42.726831]]]}}, {"type": "Feature", "properties": {"area_id": 2334, "city": "Troy", "state": "NY", "city_survey": true, "cat": "Still Desirable", "grade": "B", "label": "B1", "res": true, "com": false, "ind": false, "holc_grade": "B"}, "geometry": {"type": "Polygon", "coordinates": [[[-73.67395, 42.7819], [-73.67598, 42.78245], [-73.67572, 42.78325], [-73.67536, 42.784], [-73.67482, 42.78484], [-73.6741, 42.78559], [-73.67317, 42.78639], [-73.67273, 42.78701], [-73.6725, 42.78743], [-73.67226, 42.78809], [-73.67115, 42.78773], [-73.67395, 42.7819]]]}}, {"type": "Feature", "properties": {"area_id": 2353, "city": "Troy", "state": "NY", "city_survey": true, "cat": "Still Desirable", "grade": "B", "label": "B10", "res": true, "com": false, "ind": false, "holc_grade": "B"}, "geometry": {"type": "Polygon", "coordinates": [[[-73.67486, 42.72021], [-73.6729, 42.72032], [-73.67351, 42.72004], [-73.67361, 42.71986], [-73.67361, 42.7195], [-73.67336, 42.71919], [-73.67289, 42.71919], [-73.67207, 42.71892], [-73.67142, 42.71897], [-73.67055, 42.71888], [-73.67028, 42.71908], [-73.67005, 42.71931], [-73.66973, 42.71969], [-73.66935, 42.71975], [-73.66876, 42.71987], [-73.66652, 42.72052], [-73.66614, 42.72078], [-73.66587, 42.7208], [-73.66579, 42.72073], [-73.66581, 42.72017], [-73.66581, 42.71957], [-73.66615, 42.7185], [-73.66661, 42.7176], [-73.66311, 42.71707], [-73.66163, 42.7166], [-73.6619, 42.71593], [-73.66328, 42.71633], [-73.6638, 42.71529], [-73.66427, 42.71473], [-73.66467, 42.71412], [-73.66579, 42.71318], [-73.66768, 42.71564], [-73.67049, 42.71434], [-73.67233, 42.71623], [-73.67205, 42.71635], [-73.67192, 42.71662], [-73.67068, 42.71758], [-73.67254, 42.71871], [-73.67414, 42.71753], [-73.6764, 42.71899], [-73.67785, 42.71842], [-73.6783, 42.71929], [-73.67652, 42.71979], [-73.67682, 42.720786], [-73.67699, 42.72135], [-73.67652, 42.72126], [-73.675351, 42.721548], [-73.67522, 42.72158], [-73.67486, 42.72021]]]}}, {"type": "Feature", "properties": {"area_id": 2354, "city": "Troy", "state": "NY", "city_survey": true, "cat": "Still Desirable", "grade": "B", "label": "B11", "res": true, "com": false, "ind": false, "holc_grade": "B"}, "geometry": {"type": "Polygon", "coordinates": [[[-73.66456, 42.70954], [-73.66758, 42.71012], [-73.6687, 42.71018], [-73.67003, 42.71063], [-73.67013, 42.71163], [-73.67011, 42.712608], [-73.67011, 42.71262], [-73.6706, 42.71313], [-73.67091, 42.71364], [-73.67154, 42.71472], [-73.67241, 42.71546], [-73.67341, 42.71601], [-73.67357, 42.7161], [-73.6745, 42.71648], [-73.676, 42.71719], [-73.67785, 42.71842], [-73.6764, 42.71899], [-73.67414, 42.71753], [-73.67254, 42.71871], [-73.67068, 42.71758], [-73.67192, 42.71662], [-73.67205, 42.71635], [-73.67233, 42.71623], [-73.67049, 42.71434], [-73.66768, 42.71564], [-73.66579, 42.71318], [-73.66467, 42.71412], [-73.66427, 42.71473], [-73.6638, 42.71529], [-73.66328, 42.71633], [-73.6619, 42.71593], [-73.66216, 42.71528], [-73.66317, 42.71328], [-73.66357, 42.71329], [-73.66408, 42.71331], [-73.6646, 42.71314], [-73.66585, 42.71258], [-73.66515, 42.71138], [-73.66461, 42.71076], [-73.66364, 42.70995], [-73.66361, 42.70955], [-73.663651, 42.709453], [-73.6637, 42.70934], [-73.66456, 42.70954]]]}}, {"type": "Feature", "properties": {"area_id": 2332, "city": "Troy", "state": "NY", "city_survey": true, "cat": "Still Desirable", "grade": "B", "label": "B2", "res": true, "com": false, "ind": false, "holc_grade": "B"}, "geometry": {"type": "Polygon", "coordinates": [[[-73.66431, 42.78686], [-73.66446, 42.78606], [-73.66554, 42.78397], [-73.66551, 42.78379], [-73.66722, 42.78245], [-73.66752, 42.78188], [-73.66952, 42.78071], [-73.66977, 42.78068], [-73.67163, 42.78008], [-73.66925, 42.78539], [-73.6687, 42.78581], [-73.66813, 42.78626], [-73.66606, 42.78664], [-73.66431, 42.78686]]]}}, {"type": "Feature", "properties": {"area_id": 2336, "city": "Troy", "state": "NY", "city_survey": true, "cat": "Still Desirable", "grade": "B", "label": "B3", "res": true, "com": false, "ind": false, "holc_grade": "B"}, "geometry": {"type": "Polygon", "coordinates": [[[-73.66839, 42.77151], [-73.66839, 42.77073], [-73.6686, 42.77018], [-73.66887, 42.76962], [-73.66886, 42.76894], [-73.670006, 42.769134], [-73.67069, 42.76925], [-73.6758, 42.77053], [-73.6735, 42.77586], [-73.6709, 42.77518], [-73.6685, 42.77482], [-73.66843, 42.77366], [-73.668398, 42.772754], [-73.66839, 42.77254], [-73.66839, 42.77151]]]}}, {"type": "Feature", "properties": {"area_id": 2337, "city": "Troy", "state": "NY", "city_survey": true, "cat": "Still Desirable", "grade": "B", "label": "B4", "res": true, "com": false, "ind": false, "holc_grade": "B"}, "geometry": {"type": "Polygon", "coordinates": [[[-73.67516, 42.76452], [-73.67571, 42.76333], [-73.67651, 42.76355], [-73.67752, 42.76139], [-73.6797, 42.7619], [-73.67862, 42.76435], [-73.67744, 42.76405], [-73.676948, 42.765105], [-73.67588, 42.7674], [-73.670468, 42.766121], [-73.67021, 42.76606], [-73.67067, 42.76519], [-73.67063, 42.76488], [-73.670788, 42.764916], [-73.67347, 42.76553], [-73.674145, 42.764387], [-73.67419, 42.76431], [-73.67516, 42.76452]]]}}, {"type": "Feature", "properties": {"area_id": 2341, "city": "Troy", "state": "NY", "city_survey": true, "cat": "Still Desirable", "grade": "B", "label": "B5", "res": true, "com": false, "ind": false, "holc_grade": "B"}, "geometry": {"type": "Polygon", "coordinates": [[[-73.67578, 42.73905], [-73.67721, 42.73927], [-73.67899, 42.73942], [-73.67968, 42.73948], [-73.679666, 42.739522], [-73.67934, 42.7405], [-73.67824, 42.74178], [-73.67647, 42.74162], [-73.67587, 42.74454], [-73.67562, 42.74486], [-73.67442, 42.74596], [-73.67546, 42.74603], [-73.6736, 42.74861], [-73.67229, 42.748145], [-73.67219, 42.74811], [-73.67219, 42.74797], [-73.67217, 42.74773], [-73.67225, 42.74755], [-73.67238, 42.74747], [-73.67326, 42.74706], [-73.673274, 42.747003], [-73.67333, 42.74678], [-73.67324, 42.74646], [-73.67368, 42.74465], [-73.673347, 42.744607], [-73.67119, 42.74433], [-73.66978, 42.74403], [-73.67006, 42.74285], [-73.67177, 42.73943], [-73.672473, 42.738615], [-73.67252, 42.73856], [-73.674935, 42.738923], [-73.67578, 42.73905]]]}}, {"type": "Feature", "properties": {"area_id": 2350, "city": "Troy", "state": "NY", "city_survey": true, "cat": "Still Desirable", "grade": "B", "label": "B6", "res": true, "com": false, "ind": false, "holc_grade": "B"}, "geometry": {"type": "Polygon", "coordinates": [[[-73.66084, 42.7361], [-73.66293, 42.73582], [-73.66442, 42.73557], [-73.664951, 42.73757], [-73.66497, 42.73764], [-73.6647, 42.73881], [-73.66484, 42.7394], [-73.66463, 42.7406], [-73.66467, 42.74173], [-73.66495, 42.74398], [-73.66062, 42.74399], [-73.660062, 42.743994], [-73.65746, 42.74401], [-73.65708, 42.7423], [-73.65694, 42.74114], [-73.65701, 42.74046], [-73.65285, 42.74196], [-73.65157, 42.7423], [-73.651634, 42.741967], [-73.65249, 42.73755], [-73.65337, 42.73769], [-73.6543, 42.73746], [-73.65646, 42.73723], [-73.65737, 42.73713], [-73.65734, 42.73654], [-73.657579, 42.736432], [-73.65855, 42.73599], [-73.66003, 42.73612], [-73.66084, 42.7361]]]}}, {"type": "Feature", "properties": {"area_id": 2343, "city": "Troy", "state": "NY", "city_survey": true, "cat": "Still Desirable", "grade": "B", "label": "B7", "res": true, "com": false, "ind": false, "holc_grade": "B"}, "geometry": {"type": "Polygon", "coordinates": [[[-73.67333, 42.73251], [-73.67592, 42.73289], [-73.67657, 42.73092], [-73.67698, 42.73089], [-73.677189, 42.73092], [-73.67775, 42.731], [-73.67714, 42.73293], [-73.67634, 42.73591], [-73.675798, 42.735832], [-73.67271, 42.73539], [-73.67333, 42.73251]]]}}, {"type": "Feature", "properties": {"area_id": 2351, "city": "Troy", "state": "NY", "city_survey": true, "cat": "Still Desirable", "grade": "B", "label": "B8", "res": true, "com": false, "ind": false, "holc_grade": "B"}, "geometry": {"type": "Polygon", "coordinates": [[[-73.65782, 42.72515], [-73.65867, 42.72451], [-73.65948, 42.72416], [-73.66079, 42.72383], [-73.66119, 42.73009], [-73.66122, 42.73112], [-73.66096, 42.73219], [-73.66069, 42.73322], [-73.66074, 42.73371], [-73.6601, 42.73444], [-73.65924, 42.73535], [-73.65855, 42.73599], [-73.657579, 42.736432], [-73.65734, 42.73654], [-73.65739, 42.735081], [-73.65739, 42.73507], [-73.657388, 42.735069], [-73.65577, 42.73456], [-73.65544, 42.73481], [-73.65489, 42.73496], [-73.65444, 42.73502], [-73.65256, 42.73427], [-73.65209, 42.7338], [-73.65195, 42.73336], [-73.65209, 42.73282], [-73.65233, 42.73256], [-73.65295, 42.73226], [-73.65352, 42.73224], [-73.65435, 42.73252], [-73.65587, 42.72892], [-73.65587, 42.72789], [-73.65527, 42.72587], [-73.65592, 42.72585], [-73.656409, 42.725816], [-73.65665, 42.7258], [-73.65782, 42.72515]]]}}, {"type": "Feature", "properties": {"area_id": 2352, "city": "Troy", "state": "NY", "city_survey": true, "cat": "Still Desirable", "grade": "B", "label": "B9", "res": true, "com": false, "ind": false, "holc_grade": "B"}, "geometry": {"type": "Polygon", "coordinates": [[[-73.66726, 42.72353], [-73.66689, 42.72379], [-73.66519, 42.72423], [-73.66358, 42.72437], [-73.66227, 42.72441], [-73.66217, 42.72393], [-73.66322, 42.7239], [-73.66373, 42.7239], [-73.66481, 42.72383], [-73.66541, 42.7237], [-73.66615, 42.72336], [-73.66663, 42.72302], [-73.66698, 42.72268], [-73.6672, 42.72257], [-73.66726, 42.72353]]]}}, {"type": "Feature", "properties": {"area_id": 2333, "city": "Troy", "state": "NY", "city_survey": true, "cat": "Definitely Declining", "grade": "C", "label": "C1", "res": true, "com": false, "ind": false, "holc_grade": "C"}, "geometry": {"type": "Polygon", "coordinates": [[[-73.67639, 42.75618], [-73.68318, 42.75671], [-73.68297, 42.75763], [-73.68293, 42.75875], [-73.68271, 42.75945], [-73.68252, 42.76026], [-73.68236, 42.76126], [-73.68242, 42.76385], [-73.68233, 42.76467], [-73.68212, 42.76584], [-73.68177, 42.76693], [-73.681707, 42.767595], [-73.68166, 42.76809], [-73.68158, 42.76881], [-73.68122, 42.77017], [-73.6796, 42.76971], [-73.67897, 42.77122], [-73.67828, 42.77106], [-73.675084, 42.778166], [-73.67492, 42.77853], [-73.67549, 42.7787], [-73.67395, 42.7819], [-73.67115, 42.78773], [-73.67077, 42.78798], [-73.66606, 42.78664], [-73.66813, 42.78626], [-73.6687, 42.78581], [-73.66925, 42.78539], [-73.67163, 42.78008], [-73.66977, 42.78068], [-73.66952, 42.78071], [-73.66752, 42.78188], [-73.66722, 42.78245], [-73.66551, 42.78379], [-73.66554, 42.78397], [-73.66446, 42.78606], [-73.66431, 42.78686], [-73.66336, 42.7871], [-73.66256, 42.78692], [-73.66239, 42.78678], [-73.660616, 42.786835], [-73.66012, 42.78685], [-73.65984, 42.7868], [-73.66052, 42.78587], [-73.66138, 42.78509], [-73.66239, 42.78446], [-73.665, 42.78258], [-73.665148, 42.782432], [-73.66599, 42.78159], [-73.66677, 42.78061], [-73.66793, 42.77854], [-73.66818, 42.777991], [-73.6685, 42.77729], [-73.66865, 42.77632], [-73.66848, 42.77561], [-73.6685, 42.77482], [-73.6709, 42.77518], [-73.6735, 42.77586], [-73.6758, 42.77053], [-73.67069, 42.76925], [-73.670006, 42.769134], [-73.66886, 42.76894], [-73.66957, 42.76732], [-73.67021, 42.76606], [-73.670468, 42.766121], [-73.67588, 42.7674], [-73.676948, 42.765105], [-73.67744, 42.76405], [-73.67862, 42.76435], [-73.6797, 42.7619], [-73.67752, 42.76139], [-73.67786, 42.76055], [-73.67685, 42.76033], [-73.67715, 42.75959], [-73.67734, 42.75893], [-73.67405, 42.75815], [-73.674216, 42.757807], [-73.67502, 42.75615], [-73.675208, 42.756154], [-73.67639, 42.75618]]]}}, {"type": "Feature", "properties": {"area_id": 2355, "city": "Troy", "state": "NY", "city_survey": true, "cat": "Definitely Declining", "grade": "C", "label": "C10", "res": true, "com": false, "ind": false, "holc_grade": "C"}, "geometry": {"type": "Polygon", "coordinates": [[[-73.67003, 42.71063], [-73.67136, 42.71012], [-73.6719, 42.71086], [-73.67306, 42.71192], [-73.67589, 42.71469], [-73.674172, 42.715604], [-73.67341, 42.71601], [-73.67241, 42.71546], [-73.67154, 42.71472], [-73.67091, 42.71364], [-73.6706, 42.71313], [-73.67011, 42.71262], [-73.67011, 42.712608], [-73.67013, 42.71163], [-73.67003, 42.71063]]]}}, {"type": "Feature", "properties": {"area_id": 2366, "city": "Troy", "state": "NY", "city_survey": true, "cat": "Definitely Declining", "grade": "C", "label": "C11", "res": true, "com": false, "ind": false, "holc_grade": "C"}, "geometry": {"type": "Polygon", "coordinates": [[[-73.71272, 42.70758], [-73.71477, 42.70821], [-73.713789, 42.710071], [-73.713453, 42.710707], [-73.71245, 42.71261], [-73.71064, 42.716309], [-73.70996, 42.7177], [-73.70918, 42.71725], [-73.70853, 42.71661], [-73.7081, 42.71733], [-73.70589, 42.71719], [-73.70462, 42.71708], [-73.70388, 42.71713], [-73.70405, 42.71687], [-73.711386, 42.707891], [-73.71173, 42.70747], [-73.71272, 42.70758]]]}}, {"type": "Feature", "properties": {"area_id": 2365, "city": "Troy", "state": "NY", "city_survey": true, "cat": "Definitely Declining", "grade": "C", "label": "C12", "res": true, "com": false, "ind": false, "holc_grade": "C"}, "geometry": {"type": "Polygon", "coordinates": [[[-73.70756, 42.70655], [-73.71173, 42.70747], [-73.711386, 42.707891], [-73.70405, 42.71687], [-73.70388, 42.71713], [-73.70369, 42.71743], [-73.70344, 42.71774], [-73.70234, 42.71753], [-73.70304, 42.71606], [-73.70323, 42.71497], [-73.70348, 42.71426], [-73.70376, 42.71388], [-73.70429, 42.713], [-73.70473, 42.71176], [-73.70465, 42.7107], [-73.70511, 42.71095], [-73.70703, 42.70695], [-73.707253, 42.706591], [-73.70726, 42.70658], [-73.70756, 42.70655]]]}}, {"type": "Feature", "properties": {"area_id": 2356, "city": "Troy", "state": "NY", "city_survey": true, "cat": "Definitely Declining", "grade": "C", "label": "C13", "res": true, "com": false, "ind": false, "holc_grade": "C"}, "geometry": {"type": "Polygon", "coordinates": [[[-73.65781, 42.69662], [-73.65971, 42.69699], [-73.66074, 42.69718], [-73.66146, 42.69725], [-73.66351, 42.69696], [-73.664102, 42.697188], [-73.66522, 42.69762], [-73.6664, 42.69813], [-73.66956, 42.69971], [-73.66984, 42.70161], [-73.66887, 42.70234], [-73.66712, 42.70207], [-73.66623, 42.70217], [-73.66562, 42.70233], [-73.66458, 42.70256], [-73.66461, 42.70291], [-73.66372, 42.7043], [-73.66614, 42.70691], [-73.66551, 42.70724], [-73.66351, 42.70784], [-73.66456, 42.70954], [-73.6637, 42.70934], [-73.663651, 42.709453], [-73.66361, 42.70955], [-73.66364, 42.70995], [-73.66354, 42.71053], [-73.66225, 42.70938], [-73.66181, 42.71225], [-73.66109, 42.71219], [-73.65926, 42.71206], [-73.65761, 42.71204], [-73.65618, 42.71209], [-73.65645, 42.7072], [-73.65514, 42.70585], [-73.653326, 42.70591], [-73.65272, 42.70593], [-73.65097, 42.70547], [-73.65128, 42.70038], [-73.65154, 42.70044], [-73.65272, 42.70107], [-73.65283, 42.701131], [-73.654, 42.70178], [-73.65539, 42.7023], [-73.6575, 42.70381], [-73.65809, 42.70353], [-73.65994, 42.70533], [-73.660014, 42.705285], [-73.66157, 42.70434], [-73.66205, 42.70382], [-73.66334, 42.7033], [-73.66361, 42.70304], [-73.66363, 42.70288], [-73.66323, 42.70295], [-73.66283, 42.703], [-73.66235, 42.70291], [-73.66207, 42.70277], [-73.6575, 42.7004], [-73.65862, 42.69946], [-73.6592, 42.69899], [-73.65916, 42.69865], [-73.65883, 42.69806], [-73.65845, 42.69777], [-73.658259, 42.697587], [-73.658, 42.69734], [-73.65785, 42.69703], [-73.65781, 42.69662]]]}}, {"type": "Feature", "properties": {"area_id": 2358, "city": "Troy", "state": "NY", "city_survey": true, "cat": "Definitely Declining", "grade": "C", "label": "C14", "res": true, "com": false, "ind": false, "holc_grade": "C"}, "geometry": {"type": "Polygon", "coordinates": [[[-73.6892, 42.7023], [-73.68904, 42.70289], [-73.68879, 42.70343], [-73.688493, 42.703769], [-73.68829, 42.704], [-73.68822, 42.70438], [-73.68795, 42.70452], [-73.68796, 42.70439], [-73.6879, 42.70433], [-73.68757, 42.70437], [-73.6873, 42.70437], [-73.68713, 42.7043], [-73.68671, 42.70407], [-73.68617, 42.70439], [-73.6857, 42.70441], [-73.68501, 42.70439], [-73.6849, 42.70446], [-73.68482, 42.70463], [-73.6846, 42.70478], [-73.68422, 42.70497], [-73.68378, 42.70526], [-73.68323, 42.70573], [-73.68254, 42.70553], [-73.68188, 42.70494], [-73.6805, 42.70348], [-73.68035, 42.70304], [-73.68285, 42.70186], [-73.68395, 42.70172], [-73.68586, 42.7014], [-73.68818, 42.70069], [-73.688729, 42.701327], [-73.68906, 42.70171], [-73.6892, 42.7023]]]}}, {"type": "Feature", "properties": {"area_id": 2359, "city": "Troy", "state": "NY", "city_survey": true, "cat": "Definitely Declining", "grade": "C", "label": "C15", "res": true, "com": false, "ind": false, "holc_grade": "C"}, "geometry": {"type": "Polygon", "coordinates": [[[-73.69645, 42.70394], [-73.69491, 42.70361], [-73.69429, 42.7037], [-73.69435, 42.7029], [-73.69405, 42.70229], [-73.69374, 42.70181], [-73.69352, 42.70136], [-73.69352, 42.70078], [-73.6937, 42.70012], [-73.69398, 42.6999], [-73.69478, 42.69992], [-73.69496, 42.69893], [-73.69526, 42.69762], [-73.69535, 42.69614], [-73.69586, 42.69616], [-73.6974, 42.69624], [-73.70148, 42.69642], [-73.70148, 42.69696], [-73.70114, 42.6982], [-73.70073, 42.69971], [-73.7, 42.70171], [-73.6984, 42.70177], [-73.69759, 42.70207], [-73.69716, 42.70282], [-73.69675, 42.70288], [-73.69672, 42.70312], [-73.6967, 42.70363], [-73.69689, 42.70405], [-73.69701, 42.70449], [-73.69673, 42.70439], [-73.69645, 42.70394]]]}}, {"type": "Feature", "properties": {"area_id": 2360, "city": "Troy", "state": "NY", "city_survey": true, "cat": "Definitely Declining", "grade": "C", "label": "C2", "res": true, "com": false, "ind": false, "holc_grade": "C"}, "geometry": {"type": "Polygon", "coordinates": [[[-73.69827, 42.73865], [-73.69806, 42.73894], [-73.69776, 42.73922], [-73.69725, 42.73953], [-73.696632, 42.739736], [-73.69635, 42.73983], [-73.69578, 42.74016], [-73.695667, 42.740241], [-73.69558, 42.740304], [-73.69493, 42.74077], [-73.69468, 42.74118], [-73.69442, 42.74208], [-73.69436, 42.74292], [-73.69424, 42.74337], [-73.69487, 42.74355], [-73.69486, 42.74416], [-73.69522, 42.74449], [-73.69587, 42.74483], [-73.69663, 42.74517], [-73.69706, 42.74551], [-73.69754, 42.74599], [-73.69768, 42.74658], [-73.69763, 42.74702], [-73.69643, 42.74695], [-73.69563, 42.74936], [-73.69137, 42.74849], [-73.69093, 42.7498], [-73.68974, 42.74959], [-73.68941, 42.74895], [-73.68945, 42.7478], [-73.68938, 42.74569], [-73.68987, 42.74271], [-73.69024, 42.74212], [-73.69158, 42.74002], [-73.69445, 42.73586], [-73.69502, 42.73446], [-73.69594, 42.73318], [-73.69695, 42.73371], [-73.69741, 42.73406], [-73.69761, 42.73415], [-73.69812, 42.73501], [-73.6984, 42.73558], [-73.69856, 42.7362], [-73.69852, 42.73723], [-73.69847, 42.73779], [-73.698292, 42.738259], [-73.69828, 42.73829], [-73.69827, 42.73865]]]}}, {"type": "Feature", "properties": {"area_id": 2340, "city": "Troy", "state": "NY", "city_survey": true, "cat": "Definitely Declining", "grade": "C", "label": "C3", "res": true, "com": false, "ind": false, "holc_grade": "C"}, "geometry": {"type": "Polygon", "coordinates": [[[-73.68145, 42.73951], [-73.681423, 42.739614], [-73.68056, 42.74287], [-73.67898, 42.74565], [-73.67837, 42.74771], [-73.67763, 42.74995], [-73.6736, 42.74861], [-73.67546, 42.74603], [-73.67442, 42.74596], [-73.67562, 42.74486], [-73.67587, 42.74454], [-73.67598, 42.74441], [-73.67824, 42.74178], [-73.67934, 42.7405], [-73.679666, 42.739522], [-73.67968, 42.73948], [-73.68145, 42.73951]]]}}, {"type": "Feature", "properties": {"area_id": 2364, "city": "Troy", "state": "NY", "city_survey": true, "cat": "Definitely Declining", "grade": "C", "label": "C4", "res": true, "com": false, "ind": false, "holc_grade": "C"}, "geometry": {"type": "Polygon", "coordinates": [[[-73.65077, 42.74678], [-73.65157, 42.7423], [-73.65285, 42.74196], [-73.65701, 42.74046], [-73.65694, 42.74114], [-73.65708, 42.7423], [-73.65746, 42.74401], [-73.660062, 42.743994], [-73.66062, 42.74399], [-73.660373, 42.744632], [-73.65936, 42.74726], [-73.65077, 42.74678]]]}}, {"type": "Feature", "properties": {"area_id": 2342, "city": "Troy", "state": "NY", "city_survey": true, "cat": "Definitely Declining", "grade": "C", "label": "C5", "res": true, "com": false, "ind": false, "holc_grade": "C"}, "geometry": {"type": "Polygon", "coordinates": [[[-73.67714, 42.73293], [-73.67832, 42.73307], [-73.68022, 42.73343], [-73.67885, 42.73881], [-73.67588, 42.73839], [-73.67578, 42.73905], [-73.674935, 42.738923], [-73.67252, 42.73856], [-73.67179, 42.73845], [-73.67271, 42.73539], [-73.675798, 42.735832], [-73.67634, 42.73591], [-73.67714, 42.73293]]]}}, {"type": "Feature", "properties": {"area_id": 2362, "city": "Troy", "state": "NY", "city_survey": true, "cat": "Definitely Declining", "grade": "C", "label": "C6", "res": true, "com": false, "ind": false, "holc_grade": "C"}, "geometry": {"type": "Polygon", "coordinates": [[[-73.71281, 42.73517], [-73.712805, 42.735223], [-73.71276, 42.73568], [-73.71258, 42.73627], [-73.71221, 42.73673], [-73.71209, 42.73716], [-73.71176, 42.73881], [-73.70934, 42.73866], [-73.70948, 42.73808], [-73.70764, 42.73777], [-73.707736, 42.737551], [-73.70816, 42.73658], [-73.70966, 42.73351], [-73.71015, 42.73251], [-73.71499, 42.73383], [-73.71784, 42.73479], [-73.718007, 42.736493], [-73.71807, 42.73713], [-73.71443, 42.73646], [-73.71436, 42.73623], [-73.71368, 42.73522], [-73.713371, 42.735019], [-73.71282, 42.73466], [-73.71281, 42.73517]]]}}, {"type": "Feature", "properties": {"area_id": 2363, "city": "Troy", "state": "NY", "city_survey": true, "cat": "Definitely Declining", "grade": "C", "label": "C7", "res": true, "com": false, "ind": false, "holc_grade": "C"}, "geometry": {"type": "Polygon", "coordinates": [[[-73.71345, 42.72028], [-73.713447, 42.720306], [-73.713377, 42.721023], [-73.71312, 42.72364], [-73.71293, 42.72503], [-73.71287, 42.72558], [-73.71283, 42.72656], [-73.71253, 42.72726], [-73.711233, 42.727178], [-73.710977, 42.727161], [-73.71017, 42.72711], [-73.70997, 42.727085], [-73.70833, 42.72688], [-73.70818, 42.72849], [-73.70955, 42.72863], [-73.71036, 42.72857], [-73.71037, 42.72976], [-73.71049, 42.73024], [-73.7104, 42.73085], [-73.71026, 42.73178], [-73.71015, 42.73251], [-73.70966, 42.73351], [-73.70638, 42.73324], [-73.70661, 42.73152], [-73.704422, 42.730894], [-73.70091, 42.72989], [-73.69804, 42.72964], [-73.69866, 42.72796], [-73.69886, 42.72768], [-73.69859, 42.72758], [-73.69963, 42.72541], [-73.69978, 42.72453], [-73.70003, 42.7243], [-73.6999, 42.72411], [-73.70073, 42.7218], [-73.701298, 42.721901], [-73.701299, 42.721901], [-73.7013, 42.721901], [-73.702668, 42.722143], [-73.70361, 42.72231], [-73.704391, 42.722509], [-73.7053, 42.72274], [-73.70537, 42.722713], [-73.70698, 42.7221], [-73.71091, 42.72081], [-73.71345, 42.72028]]]}}, {"type": "Feature", "properties": {"area_id": 2348, "city": "Troy", "state": "NY", "city_survey": true, "cat": "Definitely Declining", "grade": "C", "label": "C8", "res": true, "com": false, "ind": false, "holc_grade": "C"}, "geometry": {"type": "Polygon", "coordinates": [[[-73.69474, 42.72319], [-73.69528, 42.72325], [-73.695244, 42.723356], [-73.69511, 42.72375], [-73.694456, 42.7268], [-73.69416, 42.72818], [-73.69399, 42.72867], [-73.69393, 42.72894], [-73.69367, 42.73033], [-73.69142, 42.73007], [-73.69, 42.72989], [-73.68933, 42.72986], [-73.68967, 42.72868], [-73.69017, 42.72873], [-73.690448, 42.727617], [-73.69072, 42.72653], [-73.69088, 42.72572], [-73.69097, 42.72523], [-73.69107, 42.72491], [-73.69059, 42.72482], [-73.690989, 42.722883], [-73.69101, 42.72278], [-73.69474, 42.72319]]]}}, {"type": "Feature", "properties": {"area_id": 2346, "city": "Troy", "state": "NY", "city_survey": true, "cat": "Definitely Declining", "grade": "C", "label": "C9", "res": true, "com": false, "ind": false, "holc_grade": "C"}, "geometry": {"type": "Polygon", "coordinates": [[[-73.67355, 42.725], [-73.67343, 42.72437], [-73.67181, 42.72456], [-73.66735, 42.7249], [-73.66726, 42.72353], [-73.6672, 42.72257], [-73.66714, 42.72155], [-73.66761, 42.72155], [-73.66807, 42.72158], [-73.66854, 42.72158], [-73.66879, 42.72152], [-73.66969, 42.72164], [-73.67065, 42.72195], [-73.67149, 42.72206], [-73.67233, 42.72194], [-73.67269, 42.7219], [-73.67362, 42.7219], [-73.67442, 42.72195], [-73.6748, 42.72195], [-73.67537, 42.72177], [-73.675431, 42.721826], [-73.67548, 42.72187], [-73.67626, 42.72166], [-73.67655, 42.72153], [-73.67691, 42.72162], [-73.67718, 42.72177], [-73.6776, 42.72184], [-73.67796, 42.72181], [-73.67796, 42.72158], [-73.67807, 42.72128], [-73.67849, 42.72118], [-73.67995, 42.72113], [-73.68007, 42.72116], [-73.67955, 42.72289], [-73.67883, 42.72336], [-73.67841, 42.72528], [-73.6794, 42.72553], [-73.67905, 42.727003], [-73.67902, 42.72713], [-73.67813, 42.72698], [-73.67816, 42.726831], [-73.678253, 42.726362], [-73.67836, 42.72582], [-73.67355, 42.725]]]}}, {"type": "Feature", "properties": {"area_id": 2331, "city": "Troy", "state": "NY", "city_survey": true, "cat": "Hazardous", "grade": "D", "label": "D1", "res": true, "com": false, "ind": false, "holc_grade": "D"}, "geometry": {"type": "Polygon", "coordinates": [[[-73.65864, 42.79059], [-73.65877, 42.78964], [-73.65914, 42.78833], [-73.65984, 42.7868], [-73.66012, 42.78685], [-73.660616, 42.786835], [-73.66239, 42.78678], [-73.66256, 42.78692], [-73.66336, 42.7871], [-73.66431, 42.78686], [-73.66606, 42.78664], [-73.67077, 42.78798], [-73.67072, 42.78833], [-73.67045, 42.7888], [-73.67013, 42.78932], [-73.66984, 42.78962], [-73.66984, 42.79138], [-73.66855, 42.79325], [-73.667915, 42.794304], [-73.66764, 42.79476], [-73.65877, 42.79248], [-73.65863, 42.791544], [-73.65862, 42.79148], [-73.65864, 42.79059]]]}}, {"type": "Feature", "properties": {"area_id": 2335, "city": "Troy", "state": "NY", "city_survey": true, "cat": "Hazardous", "grade": "D", "label": "D2", "res": true, "com": false, "ind": false, "holc_grade": "D"}, "geometry": {"type": "Polygon", "coordinates": [[[-73.67897, 42.77122], [-73.6796, 42.76971], [-73.68122, 42.77017], [-73.68098, 42.77081], [-73.68094, 42.77119], [-73.68041, 42.77221], [-73.68007, 42.77295], [-73.67984, 42.77381], [-73.67953, 42.77429], [-73.67915, 42.77604], [-73.6783, 42.77801], [-73.677937, 42.778786], [-73.67786, 42.77895], [-73.67704, 42.78015], [-73.67659, 42.7808], [-73.67634, 42.78132], [-73.67598, 42.78245], [-73.67395, 42.7819], [-73.67549, 42.7787], [-73.67603, 42.77879], [-73.676205, 42.778418], [-73.67951, 42.77141], [-73.67897, 42.77122]]]}}, {"type": "Feature", "properties": {"area_id": 2338, "city": "Troy", "state": "NY", "city_survey": true, "cat": "Hazardous", "grade": "D", "label": "D3", "res": true, "com": false, "ind": false, "holc_grade": "D"}, "geometry": {"type": "Polygon", "coordinates": [[[-73.68046, 42.74879], [-73.68208, 42.74895], [-73.682, 42.7496], [-73.68195, 42.75096], [-73.68197, 42.7521], [-73.682503, 42.752142], [-73.68463, 42.75231], [-73.68425, 42.75286], [-73.68377, 42.75365], [-73.68358, 42.7542], [-73.68343, 42.7547], [-73.68345, 42.75526], [-73.6833, 42.75576], [-73.68318, 42.75671], [-73.67639, 42.75618], [-73.675208, 42.756154], [-73.67502, 42.75615], [-73.676, 42.75441], [-73.676053, 42.754292], [-73.676503, 42.753303], [-73.676583, 42.753128], [-73.676687, 42.752899], [-73.67725, 42.75166], [-73.677368, 42.751666], [-73.67894, 42.75175], [-73.67995, 42.75198], [-73.68046, 42.74879]]]}}, {"type": "Feature", "properties": {"area_id": 2339, "city": "Troy", "state": "NY", "city_survey": true, "cat": "Hazardous", "grade": "D", "label": "D4", "res": true, "com": false, "ind": false, "holc_grade": "D"}, "geometry": {"type": "Polygon", "coordinates": [[[-73.6851, 42.73945], [-73.685109, 42.739453], [-73.68543, 42.73956], [-73.6848, 42.74213], [-73.6841, 42.74469], [-73.68391, 42.74532], [-73.6828, 42.74744], [-73.68261, 42.74892], [-73.68208, 42.74895], [-73.68046, 42.74879], [-73.67995, 42.75198], [-73.67894, 42.75175], [-73.677368, 42.751666], [-73.67725, 42.75166], [-73.67685, 42.75152], [-73.67763, 42.74995], [-73.67837, 42.74771], [-73.67898, 42.74565], [-73.68056, 42.74287], [-73.681423, 42.739614], [-73.68145, 42.73951], [-73.681725, 42.73957], [-73.682, 42.73963], [-73.684165, 42.739512], [-73.6842, 42.73951], [-73.685055, 42.739453], [-73.6851, 42.73945]]]}}, {"type": "Feature", "properties": {"area_id": 2361, "city": "Troy", "state": "NY", "city_survey": true, "cat": "Hazardous", "grade": "D", "label": "D5", "res": true, "com": false, "ind": false, "holc_grade": "D"}, "geometry": {"type": "Polygon", "coordinates": [[[-73.69745, 42.73163], [-73.69748, 42.73111], [-73.69774, 42.73054], [-73.69804, 42.72964], [-73.70091, 42.72989], [-73.704422, 42.730894], [-73.70661, 42.73152], [-73.70638, 42.73324], [-73.70966, 42.73351], [-73.70816, 42.73658], [-73.707736, 42.737551], [-73.70764, 42.73777], [-73.70287, 42.73696], [-73.702268, 42.736702], [-73.70196, 42.73657], [-73.701948, 42.736679], [-73.7018, 42.73809], [-73.70028, 42.73786], [-73.70039, 42.73638], [-73.699365, 42.736278], [-73.69928, 42.73627], [-73.69922, 42.73553], [-73.69888, 42.73455], [-73.69866, 42.733961], [-73.69842, 42.73332], [-73.69842, 42.73314], [-73.69842, 42.7326], [-73.69797, 42.73203], [-73.69745, 42.73163]]]}}, {"type": "Feature", "properties": {"area_id": 2344, "city": "Troy", "state": "NY", "city_survey": true, "cat": "Hazardous", "grade": "D", "label": "D6", "res": true, "com": false, "ind": false, "holc_grade": "D"}, "geometry": {"type": "Polygon", "coordinates": [[[-73.69059, 42.72482], [-73.69107, 42.72491], [-73.69097, 42.72523], [-73.69088, 42.72572], [-73.69072, 42.72653], [-73.690448, 42.727617], [-73.69017, 42.72873], [-73.68967, 42.72868], [-73.68714, 42.72843], [-73.68685, 42.72959], [-73.68651, 42.73053], [-73.68624, 42.73176], [-73.68611, 42.73308], [-73.68611, 42.73341], [-73.6864, 42.73382], [-73.68664, 42.73416], [-73.68541, 42.73625], [-73.68516, 42.73602], [-73.684208, 42.73948], [-73.6842, 42.73951], [-73.684165, 42.739512], [-73.682, 42.73963], [-73.681725, 42.73957], [-73.68145, 42.73951], [-73.67968, 42.73948], [-73.67899, 42.73942], [-73.67911, 42.73884], [-73.67885, 42.73881], [-73.68022, 42.73343], [-73.68067, 42.73169], [-73.68089, 42.73148], [-73.68251, 42.73272], [-73.68339, 42.73296], [-73.68413, 42.72998], [-73.6847, 42.72828], [-73.684858, 42.728297], [-73.68631, 42.72845], [-73.68655, 42.72701], [-73.68666, 42.72635], [-73.68774, 42.72529], [-73.68827, 42.72246], [-73.688562, 42.722493], [-73.68916, 42.72256], [-73.689343, 42.722582], [-73.69101, 42.72278], [-73.690989, 42.722883], [-73.69059, 42.72482]]]}}, {"type": "Feature", "properties": {"area_id": 2347, "city": "Troy", "state": "NY", "city_survey": true, "cat": "Hazardous", "grade": "D", "label": "D7", "res": true, "com": false, "ind": false, "holc_grade": "D"}, "geometry": {"type": "Polygon", "coordinates": [[[-73.67841, 42.72528], [-73.67883, 42.72336], [-73.67955, 42.72289], [-73.68007, 42.72116], [-73.6808, 42.72102], [-73.68095, 42.72118], [-73.68111, 42.72155], [-73.68105, 42.72192], [-73.6809, 42.72215], [-73.68166, 42.7222], [-73.6827, 42.72434], [-73.68154, 42.72473], [-73.68147, 42.72487], [-73.68181, 42.72536], [-73.68179, 42.72609], [-73.68187, 42.72645], [-73.68337, 42.72704], [-73.68386, 42.72681], [-73.68655, 42.72701], [-73.68631, 42.72845], [-73.684858, 42.728297], [-73.6847, 42.72828], [-73.68409, 42.7282], [-73.67902, 42.72713], [-73.67905, 42.727003], [-73.6794, 42.72553], [-73.67841, 42.72528]]]}}, {"type": "Feature", "properties": {"area_id": 2349, "city": "Troy", "state": "NY", "city_survey": true, "cat": "Hazardous", "grade": "D", "label": "D8", "res": true, "com": false, "ind": false, "holc_grade": "D"}, "geometry": {"type": "Polygon", "coordinates": [[[-73.68901, 42.70394], [-73.689015, 42.703938], [-73.68943, 42.70373], [-73.68962, 42.70366], [-73.68979, 42.70366], [-73.68981, 42.70393], [-73.69021, 42.70432], [-73.69021, 42.70452], [-73.69045, 42.70473], [-73.6907, 42.70475], [-73.69087, 42.70464], [-73.69097, 42.70436], [-73.69099, 42.70406], [-73.69112, 42.70394], [-73.69135, 42.70387], [-73.69177, 42.704], [-73.69215, 42.70407], [-73.69287, 42.70396], [-73.69344, 42.7039], [-73.69418, 42.70406], [-73.69433, 42.704], [-73.69473, 42.70389], [-73.69525, 42.704], [-73.6962, 42.7042], [-73.69673, 42.70439], [-73.69701, 42.70449], [-73.69783, 42.7066], [-73.69764, 42.70719], [-73.69753, 42.70923], [-73.69713, 42.7121], [-73.69671, 42.71363], [-73.69614, 42.71622], [-73.695952, 42.717372], [-73.69582, 42.71818], [-73.69572, 42.71909], [-73.69546, 42.71968], [-73.69474, 42.72319], [-73.69101, 42.72278], [-73.689343, 42.722582], [-73.68916, 42.72256], [-73.688876, 42.721633], [-73.68878, 42.72132], [-73.68745, 42.72039], [-73.68717, 42.72033], [-73.687141, 42.720194], [-73.68705, 42.71977], [-73.68726, 42.71945], [-73.69, 42.71986], [-73.69021, 42.71875], [-73.69116, 42.71351], [-73.68903, 42.71282], [-73.68722, 42.71235], [-73.687457, 42.711375], [-73.687533, 42.711062], [-73.688, 42.70914], [-73.68931, 42.70943], [-73.69184, 42.70988], [-73.69333, 42.71016], [-73.69411, 42.71044], [-73.69422, 42.70776], [-73.69253, 42.70769], [-73.68865, 42.70632], [-73.68888, 42.70505], [-73.688589, 42.704718], [-73.68846, 42.70457], [-73.68857, 42.70413], [-73.68901, 42.70394]]]}}, {"type": "Feature", "properties": {"area_id": 2357, "city": "Troy", "state": "NY", "city_survey": true, "cat": "Hazardous", "grade": "D", "label": "D9", "res": true, "com": false, "ind": false, "holc_grade": "D"}, "geometry": {"type": "Polygon", "coordinates": [[[-73.65785, 42.69703], [-73.658, 42.69734], [-73.658259, 42.697587], [-73.65845, 42.69777], [-73.65883, 42.69806], [-73.65916, 42.69865], [-73.6592, 42.69899], [-73.65862, 42.69946], [-73.6575, 42.7004], [-73.66207, 42.70277], [-73.66235, 42.70291], [-73.66283, 42.703], [-73.66323, 42.70295], [-73.66363, 42.70288], [-73.66361, 42.70304], [-73.66334, 42.7033], [-73.66205, 42.70382], [-73.66157, 42.70434], [-73.660014, 42.705285], [-73.65994, 42.70533], [-73.65809, 42.70353], [-73.6575, 42.70381], [-73.65539, 42.7023], [-73.654, 42.70178], [-73.65283, 42.701131], [-73.65272, 42.70107], [-73.65154, 42.70044], [-73.65128, 42.70038], [-73.651522, 42.698547], [-73.65188, 42.69583], [-73.65781, 42.69662], [-73.65785, 42.69703]]]}}, {"type": "Feature", "properties": {"area_id": 11405, "city": "Troy", "state": "NY", "city_survey": true, "cat": "Commercial", "grade": null, "label": "Commercial", "res": false, "com": true, "ind": false, "holc_grade": null}, "geometry": {"type": "MultiPolygon", "coordinates": [[[[-73.67951, 42.77141], [-73.67786, 42.77491], [-73.676205, 42.778418], [-73.67603, 42.77879], [-73.67549, 42.7787], [-73.67492, 42.77853], [-73.675084, 42.778166], [-73.6767, 42.77457], [-73.67828, 42.77106], [-73.67897, 42.77122], [-73.67951, 42.77141]]], [[[-73.68664, 42.73416], [-73.6864, 42.73382], [-73.68611, 42.73341], [-73.68611, 42.73308], [-73.68624, 42.73176], [-73.68651, 42.73053], [-73.68685, 42.72959], [-73.68714, 42.72843], [-73.68967, 42.72868], [-73.68933, 42.72986], [-73.69, 42.72989], [-73.69142, 42.73007], [-73.69367, 42.73033], [-73.69365, 42.73091], [-73.69181, 42.73166], [-73.69097, 42.73212], [-73.68974, 42.7326], [-73.68864, 42.73394], [-73.68775, 42.73494], [-73.6866, 42.7371], [-73.685967, 42.739563], [-73.68596, 42.73959], [-73.68543, 42.73956], [-73.685109, 42.739453], [-73.6851, 42.73945], [-73.685055, 42.739453], [-73.6842, 42.73951], [-73.684208, 42.73948], [-73.68516, 42.73602], [-73.68541, 42.73625], [-73.68664, 42.73416]]]]}}, {"type": "Feature", "properties": {"area_id": 11406, "city": "Troy", "state": "NY", "city_survey": true, "cat": "Industrial", "grade": null, "label": "Industrial", "res": false, "com": false, "ind": true, "holc_grade": null}, "geometry": {"type": "MultiPolygon", "coordinates": [[[[-73.70139, 42.70113], [-73.70171, 42.70858], [-73.698609, 42.717704], [-73.6984, 42.71832], [-73.69798, 42.72079], [-73.69774, 42.72214], [-73.697161, 42.723552], [-73.69715, 42.72358], [-73.696499, 42.72714], [-73.69607, 42.72949], [-73.69462, 42.73162], [-73.69104, 42.73345], [-73.68916, 42.73511], [-73.68854, 42.73551], [-73.68763, 42.73655], [-73.68732, 42.73805], [-73.68651, 42.73965], [-73.686507, 42.739663], [-73.68616, 42.74105], [-73.68614, 42.74212], [-73.68567, 42.74348], [-73.68481, 42.74489], [-73.68481, 42.74649], [-73.68437, 42.74734], [-73.68504, 42.74838], [-73.68528, 42.74968], [-73.684654, 42.752212], [-73.68463, 42.75231], [-73.682503, 42.752142], [-73.68197, 42.7521], [-73.68195, 42.75096], [-73.682, 42.7496], [-73.68208, 42.74895], [-73.68261, 42.74892], [-73.6828, 42.74744], [-73.68391, 42.74532], [-73.6841, 42.74469], [-73.6848, 42.74213], [-73.68543, 42.73956], [-73.68596, 42.73959], [-73.685967, 42.739563], [-73.6866, 42.7371], [-73.68775, 42.73494], [-73.68864, 42.73394], [-73.68974, 42.7326], [-73.69097, 42.73212], [-73.69181, 42.73166], [-73.69365, 42.73091], [-73.69367, 42.73033], [-73.69393, 42.72894], [-73.69399, 42.72867], [-73.69416, 42.72818], [-73.694456, 42.7268], [-73.69511, 42.72375], [-73.695244, 42.723356], [-73.69528, 42.72325], [-73.69474, 42.72319], [-73.69546, 42.71968], [-73.69572, 42.71909], [-73.69582, 42.71818], [-73.695952, 42.717372], [-73.69614, 42.71622], [-73.69671, 42.71363], [-73.69713, 42.7121], [-73.69753, 42.70923], [-73.69764, 42.70719], [-73.69783, 42.7066], [-73.69701, 42.70449], [-73.69689, 42.70405], [-73.6967, 42.70363], [-73.69672, 42.70312], [-73.69675, 42.70288], [-73.69716, 42.70282], [-73.69759, 42.70207], [-73.6984, 42.70177], [-73.7, 42.70171], [-73.70073, 42.69971], [-73.70114, 42.6982], [-73.70148, 42.69696], [-73.70148, 42.69642], [-73.701371, 42.694512], [-73.70124, 42.69221], [-73.70502, 42.6923], [-73.704502, 42.694264], [-73.70377, 42.69704], [-73.70139, 42.70113]]], [[[-73.69001, 42.75227], [-73.69016, 42.75117], [-73.68974, 42.74959], [-73.69093, 42.7498], [-73.69137, 42.74849], [-73.69563, 42.74936], [-73.69643, 42.74695], [-73.69763, 42.74702], [-73.69813, 42.74903], [-73.6983, 42.75108], [-73.6972, 42.75423], [-73.69708, 42.75584], [-73.69536, 42.7587], [-73.69448, 42.75848], [-73.69413, 42.75818], [-73.69193, 42.75787], [-73.6909, 42.75825], [-73.6892, 42.75929], [-73.688459, 42.760196], [-73.68817, 42.76055], [-73.687714, 42.760601], [-73.686819, 42.760701], [-73.68656, 42.76073], [-73.686528, 42.76071], [-73.68607, 42.76043], [-73.68687, 42.75913], [-73.68837, 42.75654], [-73.68923, 42.75404], [-73.69001, 42.75227]]], [[[-73.71253, 42.72726], [-73.712549, 42.727622], [-73.71285, 42.73325], [-73.71015, 42.73251], [-73.71026, 42.73178], [-73.7104, 42.73085], [-73.71049, 42.73024], [-73.71037, 42.72976], [-73.71036, 42.72857], [-73.70955, 42.72863], [-73.70818, 42.72849], [-73.70833, 42.72688], [-73.70997, 42.727085], [-73.71017, 42.72711], [-73.71033, 42.72712], [-73.710979, 42.727161], [-73.711233, 42.727177], [-73.71253, 42.72726]]], [[[-73.7161, 42.72034], [-73.71453, 42.71998], [-73.714068, 42.720108], [-73.71345, 42.72028], [-73.71341, 42.71978], [-73.70996, 42.7177], [-73.71064, 42.716309], [-73.71245, 42.71261], [-73.713453, 42.710707], [-73.713789, 42.710071], [-73.71477, 42.70821], [-73.72039, 42.70964], [-73.7161, 42.72034]]]]}}]}