{"type": "FeatureCollection", "features": [{"type": "Feature", "geometry": {"type": "Point", "coordinates": [-73.698611, 42.759722]}, "properties": {"facility_name": "MOHAWK PAPER MILLS INC", "industry": null, "tri_facility_id": "12047MHWKP465SA"}}, {"type": "Feature", "geometry": {"type": "Point", "coordinates": [-73.708333, 42.758333]}, "properties": {"facility_name": "NORLITE LLC", "industry": null, "tri_facility_id": "12047NRLTC628SO"}}, {"type": "Feature", "geometry": {"type": "Point", "coordinates": [-73.686111, 42.752778]}, "properties": {"facility_name": "FORD MOTOR CO GREEN ISLAND PLANT", "industry": null, "tri_facility_id": "12183FRDMT75TIB"}}, {"type": "Feature", "geometry": {"type": "Point", "coordinates": [-73.6972, 42.7465]}, "properties": {"facility_name": "KAY'S CAPS INC", "industry": null, "tri_facility_id": "12183KYSCP65ARC"}}, {"type": "Feature", "geometry": {"type": "Point", "coordinates": [-73.6964, 42.7489]}, "properties": {"facility_name": "HONEYWELL INTERNATIONAL INC", "industry": null, "tri_facility_id": "12183LLDSGTIBBE"}}, {"type": "Feature", "geometry": {"type": "Point", "coordinates": [-73.694444, 42.743056]}, "properties": {"facility_name": "LYDALL THERMAL/ACOUSTICAL INC", "industry": null, "tri_facility_id": "12183LYDLL68GEO"}}, {"type": "Feature", "geometry": {"type": "Point", "coordinates": [-73.696111, 42.749167]}, "properties": {"facility_name": "ROSS PRECISION MANUFACTURING", "industry": null, "tri_facility_id": "12183ZKNCR1TIBB"}}, {"type": "Feature", "geometry": {"type": "Point", "coordinates": [-73.7225, 42.715]}, "properties": {"facility_name": "REALCO INC", "industry": null, "tri_facility_id": "12189LTCHSSPRIN"}}, {"type": "Feature", "geometry": {"type": "Point", "coordinates": [-73.7213888888889, 42.711111111111116]}, "properties": {"facility_name": "ALTX INC", "industry": null, "tri_facility_id": "12189LTXNC201SP"}}, {"type": "Feature", "geometry": {"type": "Point", "coordinates": [-73.709167, 42.738611]}, "properties": {"facility_name": "SAINT-GOBAIN ABRASIVES", "industry": null, "tri_facility_id": "12189NRTNC10THA"}}, {"type": "Feature", "geometry": {"type": "Point", "coordinates": [-73.703611, 42.738611]}, "properties": {"facility_name": "NASHUA TAPE PRODS", "industry": null, "tri_facility_id": "12189NSHCR2600S"}}, {"type": "Feature", "geometry": {"type": "Point", "coordinates": [-73.708333, 42.708333]}, "properties": {"facility_name": "PASSONNO PAINTS", "industry": null, "tri_facility_id": "12189PSSNN500BR"}}, {"type": "Feature", "geometry": {"type": "Point", "coordinates": [-73.709167, 42.738611]}, "properties": {"facility_name": "AQUA CLEAR INDUSTRIES LLC", "industry": null, "tri_facility_id": "12189QCLRN25509"}}, {"type": "Feature", "geometry": {"type": "Point", "coordinates": [-73.7075, 42.719722]}, "properties": {"facility_name": "US ARMY - WATERVLIET ARSENAL", "industry": null, "tri_facility_id": "12189SDDSRBROAD"}}, {"type": "Feature", "geometry": {"type": "Point", "coordinates": [-73.7317, 42.6805]}, "properties": {"facility_name": "THERMO PRODS INC", "industry": null, "tri_facility_id": "12201THRMPSIMMO"}}, {"type": "Feature", "geometry": {"type": "Point", "coordinates": [-73.720556, 42.695556]}, "properties": {"facility_name": "BORDEN INC DAIRY", "industry": null, "tri_facility_id": "12204BRDNN375BR"}}, {"type": "Feature", "geometry": {"type": "Point", "coordinates": [-73.7375, 42.674444]}, "properties": {"facility_name": "SURPASS CHEMICAL CO. INC.", "industry": null, "tri_facility_id": "12204SRPSS1254B"}}, {"type": "Feature", "geometry": {"type": "Point", "coordinates": [-73.740833, 42.665556]}, "properties": {"facility_name": "SURPASS CHEMICAL CO.", "industry": null, "tri_facility_id": "12204SRPSS3BRID"}}, {"type": "Feature", "geometry": {"type": "Point", "coordinates": [-73.73305555555555, 42.680277777777775]}, "properties": {"facility_name": "SOUTHCO INC", "industry": null, "tri_facility_id": "12204STHCN57BRO"}}, {"type": "Feature", "geometry": {"type": "Point", "coordinates": [-73.745278, 42.662778]}, "properties": {"facility_name": "CMP INDUSTRIES LLC", "industry": null, "tri_facility_id": "12207CMPND413NP"}}, {"type": "Feature", "geometry": {"type": "Point", "coordinates": [-73.7475, 42.665277777777774]}, "properties": {"facility_name": "MORWHITE INC", "industry": null, "tri_facility_id": "12207MRWHT70TIV"}}, {"type": "Feature", "geometry": {"type": "Point", "coordinates": [-73.70805555555556, 42.64277777777778]}, "properties": {"facility_name": "DFA DAIRY BRANDS FLUID LLC DBA GARELICK FARMS NY", "industry": null, "tri_facility_id": "12144GRLCK504TH"}}, {"type": "Feature", "geometry": {"type": "Point", "coordinates": [-73.69611111111111, 42.725]}, "properties": {"facility_name": "CLEMENTE LATHAM TROY PLANT", "industry": null, "tri_facility_id": "12180CLMNTWASHI"}}, {"type": "Feature", "geometry": {"type": "Point", "coordinates": [-73.691667, 42.755556]}, "properties": {"facility_name": "GARDEN WAY INC TROY", "industry": null, "tri_facility_id": "12180GRDNW29102"}}, {"type": "Feature", "geometry": {"type": "Point", "coordinates": [-73.615, 42.729167]}, "properties": {"facility_name": "STEEL TREATERS INC", "industry": null, "tri_facility_id": "12180STLTR520CA"}}, {"type": "Feature", "geometry": {"type": "Point", "coordinates": [-73.683333, 42.747222]}, "properties": {"facility_name": "ROSS VALVE MANUFACTURING CO INC", "industry": null, "tri_facility_id": "12181RSSVL6OAKW"}}]}