{"type": "FeatureCollection", "features": [{"type": "Feature", "geometry": {"type": "Point", "coordinates": [-71.10499999999999, 42.26277777777778]}, "properties": {"facility_name": "PERKIT FOLDING BOX CORP", "industry": null, "tri_facility_id": "02126PRKTF36POY"}}, {"type": "Feature", "geometry": {"type": "Point", "coordinates": [-71.1058, 42.3084]}, "properties": {"facility_name": "ATLANTIC SINTERED METALS", "industry": null, "tri_facility_id": "02130TLNTC3390W"}}, {"type": "Feature", "geometry": {"type": "Point", "coordinates": [-71.158889, 42.2825]}, "properties": {"facility_name": "ARMSTRONG PHARMACEUTICALS INC .", "industry": null, "tri_facility_id": "02132RMSTN423LA"}}, {"type": "Feature", "geometry": {"type": "Point", "coordinates": [-71.13, 42.251667]}, "properties": {"facility_name": "L E MASON CO", "industry": null, "tri_facility_id": "02136MGNSM98BUS"}}, {"type": "Feature", "geometry": {"type": "Point", "coordinates": [-71.1125, 42.258333]}, "properties": {"facility_name": "BAY STATE PAPER", "industry": null, "tri_facility_id": "02136PTRTP892RI"}}, {"type": "Feature", "geometry": {"type": "Point", "coordinates": [-71.14, 42.241667]}, "properties": {"facility_name": "NORTH AMERICAN WOOD PRESERVING", "industry": null, "tri_facility_id": "02137NRTHM8INDU"}}, {"type": "Feature", "geometry": {"type": "Point", "coordinates": [-71.161667, 42.317222]}, "properties": {"facility_name": "CENTRAL CLEANERS", "industry": null, "tri_facility_id": "02167CNTRL621HA"}}, {"type": "Feature", "geometry": {"type": "Point", "coordinates": [-71.151944, 42.193333]}, "properties": {"facility_name": "CUMBERLAND FARMS INC.", "industry": null, "tri_facility_id": "02021CMBRL777DE"}}, {"type": "Feature", "geometry": {"type": "Point", "coordinates": [-71.185278, 42.184444]}, "properties": {"facility_name": "HARRISON SPECIALTY CO INC", "industry": null, "tri_facility_id": "02021HRRSN15UNI"}}, {"type": "Feature", "geometry": {"type": "Point", "coordinates": [-71.126667, 42.174722]}, "properties": {"facility_name": "KINNEY VACUUM CO", "industry": null, "tri_facility_id": "02021KNNYV495TU"}}, {"type": "Feature", "geometry": {"type": "Point", "coordinates": [-71.123056, 42.205]}, "properties": {"facility_name": "INSTRON CORP", "industry": null, "tri_facility_id": "02021NSTRN100RO"}}, {"type": "Feature", "geometry": {"type": "Point", "coordinates": [-71.1725, 42.225]}, "properties": {"facility_name": "TELEDYNE PHILBRICK", "industry": null, "tri_facility_id": "02026TLDYN40ALL"}}, {"type": "Feature", "geometry": {"type": "Point", "coordinates": [-71.18195, 42.200633]}, "properties": {"facility_name": "DYNISCO INC", "industry": null, "tri_facility_id": "02062DYNSC10OCE"}}, {"type": "Feature", "geometry": {"type": "Point", "coordinates": [-71.194722, 42.185833]}, "properties": {"facility_name": "E & F  KING & CO INC", "industry": null, "tri_facility_id": "02062FKNGC640PL"}}, {"type": "Feature", "geometry": {"type": "Point", "coordinates": [-71.173333, 42.205]}, "properties": {"facility_name": "JET SPRAY CORP", "industry": null, "tri_facility_id": "02062JTSPR825UN"}}, {"type": "Feature", "geometry": {"type": "Point", "coordinates": [-71.2, 42.186944]}, "properties": {"facility_name": "LINDBERG HEAT TREATING CO", "industry": null, "tri_facility_id": "02062LNDBR239LE"}}, {"type": "Feature", "geometry": {"type": "Point", "coordinates": [-71.166111, 42.201389]}, "properties": {"facility_name": "OLYMPIC ADHESIVES INC", "industry": null, "tri_facility_id": "02062LYMPC670CA"}}, {"type": "Feature", "geometry": {"type": "Point", "coordinates": [-71.218889, 42.176111]}, "properties": {"facility_name": "ANALAB INC", "industry": null, "tri_facility_id": "02062NLBNC59DAV"}}, {"type": "Feature", "geometry": {"type": "Point", "coordinates": [-71.181944, 42.210278]}, "properties": {"facility_name": "ANALOG DEVICES INC ASSEMBLED PRODS DIV", "industry": null, "tri_facility_id": "02062NLGDVONETE"}}, {"type": "Feature", "geometry": {"type": "Point", "coordinates": [-71.194444, 42.188889]}, "properties": {"facility_name": "INNOVATIVE MEMBRANE SYSTEMS INC", "industry": null, "tri_facility_id": "02062NNVTV189DE"}}, {"type": "Feature", "geometry": {"type": "Point", "coordinates": [-71.199167, 42.172778]}, "properties": {"facility_name": "NORTHROP CORP ESD PRECISION PRODUCTS PLANT", "industry": null, "tri_facility_id": "02062NRTHR100MO"}}, {"type": "Feature", "geometry": {"type": "Point", "coordinates": [-71.205889, 42.1727]}, "properties": {"facility_name": "NORTHROP CORP ELECTRONICS SYSTEMS DIV", "industry": null, "tri_facility_id": "02062NRTHR111MO"}}, {"type": "Feature", "geometry": {"type": "Point", "coordinates": [-71.205889, 42.1727]}, "properties": {"facility_name": "NORTHROP CORP ELECTRONICS SYSTEMS DIV", "industry": null, "tri_facility_id": "02062NRTHR1EDGE"}}, {"type": "Feature", "geometry": {"type": "Point", "coordinates": [-71.205889, 42.1727]}, "properties": {"facility_name": "NORTHROP CORP ELECTRONICS SYS DIV PLANT 8", "industry": null, "tri_facility_id": "02062NRTHR2EDGE"}}, {"type": "Feature", "geometry": {"type": "Point", "coordinates": [-71.200556, 42.185556]}, "properties": {"facility_name": "ALLIED-SIGNAL PRECISION PRODS, PLANT 2", "industry": null, "tri_facility_id": "02062NRTHR934WA"}}, {"type": "Feature", "geometry": {"type": "Point", "coordinates": [-71.195833, 42.206389]}, "properties": {"facility_name": "POLAROID CORP", "industry": null, "tri_facility_id": "02062PLRDC1UPLA"}}, {"type": "Feature", "geometry": {"type": "Point", "coordinates": [-71.217778, 42.178056]}, "properties": {"facility_name": "PER-MARK PRINTED CIRCUITS INC", "industry": null, "tri_facility_id": "02062PRMRKENDIC"}}, {"type": "Feature", "geometry": {"type": "Point", "coordinates": [-71.200278, 42.186111]}, "properties": {"facility_name": "SAVOGRAN CO", "industry": null, "tri_facility_id": "02062THSVG259LE"}}, {"type": "Feature", "geometry": {"type": "Point", "coordinates": [-71.18805555555556, 42.189166666666665]}, "properties": {"facility_name": "TE CONNECTIVITY CORPORATION", "industry": null, "tri_facility_id": "02062TYCLC63NAH"}}, {"type": "Feature", "geometry": {"type": "Point", "coordinates": [-71.157222, 42.207222]}, "properties": {"facility_name": "DU PONT NEW PRODS PLANT", "industry": null, "tri_facility_id": "02090DPNTX240UN"}}, {"type": "Feature", "geometry": {"type": "Point", "coordinates": [-71.160424, 42.205026]}, "properties": {"facility_name": "LTX CORP", "industry": null, "tri_facility_id": "02090LTXCR50ROS"}}, {"type": "Feature", "geometry": {"type": "Point", "coordinates": [-71.2194, 42.2968]}, "properties": {"facility_name": "COCA-COLA BOTTLING CO OF NEW ENGLAND", "industry": null, "tri_facility_id": "02194CCCLB9BSTR"}}, {"type": "Feature", "geometry": {"type": "Point", "coordinates": [-71.215, 42.299444]}, "properties": {"facility_name": "GENERAL DYNAMICS", "industry": null, "tri_facility_id": "02194GTCSY77AST"}}, {"type": "Feature", "geometry": {"type": "Point", "coordinates": [-71.218056, 42.302222]}, "properties": {"facility_name": "NRC INC", "industry": null, "tri_facility_id": "02194NRCNC110AS"}}, {"type": "Feature", "geometry": {"type": "Point", "coordinates": [-71.215, 42.303056]}, "properties": {"facility_name": "INTERNATIONAL EQUIPMENT CO", "industry": null, "tri_facility_id": "02194NTRNT300SE"}}, {"type": "Feature", "geometry": {"type": "Point", "coordinates": [-71.22916666666667, 42.306666666666665]}, "properties": {"facility_name": "A/G TECH CORP", "industry": null, "tri_facility_id": "02494GTCHC101HA"}}]}