{"type": "FeatureCollection", "features": [{"type": "Feature", "properties": {"area_id": 5266, "city": "Kenosha", "state": "WI", "city_survey": true, "cat": "Best", "grade": "A", "label": "A1", "res": true, "com": false, "ind": false, "holc_grade": "A"}, "geometry": {"type": "Polygon", "coordinates": [[[-87.81484, 42.57048], [-87.8142, 42.57036], [-87.81379, 42.57036], [-87.8137, 42.56889], [-87.81289, 42.56894], [-87.8127, 42.56873], [-87.81241, 42.56553], [-87.81453, 42.56562], [-87.81797, 42.56563], [-87.81756, 42.57235], [-87.81493, 42.57225], [-87.81484, 42.57048]]]}}, {"type": "Feature", "properties": {"area_id": 5264, "city": "Kenosha", "state": "WI", "city_survey": true, "cat": "Still Desirable", "grade": "B", "label": "B1", "res": true, "com": false, "ind": false, "holc_grade": "B"}, "geometry": {"type": "Polygon", "coordinates": [[[-87.81752, 42.57574], [-87.81762, 42.57955], [-87.81619, 42.57955], [-87.81642, 42.58083], [-87.81444, 42.58084], [-87.81524, 42.57969], [-87.81517, 42.57827], [-87.81458, 42.57825], [-87.81455, 42.57671], [-87.8151, 42.5767], [-87.81503, 42.57412], [-87.81332, 42.57419], [-87.81344, 42.57313], [-87.81344, 42.57223], [-87.81493, 42.57225], [-87.81756, 42.57235], [-87.81752, 42.57574]]]}}, {"type": "Feature", "properties": {"area_id": 5265, "city": "Kenosha", "state": "WI", "city_survey": true, "cat": "Still Desirable", "grade": "B", "label": "B2", "res": true, "com": false, "ind": false, "holc_grade": "B"}, "geometry": {"type": "Polygon", "coordinates": [[[-87.81996, 42.56581], [-87.819355, 42.565772], [-87.81933, 42.56577], [-87.81914, 42.567073], [-87.818374, 42.57233], [-87.81837, 42.57236], [-87.81756, 42.57235], [-87.81797, 42.56563], [-87.81453, 42.56562], [-87.81481, 42.56465], [-87.81481, 42.56205], [-87.81657, 42.56198], [-87.81826, 42.56203], [-87.81948, 42.56207], [-87.8201, 42.56209], [-87.81996, 42.56581]]]}}, {"type": "Feature", "properties": {"area_id": 5259, "city": "Kenosha", "state": "WI", "city_survey": true, "cat": "Still Desirable", "grade": "B", "label": "B3", "res": true, "com": false, "ind": false, "holc_grade": "B"}, "geometry": {"type": "Polygon", "coordinates": [[[-87.84427, 42.5586], [-87.844269, 42.558783], [-87.84424, 42.5651], [-87.844139, 42.56594], [-87.84412, 42.5661], [-87.84017, 42.5661], [-87.84021, 42.56917], [-87.8353, 42.56921], [-87.83307, 42.56899], [-87.83307, 42.56722], [-87.83057, 42.56718], [-87.82873, 42.56715], [-87.8287, 42.565871], [-87.8287, 42.56586], [-87.83049, 42.56586], [-87.83046, 42.56368], [-87.83509, 42.56365], [-87.83839, 42.5609], [-87.841471, 42.558732], [-87.84163, 42.55862], [-87.84427, 42.5586]]]}}, {"type": "Feature", "properties": {"area_id": 5250, "city": "Kenosha", "state": "WI", "city_survey": true, "cat": "Still Desirable", "grade": "B", "label": "B4", "res": true, "com": false, "ind": false, "holc_grade": "B"}, "geometry": {"type": "Polygon", "coordinates": [[[-87.85539, 42.57571], [-87.85536, 42.5742], [-87.86727, 42.57425], [-87.85977, 42.5794], [-87.85749, 42.57943], [-87.85743, 42.581], [-87.85549, 42.58095], [-87.85539, 42.57571]]]}}, {"type": "Feature", "properties": {"area_id": 5263, "city": "Kenosha", "state": "WI", "city_survey": true, "cat": "Definitely Declining", "grade": "C", "label": "C1", "res": true, "com": false, "ind": false, "holc_grade": "C"}, "geometry": {"type": "Polygon", "coordinates": [[[-87.82071, 42.57408], [-87.82157, 42.57433], [-87.82228, 42.57432], [-87.8226, 42.57343], [-87.82218, 42.57287], [-87.82216, 42.57182], [-87.82307, 42.57182], [-87.82326, 42.57149], [-87.82359, 42.57149], [-87.823815, 42.579498], [-87.82385, 42.58073], [-87.82263, 42.58073], [-87.82281, 42.58174], [-87.82168, 42.58189], [-87.81464, 42.58283], [-87.814442, 42.580864], [-87.81444, 42.58084], [-87.81642, 42.58083], [-87.81619, 42.57955], [-87.81762, 42.57955], [-87.81752, 42.57574], [-87.81756, 42.57235], [-87.81837, 42.57236], [-87.8184, 42.5738], [-87.818413, 42.5738], [-87.81973, 42.57382], [-87.82071, 42.57408]]]}}, {"type": "Feature", "properties": {"area_id": 5270, "city": "Kenosha", "state": "WI", "city_survey": true, "cat": "Definitely Declining", "grade": "C", "label": "C10", "res": true, "com": false, "ind": false, "holc_grade": "C"}, "geometry": {"type": "Polygon", "coordinates": [[[-87.834469, 42.60097], [-87.83591, 42.60141], [-87.83592, 42.60246], [-87.8368, 42.60246], [-87.8368, 42.60564], [-87.83583, 42.60558], [-87.83585, 42.60698], [-87.83262, 42.60699], [-87.8326, 42.60671], [-87.82969, 42.60667], [-87.82963, 42.60622], [-87.82967, 42.6047], [-87.83188, 42.60466], [-87.83188, 42.600245], [-87.83188, 42.60018], [-87.834469, 42.60097]]]}}, {"type": "Feature", "properties": {"area_id": 5260, "city": "Kenosha", "state": "WI", "city_survey": true, "cat": "Definitely Declining", "grade": "C", "label": "C2", "res": true, "com": false, "ind": false, "holc_grade": "C"}, "geometry": {"type": "Polygon", "coordinates": [[[-87.822741, 42.562152], [-87.82369, 42.56574], [-87.823752, 42.56574], [-87.82554, 42.56575], [-87.82539, 42.55995], [-87.83044, 42.55992], [-87.83046, 42.56368], [-87.83049, 42.56586], [-87.8287, 42.56586], [-87.8287, 42.565871], [-87.82873, 42.56715], [-87.83057, 42.56718], [-87.83072, 42.57142], [-87.826885, 42.571381], [-87.8268, 42.57138], [-87.826784, 42.570606], [-87.82671, 42.56715], [-87.824163, 42.567178], [-87.82398, 42.56718], [-87.82526, 42.57151], [-87.82359, 42.57149], [-87.82326, 42.57149], [-87.82307, 42.57182], [-87.82216, 42.57182], [-87.82214, 42.57137], [-87.82179, 42.57059], [-87.8221, 42.56793], [-87.82059, 42.56791], [-87.82054, 42.56582], [-87.81996, 42.56581], [-87.8201, 42.56209], [-87.82273, 42.56211], [-87.822741, 42.562152]]]}}, {"type": "Feature", "properties": {"area_id": 5255, "city": "Kenosha", "state": "WI", "city_survey": true, "cat": "Definitely Declining", "grade": "C", "label": "C3", "res": true, "com": false, "ind": false, "holc_grade": "C"}, "geometry": {"type": "Polygon", "coordinates": [[[-87.83545, 42.57048], [-87.84023, 42.57037], [-87.84021, 42.56917], [-87.84017, 42.5661], [-87.84412, 42.5661], [-87.845223, 42.566113], [-87.85173, 42.56619], [-87.85191, 42.5693], [-87.85518, 42.56921], [-87.855286, 42.573167], [-87.85529, 42.5733], [-87.855268, 42.5733], [-87.855019, 42.573306], [-87.85136, 42.57338], [-87.85136, 42.57388], [-87.85003, 42.57388], [-87.85004, 42.57459], [-87.8483, 42.57459], [-87.84834, 42.57595], [-87.84364, 42.57594], [-87.84356, 42.572776], [-87.84356, 42.57276], [-87.84175, 42.573754], [-87.84039, 42.5745], [-87.84048, 42.57758], [-87.83807, 42.57761], [-87.83803, 42.57715], [-87.83687, 42.57715], [-87.8369, 42.57658], [-87.83387, 42.57667], [-87.8339, 42.57424], [-87.83081, 42.57427], [-87.83081, 42.57311], [-87.830812, 42.57311], [-87.83322, 42.57315], [-87.83322, 42.572139], [-87.83322, 42.571115], [-87.83322, 42.57101], [-87.83545, 42.57103], [-87.83545, 42.57048]]]}}, {"type": "Feature", "properties": {"area_id": 5257, "city": "Kenosha", "state": "WI", "city_survey": true, "cat": "Definitely Declining", "grade": "C", "label": "C4", "res": true, "com": false, "ind": false, "holc_grade": "C"}, "geometry": {"type": "Polygon", "coordinates": [[[-87.85384, 42.56618], [-87.854022, 42.56618], [-87.855113, 42.566177], [-87.85761, 42.56617], [-87.860068, 42.566163], [-87.860205, 42.566163], [-87.86483, 42.56615], [-87.86484, 42.566295], [-87.86489, 42.56702], [-87.85996, 42.56709], [-87.85999, 42.56923], [-87.85518, 42.56921], [-87.85191, 42.5693], [-87.85173, 42.56619], [-87.852111, 42.566188], [-87.85384, 42.56618]]]}}, {"type": "Feature", "properties": {"area_id": 5258, "city": "Kenosha", "state": "WI", "city_survey": true, "cat": "Definitely Declining", "grade": "C", "label": "C5", "res": true, "com": false, "ind": false, "holc_grade": "C"}, "geometry": {"type": "Polygon", "coordinates": [[[-87.85381, 42.5589], [-87.855052, 42.558908], [-87.86471, 42.55897], [-87.86471, 42.56182], [-87.85883, 42.56188], [-87.8588, 42.56258], [-87.85752, 42.56258], [-87.85758, 42.56372], [-87.855095, 42.563693], [-87.85387, 42.56368], [-87.85381, 42.5589]]]}}, {"type": "Feature", "properties": {"area_id": 5253, "city": "Kenosha", "state": "WI", "city_survey": true, "cat": "Definitely Declining", "grade": "C", "label": "C6", "res": true, "com": false, "ind": false, "holc_grade": "C"}, "geometry": {"type": "Polygon", "coordinates": [[[-87.85551, 42.581029], [-87.85567, 42.58167], [-87.85569, 42.58208], [-87.855621, 42.58208], [-87.8513, 42.58208], [-87.85136, 42.58355], [-87.85131, 42.58695], [-87.85227, 42.58703], [-87.852298, 42.588265], [-87.8523, 42.58835], [-87.84686, 42.58817], [-87.84686, 42.588156], [-87.84684, 42.58137], [-87.84812, 42.58137], [-87.84812, 42.57749], [-87.85296, 42.57754], [-87.85294, 42.57576], [-87.85531, 42.575712], [-87.85539, 42.57571], [-87.85549, 42.58095], [-87.85551, 42.581029]]]}}, {"type": "Feature", "properties": {"area_id": 5252, "city": "Kenosha", "state": "WI", "city_survey": true, "cat": "Definitely Declining", "grade": "C", "label": "C7", "res": true, "com": false, "ind": false, "holc_grade": "C"}, "geometry": {"type": "Polygon", "coordinates": [[[-87.85569, 42.58215], [-87.85574, 42.5848], [-87.855669, 42.584799], [-87.85403, 42.58478], [-87.85405, 42.588301], [-87.85405, 42.58838], [-87.8523, 42.58835], [-87.852298, 42.588265], [-87.85227, 42.58703], [-87.85131, 42.58695], [-87.85136, 42.58355], [-87.8513, 42.58208], [-87.855621, 42.58208], [-87.85569, 42.58208], [-87.85569, 42.58215]]]}}, {"type": "Feature", "properties": {"area_id": 5268, "city": "Kenosha", "state": "WI", "city_survey": true, "cat": "Definitely Declining", "grade": "C", "label": "C8", "res": true, "com": false, "ind": false, "holc_grade": "C"}, "geometry": {"type": "Polygon", "coordinates": [[[-87.82154, 42.5899], [-87.82155, 42.58923], [-87.82228, 42.58916], [-87.822274, 42.590837], [-87.82226, 42.59522], [-87.82182, 42.59527], [-87.82186, 42.59709], [-87.82427, 42.5971], [-87.82431, 42.59931], [-87.8252, 42.59939], [-87.82524, 42.6039], [-87.82215, 42.60395], [-87.8221, 42.60255], [-87.82055, 42.6025], [-87.82054, 42.60268], [-87.81815, 42.60261], [-87.81802, 42.59895], [-87.81713, 42.59894], [-87.81623, 42.59526], [-87.81829, 42.59519], [-87.8185, 42.5946], [-87.81758, 42.59435], [-87.81838, 42.59212], [-87.81933, 42.59114], [-87.819162, 42.59089], [-87.81882, 42.59038], [-87.818862, 42.590351], [-87.81948, 42.58993], [-87.82154, 42.5899]]]}}, {"type": "Feature", "properties": {"area_id": 5269, "city": "Kenosha", "state": "WI", "city_survey": true, "cat": "Definitely Declining", "grade": "C", "label": "C9", "res": true, "com": false, "ind": false, "holc_grade": "C"}, "geometry": {"type": "Polygon", "coordinates": [[[-87.83901, 42.587998], [-87.84055, 42.58807], [-87.845618, 42.588159], [-87.84568, 42.58816], [-87.8457, 42.59288], [-87.845643, 42.592879], [-87.84211, 42.59283], [-87.8421, 42.59536], [-87.83575, 42.59521], [-87.83575, 42.597433], [-87.83575, 42.59874], [-87.83055, 42.59868], [-87.82994, 42.59702], [-87.82988, 42.59318], [-87.82988, 42.58667], [-87.835707, 42.586642], [-87.83817, 42.58663], [-87.83819, 42.58796], [-87.83901, 42.587998]]]}}, {"type": "Feature", "properties": {"area_id": 5261, "city": "Kenosha", "state": "WI", "city_survey": true, "cat": "Hazardous", "grade": "D", "label": "D1", "res": true, "com": false, "ind": false, "holc_grade": "D"}, "geometry": {"type": "Polygon", "coordinates": [[[-87.82526, 42.57151], [-87.82398, 42.56718], [-87.824163, 42.567178], [-87.82671, 42.56715], [-87.826784, 42.570606], [-87.8268, 42.57138], [-87.826885, 42.571381], [-87.83072, 42.57142], [-87.830726, 42.571525], [-87.83081, 42.57311], [-87.83081, 42.57427], [-87.8339, 42.57424], [-87.83387, 42.57667], [-87.83332, 42.57668], [-87.83326, 42.57529], [-87.82706, 42.5754], [-87.82687, 42.57234], [-87.8256, 42.57235], [-87.825523, 42.572159], [-87.82526, 42.57151]]]}}, {"type": "Feature", "properties": {"area_id": 5262, "city": "Kenosha", "state": "WI", "city_survey": true, "cat": "Hazardous", "grade": "D", "label": "D2", "res": true, "com": false, "ind": false, "holc_grade": "D"}, "geometry": {"type": "Polygon", "coordinates": [[[-87.82575, 42.57541], [-87.825829, 42.575409], [-87.82706, 42.5754], [-87.82703, 42.57767], [-87.8333, 42.5776], [-87.833308, 42.57767], [-87.83336, 42.57811], [-87.83475, 42.57808], [-87.8349, 42.58069], [-87.83392, 42.58069], [-87.83404, 42.58252], [-87.83051, 42.58257], [-87.826146, 42.583071], [-87.82581, 42.58311], [-87.82323, 42.58349], [-87.82207, 42.58366], [-87.82168, 42.58189], [-87.82281, 42.58174], [-87.82263, 42.58073], [-87.82385, 42.58073], [-87.823815, 42.579498], [-87.82359, 42.57149], [-87.82526, 42.57151], [-87.825523, 42.572159], [-87.8256, 42.57235], [-87.825611, 42.572582], [-87.82575, 42.57541]]]}}, {"type": "Feature", "properties": {"area_id": 5267, "city": "Kenosha", "state": "WI", "city_survey": true, "cat": "Hazardous", "grade": "D", "label": "D3", "res": true, "com": false, "ind": false, "holc_grade": "D"}, "geometry": {"type": "Polygon", "coordinates": [[[-87.8349, 42.58069], [-87.8363, 42.58066], [-87.83695, 42.58067], [-87.83701, 42.58247], [-87.837385, 42.58247], [-87.83937, 42.58247], [-87.83939, 42.58348], [-87.84053, 42.58349], [-87.84055, 42.58803], [-87.84055, 42.58807], [-87.83901, 42.587998], [-87.83819, 42.58796], [-87.83817, 42.58663], [-87.835707, 42.586642], [-87.82988, 42.58667], [-87.82988, 42.59318], [-87.826036, 42.59277], [-87.82585, 42.59275], [-87.82581, 42.59716], [-87.825959, 42.59716], [-87.82667, 42.59716], [-87.82667, 42.59797], [-87.8275, 42.59795], [-87.82756, 42.59878], [-87.82804, 42.59878], [-87.82851, 42.59892], [-87.82924, 42.5993], [-87.83011, 42.59965], [-87.83188, 42.60018], [-87.83188, 42.600245], [-87.83188, 42.60466], [-87.82967, 42.6047], [-87.82963, 42.60622], [-87.82745, 42.60624], [-87.825889, 42.60625], [-87.82581, 42.60625], [-87.82577, 42.60387], [-87.82524, 42.6039], [-87.8252, 42.59939], [-87.82431, 42.59931], [-87.82427, 42.5971], [-87.82186, 42.59709], [-87.82182, 42.59527], [-87.82226, 42.59522], [-87.822274, 42.590837], [-87.82228, 42.58916], [-87.82292, 42.58916], [-87.82298, 42.5879], [-87.82245, 42.58547], [-87.82357, 42.58531], [-87.82323, 42.58349], [-87.82581, 42.58311], [-87.826146, 42.583071], [-87.83051, 42.58257], [-87.83404, 42.58252], [-87.83392, 42.58069], [-87.8349, 42.58069]], [[-87.82591, 42.588], [-87.82595, 42.59077], [-87.826072, 42.590771], [-87.82798, 42.59078], [-87.82798, 42.58808], [-87.826023, 42.588004], [-87.82591, 42.588]], [[-87.83224, 42.58371], [-87.832229, 42.584304], [-87.83222, 42.58482], [-87.83231, 42.58605], [-87.83556, 42.58606], [-87.83555, 42.58473], [-87.83553, 42.58368], [-87.834726, 42.583687], [-87.83224, 42.58371]]]}}, {"type": "Feature", "properties": {"area_id": 5271, "city": "Kenosha", "state": "WI", "city_survey": true, "cat": "Hazardous", "grade": "D", "label": "D4", "res": true, "com": false, "ind": false, "holc_grade": "D"}, "geometry": {"type": "Polygon", "coordinates": [[[-87.83037, 42.61163], [-87.83035, 42.60964], [-87.8275, 42.60967], [-87.82745, 42.60624], [-87.82963, 42.60622], [-87.82969, 42.60667], [-87.8326, 42.60671], [-87.83262, 42.60699], [-87.8326, 42.60955], [-87.83655, 42.60953], [-87.84136, 42.60974], [-87.841419, 42.613523], [-87.84144, 42.61484], [-87.83589, 42.61487], [-87.83589, 42.61505], [-87.82792, 42.61507], [-87.827927, 42.615038], [-87.828092, 42.614263], [-87.82826, 42.61347], [-87.83001, 42.61343], [-87.83001, 42.61342], [-87.82999, 42.61164], [-87.83037, 42.61163]]]}}, {"type": "Feature", "properties": {"area_id": 5272, "city": "Kenosha", "state": "WI", "city_survey": true, "cat": "Hazardous", "grade": "D", "label": "D5", "res": true, "com": false, "ind": false, "holc_grade": "D"}, "geometry": {"type": "Polygon", "coordinates": [[[-87.8421, 42.59536], [-87.84211, 42.59283], [-87.845643, 42.592879], [-87.8457, 42.59288], [-87.84581, 42.59538], [-87.84629, 42.59539], [-87.84645, 42.6027], [-87.845738, 42.602688], [-87.84218, 42.60263], [-87.8421, 42.59536]]]}}, {"type": "Feature", "properties": {"area_id": 5254, "city": "Kenosha", "state": "WI", "city_survey": true, "cat": "Hazardous", "grade": "D", "label": "D6", "res": true, "com": false, "ind": false, "holc_grade": "D"}, "geometry": {"type": "Polygon", "coordinates": [[[-87.83807, 42.57761], [-87.84048, 42.57758], [-87.84039, 42.5745], [-87.84175, 42.573754], [-87.84356, 42.57276], [-87.84356, 42.572776], [-87.84364, 42.57594], [-87.84834, 42.57595], [-87.8483, 42.57459], [-87.85004, 42.57459], [-87.85003, 42.57388], [-87.85136, 42.57388], [-87.85136, 42.57338], [-87.855019, 42.573306], [-87.855268, 42.5733], [-87.85529, 42.5733], [-87.85536, 42.5742], [-87.85539, 42.57571], [-87.85531, 42.575712], [-87.85294, 42.57576], [-87.85296, 42.57754], [-87.84812, 42.57749], [-87.84812, 42.58137], [-87.84684, 42.58137], [-87.84686, 42.588156], [-87.84686, 42.58817], [-87.84568, 42.58816], [-87.84568, 42.588133], [-87.84558, 42.58087], [-87.84206, 42.58073], [-87.84075, 42.580715], [-87.83695, 42.58067], [-87.8363, 42.58066], [-87.83628, 42.57807], [-87.83809, 42.57806], [-87.838071, 42.577638], [-87.83807, 42.57761]]]}}, {"type": "Feature", "properties": {"area_id": 5256, "city": "Kenosha", "state": "WI", "city_survey": true, "cat": "Hazardous", "grade": "D", "label": "D7", "res": true, "com": false, "ind": false, "holc_grade": "D"}, "geometry": {"type": "MultiPolygon", "coordinates": [[[[-87.855095, 42.563693], [-87.85758, 42.56372], [-87.85761, 42.56617], [-87.855113, 42.566177], [-87.854022, 42.56618], [-87.85384, 42.56618], [-87.85387, 42.56368], [-87.855095, 42.563693]]], [[[-87.86489, 42.56702], [-87.86492, 42.568164], [-87.86492, 42.56818], [-87.85529, 42.5733], [-87.855286, 42.573167], [-87.85518, 42.56921], [-87.85999, 42.56923], [-87.85996, 42.56709], [-87.86489, 42.56702]]]]}}, {"type": "Feature", "properties": {"area_id": 5251, "city": "Kenosha", "state": "WI", "city_survey": true, "cat": "Hazardous", "grade": "D", "label": "D8", "res": true, "com": false, "ind": false, "holc_grade": "D"}, "geometry": {"type": "Polygon", "coordinates": [[[-87.85743, 42.581], [-87.861426, 42.581148], [-87.86228, 42.58118], [-87.86218, 42.58275], [-87.86227, 42.58482], [-87.85884, 42.58484], [-87.85893, 42.58831], [-87.85736, 42.58828], [-87.8572, 42.58481], [-87.85574, 42.5848], [-87.85569, 42.58215], [-87.85569, 42.58208], [-87.85567, 42.58167], [-87.85551, 42.581029], [-87.85549, 42.58095], [-87.85743, 42.581]]]}}, {"type": "Feature", "properties": {"area_id": 11207, "city": "Kenosha", "state": "WI", "city_survey": true, "cat": "Commercial", "grade": null, "label": "Commercial", "res": false, "com": true, "ind": false, "holc_grade": null}, "geometry": {"type": "MultiPolygon", "coordinates": [[[[-87.81464, 42.58283], [-87.82168, 42.58189], [-87.82207, 42.58366], [-87.82323, 42.58349], [-87.82357, 42.58531], [-87.82245, 42.58547], [-87.81972, 42.58581], [-87.81744, 42.58584], [-87.81709, 42.58439], [-87.81484, 42.58463], [-87.81464, 42.58283]]], [[[-87.82155, 42.58923], [-87.82154, 42.5899], [-87.81948, 42.58993], [-87.818862, 42.590351], [-87.81882, 42.59038], [-87.81807, 42.58977], [-87.81808, 42.589621], [-87.8181, 42.58934], [-87.81895, 42.5881], [-87.82099, 42.58834], [-87.82155, 42.58923]]], [[[-87.83387, 42.57667], [-87.8369, 42.57658], [-87.83687, 42.57715], [-87.83803, 42.57715], [-87.83807, 42.57761], [-87.838071, 42.577638], [-87.83809, 42.57806], [-87.83628, 42.57807], [-87.8363, 42.58066], [-87.8349, 42.58069], [-87.83475, 42.57808], [-87.83336, 42.57811], [-87.833308, 42.57767], [-87.8333, 42.5776], [-87.83332, 42.57668], [-87.83387, 42.57667]]]]}}, {"type": "Feature", "properties": {"area_id": 11208, "city": "Kenosha", "state": "WI", "city_survey": true, "cat": "Industrial", "grade": null, "label": "Industrial", "res": false, "com": false, "ind": true, "holc_grade": null}, "geometry": {"type": "MultiPolygon", "coordinates": [[[[-87.81744, 42.58584], [-87.81972, 42.58581], [-87.82245, 42.58547], [-87.82298, 42.5879], [-87.82292, 42.58916], [-87.82228, 42.58916], [-87.82155, 42.58923], [-87.82099, 42.58834], [-87.81895, 42.5881], [-87.818796, 42.587853], [-87.81865, 42.58762], [-87.816909, 42.587664], [-87.8116, 42.5878], [-87.81136, 42.58502], [-87.81484, 42.58463], [-87.81709, 42.58439], [-87.81744, 42.58584]]], [[[-87.82706, 42.5754], [-87.825829, 42.575409], [-87.82575, 42.57541], [-87.82567, 42.57374], [-87.825612, 42.572585], [-87.8256, 42.57235], [-87.82687, 42.57234], [-87.82695, 42.57363], [-87.82706, 42.5754]]], [[[-87.82706, 42.5754], [-87.83326, 42.57529], [-87.83332, 42.57668], [-87.8333, 42.5776], [-87.82703, 42.57767], [-87.82706, 42.5754]]], [[[-87.82745, 42.60624], [-87.8275, 42.60967], [-87.826609, 42.615097], [-87.82633, 42.6168], [-87.826156, 42.616287], [-87.82575, 42.61509], [-87.8258, 42.607665], [-87.825809, 42.606447], [-87.82581, 42.60625], [-87.825889, 42.60625], [-87.82745, 42.60624]]], [[[-87.82798, 42.58808], [-87.82798, 42.59078], [-87.826072, 42.590771], [-87.82595, 42.59077], [-87.82591, 42.588], [-87.826023, 42.588004], [-87.82798, 42.58808]]], [[[-87.834726, 42.583687], [-87.83553, 42.58368], [-87.83555, 42.58473], [-87.83222, 42.58482], [-87.832229, 42.584304], [-87.83224, 42.58371], [-87.834726, 42.583687]]], [[[-87.83695, 42.58067], [-87.84075, 42.580715], [-87.84206, 42.58073], [-87.84558, 42.58087], [-87.84568, 42.588133], [-87.84568, 42.58816], [-87.845618, 42.588159], [-87.84055, 42.58807], [-87.84055, 42.58803], [-87.84053, 42.58349], [-87.83939, 42.58348], [-87.83937, 42.58247], [-87.837385, 42.58247], [-87.83701, 42.58247], [-87.83695, 42.58067]]], [[[-87.84423, 42.5546], [-87.84427, 42.5586], [-87.84163, 42.55862], [-87.84162, 42.5546], [-87.84423, 42.5546]]]]}}]}