{"type": "FeatureCollection", "features": [{"type": "Feature", "geometry": {"type": "Point", "coordinates": [-89.54888888888888, 37.309999999999995]}, "properties": {"facility_name": "HORIZON MUSIC INC", "industry": null, "tri_facility_id": "63701HRZNM230NS"}}, {"type": "Feature", "geometry": {"type": "Point", "coordinates": [-89.539722, 37.2675]}, "properties": {"facility_name": "BUZZI UNICEM USA-CAPE GIRARDEAU", "industry": null, "tri_facility_id": "63701LNSTR2524S"}}, {"type": "Feature", "geometry": {"type": "Point", "coordinates": [-89.583333, 37.243056]}, "properties": {"facility_name": "LEGGETT & PLATT INC", "industry": null, "tri_facility_id": "63701RCTCL450NA"}}, {"type": "Feature", "geometry": {"type": "Point", "coordinates": [-89.57555555555555, 37.35027777777778]}, "properties": {"facility_name": "SAFETY-KLEEN SYSTEMS CAPE GIRARDEAU (CAP)", "industry": null, "tri_facility_id": "63701SFTYK201LA"}}, {"type": "Feature", "geometry": {"type": "Point", "coordinates": [-89.548333, 37.28]}, "properties": {"facility_name": "TORQUE-TRACTION MANUFACTURING TECHNOLOGIES INC", "industry": null, "tri_facility_id": "63701SPCRX2075C"}}, {"type": "Feature", "geometry": {"type": "Point", "coordinates": [-89.555, 37.310833]}, "properties": {"facility_name": "SPARTECH", "industry": null, "tri_facility_id": "63701SPRTCONEAT"}}, {"type": "Feature", "geometry": {"type": "Point", "coordinates": [-89.5374, 37.3183]}, "properties": {"facility_name": "MONDI JACKSON LLC.", "industry": null, "tri_facility_id": "63702MWPCK14591"}}, {"type": "Feature", "geometry": {"type": "Point", "coordinates": [-89.516667, 37.3325]}, "properties": {"facility_name": "THE PROCTER & GAMBLE PAPER PRODUCTS CO", "industry": null, "tri_facility_id": "63702PRCTRPOBOX"}}, {"type": "Feature", "geometry": {"type": "Point", "coordinates": [-89.58472222222221, 37.24027777777778]}, "properties": {"facility_name": "POLYONE CORP", "industry": null, "tri_facility_id": "63702SPRTC4753N"}}, {"type": "Feature", "geometry": {"type": "Point", "coordinates": [-89.541667, 37.3]}, "properties": {"facility_name": "FLORSHEIM GROUP INC", "industry": null, "tri_facility_id": "63703FLRSH1600S"}}]}