{"type": "FeatureCollection", "features": [{"type": "Feature", "properties": {"area_id": 11026, "city": "Mankato", "state": "MN", "city_survey": false, "cat": "Best Residential", "grade": null, "label": "Best Residential", "res": true, "com": false, "ind": false, "holc_grade": null}, "geometry": {"type": "MultiPolygon", "coordinates": [[[[-93.98935, 44.161], [-93.989652, 44.161117], [-93.99028, 44.16136], [-93.99191, 44.16214], [-93.99121, 44.16297], [-93.989319, 44.162151], [-93.9892, 44.1621], [-93.989328, 44.161158], [-93.989335, 44.161108], [-93.98935, 44.161]]], [[[-93.998856, 44.161805], [-93.99896, 44.16296], [-93.997433, 44.16296], [-93.9967, 44.16296], [-93.99672, 44.15978], [-93.99867, 44.15975], [-93.998856, 44.161805]]], [[[-94.01787, 44.1559], [-94.01788, 44.15555], [-94.0179, 44.15194], [-94.01382, 44.1518], [-94.01375, 44.1499], [-94.01882, 44.14985], [-94.01871, 44.1518], [-94.02318, 44.15171], [-94.02617, 44.15169], [-94.02652, 44.15174], [-94.02648, 44.15288], [-94.02843, 44.15289], [-94.02843, 44.15396], [-94.02631, 44.15397], [-94.02639, 44.15722], [-94.02591, 44.1572], [-94.02489, 44.15713], [-94.02459, 44.15715], [-94.02418, 44.15716], [-94.0235, 44.15717], [-94.02315, 44.15717], [-94.01859, 44.15728], [-94.01857, 44.15591], [-94.01817, 44.1559], [-94.01787, 44.1559]]]]}}, {"type": "Feature", "properties": {"area_id": 11025, "city": "Mankato", "state": "MN", "city_survey": false, "cat": "Definitiely Declining as Residential", "grade": null, "label": "Definitiely Declining as Residential", "res": true, "com": false, "ind": false, "holc_grade": null}, "geometry": {"type": "MultiPolygon", "coordinates": [[[[-93.98203, 44.16461], [-93.982001, 44.166787], [-93.982, 44.16684], [-93.98196, 44.16684], [-93.97743, 44.16688], [-93.97435, 44.1669], [-93.97426, 44.16319], [-93.97846, 44.16313], [-93.97846, 44.16455], [-93.98203, 44.16461]]], [[[-93.98219, 44.18512], [-93.98615, 44.18085], [-93.9887, 44.18209], [-93.98935, 44.18132], [-93.98908, 44.18603], [-93.98384, 44.18805], [-93.984, 44.18633], [-93.98031, 44.18655], [-93.98049, 44.18521], [-93.98053, 44.18497], [-93.98065, 44.18445], [-93.98219, 44.18512]]], [[[-93.98261, 44.16028], [-93.98367, 44.16084], [-93.98373, 44.16317], [-93.9817, 44.16324], [-93.981729, 44.159535], [-93.98173, 44.15947], [-93.981803, 44.159537], [-93.98261, 44.16028]]], [[[-93.9892, 44.1621], [-93.989297, 44.164853], [-93.98935, 44.16635], [-93.98932, 44.16661], [-93.988748, 44.166623], [-93.98422, 44.16673], [-93.98413, 44.16267], [-93.9854, 44.16267], [-93.98541, 44.16102], [-93.98935, 44.161], [-93.989335, 44.161108], [-93.989328, 44.161158], [-93.9892, 44.1621]]], [[[-94.00201, 44.15824], [-94.00166, 44.15882], [-94.001554, 44.159077], [-94.00136, 44.15955], [-94.00092, 44.15951], [-94.00064, 44.160293], [-94.00063, 44.16032], [-94.000582, 44.160298], [-93.99986, 44.159974], [-93.999675, 44.159891], [-93.99865, 44.15943], [-93.99853, 44.15905], [-93.99842, 44.15833], [-93.99688, 44.15836], [-93.9969, 44.15765], [-93.99568, 44.15767], [-93.99579, 44.15565], [-93.99748, 44.1557], [-93.99621, 44.15389], [-93.996342, 44.153891], [-93.99886, 44.15392], [-93.999731, 44.155811], [-93.99974, 44.15583], [-93.99948, 44.15683], [-94.00047, 44.1573], [-94.00183, 44.15734], [-94.00197, 44.15759], [-94.001981, 44.157773], [-94.001999, 44.158054], [-94.00201, 44.15824]]], [[[-94.02379, 44.16969], [-94.02376, 44.17356], [-94.02349, 44.1809], [-94.02079, 44.180911], [-94.01854, 44.18092], [-94.01856, 44.18318], [-94.01597, 44.18273], [-94.01356, 44.18259], [-94.0123, 44.18285], [-94.01093, 44.18349], [-94.00886, 44.1839], [-94.00785, 44.18386], [-94.00743, 44.1836], [-94.00732, 44.18111], [-94.00487, 44.18105], [-94.00492, 44.17741], [-94.00862, 44.17734], [-94.01359, 44.17721], [-94.01383, 44.17359], [-94.018709, 44.17356], [-94.01873, 44.17356], [-94.01878, 44.17107], [-94.02177, 44.1711], [-94.02282, 44.17036], [-94.02284, 44.17002], [-94.02379, 44.16969]]], [[[-94.03395, 44.15907], [-94.02868, 44.15915], [-94.02881, 44.15864], [-94.02925, 44.15864], [-94.03133, 44.15856], [-94.03238, 44.15812], [-94.03384, 44.15808], [-94.03395, 44.15907]]], [[[-94.02868, 44.15915], [-94.02885, 44.16088], [-94.02752, 44.16092], [-94.02752, 44.16114], [-94.02388, 44.16122], [-94.02384, 44.1619], [-94.02104, 44.16194], [-94.02089, 44.16166], [-94.02029, 44.16173], [-94.02028, 44.16188], [-94.019258, 44.161892], [-94.01851, 44.1619], [-94.0185, 44.16117], [-94.01935, 44.16122], [-94.019651, 44.161201], [-94.02111, 44.16111], [-94.02182, 44.16111], [-94.02381, 44.16109], [-94.02376, 44.16059], [-94.02468, 44.16056], [-94.02829, 44.15949], [-94.02841, 44.15912], [-94.02868, 44.15915]]], [[[-94.02382, 44.16461], [-94.02101, 44.16459], [-94.02107, 44.16304], [-94.02594, 44.16307], [-94.02598, 44.1643], [-94.02529, 44.16429], [-94.02382, 44.16427], [-94.02382, 44.16461]]], [[[-94.02923, 44.15837], [-94.02881, 44.15836], [-94.02879, 44.15728], [-94.03277, 44.1572], [-94.03265, 44.15771], [-94.02947, 44.1577], [-94.02923, 44.15837]]]]}}, {"type": "Feature", "properties": {"area_id": 11023, "city": "Mankato", "state": "MN", "city_survey": false, "cat": "Hazardous as Residential", "grade": null, "label": "Hazardous as Residential", "res": true, "com": false, "ind": false, "holc_grade": null}, "geometry": {"type": "MultiPolygon", "coordinates": [[[[-94.00404, 44.19189], [-93.99926, 44.19195], [-93.99913, 44.19347], [-93.99675, 44.19348], [-93.99533, 44.18559], [-93.99086, 44.18554], [-93.99091, 44.18477], [-93.99179, 44.1848], [-93.99249, 44.18452], [-93.99249, 44.18138], [-93.9911, 44.18137], [-93.9911, 44.17832], [-93.98931, 44.17745], [-93.98999, 44.17668], [-93.99018, 44.17651], [-93.99287, 44.17769], [-93.99399, 44.17821], [-94.00214, 44.17814], [-94.00197, 44.18257], [-94.00344, 44.18257], [-94.00346, 44.18374], [-94.00497, 44.18374], [-94.005, 44.18552], [-94.00432, 44.18554], [-94.00404, 44.19189]]], [[[-94.00404, 44.19189], [-94.00855, 44.19185], [-94.00874, 44.19624], [-94.0042, 44.19626], [-94.00404, 44.19189]]], [[[-93.98931, 44.17745], [-93.98954, 44.18109], [-93.9887, 44.18209], [-93.98615, 44.18085], [-93.98931, 44.17745]]], [[[-93.99503, 44.17755], [-93.99687, 44.17559], [-93.99944, 44.17681], [-93.99881, 44.17753], [-93.99503, 44.17755]]], [[[-94.00661, 44.16964], [-94.00853, 44.16962], [-94.0085, 44.17071], [-94.00558, 44.17083], [-94.00555, 44.16977], [-94.00473, 44.16914], [-94.00655, 44.1683], [-94.0066, 44.1686], [-94.00661, 44.16964]]], [[[-94.01182, 44.1652], [-94.00863, 44.16622], [-94.00856, 44.16301], [-94.0091, 44.16215], [-94.01015, 44.16159], [-94.01267, 44.16106], [-94.0185, 44.16117], [-94.01851, 44.1619], [-94.018579, 44.163079], [-94.01858, 44.16309], [-94.01863, 44.16404], [-94.01805, 44.16429], [-94.017891, 44.164287], [-94.01567, 44.16424], [-94.01442, 44.16452], [-94.01182, 44.1652]]]]}}, {"type": "Feature", "properties": {"area_id": 11027, "city": "Mankato", "state": "MN", "city_survey": false, "cat": "Industrial, Commercial, & Underdeveloped", "grade": null, "label": "Industrial, Commercial, & Underdeveloped", "res": false, "com": true, "ind": true, "holc_grade": null}, "geometry": {"type": "MultiPolygon", "coordinates": [[[[-93.9829, 44.1567], [-93.98382, 44.15781], [-93.98527, 44.15839], [-93.98605, 44.15811], [-93.986956, 44.157948], [-93.989003, 44.157582], [-93.98935, 44.15752], [-93.989664, 44.157496], [-93.991467, 44.157361], [-93.99254, 44.15728], [-93.99208, 44.15576], [-93.99579, 44.15565], [-93.99568, 44.15767], [-93.9969, 44.15765], [-93.99688, 44.15836], [-93.99842, 44.15833], [-93.99853, 44.15905], [-93.99865, 44.15943], [-93.995649, 44.159409], [-93.99442, 44.1594], [-93.99438, 44.16084], [-93.99301, 44.16081], [-93.99312, 44.16185], [-93.99076, 44.16066], [-93.99032, 44.161301], [-93.99028, 44.16136], [-93.989652, 44.161117], [-93.98935, 44.161], [-93.98541, 44.16102], [-93.9854, 44.16267], [-93.98413, 44.16267], [-93.98422, 44.16673], [-93.988748, 44.166623], [-93.98932, 44.16661], [-93.98935, 44.16635], [-93.99015, 44.16669], [-93.99131, 44.16577], [-93.99134, 44.16537], [-93.99177, 44.16532], [-93.99215, 44.16598], [-93.99305, 44.16645], [-93.991311, 44.168333], [-93.98944, 44.17036], [-93.98825, 44.17085], [-93.988225, 44.170875], [-93.98736, 44.17175], [-93.98668, 44.17168], [-93.985505, 44.172798], [-93.98546, 44.17284], [-93.98421, 44.17539], [-93.98421, 44.17496], [-93.97731, 44.17509], [-93.97743, 44.16688], [-93.98196, 44.16684], [-93.982, 44.16684], [-93.982001, 44.166787], [-93.98203, 44.16461], [-93.97846, 44.16455], [-93.97846, 44.16313], [-93.97426, 44.16319], [-93.974252, 44.162853], [-93.97418, 44.15973], [-93.973967, 44.155938], [-93.97387, 44.15422], [-93.97926, 44.15409], [-93.97932, 44.15736], [-93.98053, 44.15754], [-93.98205, 44.15656], [-93.9829, 44.1567]], [[-93.9817, 44.16324], [-93.98373, 44.16317], [-93.98367, 44.16084], [-93.98261, 44.16028], [-93.981803, 44.159537], [-93.98173, 44.15947], [-93.981729, 44.159535], [-93.9817, 44.16324]]], [[[-93.98065, 44.18445], [-93.98053, 44.18497], [-93.98049, 44.18521], [-93.979, 44.18527], [-93.97897, 44.18138], [-93.98189, 44.18132], [-93.98072, 44.18279], [-93.98108, 44.18292], [-93.98046, 44.18376], [-93.98086, 44.18386], [-93.98065, 44.18445]]], [[[-94.00955, 44.16113], [-94.00961, 44.16159], [-94.01015, 44.16159], [-94.0091, 44.16215], [-94.00856, 44.16301], [-94.00863, 44.16622], [-94.00359, 44.16798], [-94.003427, 44.16814], [-94.00258, 44.16897], [-94.00171, 44.17046], [-94.00092, 44.17327], [-94.00186, 44.1737], [-94.00268, 44.17746], [-93.99881, 44.17753], [-93.99944, 44.17681], [-93.99687, 44.17559], [-93.99503, 44.17755], [-93.99399, 44.17821], [-93.99287, 44.17769], [-93.99573, 44.17461], [-93.99511, 44.17432], [-93.99534, 44.17411], [-93.995799, 44.173626], [-93.99589, 44.17353], [-93.99544, 44.17329], [-93.9959, 44.17291], [-93.99564, 44.17279], [-93.99584, 44.17259], [-93.99658, 44.17187], [-93.99696, 44.1715], [-93.99728, 44.17116], [-93.99737, 44.17103], [-93.99738, 44.17089], [-93.99753, 44.1707], [-93.99866, 44.16958], [-94.000463, 44.167767], [-94.00231, 44.16591], [-94.00405, 44.16406], [-94.00461, 44.16445], [-94.00869, 44.16019], [-94.00904, 44.16119], [-94.00955, 44.16113]]], [[[-93.99926, 44.19195], [-94.00404, 44.19189], [-94.0042, 44.19626], [-93.99747, 44.19621], [-93.99675, 44.19348], [-93.99913, 44.19347], [-93.99926, 44.19195]]], [[[-94.00515, 44.17564], [-94.00488, 44.17572], [-94.00492, 44.17741], [-94.00487, 44.18105], [-94.00431, 44.17926], [-94.00397, 44.17683], [-94.00359, 44.17487], [-94.00371, 44.17264], [-94.00337, 44.17095], [-94.00349, 44.16994], [-94.00473, 44.16914], [-94.00555, 44.16977], [-94.00558, 44.17083], [-94.00536, 44.17195], [-94.00515, 44.17564]]], [[[-94.00384, 44.152], [-94.00434, 44.15194], [-94.00432, 44.14492], [-94.00876, 44.14509], [-94.00875, 44.14897], [-94.00746, 44.14897], [-94.00619, 44.14891], [-94.00619, 44.15013], [-94.00584, 44.15015], [-94.00584, 44.15203], [-94.0072, 44.15209], [-94.00732, 44.15378], [-94.0087, 44.1539], [-94.00873, 44.15407], [-94.0085, 44.1555], [-94.006199, 44.155602], [-94.005908, 44.155615], [-94.00422, 44.15569], [-94.00435, 44.15513], [-94.00341, 44.15492], [-94.00402, 44.15323], [-94.00384, 44.152]]], [[[-94.0066, 44.1686], [-94.00655, 44.1683], [-94.00896, 44.16778], [-94.01047, 44.16687], [-94.01326, 44.16566], [-94.01455, 44.16512], [-94.01709, 44.165641], [-94.01772, 44.16577], [-94.01957, 44.16651], [-94.02142, 44.16714], [-94.02148, 44.16889], [-94.02238, 44.16889], [-94.02242, 44.16941], [-94.02376, 44.16939], [-94.02235, 44.16985], [-94.02117, 44.16983], [-94.02123, 44.16885], [-94.018689, 44.168875], [-94.01609, 44.1689], [-94.01616, 44.16739], [-94.01114, 44.16746], [-94.00901, 44.16827], [-94.00772, 44.1686], [-94.0066, 44.1686]]], [[[-94.01932, 44.15981], [-94.01845, 44.15996], [-94.018453, 44.160042], [-94.0185, 44.16117], [-94.01267, 44.16106], [-94.01408, 44.16077], [-94.01375, 44.16015], [-94.01525, 44.159758], [-94.01532, 44.15974], [-94.015187, 44.15951], [-94.014824, 44.158885], [-94.01478, 44.15881], [-94.01857, 44.15918], [-94.01931, 44.15924], [-94.01932, 44.15981]]], [[[-94.02107, 44.16304], [-94.01858, 44.16309], [-94.018579, 44.163079], [-94.01851, 44.1619], [-94.019258, 44.161892], [-94.02028, 44.16188], [-94.02029, 44.16173], [-94.02089, 44.16166], [-94.02104, 44.16194], [-94.02107, 44.16267], [-94.02107, 44.16304]]], [[[-94.02617, 44.15169], [-94.02622, 44.15088], [-94.02879, 44.15089], [-94.02884, 44.14957], [-94.02323, 44.14965], [-94.02276, 44.14809], [-94.02853, 44.14809], [-94.03317, 44.14795], [-94.03146, 44.14955], [-94.03198, 44.15097], [-94.03195, 44.15333], [-94.03218, 44.15451], [-94.03093, 44.15504], [-94.02885, 44.1552], [-94.02886, 44.15396], [-94.02843, 44.15396], [-94.02843, 44.15289], [-94.02648, 44.15288], [-94.02652, 44.15174], [-94.02617, 44.15169]]], [[[-94.02748, 44.16255], [-94.02888, 44.16262], [-94.02594, 44.16294], [-94.02565, 44.16292], [-94.02565, 44.1626], [-94.0253, 44.16258], [-94.0239, 44.16261], [-94.02384, 44.1619], [-94.02388, 44.16122], [-94.02752, 44.16114], [-94.02748, 44.16255]]], [[[-94.03277, 44.1572], [-94.03294, 44.15586], [-94.0322, 44.15584], [-94.03226, 44.15559], [-94.03279, 44.15536], [-94.0334, 44.15607], [-94.03384, 44.15808], [-94.03238, 44.15812], [-94.03133, 44.15856], [-94.02925, 44.15864], [-94.02881, 44.15864], [-94.02881, 44.15836], [-94.02923, 44.15837], [-94.02947, 44.1577], [-94.03265, 44.15771], [-94.03277, 44.1572]]]]}}, {"type": "Feature", "properties": {"area_id": 11024, "city": "Mankato", "state": "MN", "city_survey": false, "cat": "Still Good as Residential", "grade": null, "label": "Still Good as Residential", "res": true, "com": false, "ind": false, "holc_grade": null}, "geometry": {"type": "MultiPolygon", "coordinates": [[[[-94.01447, 44.1555], [-94.015008, 44.156575], [-94.01593, 44.15842], [-94.01478, 44.15881], [-94.014824, 44.158885], [-94.015187, 44.15951], [-94.01532, 44.15974], [-94.01525, 44.159758], [-94.01375, 44.16015], [-94.01408, 44.16077], [-94.01015, 44.16159], [-94.00961, 44.16159], [-94.00955, 44.16113], [-94.00904, 44.16119], [-94.00869, 44.16019], [-94.00461, 44.16445], [-94.00405, 44.16406], [-94.00231, 44.16591], [-94.000463, 44.167767], [-93.99866, 44.16958], [-93.99753, 44.1707], [-93.99738, 44.17089], [-93.99737, 44.17103], [-93.99728, 44.17116], [-93.99696, 44.1715], [-93.99658, 44.17187], [-93.99584, 44.17259], [-93.99564, 44.17279], [-93.9959, 44.17291], [-93.99544, 44.17329], [-93.99589, 44.17353], [-93.995799, 44.173626], [-93.99534, 44.17411], [-93.99511, 44.17432], [-93.99573, 44.17461], [-93.99287, 44.17769], [-93.99018, 44.17651], [-93.98999, 44.17668], [-93.98931, 44.17745], [-93.98615, 44.18085], [-93.98219, 44.18512], [-93.98065, 44.18445], [-93.98086, 44.18386], [-93.98046, 44.18376], [-93.98108, 44.18292], [-93.98072, 44.18279], [-93.98189, 44.18132], [-93.98284, 44.18012], [-93.982806, 44.179733], [-93.9828, 44.17967], [-93.98413, 44.17679], [-93.98421, 44.17539], [-93.98546, 44.17284], [-93.985505, 44.172798], [-93.98668, 44.17168], [-93.98736, 44.17175], [-93.988225, 44.170875], [-93.98825, 44.17085], [-93.98944, 44.17036], [-93.991311, 44.168333], [-93.99305, 44.16645], [-93.99215, 44.16598], [-93.99177, 44.16532], [-93.99134, 44.16537], [-93.99131, 44.16577], [-93.99015, 44.16669], [-93.98935, 44.16635], [-93.989297, 44.164853], [-93.9892, 44.1621], [-93.989319, 44.162151], [-93.99121, 44.16297], [-93.99191, 44.16214], [-93.99028, 44.16136], [-93.99032, 44.161301], [-93.99076, 44.16066], [-93.99312, 44.16185], [-93.99301, 44.16081], [-93.99438, 44.16084], [-93.99442, 44.1594], [-93.995649, 44.159409], [-93.99865, 44.15943], [-93.998668, 44.159714], [-93.99867, 44.15975], [-93.99672, 44.15978], [-93.9967, 44.16296], [-93.997433, 44.16296], [-93.99896, 44.16296], [-93.99914, 44.16296], [-93.999187, 44.162907], [-94.001591, 44.160229], [-94.00176, 44.16004], [-94.00136, 44.15955], [-94.001554, 44.159077], [-94.00166, 44.15882], [-94.00201, 44.15824], [-94.001999, 44.158054], [-94.001981, 44.157773], [-94.00197, 44.15759], [-94.002076, 44.157458], [-94.00307, 44.15622], [-94.00341, 44.15492], [-94.00435, 44.15513], [-94.00422, 44.15569], [-94.005908, 44.155615], [-94.006199, 44.155602], [-94.0085, 44.1555], [-94.00873, 44.15407], [-94.01266, 44.15396], [-94.01359, 44.15544], [-94.01447, 44.1555]], [[-93.99312, 44.16185], [-93.99302, 44.16263], [-93.99447, 44.16333], [-93.99444, 44.16185], [-93.99312, 44.16185]]], [[[-94.02238, 44.16889], [-94.02148, 44.16889], [-94.02142, 44.16714], [-94.02177, 44.1672], [-94.02295, 44.16732], [-94.02327, 44.16743], [-94.02398, 44.16737], [-94.02438, 44.1672], [-94.02472, 44.16717], [-94.025, 44.16717], [-94.02542, 44.16707], [-94.02681, 44.16697], [-94.02672, 44.16876], [-94.02669, 44.16889], [-94.02621, 44.16886], [-94.02379, 44.16969], [-94.02284, 44.17002], [-94.02282, 44.17036], [-94.02177, 44.1711], [-94.01878, 44.17107], [-94.01873, 44.17356], [-94.018709, 44.17356], [-94.01383, 44.17359], [-94.01378, 44.17272], [-94.00928, 44.1728], [-94.00927, 44.17374], [-94.0086, 44.17383], [-94.00862, 44.17734], [-94.00492, 44.17741], [-94.00488, 44.17572], [-94.00515, 44.17564], [-94.00536, 44.17195], [-94.00558, 44.17083], [-94.0085, 44.17071], [-94.00853, 44.16962], [-94.00661, 44.16964], [-94.0066, 44.1686], [-94.00772, 44.1686], [-94.00901, 44.16827], [-94.01114, 44.16746], [-94.01616, 44.16739], [-94.01609, 44.1689], [-94.018689, 44.168875], [-94.02123, 44.16885], [-94.02117, 44.16983], [-94.02235, 44.16985], [-94.02376, 44.16939], [-94.02242, 44.16941], [-94.02238, 44.16889]]], [[[-94.00732, 44.15378], [-94.0072, 44.15209], [-94.00584, 44.15203], [-94.00584, 44.15015], [-94.00619, 44.15013], [-94.00619, 44.14891], [-94.00746, 44.14897], [-94.00875, 44.14897], [-94.0087, 44.1539], [-94.00732, 44.15378]]], [[[-94.02459, 44.15715], [-94.02489, 44.15713], [-94.02591, 44.1572], [-94.02639, 44.15722], [-94.02631, 44.15397], [-94.02843, 44.15396], [-94.02886, 44.15396], [-94.02885, 44.1552], [-94.03093, 44.15504], [-94.03218, 44.15451], [-94.03279, 44.15536], [-94.03226, 44.15559], [-94.0322, 44.15584], [-94.03294, 44.15586], [-94.03277, 44.1572], [-94.02879, 44.15728], [-94.02881, 44.15836], [-94.02881, 44.15864], [-94.02868, 44.15915], [-94.02841, 44.15912], [-94.02829, 44.15949], [-94.02468, 44.16056], [-94.02376, 44.16059], [-94.02381, 44.16109], [-94.02182, 44.16111], [-94.02111, 44.16111], [-94.019651, 44.161201], [-94.01935, 44.16122], [-94.0185, 44.16117], [-94.018453, 44.160042], [-94.01845, 44.15996], [-94.01932, 44.15981], [-94.01931, 44.15924], [-94.01857, 44.15918], [-94.01842, 44.15877], [-94.01859, 44.15728], [-94.02315, 44.15717], [-94.0235, 44.15717], [-94.02418, 44.15716], [-94.02459, 44.15715]]], [[[-94.02565, 44.16292], [-94.02594, 44.16294], [-94.02594, 44.16307], [-94.02107, 44.16304], [-94.02107, 44.16267], [-94.02104, 44.16194], [-94.02384, 44.1619], [-94.0239, 44.16261], [-94.0253, 44.16258], [-94.02565, 44.1626], [-94.02565, 44.16292]]], [[[-94.02622, 44.15088], [-94.02617, 44.15169], [-94.02318, 44.15171], [-94.02337, 44.15041], [-94.02323, 44.14965], [-94.02884, 44.14957], [-94.02879, 44.15089], [-94.02622, 44.15088]]], [[[-94.02752, 44.16092], [-94.02885, 44.16088], [-94.02888, 44.16262], [-94.02748, 44.16255], [-94.02752, 44.16114], [-94.02752, 44.16092]]]]}}]}