{"type": "FeatureCollection", "features": [{"type": "Feature", "geometry": {"type": "Point", "coordinates": [-92.424444, 42.481111]}, "properties": {"facility_name": "JOHN DEERE PRODUCTS ENGINEERING CENTER", "industry": null, "tri_facility_id": "50613JHNDR6725C"}}, {"type": "Feature", "geometry": {"type": "Point", "coordinates": [-92.367222, 42.508056]}, "properties": {"facility_name": "JOHN DEERE FOUNDRY WATERLOO", "industry": null, "tri_facility_id": "50701JHNDR2000W"}}, {"type": "Feature", "geometry": {"type": "Point", "coordinates": [-92.333333, 42.5]}, "properties": {"facility_name": "BERTCH CABINET LLC", "industry": null, "tri_facility_id": "50702BRTCH4747C"}}, {"type": "Feature", "geometry": {"type": "Point", "coordinates": [-92.2611111111111, 42.50861111111111]}, "properties": {"facility_name": "BEEF PRODUCTS INC (WLO)", "industry": null, "tri_facility_id": "50703BFPRD501NE"}}, {"type": "Feature", "geometry": {"type": "Point", "coordinates": [-92.365556, 42.541111]}, "properties": {"facility_name": "MASTERBRAND CABINETS WATERLOO OPERATIONS", "industry": null, "tri_facility_id": "50703BRTCH1205P"}}, {"type": "Feature", "geometry": {"type": "Point", "coordinates": [-92.330833, 42.521111]}, "properties": {"facility_name": "CHAMBERLAIN MANUFACTURING CORP", "industry": null, "tri_facility_id": "50703CHMBR550ES"}}, {"type": "Feature", "geometry": {"type": "Point", "coordinates": [-92.39361111111111, 42.546388888888885]}, "properties": {"facility_name": "ADVANCED HEAT TREAT CORP.", "industry": null, "tri_facility_id": "50703DVNCD2825M"}}, {"type": "Feature", "geometry": {"type": "Point", "coordinates": [-92.35749999999999, 42.53944444444444]}, "properties": {"facility_name": "ADVANCED HEAT TREAT CORP", "industry": null, "tri_facility_id": "50703DVNCD2839B"}}, {"type": "Feature", "geometry": {"type": "Point", "coordinates": [-92.256667, 42.532778]}, "properties": {"facility_name": "WATERLOO PROCESSING LLC", "industry": null, "tri_facility_id": "50703GLTNN4455R"}}, {"type": "Feature", "geometry": {"type": "Point", "coordinates": [-92.367222, 42.5575]}, "properties": {"facility_name": "HYDRITE CHEMICAL CO.", "industry": null, "tri_facility_id": "50703HYDRT2815W"}}, {"type": "Feature", "geometry": {"type": "Point", "coordinates": [-92.380833, 42.540278]}, "properties": {"facility_name": "KENT NUTRITION GROUP INC", "industry": null, "tri_facility_id": "50703KNTFD2233W"}}, {"type": "Feature", "geometry": {"type": "Point", "coordinates": [-92.28416666666666, 42.51166666666666]}, "properties": {"facility_name": "CROWN GROUP WATERLOO PLANT", "industry": null, "tri_facility_id": "50703MTKTC2320N"}}, {"type": "Feature", "geometry": {"type": "Point", "coordinates": [-92.37662, 42.544722]}, "properties": {"facility_name": "PRIES ENTERPRISES INC", "industry": null, "tri_facility_id": "50703PRSNT3136W"}}, {"type": "Feature", "geometry": {"type": "Point", "coordinates": [-92.325, 42.491667]}, "properties": {"facility_name": "POWERS MANUFACTURING CO", "industry": null, "tri_facility_id": "50703PWRSM1340S"}}, {"type": "Feature", "geometry": {"type": "Point", "coordinates": [-92.31666666666666, 42.49166666666667]}, "properties": {"facility_name": "QUALITY MAT CO INC", "industry": null, "tri_facility_id": "50703QLTYM410RA"}}, {"type": "Feature", "geometry": {"type": "Point", "coordinates": [-92.261389, 42.508611]}, "properties": {"facility_name": "TYSON FRESH MEATS INC WATERLOO IOWA", "industry": null, "tri_facility_id": "50704BPNCX501NE"}}, {"type": "Feature", "geometry": {"type": "Point", "coordinates": [-92.346389, 42.509167]}, "properties": {"facility_name": "CEDAR METAL WORKS", "industry": null, "tri_facility_id": "50704CDRMT524PA"}}, {"type": "Feature", "geometry": {"type": "Point", "coordinates": [-92.2642, 42.5447]}, "properties": {"facility_name": "AIRGAS CENTRAL STATES", "industry": null, "tri_facility_id": "50704CNTRL306TH"}}, {"type": "Feature", "geometry": {"type": "Point", "coordinates": [-92.261944, 42.522222]}, "properties": {"facility_name": "JOHN DEERE WATERLOO WORKS TCAO", "industry": null, "tri_facility_id": "50704JHNDR3500E"}}, {"type": "Feature", "geometry": {"type": "Point", "coordinates": [-92.351389, 42.503333]}, "properties": {"facility_name": "JOHN DEERE WATERLOO WORKS DRIVETRAIN OPERATIONS AND FOUNDRY", "industry": null, "tri_facility_id": "50704JHNDR400WE"}}, {"type": "Feature", "geometry": {"type": "Point", "coordinates": [-92.32166666666666, 42.488055555555555]}, "properties": {"facility_name": "AMERICAN COLLOID CO", "industry": null, "tri_facility_id": "50704MRCNC1812W"}}, {"type": "Feature", "geometry": {"type": "Point", "coordinates": [-92.383333, 42.516667]}, "properties": {"facility_name": "NORTHLAND PRODUCTS CO", "industry": null, "tri_facility_id": "50704NRTHL1000R"}}, {"type": "Feature", "geometry": {"type": "Point", "coordinates": [-92.2642, 42.5447]}, "properties": {"facility_name": "PEPSI-COLA GENERAL BOTTLERS", "industry": null, "tri_facility_id": "50704PPSCL1424B"}}, {"type": "Feature", "geometry": {"type": "Point", "coordinates": [-92.377778, 42.506667]}, "properties": {"facility_name": "WATERLOO INDUSTRIES INC", "industry": null, "tri_facility_id": "50704WTRLN300AN"}}]}