{"type": "FeatureCollection", "features": [{"type": "Feature", "properties": {"area_id": 4164, "city": "Fort Wayne", "state": "IN", "city_survey": true, "cat": "Best", "grade": "A", "label": "A1", "res": true, "com": false, "ind": false, "holc_grade": "A"}, "geometry": {"type": "Polygon", "coordinates": [[[-85.11139, 41.10147], [-85.11718, 41.10139], [-85.11712, 41.10151], [-85.11714, 41.10239], [-85.11713, 41.10333], [-85.11631, 41.10406], [-85.11583, 41.10405], [-85.11096, 41.10416], [-85.11085, 41.10165], [-85.11083, 41.10151], [-85.11139, 41.10147]]]}}, {"type": "Feature", "properties": {"area_id": 4142, "city": "Fort Wayne", "state": "IN", "city_survey": true, "cat": "Best", "grade": "A", "label": "A2", "res": true, "com": false, "ind": false, "holc_grade": "A"}, "geometry": {"type": "Polygon", "coordinates": [[[-85.157409, 41.049547], [-85.15696, 41.05048], [-85.15664, 41.0516], [-85.15187, 41.05161], [-85.15174, 41.0513], [-85.15175, 41.05071], [-85.14934, 41.05071], [-85.1493, 41.04945], [-85.15192, 41.04944], [-85.157392, 41.04942], [-85.15747, 41.04942], [-85.157409, 41.049547]]]}}, {"type": "Feature", "properties": {"area_id": 4143, "city": "Fort Wayne", "state": "IN", "city_survey": true, "cat": "Best", "grade": "A", "label": "A3", "res": true, "com": false, "ind": false, "holc_grade": "A"}, "geometry": {"type": "Polygon", "coordinates": [[[-85.15285, 41.04619], [-85.15246, 41.04507], [-85.15254, 41.04468], [-85.15253, 41.04404], [-85.15245, 41.04351], [-85.15277, 41.04331], [-85.15567, 41.04637], [-85.156502, 41.046394], [-85.156656, 41.046398], [-85.15671, 41.0464], [-85.15747, 41.04942], [-85.157392, 41.04942], [-85.15192, 41.04944], [-85.15192, 41.04854], [-85.15283, 41.04852], [-85.152968, 41.046378], [-85.15297, 41.04635], [-85.15285, 41.04619]]]}}, {"type": "Feature", "properties": {"area_id": 4144, "city": "Fort Wayne", "state": "IN", "city_survey": true, "cat": "Best", "grade": "A", "label": "A4", "res": true, "com": false, "ind": false, "holc_grade": "A"}, "geometry": {"type": "Polygon", "coordinates": [[[-85.15277, 41.04331], [-85.15281, 41.04309], [-85.15522, 41.04163], [-85.15538, 41.04153], [-85.15616, 41.04087], [-85.15623, 41.04065], [-85.15634, 41.04021], [-85.15771, 41.04011], [-85.15774, 41.04109], [-85.15804, 41.0425], [-85.15786, 41.0464], [-85.15671, 41.0464], [-85.156656, 41.046398], [-85.156502, 41.046394], [-85.15567, 41.04637], [-85.15277, 41.04331]]]}}, {"type": "Feature", "properties": {"area_id": 4145, "city": "Fort Wayne", "state": "IN", "city_survey": true, "cat": "Best", "grade": "A", "label": "A5", "res": true, "com": false, "ind": false, "holc_grade": "A"}, "geometry": {"type": "Polygon", "coordinates": [[[-85.14721, 41.0391], [-85.14712, 41.03681], [-85.15278, 41.03669], [-85.15286, 41.03831], [-85.15372, 41.0397], [-85.15419, 41.0398], [-85.15473, 41.03978], [-85.15551, 41.03984], [-85.15634, 41.04021], [-85.15623, 41.04065], [-85.15616, 41.04087], [-85.15538, 41.04153], [-85.15522, 41.04163], [-85.15281, 41.04309], [-85.15277, 41.04331], [-85.15245, 41.04351], [-85.15218, 41.04311], [-85.15164, 41.04258], [-85.14875, 41.04262], [-85.14684, 41.04264], [-85.14677, 41.04175], [-85.14452, 41.04236], [-85.14442, 41.04009], [-85.14438, 41.03918], [-85.14721, 41.0391]]]}}, {"type": "Feature", "properties": {"area_id": 4155, "city": "Fort Wayne", "state": "IN", "city_survey": true, "cat": "Still Desirable", "grade": "B", "label": "B1", "res": true, "com": false, "ind": false, "holc_grade": "B"}, "geometry": {"type": "Polygon", "coordinates": [[[-85.16765, 41.08861], [-85.167658, 41.088671], [-85.16786, 41.09024], [-85.16792, 41.09236], [-85.16649, 41.09229], [-85.1641, 41.09192], [-85.16351, 41.0917], [-85.16311, 41.09194], [-85.16291, 41.09226], [-85.16153, 41.09152], [-85.16196, 41.09103], [-85.16103, 41.09025], [-85.16032, 41.08969], [-85.159741, 41.088771], [-85.15969, 41.08869], [-85.16765, 41.08861]]]}}, {"type": "Feature", "properties": {"area_id": 4136, "city": "Fort Wayne", "state": "IN", "city_survey": true, "cat": "Still Desirable", "grade": "B", "label": "B10", "res": true, "com": false, "ind": false, "holc_grade": "B"}, "geometry": {"type": "Polygon", "coordinates": [[[-85.14484, 41.058], [-85.14483, 41.05882], [-85.14497, 41.058819], [-85.14743, 41.05881], [-85.14744, 41.05941], [-85.14758, 41.0636], [-85.14424, 41.0636], [-85.144153, 41.060576], [-85.14408, 41.05802], [-85.14484, 41.058]]]}}, {"type": "Feature", "properties": {"area_id": 4138, "city": "Fort Wayne", "state": "IN", "city_survey": true, "cat": "Still Desirable", "grade": "B", "label": "B11", "res": true, "com": false, "ind": false, "holc_grade": "B"}, "geometry": {"type": "Polygon", "coordinates": [[[-85.14709, 41.0524], [-85.147112, 41.0524], [-85.14942, 41.05243], [-85.14943, 41.05286], [-85.15178, 41.05287], [-85.1519, 41.05263], [-85.15214, 41.05255], [-85.15405, 41.05264], [-85.15636, 41.05267], [-85.15612, 41.05381], [-85.15556, 41.05466], [-85.15537, 41.05494], [-85.15199, 41.05498], [-85.15198, 41.05732], [-85.14766, 41.05716], [-85.14763, 41.05683], [-85.147272, 41.056772], [-85.14726, 41.05677], [-85.14709, 41.0524]]]}}, {"type": "Feature", "properties": {"area_id": 4139, "city": "Fort Wayne", "state": "IN", "city_survey": true, "cat": "Still Desirable", "grade": "B", "label": "B12", "res": true, "com": false, "ind": false, "holc_grade": "B"}, "geometry": {"type": "Polygon", "coordinates": [[[-85.14165, 41.04534], [-85.14214, 41.04548], [-85.14323, 41.04548], [-85.14321, 41.04331], [-85.14369, 41.04321], [-85.14367, 41.03916], [-85.14438, 41.03918], [-85.14442, 41.04009], [-85.14452, 41.04236], [-85.14677, 41.04175], [-85.14684, 41.04264], [-85.14875, 41.04262], [-85.15164, 41.04258], [-85.15218, 41.04311], [-85.15245, 41.04351], [-85.15253, 41.04404], [-85.15254, 41.04468], [-85.15246, 41.04507], [-85.15285, 41.04619], [-85.15163, 41.04615], [-85.14923, 41.04621], [-85.149231, 41.046394], [-85.14924, 41.04936], [-85.1493, 41.04945], [-85.14934, 41.05071], [-85.15175, 41.05071], [-85.15174, 41.0513], [-85.15187, 41.05161], [-85.15664, 41.0516], [-85.15636, 41.05267], [-85.15405, 41.05264], [-85.15214, 41.05255], [-85.1519, 41.05263], [-85.15178, 41.05287], [-85.14943, 41.05286], [-85.14942, 41.05243], [-85.147112, 41.0524], [-85.14709, 41.0524], [-85.14475, 41.0524], [-85.14467, 41.05319], [-85.14017, 41.05323], [-85.14008, 41.05082], [-85.137394, 41.050877], [-85.13723, 41.05088], [-85.137214, 41.050087], [-85.13714, 41.04632], [-85.13703, 41.0451], [-85.13697, 41.04341], [-85.13695, 41.0428], [-85.137038, 41.042798], [-85.14142, 41.04271], [-85.14164, 41.04319], [-85.14165, 41.04534]], [[-85.13999, 41.04657], [-85.13806, 41.04665], [-85.138121, 41.048831], [-85.13815, 41.04989], [-85.1401, 41.04989], [-85.14401, 41.04989], [-85.14388, 41.04653], [-85.141969, 41.04655], [-85.13999, 41.04657]]]}}, {"type": "Feature", "properties": {"area_id": 4140, "city": "Fort Wayne", "state": "IN", "city_survey": true, "cat": "Still Desirable", "grade": "B", "label": "B13", "res": true, "com": false, "ind": false, "holc_grade": "B"}, "geometry": {"type": "Polygon", "coordinates": [[[-85.141969, 41.04655], [-85.14388, 41.04653], [-85.14401, 41.04989], [-85.1401, 41.04989], [-85.140064, 41.048812], [-85.13999, 41.04657], [-85.141969, 41.04655]]]}}, {"type": "Feature", "properties": {"area_id": 4141, "city": "Fort Wayne", "state": "IN", "city_survey": true, "cat": "Still Desirable", "grade": "B", "label": "B14", "res": true, "com": false, "ind": false, "holc_grade": "B"}, "geometry": {"type": "Polygon", "coordinates": [[[-85.13999, 41.04657], [-85.140064, 41.048812], [-85.1401, 41.04989], [-85.13815, 41.04989], [-85.138121, 41.048831], [-85.13806, 41.04665], [-85.13999, 41.04657]]]}}, {"type": "Feature", "properties": {"area_id": 4146, "city": "Fort Wayne", "state": "IN", "city_survey": true, "cat": "Still Desirable", "grade": "B", "label": "B15", "res": true, "com": false, "ind": false, "holc_grade": "B"}, "geometry": {"type": "Polygon", "coordinates": [[[-85.136945, 41.040646], [-85.13695, 41.0428], [-85.13697, 41.04341], [-85.13703, 41.0451], [-85.13714, 41.04632], [-85.13607, 41.04633], [-85.13595, 41.04606], [-85.13561, 41.04579], [-85.13522, 41.04563], [-85.13456, 41.04557], [-85.1341, 41.04569], [-85.13364, 41.04595], [-85.13341, 41.04635], [-85.13285, 41.04636], [-85.13232, 41.04636], [-85.13207, 41.03866], [-85.136865, 41.038729], [-85.13694, 41.03873], [-85.136945, 41.040646]]]}}, {"type": "Feature", "properties": {"area_id": 4157, "city": "Fort Wayne", "state": "IN", "city_survey": true, "cat": "Still Desirable", "grade": "B", "label": "B2", "res": true, "com": false, "ind": false, "holc_grade": "B"}, "geometry": {"type": "Polygon", "coordinates": [[[-85.15835, 41.09139], [-85.16001, 41.09225], [-85.15974, 41.09266], [-85.15996, 41.09376], [-85.15946, 41.09385], [-85.15879, 41.09396], [-85.1584, 41.09396], [-85.15831, 41.09269], [-85.15627, 41.09268], [-85.15627, 41.09331], [-85.15764, 41.0933], [-85.15768, 41.09405], [-85.15842, 41.09405], [-85.15846, 41.0954], [-85.153753, 41.09551], [-85.1499, 41.0956], [-85.14982, 41.0965], [-85.14784, 41.09651], [-85.14768, 41.09535], [-85.14669, 41.09537], [-85.1464, 41.0952], [-85.14629, 41.09474], [-85.14603, 41.09429], [-85.146, 41.09293], [-85.1459, 41.09167], [-85.14581, 41.08918], [-85.15331, 41.08906], [-85.153506, 41.089056], [-85.15838, 41.08896], [-85.15835, 41.09139]]]}}, {"type": "Feature", "properties": {"area_id": 4160, "city": "Fort Wayne", "state": "IN", "city_survey": true, "cat": "Still Desirable", "grade": "B", "label": "B3", "res": true, "com": false, "ind": false, "holc_grade": "B"}, "geometry": {"type": "Polygon", "coordinates": [[[-85.14109, 41.09584], [-85.1416, 41.09626], [-85.14196, 41.09662], [-85.14204, 41.09811], [-85.14197, 41.09874], [-85.14165, 41.09903], [-85.14036, 41.09971], [-85.13973, 41.1001], [-85.13936, 41.10055], [-85.13909, 41.10157], [-85.13828, 41.10111], [-85.13846, 41.09931], [-85.13865, 41.09898], [-85.13908, 41.09852], [-85.14051, 41.09519], [-85.14109, 41.09584]]]}}, {"type": "Feature", "properties": {"area_id": 4162, "city": "Fort Wayne", "state": "IN", "city_survey": true, "cat": "Still Desirable", "grade": "B", "label": "B4", "res": true, "com": false, "ind": false, "holc_grade": "B"}, "geometry": {"type": "Polygon", "coordinates": [[[-85.12269, 41.08789], [-85.12364, 41.08862], [-85.12367, 41.08934], [-85.12422, 41.08931], [-85.124221, 41.08939], [-85.12425, 41.09243], [-85.12435, 41.09309], [-85.12451, 41.09312], [-85.12488, 41.09319], [-85.12791, 41.0924], [-85.12802, 41.09418], [-85.13046, 41.0942], [-85.1305, 41.09587], [-85.12514, 41.09589], [-85.12376, 41.096], [-85.1233, 41.09604], [-85.12036, 41.0961], [-85.120392, 41.096782], [-85.12043, 41.09761], [-85.12295, 41.09755], [-85.12142, 41.09895], [-85.12072, 41.09969], [-85.12004, 41.0997], [-85.119993, 41.096791], [-85.11996, 41.0948], [-85.12067, 41.09477], [-85.12064, 41.09364], [-85.11987, 41.09363], [-85.11971, 41.0906], [-85.12224, 41.09053], [-85.122231, 41.08945], [-85.12222, 41.0882], [-85.12269, 41.08789]]]}}, {"type": "Feature", "properties": {"area_id": 4165, "city": "Fort Wayne", "state": "IN", "city_survey": true, "cat": "Still Desirable", "grade": "B", "label": "B5", "res": true, "com": false, "ind": false, "holc_grade": "B"}, "geometry": {"type": "Polygon", "coordinates": [[[-85.11308, 41.0896], [-85.113083, 41.089664], [-85.113416, 41.096951], [-85.11342, 41.09703], [-85.11639, 41.09696], [-85.11653, 41.09889], [-85.11837, 41.09885], [-85.118257, 41.096829], [-85.11791, 41.09064], [-85.11971, 41.0906], [-85.11987, 41.09363], [-85.11963, 41.09364], [-85.11971, 41.09479], [-85.11996, 41.0948], [-85.119993, 41.096791], [-85.12004, 41.0997], [-85.11954, 41.0997], [-85.11961, 41.10055], [-85.11955, 41.10086], [-85.11917, 41.10123], [-85.11724, 41.10128], [-85.11718, 41.10139], [-85.11139, 41.10147], [-85.11083, 41.10151], [-85.11071, 41.10081], [-85.11102, 41.10081], [-85.11107, 41.10042], [-85.11093, 41.09997], [-85.1096, 41.09997], [-85.10957, 41.09924], [-85.10943, 41.09889], [-85.10931, 41.09829], [-85.10973, 41.09809], [-85.11045, 41.09802], [-85.11192, 41.09793], [-85.11217, 41.0977], [-85.11219, 41.09729], [-85.11206, 41.09704], [-85.111482, 41.097], [-85.11134, 41.09699], [-85.11124, 41.09699], [-85.111001, 41.089715], [-85.111, 41.08967], [-85.11215, 41.08963], [-85.11308, 41.0896]]]}}, {"type": "Feature", "properties": {"area_id": 4166, "city": "Fort Wayne", "state": "IN", "city_survey": true, "cat": "Still Desirable", "grade": "B", "label": "B6", "res": true, "com": false, "ind": false, "holc_grade": "B"}, "geometry": {"type": "Polygon", "coordinates": [[[-85.11709, 41.09065], [-85.11791, 41.09064], [-85.118257, 41.096829], [-85.11837, 41.09885], [-85.11653, 41.09889], [-85.11639, 41.09696], [-85.116386, 41.096873], [-85.11607, 41.09068], [-85.11709, 41.09065]]]}}, {"type": "Feature", "properties": {"area_id": 4167, "city": "Fort Wayne", "state": "IN", "city_survey": true, "cat": "Still Desirable", "grade": "B", "label": "B7", "res": true, "com": false, "ind": false, "holc_grade": "B"}, "geometry": {"type": "Polygon", "coordinates": [[[-85.11215, 41.08963], [-85.11195, 41.08672], [-85.11581, 41.08663], [-85.116, 41.089589], [-85.11607, 41.09068], [-85.116386, 41.096873], [-85.11639, 41.09696], [-85.11342, 41.09703], [-85.113416, 41.096951], [-85.113083, 41.089664], [-85.11308, 41.0896], [-85.11215, 41.08963]]]}}, {"type": "Feature", "properties": {"area_id": 4126, "city": "Fort Wayne", "state": "IN", "city_survey": true, "cat": "Still Desirable", "grade": "B", "label": "B8", "res": true, "com": false, "ind": false, "holc_grade": "B"}, "geometry": {"type": "Polygon", "coordinates": [[[-85.19015, 41.07274], [-85.189928, 41.072944], [-85.18978, 41.07308], [-85.186819, 41.074627], [-85.18666, 41.07471], [-85.186515, 41.074685], [-85.1841, 41.07427], [-85.18101, 41.07387], [-85.18079, 41.07347], [-85.18273, 41.07203], [-85.18607, 41.06963], [-85.1869, 41.06889], [-85.18846, 41.06778], [-85.189836, 41.06694], [-85.19013, 41.06676], [-85.19015, 41.07274]]]}}, {"type": "Feature", "properties": {"area_id": 4123, "city": "Fort Wayne", "state": "IN", "city_survey": true, "cat": "Still Desirable", "grade": "B", "label": "B9", "res": true, "com": false, "ind": false, "holc_grade": "B"}, "geometry": {"type": "Polygon", "coordinates": [[[-85.175072, 41.045707], [-85.17515, 41.04898], [-85.17533, 41.05205], [-85.1742, 41.05289], [-85.17104, 41.05284], [-85.16991, 41.05282], [-85.16941, 41.0521], [-85.16824, 41.05146], [-85.16739, 41.05101], [-85.16678, 41.05054], [-85.16584, 41.05005], [-85.16662, 41.04938], [-85.16702, 41.04899], [-85.16747, 41.0484], [-85.16864, 41.04723], [-85.16896, 41.04672], [-85.16898, 41.04605], [-85.174015, 41.045711], [-85.17507, 41.04564], [-85.175072, 41.045707]]]}}, {"type": "Feature", "properties": {"area_id": 4127, "city": "Fort Wayne", "state": "IN", "city_survey": true, "cat": "Definitely Declining", "grade": "C", "label": null, "res": true, "com": false, "ind": false, "holc_grade": "C"}, "geometry": {"type": "Polygon", "coordinates": [[[-85.1899, 41.08035], [-85.18757, 41.07981], [-85.18673, 41.07972], [-85.1854, 41.07922], [-85.18492, 41.0788], [-85.18474, 41.07825], [-85.1846, 41.07735], [-85.18463, 41.07622], [-85.18826, 41.07692], [-85.18834, 41.07724], [-85.18879, 41.07727], [-85.19032, 41.07762], [-85.19037, 41.08039], [-85.1899, 41.08035]]]}}, {"type": "Feature", "properties": {"area_id": 4156, "city": "Fort Wayne", "state": "IN", "city_survey": true, "cat": "Definitely Declining", "grade": "C", "label": "C1", "res": true, "com": false, "ind": false, "holc_grade": "C"}, "geometry": {"type": "Polygon", "coordinates": [[[-85.1704, 41.08854], [-85.170432, 41.088636], [-85.17204, 41.09344], [-85.1733, 41.09662], [-85.16972, 41.0967], [-85.16969, 41.09601], [-85.16814, 41.09604], [-85.16823, 41.09387], [-85.16819, 41.09233], [-85.16792, 41.09236], [-85.16786, 41.09024], [-85.167658, 41.088671], [-85.16765, 41.08861], [-85.1704, 41.08854]]]}}, {"type": "Feature", "properties": {"area_id": 4152, "city": "Fort Wayne", "state": "IN", "city_survey": true, "cat": "Definitely Declining", "grade": "C", "label": "C10", "res": true, "com": false, "ind": false, "holc_grade": "C"}, "geometry": {"type": "MultiPolygon", "coordinates": [[[[-85.13486, 41.0768], [-85.13533, 41.07844], [-85.13613, 41.08123], [-85.1353, 41.08133], [-85.13514, 41.08078], [-85.13316, 41.08111], [-85.13296, 41.08139], [-85.13167, 41.08088], [-85.1314, 41.08116], [-85.13097, 41.08103], [-85.13003, 41.08098], [-85.12921, 41.07772], [-85.13478, 41.07682], [-85.13486, 41.0768]]], [[[-85.15155, 41.07541], [-85.15296, 41.0752], [-85.15256, 41.07395], [-85.15542, 41.07351], [-85.15607, 41.07337], [-85.15656, 41.07315], [-85.15711, 41.07313], [-85.15738, 41.07319], [-85.15758, 41.07465], [-85.15743, 41.07556], [-85.15725, 41.0759], [-85.15681, 41.07631], [-85.15538, 41.07734], [-85.15421, 41.0786], [-85.15271, 41.07833], [-85.15211, 41.07836], [-85.15037, 41.0786], [-85.1501, 41.07758], [-85.14864, 41.0778], [-85.14893, 41.07882], [-85.14886, 41.078831], [-85.14225, 41.07988], [-85.14199, 41.07896], [-85.14359, 41.07873], [-85.14319, 41.07739], [-85.14283, 41.07618], [-85.14241, 41.07623], [-85.14111, 41.07643], [-85.14096, 41.07588], [-85.14515, 41.07503], [-85.14518, 41.0753], [-85.14674, 41.07506], [-85.14673, 41.07484], [-85.147846, 41.074668], [-85.15107, 41.07417], [-85.15155, 41.07541]]]]}}, {"type": "Feature", "properties": {"area_id": 4129, "city": "Fort Wayne", "state": "IN", "city_survey": true, "cat": "Definitely Declining", "grade": "C", "label": "C11", "res": true, "com": false, "ind": false, "holc_grade": "C"}, "geometry": {"type": "MultiPolygon", "coordinates": [[[[-85.128231, 41.06054], [-85.13295, 41.06054], [-85.13302, 41.06209], [-85.13313, 41.06448], [-85.1332, 41.06594], [-85.13751, 41.06596], [-85.13763, 41.06871], [-85.1334, 41.06875], [-85.13331, 41.06746], [-85.13516, 41.06745], [-85.13514, 41.06681], [-85.13325, 41.06679], [-85.13324, 41.06679], [-85.13323, 41.06679], [-85.1286, 41.06675], [-85.12843, 41.06449], [-85.128402, 41.064491], [-85.12363, 41.06468], [-85.12365, 41.06552], [-85.11658, 41.0656], [-85.11656, 41.06583], [-85.11403, 41.06579], [-85.11315, 41.06593], [-85.1114, 41.06537], [-85.1113, 41.06121], [-85.1113, 41.06105], [-85.1113, 41.06102], [-85.11196, 41.06101], [-85.113953, 41.060961], [-85.11399, 41.06096], [-85.11418, 41.06364], [-85.11579, 41.06364], [-85.11859, 41.06365], [-85.11867, 41.06499], [-85.12044, 41.06502], [-85.12029, 41.06152], [-85.11852, 41.06149], [-85.118538, 41.060676], [-85.11854, 41.06056], [-85.12283, 41.06055], [-85.12429, 41.06055], [-85.12718, 41.06054], [-85.128231, 41.06054]]], [[[-85.12921, 41.07772], [-85.13003, 41.08098], [-85.12962, 41.081], [-85.12737, 41.08201], [-85.126399, 41.08257], [-85.126, 41.0828], [-85.1256, 41.083], [-85.12446, 41.08335], [-85.12416, 41.08363], [-85.12381, 41.08362], [-85.12299, 41.08417], [-85.12188, 41.08412], [-85.12188, 41.08319], [-85.12325, 41.08316], [-85.12322, 41.08263], [-85.12176, 41.0826], [-85.11895, 41.08216], [-85.1166, 41.0814], [-85.11584, 41.08124], [-85.11487, 41.08118], [-85.1148, 41.08007], [-85.11476, 41.07922], [-85.11976, 41.07913], [-85.11977, 41.07906], [-85.11969, 41.07713], [-85.11743, 41.07657], [-85.11749, 41.07465], [-85.125815, 41.07474], [-85.1351, 41.07484], [-85.13551, 41.0766], [-85.13486, 41.0768], [-85.13478, 41.07682], [-85.12921, 41.07772]], [[-85.125979, 41.077703], [-85.12409, 41.07775], [-85.12406, 41.07806], [-85.126089, 41.078649], [-85.12616, 41.07867], [-85.12776, 41.07866], [-85.12774, 41.07766], [-85.125979, 41.077703]], [[-85.12759, 41.07945], [-85.12612, 41.07947], [-85.12622, 41.08086], [-85.12765, 41.08082], [-85.12759, 41.07945]]], [[[-85.14528, 41.07131], [-85.149055, 41.071335], [-85.15753, 41.07139], [-85.157531, 41.071404], [-85.15759, 41.07235], [-85.15643, 41.07244], [-85.15656, 41.07315], [-85.15607, 41.07337], [-85.15542, 41.07351], [-85.15256, 41.07395], [-85.15107, 41.07417], [-85.147846, 41.074668], [-85.14673, 41.07484], [-85.14667, 41.07319], [-85.14516, 41.07318], [-85.14515, 41.07503], [-85.14096, 41.07588], [-85.14097, 41.07511], [-85.14026, 41.07513], [-85.14027, 41.07432], [-85.14178, 41.07433], [-85.14183, 41.07309], [-85.13971, 41.07313], [-85.13971, 41.07399], [-85.138407, 41.074034], [-85.13822, 41.07404], [-85.13821, 41.075], [-85.13712, 41.07501], [-85.13711, 41.07407], [-85.13503, 41.07414], [-85.13508, 41.07323], [-85.13651, 41.07322], [-85.13649, 41.07205], [-85.138325, 41.072054], [-85.14154, 41.07206], [-85.14156, 41.07171], [-85.14524, 41.0717], [-85.145267, 41.071439], [-85.14528, 41.07131]]], [[[-85.15222, 41.06189], [-85.152265, 41.061891], [-85.1565, 41.06195], [-85.15665, 41.06412], [-85.15699, 41.06421], [-85.15784, 41.0642], [-85.1579, 41.06516], [-85.16118, 41.06512], [-85.16116, 41.06548], [-85.161331, 41.065822], [-85.16134, 41.06584], [-85.161341, 41.065861], [-85.16138, 41.06668], [-85.16134, 41.06764], [-85.15915, 41.06763], [-85.15918, 41.06928], [-85.1594, 41.07053], [-85.15352, 41.07061], [-85.15347, 41.06968], [-85.15086, 41.06966], [-85.15133, 41.06926], [-85.151092, 41.069133], [-85.15028, 41.0687], [-85.15125, 41.06778], [-85.1498, 41.06777], [-85.14513, 41.06773], [-85.14519, 41.06848], [-85.14311, 41.06846], [-85.13883, 41.06835], [-85.13868, 41.06592], [-85.14523, 41.06586], [-85.14525, 41.06434], [-85.1476, 41.06432], [-85.14758, 41.0636], [-85.14744, 41.05941], [-85.149752, 41.059445], [-85.15206, 41.05948], [-85.1521, 41.06066], [-85.152175, 41.061432], [-85.15222, 41.06189]], [[-85.14307, 41.06619], [-85.14062, 41.06619], [-85.14061, 41.06744], [-85.14304, 41.06746], [-85.14307, 41.06619]], [[-85.15073, 41.06518], [-85.152392, 41.065197], [-85.15265, 41.0652], [-85.15273, 41.06408], [-85.152351, 41.064073], [-85.15064, 41.06404], [-85.15073, 41.06518]]]]}}, {"type": "Feature", "properties": {"area_id": 4125, "city": "Fort Wayne", "state": "IN", "city_survey": true, "cat": "Definitely Declining", "grade": "C", "label": "C12", "res": true, "com": false, "ind": false, "holc_grade": "C"}, "geometry": {"type": "MultiPolygon", "coordinates": [[[[-85.157844, 41.052591], [-85.15848, 41.0526], [-85.15855, 41.05316], [-85.15995, 41.05304], [-85.16514, 41.05304], [-85.16523, 41.05481], [-85.16437, 41.0548], [-85.16075, 41.05485], [-85.16075, 41.05657], [-85.16303, 41.05653], [-85.16727, 41.05761], [-85.16738, 41.06021], [-85.16783, 41.06015], [-85.16795, 41.06024], [-85.16777, 41.062], [-85.16573, 41.06198], [-85.1656, 41.05872], [-85.16298, 41.05751], [-85.15913, 41.05761], [-85.15792, 41.05338], [-85.157753, 41.052966], [-85.15767, 41.05276], [-85.15774, 41.05259], [-85.157844, 41.052591]]], [[[-85.1653, 41.06407], [-85.16963, 41.06209], [-85.16971, 41.05731], [-85.17108, 41.05734], [-85.17125, 41.06213], [-85.17126, 41.06439], [-85.17143, 41.06763], [-85.17143, 41.06767], [-85.1709, 41.06766], [-85.16994, 41.06764], [-85.161492, 41.06764], [-85.16134, 41.06764], [-85.16138, 41.06668], [-85.161461, 41.066678], [-85.16504, 41.06661], [-85.16518, 41.06642], [-85.1653, 41.06407]]]]}}, {"type": "Feature", "properties": {"area_id": 4149, "city": "Fort Wayne", "state": "IN", "city_survey": true, "cat": "Definitely Declining", "grade": "C", "label": "C13", "res": true, "com": false, "ind": false, "holc_grade": "C"}, "geometry": {"type": "MultiPolygon", "coordinates": [[[[-85.08957, 41.06149], [-85.0896, 41.06495], [-85.08993, 41.06519], [-85.09178, 41.06518], [-85.09187, 41.06366], [-85.09171, 41.06349], [-85.09115, 41.06351], [-85.09084, 41.06341], [-85.09052, 41.063], [-85.0906, 41.06222], [-85.0908, 41.06147], [-85.0991, 41.06138], [-85.09959, 41.06149], [-85.10002, 41.06169], [-85.10696, 41.06759], [-85.10759, 41.06786], [-85.10766, 41.06853], [-85.10966, 41.06853], [-85.10973, 41.07028], [-85.10803, 41.07032], [-85.10802, 41.07134], [-85.11202, 41.07132], [-85.11198, 41.06984], [-85.11401, 41.07078], [-85.114019, 41.071417], [-85.11402, 41.07151], [-85.1175, 41.07147], [-85.11749, 41.07465], [-85.11743, 41.07657], [-85.11355, 41.07557], [-85.11209, 41.07556], [-85.11205, 41.0745], [-85.1106, 41.07451], [-85.11065, 41.07569], [-85.11178, 41.07563], [-85.11194, 41.07927], [-85.11476, 41.07922], [-85.1148, 41.08007], [-85.10982, 41.08016], [-85.10978, 41.07932], [-85.11097, 41.07931], [-85.11094, 41.07791], [-85.10966, 41.07791], [-85.10954, 41.07632], [-85.10943, 41.07558], [-85.10473, 41.07571], [-85.09679, 41.07593], [-85.09679, 41.07616], [-85.09605, 41.07617], [-85.09605, 41.071492], [-85.09605, 41.07139], [-85.08727, 41.07131], [-85.08712, 41.06149], [-85.08957, 41.06149]], [[-85.10017, 41.06888], [-85.10011, 41.06684], [-85.09844, 41.06688], [-85.09844, 41.06893], [-85.10017, 41.06888]]], [[[-85.10033, 41.05411], [-85.10431, 41.05395], [-85.10869, 41.05378], [-85.108692, 41.053848], [-85.108946, 41.061114], [-85.10895, 41.06122], [-85.10657, 41.06131], [-85.10664, 41.06328], [-85.10593, 41.06325], [-85.10543, 41.063], [-85.10492, 41.06298], [-85.10488, 41.0626], [-85.104, 41.06262], [-85.10391, 41.06222], [-85.10346, 41.0622], [-85.10345, 41.06193], [-85.10243, 41.06193], [-85.10241, 41.06147], [-85.10094, 41.06152], [-85.099966, 41.061112], [-85.09872, 41.06059], [-85.09737, 41.05837], [-85.09654, 41.05595], [-85.09652, 41.05497], [-85.096776, 41.05422], [-85.0968, 41.05415], [-85.09722, 41.05403], [-85.10033, 41.05411]]]]}}, {"type": "Feature", "properties": {"area_id": 4148, "city": "Fort Wayne", "state": "IN", "city_survey": true, "cat": "Definitely Declining", "grade": "C", "label": "C14", "res": true, "com": false, "ind": false, "holc_grade": "C"}, "geometry": {"type": "Polygon", "coordinates": [[[-85.11399, 41.05347], [-85.114227, 41.05347], [-85.11432, 41.05347], [-85.1174, 41.05347], [-85.127897, 41.05346], [-85.128, 41.05346], [-85.12805, 41.05457], [-85.127953, 41.054571], [-85.12239, 41.05464], [-85.12238, 41.05667], [-85.12274, 41.05667], [-85.12285, 41.05891], [-85.12283, 41.06055], [-85.11854, 41.06056], [-85.118538, 41.060676], [-85.11852, 41.06149], [-85.11859, 41.06365], [-85.11579, 41.06364], [-85.11418, 41.06364], [-85.11399, 41.06096], [-85.113953, 41.060961], [-85.11196, 41.06101], [-85.1113, 41.06102], [-85.1113, 41.06105], [-85.1113, 41.06121], [-85.10895, 41.06122], [-85.108946, 41.061114], [-85.108692, 41.053848], [-85.10869, 41.05378], [-85.1121, 41.05365], [-85.11211, 41.05376], [-85.11212, 41.05386], [-85.113695, 41.053835], [-85.11399, 41.05383], [-85.11399, 41.053517], [-85.11399, 41.05347]]]}}, {"type": "Feature", "properties": {"area_id": 4134, "city": "Fort Wayne", "state": "IN", "city_survey": true, "cat": "Definitely Declining", "grade": "C", "label": "C15", "res": true, "com": false, "ind": false, "holc_grade": "C"}, "geometry": {"type": "Polygon", "coordinates": [[[-85.13716, 41.06046], [-85.13295, 41.06054], [-85.128231, 41.06054], [-85.12718, 41.06054], [-85.12429, 41.06055], [-85.12425, 41.0589], [-85.12285, 41.05891], [-85.12274, 41.05667], [-85.128044, 41.05667], [-85.12815, 41.05667], [-85.12805, 41.05457], [-85.128, 41.05346], [-85.129, 41.05345], [-85.12903, 41.05582], [-85.1306, 41.0558], [-85.13063, 41.05683], [-85.1332, 41.05679], [-85.13311, 41.05327], [-85.13471, 41.05325], [-85.1348, 41.05508], [-85.13499, 41.05554], [-85.13732, 41.05772], [-85.137703, 41.057969], [-85.13786, 41.05807], [-85.13788, 41.05866], [-85.137734, 41.058664], [-85.13712, 41.05868], [-85.13716, 41.06046]]]}}, {"type": "Feature", "properties": {"area_id": 4133, "city": "Fort Wayne", "state": "IN", "city_survey": true, "cat": "Definitely Declining", "grade": "C", "label": "C16", "res": true, "com": false, "ind": false, "holc_grade": "C"}, "geometry": {"type": "MultiPolygon", "coordinates": [[[[-85.13344, 41.04747], [-85.13235, 41.04646], [-85.13232, 41.04636], [-85.13285, 41.04636], [-85.13341, 41.04635], [-85.13607, 41.04633], [-85.13714, 41.04632], [-85.137214, 41.050087], [-85.13723, 41.05088], [-85.137394, 41.050877], [-85.14008, 41.05082], [-85.14017, 41.05323], [-85.14467, 41.05319], [-85.14475, 41.0524], [-85.14709, 41.0524], [-85.14726, 41.05677], [-85.14478, 41.05686], [-85.14484, 41.058], [-85.14408, 41.05802], [-85.144153, 41.060576], [-85.14424, 41.0636], [-85.14758, 41.0636], [-85.1476, 41.06432], [-85.14525, 41.06434], [-85.14523, 41.06586], [-85.13868, 41.06592], [-85.138475, 41.060607], [-85.1384, 41.05866], [-85.13788, 41.05866], [-85.13786, 41.05807], [-85.137703, 41.057969], [-85.13732, 41.05772], [-85.13499, 41.05554], [-85.1348, 41.05508], [-85.13471, 41.05325], [-85.13463, 41.05087], [-85.134538, 41.050093], [-85.13446, 41.04943], [-85.13399, 41.04842], [-85.13344, 41.04747]], [[-85.1358, 41.05166], [-85.13592, 41.05386], [-85.13667, 41.05352], [-85.13699, 41.05352], [-85.13722, 41.05365], [-85.13751, 41.053505], [-85.13756, 41.05348], [-85.13756, 41.05232], [-85.13743, 41.05165], [-85.137428, 41.05165], [-85.1358, 41.05166]]], [[[-85.1332, 41.06594], [-85.13313, 41.06448], [-85.1367, 41.06442], [-85.1366, 41.06201], [-85.13302, 41.06209], [-85.13295, 41.06054], [-85.13716, 41.06046], [-85.13751, 41.06596], [-85.1332, 41.06594]]]]}}, {"type": "Feature", "properties": {"area_id": 4137, "city": "Fort Wayne", "state": "IN", "city_survey": true, "cat": "Definitely Declining", "grade": "C", "label": "C17", "res": true, "com": false, "ind": false, "holc_grade": "C"}, "geometry": {"type": "Polygon", "coordinates": [[[-85.14766, 41.05716], [-85.15198, 41.05732], [-85.15199, 41.05498], [-85.15537, 41.05494], [-85.15556, 41.05466], [-85.15682, 41.05517], [-85.15686, 41.05562], [-85.15632, 41.05622], [-85.15629, 41.05667], [-85.15637, 41.0574], [-85.1563, 41.0578], [-85.156423, 41.058175], [-85.15652, 41.05847], [-85.1565, 41.06195], [-85.152265, 41.061891], [-85.15222, 41.06189], [-85.152175, 41.061432], [-85.1521, 41.06066], [-85.15206, 41.05948], [-85.149752, 41.059445], [-85.14744, 41.05941], [-85.14743, 41.05881], [-85.14972, 41.05888], [-85.149719, 41.058726], [-85.14971, 41.05776], [-85.14768, 41.05771], [-85.14766, 41.05716]]]}}, {"type": "Feature", "properties": {"area_id": 4122, "city": "Fort Wayne", "state": "IN", "city_survey": true, "cat": "Definitely Declining", "grade": "C", "label": "C18", "res": true, "com": false, "ind": false, "holc_grade": "C"}, "geometry": {"type": "Polygon", "coordinates": [[[-85.16715, 41.02037], [-85.16603, 41.02029], [-85.16612, 41.01953], [-85.16603, 41.01921], [-85.16448, 41.01742], [-85.16469, 41.01725], [-85.16894, 41.01717], [-85.16889, 41.01191], [-85.16902, 41.01152], [-85.16894, 41.01082], [-85.16897, 41.01053], [-85.169192, 41.010525], [-85.17427, 41.01042], [-85.17451, 41.01193], [-85.17559, 41.01274], [-85.17887, 41.01087], [-85.18027, 41.01138], [-85.18023, 41.01181], [-85.18044, 41.01256], [-85.18186, 41.01249], [-85.18178, 41.01225], [-85.18376, 41.01221], [-85.18378, 41.01322], [-85.18418, 41.01351], [-85.18404, 41.01769], [-85.18155, 41.0184], [-85.18161, 41.01971], [-85.18176, 41.02241], [-85.181813, 41.025721], [-85.18183, 41.02679], [-85.18494, 41.02675], [-85.18523, 41.03256], [-85.18519, 41.03302], [-85.1822, 41.03354], [-85.18243, 41.03757], [-85.18218, 41.03832], [-85.18233, 41.04216], [-85.17737, 41.04222], [-85.16944, 41.0423], [-85.16929, 41.04204], [-85.16822, 41.04233], [-85.1676, 41.04242], [-85.16868, 41.04116], [-85.17019, 41.03962], [-85.17144, 41.03835], [-85.17416, 41.03827], [-85.17438, 41.03851], [-85.17429, 41.03884], [-85.1741, 41.03951], [-85.17377, 41.03982], [-85.17346, 41.04016], [-85.18003, 41.04014], [-85.17956, 41.03319], [-85.17938, 41.02878], [-85.17805, 41.02873], [-85.17815, 41.02703], [-85.178338, 41.026735], [-85.17836, 41.0267], [-85.17285, 41.02679], [-85.17243, 41.02581], [-85.17083, 41.0259], [-85.16897, 41.02383], [-85.168786, 41.023591], [-85.16717, 41.02149], [-85.16715, 41.02037]]]}}, {"type": "Feature", "properties": {"area_id": 4147, "city": "Fort Wayne", "state": "IN", "city_survey": true, "cat": "Definitely Declining", "grade": "C", "label": "C19", "res": true, "com": false, "ind": false, "holc_grade": "C"}, "geometry": {"type": "Polygon", "coordinates": [[[-85.127265, 41.038806], [-85.128, 41.03883], [-85.12824, 41.04614], [-85.12989, 41.0461], [-85.12981, 41.04267], [-85.13097, 41.04272], [-85.13076, 41.03859], [-85.13207, 41.03866], [-85.13232, 41.04636], [-85.13235, 41.04646], [-85.13344, 41.04747], [-85.13399, 41.04842], [-85.13446, 41.04943], [-85.134538, 41.050093], [-85.13463, 41.05087], [-85.13471, 41.05325], [-85.13311, 41.05327], [-85.13055, 41.05332], [-85.13045, 41.05234], [-85.12906, 41.05234], [-85.129, 41.05345], [-85.128, 41.05346], [-85.127897, 41.05346], [-85.1174, 41.05347], [-85.11432, 41.05347], [-85.114227, 41.05347], [-85.11399, 41.05347], [-85.11393, 41.05273], [-85.11354, 41.05273], [-85.113204, 41.046231], [-85.1132, 41.04615], [-85.11328, 41.04615], [-85.125992, 41.046178], [-85.126047, 41.046178], [-85.12679, 41.04618], [-85.12675, 41.03879], [-85.127265, 41.038806]]]}}, {"type": "Feature", "properties": {"area_id": 4158, "city": "Fort Wayne", "state": "IN", "city_survey": true, "cat": "Definitely Declining", "grade": "C", "label": "C2", "res": true, "com": false, "ind": false, "holc_grade": "C"}, "geometry": {"type": "Polygon", "coordinates": [[[-85.16347, 41.09849], [-85.16339, 41.09765], [-85.16336, 41.09737], [-85.16336, 41.09605], [-85.1637, 41.09604], [-85.1637, 41.09565], [-85.16371, 41.09483], [-85.16617, 41.09485], [-85.16609, 41.09604], [-85.16814, 41.09604], [-85.16969, 41.09601], [-85.16972, 41.0967], [-85.16944, 41.09669], [-85.16971, 41.0999], [-85.169573, 41.103274], [-85.16956, 41.1036], [-85.164715, 41.103461], [-85.16363, 41.10343], [-85.16347, 41.09849]]]}}, {"type": "Feature", "properties": {"area_id": 4159, "city": "Fort Wayne", "state": "IN", "city_survey": true, "cat": "Definitely Declining", "grade": "C", "label": "C3", "res": true, "com": false, "ind": false, "holc_grade": "C"}, "geometry": {"type": "MultiPolygon", "coordinates": [[[[-85.11714, 41.10239], [-85.118254, 41.102377], [-85.12553, 41.10229], [-85.12554, 41.1004], [-85.13141, 41.10027], [-85.13144, 41.10098], [-85.13508, 41.10091], [-85.13335, 41.10219], [-85.13311, 41.10262], [-85.13292, 41.10317], [-85.13264, 41.1035], [-85.13139, 41.10371], [-85.13137, 41.10454], [-85.12872, 41.10772], [-85.12769, 41.1089], [-85.1262, 41.10821], [-85.12537, 41.10841], [-85.12275, 41.10871], [-85.12017, 41.10952], [-85.120158, 41.109598], [-85.12008, 41.11012], [-85.11951, 41.11022], [-85.11833, 41.11094], [-85.11633, 41.11008], [-85.116245, 41.108988], [-85.11596, 41.10531], [-85.11591, 41.10517], [-85.11584, 41.10496], [-85.115836, 41.104602], [-85.11583, 41.10405], [-85.11631, 41.10406], [-85.11713, 41.10333], [-85.11714, 41.10239]]], [[[-85.14723, 41.10147], [-85.14461, 41.10162], [-85.144335, 41.101583], [-85.14431, 41.10158], [-85.14429, 41.10379], [-85.13945, 41.1037], [-85.13948, 41.10402], [-85.13963, 41.10438], [-85.13974, 41.10447], [-85.14087, 41.10467], [-85.14136, 41.10498], [-85.14185, 41.10546], [-85.14187, 41.10565], [-85.14233, 41.10576], [-85.14323, 41.10573], [-85.14359, 41.10606], [-85.14386, 41.1066], [-85.1444, 41.10679], [-85.1444, 41.107205], [-85.1444, 41.10747], [-85.14354, 41.10755], [-85.14221, 41.10763], [-85.140915, 41.107599], [-85.14055, 41.10759], [-85.13937, 41.10815], [-85.13833, 41.10815], [-85.13765, 41.10808], [-85.13528, 41.11046], [-85.13198, 41.11419], [-85.13018, 41.11429], [-85.13009, 41.11014], [-85.13062, 41.10971], [-85.13156, 41.10897], [-85.13206, 41.1085], [-85.13249, 41.10786], [-85.13466, 41.1079], [-85.13571, 41.10791], [-85.13753, 41.10768], [-85.13767, 41.10709], [-85.13795, 41.10534], [-85.13611, 41.10542], [-85.13368, 41.1054], [-85.133771, 41.105258], [-85.13451, 41.1041], [-85.13564, 41.10276], [-85.13756, 41.09989], [-85.1378, 41.09945], [-85.13796, 41.09897], [-85.13777, 41.09789], [-85.13759, 41.09707], [-85.13645, 41.09522], [-85.13928, 41.09513], [-85.13965, 41.09447], [-85.14051, 41.09519], [-85.13908, 41.09852], [-85.13865, 41.09898], [-85.13846, 41.09931], [-85.13828, 41.10111], [-85.13909, 41.10157], [-85.13906, 41.10236], [-85.13923, 41.10286], [-85.14007, 41.10269], [-85.14016, 41.10217], [-85.1404, 41.10109], [-85.14072, 41.10021], [-85.14142, 41.09965], [-85.14223, 41.09908], [-85.14267, 41.09871], [-85.14289, 41.09819], [-85.14288, 41.09754], [-85.14262, 41.09677], [-85.14215, 41.09625], [-85.14199, 41.09591], [-85.14149, 41.09568], [-85.14074, 41.09482], [-85.1406, 41.09431], [-85.14138, 41.09422], [-85.141923, 41.094238], [-85.1423, 41.09425], [-85.14288, 41.09526], [-85.14382, 41.09633], [-85.14529, 41.09628], [-85.14503, 41.09431], [-85.14603, 41.09429], [-85.14629, 41.09474], [-85.1464, 41.0952], [-85.14669, 41.09537], [-85.14768, 41.09535], [-85.14784, 41.09651], [-85.14982, 41.0965], [-85.1499, 41.0956], [-85.153753, 41.09551], [-85.15846, 41.0954], [-85.15863, 41.09611], [-85.16336, 41.09605], [-85.16336, 41.09737], [-85.16339, 41.09765], [-85.16186, 41.09771], [-85.162, 41.10254], [-85.1594, 41.10132], [-85.15931, 41.0977], [-85.15809, 41.09774], [-85.15812, 41.10069], [-85.15867, 41.10097], [-85.15873, 41.10341], [-85.15415, 41.1034], [-85.15413, 41.10195], [-85.15393, 41.101955], [-85.14956, 41.10206], [-85.14896, 41.10197], [-85.14725, 41.1018], [-85.14723, 41.10147]]]]}}, {"type": "Feature", "properties": {"area_id": 4163, "city": "Fort Wayne", "state": "IN", "city_survey": true, "cat": "Definitely Declining", "grade": "C", "label": "C4", "res": true, "com": false, "ind": false, "holc_grade": "C"}, "geometry": {"type": "Polygon", "coordinates": [[[-85.111482, 41.097], [-85.11206, 41.09704], [-85.11219, 41.09729], [-85.11217, 41.0977], [-85.11192, 41.09793], [-85.11045, 41.09802], [-85.10973, 41.09809], [-85.10931, 41.09829], [-85.10943, 41.09889], [-85.10957, 41.09924], [-85.1096, 41.09997], [-85.10932, 41.09999], [-85.10921, 41.10021], [-85.10923, 41.10084], [-85.11071, 41.10081], [-85.11083, 41.10151], [-85.11085, 41.10165], [-85.11096, 41.10416], [-85.11583, 41.10405], [-85.115836, 41.104602], [-85.11584, 41.10496], [-85.11591, 41.10517], [-85.11452, 41.1065], [-85.114178, 41.106332], [-85.11262, 41.10557], [-85.11209, 41.10586], [-85.10632, 41.10596], [-85.10632, 41.10459], [-85.10362, 41.10466], [-85.103609, 41.104476], [-85.10319, 41.09724], [-85.103398, 41.097234], [-85.109994, 41.097029], [-85.11124, 41.09699], [-85.11134, 41.09699], [-85.111482, 41.097]]]}}, {"type": "Feature", "properties": {"area_id": 4161, "city": "Fort Wayne", "state": "IN", "city_survey": true, "cat": "Definitely Declining", "grade": "C", "label": "C5", "res": true, "com": false, "ind": false, "holc_grade": "C"}, "geometry": {"type": "MultiPolygon", "coordinates": [[[[-85.12553, 41.10229], [-85.118254, 41.102377], [-85.11714, 41.10239], [-85.11712, 41.10151], [-85.11718, 41.10139], [-85.11724, 41.10128], [-85.11917, 41.10123], [-85.11955, 41.10086], [-85.11961, 41.10055], [-85.11954, 41.0997], [-85.12004, 41.0997], [-85.12072, 41.09969], [-85.12142, 41.09895], [-85.12295, 41.09755], [-85.123242, 41.097541], [-85.12524, 41.09748], [-85.12533, 41.10021], [-85.12554, 41.1004], [-85.12553, 41.10229]]], [[[-85.12364, 41.08862], [-85.12269, 41.08789], [-85.12296, 41.08773], [-85.12303, 41.08754], [-85.12286, 41.08719], [-85.12262, 41.08687], [-85.12253, 41.08646], [-85.12256, 41.08565], [-85.12277, 41.08531], [-85.12924, 41.08204], [-85.13092, 41.0819], [-85.13115, 41.08287], [-85.13036, 41.08349], [-85.13007, 41.08387], [-85.12959, 41.08465], [-85.1294, 41.08512], [-85.12919, 41.08527], [-85.12806, 41.08723], [-85.1282, 41.08803], [-85.128563, 41.089297], [-85.12885, 41.0903], [-85.12959, 41.09214], [-85.1297, 41.09271], [-85.12959, 41.09351], [-85.13061, 41.09352], [-85.13109, 41.09415], [-85.13186, 41.09413], [-85.13195, 41.09433], [-85.13226, 41.09429], [-85.13229, 41.0946], [-85.13345, 41.09456], [-85.13349, 41.09542], [-85.13366, 41.09568], [-85.13463, 41.09588], [-85.13481, 41.09604], [-85.13503, 41.09638], [-85.13373, 41.09642], [-85.133731, 41.09645], [-85.13383, 41.0997], [-85.13571, 41.09969], [-85.13598, 41.09987], [-85.13508, 41.10091], [-85.13144, 41.10098], [-85.13141, 41.10027], [-85.131239, 41.096499], [-85.13121, 41.09585], [-85.1305, 41.09587], [-85.13046, 41.0942], [-85.12802, 41.09418], [-85.12791, 41.0924], [-85.12488, 41.09319], [-85.12451, 41.09312], [-85.12435, 41.09309], [-85.12425, 41.09243], [-85.124221, 41.08939], [-85.12422, 41.08931], [-85.12367, 41.08934], [-85.12364, 41.08862]]]]}}, {"type": "Feature", "properties": {"area_id": 4168, "city": "Fort Wayne", "state": "IN", "city_survey": true, "cat": "Definitely Declining", "grade": "C", "label": "C6", "res": true, "com": false, "ind": false, "holc_grade": "C"}, "geometry": {"type": "Polygon", "coordinates": [[[-85.11195, 41.08672], [-85.11176, 41.08299], [-85.11234, 41.08276], [-85.11302, 41.08269], [-85.11454, 41.08271], [-85.11487, 41.08349], [-85.11544, 41.08387], [-85.11544, 41.08418], [-85.11576, 41.08485], [-85.1163, 41.08567], [-85.11632, 41.08625], [-85.11649, 41.08666], [-85.12072, 41.08654], [-85.11902, 41.08874], [-85.11701, 41.08935], [-85.117023, 41.089565], [-85.11709, 41.09065], [-85.11607, 41.09068], [-85.116, 41.089589], [-85.11581, 41.08663], [-85.11195, 41.08672]]]}}, {"type": "Feature", "properties": {"area_id": 4169, "city": "Fort Wayne", "state": "IN", "city_survey": true, "cat": "Definitely Declining", "grade": "C", "label": "C7", "res": true, "com": false, "ind": false, "holc_grade": "C"}, "geometry": {"type": "Polygon", "coordinates": [[[-85.13361, 41.09298], [-85.13279, 41.09273], [-85.13242, 41.09274], [-85.13239, 41.09247], [-85.13158, 41.09246], [-85.13109, 41.09133], [-85.13083, 41.09095], [-85.13069, 41.09033], [-85.13062, 41.0897], [-85.12979, 41.08962], [-85.12975, 41.08902], [-85.1296, 41.08897], [-85.12921, 41.08897], [-85.129, 41.08808], [-85.12909, 41.08722], [-85.12977, 41.08631], [-85.13536, 41.08624], [-85.13555, 41.08598], [-85.135, 41.08581], [-85.13516, 41.0853], [-85.13529, 41.08456], [-85.13566, 41.08449], [-85.13594, 41.08454], [-85.13589, 41.08489], [-85.13723, 41.08508], [-85.13648, 41.0871], [-85.13582, 41.08737], [-85.13536, 41.0879], [-85.1353, 41.08807], [-85.13532, 41.08906], [-85.13479, 41.08906], [-85.13448, 41.08942], [-85.13455, 41.09082], [-85.13602, 41.09085], [-85.13623, 41.09129], [-85.13668, 41.09158], [-85.13687, 41.09158], [-85.13797, 41.09246], [-85.13847, 41.093], [-85.13361, 41.09298]]]}}, {"type": "Feature", "properties": {"area_id": 4153, "city": "Fort Wayne", "state": "IN", "city_survey": true, "cat": "Definitely Declining", "grade": "C", "label": "C8", "res": true, "com": false, "ind": false, "holc_grade": "C"}, "geometry": {"type": "MultiPolygon", "coordinates": [[[[-85.148934, 41.078896], [-85.14894, 41.07902], [-85.150194, 41.07875], [-85.15038, 41.07871], [-85.15037, 41.0786], [-85.15211, 41.07836], [-85.15271, 41.07833], [-85.15421, 41.0786], [-85.15175, 41.08089], [-85.15104, 41.08047], [-85.150971, 41.080512], [-85.14943, 41.08146], [-85.14853, 41.08195], [-85.148, 41.08174], [-85.14738, 41.08163], [-85.14612, 41.08176], [-85.14536, 41.08191], [-85.14488, 41.08234], [-85.14451, 41.0825], [-85.14393, 41.08264], [-85.14249, 41.08346], [-85.14221, 41.08217], [-85.140479, 41.082471], [-85.14031, 41.0825], [-85.14054, 41.0836], [-85.13766, 41.08402], [-85.13759, 41.08471], [-85.13702, 41.08406], [-85.13665, 41.08372], [-85.13634, 41.08366], [-85.13605, 41.08333], [-85.13595, 41.08297], [-85.13324, 41.08337], [-85.13308, 41.0826], [-85.13554, 41.08222], [-85.1353, 41.08133], [-85.13613, 41.08123], [-85.140001, 41.080749], [-85.14184, 41.08052], [-85.14236, 41.08045], [-85.14225, 41.07988], [-85.14886, 41.078831], [-85.14893, 41.07882], [-85.148934, 41.078896]]], [[[-85.16361, 41.07981], [-85.16204, 41.07974], [-85.16204, 41.07885], [-85.16065, 41.07888], [-85.16066, 41.08071], [-85.15883, 41.08025], [-85.15876, 41.08023], [-85.15714, 41.07986], [-85.15542, 41.07941], [-85.15562, 41.07925], [-85.15592, 41.0788], [-85.15497, 41.07839], [-85.15543, 41.0778], [-85.15725, 41.07644], [-85.15799, 41.07639], [-85.158, 41.07594], [-85.1582, 41.07578], [-85.15892, 41.07568], [-85.15891, 41.07489], [-85.15894, 41.07462], [-85.15988, 41.07452], [-85.16014, 41.07468], [-85.16041, 41.07517], [-85.16042, 41.07569], [-85.1603, 41.07611], [-85.15986, 41.07682], [-85.15986, 41.0778], [-85.16038, 41.07811], [-85.16114, 41.07813], [-85.16169, 41.07793], [-85.16238, 41.0773], [-85.16289, 41.07654], [-85.16329, 41.0752], [-85.1635, 41.07497], [-85.1639, 41.07491], [-85.16388, 41.07561], [-85.1644, 41.07567], [-85.16527, 41.07563], [-85.16553, 41.07601], [-85.16591, 41.07637], [-85.16619, 41.07637], [-85.16671, 41.0766], [-85.16673, 41.07693], [-85.1654, 41.07855], [-85.16783, 41.07844], [-85.16823, 41.07864], [-85.16821, 41.07972], [-85.16841, 41.08261], [-85.16834, 41.08287], [-85.16779, 41.0827], [-85.167785, 41.082995], [-85.16778, 41.0833], [-85.16801, 41.0834], [-85.16784, 41.0837], [-85.16862, 41.08429], [-85.16344, 41.08432], [-85.15627, 41.08444], [-85.155799, 41.084457], [-85.15322, 41.08455], [-85.153307, 41.08889], [-85.15331, 41.08906], [-85.14581, 41.08918], [-85.1459, 41.09167], [-85.14491, 41.09181], [-85.14214, 41.09179], [-85.14202, 41.08773], [-85.142, 41.08704], [-85.14212, 41.08657], [-85.14341, 41.08444], [-85.14388, 41.08395], [-85.14453, 41.08365], [-85.14474, 41.08414], [-85.144949, 41.08767], [-85.14499, 41.08837], [-85.145643, 41.08837], [-85.14635, 41.08837], [-85.14631, 41.08537], [-85.14614, 41.08464], [-85.14589, 41.08356], [-85.14739, 41.08363], [-85.14847, 41.08365], [-85.14866, 41.08521], [-85.15068, 41.08522], [-85.15061, 41.08378], [-85.15305, 41.08378], [-85.15302, 41.08127], [-85.15345, 41.08096], [-85.15464, 41.08097], [-85.15471, 41.08009], [-85.15483, 41.0798], [-85.15547, 41.08021], [-85.155699, 41.080264], [-85.15807, 41.08082], [-85.15811, 41.08211], [-85.16229, 41.08208], [-85.16232, 41.08179], [-85.16345, 41.08205], [-85.16321, 41.08195], [-85.16472, 41.08232], [-85.16472, 41.082216], [-85.16473, 41.07981], [-85.16465, 41.07928], [-85.16447, 41.07893], [-85.16361, 41.07981]]]]}}, {"type": "Feature", "properties": {"area_id": 4154, "city": "Fort Wayne", "state": "IN", "city_survey": true, "cat": "Definitely Declining", "grade": "C", "label": "C9", "res": true, "com": false, "ind": false, "holc_grade": "C"}, "geometry": {"type": "Polygon", "coordinates": [[[-85.16862, 41.08429], [-85.1691, 41.08461], [-85.1704, 41.08854], [-85.16765, 41.08861], [-85.15969, 41.08869], [-85.15839, 41.08871], [-85.158387, 41.088789], [-85.15838, 41.08896], [-85.153506, 41.089056], [-85.15331, 41.08906], [-85.153307, 41.08889], [-85.15322, 41.08455], [-85.155799, 41.084457], [-85.15627, 41.08444], [-85.16344, 41.08432], [-85.16862, 41.08429]]]}}, {"type": "Feature", "properties": {"area_id": 4131, "city": "Fort Wayne", "state": "IN", "city_survey": true, "cat": "Hazardous", "grade": "D", "label": null, "res": true, "com": false, "ind": false, "holc_grade": "D"}, "geometry": {"type": "Polygon", "coordinates": [[[-85.12622, 41.08086], [-85.12612, 41.07947], [-85.12759, 41.07945], [-85.12765, 41.08082], [-85.12622, 41.08086]]]}}, {"type": "Feature", "properties": {"area_id": 4128, "city": "Fort Wayne", "state": "IN", "city_survey": true, "cat": "Hazardous", "grade": "D", "label": "D1", "res": true, "com": false, "ind": false, "holc_grade": "D"}, "geometry": {"type": "Polygon", "coordinates": [[[-85.18982, 41.05994], [-85.19207, 41.05971], [-85.19226, 41.05982], [-85.19468, 41.05977], [-85.19471, 41.06138], [-85.19201, 41.06316], [-85.1914, 41.06374], [-85.19089, 41.0642], [-85.189816, 41.064967], [-85.18907, 41.0655], [-85.18683, 41.06685], [-85.18611, 41.0674], [-85.18635, 41.06767], [-85.18553, 41.06831], [-85.18058, 41.07115], [-85.17683, 41.07129], [-85.17631, 41.0714], [-85.17624, 41.0716], [-85.17427, 41.07157], [-85.17423, 41.07228], [-85.17275, 41.07229], [-85.17276, 41.07158], [-85.17095, 41.07162], [-85.17084, 41.06885], [-85.1709, 41.06766], [-85.17143, 41.06767], [-85.17143, 41.06763], [-85.17382, 41.06759], [-85.17519, 41.06694], [-85.17562, 41.06642], [-85.17565, 41.06589], [-85.18079, 41.06586], [-85.18075, 41.06423], [-85.17728, 41.06415], [-85.17462, 41.0643], [-85.17454, 41.06212], [-85.17451, 41.0601], [-85.17722, 41.06006], [-85.1792, 41.06005], [-85.18557, 41.05998], [-85.18565, 41.0637], [-85.189815, 41.063511], [-85.18983, 41.06351], [-85.18982, 41.05994]], [[-85.17494, 41.0687], [-85.17498, 41.06932], [-85.17669, 41.06932], [-85.17669, 41.06869], [-85.17494, 41.0687]]]}}, {"type": "Feature", "properties": {"area_id": 4124, "city": "Fort Wayne", "state": "IN", "city_survey": true, "cat": "Hazardous", "grade": "D", "label": "D2", "res": true, "com": false, "ind": false, "holc_grade": "D"}, "geometry": {"type": "Polygon", "coordinates": [[[-85.17104, 41.05284], [-85.17107, 41.05468], [-85.16523, 41.05481], [-85.16514, 41.05304], [-85.1659, 41.05298], [-85.16991, 41.05282], [-85.17104, 41.05284]]]}}, {"type": "Feature", "properties": {"area_id": 4132, "city": "Fort Wayne", "state": "IN", "city_survey": true, "cat": "Hazardous", "grade": "D", "label": "D3", "res": true, "com": false, "ind": false, "holc_grade": "D"}, "geometry": {"type": "MultiPolygon", "coordinates": [[[[-85.119, 41.06845], [-85.11891, 41.06705], [-85.11663, 41.06703], [-85.11656, 41.06583], [-85.11658, 41.0656], [-85.12365, 41.06552], [-85.12363, 41.06468], [-85.128402, 41.064491], [-85.12843, 41.06449], [-85.1286, 41.06675], [-85.13323, 41.06679], [-85.13324, 41.06679], [-85.13325, 41.06679], [-85.13331, 41.06746], [-85.1334, 41.06875], [-85.13763, 41.06871], [-85.13772, 41.07002], [-85.13353, 41.07003], [-85.1332, 41.06944], [-85.12863, 41.069593], [-85.12245, 41.0698], [-85.119, 41.06845]]], [[[-85.14513, 41.06773], [-85.1498, 41.06777], [-85.1462, 41.0698], [-85.14319, 41.06983], [-85.14319, 41.07039], [-85.13891, 41.07039], [-85.13883, 41.06835], [-85.14311, 41.06846], [-85.14519, 41.06848], [-85.14513, 41.06773]]]]}}, {"type": "Feature", "properties": {"area_id": 4130, "city": "Fort Wayne", "state": "IN", "city_survey": true, "cat": "Hazardous", "grade": "D", "label": "D4", "res": true, "com": false, "ind": false, "holc_grade": "D"}, "geometry": {"type": "Polygon", "coordinates": [[[-85.1175, 41.07147], [-85.12258, 41.07146], [-85.12256, 41.07192], [-85.124782, 41.071938], [-85.12755, 41.07196], [-85.1275, 41.07243], [-85.13143, 41.07224], [-85.13145, 41.07326], [-85.13508, 41.07323], [-85.13503, 41.07414], [-85.1351, 41.07484], [-85.125815, 41.07474], [-85.11749, 41.07465], [-85.1175, 41.07147]]]}}, {"type": "Feature", "properties": {"area_id": 4150, "city": "Fort Wayne", "state": "IN", "city_survey": true, "cat": "Hazardous", "grade": "D", "label": "D5", "res": true, "com": false, "ind": false, "holc_grade": "D"}, "geometry": {"type": "MultiPolygon", "coordinates": [[[[-85.10473, 41.07571], [-85.10513, 41.07901], [-85.10656, 41.0793], [-85.10623, 41.07981], [-85.10589, 41.0801], [-85.10584, 41.08051], [-85.10556, 41.08059], [-85.1055, 41.08113], [-85.10513, 41.0815], [-85.10178, 41.08068], [-85.10254, 41.07858], [-85.10333, 41.0785], [-85.10328, 41.07691], [-85.0993, 41.07703], [-85.09934, 41.07794], [-85.09884, 41.07775], [-85.09805, 41.07764], [-85.0974, 41.0776], [-85.0969, 41.07746], [-85.09679, 41.07616], [-85.09679, 41.07593], [-85.10473, 41.07571]]], [[[-85.10768, 41.08165], [-85.10816, 41.08084], [-85.10873, 41.08097], [-85.10907, 41.08108], [-85.10937, 41.08064], [-85.11104, 41.08111], [-85.10974, 41.08267], [-85.10892, 41.08287], [-85.10819, 41.08291], [-85.10763, 41.08277], [-85.10805, 41.08225], [-85.10641, 41.0822], [-85.10621, 41.08206], [-85.10622, 41.08189], [-85.10546, 41.08179], [-85.10564, 41.08158], [-85.10768, 41.08165]]]]}}, {"type": "Feature", "properties": {"area_id": 4135, "city": "Fort Wayne", "state": "IN", "city_survey": true, "cat": "Hazardous", "grade": "D", "label": "D6", "res": true, "com": false, "ind": false, "holc_grade": "D"}, "geometry": {"type": "Polygon", "coordinates": [[[-85.13055, 41.05332], [-85.13311, 41.05327], [-85.1332, 41.05679], [-85.13063, 41.05683], [-85.1306, 41.0558], [-85.13055, 41.05332]]]}}, {"type": "Feature", "properties": {"area_id": 11245, "city": "Fort Wayne", "state": "IN", "city_survey": true, "cat": "Commercial", "grade": null, "label": "Commercial", "res": false, "com": true, "ind": false, "holc_grade": null}, "geometry": {"type": "MultiPolygon", "coordinates": [[[[-85.12514, 41.09589], [-85.1305, 41.09587], [-85.13121, 41.09585], [-85.131241, 41.096499], [-85.13125, 41.09669], [-85.12518, 41.09676], [-85.12524, 41.09748], [-85.123242, 41.097541], [-85.12295, 41.09755], [-85.12043, 41.09761], [-85.120392, 41.096782], [-85.12036, 41.0961], [-85.1233, 41.09604], [-85.12376, 41.096], [-85.12514, 41.09589]]], [[[-85.14183, 41.07309], [-85.14178, 41.07433], [-85.14027, 41.07432], [-85.14026, 41.07513], [-85.14097, 41.07511], [-85.14096, 41.07588], [-85.14111, 41.07643], [-85.14241, 41.07623], [-85.14283, 41.07618], [-85.14319, 41.07739], [-85.14359, 41.07873], [-85.14199, 41.07896], [-85.14225, 41.07988], [-85.14236, 41.08045], [-85.14184, 41.08052], [-85.140001, 41.080749], [-85.13613, 41.08123], [-85.13533, 41.07844], [-85.13486, 41.0768], [-85.13551, 41.0766], [-85.1351, 41.07484], [-85.13503, 41.07414], [-85.13711, 41.07407], [-85.13712, 41.07501], [-85.13821, 41.075], [-85.13822, 41.07404], [-85.138407, 41.074034], [-85.13971, 41.07399], [-85.13971, 41.07313], [-85.14183, 41.07309]]], [[[-85.14614, 41.08464], [-85.14631, 41.08537], [-85.14635, 41.08837], [-85.145643, 41.08837], [-85.14499, 41.08837], [-85.144949, 41.08767], [-85.14474, 41.08414], [-85.14453, 41.08365], [-85.14589, 41.08356], [-85.14614, 41.08464]]]]}}, {"type": "Feature", "properties": {"area_id": 11246, "city": "Fort Wayne", "state": "IN", "city_survey": true, "cat": "Industrial", "grade": null, "label": "Industrial", "res": false, "com": false, "ind": true, "holc_grade": null}, "geometry": {"type": "MultiPolygon", "coordinates": [[[[-85.14319, 41.06983], [-85.1462, 41.0698], [-85.1498, 41.06777], [-85.15125, 41.06778], [-85.15028, 41.0687], [-85.151092, 41.069133], [-85.15133, 41.06926], [-85.15086, 41.06966], [-85.15347, 41.06968], [-85.15352, 41.07061], [-85.15745, 41.07056], [-85.1594, 41.07053], [-85.15918, 41.06928], [-85.15915, 41.06763], [-85.16134, 41.06764], [-85.161492, 41.06764], [-85.16994, 41.06764], [-85.1709, 41.06766], [-85.17084, 41.06885], [-85.17095, 41.07162], [-85.17276, 41.07158], [-85.17275, 41.07229], [-85.17423, 41.07228], [-85.17427, 41.07157], [-85.17624, 41.0716], [-85.17628, 41.07326], [-85.17716, 41.07317], [-85.17713, 41.07385], [-85.17673, 41.07407], [-85.17653, 41.07418], [-85.17509, 41.07445], [-85.17276, 41.07394], [-85.16835, 41.07259], [-85.16604, 41.07177], [-85.16434, 41.07161], [-85.16299, 41.07157], [-85.162701, 41.071344], [-85.1623, 41.07103], [-85.162185, 41.071039], [-85.15753, 41.07139], [-85.149055, 41.071335], [-85.14528, 41.07131], [-85.145267, 41.071439], [-85.14524, 41.0717], [-85.14156, 41.07171], [-85.14154, 41.07206], [-85.138325, 41.072054], [-85.13649, 41.07205], [-85.13651, 41.07322], [-85.13508, 41.07323], [-85.13145, 41.07326], [-85.13143, 41.07224], [-85.1275, 41.07243], [-85.12755, 41.07196], [-85.124782, 41.071938], [-85.12256, 41.07192], [-85.12258, 41.07146], [-85.1175, 41.07147], [-85.11402, 41.07151], [-85.114019, 41.071417], [-85.11401, 41.07078], [-85.11198, 41.06984], [-85.11202, 41.07132], [-85.10802, 41.07134], [-85.10803, 41.07032], [-85.10973, 41.07028], [-85.10966, 41.06853], [-85.10766, 41.06853], [-85.10759, 41.06786], [-85.10696, 41.06759], [-85.10002, 41.06169], [-85.09959, 41.06149], [-85.0991, 41.06138], [-85.0908, 41.06147], [-85.08957, 41.06149], [-85.08712, 41.06149], [-85.08723, 41.06883], [-85.07818, 41.06893], [-85.07782, 41.06126], [-85.07782, 41.0584], [-85.0784, 41.05775], [-85.07974, 41.05722], [-85.08469, 41.05718], [-85.08779, 41.05775], [-85.091661, 41.058444], [-85.09175, 41.05846], [-85.09421, 41.05934], [-85.09576, 41.05925], [-85.09771, 41.05892], [-85.09872, 41.06059], [-85.099966, 41.061112], [-85.10094, 41.06152], [-85.10241, 41.06147], [-85.10243, 41.06193], [-85.10345, 41.06193], [-85.10346, 41.0622], [-85.10391, 41.06222], [-85.104, 41.06262], [-85.10488, 41.0626], [-85.10492, 41.06298], [-85.10543, 41.063], [-85.10593, 41.06325], [-85.10664, 41.06328], [-85.10657, 41.06131], [-85.10895, 41.06122], [-85.1113, 41.06121], [-85.1114, 41.06537], [-85.11315, 41.06593], [-85.11403, 41.06579], [-85.11656, 41.06583], [-85.11663, 41.06703], [-85.11891, 41.06705], [-85.119, 41.06845], [-85.12245, 41.0698], [-85.12863, 41.069593], [-85.1332, 41.06944], [-85.13353, 41.07003], [-85.13772, 41.07002], [-85.13763, 41.06871], [-85.13751, 41.06596], [-85.13741, 41.06432], [-85.13716, 41.06046], [-85.13712, 41.05868], [-85.137734, 41.058664], [-85.13788, 41.05866], [-85.1384, 41.05866], [-85.138477, 41.060607], [-85.13856, 41.06272], [-85.13868, 41.06592], [-85.13883, 41.06835], [-85.13891, 41.07039], [-85.14319, 41.07039], [-85.14319, 41.06983]]], [[[-85.08877, 41.07488], [-85.0916, 41.07477], [-85.09302, 41.07617], [-85.09605, 41.07617], [-85.09679, 41.07616], [-85.0969, 41.07746], [-85.0974, 41.0776], [-85.09805, 41.07764], [-85.09884, 41.07775], [-85.09934, 41.07794], [-85.0993, 41.07703], [-85.10328, 41.07691], [-85.10333, 41.0785], [-85.10254, 41.07858], [-85.10178, 41.08068], [-85.10032, 41.07972], [-85.09848, 41.07906], [-85.09418, 41.07847], [-85.09148, 41.0783], [-85.08976, 41.07834], [-85.087656, 41.077762], [-85.08743, 41.0777], [-85.084225, 41.077203], [-85.08253, 41.07694], [-85.0835, 41.076674], [-85.0841, 41.07651], [-85.08472, 41.07588], [-85.08459, 41.07381], [-85.08559, 41.07395], [-85.087604, 41.074539], [-85.08877, 41.07488]]], [[[-85.10656, 41.0793], [-85.10978, 41.07932], [-85.10982, 41.08016], [-85.1148, 41.08007], [-85.11487, 41.08118], [-85.11238, 41.08143], [-85.10974, 41.08267], [-85.11104, 41.08111], [-85.10937, 41.08064], [-85.10907, 41.08108], [-85.10873, 41.08097], [-85.10816, 41.08084], [-85.10623, 41.07981], [-85.10656, 41.0793]]], [[[-85.12322, 41.08263], [-85.12325, 41.08316], [-85.12188, 41.08319], [-85.12188, 41.08412], [-85.1219, 41.08471], [-85.12047, 41.08552], [-85.11886, 41.08576], [-85.11714, 41.08548], [-85.116374, 41.084739], [-85.11624, 41.08461], [-85.116282, 41.084485], [-85.11651, 41.08381], [-85.11651, 41.08235], [-85.11692, 41.0815], [-85.11895, 41.08216], [-85.12176, 41.0826], [-85.12322, 41.08263]]], [[[-85.13965, 41.09447], [-85.13928, 41.09513], [-85.13645, 41.09522], [-85.13552, 41.09407], [-85.13436, 41.09298], [-85.13847, 41.093], [-85.13968, 41.09294], [-85.14051, 41.09519], [-85.13965, 41.09447]]], [[[-85.14211, 41.09093], [-85.14127, 41.09136], [-85.14063, 41.09231], [-85.140689, 41.092864], [-85.14075, 41.09343], [-85.141609, 41.093889], [-85.14161, 41.09389], [-85.14138, 41.09422], [-85.1406, 41.09431], [-85.14029, 41.09366], [-85.14003, 41.09257], [-85.13993, 41.09126], [-85.14044, 41.08963], [-85.14041, 41.08795], [-85.141714, 41.087363], [-85.14201, 41.08723], [-85.142024, 41.08773], [-85.14211, 41.09093]]], [[[-85.1423, 41.09425], [-85.14503, 41.09431], [-85.14529, 41.09628], [-85.14382, 41.09633], [-85.14288, 41.09526], [-85.1423, 41.09425]]], [[[-85.15061, 41.08378], [-85.15068, 41.08522], [-85.14866, 41.08521], [-85.14847, 41.08365], [-85.15061, 41.08378]]], [[[-85.15483, 41.0798], [-85.154875, 41.07977], [-85.15542, 41.07941], [-85.15714, 41.07986], [-85.15876, 41.08023], [-85.15883, 41.08025], [-85.16066, 41.08071], [-85.16065, 41.07888], [-85.16204, 41.07885], [-85.16204, 41.07974], [-85.16361, 41.07981], [-85.16447, 41.07893], [-85.16465, 41.07928], [-85.16473, 41.07981], [-85.16472, 41.082216], [-85.16472, 41.08232], [-85.16321, 41.08195], [-85.16345, 41.08205], [-85.16232, 41.08179], [-85.16229, 41.08208], [-85.15811, 41.08211], [-85.15807, 41.08082], [-85.155699, 41.080264], [-85.15547, 41.08021], [-85.15483, 41.0798]]], [[[-85.16995, 41.07979], [-85.16998, 41.08088], [-85.17185, 41.08092], [-85.172028, 41.084034], [-85.17228, 41.08844], [-85.1704, 41.08854], [-85.1691, 41.08461], [-85.16862, 41.08429], [-85.16784, 41.0837], [-85.16801, 41.0834], [-85.16778, 41.0833], [-85.167785, 41.082995], [-85.16779, 41.0827], [-85.16834, 41.08287], [-85.16841, 41.08261], [-85.16825, 41.08023], [-85.16821, 41.07972], [-85.16995, 41.07979]]], [[[-85.17462, 41.0643], [-85.17728, 41.06415], [-85.17771, 41.06416], [-85.17565, 41.06589], [-85.17562, 41.06642], [-85.17519, 41.06694], [-85.17382, 41.06759], [-85.17143, 41.06763], [-85.17126, 41.06439], [-85.17125, 41.06213], [-85.17118, 41.06009], [-85.17451, 41.0601], [-85.17454, 41.06212], [-85.17462, 41.0643]]]]}}]}