{"type": "FeatureCollection", "features": [{"type": "Feature", "properties": {"area_id": 10214, "city": "Newport City", "state": "VT", "city_survey": false, "cat": "Trading", "grade": "", "label": "Trading", "res": false, "com": true, "ind": false, "fill": "#000000", "GEOID10": "50019951500", "GISJOIN": "G5000190951500", "calc_area": 60122.89807, "pct_tract": 0.00549}, "geometry": {"type": "MultiPolygon", "coordinates": [[[[-72.204559, 44.936257], [-72.204547, 44.936113], [-72.204575, 44.936046], [-72.20464, 44.935944], [-72.204839, 44.935755], [-72.20503, 44.9358], [-72.20655, 44.93612], [-72.20693, 44.93607], [-72.20742, 44.93604], [-72.20697, 44.93519], [-72.2066, 44.93447], [-72.20646, 44.93398], [-72.20686, 44.93392], [-72.20713, 44.93392], [-72.20722, 44.9341], [-72.20808, 44.93533], [-72.20809, 44.93546], [-72.20829, 44.93576], [-72.2086, 44.93563], [-72.20809, 44.93493], [-72.2086, 44.93475], [-72.20896, 44.93534], [-72.20916, 44.93526], [-72.20931, 44.93542], [-72.21011, 44.93516], [-72.21156, 44.93474], [-72.21237, 44.93447], [-72.21253, 44.93479], [-72.21192, 44.93503], [-72.21199, 44.9352], [-72.21006, 44.93585], [-72.20749, 44.93666], [-72.20692, 44.93669], [-72.20657, 44.936707], [-72.20678, 44.936438], [-72.20668, 44.936439], [-72.206401, 44.936432], [-72.206143, 44.936417], [-72.205584, 44.936391], [-72.204857, 44.9364], [-72.204649, 44.936408], [-72.204559, 44.936257]]]]}}, {"type": "Feature", "properties": {"area_id": 10214, "city": "Newport City", "state": "VT", "city_survey": false, "cat": "Trading", "grade": "", "label": "Trading", "res": false, "com": true, "ind": false, "fill": "#000000", "GEOID10": "50019951400", "GISJOIN": "G5000190951400", "calc_area": 40158.85801, "pct_tract": 0.00456}, "geometry": {"type": "MultiPolygon", "coordinates": [[[[-72.20446, 44.93609], [-72.20422, 44.93561], [-72.204839, 44.935755], [-72.20464, 44.935944], [-72.204575, 44.936046], [-72.204547, 44.936113], [-72.204559, 44.936257], [-72.20446, 44.93609]]], [[[-72.20591, 44.93674], [-72.20529, 44.93668], [-72.20474, 44.93656], [-72.204649, 44.936408], [-72.204857, 44.9364], [-72.205584, 44.936391], [-72.206143, 44.936417], [-72.206401, 44.936432], [-72.20668, 44.936439], [-72.20678, 44.936438], [-72.20657, 44.936707], [-72.20591, 44.93674]]], [[[-72.20084, 44.94244], [-72.20101, 44.94305], [-72.19967, 44.94328], [-72.19852, 44.94329], [-72.19383, 44.94345], [-72.19381, 44.94319], [-72.19457, 44.9429], [-72.19852, 44.94274], [-72.19976, 44.94265], [-72.20084, 44.94244]]]]}}, {"type": "Feature", "properties": {"area_id": 10215, "city": "Newport City", "state": "VT", "city_survey": false, "cat": "Industrial", "grade": "", "label": "Industrial", "res": false, "com": false, "ind": true, "fill": "#80303C", "GEOID10": "50019951500", "GISJOIN": "G5000190951500", "calc_area": 96548.20065, "pct_tract": 0.00881}, "geometry": {"type": "MultiPolygon", "coordinates": [[[[-72.21471, 44.93376], [-72.21488, 44.9336], [-72.21571, 44.93336], [-72.21636, 44.9332], [-72.21672, 44.93275], [-72.21711, 44.93307], [-72.21743, 44.93451], [-72.21758, 44.93554], [-72.21743, 44.93577], [-72.21723, 44.93562], [-72.21721, 44.93451], [-72.21696, 44.93365], [-72.21669, 44.93336], [-72.21645, 44.93327], [-72.21579, 44.93359], [-72.21536, 44.93368], [-72.21499, 44.93399], [-72.21471, 44.93376]]], [[[-72.2114, 44.93024], [-72.21256, 44.93001], [-72.21328, 44.92974], [-72.2131, 44.93074], [-72.21257, 44.93065], [-72.21158, 44.931], [-72.21046, 44.93223], [-72.20905, 44.93316], [-72.20878, 44.93322], [-72.20718, 44.9337], [-72.20713, 44.93392], [-72.20686, 44.93392], [-72.20646, 44.93398], [-72.2066, 44.93447], [-72.20697, 44.93519], [-72.20742, 44.93604], [-72.20693, 44.93607], [-72.20655, 44.93612], [-72.20503, 44.9358], [-72.204839, 44.935755], [-72.204839, 44.935755], [-72.204963, 44.93561], [-72.205253, 44.935176], [-72.205376, 44.935017], [-72.205408, 44.934964], [-72.205635, 44.934456], [-72.205686, 44.934354], [-72.205888, 44.934053], [-72.205966, 44.933923], [-72.206047, 44.933787], [-72.206093, 44.933684], [-72.206106, 44.933612], [-72.206126, 44.933384], [-72.206124, 44.93328], [-72.206151, 44.933168], [-72.206216, 44.93307], [-72.206321, 44.933015], [-72.206408, 44.93299], [-72.206489, 44.932978], [-72.206667, 44.93296], [-72.206808, 44.932941], [-72.207341, 44.932801], [-72.20774, 44.932685], [-72.208149, 44.932578], [-72.208284, 44.93255], [-72.208446, 44.932481], [-72.208556, 44.932417], [-72.208608, 44.932373], [-72.209081, 44.93206], [-72.209167, 44.932009], [-72.209452, 44.931804], [-72.209548, 44.931748], [-72.209968, 44.931479], [-72.210506, 44.931096], [-72.21071, 44.930907], [-72.210952, 44.930697], [-72.211065, 44.930579], [-72.211093, 44.930521], [-72.211107, 44.930458], [-72.211128, 44.930401], [-72.2114, 44.93024]]]]}}, {"type": "Feature", "properties": {"area_id": 10215, "city": "Newport City", "state": "VT", "city_survey": false, "cat": "Industrial", "grade": "", "label": "Industrial", "res": false, "com": false, "ind": true, "fill": "#80303C", "GEOID10": "50019951400", "GISJOIN": "G5000190951400", "calc_area": 27821.94643, "pct_tract": 0.00316}, "geometry": {"type": "MultiPolygon", "coordinates": [[[[-72.20422, 44.93561], [-72.20443, 44.9349], [-72.20562, 44.93398], [-72.20613, 44.93309], [-72.20651, 44.93269], [-72.2071, 44.93242], [-72.20788, 44.93243], [-72.20885, 44.93175], [-72.211128, 44.930401], [-72.211107, 44.930458], [-72.211093, 44.930521], [-72.211065, 44.930579], [-72.210952, 44.930697], [-72.21071, 44.930907], [-72.210506, 44.931096], [-72.209968, 44.931479], [-72.209548, 44.931748], [-72.209452, 44.931804], [-72.209167, 44.932009], [-72.209081, 44.93206], [-72.208608, 44.932373], [-72.208556, 44.932417], [-72.208446, 44.932481], [-72.208284, 44.93255], [-72.208149, 44.932578], [-72.20774, 44.932685], [-72.207341, 44.932801], [-72.206808, 44.932941], [-72.206667, 44.93296], [-72.206489, 44.932978], [-72.206408, 44.93299], [-72.206321, 44.933015], [-72.206216, 44.93307], [-72.206151, 44.933168], [-72.206124, 44.93328], [-72.206126, 44.933384], [-72.206106, 44.933612], [-72.206093, 44.933684], [-72.206047, 44.933787], [-72.205966, 44.933923], [-72.205888, 44.934053], [-72.205686, 44.934354], [-72.205635, 44.934456], [-72.205408, 44.934964], [-72.205376, 44.935017], [-72.205253, 44.935176], [-72.204963, 44.93561], [-72.204839, 44.935755], [-72.204839, 44.935755], [-72.20422, 44.93561]]]]}}, {"type": "Feature", "properties": {"area_id": 10216, "city": "Newport City", "state": "VT", "city_survey": false, "cat": "#1 Best Residential", "grade": "", "label": "#1 Best Residential", "res": true, "com": false, "ind": false, "fill": "#76a865", "GEOID10": "50019951500", "GISJOIN": "G5000190951500", "calc_area": 363976.1196, "pct_tract": 0.03321}, "geometry": {"type": "MultiPolygon", "coordinates": [[[[-72.20749, 44.93666], [-72.21006, 44.93585], [-72.21199, 44.9352], [-72.21192, 44.93503], [-72.21253, 44.93479], [-72.21237, 44.93447], [-72.21156, 44.93474], [-72.21011, 44.93516], [-72.20931, 44.93542], [-72.20916, 44.93526], [-72.20896, 44.93534], [-72.2086, 44.93475], [-72.20809, 44.93493], [-72.2086, 44.93563], [-72.20829, 44.93576], [-72.20809, 44.93546], [-72.20808, 44.93533], [-72.20722, 44.9341], [-72.20713, 44.93392], [-72.20718, 44.9337], [-72.20878, 44.93322], [-72.20905, 44.93316], [-72.21046, 44.93223], [-72.21158, 44.931], [-72.21257, 44.93065], [-72.2131, 44.93074], [-72.2133, 44.93133], [-72.21343, 44.93159], [-72.21397, 44.9315], [-72.21599, 44.92998], [-72.21693, 44.9294], [-72.21903, 44.92876], [-72.21997, 44.92828], [-72.22098, 44.92818], [-72.22147, 44.9286], [-72.22157, 44.92918], [-72.22092, 44.92997], [-72.21895, 44.93109], [-72.21867, 44.93125], [-72.21764, 44.9316], [-72.21649, 44.9317], [-72.21588, 44.93182], [-72.21489, 44.93228], [-72.21424, 44.93323], [-72.21391, 44.9335], [-72.21324, 44.93505], [-72.21327, 44.93532], [-72.2133, 44.93566], [-72.21334, 44.93607], [-72.21309, 44.93654], [-72.21246, 44.93674], [-72.21137, 44.9367], [-72.20862, 44.93742], [-72.20728, 44.93734], [-72.20683, 44.93707], [-72.20692, 44.93669], [-72.20749, 44.93666]]]]}}, {"type": "Feature", "properties": {"area_id": 10217, "city": "Newport City", "state": "VT", "city_survey": false, "cat": "#2 Residential", "grade": "", "label": "#2 Residential", "res": true, "com": false, "ind": false, "fill": "#7cb5bd", "GEOID10": "50019951500", "GISJOIN": "G5000190951500", "calc_area": 686382.34892, "pct_tract": 0.06263}, "geometry": {"type": "MultiPolygon", "coordinates": [[[[-72.21477, 44.93428], [-72.21433, 44.93455], [-72.21406, 44.93489], [-72.21358, 44.93527], [-72.21327, 44.93532], [-72.21324, 44.93505], [-72.21391, 44.9335], [-72.21424, 44.93323], [-72.21489, 44.93228], [-72.21588, 44.93182], [-72.21649, 44.9317], [-72.21764, 44.9316], [-72.21867, 44.93125], [-72.21895, 44.93109], [-72.22542, 44.93196], [-72.22765, 44.93244], [-72.22851, 44.93285], [-72.22946, 44.93352], [-72.2298, 44.93396], [-72.22974, 44.93445], [-72.22749, 44.93583], [-72.22606, 44.93708], [-72.22507, 44.9373], [-72.22439, 44.93802], [-72.22342, 44.93854], [-72.22152, 44.93996], [-72.22128, 44.94013], [-72.22069, 44.94006], [-72.21957, 44.93947], [-72.21855, 44.93842], [-72.2182, 44.93798], [-72.21814, 44.93771], [-72.21797, 44.93737], [-72.2178, 44.93701], [-72.21783, 44.93635], [-72.21743, 44.93577], [-72.21758, 44.93554], [-72.21743, 44.93451], [-72.21711, 44.93307], [-72.21672, 44.93275], [-72.21636, 44.9332], [-72.21571, 44.93336], [-72.21488, 44.9336], [-72.21471, 44.93376], [-72.21499, 44.93399], [-72.21477, 44.93428]]], [[[-72.19994, 44.95036], [-72.199768, 44.950454], [-72.200054, 44.949963], [-72.19994, 44.95036]]], [[[-72.20422, 44.94262], [-72.2041, 44.94311], [-72.20363, 44.94397], [-72.202959, 44.944817], [-72.203571, 44.943608], [-72.203626, 44.943517], [-72.204014, 44.942877], [-72.204148, 44.942486], [-72.20422, 44.94262]]]]}}, {"type": "Feature", "properties": {"area_id": 10217, "city": "Newport City", "state": "VT", "city_survey": false, "cat": "#2 Residential", "grade": "", "label": "#2 Residential", "res": true, "com": false, "ind": false, "fill": "#7cb5bd", "GEOID10": "50019951400", "GISJOIN": "G5000190951400", "calc_area": 545615.87342, "pct_tract": 0.06193}, "geometry": {"type": "MultiPolygon", "coordinates": [[[[-72.19961, 44.95054], [-72.19924, 44.95044], [-72.19876, 44.94998], [-72.1978, 44.94901], [-72.19655, 44.9483], [-72.19536, 44.94794], [-72.19441, 44.94739], [-72.19291, 44.94603], [-72.19224, 44.94497], [-72.19219, 44.9444], [-72.19235, 44.94389], [-72.19365, 44.94275], [-72.19405, 44.9424], [-72.19452, 44.94228], [-72.19529, 44.94157], [-72.19579, 44.94087], [-72.19661, 44.94134], [-72.19777, 44.94168], [-72.19878, 44.94183], [-72.20018, 44.94181], [-72.20139, 44.94159], [-72.20302, 44.9415], [-72.20395, 44.94212], [-72.204148, 44.942486], [-72.204014, 44.942877], [-72.203626, 44.943517], [-72.203571, 44.943608], [-72.202959, 44.944817], [-72.20253, 44.94536], [-72.20129, 44.94738], [-72.20053, 44.9483], [-72.200054, 44.949963], [-72.199768, 44.950454], [-72.19961, 44.95054]], [[-72.19852, 44.94274], [-72.19457, 44.9429], [-72.19381, 44.94319], [-72.19383, 44.94345], [-72.19852, 44.94329], [-72.19967, 44.94328], [-72.20101, 44.94305], [-72.20084, 44.94244], [-72.19976, 44.94265], [-72.19852, 44.94274]]]]}}, {"type": "Feature", "properties": {"area_id": 10218, "city": "Newport City", "state": "VT", "city_survey": false, "cat": "#3 Residential", "grade": "", "label": "#3 Residential", "res": true, "com": false, "ind": false, "fill": "#E09A73", "GEOID10": "50019951500", "GISJOIN": "G5000190951500", "calc_area": 151105.58723, "pct_tract": 0.01379}, "geometry": {"type": "MultiPolygon", "coordinates": [[[[-72.20363, 44.94397], [-72.2041, 44.94311], [-72.2055, 44.94266], [-72.20726, 44.94285], [-72.20775, 44.94321], [-72.20811, 44.94388], [-72.20812, 44.94461], [-72.2074, 44.94586], [-72.20675, 44.94647], [-72.2058, 44.94693], [-72.20462, 44.94694], [-72.20374, 44.94667], [-72.20268, 44.94582], [-72.202591, 44.945546], [-72.202959, 44.944817], [-72.20363, 44.94397]]]]}}, {"type": "Feature", "properties": {"area_id": 10218, "city": "Newport City", "state": "VT", "city_survey": false, "cat": "#3 Residential", "grade": "", "label": "#3 Residential", "res": true, "com": false, "ind": false, "fill": "#E09A73", "GEOID10": "50019951400", "GISJOIN": "G5000190951400", "calc_area": 548387.13604, "pct_tract": 0.06224}, "geometry": {"type": "MultiPolygon", "coordinates": [[[[-72.19529, 44.94157], [-72.19452, 44.94228], [-72.19405, 44.9424], [-72.19365, 44.94275], [-72.19269, 44.9424], [-72.19123, 44.94199], [-72.19028, 44.94209], [-72.1898, 44.9418], [-72.18899, 44.94047], [-72.18892, 44.93959], [-72.1894, 44.93903], [-72.1908, 44.9386], [-72.19183, 44.93851], [-72.19476, 44.93812], [-72.19621, 44.93791], [-72.19584, 44.93744], [-72.19512, 44.93719], [-72.19448, 44.93674], [-72.1945, 44.93638], [-72.1954, 44.93601], [-72.19902, 44.93559], [-72.19939, 44.93572], [-72.19978, 44.93549], [-72.20031, 44.93462], [-72.20094, 44.93389], [-72.20321, 44.93075], [-72.20425, 44.92938], [-72.20478, 44.92826], [-72.20631, 44.92716], [-72.20686, 44.92718], [-72.20723, 44.92771], [-72.20712, 44.92879], [-72.2064, 44.93034], [-72.20596, 44.93088], [-72.20408, 44.93265], [-72.20309, 44.9331], [-72.20212, 44.93416], [-72.20219, 44.93511], [-72.20205, 44.93639], [-72.20214, 44.93728], [-72.20188, 44.93765], [-72.20108, 44.93821], [-72.19973, 44.93862], [-72.19776, 44.93886], [-72.19644, 44.93887], [-72.19605, 44.93916], [-72.19608, 44.93968], [-72.19598, 44.94052], [-72.19579, 44.94087], [-72.19529, 44.94157]]], [[[-72.20253, 44.94536], [-72.202959, 44.944817], [-72.202591, 44.945546], [-72.20253, 44.94536]]]]}}]}