{"type": "FeatureCollection", "features": [{"type": "Feature", "geometry": {"type": "Point", "coordinates": [-85.0, 32.458333]}, "properties": {"facility_name": "GOLDENS' FOUNDRY & MACHINE CO", "industry": null, "tri_facility_id": "31901GLDNS60012"}}, {"type": "Feature", "geometry": {"type": "Point", "coordinates": [-84.948611, 32.434722]}, "properties": {"facility_name": "EXIDE TECHNOLOGIES", "industry": null, "tri_facility_id": "31901GNBNCJOYRO"}}, {"type": "Feature", "geometry": {"type": "Point", "coordinates": [-84.978056, 32.460833]}, "properties": {"facility_name": "LUMMUS CORP", "industry": null, "tri_facility_id": "31901LMMSC71210"}}, {"type": "Feature", "geometry": {"type": "Point", "coordinates": [-84.95, 32.43333333333333]}, "properties": {"facility_name": "ROYAL CROWN BOTTLING CO", "industry": null, "tri_facility_id": "31901RYLCR2429V"}}, {"type": "Feature", "geometry": {"type": "Point", "coordinates": [-84.991111, 32.46]}, "properties": {"facility_name": "FIELDCREST CANNON INC COLUMBUS TOWEL", "industry": null, "tri_facility_id": "31902CLMBS1412F"}}, {"type": "Feature", "geometry": {"type": "Point", "coordinates": [-84.966667, 32.466667]}, "properties": {"facility_name": "CONTINENTAL GRAIN CO, SOUTHERN FOODS", "industry": null, "tri_facility_id": "31902CNTNN1616M"}}, {"type": "Feature", "geometry": {"type": "Point", "coordinates": [-84.95, 32.516667]}, "properties": {"facility_name": "FIELDBROOK FARMS INC", "industry": null, "tri_facility_id": "31902KNNTT12436"}}, {"type": "Feature", "geometry": {"type": "Point", "coordinates": [-84.977778, 32.470833]}, "properties": {"facility_name": "LITHO-KROME CO", "industry": null, "tri_facility_id": "31902LTHKR1039T"}}, {"type": "Feature", "geometry": {"type": "Point", "coordinates": [-84.96277777777777, 32.41583333333333]}, "properties": {"facility_name": "KEEBLER FOODS CO", "industry": null, "tri_facility_id": "31902SNSHN3700V"}}, {"type": "Feature", "geometry": {"type": "Point", "coordinates": [-84.984167, 32.453611]}, "properties": {"facility_name": "SOUTHERN PHENIX TEXTILES INC CUSSETA PLANT", "industry": null, "tri_facility_id": "31902WSTPN628FI"}}, {"type": "Feature", "geometry": {"type": "Point", "coordinates": [-84.974131, 32.526515]}, "properties": {"facility_name": "PLICON", "industry": null, "tri_facility_id": "31904CLMBS1700C"}}, {"type": "Feature", "geometry": {"type": "Point", "coordinates": [-84.981111, 32.508889]}, "properties": {"facility_name": "BEAULIEU GROUP LLC COLUMBUS DIV", "industry": null, "tri_facility_id": "31904CLMBS4600R"}}, {"type": "Feature", "geometry": {"type": "Point", "coordinates": [-84.973544, 32.52704]}, "properties": {"facility_name": "SMITH & NEPHEW PERRY", "industry": null, "tri_facility_id": "31904SMTHN1333B"}}, {"type": "Feature", "geometry": {"type": "Point", "coordinates": [-84.991259, 32.497804]}, "properties": {"facility_name": "BIBB CO COLUMBUS PLANT", "industry": null, "tri_facility_id": "31904THBBB37151"}}, {"type": "Feature", "geometry": {"type": "Point", "coordinates": [-84.970833, 32.527778]}, "properties": {"facility_name": "W C BRADLEY CO CHAR-BROIL DIV", "industry": null, "tri_facility_id": "31904WCBRD1442B"}}, {"type": "Feature", "geometry": {"type": "Point", "coordinates": [-84.995, 32.493333]}, "properties": {"facility_name": "WEST POINT PEPPERELL COLUMBUS MILL", "industry": null, "tri_facility_id": "31904WSTPN3201F"}}, {"type": "Feature", "geometry": {"type": "Point", "coordinates": [-84.9625, 32.454167]}, "properties": {"facility_name": "SMITH & NEPHEW PERRY", "industry": null, "tri_facility_id": "31906SMTHN401OL"}}, {"type": "Feature", "geometry": {"type": "Point", "coordinates": [-84.956944, 32.425]}, "properties": {"facility_name": "STEPAN CO", "industry": null, "tri_facility_id": "31907RCPLYONERU"}}, {"type": "Feature", "geometry": {"type": "Point", "coordinates": [-84.921944, 32.496944]}, "properties": {"facility_name": "SWIFT TEXTILES INC", "industry": null, "tri_facility_id": "31907SWFTT6801F"}}, {"type": "Feature", "geometry": {"type": "Point", "coordinates": [-84.962222, 32.552778]}, "properties": {"facility_name": "SOUTHEAST CANNERS INC", "industry": null, "tri_facility_id": "31909STHST7607V"}}, {"type": "Feature", "geometry": {"type": "Point", "coordinates": [-84.977778, 32.465]}, "properties": {"facility_name": "ROYAL CROWN CO INC", "industry": null, "tri_facility_id": "31994RYLCR1000T"}}, {"type": "Feature", "geometry": {"type": "Point", "coordinates": [-84.983056, 32.468889]}, "properties": {"facility_name": "SWIFT TEXTILES INC 6TH AVE PLANT", "industry": null, "tri_facility_id": "31994SWFTT14196"}}, {"type": "Feature", "geometry": {"type": "Point", "coordinates": [-84.966667, 32.529167]}, "properties": {"facility_name": "ALUDYNE-COLUMBUS LLC", "industry": null, "tri_facility_id": "31995CLMBS1600N"}}]}