{"type": "FeatureCollection", "features": [{"type": "Feature", "geometry": {"type": "Point", "coordinates": [-73.461389, 41.085556]}, "properties": {"facility_name": "CHARKIT CHEMICAL CORP", "industry": null, "tri_facility_id": "06820CHRKT330PO"}}, {"type": "Feature", "geometry": {"type": "Point", "coordinates": [-73.416389, 41.112222]}, "properties": {"facility_name": "PRODS FINISHING CORP OF CT", "industry": null, "tri_facility_id": "06850CNNPR523WE"}}, {"type": "Feature", "geometry": {"type": "Point", "coordinates": [-73.427778, 41.152778]}, "properties": {"facility_name": "VECTRON LABORATORIES INC", "industry": null, "tri_facility_id": "06850VCTRN166GL"}}, {"type": "Feature", "geometry": {"type": "Point", "coordinates": [-73.408333, 41.116667]}, "properties": {"facility_name": "FERRO CORP", "industry": null, "tri_facility_id": "06852FRRCR34SMI"}}, {"type": "Feature", "geometry": {"type": "Point", "coordinates": [-73.419444, 41.120278]}, "properties": {"facility_name": "HICKS & OTIS PRINTS INC", "industry": null, "tri_facility_id": "06852HCKST9WILT"}}, {"type": "Feature", "geometry": {"type": "Point", "coordinates": [-73.4482, 41.127]}, "properties": {"facility_name": "KING INDUSTRIES INC", "industry": null, "tri_facility_id": "06852KNGNDSCIEN"}}, {"type": "Feature", "geometry": {"type": "Point", "coordinates": [-73.433333, 41.133333]}, "properties": {"facility_name": "NORWALK POWDERED METALS INC", "industry": null, "tri_facility_id": "06852NRWLKMULLE"}}, {"type": "Feature", "geometry": {"type": "Point", "coordinates": [-73.4576, 41.1282]}, "properties": {"facility_name": "ATLANTIC DYEING & FINISHING", "industry": null, "tri_facility_id": "06852TLNTCMULLE"}}, {"type": "Feature", "geometry": {"type": "Point", "coordinates": [-73.418056, 41.093056]}, "properties": {"facility_name": "ECOMETICS INC", "industry": null, "tri_facility_id": "06854CMTCS19CON"}}, {"type": "Feature", "geometry": {"type": "Point", "coordinates": [-73.41305555555556, 41.07027777777778]}, "properties": {"facility_name": "NRG ENERGY NORWALK HARBOR STATION", "industry": null, "tri_facility_id": "06854NRWLKMANRE"}}, {"type": "Feature", "geometry": {"type": "Point", "coordinates": [-73.4051, 41.118]}, "properties": {"facility_name": "HOWE FURNITURE CO", "industry": null, "tri_facility_id": "06856HWFRN151WO"}}, {"type": "Feature", "geometry": {"type": "Point", "coordinates": [-73.398889, 41.106389]}, "properties": {"facility_name": "NORTHROP GRUMMAN NORDEN SYSTEMS", "industry": null, "tri_facility_id": "06856NRDNSNORDE"}}, {"type": "Feature", "geometry": {"type": "Point", "coordinates": [-73.419444, 41.081944]}, "properties": {"facility_name": "NASH US", "industry": null, "tri_facility_id": "06856NSHNG310WI"}}, {"type": "Feature", "geometry": {"type": "Point", "coordinates": [-73.413611, 41.121944]}, "properties": {"facility_name": "US SURGICAL CORP", "industry": null, "tri_facility_id": "06856NTDST150GL"}}, {"type": "Feature", "geometry": {"type": "Point", "coordinates": [-73.421222, 41.1584]}, "properties": {"facility_name": "PERKIN-ELMER CORP", "industry": null, "tri_facility_id": "06859PRKNL761MA"}}, {"type": "Feature", "geometry": {"type": "Point", "coordinates": [-73.41666666666667, 41.171388888888885]}, "properties": {"facility_name": "KENNETH LYNCH & SONS", "industry": null, "tri_facility_id": "06897KNNTH84DAN"}}, {"type": "Feature", "geometry": {"type": "Point", "coordinates": [-73.41771, 41.166925]}, "properties": {"facility_name": "PERKIN-ELMER CORP", "industry": null, "tri_facility_id": "06897PRKNL50DAN"}}, {"type": "Feature", "geometry": {"type": "Point", "coordinates": [-73.418333, 41.17]}, "properties": {"facility_name": "ASML US LP", "industry": null, "tri_facility_id": "06897PRKNL77DAN"}}, {"type": "Feature", "geometry": {"type": "Point", "coordinates": [-73.54694444444445, 41.04055555555556]}, "properties": {"facility_name": "O&G INDUSTRIES INC.", "industry": null, "tri_facility_id": "06902GNDST72DAV"}}, {"type": "Feature", "geometry": {"type": "Point", "coordinates": [-73.528889, 41.041944]}, "properties": {"facility_name": "AMERICAN CYANAMID CO", "industry": null, "tri_facility_id": "06902MRCNC205MA"}}, {"type": "Feature", "geometry": {"type": "Point", "coordinates": [-73.55, 41.0375]}, "properties": {"facility_name": "SPARTECH LLC", "industry": null, "tri_facility_id": "06902PLYCS69SOU"}}, {"type": "Feature", "geometry": {"type": "Point", "coordinates": [-73.525, 41.051667]}, "properties": {"facility_name": "ROYAL METALS CORP", "industry": null, "tri_facility_id": "06902RYLMT669AT"}}, {"type": "Feature", "geometry": {"type": "Point", "coordinates": [-73.540556, 41.039444]}, "properties": {"facility_name": "SHAW MUDGE & CO", "industry": null, "tri_facility_id": "06902SHWMD16DYK"}}, {"type": "Feature", "geometry": {"type": "Point", "coordinates": [-73.549722, 41.036389]}, "properties": {"facility_name": "EJ GAISSER INC", "industry": null, "tri_facility_id": "06902TGSSR49LIB"}}, {"type": "Feature", "geometry": {"type": "Point", "coordinates": [-73.56333333333333, 41.05583333333333]}, "properties": {"facility_name": "GYRUS ACMI", "industry": null, "tri_facility_id": "06904CRCNC300ST"}}, {"type": "Feature", "geometry": {"type": "Point", "coordinates": [-73.560833, 41.048889]}, "properties": {"facility_name": "CYTEC INDUSTRIES INC", "industry": null, "tri_facility_id": "06904MRCNC1937W"}}, {"type": "Feature", "geometry": {"type": "Point", "coordinates": [-73.519444, 41.094444]}, "properties": {"facility_name": "MACHLETT LABORATORIES INC C/O TUBE HOLDING CO", "industry": null, "tri_facility_id": "06907MCHLT1063H"}}, {"type": "Feature", "geometry": {"type": "Point", "coordinates": [-73.52, 41.079444]}, "properties": {"facility_name": "MORTON INTERNATIONAL INC", "industry": null, "tri_facility_id": "06907MRTNC8VIAD"}}, {"type": "Feature", "geometry": {"type": "Point", "coordinates": [-73.520361, 41.079044]}, "properties": {"facility_name": "ISIS COATINGS INC", "industry": null, "tri_facility_id": "06907SSCTN66VIA"}}, {"type": "Feature", "geometry": {"type": "Point", "coordinates": [-73.518333, 41.083333]}, "properties": {"facility_name": "STAMFORD CORP I", "industry": null, "tri_facility_id": "06907STMFR31VIA"}}, {"type": "Feature", "geometry": {"type": "Point", "coordinates": [-73.500833, 41.05]}, "properties": {"facility_name": "P&G BEAUTY INC", "industry": null, "tri_facility_id": "06922CLRLN1BLAC"}}, {"type": "Feature", "geometry": {"type": "Point", "coordinates": [-73.55472222222222, 41.03583333333333]}, "properties": {"facility_name": "PITNEY BOWES INC. (BARRY PLACE)", "industry": null, "tri_facility_id": "06926PTNYB23BAR"}}, {"type": "Feature", "geometry": {"type": "Point", "coordinates": [-73.524444, 41.0375]}, "properties": {"facility_name": "PITNEY BOWES INC", "industry": null, "tri_facility_id": "06926PTNYB55GAR"}}, {"type": "Feature", "geometry": {"type": "Point", "coordinates": [-73.5767, 41.0531]}, "properties": {"facility_name": "PITNEY BOWES INC MAIN PLANT", "industry": null, "tri_facility_id": "06926PTNYB69WAL"}}, {"type": "Feature", "geometry": {"type": "Point", "coordinates": [-73.5625, 41.054167]}, "properties": {"facility_name": "PITNEY BOWES INC", "industry": null, "tri_facility_id": "06926PTNYB76PRO"}}]}