{"type": "FeatureCollection", "features": [{"type": "Feature", "properties": {"area_id": 10471, "city": "Waco", "state": "TX", "city_survey": false, "cat": "Best Residential", "grade": null, "label": "Best Residential", "res": true, "com": false, "ind": false, "holc_grade": null}, "geometry": {"type": "MultiPolygon", "coordinates": [[[[-97.16484, 31.53367], [-97.163509, 31.534771], [-97.159902, 31.537756], [-97.158651, 31.538791], [-97.15818, 31.53918], [-97.16223, 31.54232], [-97.158334, 31.545704], [-97.15463, 31.54892], [-97.15265, 31.54732], [-97.15168, 31.54662], [-97.15452, 31.54413], [-97.15028, 31.54075], [-97.15028, 31.54074], [-97.15307, 31.53828], [-97.15203, 31.53739], [-97.153974, 31.535675], [-97.1624, 31.52824], [-97.16688, 31.53184], [-97.16484, 31.53367]]], [[[-97.15828, 31.55581], [-97.15747, 31.55469], [-97.162983, 31.551786], [-97.164, 31.55125], [-97.1648, 31.55236], [-97.163775, 31.552902], [-97.15828, 31.55581]]], [[[-97.17338, 31.55127], [-97.1749, 31.55347], [-97.16978, 31.55613], [-97.16834, 31.55395], [-97.17338, 31.55127]]]]}}, {"type": "Feature", "properties": {"area_id": 10473, "city": "Waco", "state": "TX", "city_survey": false, "cat": "Downward Trend", "grade": null, "label": "Downward Trend", "res": true, "com": false, "ind": false, "holc_grade": null}, "geometry": {"type": "MultiPolygon", "coordinates": [[[[-97.1019, 31.58128], [-97.10557, 31.57949], [-97.10742, 31.58192], [-97.10506, 31.58482], [-97.10271, 31.58695], [-97.09585, 31.5906], [-97.09889, 31.58565], [-97.1019, 31.58128]]], [[[-97.1112, 31.56406], [-97.11023, 31.56264], [-97.10764, 31.56409], [-97.10557, 31.56426], [-97.10484, 31.56455], [-97.10148, 31.55937], [-97.10517, 31.55769], [-97.11301, 31.56089], [-97.11803, 31.56227], [-97.11332, 31.56615], [-97.11307, 31.56579], [-97.11153, 31.56372], [-97.1112, 31.56406]]], [[[-97.142955, 31.547227], [-97.14199, 31.54808], [-97.14074, 31.54707], [-97.13991, 31.54778], [-97.136059, 31.544642], [-97.13138, 31.54083], [-97.12781, 31.54407], [-97.12706, 31.54339], [-97.1247, 31.54552], [-97.12316, 31.54419], [-97.12537, 31.54222], [-97.12078, 31.53845], [-97.11602, 31.54263], [-97.11826, 31.54542], [-97.11747, 31.54602], [-97.1174, 31.54607], [-97.113633, 31.542838], [-97.11353, 31.54275], [-97.11474, 31.54166], [-97.11619, 31.54083], [-97.125516, 31.532647], [-97.12786, 31.53059], [-97.13166, 31.53386], [-97.12955, 31.53586], [-97.13338, 31.53907], [-97.1368, 31.53618], [-97.14237, 31.53146], [-97.14422, 31.52989], [-97.14861, 31.53362], [-97.14812, 31.5341], [-97.150031, 31.535708], [-97.15203, 31.53739], [-97.15307, 31.53828], [-97.15028, 31.54074], [-97.14397, 31.54633], [-97.142955, 31.547227]]], [[[-97.13317, 31.54878], [-97.1304, 31.5512], [-97.12963, 31.55044], [-97.12329, 31.55602], [-97.120862, 31.554046], [-97.12046, 31.55372], [-97.121628, 31.552726], [-97.12254, 31.55195], [-97.122231, 31.551695], [-97.1207, 31.55043], [-97.1217, 31.54954], [-97.12485, 31.546748], [-97.12548, 31.54619], [-97.12686, 31.54494], [-97.12863, 31.54643], [-97.1295, 31.54568], [-97.132249, 31.548002], [-97.13317, 31.54878]]], [[[-97.12254, 31.56752], [-97.12548, 31.5641], [-97.12922, 31.56651], [-97.12966, 31.5673], [-97.1299, 31.56819], [-97.1299, 31.56896], [-97.12803, 31.57111], [-97.12254, 31.56752]]], [[[-97.14865, 31.56423], [-97.14715, 31.56638], [-97.14708, 31.566452], [-97.14629, 31.56726], [-97.14663, 31.56752], [-97.14572, 31.56856], [-97.14624, 31.56887], [-97.14377, 31.56999], [-97.14195, 31.57008], [-97.13898, 31.56837], [-97.13576, 31.5654], [-97.134373, 31.564485], [-97.13332, 31.56379], [-97.13478, 31.56261], [-97.13367, 31.56167], [-97.13333, 31.56139], [-97.13531, 31.55966], [-97.137468, 31.561431], [-97.13871, 31.56245], [-97.1389, 31.56257], [-97.13936, 31.56214], [-97.14448, 31.56552], [-97.144894, 31.565063], [-97.14581, 31.56405], [-97.14402, 31.56287], [-97.1454, 31.56215], [-97.14749, 31.56099], [-97.14967, 31.56368], [-97.14865, 31.56423]]], [[[-97.1472, 31.54931], [-97.15086, 31.54602], [-97.15168, 31.54662], [-97.15265, 31.54732], [-97.15262, 31.54735], [-97.14901, 31.55071], [-97.1472, 31.54931]]], [[[-97.177595, 31.567902], [-97.182698, 31.575047], [-97.18275, 31.57512], [-97.17269, 31.58027], [-97.172645, 31.580206], [-97.171191, 31.578135], [-97.171183, 31.578123], [-97.170564, 31.577241], [-97.17003, 31.57648], [-97.170028, 31.576481], [-97.16602, 31.5787], [-97.16614, 31.57897], [-97.16467, 31.57986], [-97.16436, 31.57941], [-97.16408, 31.57952], [-97.16367, 31.57904], [-97.16278, 31.57952], [-97.16073, 31.57669], [-97.1611, 31.57652], [-97.16159, 31.57468], [-97.16568, 31.572548], [-97.173625, 31.568405], [-97.17678, 31.56676], [-97.1772, 31.56735], [-97.1781, 31.56687], [-97.17837, 31.56722], [-97.17745, 31.5677], [-97.177595, 31.567902]]], [[[-97.17747, 31.55227], [-97.17551, 31.55319], [-97.1755, 31.55318], [-97.1755, 31.55317], [-97.175049, 31.553396], [-97.1749, 31.55347], [-97.17338, 31.55127], [-97.17137, 31.54835], [-97.171407, 31.54833], [-97.17364, 31.54713], [-97.171404, 31.544054], [-97.17135, 31.54398], [-97.1771, 31.54102], [-97.177158, 31.541103], [-97.18031, 31.54563], [-97.17466, 31.54848], [-97.17747, 31.55227]]], [[[-97.18337, 31.5633], [-97.182864, 31.563563], [-97.17742, 31.56639], [-97.17605, 31.56455], [-97.17719, 31.564], [-97.17668, 31.56324], [-97.181053, 31.561045], [-97.18164, 31.56075], [-97.18337, 31.5633]]]]}}, {"type": "Feature", "properties": {"area_id": 11189, "city": "Waco", "state": "TX", "city_survey": false, "cat": "Industrial and Commercial", "grade": null, "label": "Industrial and Commercial", "res": false, "com": true, "ind": true, "holc_grade": null}, "geometry": {"type": "Polygon", "coordinates": [[[-97.13314, 31.56123], [-97.13327, 31.56109], [-97.13006, 31.5587], [-97.12924, 31.55931], [-97.12737, 31.56061], [-97.12645, 31.5602], [-97.12197, 31.55838], [-97.12128, 31.55777], [-97.12345, 31.55587], [-97.12963, 31.55044], [-97.13039, 31.55103], [-97.13338, 31.54856], [-97.13727, 31.55221], [-97.13823, 31.55141], [-97.14001, 31.55299], [-97.13929, 31.55363], [-97.13566, 31.55698], [-97.13607, 31.55729], [-97.13683, 31.55665], [-97.13789, 31.55746], [-97.13531, 31.55966], [-97.13333, 31.56139], [-97.13314, 31.56123]]]}}, {"type": "Feature", "properties": {"area_id": 10474, "city": "Waco", "state": "TX", "city_survey": false, "cat": "Negro Section", "grade": null, "label": "Negro Section", "res": true, "com": false, "ind": false, "holc_grade": null}, "geometry": {"type": "MultiPolygon", "coordinates": [[[[-97.14237, 31.53146], [-97.1368, 31.53618], [-97.13277, 31.53291], [-97.13166, 31.53386], [-97.12786, 31.53059], [-97.125516, 31.532647], [-97.11619, 31.54083], [-97.11474, 31.54166], [-97.11353, 31.54275], [-97.113633, 31.542838], [-97.1174, 31.54607], [-97.117547, 31.546189], [-97.1217, 31.54954], [-97.1207, 31.55043], [-97.122231, 31.551695], [-97.12254, 31.55195], [-97.121628, 31.552726], [-97.12046, 31.55372], [-97.120862, 31.554046], [-97.12329, 31.55602], [-97.12128, 31.55777], [-97.119303, 31.556921], [-97.11553, 31.5553], [-97.11284, 31.55429], [-97.11312, 31.55253], [-97.11012, 31.54992], [-97.10937, 31.5505], [-97.10698, 31.54841], [-97.107447, 31.548036], [-97.1106, 31.54551], [-97.10303, 31.53905], [-97.106423, 31.53591], [-97.10868, 31.53382], [-97.10921, 31.53419], [-97.11348, 31.53043], [-97.116846, 31.533094], [-97.1188, 31.53464], [-97.12874, 31.52608], [-97.128894, 31.526209], [-97.1306, 31.52764], [-97.13106, 31.52722], [-97.13515, 31.53069], [-97.13813, 31.5279], [-97.14237, 31.53146]]], [[[-97.13383, 31.57142], [-97.13659, 31.57366], [-97.12123, 31.58113], [-97.12077, 31.58162], [-97.115042, 31.584498], [-97.11482, 31.58461], [-97.111, 31.58399], [-97.10742, 31.58192], [-97.10557, 31.57949], [-97.10826, 31.5781], [-97.10749, 31.57663], [-97.10702, 31.5745], [-97.1068, 31.57405], [-97.109503, 31.571642], [-97.11257, 31.56891], [-97.11113, 31.56671], [-97.11307, 31.56579], [-97.11332, 31.56615], [-97.11803, 31.56227], [-97.11301, 31.56089], [-97.10517, 31.55769], [-97.10683, 31.55683], [-97.11449, 31.55997], [-97.11968, 31.56076], [-97.12548, 31.5641], [-97.12254, 31.56752], [-97.12803, 31.57111], [-97.1299, 31.56896], [-97.130085, 31.569076], [-97.13383, 31.57142]]], [[[-97.1247, 31.54552], [-97.12706, 31.54339], [-97.12781, 31.54407], [-97.13138, 31.54083], [-97.136059, 31.544642], [-97.13991, 31.54778], [-97.14074, 31.54707], [-97.14199, 31.54808], [-97.13823, 31.55141], [-97.13727, 31.55221], [-97.13317, 31.54878], [-97.132249, 31.548002], [-97.1295, 31.54568], [-97.12863, 31.54643], [-97.12686, 31.54494], [-97.12548, 31.54619], [-97.1247, 31.54552]]], [[[-97.12731, 31.56059], [-97.13006, 31.5587], [-97.13327, 31.56109], [-97.13314, 31.56123], [-97.13478, 31.56261], [-97.13332, 31.56379], [-97.12731, 31.56059]]], [[[-97.14493, 31.56239], [-97.14402, 31.56287], [-97.14581, 31.56405], [-97.144894, 31.565063], [-97.14448, 31.56552], [-97.13936, 31.56214], [-97.1389, 31.56257], [-97.13871, 31.56245], [-97.137468, 31.561431], [-97.13531, 31.55966], [-97.13789, 31.55746], [-97.13837, 31.55701], [-97.139747, 31.558139], [-97.14493, 31.56239]]], [[[-97.14992, 31.54687], [-97.1472, 31.54931], [-97.14661, 31.54876], [-97.14934, 31.54643], [-97.14992, 31.54687]]]]}}, {"type": "Feature", "properties": {"area_id": 10472, "city": "Waco", "state": "TX", "city_survey": false, "cat": "Still good residential section", "grade": null, "label": "Still good residential section", "res": true, "com": false, "ind": false, "holc_grade": null}, "geometry": {"type": "MultiPolygon", "coordinates": [[[[-97.09677, 31.59269], [-97.09682, 31.59289], [-97.09567, 31.59457], [-97.09492, 31.59425], [-97.09352, 31.59346], [-97.09547, 31.5908], [-97.09585, 31.5906], [-97.10271, 31.58695], [-97.10572, 31.59088], [-97.09916, 31.59431], [-97.09819, 31.59299], [-97.09781, 31.59321], [-97.0973, 31.59246], [-97.09677, 31.59269]]], [[[-97.12078, 31.53845], [-97.12537, 31.54222], [-97.12316, 31.54419], [-97.12548, 31.54619], [-97.12485, 31.546748], [-97.1217, 31.54954], [-97.117547, 31.546189], [-97.1174, 31.54607], [-97.11747, 31.54602], [-97.11826, 31.54542], [-97.11602, 31.54263], [-97.12078, 31.53845]]], [[[-97.13277, 31.53291], [-97.1368, 31.53618], [-97.13338, 31.53907], [-97.12955, 31.53586], [-97.13166, 31.53386], [-97.13277, 31.53291]]], [[[-97.168049, 31.541279], [-97.1679, 31.54135], [-97.16498, 31.54305], [-97.16706, 31.5462], [-97.170379, 31.544483], [-97.17135, 31.54398], [-97.171404, 31.544054], [-97.17364, 31.54713], [-97.171407, 31.54833], [-97.17137, 31.54835], [-97.17338, 31.55127], [-97.16834, 31.55395], [-97.16978, 31.55613], [-97.1749, 31.55347], [-97.175049, 31.553396], [-97.1755, 31.55317], [-97.1755, 31.55318], [-97.17551, 31.55319], [-97.177483, 31.555986], [-97.17786, 31.55652], [-97.17347, 31.55867], [-97.17468, 31.56033], [-97.1717, 31.56182], [-97.17437, 31.56545], [-97.17605, 31.56455], [-97.17742, 31.56639], [-97.17678, 31.56676], [-97.173625, 31.568405], [-97.16568, 31.572548], [-97.16159, 31.57468], [-97.1611, 31.57652], [-97.16073, 31.57669], [-97.15848, 31.57315], [-97.15677, 31.57284], [-97.15674, 31.57256], [-97.15169, 31.5742], [-97.15084, 31.57245], [-97.14971, 31.57289], [-97.14711, 31.56939], [-97.14624, 31.56887], [-97.14572, 31.56856], [-97.14663, 31.56752], [-97.14629, 31.56726], [-97.14708, 31.566452], [-97.14715, 31.56638], [-97.14865, 31.56423], [-97.14967, 31.56368], [-97.14749, 31.56099], [-97.1454, 31.56215], [-97.14493, 31.56239], [-97.139747, 31.558139], [-97.13837, 31.55701], [-97.13789, 31.55746], [-97.13683, 31.55665], [-97.13607, 31.55729], [-97.13554, 31.55689], [-97.14001, 31.55299], [-97.13823, 31.55141], [-97.14199, 31.54808], [-97.142955, 31.547227], [-97.14397, 31.54633], [-97.15028, 31.54074], [-97.15028, 31.54075], [-97.15452, 31.54413], [-97.15168, 31.54662], [-97.15086, 31.54602], [-97.14992, 31.54687], [-97.14934, 31.54643], [-97.14661, 31.54876], [-97.1472, 31.54931], [-97.14901, 31.55071], [-97.15262, 31.54735], [-97.15265, 31.54732], [-97.15463, 31.54892], [-97.158334, 31.545704], [-97.16223, 31.54232], [-97.15818, 31.53918], [-97.158651, 31.538791], [-97.159902, 31.537756], [-97.163509, 31.534771], [-97.16484, 31.53367], [-97.16709, 31.53689], [-97.16845, 31.53625], [-97.17098, 31.53988], [-97.168049, 31.541279]], [[-97.164, 31.55125], [-97.162983, 31.551786], [-97.15747, 31.55469], [-97.15828, 31.55581], [-97.163775, 31.552902], [-97.1648, 31.55236], [-97.164, 31.55125]]]]}}]}