{"type": "FeatureCollection", "features": [{"type": "Feature", "properties": {"area_id": 10150, "city": "New Bern", "state": "NC", "city_survey": false, "cat": "Best Residential Section", "grade": null, "label": "Best Residential Section", "res": true, "com": false, "ind": false, "holc_grade": null}, "geometry": {"type": "MultiPolygon", "coordinates": [[[[-77.03443, 35.10621], [-77.034814, 35.106252], [-77.03589, 35.10637], [-77.03676, 35.10647], [-77.03661, 35.1071], [-77.03773, 35.10725], [-77.03758, 35.10796], [-77.03803, 35.10802], [-77.03787, 35.10871], [-77.03907, 35.10886], [-77.03894, 35.10951], [-77.03987, 35.10961], [-77.03962, 35.11093], [-77.03993, 35.11097], [-77.03982, 35.11162], [-77.03971, 35.11224], [-77.03936, 35.1122], [-77.03925, 35.11278], [-77.03936, 35.11298], [-77.03874, 35.11331], [-77.03797, 35.11219], [-77.03735, 35.11134], [-77.03672, 35.11165], [-77.03647, 35.11136], [-77.036, 35.11161], [-77.034948, 35.11034], [-77.03489, 35.11027], [-77.035292, 35.110062], [-77.03545, 35.10998], [-77.03535, 35.10945], [-77.03565, 35.10773], [-77.03503, 35.10767], [-77.0351, 35.10726], [-77.03463, 35.1072], [-77.03476, 35.10666], [-77.034748, 35.106658], [-77.03463, 35.10664], [-77.034639, 35.106491], [-77.03464, 35.10648], [-77.03441, 35.10644], [-77.034421, 35.106315], [-77.03443, 35.10621]], [[-77.03572, 35.10954], [-77.03577, 35.10982], [-77.03599, 35.11007], [-77.0368, 35.10968], [-77.03657, 35.1094], [-77.03632, 35.1093], [-77.03605, 35.10933], [-77.03572, 35.10954]]], [[[-77.05851, 35.10701], [-77.06251, 35.10724], [-77.06226, 35.10992], [-77.061405, 35.110149], [-77.0614, 35.11015], [-77.061314, 35.110132], [-77.05817, 35.10948], [-77.05855, 35.1086], [-77.0587, 35.10752], [-77.05851, 35.10701]]]]}}, {"type": "Feature", "properties": {"area_id": 10152, "city": "New Bern", "state": "NC", "city_survey": false, "cat": "Blighted", "grade": null, "label": "Blighted", "res": true, "com": false, "ind": false, "holc_grade": null}, "geometry": {"type": "MultiPolygon", "coordinates": [[[[-77.05479, 35.10309], [-77.054922, 35.104433], [-77.05495, 35.10472], [-77.054919, 35.104722], [-77.05413, 35.10476], [-77.05417, 35.10539], [-77.05289, 35.10546], [-77.05295, 35.10607], [-77.05174, 35.10612], [-77.05012, 35.10629], [-77.05012, 35.10672], [-77.04874, 35.10485], [-77.04728, 35.10539], [-77.04687, 35.10483], [-77.04701, 35.10441], [-77.04841, 35.10434], [-77.048975, 35.103836], [-77.04943, 35.10343], [-77.049735, 35.103491], [-77.04988, 35.10352], [-77.05087, 35.10322], [-77.0515, 35.10346], [-77.05253, 35.10283], [-77.053253, 35.102913], [-77.053591, 35.102952], [-77.05479, 35.10309]]], [[[-77.05628, 35.11437], [-77.056256, 35.114593], [-77.05614, 35.11565], [-77.05638, 35.11564], [-77.056639, 35.115631], [-77.06177, 35.11545], [-77.06177, 35.11934], [-77.06005, 35.11919], [-77.06022, 35.11946], [-77.06027, 35.12035], [-77.05998, 35.120298], [-77.0596, 35.12023], [-77.05276, 35.11843], [-77.05225, 35.11786], [-77.05569, 35.11568], [-77.05559, 35.11556], [-77.05451, 35.11533], [-77.05367, 35.11444], [-77.05326, 35.11433], [-77.05228, 35.11501], [-77.0509, 35.11594], [-77.05015, 35.11638], [-77.04901, 35.1154], [-77.04897, 35.11232], [-77.05289, 35.11274], [-77.05287, 35.11241], [-77.05316, 35.11241], [-77.05313, 35.11223], [-77.05305, 35.11183], [-77.05302, 35.11146], [-77.05244, 35.11147], [-77.05097, 35.11152], [-77.05013, 35.11153], [-77.0501, 35.11057], [-77.04972, 35.11057], [-77.04967, 35.1088], [-77.05082, 35.1088], [-77.05085, 35.10866], [-77.05239, 35.10865], [-77.05239, 35.10878], [-77.05315, 35.10881], [-77.05313, 35.1089], [-77.05357, 35.10894], [-77.05355, 35.10899], [-77.05424, 35.10908], [-77.05424, 35.10914], [-77.05498, 35.10924], [-77.05499, 35.10928], [-77.05539, 35.10933], [-77.05518, 35.11075], [-77.05496, 35.11193], [-77.05433, 35.11225], [-77.05483, 35.11232], [-77.05476, 35.1128], [-77.05355, 35.11258], [-77.05398, 35.11346], [-77.05602, 35.11411], [-77.05622, 35.11431], [-77.05628, 35.11437]]], [[[-77.05112, 35.12546], [-77.05068, 35.12495], [-77.05024, 35.12445], [-77.05093, 35.12404], [-77.05136, 35.12455], [-77.05104, 35.12477], [-77.05144, 35.12525], [-77.05112, 35.12546]]], [[[-77.05948, 35.12218], [-77.060016, 35.122716], [-77.06016, 35.12286], [-77.059801, 35.122997], [-77.059004, 35.123301], [-77.05856, 35.12347], [-77.0568, 35.12395], [-77.05498, 35.12471], [-77.05417, 35.12534], [-77.053919, 35.125264], [-77.05325, 35.12506], [-77.05544, 35.12364], [-77.05529, 35.12346], [-77.05797, 35.12179], [-77.05786, 35.12164], [-77.05809, 35.12133], [-77.05776, 35.12097], [-77.05794, 35.12087], [-77.05741, 35.12074], [-77.05721, 35.1209], [-77.05688, 35.12115], [-77.05623, 35.12044], [-77.0557, 35.12024], [-77.05661, 35.12003], [-77.05768, 35.11998], [-77.0596, 35.12053], [-77.059979, 35.120617], [-77.06142, 35.12095], [-77.06113, 35.12168], [-77.06057, 35.12155], [-77.060173, 35.12178], [-77.05948, 35.12218]]]]}}, {"type": "Feature", "properties": {"area_id": 10151, "city": "New Bern", "state": "NC", "city_survey": false, "cat": "Good Residential Section", "grade": null, "label": "Good Residential Section", "res": true, "com": false, "ind": false, "holc_grade": null}, "geometry": {"type": "MultiPolygon", "coordinates": [[[[-77.03797, 35.1059], [-77.03783, 35.1066], [-77.0383, 35.10668], [-77.03803, 35.10802], [-77.03758, 35.10796], [-77.03773, 35.10725], [-77.03661, 35.1071], [-77.03676, 35.10647], [-77.03589, 35.10637], [-77.03632, 35.10445], [-77.03711, 35.10455], [-77.03688, 35.10579], [-77.03797, 35.1059]]], [[[-77.047715, 35.10887], [-77.04774, 35.1086], [-77.04732, 35.10859], [-77.04724, 35.10893], [-77.04328, 35.10907], [-77.04317, 35.10969], [-77.0427, 35.10971], [-77.04254, 35.11036], [-77.04138, 35.1104], [-77.0411, 35.11175], [-77.0406, 35.11176], [-77.03982, 35.11162], [-77.03993, 35.11097], [-77.03962, 35.11093], [-77.03987, 35.10961], [-77.041, 35.10979], [-77.04116, 35.10912], [-77.04069, 35.10907], [-77.04081, 35.10841], [-77.0413, 35.10847], [-77.04163, 35.10671], [-77.04115, 35.10669], [-77.04115, 35.10604], [-77.04174, 35.10611], [-77.04495, 35.1061], [-77.04485, 35.10657], [-77.04818, 35.1065], [-77.04817, 35.10681], [-77.0486, 35.10683], [-77.04844, 35.10751], [-77.048, 35.10751], [-77.04783, 35.10826], [-77.049012, 35.108222], [-77.04907, 35.10822], [-77.04837, 35.10858], [-77.04771, 35.10893], [-77.047715, 35.10887]]], [[[-77.04905, 35.11941], [-77.05005, 35.12061], [-77.04959, 35.12091], [-77.05067, 35.12232], [-77.05023, 35.12254], [-77.0496, 35.12189], [-77.04894, 35.12227], [-77.04823, 35.1227], [-77.04618, 35.12025], [-77.04627, 35.1202], [-77.04532, 35.11908], [-77.04723, 35.11799], [-77.04778, 35.11767], [-77.04918, 35.11932], [-77.04905, 35.11941]]], [[[-77.05498, 35.10549], [-77.05708, 35.10461], [-77.05918, 35.10409], [-77.0678, 35.10312], [-77.06813, 35.10524], [-77.06263, 35.10639], [-77.06251, 35.10724], [-77.05851, 35.10701], [-77.05848, 35.10658], [-77.05514, 35.10659], [-77.05508, 35.10615], [-77.05498, 35.10549]]], [[[-77.05687, 35.10922], [-77.05817, 35.10948], [-77.061314, 35.110132], [-77.0614, 35.11015], [-77.06219, 35.11036], [-77.06206, 35.11093], [-77.05679, 35.10986], [-77.05683, 35.109544], [-77.056862, 35.109285], [-77.05687, 35.10922]]]]}}, {"type": "Feature", "properties": {"area_id": 10153, "city": "New Bern", "state": "NC", "city_survey": false, "cat": "Industrial Areas", "grade": null, "label": "Industrial Areas", "res": false, "com": false, "ind": true, "holc_grade": null}, "geometry": {"type": "MultiPolygon", "coordinates": [[[[-77.04658, 35.10328], [-77.046992, 35.104363], [-77.04701, 35.10441], [-77.046738, 35.104401], [-77.04526, 35.10435], [-77.045213, 35.104547], [-77.0451, 35.10502], [-77.04346, 35.10509], [-77.0419, 35.1052], [-77.04174, 35.10611], [-77.04115, 35.10604], [-77.04115, 35.10669], [-77.04163, 35.10671], [-77.0413, 35.10847], [-77.04081, 35.10841], [-77.04069, 35.10907], [-77.03954, 35.10893], [-77.03959, 35.10866], [-77.03914, 35.10859], [-77.03936, 35.10748], [-77.03897, 35.10741], [-77.0383, 35.10668], [-77.03783, 35.1066], [-77.03797, 35.1059], [-77.03711, 35.10455], [-77.03632, 35.10445], [-77.036473, 35.103593], [-77.03661, 35.10282], [-77.039938, 35.103015], [-77.0407, 35.10306], [-77.041097, 35.103075], [-77.042335, 35.103121], [-77.042438, 35.103125], [-77.04658, 35.10328]]], [[[-77.03632, 35.10445], [-77.03589, 35.10637], [-77.034814, 35.106252], [-77.03443, 35.10621], [-77.03392, 35.10616], [-77.03433, 35.10418], [-77.034705, 35.104231], [-77.03632, 35.10445]]], [[[-77.04017, 35.1182], [-77.03951, 35.11747], [-77.03783, 35.1156], [-77.03587, 35.11326], [-77.036407, 35.112988], [-77.03658, 35.1129], [-77.036899, 35.113191], [-77.037084, 35.11336], [-77.03715, 35.11342], [-77.03774, 35.11386], [-77.03874, 35.11337], [-77.03854, 35.11376], [-77.03851, 35.11408], [-77.0387, 35.11444], [-77.03883, 35.11455], [-77.04062, 35.11246], [-77.04261, 35.11503], [-77.04273, 35.11519], [-77.04252, 35.11529], [-77.0436, 35.11608], [-77.0424, 35.11629], [-77.04317, 35.11722], [-77.04227, 35.11786], [-77.043296, 35.119129], [-77.0448, 35.12099], [-77.04575, 35.12042], [-77.04854, 35.12374], [-77.04962, 35.12309], [-77.05035, 35.12405], [-77.0501, 35.12419], [-77.05024, 35.12445], [-77.05068, 35.12495], [-77.049911, 35.125454], [-77.04856, 35.12634], [-77.0461, 35.12433], [-77.04334, 35.12227], [-77.04158, 35.11986], [-77.04017, 35.1182]]], [[[-77.04959, 35.11642], [-77.04778, 35.11767], [-77.04723, 35.11799], [-77.04694, 35.11769], [-77.046248, 35.116952], [-77.04619, 35.11689], [-77.046229, 35.116866], [-77.04736, 35.11617], [-77.04784, 35.11659], [-77.04891, 35.11585], [-77.04901, 35.11578], [-77.04959, 35.11642]]], [[[-77.05239, 35.10865], [-77.05085, 35.10866], [-77.05082, 35.1088], [-77.04967, 35.1088], [-77.0492, 35.10884], [-77.04917, 35.10862], [-77.04868, 35.10921], [-77.0486, 35.10894], [-77.04837, 35.10858], [-77.04907, 35.10822], [-77.049086, 35.108212], [-77.05141, 35.10707], [-77.05158, 35.10827], [-77.05239, 35.10839], [-77.05239, 35.108406], [-77.05239, 35.10865]]]]}}, {"type": "Feature", "properties": {"area_id": 10154, "city": "New Bern", "state": "NC", "city_survey": false, "cat": "Poor Residential Section", "grade": null, "label": "Poor Residential Section", "res": true, "com": false, "ind": false, "holc_grade": null}, "geometry": {"type": "MultiPolygon", "coordinates": [[[[-77.03797, 35.11219], [-77.03874, 35.11331], [-77.03874, 35.11337], [-77.03774, 35.11386], [-77.03715, 35.11342], [-77.037084, 35.11336], [-77.036899, 35.113191], [-77.03658, 35.1129], [-77.035598, 35.112265], [-77.03556, 35.11224], [-77.035585, 35.112227], [-77.03672, 35.11165], [-77.03735, 35.11134], [-77.03797, 35.11219]]], [[[-77.04619, 35.11689], [-77.046248, 35.116952], [-77.04694, 35.11769], [-77.04471, 35.11891], [-77.04497, 35.11927], [-77.04532, 35.11908], [-77.04627, 35.1202], [-77.04618, 35.12025], [-77.04823, 35.1227], [-77.04894, 35.12227], [-77.0496, 35.12189], [-77.05023, 35.12254], [-77.04962, 35.12309], [-77.04854, 35.12374], [-77.04575, 35.12042], [-77.0448, 35.12099], [-77.043296, 35.119129], [-77.04227, 35.11786], [-77.04317, 35.11722], [-77.0424, 35.11629], [-77.0436, 35.11608], [-77.04432, 35.11648], [-77.04598, 35.11697], [-77.04619, 35.11689]]], [[[-77.04619, 35.11689], [-77.044794, 35.11512], [-77.044634, 35.114918], [-77.04447, 35.11471], [-77.044432, 35.112107], [-77.04443, 35.11197], [-77.04548, 35.11195], [-77.04543, 35.1104], [-77.0452, 35.11018], [-77.044397, 35.110578], [-77.04173, 35.1119], [-77.04398, 35.11468], [-77.04261, 35.11503], [-77.04062, 35.11246], [-77.03936, 35.11298], [-77.03925, 35.11278], [-77.03936, 35.1122], [-77.03971, 35.11224], [-77.03982, 35.11162], [-77.0406, 35.11176], [-77.0411, 35.11175], [-77.04138, 35.1104], [-77.04254, 35.11036], [-77.0427, 35.10971], [-77.04317, 35.10969], [-77.04328, 35.10907], [-77.04724, 35.10893], [-77.04732, 35.10859], [-77.04774, 35.1086], [-77.047715, 35.10887], [-77.04771, 35.10893], [-77.04837, 35.10858], [-77.0486, 35.10894], [-77.04868, 35.10921], [-77.04917, 35.10862], [-77.0492, 35.10884], [-77.04967, 35.1088], [-77.04972, 35.11057], [-77.0501, 35.11057], [-77.05013, 35.11153], [-77.05097, 35.11152], [-77.05244, 35.11147], [-77.05302, 35.11146], [-77.05305, 35.11183], [-77.05313, 35.11223], [-77.05316, 35.11241], [-77.05287, 35.11241], [-77.05289, 35.11274], [-77.04897, 35.11232], [-77.04901, 35.1154], [-77.05015, 35.11638], [-77.0509, 35.11594], [-77.05228, 35.11501], [-77.05326, 35.11433], [-77.05367, 35.11444], [-77.05451, 35.11533], [-77.05559, 35.11556], [-77.05569, 35.11568], [-77.05225, 35.11786], [-77.052, 35.1176], [-77.0511, 35.11816], [-77.0531, 35.11869], [-77.05172, 35.11957], [-77.05005, 35.12061], [-77.04905, 35.11941], [-77.04918, 35.11932], [-77.04778, 35.11767], [-77.04959, 35.11642], [-77.04901, 35.11578], [-77.04891, 35.11585], [-77.0476, 35.11464], [-77.04617, 35.11465], [-77.04617, 35.11503], [-77.04736, 35.11617], [-77.046229, 35.116866], [-77.04619, 35.11689]]], [[[-77.05508, 35.10615], [-77.05444, 35.1062], [-77.05441, 35.10659], [-77.05514, 35.10659], [-77.05538, 35.10897], [-77.05687, 35.10922], [-77.056862, 35.109285], [-77.05683, 35.109544], [-77.05679, 35.10986], [-77.05628, 35.11437], [-77.05622, 35.11431], [-77.05602, 35.11411], [-77.05398, 35.11346], [-77.05355, 35.11258], [-77.05476, 35.1128], [-77.05483, 35.11232], [-77.05433, 35.11225], [-77.05496, 35.11193], [-77.05518, 35.11075], [-77.05539, 35.10933], [-77.05499, 35.10928], [-77.05498, 35.10924], [-77.05424, 35.10914], [-77.05424, 35.10908], [-77.05355, 35.10899], [-77.05357, 35.10894], [-77.05313, 35.1089], [-77.05315, 35.10881], [-77.05239, 35.10878], [-77.05239, 35.10865], [-77.05239, 35.108406], [-77.05239, 35.10839], [-77.05158, 35.10827], [-77.05141, 35.10707], [-77.049086, 35.108212], [-77.04907, 35.10822], [-77.049012, 35.108222], [-77.04783, 35.10826], [-77.048, 35.10751], [-77.04844, 35.10751], [-77.0486, 35.10683], [-77.04817, 35.10681], [-77.04818, 35.1065], [-77.04485, 35.10657], [-77.04495, 35.1061], [-77.04174, 35.10611], [-77.0419, 35.1052], [-77.04346, 35.10509], [-77.0451, 35.10502], [-77.045213, 35.104547], [-77.04526, 35.10435], [-77.046738, 35.104401], [-77.04701, 35.10441], [-77.04687, 35.10483], [-77.04728, 35.10539], [-77.04874, 35.10485], [-77.05012, 35.10672], [-77.05012, 35.10629], [-77.05174, 35.10612], [-77.05295, 35.10607], [-77.05289, 35.10546], [-77.05417, 35.10539], [-77.05413, 35.10476], [-77.054919, 35.104722], [-77.05495, 35.10472], [-77.054973, 35.105305], [-77.054976, 35.105394], [-77.05498, 35.10549], [-77.05508, 35.10615]]], [[[-77.05218, 35.12473], [-77.05144, 35.12525], [-77.05104, 35.12477], [-77.05136, 35.12455], [-77.05093, 35.12404], [-77.05024, 35.12445], [-77.0501, 35.12419], [-77.05035, 35.12405], [-77.05072, 35.12376], [-77.05045, 35.12346], [-77.051, 35.12311], [-77.05117, 35.1232], [-77.05568, 35.12037], [-77.05655, 35.12134], [-77.05688, 35.12115], [-77.05721, 35.1209], [-77.05786, 35.12164], [-77.05797, 35.12179], [-77.05529, 35.12346], [-77.05544, 35.12364], [-77.05325, 35.12506], [-77.05218, 35.12473]], [[-77.05448, 35.12327], [-77.05369, 35.12239], [-77.05146, 35.12381], [-77.05218, 35.12473], [-77.05448, 35.12327]]], [[[-77.06777, 35.11865], [-77.06716, 35.11966], [-77.06676, 35.12049], [-77.06588, 35.11951], [-77.06374, 35.11724], [-77.06355, 35.1167], [-77.06435, 35.11694], [-77.06458, 35.11639], [-77.06829, 35.11754], [-77.06805, 35.1181], [-77.06777, 35.11865]]]]}}]}