{"type": "FeatureCollection", "features": [{"type": "Feature", "properties": {"area_id": 10516, "city": "Orangeburg", "state": "SC", "city_survey": false, "cat": "Best Colored", "grade": null, "label": "Best Colored", "res": true, "com": false, "ind": false, "fill": "#bba349", "GEOID10": "45075011400", "GISJOIN": "G4500750011400", "calc_area": 96747.84818, "pct_tract": 0.01929}, "geometry": {"type": "MultiPolygon", "coordinates": [[[[-80.85796, 33.49635], [-80.85705, 33.49675], [-80.85655, 33.49576], [-80.85671, 33.49549], [-80.85703, 33.49536], [-80.85705, 33.49523], [-80.85635, 33.49412], [-80.85654, 33.4938], [-80.85718, 33.4934], [-80.85812, 33.49459], [-80.85875, 33.49562], [-80.85901, 33.49565], [-80.86101, 33.49835], [-80.86032, 33.4993], [-80.85998, 33.49929], [-80.85947, 33.49885], [-80.85863, 33.49734], [-80.85796, 33.49635]]]]}}, {"type": "Feature", "properties": {"area_id": 10516, "city": "Orangeburg", "state": "SC", "city_survey": false, "cat": "Best Colored", "grade": null, "label": "Best Colored", "res": true, "com": false, "ind": false, "fill": "#bba349", "GEOID10": "45075011200", "GISJOIN": "G4500750011200", "calc_area": 119101.99679, "pct_tract": 0.05699}, "geometry": {"type": "MultiPolygon", "coordinates": [[[[-80.84406, 33.49435], [-80.8438, 33.49394], [-80.84579, 33.49322], [-80.84684, 33.49492], [-80.84713, 33.49486], [-80.84791, 33.49624], [-80.84497, 33.49741], [-80.8434, 33.49804], [-80.84299, 33.49721], [-80.84252, 33.49665], [-80.84334, 33.49645], [-80.84497, 33.49582], [-80.84517, 33.49568], [-80.84406, 33.49435]]]]}}, {"type": "Feature", "properties": {"area_id": 10517, "city": "Orangeburg", "state": "SC", "city_survey": false, "cat": "Wholesale", "grade": null, "label": "Wholesale", "res": false, "com": true, "ind": false, "fill": "#3f81ae", "GEOID10": "45075011400", "GISJOIN": "G4500750011400", "calc_area": 101603.59545, "pct_tract": 0.02026}, "geometry": {"type": "MultiPolygon", "coordinates": [[[[-80.87018, 33.48518], [-80.87159, 33.48679], [-80.87172, 33.48695], [-80.87051, 33.48798], [-80.86915, 33.48677], [-80.868608, 33.486281], [-80.868851, 33.486092], [-80.869012, 33.485969], [-80.869053, 33.485936], [-80.86918, 33.485839], [-80.869222, 33.485807], [-80.869284, 33.485757], [-80.869472, 33.485612], [-80.869535, 33.485564], [-80.869648, 33.485476], [-80.86994, 33.48525], [-80.87018, 33.48518]]], [[[-80.85591, 33.49637], [-80.85601, 33.49555], [-80.85666, 33.49526], [-80.85671, 33.49549], [-80.85655, 33.49576], [-80.85705, 33.49675], [-80.85702, 33.49701], [-80.85582, 33.50016], [-80.855114, 33.500498], [-80.855107, 33.500376], [-80.8551, 33.500261], [-80.854977, 33.50028], [-80.85473, 33.49987], [-80.854769, 33.499622], [-80.854901, 33.499316], [-80.85515, 33.498669], [-80.855315, 33.498244], [-80.855547, 33.497425], [-80.855578, 33.49728], [-80.855595, 33.497203], [-80.85591, 33.49637]]]]}}, {"type": "Feature", "properties": {"area_id": 10517, "city": "Orangeburg", "state": "SC", "city_survey": false, "cat": "Wholesale", "grade": null, "label": "Wholesale", "res": false, "com": true, "ind": false, "fill": "#3f81ae", "GEOID10": "45075011200", "GISJOIN": "G4500750011200", "calc_area": 53372.79134, "pct_tract": 0.02554}, "geometry": {"type": "MultiPolygon", "coordinates": [[[[-80.84461, 33.49206], [-80.84265, 33.49308], [-80.8411, 33.49402], [-80.840533, 33.493137], [-80.840671, 33.49306], [-80.841136, 33.492802], [-80.8413, 33.49271], [-80.841792, 33.492435], [-80.841957, 33.492344], [-80.842126, 33.492249], [-80.842634, 33.491967], [-80.842804, 33.491873], [-80.843162, 33.491672], [-80.844238, 33.491072], [-80.844389, 33.490988], [-80.844468, 33.490944], [-80.844597, 33.490872], [-80.84465, 33.490876], [-80.84481, 33.490893], [-80.844864, 33.490901], [-80.844911, 33.490969], [-80.844912, 33.49097], [-80.845039, 33.491152], [-80.845283, 33.491499], [-80.845421, 33.491702], [-80.84461, 33.49206]]], [[[-80.85483, 33.49923], [-80.855595, 33.497203], [-80.855578, 33.49728], [-80.855547, 33.497425], [-80.855315, 33.498244], [-80.85515, 33.498669], [-80.854901, 33.499316], [-80.854769, 33.499622], [-80.85483, 33.49923]]]]}}, {"type": "Feature", "properties": {"area_id": 10517, "city": "Orangeburg", "state": "SC", "city_survey": false, "cat": "Wholesale", "grade": null, "label": "Wholesale", "res": false, "com": true, "ind": false, "fill": "#3f81ae", "GEOID10": "45075011300", "GISJOIN": "G4500750011300", "calc_area": 124238.48999, "pct_tract": 0.03288}, "geometry": {"type": "MultiPolygon", "coordinates": [[[[-80.8579, 33.48276], [-80.85898, 33.4838], [-80.85771, 33.48507], [-80.8558, 33.48647], [-80.85512, 33.48599], [-80.85482, 33.48559], [-80.85446, 33.48568], [-80.854274, 33.485532], [-80.854297, 33.485519], [-80.854209, 33.484963], [-80.854174, 33.484741], [-80.8579, 33.48276]]], [[[-80.86843, 33.48612], [-80.86946, 33.48518], [-80.86977, 33.4853], [-80.86994, 33.48525], [-80.869648, 33.485476], [-80.869535, 33.485564], [-80.869472, 33.485612], [-80.869284, 33.485757], [-80.869222, 33.485807], [-80.86918, 33.485839], [-80.869053, 33.485936], [-80.869012, 33.485969], [-80.868851, 33.486092], [-80.868608, 33.486281], [-80.86843, 33.48612]]], [[[-80.86212, 33.48886], [-80.8627, 33.48972], [-80.86242, 33.48985], [-80.86107, 33.4906], [-80.86035, 33.48971], [-80.86212, 33.48886]]], [[[-80.84608, 33.49114], [-80.84554, 33.49165], [-80.845421, 33.491702], [-80.845283, 33.491499], [-80.845039, 33.491152], [-80.844912, 33.49097], [-80.844911, 33.490969], [-80.844864, 33.490901], [-80.84481, 33.490893], [-80.84465, 33.490876], [-80.844597, 33.490872], [-80.845439, 33.490401], [-80.845456, 33.490392], [-80.84608, 33.49114]]]]}}, {"type": "Feature", "properties": {"area_id": 10517, "city": "Orangeburg", "state": "SC", "city_survey": false, "cat": "Wholesale", "grade": null, "label": "Wholesale", "res": false, "com": true, "ind": false, "fill": "#3f81ae", "GEOID10": "45075011000", "GISJOIN": "G4500750011000", "calc_area": 157.77588, "pct_tract": 1e-05}, "geometry": {"type": "MultiPolygon", "coordinates": [[[[-80.85511, 33.5005], [-80.854977, 33.50028], [-80.8551, 33.500261], [-80.855107, 33.500376], [-80.855114, 33.500498], [-80.85511, 33.5005]]]]}}, {"type": "Feature", "properties": {"area_id": 10517, "city": "Orangeburg", "state": "SC", "city_survey": false, "cat": "Wholesale", "grade": null, "label": "Wholesale", "res": false, "com": true, "ind": false, "fill": "#3f81ae", "GEOID10": "45075010700", "GISJOIN": "G4500750010700", "calc_area": 71574.64147, "pct_tract": 0.00071}, "geometry": {"type": "MultiPolygon", "coordinates": [[[[-80.84051, 33.4931], [-80.84029, 33.49276], [-80.83998, 33.49177], [-80.84023, 33.49155], [-80.84161, 33.49108], [-80.84204, 33.491], [-80.84271, 33.49049], [-80.84313, 33.49021], [-80.8437, 33.48994], [-80.84416, 33.48981], [-80.84426, 33.48967], [-80.84502, 33.48987], [-80.845456, 33.490392], [-80.845439, 33.490401], [-80.844597, 33.490872], [-80.844468, 33.490944], [-80.844389, 33.490988], [-80.844238, 33.491072], [-80.843162, 33.491672], [-80.842804, 33.491873], [-80.842634, 33.491967], [-80.842126, 33.492249], [-80.841957, 33.492344], [-80.841792, 33.492435], [-80.8413, 33.49271], [-80.841136, 33.492802], [-80.840671, 33.49306], [-80.840533, 33.493137], [-80.84051, 33.4931]]]]}}, {"type": "Feature", "properties": {"area_id": 10517, "city": "Orangeburg", "state": "SC", "city_survey": false, "cat": "Wholesale", "grade": null, "label": "Wholesale", "res": false, "com": true, "ind": false, "fill": "#3f81ae", "GEOID10": "45075010600", "GISJOIN": "G4500750010600", "calc_area": 2457.43358, "pct_tract": 1e-05}, "geometry": {"type": "MultiPolygon", "coordinates": [[[[-80.85407, 33.48537], [-80.85363, 33.48503], [-80.854174, 33.484741], [-80.854209, 33.484963], [-80.854297, 33.485519], [-80.854274, 33.485532], [-80.85407, 33.48537]]]]}}, {"type": "Feature", "properties": {"area_id": 10518, "city": "Orangeburg", "state": "SC", "city_survey": false, "cat": "Professional + Retail Bus.", "grade": null, "label": "Professional + Retail Bus.", "res": false, "com": true, "ind": false, "fill": "#36a191", "GEOID10": "45075011400", "GISJOIN": "G4500750011400", "calc_area": 141654.23095, "pct_tract": 0.02825}, "geometry": {"type": "MultiPolygon", "coordinates": [[[[-80.86775, 33.48782], [-80.86646, 33.48897], [-80.86727, 33.4897], [-80.86661, 33.49035], [-80.86627, 33.4901], [-80.86546, 33.49086], [-80.8634, 33.49216], [-80.86324, 33.49207], [-80.86278, 33.49245], [-80.86234, 33.49183], [-80.86186, 33.49173], [-80.86173, 33.49145], [-80.86078, 33.49199], [-80.86048, 33.49148], [-80.861043, 33.491043], [-80.861326, 33.49092], [-80.861427, 33.490877], [-80.861599, 33.4908], [-80.862115, 33.490571], [-80.862288, 33.490495], [-80.862444, 33.490426], [-80.862908, 33.490221], [-80.862911, 33.490218], [-80.862937, 33.490205], [-80.863073, 33.490164], [-80.863252, 33.49011], [-80.863653, 33.489991], [-80.863781, 33.489961], [-80.863794, 33.489956], [-80.863971, 33.489892], [-80.864083, 33.48982], [-80.864263, 33.489676], [-80.865116, 33.488999], [-80.865401, 33.488774], [-80.86559, 33.488625], [-80.86616, 33.488183], [-80.86635, 33.488037], [-80.866453, 33.487955], [-80.866762, 33.487715], [-80.866866, 33.487635], [-80.867134, 33.487425], [-80.867204, 33.487371], [-80.86775, 33.48782]]], [[[-80.85682, 33.49321], [-80.85718, 33.4934], [-80.85654, 33.4938], [-80.85635, 33.49412], [-80.85705, 33.49523], [-80.85703, 33.49536], [-80.85671, 33.49549], [-80.85666, 33.49526], [-80.85601, 33.49555], [-80.85567, 33.49386], [-80.855615, 33.493822], [-80.855537, 33.493303], [-80.855556, 33.493294], [-80.855614, 33.493271], [-80.855634, 33.493264], [-80.855757, 33.493215], [-80.856126, 33.493071], [-80.85625, 33.493024], [-80.856625, 33.492888], [-80.856703, 33.49286], [-80.85682, 33.49321]]]]}}, {"type": "Feature", "properties": {"area_id": 10518, "city": "Orangeburg", "state": "SC", "city_survey": false, "cat": "Professional + Retail Bus.", "grade": null, "label": "Professional + Retail Bus.", "res": false, "com": true, "ind": false, "fill": "#36a191", "GEOID10": "45075011200", "GISJOIN": "G4500750011200", "calc_area": 1328.53696, "pct_tract": 0.00064}, "geometry": {"type": "MultiPolygon", "coordinates": [[[[-80.85504, 33.49342], [-80.855039, 33.493417], [-80.855269, 33.493378], [-80.855399, 33.493358], [-80.855426, 33.493346], [-80.855509, 33.493313], [-80.855537, 33.493303], [-80.855615, 33.493822], [-80.85504, 33.49342]]]]}}, {"type": "Feature", "properties": {"area_id": 10518, "city": "Orangeburg", "state": "SC", "city_survey": false, "cat": "Professional + Retail Bus.", "grade": null, "label": "Professional + Retail Bus.", "res": false, "com": true, "ind": false, "fill": "#36a191", "GEOID10": "45075011300", "GISJOIN": "G4500750011300", "calc_area": 95743.5986, "pct_tract": 0.02534}, "geometry": {"type": "MultiPolygon", "coordinates": [[[[-80.86128, 33.49086], [-80.86107, 33.4906], [-80.86242, 33.48985], [-80.8627, 33.48972], [-80.86212, 33.48886], [-80.86227, 33.48873], [-80.86378, 33.48746], [-80.86361, 33.48723], [-80.86429, 33.48662], [-80.86564, 33.48792], [-80.86685, 33.48708], [-80.867204, 33.487371], [-80.867134, 33.487425], [-80.866866, 33.487635], [-80.866762, 33.487715], [-80.866453, 33.487955], [-80.86635, 33.488037], [-80.86616, 33.488183], [-80.86559, 33.488625], [-80.865401, 33.488774], [-80.865116, 33.488999], [-80.864263, 33.489676], [-80.864083, 33.48982], [-80.863971, 33.489892], [-80.863794, 33.489956], [-80.863781, 33.489961], [-80.863653, 33.489991], [-80.863252, 33.49011], [-80.863073, 33.490164], [-80.862937, 33.490205], [-80.862911, 33.490218], [-80.862908, 33.490221], [-80.862444, 33.490426], [-80.862288, 33.490495], [-80.862115, 33.490571], [-80.861599, 33.4908], [-80.861427, 33.490877], [-80.861326, 33.49092], [-80.861043, 33.491043], [-80.86128, 33.49086]]], [[[-80.85489, 33.49291], [-80.85543, 33.49289], [-80.85564, 33.4928], [-80.85627, 33.49252], [-80.85655, 33.4924], [-80.856703, 33.49286], [-80.856625, 33.492888], [-80.85625, 33.493024], [-80.856126, 33.493071], [-80.855757, 33.493215], [-80.855634, 33.493264], [-80.855614, 33.493271], [-80.855556, 33.493294], [-80.855537, 33.493303], [-80.855509, 33.493313], [-80.855426, 33.493346], [-80.855399, 33.493358], [-80.855269, 33.493378], [-80.855039, 33.493417], [-80.85489, 33.49291]]]]}}, {"type": "Feature", "properties": {"area_id": 10519, "city": "Orangeburg", "state": "SC", "city_survey": false, "cat": "Industrial", "grade": null, "label": "Industrial", "res": false, "com": false, "ind": true, "fill": "#34362b", "GEOID10": "45075011500", "GISJOIN": "G4500750011500", "calc_area": 7615.22033, "pct_tract": 0.00016}, "geometry": {"type": "MultiPolygon", "coordinates": [[[[-80.87534, 33.48912], [-80.87625, 33.48998], [-80.875955, 33.490078], [-80.875864, 33.489927], [-80.875843, 33.489895], [-80.875794, 33.489838], [-80.875749, 33.489778], [-80.875709, 33.489715], [-80.875643, 33.489623], [-80.875572, 33.489535], [-80.875269, 33.489232], [-80.875184, 33.489151], [-80.875109, 33.489115], [-80.875069, 33.489102], [-80.874994, 33.489067], [-80.874798, 33.488996], [-80.874762, 33.488976], [-80.874736, 33.488948], [-80.874703, 33.488925], [-80.874473, 33.48883], [-80.874287, 33.488738], [-80.874183, 33.488675], [-80.874118, 33.488629], [-80.874064, 33.488573], [-80.874019, 33.488513], [-80.873991, 33.488486], [-80.873924, 33.488395], [-80.873853, 33.488265], [-80.873781, 33.488098], [-80.873726, 33.488001], [-80.873514, 33.48768], [-80.87534, 33.48912]]]]}}, {"type": "Feature", "properties": {"area_id": 10519, "city": "Orangeburg", "state": "SC", "city_survey": false, "cat": "Industrial", "grade": null, "label": "Industrial", "res": false, "com": false, "ind": true, "fill": "#34362b", "GEOID10": "45075011400", "GISJOIN": "G4500750011400", "calc_area": 109024.67644, "pct_tract": 0.02174}, "geometry": {"type": "MultiPolygon", "coordinates": [[[[-80.87018, 33.48518], [-80.86994, 33.48525], [-80.869988, 33.485213], [-80.870102, 33.485126], [-80.870145, 33.485092], [-80.870146, 33.485091], [-80.87018, 33.48518]]], [[[-80.87483, 33.49045], [-80.87386, 33.49108], [-80.87326, 33.49056], [-80.87194, 33.4894], [-80.87127, 33.48879], [-80.87048, 33.48811], [-80.87051, 33.48798], [-80.87172, 33.48695], [-80.87159, 33.48679], [-80.8722, 33.48686], [-80.87307, 33.48733], [-80.873514, 33.48768], [-80.873726, 33.488001], [-80.873781, 33.488098], [-80.873853, 33.488265], [-80.873924, 33.488395], [-80.873991, 33.488486], [-80.874019, 33.488513], [-80.874064, 33.488573], [-80.874118, 33.488629], [-80.874183, 33.488675], [-80.874287, 33.488738], [-80.874473, 33.48883], [-80.874703, 33.488925], [-80.874736, 33.488948], [-80.874762, 33.488976], [-80.874798, 33.488996], [-80.874994, 33.489067], [-80.875069, 33.489102], [-80.875109, 33.489115], [-80.875184, 33.489151], [-80.875269, 33.489232], [-80.875572, 33.489535], [-80.875643, 33.489623], [-80.875709, 33.489715], [-80.875749, 33.489778], [-80.875794, 33.489838], [-80.875843, 33.489895], [-80.875864, 33.489927], [-80.875955, 33.490078], [-80.87483, 33.49045]]]]}}, {"type": "Feature", "properties": {"area_id": 10519, "city": "Orangeburg", "state": "SC", "city_survey": false, "cat": "Industrial", "grade": null, "label": "Industrial", "res": false, "com": false, "ind": true, "fill": "#34362b", "GEOID10": "45075011300", "GISJOIN": "G4500750011300", "calc_area": 375994.88894, "pct_tract": 0.09951}, "geometry": {"type": "MultiPolygon", "coordinates": [[[[-80.86977, 33.4853], [-80.86946, 33.48518], [-80.86881, 33.48465], [-80.86796, 33.4852], [-80.86751, 33.48487], [-80.86718, 33.4845], [-80.86605, 33.48232], [-80.86552, 33.47986], [-80.86555, 33.47962], [-80.86558, 33.47935], [-80.86789, 33.47823], [-80.86804, 33.47858], [-80.86816, 33.47933], [-80.86808, 33.47984], [-80.86809, 33.48042], [-80.86822, 33.48175], [-80.86852, 33.48292], [-80.86895, 33.48397], [-80.86945, 33.48459], [-80.87007, 33.48489], [-80.870146, 33.485091], [-80.870145, 33.485092], [-80.870102, 33.485126], [-80.869988, 33.485213], [-80.86994, 33.48525], [-80.86977, 33.4853]]], [[[-80.85403, 33.48596], [-80.85429, 33.48749], [-80.85499, 33.49004], [-80.85475, 33.49005], [-80.85386, 33.4901], [-80.85395, 33.49066], [-80.85062, 33.49081], [-80.8507, 33.49038], [-80.8486, 33.4903], [-80.8484, 33.49017], [-80.84712, 33.49002], [-80.846638, 33.489733], [-80.847081, 33.489487], [-80.847783, 33.489097], [-80.848293, 33.488814], [-80.848567, 33.488667], [-80.84957, 33.488131], [-80.850035, 33.487884], [-80.850849, 33.487449], [-80.850933, 33.487402], [-80.853005, 33.48625], [-80.85405, 33.485659], [-80.85403, 33.48596]]]]}}, {"type": "Feature", "properties": {"area_id": 10519, "city": "Orangeburg", "state": "SC", "city_survey": false, "cat": "Industrial", "grade": null, "label": "Industrial", "res": false, "com": false, "ind": true, "fill": "#34362b", "GEOID10": "45075010600", "GISJOIN": "G4500750010600", "calc_area": 208879.12758, "pct_tract": 0.0011}, "geometry": {"type": "MultiPolygon", "coordinates": [[[[-80.84601, 33.48936], [-80.84434, 33.48898], [-80.84374, 33.48847], [-80.84979, 33.48501], [-80.85059, 33.48599], [-80.85277, 33.48471], [-80.85306, 33.48527], [-80.85363, 33.48503], [-80.85407, 33.48537], [-80.85405, 33.485659], [-80.853005, 33.48625], [-80.850933, 33.487402], [-80.850849, 33.487449], [-80.850035, 33.487884], [-80.84957, 33.488131], [-80.848567, 33.488667], [-80.848293, 33.488814], [-80.847783, 33.489097], [-80.847081, 33.489487], [-80.846638, 33.489733], [-80.84601, 33.48936]]]]}}, {"type": "Feature", "properties": {"area_id": 10520, "city": "Orangeburg", "state": "SC", "city_survey": false, "cat": "Best Residential", "grade": null, "label": "Best Residential", "res": true, "com": false, "ind": false, "fill": "#8d6f73", "GEOID10": "45075011400", "GISJOIN": "G4500750011400", "calc_area": 452983.06305, "pct_tract": 0.09033}, "geometry": {"type": "MultiPolygon", "coordinates": [[[[-80.87518, 33.50112], [-80.8737, 33.50212], [-80.87228, 33.50291], [-80.8716, 33.50211], [-80.87123, 33.50191], [-80.87012, 33.50109], [-80.87009, 33.49995], [-80.87033, 33.4982], [-80.87012, 33.49739], [-80.86934, 33.49651], [-80.86857, 33.49559], [-80.87149, 33.49357], [-80.87322, 33.4932], [-80.874289, 33.494017], [-80.874261, 33.494037], [-80.873985, 33.494237], [-80.87316, 33.494838], [-80.872885, 33.495039], [-80.872609, 33.495229], [-80.872565, 33.495261], [-80.871803, 33.495829], [-80.871535, 33.49603], [-80.871417, 33.496129], [-80.871093, 33.496402], [-80.871062, 33.496423], [-80.870938, 33.496514], [-80.870854, 33.496574], [-80.870602, 33.496757], [-80.870519, 33.496818], [-80.870594, 33.496904], [-80.870822, 33.497162], [-80.870898, 33.497249], [-80.871042, 33.497422], [-80.871105, 33.497478], [-80.871802, 33.498097], [-80.872035, 33.498304], [-80.872128, 33.498387], [-80.872407, 33.498635], [-80.872501, 33.498719], [-80.872682, 33.49888], [-80.872875, 33.499052], [-80.87322, 33.499374], [-80.873398, 33.49954], [-80.873415, 33.499556], [-80.873467, 33.499603], [-80.873485, 33.49962], [-80.873505, 33.499639], [-80.873566, 33.499696], [-80.873587, 33.499716], [-80.87369, 33.499841], [-80.87376, 33.499916], [-80.873826, 33.499985], [-80.874188, 33.500325], [-80.874353, 33.500444], [-80.874467, 33.500527], [-80.874588, 33.50056], [-80.874635, 33.500602], [-80.874776, 33.500734], [-80.874823, 33.500778], [-80.875135, 33.501052], [-80.875195, 33.501105], [-80.87518, 33.50112]]], [[[-80.85682, 33.50248], [-80.85706, 33.50248], [-80.85802, 33.50281], [-80.85851, 33.5032], [-80.8589, 33.50272], [-80.86075, 33.49974], [-80.86055, 33.49951], [-80.86166, 33.49761], [-80.86256, 33.49627], [-80.86323, 33.49542], [-80.86469, 33.49654], [-80.86408, 33.49781], [-80.86385, 33.49829], [-80.86318, 33.49897], [-80.86088, 33.5028], [-80.859638, 33.504181], [-80.859615, 33.504163], [-80.859577, 33.504133], [-80.859443, 33.504049], [-80.859149, 33.503885], [-80.859003, 33.503824], [-80.858787, 33.503735], [-80.858511, 33.503636], [-80.858361, 33.503583], [-80.857803, 33.503396], [-80.857681, 33.503348], [-80.857409, 33.503241], [-80.857296, 33.503198], [-80.857294, 33.503197], [-80.856958, 33.50305], [-80.856846, 33.503001], [-80.856591, 33.50289], [-80.856445, 33.502827], [-80.85682, 33.50248]]]]}}, {"type": "Feature", "properties": {"area_id": 10520, "city": "Orangeburg", "state": "SC", "city_survey": false, "cat": "Best Residential", "grade": null, "label": "Best Residential", "res": true, "com": false, "ind": false, "fill": "#8d6f73", "GEOID10": "45075011000", "GISJOIN": "G4500750011000", "calc_area": 21836.29431, "pct_tract": 0.00149}, "geometry": {"type": "MultiPolygon", "coordinates": [[[[-80.85937, 33.50448], [-80.85823, 33.50425], [-80.85705, 33.50385], [-80.85658, 33.50356], [-80.85617, 33.50308], [-80.856445, 33.502827], [-80.856591, 33.50289], [-80.856846, 33.503001], [-80.856958, 33.50305], [-80.857294, 33.503197], [-80.857296, 33.503198], [-80.857409, 33.503241], [-80.857681, 33.503348], [-80.857803, 33.503396], [-80.858361, 33.503583], [-80.858511, 33.503636], [-80.858787, 33.503735], [-80.859003, 33.503824], [-80.859149, 33.503885], [-80.859443, 33.504049], [-80.859577, 33.504133], [-80.859615, 33.504163], [-80.859638, 33.504181], [-80.85937, 33.50448]]]]}}, {"type": "Feature", "properties": {"area_id": 10520, "city": "Orangeburg", "state": "SC", "city_survey": false, "cat": "Best Residential", "grade": null, "label": "Best Residential", "res": true, "com": false, "ind": false, "fill": "#8d6f73", "GEOID10": "45075010900", "GISJOIN": "G4500750010900", "calc_area": 288143.04774, "pct_tract": 0.00335}, "geometry": {"type": "MultiPolygon", "coordinates": [[[[-80.87432, 33.49404], [-80.87586, 33.49545], [-80.87829, 33.49723], [-80.87773, 33.4981], [-80.87621, 33.50008], [-80.875195, 33.501105], [-80.875135, 33.501052], [-80.874823, 33.500778], [-80.874776, 33.500734], [-80.874635, 33.500602], [-80.874588, 33.50056], [-80.874467, 33.500527], [-80.874353, 33.500444], [-80.874188, 33.500325], [-80.873826, 33.499985], [-80.87376, 33.499916], [-80.87369, 33.499841], [-80.873587, 33.499716], [-80.873566, 33.499696], [-80.873505, 33.499639], [-80.873485, 33.49962], [-80.873467, 33.499603], [-80.873415, 33.499556], [-80.873398, 33.49954], [-80.87322, 33.499374], [-80.872875, 33.499052], [-80.872682, 33.49888], [-80.872501, 33.498719], [-80.872407, 33.498635], [-80.872128, 33.498387], [-80.872035, 33.498304], [-80.871802, 33.498097], [-80.871105, 33.497478], [-80.871042, 33.497422], [-80.870898, 33.497249], [-80.870822, 33.497162], [-80.870594, 33.496904], [-80.870519, 33.496818], [-80.870602, 33.496757], [-80.870854, 33.496574], [-80.870938, 33.496514], [-80.871062, 33.496423], [-80.871093, 33.496402], [-80.871417, 33.496129], [-80.871535, 33.49603], [-80.871803, 33.495829], [-80.872565, 33.495261], [-80.872609, 33.495229], [-80.872885, 33.495039], [-80.87316, 33.494838], [-80.873985, 33.494237], [-80.874261, 33.494037], [-80.874289, 33.494017], [-80.87432, 33.49404]]]]}}, {"type": "Feature", "properties": {"area_id": 10521, "city": "Orangeburg", "state": "SC", "city_survey": false, "cat": "Blighted - Mixed Neighborhood Colored", "grade": null, "label": "Blighted - Mixed Neighborhood Colored", "res": true, "com": false, "ind": false, "fill": "#544c2f", "GEOID10": "45075011400", "GISJOIN": "G4500750011400", "calc_area": 646310.34137, "pct_tract": 0.12888}, "geometry": {"type": "MultiPolygon", "coordinates": [[[[-80.86915, 33.48677], [-80.87051, 33.48798], [-80.86947, 33.489], [-80.87071, 33.49018], [-80.87194, 33.4894], [-80.87326, 33.49056], [-80.87118, 33.49208], [-80.86905, 33.49051], [-80.8671, 33.49208], [-80.8666, 33.4917], [-80.86546, 33.49086], [-80.86627, 33.4901], [-80.86661, 33.49035], [-80.86727, 33.4897], [-80.86646, 33.48897], [-80.86775, 33.48782], [-80.867204, 33.487371], [-80.867942, 33.486798], [-80.868211, 33.48659], [-80.86837, 33.486465], [-80.868608, 33.486281], [-80.86915, 33.48677]]], [[[-80.86323, 33.49542], [-80.8629, 33.49476], [-80.86372, 33.49403], [-80.86361, 33.4937], [-80.86325, 33.49334], [-80.86321, 33.49294], [-80.86368, 33.49252], [-80.86403, 33.49233], [-80.86429, 33.49279], [-80.86481, 33.49232], [-80.86516, 33.4927], [-80.86546, 33.49302], [-80.86501, 33.49336], [-80.86565, 33.49404], [-80.86665, 33.49519], [-80.86774, 33.49437], [-80.86857, 33.49559], [-80.86934, 33.49651], [-80.86829, 33.49767], [-80.86751, 33.49685], [-80.86675, 33.49596], [-80.865, 33.49747], [-80.86505, 33.49785], [-80.86731, 33.49922], [-80.8668, 33.49945], [-80.86408, 33.49781], [-80.86469, 33.49654], [-80.86323, 33.49542]]], [[[-80.85702, 33.49701], [-80.85705, 33.49675], [-80.85796, 33.49635], [-80.85863, 33.49734], [-80.85947, 33.49885], [-80.85998, 33.49929], [-80.86032, 33.4993], [-80.86101, 33.49835], [-80.85901, 33.49565], [-80.86097, 33.49448], [-80.86256, 33.49627], [-80.86166, 33.49761], [-80.86055, 33.49951], [-80.86075, 33.49974], [-80.8589, 33.50272], [-80.85851, 33.5032], [-80.85802, 33.50281], [-80.85706, 33.50248], [-80.85664, 33.50189], [-80.8559, 33.50072], [-80.85582, 33.50016], [-80.85702, 33.49701]]]]}}, {"type": "Feature", "properties": {"area_id": 10521, "city": "Orangeburg", "state": "SC", "city_survey": false, "cat": "Blighted - Mixed Neighborhood Colored", "grade": null, "label": "Blighted - Mixed Neighborhood Colored", "res": true, "com": false, "ind": false, "fill": "#544c2f", "GEOID10": "45075011200", "GISJOIN": "G4500750011200", "calc_area": 802224.94808, "pct_tract": 0.38385}, "geometry": {"type": "MultiPolygon", "coordinates": [[[[-80.85234, 33.50467], [-80.85116, 33.50671], [-80.85104, 33.50725], [-80.85004, 33.50682], [-80.84906, 33.50602], [-80.84795, 33.50503], [-80.847071, 33.504422], [-80.847053, 33.5044], [-80.846801, 33.50415], [-80.84587, 33.50313], [-80.8454, 33.50281], [-80.845364, 33.502791], [-80.845217, 33.502653], [-80.845125, 33.502567], [-80.845068, 33.502509], [-80.844633, 33.502068], [-80.844489, 33.501921], [-80.844486, 33.501918], [-80.844477, 33.501908], [-80.844475, 33.501907], [-80.844457, 33.501888], [-80.843969, 33.501393], [-80.84389, 33.501309], [-80.843238, 33.50062], [-80.842744, 33.500097], [-80.842617, 33.499963], [-80.842438, 33.499778], [-80.842426, 33.499766], [-80.84199, 33.499323], [-80.841665, 33.499045], [-80.841511, 33.49894], [-80.841452, 33.498903], [-80.841331, 33.498829], [-80.841063, 33.498697], [-80.840968, 33.498649], [-80.840683, 33.49851], [-80.840589, 33.498464], [-80.840472, 33.49841], [-80.840121, 33.498251], [-80.840004, 33.498198], [-80.839868, 33.498247], [-80.839809, 33.498269], [-80.83979, 33.4982], [-80.83946, 33.49805], [-80.83866, 33.497], [-80.83703, 33.49575], [-80.836738, 33.495238], [-80.837121, 33.495026], [-80.837484, 33.494825], [-80.83839, 33.494327], [-80.838813, 33.494095], [-80.838873, 33.494062], [-80.839277, 33.493836], [-80.840533, 33.493137], [-80.8411, 33.49402], [-80.84265, 33.49308], [-80.84461, 33.49206], [-80.845421, 33.491702], [-80.845561, 33.491909], [-80.845734, 33.492165], [-80.845881, 33.492384], [-80.846325, 33.49304], [-80.846474, 33.493261], [-80.846498, 33.493399], [-80.846518, 33.493429], [-80.846808, 33.493876], [-80.846905, 33.494027], [-80.846946, 33.494092], [-80.847072, 33.494287], [-80.847115, 33.494352], [-80.84726, 33.494574], [-80.847449, 33.494866], [-80.84713, 33.49486], [-80.84684, 33.49492], [-80.84579, 33.49322], [-80.8438, 33.49394], [-80.84406, 33.49435], [-80.84517, 33.49568], [-80.84497, 33.49582], [-80.84334, 33.49645], [-80.84252, 33.49665], [-80.84299, 33.49721], [-80.8434, 33.49804], [-80.84497, 33.49741], [-80.84694, 33.50043], [-80.8488, 33.50313], [-80.85034, 33.50182], [-80.8517, 33.50089], [-80.85369, 33.49922], [-80.85466, 33.49943], [-80.85321, 33.50208], [-80.85334, 33.50247], [-80.853145, 33.503314], [-80.853117, 33.503376], [-80.853041, 33.503549], [-80.852735, 33.504233], [-80.85234, 33.50467]]]]}}, {"type": "Feature", "properties": {"area_id": 10521, "city": "Orangeburg", "state": "SC", "city_survey": false, "cat": "Blighted - Mixed Neighborhood Colored", "grade": null, "label": "Blighted - Mixed Neighborhood Colored", "res": true, "com": false, "ind": false, "fill": "#544c2f", "GEOID10": "45075011300", "GISJOIN": "G4500750011300", "calc_area": 883376.08895, "pct_tract": 0.2338}, "geometry": {"type": "MultiPolygon", "coordinates": [[[[-80.85311, 33.47693], [-80.85357, 33.47754], [-80.85363, 33.47777], [-80.85401, 33.47861], [-80.85429, 33.47884], [-80.85459, 33.47933], [-80.85498, 33.48038], [-80.8579, 33.48276], [-80.854174, 33.484741], [-80.853945, 33.483297], [-80.853857, 33.482743], [-80.853727, 33.481932], [-80.85334, 33.479501], [-80.853218, 33.478736], [-80.853211, 33.478692], [-80.853164, 33.478398], [-80.853105, 33.478032], [-80.852972, 33.477197], [-80.85311, 33.47693]]], [[[-80.86066, 33.48726], [-80.86227, 33.48873], [-80.86212, 33.48886], [-80.86035, 33.48971], [-80.85996, 33.48985], [-80.85884, 33.48863], [-80.86066, 33.48726]]], [[[-80.86685, 33.48708], [-80.86564, 33.48792], [-80.86429, 33.48662], [-80.86019, 33.48248], [-80.86555, 33.47962], [-80.86552, 33.47986], [-80.86605, 33.48232], [-80.86718, 33.4845], [-80.86751, 33.48487], [-80.86796, 33.4852], [-80.86881, 33.48465], [-80.86946, 33.48518], [-80.86843, 33.48612], [-80.868608, 33.486281], [-80.86837, 33.486465], [-80.868211, 33.48659], [-80.867942, 33.486798], [-80.867204, 33.487371], [-80.86685, 33.48708]]], [[[-80.85446, 33.48568], [-80.85482, 33.48559], [-80.85512, 33.48599], [-80.8558, 33.48647], [-80.85771, 33.48507], [-80.85898, 33.4838], [-80.86075, 33.48546], [-80.85948, 33.48653], [-80.85792, 33.48771], [-80.8569, 33.48849], [-80.85583, 33.48954], [-80.85614, 33.49216], [-80.85627, 33.49252], [-80.85564, 33.4928], [-80.8551, 33.48943], [-80.85463, 33.48705], [-80.85446, 33.48568]]], [[[-80.84712, 33.49002], [-80.8484, 33.49017], [-80.8486, 33.4903], [-80.8507, 33.49038], [-80.85062, 33.49081], [-80.84806, 33.49098], [-80.84809, 33.49186], [-80.84847, 33.49216], [-80.85136, 33.49235], [-80.85174, 33.49325], [-80.85021, 33.49377], [-80.84881, 33.49427], [-80.84766, 33.49487], [-80.847449, 33.494866], [-80.84726, 33.494574], [-80.847115, 33.494352], [-80.847072, 33.494287], [-80.846946, 33.494092], [-80.846905, 33.494027], [-80.846808, 33.493876], [-80.846518, 33.493429], [-80.846498, 33.493399], [-80.846474, 33.493261], [-80.846325, 33.49304], [-80.845881, 33.492384], [-80.845734, 33.492165], [-80.845561, 33.491909], [-80.845421, 33.491702], [-80.84554, 33.49165], [-80.84608, 33.49114], [-80.845456, 33.490392], [-80.846059, 33.490055], [-80.846638, 33.489733], [-80.84712, 33.49002]]]]}}, {"type": "Feature", "properties": {"area_id": 10521, "city": "Orangeburg", "state": "SC", "city_survey": false, "cat": "Blighted - Mixed Neighborhood Colored", "grade": null, "label": "Blighted - Mixed Neighborhood Colored", "res": true, "com": false, "ind": false, "fill": "#544c2f", "GEOID10": "45075011100", "GISJOIN": "G4500750011100", "calc_area": 1.21093, "pct_tract": 0.0}, "geometry": {"type": "MultiPolygon", "coordinates": [[[[-80.847046, 33.504405], [-80.847053, 33.5044], [-80.847071, 33.504422], [-80.847046, 33.504405]]]]}}, {"type": "Feature", "properties": {"area_id": 10521, "city": "Orangeburg", "state": "SC", "city_survey": false, "cat": "Blighted - Mixed Neighborhood Colored", "grade": null, "label": "Blighted - Mixed Neighborhood Colored", "res": true, "com": false, "ind": false, "fill": "#544c2f", "GEOID10": "45075011000", "GISJOIN": "G4500750011000", "calc_area": 632.15139, "pct_tract": 4e-05}, "geometry": {"type": "MultiPolygon", "coordinates": [[[[-80.853, 33.50394], [-80.852735, 33.504233], [-80.853041, 33.503549], [-80.853117, 33.503376], [-80.853145, 33.503314], [-80.853, 33.50394]]]]}}, {"type": "Feature", "properties": {"area_id": 10521, "city": "Orangeburg", "state": "SC", "city_survey": false, "cat": "Blighted - Mixed Neighborhood Colored", "grade": null, "label": "Blighted - Mixed Neighborhood Colored", "res": true, "com": false, "ind": false, "fill": "#544c2f", "GEOID10": "45075010800", "GISJOIN": "G4500750010800", "calc_area": 38406.17989, "pct_tract": 0.00052}, "geometry": {"type": "MultiPolygon", "coordinates": [[[[-80.84701, 33.50438], [-80.846801, 33.50415], [-80.847053, 33.5044], [-80.847046, 33.504405], [-80.84701, 33.50438]]], [[[-80.84443, 33.5023], [-80.84376, 33.50142], [-80.84226, 33.50065], [-80.84166, 33.50017], [-80.84096, 33.49981], [-80.84034, 33.49899], [-80.83995, 33.49877], [-80.839809, 33.498269], [-80.839868, 33.498247], [-80.840004, 33.498198], [-80.840121, 33.498251], [-80.840472, 33.49841], [-80.840589, 33.498464], [-80.840683, 33.49851], [-80.840968, 33.498649], [-80.841063, 33.498697], [-80.841331, 33.498829], [-80.841452, 33.498903], [-80.841511, 33.49894], [-80.841665, 33.499045], [-80.84199, 33.499323], [-80.842426, 33.499766], [-80.842438, 33.499778], [-80.842617, 33.499963], [-80.842744, 33.500097], [-80.843238, 33.50062], [-80.84389, 33.501309], [-80.843969, 33.501393], [-80.844457, 33.501888], [-80.844475, 33.501907], [-80.844477, 33.501908], [-80.844486, 33.501918], [-80.844489, 33.501921], [-80.844633, 33.502068], [-80.845068, 33.502509], [-80.845125, 33.502567], [-80.845217, 33.502653], [-80.845364, 33.502791], [-80.84443, 33.5023]]]]}}, {"type": "Feature", "properties": {"area_id": 10521, "city": "Orangeburg", "state": "SC", "city_survey": false, "cat": "Blighted - Mixed Neighborhood Colored", "grade": null, "label": "Blighted - Mixed Neighborhood Colored", "res": true, "com": false, "ind": false, "fill": "#544c2f", "GEOID10": "45075010700", "GISJOIN": "G4500750010700", "calc_area": 19657.18999, "pct_tract": 0.00019}, "geometry": {"type": "MultiPolygon", "coordinates": [[[[-80.84502, 33.48987], [-80.84426, 33.48967], [-80.84369, 33.48957], [-80.843679, 33.489521], [-80.844144, 33.489627], [-80.84436, 33.489676], [-80.844428, 33.489691], [-80.844634, 33.489736], [-80.844703, 33.489753], [-80.844923, 33.489801], [-80.845583, 33.48995], [-80.845804, 33.490001], [-80.845917, 33.490025], [-80.846059, 33.490055], [-80.845456, 33.490392], [-80.84502, 33.48987]]], [[[-80.8365, 33.49482], [-80.83822, 33.49385], [-80.84051, 33.4931], [-80.840533, 33.493137], [-80.839277, 33.493836], [-80.838873, 33.494062], [-80.838813, 33.494095], [-80.83839, 33.494327], [-80.837484, 33.494825], [-80.837121, 33.495026], [-80.836738, 33.495238], [-80.8365, 33.49482]]]]}}, {"type": "Feature", "properties": {"area_id": 10521, "city": "Orangeburg", "state": "SC", "city_survey": false, "cat": "Blighted - Mixed Neighborhood Colored", "grade": null, "label": "Blighted - Mixed Neighborhood Colored", "res": true, "com": false, "ind": false, "fill": "#544c2f", "GEOID10": "45075010600", "GISJOIN": "G4500750010600", "calc_area": 331918.48197, "pct_tract": 0.00174}, "geometry": {"type": "MultiPolygon", "coordinates": [[[[-80.85363, 33.48503], [-80.85306, 33.48527], [-80.85277, 33.48471], [-80.85059, 33.48599], [-80.84979, 33.48501], [-80.84967, 33.48404], [-80.84964, 33.48356], [-80.84951, 33.48307], [-80.84912, 33.48004], [-80.8493, 33.47933], [-80.84961, 33.47901], [-80.85043, 33.47869], [-80.85115, 33.47822], [-80.85265, 33.47743], [-80.85296, 33.47722], [-80.852972, 33.477197], [-80.853105, 33.478032], [-80.853164, 33.478398], [-80.853211, 33.478692], [-80.853218, 33.478736], [-80.85334, 33.479501], [-80.853727, 33.481932], [-80.853857, 33.482743], [-80.853945, 33.483297], [-80.854174, 33.484741], [-80.85363, 33.48503]]], [[[-80.84348, 33.48863], [-80.84374, 33.48847], [-80.84434, 33.48898], [-80.84601, 33.48936], [-80.846638, 33.489733], [-80.846059, 33.490055], [-80.845917, 33.490025], [-80.845804, 33.490001], [-80.845583, 33.48995], [-80.844923, 33.489801], [-80.844703, 33.489753], [-80.844634, 33.489736], [-80.844428, 33.489691], [-80.84436, 33.489676], [-80.844144, 33.489627], [-80.843679, 33.489521], [-80.84348, 33.48863]]]]}}, {"type": "Feature", "properties": {"area_id": 10522, "city": "Orangeburg", "state": "SC", "city_survey": false, "cat": "Other Residential", "grade": null, "label": "Other Residential", "res": true, "com": false, "ind": false, "fill": "#b54151", "GEOID10": "45075011400", "GISJOIN": "G4500750011400", "calc_area": 1041158.12142, "pct_tract": 0.20761}, "geometry": {"type": "MultiPolygon", "coordinates": [[[[-80.86048, 33.49148], [-80.86078, 33.49199], [-80.86173, 33.49145], [-80.86186, 33.49173], [-80.86234, 33.49183], [-80.86278, 33.49245], [-80.86324, 33.49207], [-80.8634, 33.49216], [-80.86546, 33.49086], [-80.8666, 33.4917], [-80.86516, 33.4927], [-80.86481, 33.49232], [-80.86429, 33.49279], [-80.86403, 33.49233], [-80.86368, 33.49252], [-80.86321, 33.49294], [-80.86325, 33.49334], [-80.86361, 33.4937], [-80.86372, 33.49403], [-80.8629, 33.49476], [-80.86323, 33.49542], [-80.86256, 33.49627], [-80.86097, 33.49448], [-80.85901, 33.49565], [-80.85875, 33.49562], [-80.85812, 33.49459], [-80.85718, 33.4934], [-80.85682, 33.49321], [-80.856703, 33.49286], [-80.8576, 33.49254], [-80.85775, 33.492477], [-80.85812, 33.492326], [-80.858304, 33.49225], [-80.858859, 33.492023], [-80.859044, 33.491948], [-80.859277, 33.491842], [-80.859699, 33.491652], [-80.859976, 33.491518], [-80.860208, 33.491408], [-80.860321, 33.491353], [-80.860349, 33.49134], [-80.860781, 33.491155], [-80.860926, 33.491095], [-80.861026, 33.491051], [-80.861043, 33.491043], [-80.86048, 33.49148]]], [[[-80.86088, 33.5028], [-80.86318, 33.49897], [-80.86385, 33.49829], [-80.86408, 33.49781], [-80.8668, 33.49945], [-80.86731, 33.49922], [-80.86798, 33.49965], [-80.86871, 33.49992], [-80.86934, 33.49938], [-80.86829, 33.49767], [-80.86934, 33.49651], [-80.87012, 33.49739], [-80.87033, 33.4982], [-80.87009, 33.49995], [-80.87012, 33.50109], [-80.87123, 33.50191], [-80.8716, 33.50211], [-80.87228, 33.50291], [-80.87272, 33.50318], [-80.87233, 33.5037], [-80.87003, 33.50522], [-80.86806, 33.50611], [-80.86633, 33.50703], [-80.864305, 33.508043], [-80.864269, 33.508009], [-80.864205, 33.507952], [-80.863711, 33.507516], [-80.863534, 33.507371], [-80.863305, 33.507186], [-80.863249, 33.50714], [-80.863081, 33.507004], [-80.863026, 33.506959], [-80.862865, 33.506824], [-80.862384, 33.506421], [-80.862224, 33.506287], [-80.862185, 33.506254], [-80.862071, 33.506158], [-80.862033, 33.506127], [-80.861953, 33.506059], [-80.861713, 33.505859], [-80.861633, 33.505792], [-80.861603, 33.505768], [-80.861513, 33.505696], [-80.861484, 33.505673], [-80.861335, 33.505553], [-80.860891, 33.505198], [-80.860743, 33.50508], [-80.86059, 33.504956], [-80.860134, 33.504588], [-80.860097, 33.504558], [-80.859984, 33.504463], [-80.859947, 33.50443], [-80.859836, 33.504337], [-80.8598, 33.504307], [-80.859638, 33.504181], [-80.86088, 33.5028]]], [[[-80.85582, 33.50016], [-80.8559, 33.50072], [-80.85664, 33.50189], [-80.85706, 33.50248], [-80.85682, 33.50248], [-80.856445, 33.502827], [-80.856427, 33.502819], [-80.856297, 33.502747], [-80.8562, 33.502676], [-80.856072, 33.50257], [-80.85595, 33.502434], [-80.855931, 33.502406], [-80.855777, 33.502176], [-80.855636, 33.501916], [-80.855563, 33.501781], [-80.855454, 33.501564], [-80.855284, 33.501108], [-80.855224, 33.500945], [-80.855177, 33.500834], [-80.855155, 33.50072], [-80.855115, 33.500506], [-80.855114, 33.500498], [-80.85582, 33.50016]]]]}}, {"type": "Feature", "properties": {"area_id": 10522, "city": "Orangeburg", "state": "SC", "city_survey": false, "cat": "Other Residential", "grade": null, "label": "Other Residential", "res": true, "com": false, "ind": false, "fill": "#b54151", "GEOID10": "45075011200", "GISJOIN": "G4500750011200", "calc_area": 63791.98062, "pct_tract": 0.03052}, "geometry": {"type": "MultiPolygon", "coordinates": [[[[-80.85504, 33.49342], [-80.8548, 33.49359], [-80.85493, 33.49406], [-80.85167, 33.49489], [-80.84874, 33.49587], [-80.84791, 33.49624], [-80.84713, 33.49486], [-80.847449, 33.494866], [-80.847695, 33.495246], [-80.847841, 33.49547], [-80.847999, 33.495407], [-80.848474, 33.495222], [-80.848633, 33.495161], [-80.848737, 33.495113], [-80.849049, 33.494973], [-80.849154, 33.494926], [-80.849311, 33.494857], [-80.849784, 33.494652], [-80.849942, 33.494584], [-80.850041, 33.49454], [-80.85034, 33.49441], [-80.85044, 33.494367], [-80.85057, 33.494304], [-80.85065, 33.494269], [-80.850838, 33.494188], [-80.850975, 33.494137], [-80.851256, 33.494045], [-80.851302, 33.494031], [-80.851527, 33.493975], [-80.85169, 33.49394], [-80.851756, 33.493927], [-80.851872, 33.493907], [-80.852452, 33.493819], [-80.852685, 33.493785], [-80.852714, 33.49378], [-80.852801, 33.493767], [-80.852831, 33.493763], [-80.853215, 33.493705], [-80.853778, 33.493621], [-80.854368, 33.493516], [-80.854752, 33.49345], [-80.854882, 33.493437], [-80.854948, 33.493432], [-80.855039, 33.493417], [-80.85504, 33.49342]]]]}}, {"type": "Feature", "properties": {"area_id": 10522, "city": "Orangeburg", "state": "SC", "city_survey": false, "cat": "Other Residential", "grade": null, "label": "Other Residential", "res": true, "com": false, "ind": false, "fill": "#b54151", "GEOID10": "45075011300", "GISJOIN": "G4500750011300", "calc_area": 741602.26835, "pct_tract": 0.19628}, "geometry": {"type": "MultiPolygon", "coordinates": [[[[-80.84766, 33.49487], [-80.84881, 33.49427], [-80.85021, 33.49377], [-80.85174, 33.49325], [-80.85136, 33.49235], [-80.84847, 33.49216], [-80.84809, 33.49186], [-80.84806, 33.49098], [-80.85062, 33.49081], [-80.85395, 33.49066], [-80.85386, 33.4901], [-80.85475, 33.49005], [-80.85543, 33.49289], [-80.85489, 33.49291], [-80.855039, 33.493417], [-80.854948, 33.493432], [-80.854882, 33.493437], [-80.854752, 33.49345], [-80.854368, 33.493516], [-80.853778, 33.493621], [-80.853215, 33.493705], [-80.852831, 33.493763], [-80.852801, 33.493767], [-80.852714, 33.49378], [-80.852685, 33.493785], [-80.852452, 33.493819], [-80.851872, 33.493907], [-80.851756, 33.493927], [-80.85169, 33.49394], [-80.851527, 33.493975], [-80.851302, 33.494031], [-80.851256, 33.494045], [-80.850975, 33.494137], [-80.850838, 33.494188], [-80.85065, 33.494269], [-80.85057, 33.494304], [-80.85044, 33.494367], [-80.85034, 33.49441], [-80.850041, 33.49454], [-80.849942, 33.494584], [-80.849784, 33.494652], [-80.849311, 33.494857], [-80.849154, 33.494926], [-80.849049, 33.494973], [-80.848737, 33.495113], [-80.848633, 33.495161], [-80.848474, 33.495222], [-80.847999, 33.495407], [-80.847841, 33.49547], [-80.847695, 33.495246], [-80.847449, 33.494866], [-80.84766, 33.49487]]], [[[-80.85655, 33.4924], [-80.85627, 33.49252], [-80.85614, 33.49216], [-80.85583, 33.48954], [-80.8569, 33.48849], [-80.85792, 33.48771], [-80.85948, 33.48653], [-80.86075, 33.48546], [-80.85898, 33.4838], [-80.8579, 33.48276], [-80.85498, 33.48038], [-80.85459, 33.47933], [-80.85429, 33.47884], [-80.85401, 33.47861], [-80.85363, 33.47777], [-80.85357, 33.47754], [-80.85311, 33.47693], [-80.8549, 33.47521], [-80.85556, 33.47677], [-80.85675, 33.47857], [-80.86019, 33.48248], [-80.86429, 33.48662], [-80.86361, 33.48723], [-80.86378, 33.48746], [-80.86227, 33.48873], [-80.86066, 33.48726], [-80.85884, 33.48863], [-80.85996, 33.48985], [-80.86035, 33.48971], [-80.86107, 33.4906], [-80.86128, 33.49086], [-80.861043, 33.491043], [-80.861026, 33.491051], [-80.860926, 33.491095], [-80.860781, 33.491155], [-80.860349, 33.49134], [-80.860321, 33.491353], [-80.860208, 33.491408], [-80.859976, 33.491518], [-80.859699, 33.491652], [-80.859277, 33.491842], [-80.859044, 33.491948], [-80.858859, 33.492023], [-80.858304, 33.49225], [-80.85812, 33.492326], [-80.85775, 33.492477], [-80.8576, 33.49254], [-80.856703, 33.49286], [-80.85655, 33.4924]]]]}}, {"type": "Feature", "properties": {"area_id": 10522, "city": "Orangeburg", "state": "SC", "city_survey": false, "cat": "Other Residential", "grade": null, "label": "Other Residential", "res": true, "com": false, "ind": false, "fill": "#b54151", "GEOID10": "45075011000", "GISJOIN": "G4500750011000", "calc_area": 166965.49256, "pct_tract": 0.01142}, "geometry": {"type": "MultiPolygon", "coordinates": [[[[-80.86399, 33.5082], [-80.86369, 33.50859], [-80.86194, 33.50944], [-80.86147, 33.50921], [-80.86098, 33.50778], [-80.86064, 33.50751], [-80.8603, 33.50689], [-80.85977, 33.50645], [-80.85922, 33.50554], [-80.85876, 33.50542], [-80.85794, 33.50495], [-80.85661, 33.5046], [-80.85575, 33.50361], [-80.85504, 33.50233], [-80.85472, 33.50148], [-80.85463, 33.50041], [-80.85511, 33.5005], [-80.855114, 33.500498], [-80.855115, 33.500506], [-80.855155, 33.50072], [-80.855177, 33.500834], [-80.855224, 33.500945], [-80.855284, 33.501108], [-80.855454, 33.501564], [-80.855563, 33.501781], [-80.855636, 33.501916], [-80.855777, 33.502176], [-80.855931, 33.502406], [-80.85595, 33.502434], [-80.856072, 33.50257], [-80.8562, 33.502676], [-80.856297, 33.502747], [-80.856427, 33.502819], [-80.856445, 33.502827], [-80.85617, 33.50308], [-80.85658, 33.50356], [-80.85705, 33.50385], [-80.85823, 33.50425], [-80.85937, 33.50448], [-80.859638, 33.504181], [-80.8598, 33.504307], [-80.859836, 33.504337], [-80.859947, 33.50443], [-80.859984, 33.504463], [-80.860097, 33.504558], [-80.860134, 33.504588], [-80.86059, 33.504956], [-80.860743, 33.50508], [-80.860891, 33.505198], [-80.861335, 33.505553], [-80.861484, 33.505673], [-80.861513, 33.505696], [-80.861603, 33.505768], [-80.861633, 33.505792], [-80.861713, 33.505859], [-80.861953, 33.506059], [-80.862033, 33.506127], [-80.862071, 33.506158], [-80.862185, 33.506254], [-80.862224, 33.506287], [-80.862384, 33.506421], [-80.862865, 33.506824], [-80.863026, 33.506959], [-80.863081, 33.507004], [-80.863249, 33.50714], [-80.863305, 33.507186], [-80.863534, 33.507371], [-80.863711, 33.507516], [-80.864205, 33.507952], [-80.864269, 33.508009], [-80.864305, 33.508043], [-80.86399, 33.5082]]]]}}]}