{"type": "FeatureCollection", "features": [{"type": "Feature", "properties": {"area_id": 4289, "city": "Bay City", "state": "MI", "city_survey": true, "cat": "Best", "grade": "A", "label": "A1", "res": true, "com": false, "ind": false, "fill": "#76a865", "GEOID10": "26017280500", "GISJOIN": "G2600170280500", "calc_area": 571692.87717, "pct_tract": 0.19743}, "geometry": {"type": "MultiPolygon", "coordinates": [[[[-83.86164, 43.5923], [-83.86627, 43.59239], [-83.86642, 43.59252], [-83.8666, 43.59792], [-83.86387, 43.59774], [-83.86387, 43.59852], [-83.86238, 43.5985], [-83.86231, 43.59893], [-83.86216, 43.60053], [-83.86152, 43.60054], [-83.86021, 43.60018], [-83.85867, 43.5994], [-83.8576, 43.59835], [-83.85686, 43.59777], [-83.85834, 43.59574], [-83.85828, 43.59217], [-83.85831, 43.5906], [-83.85882, 43.59058], [-83.85986, 43.59036], [-83.86093, 43.59015], [-83.86155, 43.59021], [-83.86164, 43.5923]]]]}}, {"type": "Feature", "properties": {"area_id": 4288, "city": "Bay City", "state": "MI", "city_survey": true, "cat": "Still Desirable", "grade": "B", "label": "B1", "res": true, "com": false, "ind": false, "fill": "#7cb5bd", "GEOID10": "26017280300", "GISJOIN": "G2600170280300", "calc_area": 75922.72927, "pct_tract": 0.11209}, "geometry": {"type": "MultiPolygon", "coordinates": [[[[-83.87421, 43.59986], [-83.871499, 43.599648], [-83.871474, 43.598796], [-83.871484, 43.597837], [-83.871458, 43.596764], [-83.872679, 43.596874], [-83.873643, 43.596952], [-83.874636, 43.597027], [-83.874647, 43.597028], [-83.87421, 43.59986]]]]}}, {"type": "Feature", "properties": {"area_id": 4288, "city": "Bay City", "state": "MI", "city_survey": true, "cat": "Still Desirable", "grade": "B", "label": "B1", "res": true, "com": false, "ind": false, "fill": "#7cb5bd", "GEOID10": "26017280400", "GISJOIN": "G2600170280400", "calc_area": 237519.22907, "pct_tract": 0.27329}, "geometry": {"type": "MultiPolygon", "coordinates": [[[[-83.8717, 43.58991], [-83.87375, 43.58992], [-83.8759, 43.58993], [-83.87599, 43.59107], [-83.87557, 43.59105], [-83.874647, 43.597028], [-83.874636, 43.597027], [-83.873643, 43.596952], [-83.872679, 43.596874], [-83.871458, 43.596764], [-83.87147, 43.595698], [-83.871475, 43.594726], [-83.87145, 43.593724], [-83.871438, 43.592722], [-83.871462, 43.591712], [-83.871474, 43.590243], [-83.87146, 43.59001], [-83.871475, 43.589908], [-83.8717, 43.58991]]]]}}, {"type": "Feature", "properties": {"area_id": 4288, "city": "Bay City", "state": "MI", "city_survey": true, "cat": "Still Desirable", "grade": "B", "label": "B1", "res": true, "com": false, "ind": false, "fill": "#7cb5bd", "GEOID10": "26017280500", "GISJOIN": "G2600170280500", "calc_area": 570310.4641, "pct_tract": 0.19695}, "geometry": {"type": "MultiPolygon", "coordinates": [[[[-83.86231, 43.59893], [-83.86238, 43.5985], [-83.86387, 43.59852], [-83.86387, 43.59774], [-83.8666, 43.59792], [-83.86642, 43.59252], [-83.86627, 43.59239], [-83.86164, 43.5923], [-83.86155, 43.59021], [-83.86324, 43.59019], [-83.86384, 43.58995], [-83.86544, 43.5894], [-83.86568, 43.58974], [-83.86604, 43.58987], [-83.871475, 43.589908], [-83.87146, 43.59001], [-83.871474, 43.590243], [-83.871462, 43.591712], [-83.871438, 43.592722], [-83.87145, 43.593724], [-83.871475, 43.594726], [-83.87147, 43.595698], [-83.871458, 43.596764], [-83.871484, 43.597837], [-83.871474, 43.598796], [-83.871499, 43.599648], [-83.86231, 43.59893]]]]}}, {"type": "Feature", "properties": {"area_id": 4279, "city": "Bay City", "state": "MI", "city_survey": true, "cat": "Still Desirable", "grade": "B", "label": "B2", "res": true, "com": false, "ind": false, "fill": "#7cb5bd", "GEOID10": "26017285800", "GISJOIN": "G2600170285800", "calc_area": 456.72499, "pct_tract": 5e-05}, "geometry": {"type": "MultiPolygon", "coordinates": [[[[-83.91515, 43.60394], [-83.915069, 43.603938], [-83.915074, 43.603786], [-83.915148, 43.602789], [-83.91515, 43.602752], [-83.91515, 43.60394]]]]}}, {"type": "Feature", "properties": {"area_id": 4279, "city": "Bay City", "state": "MI", "city_survey": true, "cat": "Still Desirable", "grade": "B", "label": "B2", "res": true, "com": false, "ind": false, "fill": "#7cb5bd", "GEOID10": "26017281000", "GISJOIN": "G2600170281000", "calc_area": 29.16626, "pct_tract": 1e-05}, "geometry": {"type": "MultiPolygon", "coordinates": [[[[-83.91515, 43.60207], [-83.91515, 43.602082], [-83.914593, 43.602077], [-83.91515, 43.60207]]]]}}, {"type": "Feature", "properties": {"area_id": 4279, "city": "Bay City", "state": "MI", "city_survey": true, "cat": "Still Desirable", "grade": "B", "label": "B2", "res": true, "com": false, "ind": false, "fill": "#7cb5bd", "GEOID10": "26017286600", "GISJOIN": "G2600170286600", "calc_area": 53257.1909, "pct_tract": 0.01852}, "geometry": {"type": "MultiPolygon", "coordinates": [[[[-83.91189, 43.60385], [-83.91177, 43.60211], [-83.914593, 43.602077], [-83.91515, 43.602082], [-83.91515, 43.602752], [-83.915148, 43.602789], [-83.915074, 43.603786], [-83.915069, 43.603938], [-83.91189, 43.60385]]]]}}, {"type": "Feature", "properties": {"area_id": 4278, "city": "Bay City", "state": "MI", "city_survey": true, "cat": "Still Desirable", "grade": "B", "label": "B3", "res": true, "com": false, "ind": false, "fill": "#7cb5bd", "GEOID10": "26017285800", "GISJOIN": "G2600170285800", "calc_area": 37387.56844, "pct_tract": 0.0045}, "geometry": {"type": "MultiPolygon", "coordinates": [[[[-83.9172, 43.60205], [-83.91709, 43.60418], [-83.91515, 43.60413], [-83.91515, 43.60394], [-83.91515, 43.602752], [-83.915186, 43.602082], [-83.915186, 43.60207], [-83.9172, 43.60205]]]]}}, {"type": "Feature", "properties": {"area_id": 4278, "city": "Bay City", "state": "MI", "city_survey": true, "cat": "Still Desirable", "grade": "B", "label": "B3", "res": true, "com": false, "ind": false, "fill": "#7cb5bd", "GEOID10": "26017281000", "GISJOIN": "G2600170281000", "calc_area": 3.88818, "pct_tract": 0.0}, "geometry": {"type": "MultiPolygon", "coordinates": [[[[-83.91515, 43.60207], [-83.915186, 43.60207], [-83.915186, 43.602082], [-83.91515, 43.602082], [-83.91515, 43.60207]]]]}}, {"type": "Feature", "properties": {"area_id": 4278, "city": "Bay City", "state": "MI", "city_survey": true, "cat": "Still Desirable", "grade": "B", "label": "B3", "res": true, "com": false, "ind": false, "fill": "#7cb5bd", "GEOID10": "26017286600", "GISJOIN": "G2600170286600", "calc_area": 108.20571, "pct_tract": 4e-05}, "geometry": {"type": "MultiPolygon", "coordinates": [[[[-83.91515, 43.602082], [-83.915186, 43.602082], [-83.91515, 43.602752], [-83.91515, 43.602082]]]]}}, {"type": "Feature", "properties": {"area_id": 4285, "city": "Bay City", "state": "MI", "city_survey": true, "cat": "Definitely Declining", "grade": "C", "label": "C1", "res": true, "com": false, "ind": false, "fill": "#ffff00", "GEOID10": "26017280300", "GISJOIN": "G2600170280300", "calc_area": 121056.54018, "pct_tract": 0.17872}, "geometry": {"type": "MultiPolygon", "coordinates": [[[[-83.87421, 43.59986], [-83.87745, 43.60012], [-83.87715, 43.60255], [-83.87348, 43.60206], [-83.871477, 43.601894], [-83.871474, 43.601801], [-83.871481, 43.601448], [-83.871494, 43.600801], [-83.871503, 43.599804], [-83.871499, 43.599648], [-83.87421, 43.59986]]]]}}, {"type": "Feature", "properties": {"area_id": 4285, "city": "Bay City", "state": "MI", "city_survey": true, "cat": "Definitely Declining", "grade": "C", "label": "C1", "res": true, "com": false, "ind": false, "fill": "#ffff00", "GEOID10": "26017280500", "GISJOIN": "G2600170280500", "calc_area": 652889.4972, "pct_tract": 0.22547}, "geometry": {"type": "MultiPolygon", "coordinates": [[[[-83.87143, 43.60189], [-83.86727, 43.60146], [-83.86756, 43.60478], [-83.867529, 43.604969], [-83.867483, 43.604965], [-83.867247, 43.605094], [-83.866944, 43.605173], [-83.866651, 43.605233], [-83.866174, 43.605306], [-83.865458, 43.605391], [-83.864454, 43.605521], [-83.86393, 43.605599], [-83.863499, 43.605655], [-83.862544, 43.605771], [-83.861852, 43.605882], [-83.861658, 43.605931], [-83.861327, 43.606043], [-83.859957, 43.606824], [-83.858786, 43.607481], [-83.858509, 43.607652], [-83.857794, 43.608059], [-83.857612, 43.608163], [-83.857508, 43.608225], [-83.85752, 43.607333], [-83.857652, 43.603738], [-83.857572, 43.603738], [-83.857384, 43.603739], [-83.857712, 43.601817], [-83.857274, 43.60179], [-83.857266, 43.601789], [-83.857237, 43.601786], [-83.857123, 43.601776], [-83.85648, 43.60158], [-83.85686, 43.59872], [-83.85796, 43.59991], [-83.85903, 43.60053], [-83.86019, 43.6011], [-83.86212, 43.60149], [-83.86216, 43.60053], [-83.86231, 43.59893], [-83.871499, 43.599648], [-83.871503, 43.599804], [-83.871494, 43.600801], [-83.871481, 43.601448], [-83.871474, 43.601801], [-83.871477, 43.601894], [-83.87143, 43.60189]]]]}}, {"type": "Feature", "properties": {"area_id": 4285, "city": "Bay City", "state": "MI", "city_survey": true, "cat": "Definitely Declining", "grade": "C", "label": "C1", "res": true, "com": false, "ind": false, "fill": "#ffff00", "GEOID10": "26017285100", "GISJOIN": "G2600170285100", "calc_area": 17007.28844, "pct_tract": 0.00467}, "geometry": {"type": "MultiPolygon", "coordinates": [[[[-83.85727, 43.60869], [-83.857089, 43.603738], [-83.857222, 43.60374], [-83.857384, 43.603739], [-83.857572, 43.603738], [-83.857652, 43.603738], [-83.85752, 43.607333], [-83.857508, 43.608225], [-83.857508, 43.608363], [-83.85751, 43.608555], [-83.85727, 43.60869]]]]}}, {"type": "Feature", "properties": {"area_id": 4285, "city": "Bay City", "state": "MI", "city_survey": true, "cat": "Definitely Declining", "grade": "C", "label": "C1", "res": true, "com": false, "ind": false, "fill": "#ffff00", "GEOID10": "26017285201", "GISJOIN": "G2600170285201", "calc_area": 6280.80897, "pct_tract": 0.00016}, "geometry": {"type": "MultiPolygon", "coordinates": [[[[-83.85708, 43.60349], [-83.85724, 43.60344], [-83.85717, 43.60179], [-83.857123, 43.601776], [-83.857237, 43.601786], [-83.857266, 43.601789], [-83.857274, 43.60179], [-83.857712, 43.601817], [-83.857384, 43.603739], [-83.857222, 43.60374], [-83.857089, 43.603738], [-83.85708, 43.60349]]]]}}, {"type": "Feature", "properties": {"area_id": 4285, "city": "Bay City", "state": "MI", "city_survey": true, "cat": "Definitely Declining", "grade": "C", "label": "C1", "res": true, "com": false, "ind": false, "fill": "#ffff00", "GEOID10": "26017286500", "GISJOIN": "G2600170286500", "calc_area": 29863.67977, "pct_tract": 0.00793}, "geometry": {"type": "MultiPolygon", "coordinates": [[[[-83.86746, 43.6054], [-83.86171, 43.60623], [-83.85865, 43.60791], [-83.85751, 43.608555], [-83.857508, 43.608363], [-83.857508, 43.608225], [-83.857612, 43.608163], [-83.857794, 43.608059], [-83.858509, 43.607652], [-83.858786, 43.607481], [-83.859957, 43.606824], [-83.861327, 43.606043], [-83.861658, 43.605931], [-83.861852, 43.605882], [-83.862544, 43.605771], [-83.863499, 43.605655], [-83.86393, 43.605599], [-83.864454, 43.605521], [-83.865458, 43.605391], [-83.866174, 43.605306], [-83.866651, 43.605233], [-83.866944, 43.605173], [-83.867247, 43.605094], [-83.867483, 43.604965], [-83.867529, 43.604969], [-83.86746, 43.6054]]]]}}, {"type": "Feature", "properties": {"area_id": 4291, "city": "Bay City", "state": "MI", "city_survey": true, "cat": "Definitely Declining", "grade": "C", "label": "C2", "res": true, "com": false, "ind": false, "fill": "#ffff00", "GEOID10": "26017280600", "GISJOIN": "G2600170280600", "calc_area": 733739.99864, "pct_tract": 0.62931}, "geometry": {"type": "MultiPolygon", "coordinates": [[[[-83.87655, 43.58023], [-83.876538, 43.580129], [-83.876557, 43.580129], [-83.877091, 43.580148], [-83.878155, 43.580137], [-83.879194, 43.580118], [-83.88031, 43.580116], [-83.88031, 43.58058], [-83.88363, 43.58061], [-83.88363, 43.58008], [-83.884598, 43.580079], [-83.885708, 43.580082], [-83.885705, 43.580543], [-83.885705, 43.581356], [-83.885718, 43.582798], [-83.885709, 43.583348], [-83.885701, 43.584044], [-83.885731, 43.584813], [-83.885729, 43.585784], [-83.885761, 43.586742], [-83.885767, 43.587706], [-83.885757, 43.588658], [-83.885769, 43.58903], [-83.88085, 43.58905], [-83.88106, 43.58363], [-83.87705, 43.58356], [-83.87708, 43.58535], [-83.871772, 43.585222], [-83.871708, 43.58391], [-83.871703, 43.582818], [-83.871663, 43.581437], [-83.871643, 43.58023], [-83.87655, 43.58023]]]]}}, {"type": "Feature", "properties": {"area_id": 4291, "city": "Bay City", "state": "MI", "city_survey": true, "cat": "Definitely Declining", "grade": "C", "label": "C2", "res": true, "com": false, "ind": false, "fill": "#ffff00", "GEOID10": "26017280700", "GISJOIN": "G2600170280700", "calc_area": 576776.02409, "pct_tract": 0.37909}, "geometry": {"type": "MultiPolygon", "coordinates": [[[[-83.89319, 43.57562], [-83.89352, 43.57572], [-83.89366, 43.57961], [-83.89091, 43.57968], [-83.89048, 43.58901], [-83.885769, 43.58903], [-83.885757, 43.588658], [-83.885767, 43.587706], [-83.885761, 43.586742], [-83.885729, 43.585784], [-83.885731, 43.584813], [-83.885701, 43.584044], [-83.885709, 43.583348], [-83.885718, 43.582798], [-83.885705, 43.581356], [-83.885705, 43.580543], [-83.885708, 43.580082], [-83.885984, 43.58006], [-83.886122, 43.580029], [-83.886325, 43.579971], [-83.886411, 43.579934], [-83.886499, 43.579897], [-83.88671, 43.579794], [-83.886961, 43.579703], [-83.887215, 43.57963], [-83.887435, 43.57958], [-83.887665, 43.579559], [-83.888744, 43.579556], [-83.889672, 43.579575], [-83.890722, 43.579564], [-83.89079, 43.578574], [-83.890794, 43.577613], [-83.890826, 43.576641], [-83.89084, 43.575823], [-83.890849, 43.575687], [-83.890846, 43.57471], [-83.890883, 43.573749], [-83.890881, 43.572785], [-83.891367, 43.572777], [-83.892604, 43.572797], [-83.89319, 43.572799], [-83.89319, 43.57562]]]]}}, {"type": "Feature", "properties": {"area_id": 4291, "city": "Bay City", "state": "MI", "city_survey": true, "cat": "Definitely Declining", "grade": "C", "label": "C2", "res": true, "com": false, "ind": false, "fill": "#ffff00", "GEOID10": "26017280800", "GISJOIN": "G2600170280800", "calc_area": 1399214.70631, "pct_tract": 0.63123}, "geometry": {"type": "MultiPolygon", "coordinates": [[[[-83.8765, 43.573], [-83.8814, 43.57297], [-83.88131, 43.5658], [-83.88606, 43.5658], [-83.88606, 43.565795], [-83.886172, 43.5658], [-83.8872, 43.565803], [-83.888162, 43.565809], [-83.889071, 43.565808], [-83.889466, 43.565811], [-83.890017, 43.565818], [-83.890419, 43.565826], [-83.89119, 43.565827], [-83.891185, 43.566425], [-83.89103, 43.567865], [-83.89104, 43.568824], [-83.891137, 43.569841], [-83.891149, 43.570901], [-83.890178, 43.572772], [-83.890881, 43.572785], [-83.890883, 43.573749], [-83.890846, 43.57471], [-83.890849, 43.575687], [-83.89084, 43.575823], [-83.890826, 43.576641], [-83.890794, 43.577613], [-83.89079, 43.578574], [-83.890722, 43.579564], [-83.889672, 43.579575], [-83.888744, 43.579556], [-83.887665, 43.579559], [-83.887435, 43.57958], [-83.887215, 43.57963], [-83.886961, 43.579703], [-83.88671, 43.579794], [-83.886499, 43.579897], [-83.886411, 43.579934], [-83.886325, 43.579971], [-83.886122, 43.580029], [-83.885984, 43.58006], [-83.885708, 43.580082], [-83.884598, 43.580079], [-83.88363, 43.58008], [-83.88363, 43.57965], [-83.88031, 43.57961], [-83.88031, 43.580116], [-83.879194, 43.580118], [-83.878155, 43.580137], [-83.877091, 43.580148], [-83.876557, 43.580129], [-83.876546, 43.579033], [-83.876536, 43.578648], [-83.88031, 43.57861], [-83.88035, 43.57569], [-83.876518, 43.57565], [-83.876516, 43.575605], [-83.876506, 43.574639], [-83.8765, 43.574269], [-83.8765, 43.573]]]]}}, {"type": "Feature", "properties": {"area_id": 4291, "city": "Bay City", "state": "MI", "city_survey": true, "cat": "Definitely Declining", "grade": "C", "label": "C2", "res": true, "com": false, "ind": false, "fill": "#ffff00", "GEOID10": "26017280900", "GISJOIN": "G2600170280900", "calc_area": 598955.40718, "pct_tract": 0.14359}, "geometry": {"type": "MultiPolygon", "coordinates": [[[[-83.88596, 43.55705], [-83.89076, 43.5585], [-83.89095, 43.56219], [-83.89385, 43.56239], [-83.89366, 43.5679], [-83.89362, 43.56898], [-83.89357, 43.57052], [-83.89319, 43.57056], [-83.89319, 43.572799], [-83.892604, 43.572797], [-83.891367, 43.572777], [-83.890881, 43.572785], [-83.890178, 43.572772], [-83.891149, 43.570901], [-83.891137, 43.569841], [-83.89104, 43.568824], [-83.89103, 43.567865], [-83.891185, 43.566425], [-83.89119, 43.565827], [-83.890419, 43.565826], [-83.890017, 43.565818], [-83.889466, 43.565811], [-83.889071, 43.565808], [-83.888162, 43.565809], [-83.8872, 43.565803], [-83.886172, 43.5658], [-83.88606, 43.565795], [-83.88596, 43.55705]]]]}}, {"type": "Feature", "properties": {"area_id": 4291, "city": "Bay City", "state": "MI", "city_survey": true, "cat": "Definitely Declining", "grade": "C", "label": "C2", "res": true, "com": false, "ind": false, "fill": "#ffff00", "GEOID10": "26017285300", "GISJOIN": "G2600170285300", "calc_area": 1438.63021, "pct_tract": 1e-05}, "geometry": {"type": "MultiPolygon", "coordinates": [[[[-83.8765, 43.57565], [-83.8765, 43.574269], [-83.876506, 43.574639], [-83.876516, 43.575605], [-83.876518, 43.57565], [-83.8765, 43.57565]]], [[[-83.87636, 43.57865], [-83.876536, 43.578648], [-83.876546, 43.579033], [-83.876557, 43.580129], [-83.876538, 43.580129], [-83.87636, 43.57865]]]]}}, {"type": "Feature", "properties": {"area_id": 4291, "city": "Bay City", "state": "MI", "city_survey": true, "cat": "Definitely Declining", "grade": "C", "label": "C2", "res": true, "com": false, "ind": false, "fill": "#ffff00", "GEOID10": "26017285201", "GISJOIN": "G2600170285201", "calc_area": 5629.70156, "pct_tract": 0.00014}, "geometry": {"type": "MultiPolygon", "coordinates": [[[[-83.87167, 43.58522], [-83.87147, 43.58023], [-83.871643, 43.58023], [-83.871663, 43.581437], [-83.871703, 43.582818], [-83.871708, 43.58391], [-83.871772, 43.585222], [-83.87167, 43.58522]]]]}}, {"type": "Feature", "properties": {"area_id": 4286, "city": "Bay City", "state": "MI", "city_survey": true, "cat": "Definitely Declining", "grade": "C", "label": "C3", "res": true, "com": false, "ind": false, "fill": "#ffff00", "GEOID10": "26017280500", "GISJOIN": "G2600170280500", "calc_area": 9.09331, "pct_tract": 0.0}, "geometry": {"type": "MultiPolygon", "coordinates": [[[[-83.857355, 43.586456], [-83.857355, 43.586448], [-83.85761, 43.586451], [-83.857355, 43.586456]]]]}}, {"type": "Feature", "properties": {"area_id": 4286, "city": "Bay City", "state": "MI", "city_survey": true, "cat": "Definitely Declining", "grade": "C", "label": "C3", "res": true, "com": false, "ind": false, "fill": "#ffff00", "GEOID10": "26017285300", "GISJOIN": "G2600170285300", "calc_area": 283.31517, "pct_tract": 0.0}, "geometry": {"type": "MultiPolygon", "coordinates": [[[[-83.85901, 43.58001], [-83.859008, 43.580068], [-83.857922, 43.58006], [-83.85901, 43.58001]]]]}}, {"type": "Feature", "properties": {"area_id": 4286, "city": "Bay City", "state": "MI", "city_survey": true, "cat": "Definitely Declining", "grade": "C", "label": "C3", "res": true, "com": false, "ind": false, "fill": "#ffff00", "GEOID10": "26017285100", "GISJOIN": "G2600170285100", "calc_area": 375942.45388, "pct_tract": 0.10317}, "geometry": {"type": "MultiPolygon", "coordinates": [[[[-83.85727, 43.60869], [-83.85699, 43.60896], [-83.85456, 43.60877], [-83.84903, 43.60882], [-83.848933, 43.603685], [-83.849316, 43.603686], [-83.851455, 43.603697], [-83.853192, 43.603698], [-83.856527, 43.603732], [-83.857089, 43.603738], [-83.85727, 43.60869]]]]}}, {"type": "Feature", "properties": {"area_id": 4286, "city": "Bay City", "state": "MI", "city_survey": true, "cat": "Definitely Declining", "grade": "C", "label": "C3", "res": true, "com": false, "ind": false, "fill": "#ffff00", "GEOID10": "26017285201", "GISJOIN": "G2600170285201", "calc_area": 594518.44892, "pct_tract": 0.01516}, "geometry": {"type": "MultiPolygon", "coordinates": [[[[-83.85713, 43.58646], [-83.85704, 43.58715], [-83.84948, 43.58743], [-83.8496, 43.58044], [-83.857922, 43.58006], [-83.859008, 43.580068], [-83.8588, 43.58643], [-83.85761, 43.586451], [-83.857355, 43.586448], [-83.857355, 43.586456], [-83.85713, 43.58646]]], [[[-83.84893, 43.6035], [-83.85708, 43.60349], [-83.857089, 43.603738], [-83.856527, 43.603732], [-83.853192, 43.603698], [-83.851455, 43.603697], [-83.849316, 43.603686], [-83.848933, 43.603685], [-83.84893, 43.6035]]]]}}, {"type": "Feature", "properties": {"area_id": 4280, "city": "Bay City", "state": "MI", "city_survey": true, "cat": "Definitely Declining", "grade": "C", "label": "C4", "res": true, "com": false, "ind": false, "fill": "#ffff00", "GEOID10": "26017285800", "GISJOIN": "G2600170285800", "calc_area": 290.11154, "pct_tract": 3e-05}, "geometry": {"type": "MultiPolygon", "coordinates": [[[[-83.91515, 43.60394], [-83.915043, 43.604737], [-83.915069, 43.603938], [-83.91515, 43.60394]]]]}}, {"type": "Feature", "properties": {"area_id": 4280, "city": "Bay City", "state": "MI", "city_survey": true, "cat": "Definitely Declining", "grade": "C", "label": "C4", "res": true, "com": false, "ind": false, "fill": "#ffff00", "GEOID10": "26017281000", "GISJOIN": "G2600170281000", "calc_area": 286627.80997, "pct_tract": 0.05934}, "geometry": {"type": "MultiPolygon", "coordinates": [[[[-83.91524, 43.59845], [-83.91515, 43.60207], [-83.914593, 43.602077], [-83.914089, 43.602072], [-83.913032, 43.602048], [-83.911981, 43.602033], [-83.911686, 43.60203], [-83.910918, 43.602023], [-83.909879, 43.60202], [-83.90942, 43.602014], [-83.908248, 43.602019], [-83.907214, 43.602014], [-83.906908, 43.602012], [-83.906186, 43.602008], [-83.906176, 43.601242], [-83.906252, 43.599993], [-83.906317, 43.598686], [-83.906871, 43.598697], [-83.906878, 43.59845], [-83.91524, 43.59845]]]]}}, {"type": "Feature", "properties": {"area_id": 4280, "city": "Bay City", "state": "MI", "city_survey": true, "cat": "Definitely Declining", "grade": "C", "label": "C4", "res": true, "com": false, "ind": false, "fill": "#ffff00", "GEOID10": "26017286600", "GISJOIN": "G2600170286600", "calc_area": 519837.6563, "pct_tract": 0.18077}, "geometry": {"type": "MultiPolygon", "coordinates": [[[[-83.91492, 43.60566], [-83.91391, 43.6056], [-83.90589, 43.60562], [-83.8959, 43.60553], [-83.8976, 43.60308], [-83.89745, 43.60237], [-83.90559, 43.60239], [-83.90565, 43.60172], [-83.90565, 43.59873], [-83.90589, 43.59845], [-83.906878, 43.59845], [-83.906871, 43.598697], [-83.906317, 43.598686], [-83.906252, 43.599993], [-83.906176, 43.601242], [-83.906186, 43.602008], [-83.906908, 43.602012], [-83.907214, 43.602014], [-83.908248, 43.602019], [-83.90942, 43.602014], [-83.909879, 43.60202], [-83.910918, 43.602023], [-83.911686, 43.60203], [-83.911981, 43.602033], [-83.913032, 43.602048], [-83.914089, 43.602072], [-83.914593, 43.602077], [-83.91177, 43.60211], [-83.91189, 43.60385], [-83.915069, 43.603938], [-83.915043, 43.604737], [-83.91492, 43.60566]]]]}}, {"type": "Feature", "properties": {"area_id": 4276, "city": "Bay City", "state": "MI", "city_survey": true, "cat": "Definitely Declining", "grade": "C", "label": "C5", "res": true, "com": false, "ind": false, "fill": "#ffff00", "GEOID10": "26017281000", "GISJOIN": "G2600170281000", "calc_area": 1032098.93507, "pct_tract": 0.21367}, "geometry": {"type": "MultiPolygon", "coordinates": [[[[-83.90571, 43.58692], [-83.90538, 43.58666], [-83.90428, 43.58621], [-83.90398, 43.58662], [-83.90176, 43.5858], [-83.9019, 43.58546], [-83.90229, 43.58515], [-83.90232, 43.58466], [-83.90265, 43.5844], [-83.90324, 43.58341], [-83.90458, 43.58158], [-83.90502, 43.58087], [-83.90963, 43.58083], [-83.90981, 43.579], [-83.91569, 43.579], [-83.91554, 43.58942], [-83.91061, 43.58944], [-83.91061, 43.59056], [-83.90568, 43.59047], [-83.90571, 43.58692]]]]}}, {"type": "Feature", "properties": {"area_id": 4287, "city": "Bay City", "state": "MI", "city_survey": true, "cat": "Hazardous", "grade": "D", "label": "D1", "res": true, "com": false, "ind": false, "fill": "#d9838d", "GEOID10": "26017280300", "GISJOIN": "G2600170280300", "calc_area": 218996.63716, "pct_tract": 0.32332}, "geometry": {"type": "MultiPolygon", "coordinates": [[[[-83.88029, 43.60031], [-83.87745, 43.60012], [-83.87421, 43.59986], [-83.874647, 43.597028], [-83.876041, 43.597145], [-83.877041, 43.59722], [-83.878047, 43.597294], [-83.878999, 43.59737], [-83.87998, 43.597434], [-83.881314, 43.597556], [-83.881932, 43.597597], [-83.88184, 43.59805], [-83.883391, 43.598095], [-83.883276, 43.598733], [-83.883142, 43.599723], [-83.883114, 43.599926], [-83.883035, 43.600472], [-83.88029, 43.60031]]]]}}, {"type": "Feature", "properties": {"area_id": 4287, "city": "Bay City", "state": "MI", "city_survey": true, "cat": "Hazardous", "grade": "D", "label": "D1", "res": true, "com": false, "ind": false, "fill": "#d9838d", "GEOID10": "26017280400", "GISJOIN": "G2600170280400", "calc_area": 565042.80817, "pct_tract": 0.65014}, "geometry": {"type": "MultiPolygon", "coordinates": [[[[-83.88202, 43.59716], [-83.881932, 43.597597], [-83.881314, 43.597556], [-83.87998, 43.597434], [-83.878999, 43.59737], [-83.878047, 43.597294], [-83.877041, 43.59722], [-83.876041, 43.597145], [-83.874647, 43.597028], [-83.87557, 43.59105], [-83.87599, 43.59107], [-83.8759, 43.58993], [-83.884583, 43.58993], [-83.884509, 43.590453], [-83.884173, 43.592735], [-83.88313, 43.592641], [-83.882974, 43.593614], [-83.882846, 43.594616], [-83.88389, 43.594688], [-83.883756, 43.595684], [-83.883609, 43.59667], [-83.883522, 43.597283], [-83.88202, 43.59716]]]]}}, {"type": "Feature", "properties": {"area_id": 4287, "city": "Bay City", "state": "MI", "city_survey": true, "cat": "Hazardous", "grade": "D", "label": "D1", "res": true, "com": false, "ind": false, "fill": "#d9838d", "GEOID10": "26017286500", "GISJOIN": "G2600170286500", "calc_area": 289619.52822, "pct_tract": 0.07692}, "geometry": {"type": "MultiPolygon", "coordinates": [[[[-83.88389, 43.59811], [-83.88351, 43.6005], [-83.883035, 43.600472], [-83.883114, 43.599926], [-83.883142, 43.599723], [-83.883276, 43.598733], [-83.883391, 43.598095], [-83.88389, 43.59811]]], [[[-83.88853, 43.58993], [-83.88725, 43.59759], [-83.883522, 43.597283], [-83.883609, 43.59667], [-83.883756, 43.595684], [-83.88389, 43.594688], [-83.882846, 43.594616], [-83.882974, 43.593614], [-83.88313, 43.592641], [-83.884173, 43.592735], [-83.884509, 43.590453], [-83.884583, 43.58993], [-83.88853, 43.58993]]]]}}, {"type": "Feature", "properties": {"area_id": 4283, "city": "Bay City", "state": "MI", "city_survey": true, "cat": "Hazardous", "grade": "D", "label": "D2", "res": true, "com": false, "ind": false, "fill": "#d9838d", "GEOID10": "26017280300", "GISJOIN": "G2600170280300", "calc_area": 78785.46529, "pct_tract": 0.11631}, "geometry": {"type": "MultiPolygon", "coordinates": [[[[-83.88029, 43.60031], [-83.883035, 43.600472], [-83.882999, 43.600716], [-83.883172, 43.601729], [-83.881944, 43.601605], [-83.881823, 43.602606], [-83.882716, 43.602711], [-83.882643, 43.603168], [-83.882598, 43.603671], [-83.882573, 43.603849], [-83.882248, 43.603843], [-83.881951, 43.603853], [-83.880956, 43.603946], [-83.880367, 43.603922], [-83.879867, 43.603904], [-83.88029, 43.60031]]]]}}, {"type": "Feature", "properties": {"area_id": 4283, "city": "Bay City", "state": "MI", "city_survey": true, "cat": "Hazardous", "grade": "D", "label": "D2", "res": true, "com": false, "ind": false, "fill": "#d9838d", "GEOID10": "26017286500", "GISJOIN": "G2600170286500", "calc_area": 90540.88116, "pct_tract": 0.02405}, "geometry": {"type": "MultiPolygon", "coordinates": [[[[-83.88351, 43.6005], [-83.88341, 43.60123], [-83.88708, 43.60145], [-83.88704, 43.60207], [-83.88509, 43.60199], [-83.88493, 43.60281], [-83.88594, 43.60285], [-83.88579, 43.60409], [-83.88099, 43.60398], [-83.87986, 43.60396], [-83.879867, 43.603904], [-83.880367, 43.603922], [-83.880956, 43.603946], [-83.881951, 43.603853], [-83.882248, 43.603843], [-83.882573, 43.603849], [-83.882598, 43.603671], [-83.882643, 43.603168], [-83.882716, 43.602711], [-83.881823, 43.602606], [-83.881944, 43.601605], [-83.883172, 43.601729], [-83.882999, 43.600716], [-83.883035, 43.600472], [-83.88351, 43.6005]]]]}}, {"type": "Feature", "properties": {"area_id": 4284, "city": "Bay City", "state": "MI", "city_survey": true, "cat": "Hazardous", "grade": "D", "label": "D3", "res": true, "com": false, "ind": false, "fill": "#d9838d", "GEOID10": "26017280300", "GISJOIN": "G2600170280300", "calc_area": 105981.22255, "pct_tract": 0.15647}, "geometry": {"type": "MultiPolygon", "coordinates": [[[[-83.87153, 43.60356], [-83.87702, 43.60363], [-83.87715, 43.60255], [-83.87745, 43.60012], [-83.88029, 43.60031], [-83.879867, 43.603904], [-83.879029, 43.603873], [-83.878049, 43.603849], [-83.877079, 43.603837], [-83.876125, 43.603831], [-83.87502, 43.603819], [-83.873666, 43.603815], [-83.873421, 43.603815], [-83.872586, 43.603812], [-83.87151, 43.603998], [-83.871504, 43.603568], [-83.87153, 43.60356]]]]}}, {"type": "Feature", "properties": {"area_id": 4284, "city": "Bay City", "state": "MI", "city_survey": true, "cat": "Hazardous", "grade": "D", "label": "D3", "res": true, "com": false, "ind": false, "fill": "#d9838d", "GEOID10": "26017280500", "GISJOIN": "G2600170280500", "calc_area": 8447.35463, "pct_tract": 0.00292}, "geometry": {"type": "MultiPolygon", "coordinates": [[[[-83.86756, 43.60478], [-83.871504, 43.603568], [-83.87151, 43.603998], [-83.870975, 43.60416], [-83.870931, 43.603921], [-83.870549, 43.60404], [-83.869923, 43.60426], [-83.868698, 43.604632], [-83.867715, 43.604986], [-83.867529, 43.604969], [-83.86756, 43.60478]]]]}}, {"type": "Feature", "properties": {"area_id": 4284, "city": "Bay City", "state": "MI", "city_survey": true, "cat": "Hazardous", "grade": "D", "label": "D3", "res": true, "com": false, "ind": false, "fill": "#d9838d", "GEOID10": "26017285100", "GISJOIN": "G2600170285100", "calc_area": 6062.56235, "pct_tract": 0.00166}, "geometry": {"type": "MultiPolygon", "coordinates": [[[[-83.85632, 43.60964], [-83.85699, 43.60896], [-83.85727, 43.60869], [-83.85751, 43.608555], [-83.857512, 43.608838], [-83.857484, 43.609549], [-83.857481, 43.609617], [-83.85632, 43.60964]]]]}}, {"type": "Feature", "properties": {"area_id": 4284, "city": "Bay City", "state": "MI", "city_survey": true, "cat": "Hazardous", "grade": "D", "label": "D3", "res": true, "com": false, "ind": false, "fill": "#d9838d", "GEOID10": "26017286500", "GISJOIN": "G2600170286500", "calc_area": 545830.98358, "pct_tract": 0.14497}, "geometry": {"type": "MultiPolygon", "coordinates": [[[[-83.87986, 43.60396], [-83.88099, 43.60398], [-83.88163, 43.6049], [-83.8789, 43.60592], [-83.87871, 43.60587], [-83.87685, 43.60628], [-83.87222, 43.60723], [-83.86944, 43.60681], [-83.86761, 43.60673], [-83.8673, 43.60657], [-83.8673, 43.609], [-83.85991, 43.60898], [-83.85981, 43.61015], [-83.85831, 43.61007], [-83.85831, 43.6096], [-83.857481, 43.609617], [-83.857484, 43.609549], [-83.857512, 43.608838], [-83.85751, 43.608555], [-83.85865, 43.60791], [-83.86171, 43.60623], [-83.86746, 43.6054], [-83.867529, 43.604969], [-83.867715, 43.604986], [-83.868698, 43.604632], [-83.869923, 43.60426], [-83.870549, 43.60404], [-83.870931, 43.603921], [-83.870975, 43.60416], [-83.87151, 43.603998], [-83.872586, 43.603812], [-83.873421, 43.603815], [-83.873666, 43.603815], [-83.87502, 43.603819], [-83.876125, 43.603831], [-83.877079, 43.603837], [-83.878049, 43.603849], [-83.879029, 43.603873], [-83.879867, 43.603904], [-83.87986, 43.60396]]]]}}, {"type": "Feature", "properties": {"area_id": 4290, "city": "Bay City", "state": "MI", "city_survey": true, "cat": "Hazardous", "grade": "D", "label": "D4", "res": true, "com": false, "ind": false, "fill": "#d9838d", "GEOID10": "26017280400", "GISJOIN": "G2600170280400", "calc_area": 9863.0548, "pct_tract": 0.01135}, "geometry": {"type": "MultiPolygon", "coordinates": [[[[-83.87375, 43.58992], [-83.8717, 43.58991], [-83.871697, 43.589412], [-83.873786, 43.589391], [-83.873923, 43.589393], [-83.87375, 43.58992]]]]}}, {"type": "Feature", "properties": {"area_id": 4290, "city": "Bay City", "state": "MI", "city_survey": true, "cat": "Hazardous", "grade": "D", "label": "D4", "res": true, "com": false, "ind": false, "fill": "#d9838d", "GEOID10": "26017280500", "GISJOIN": "G2600170280500", "calc_area": 3624.47211, "pct_tract": 0.00125}, "geometry": {"type": "MultiPolygon", "coordinates": [[[[-83.871679, 43.586598], [-83.871811, 43.586599], [-83.871842, 43.5874], [-83.871868, 43.588643], [-83.87185, 43.588914], [-83.871794, 43.589105], [-83.871696, 43.589316], [-83.871679, 43.586598]]]]}}, {"type": "Feature", "properties": {"area_id": 4290, "city": "Bay City", "state": "MI", "city_survey": true, "cat": "Hazardous", "grade": "D", "label": "D4", "res": true, "com": false, "ind": false, "fill": "#d9838d", "GEOID10": "26017280600", "GISJOIN": "G2600170280600", "calc_area": 373923.8299, "pct_tract": 0.3207}, "geometry": {"type": "MultiPolygon", "coordinates": [[[[-83.87708, 43.58535], [-83.87705, 43.58356], [-83.88106, 43.58363], [-83.88085, 43.58905], [-83.87408, 43.58903], [-83.87408, 43.58925], [-83.87393, 43.58937], [-83.873923, 43.589393], [-83.873786, 43.589391], [-83.871697, 43.589412], [-83.871696, 43.589316], [-83.871794, 43.589105], [-83.87185, 43.588914], [-83.871868, 43.588643], [-83.871842, 43.5874], [-83.871811, 43.586599], [-83.871793, 43.585645], [-83.871772, 43.585222], [-83.87708, 43.58535]]]]}}, {"type": "Feature", "properties": {"area_id": 4290, "city": "Bay City", "state": "MI", "city_survey": true, "cat": "Hazardous", "grade": "D", "label": "D4", "res": true, "com": false, "ind": false, "fill": "#d9838d", "GEOID10": "26017285201", "GISJOIN": "G2600170285201", "calc_area": 1502.78184, "pct_tract": 4e-05}, "geometry": {"type": "MultiPolygon", "coordinates": [[[[-83.87167, 43.58522], [-83.871772, 43.585222], [-83.871793, 43.585645], [-83.871811, 43.586599], [-83.871679, 43.586598], [-83.87167, 43.58522]]]]}}, {"type": "Feature", "properties": {"area_id": 4292, "city": "Bay City", "state": "MI", "city_survey": true, "cat": "Hazardous", "grade": "D", "label": "D5", "res": true, "com": false, "ind": false, "fill": "#d9838d", "GEOID10": "26017280700", "GISJOIN": "G2600170280700", "calc_area": 587800.81199, "pct_tract": 0.38634}, "geometry": {"type": "MultiPolygon", "coordinates": [[[[-83.89048, 43.58901], [-83.89091, 43.57968], [-83.89366, 43.57961], [-83.89352, 43.57572], [-83.89413, 43.57572], [-83.89413, 43.572801], [-83.894756, 43.572803], [-83.895785, 43.572817], [-83.896798, 43.572842], [-83.897816, 43.572858], [-83.898847, 43.572847], [-83.899859, 43.572864], [-83.90055, 43.572904], [-83.900795, 43.572318], [-83.900867, 43.572098], [-83.900897, 43.571859], [-83.901104, 43.571808], [-83.9011, 43.5719], [-83.89968, 43.57471], [-83.89591, 43.57488], [-83.89597, 43.57608], [-83.89682, 43.5762], [-83.89682, 43.57657], [-83.89722, 43.57657], [-83.89848, 43.57657], [-83.89842, 43.57719], [-83.89831, 43.57781], [-83.89785, 43.57864], [-83.89802, 43.57884], [-83.891753, 43.588716], [-83.891674, 43.588726], [-83.890634, 43.588726], [-83.890631, 43.588976], [-83.89048, 43.58901]]]]}}, {"type": "Feature", "properties": {"area_id": 4292, "city": "Bay City", "state": "MI", "city_survey": true, "cat": "Hazardous", "grade": "D", "label": "D5", "res": true, "com": false, "ind": false, "fill": "#d9838d", "GEOID10": "26017280900", "GISJOIN": "G2600170280900", "calc_area": 837847.48879, "pct_tract": 0.20086}, "geometry": {"type": "MultiPolygon", "coordinates": [[[[-83.90065, 43.55942], [-83.90127, 43.56587], [-83.90105, 43.56723], [-83.90122, 43.56876], [-83.901104, 43.571808], [-83.900897, 43.571859], [-83.900867, 43.572098], [-83.900795, 43.572318], [-83.90055, 43.572904], [-83.899859, 43.572864], [-83.898847, 43.572847], [-83.897816, 43.572858], [-83.896798, 43.572842], [-83.895785, 43.572817], [-83.894756, 43.572803], [-83.89413, 43.572801], [-83.89413, 43.57044], [-83.89357, 43.57052], [-83.89362, 43.56898], [-83.89478, 43.56896], [-83.89481, 43.56797], [-83.89366, 43.5679], [-83.89385, 43.56239], [-83.89403, 43.55946], [-83.89722, 43.56045], [-83.897201, 43.560359], [-83.897216, 43.560363], [-83.897217, 43.559661], [-83.897235, 43.559619], [-83.90065, 43.55942]]]]}}, {"type": "Feature", "properties": {"area_id": 4292, "city": "Bay City", "state": "MI", "city_survey": true, "cat": "Hazardous", "grade": "D", "label": "D5", "res": true, "com": false, "ind": false, "fill": "#d9838d", "GEOID10": "26017285300", "GISJOIN": "G2600170285300", "calc_area": 606.07781, "pct_tract": 0.0}, "geometry": {"type": "MultiPolygon", "coordinates": [[[[-83.89705, 43.55963], [-83.897235, 43.559619], [-83.897217, 43.559661], [-83.897216, 43.560363], [-83.897201, 43.560359], [-83.89705, 43.55963]]]]}}, {"type": "Feature", "properties": {"area_id": 4292, "city": "Bay City", "state": "MI", "city_survey": true, "cat": "Hazardous", "grade": "D", "label": "D5", "res": true, "com": false, "ind": false, "fill": "#d9838d", "GEOID10": "26017286500", "GISJOIN": "G2600170286500", "calc_area": 1222.60272, "pct_tract": 0.00032}, "geometry": {"type": "MultiPolygon", "coordinates": [[[[-83.89175, 43.58872], [-83.890631, 43.588976], [-83.890634, 43.588726], [-83.891674, 43.588726], [-83.891753, 43.588716], [-83.89175, 43.58872]]]]}}, {"type": "Feature", "properties": {"area_id": 4282, "city": "Bay City", "state": "MI", "city_survey": true, "cat": "Hazardous", "grade": "D", "label": "D6", "res": true, "com": false, "ind": false, "fill": "#d9838d", "GEOID10": "26017285900", "GISJOIN": "G2600170285900", "calc_area": 2824.13107, "pct_tract": 0.00014}, "geometry": {"type": "MultiPolygon", "coordinates": [[[[-83.872237, 43.616964], [-83.872264, 43.617054], [-83.871277, 43.617253], [-83.86968, 43.617616], [-83.869544, 43.617642], [-83.868216, 43.617935], [-83.872237, 43.616964]]], [[[-83.8648, 43.61876], [-83.864803, 43.618759], [-83.8648, 43.618763], [-83.8648, 43.61876]]], [[[-83.875919, 43.623405], [-83.875949, 43.623387], [-83.876783, 43.623376], [-83.876957, 43.623402], [-83.877216, 43.623424], [-83.875919, 43.623405]]], [[[-83.877256, 43.623425], [-83.87949, 43.623414], [-83.882282, 43.623501], [-83.877256, 43.623425]]]]}}, {"type": "Feature", "properties": {"area_id": 4282, "city": "Bay City", "state": "MI", "city_survey": true, "cat": "Hazardous", "grade": "D", "label": "D6", "res": true, "com": false, "ind": false, "fill": "#d9838d", "GEOID10": "26017281300", "GISJOIN": "G2600170281300", "calc_area": 2216580.64443, "pct_tract": 0.54952}, "geometry": {"type": "MultiPolygon", "coordinates": [[[[-83.873, 43.61678], [-83.873, 43.61551], [-83.88057, 43.61427], [-83.88283, 43.61409], [-83.88435, 43.6131], [-83.88922, 43.61252], [-83.893948, 43.612398], [-83.894248, 43.612655], [-83.894411, 43.612795], [-83.894749, 43.613072], [-83.894981, 43.613275], [-83.89477, 43.61648], [-83.89448, 43.62354], [-83.8888, 43.6236], [-83.882282, 43.623501], [-83.87949, 43.623414], [-83.877256, 43.623425], [-83.877216, 43.623424], [-83.876957, 43.623402], [-83.876783, 43.623376], [-83.875949, 43.623387], [-83.875919, 43.623405], [-83.8743, 43.62338], [-83.87442, 43.62078], [-83.86937, 43.62072], [-83.86937, 43.62328], [-83.86417, 43.62319], [-83.8648, 43.618763], [-83.864803, 43.618759], [-83.868216, 43.617935], [-83.869544, 43.617642], [-83.86968, 43.617616], [-83.871277, 43.617253], [-83.872264, 43.617054], [-83.872237, 43.616964], [-83.873, 43.61678]]]]}}, {"type": "Feature", "properties": {"area_id": 4282, "city": "Bay City", "state": "MI", "city_survey": true, "cat": "Hazardous", "grade": "D", "label": "D6", "res": true, "com": false, "ind": false, "fill": "#d9838d", "GEOID10": "26017286600", "GISJOIN": "G2600170286600", "calc_area": 4420.77775, "pct_tract": 0.00154}, "geometry": {"type": "MultiPolygon", "coordinates": [[[[-83.89504, 43.61237], [-83.894981, 43.613275], [-83.894749, 43.613072], [-83.894411, 43.612795], [-83.894248, 43.612655], [-83.893948, 43.612398], [-83.89504, 43.61237]]]]}}, {"type": "Feature", "properties": {"area_id": 4281, "city": "Bay City", "state": "MI", "city_survey": true, "cat": "Hazardous", "grade": "D", "label": "D7", "res": true, "com": false, "ind": false, "fill": "#d9838d", "GEOID10": "26017285800", "GISJOIN": "G2600170285800", "calc_area": 40632.98055, "pct_tract": 0.00489}, "geometry": {"type": "MultiPolygon", "coordinates": [[[[-83.91495, 43.60973], [-83.904855, 43.609688], [-83.904875, 43.609234], [-83.90606, 43.60924], [-83.907109, 43.609257], [-83.907842, 43.609264], [-83.908152, 43.609267], [-83.908345, 43.609266], [-83.90885, 43.609266], [-83.909163, 43.609273], [-83.910662, 43.609274], [-83.911932, 43.609278], [-83.912317, 43.60928], [-83.913225, 43.609291], [-83.913488, 43.609294], [-83.914848, 43.609298], [-83.914931, 43.607195], [-83.91495, 43.60973]]]]}}, {"type": "Feature", "properties": {"area_id": 4281, "city": "Bay City", "state": "MI", "city_survey": true, "cat": "Hazardous", "grade": "D", "label": "D7", "res": true, "com": false, "ind": false, "fill": "#d9838d", "GEOID10": "26017281300", "GISJOIN": "G2600170281300", "calc_area": 52949.7086, "pct_tract": 0.01313}, "geometry": {"type": "MultiPolygon", "coordinates": [[[[-83.89477, 43.61648], [-83.894981, 43.613275], [-83.895341, 43.61359], [-83.895673, 43.613899], [-83.896325, 43.614511], [-83.897498, 43.61559], [-83.897622, 43.615704], [-83.898443, 43.616464], [-83.89477, 43.61648]]]]}}, {"type": "Feature", "properties": {"area_id": 4281, "city": "Bay City", "state": "MI", "city_survey": true, "cat": "Hazardous", "grade": "D", "label": "D7", "res": true, "com": false, "ind": false, "fill": "#d9838d", "GEOID10": "26017286600", "GISJOIN": "G2600170286600", "calc_area": 1009044.65701, "pct_tract": 0.35089}, "geometry": {"type": "MultiPolygon", "coordinates": [[[[-83.89504, 43.61237], [-83.89507, 43.6071], [-83.89477, 43.60691], [-83.8959, 43.60553], [-83.90589, 43.60562], [-83.91391, 43.6056], [-83.91492, 43.60566], [-83.914931, 43.607195], [-83.914848, 43.609298], [-83.913488, 43.609294], [-83.913225, 43.609291], [-83.912317, 43.60928], [-83.911932, 43.609278], [-83.910662, 43.609274], [-83.909163, 43.609273], [-83.90885, 43.609266], [-83.908345, 43.609266], [-83.908152, 43.609267], [-83.907842, 43.609264], [-83.907109, 43.609257], [-83.90606, 43.60924], [-83.904875, 43.609234], [-83.904855, 43.609688], [-83.90294, 43.60968], [-83.90268, 43.61289], [-83.89971, 43.61282], [-83.8995, 43.61646], [-83.898443, 43.616464], [-83.897622, 43.615704], [-83.897498, 43.61559], [-83.896325, 43.614511], [-83.895673, 43.613899], [-83.895341, 43.61359], [-83.894981, 43.613275], [-83.89504, 43.61237]]]]}}, {"type": "Feature", "properties": {"area_id": 4277, "city": "Bay City", "state": "MI", "city_survey": true, "cat": "Hazardous", "grade": "D", "label": "D8", "res": true, "com": false, "ind": false, "fill": "#d9838d", "GEOID10": "26017285800", "GISJOIN": "G2600170285800", "calc_area": 132010.00925, "pct_tract": 0.01587}, "geometry": {"type": "MultiPolygon", "coordinates": [[[[-83.9172, 43.60205], [-83.915186, 43.60207], [-83.915196, 43.601331], [-83.915236, 43.600035], [-83.915288, 43.598778], [-83.915357, 43.597464], [-83.9154, 43.596172], [-83.915436, 43.59486], [-83.91631, 43.59486], [-83.916467, 43.594845], [-83.916809, 43.594837], [-83.917455, 43.594839], [-83.917496, 43.59484], [-83.9172, 43.60205]]]]}}, {"type": "Feature", "properties": {"area_id": 4277, "city": "Bay City", "state": "MI", "city_survey": true, "cat": "Hazardous", "grade": "D", "label": "D8", "res": true, "com": false, "ind": false, "fill": "#d9838d", "GEOID10": "26017281000", "GISJOIN": "G2600170281000", "calc_area": 828697.19772, "pct_tract": 0.17156}, "geometry": {"type": "MultiPolygon", "coordinates": [[[[-83.89926, 43.59486], [-83.90422, 43.58698], [-83.90398, 43.58662], [-83.90428, 43.58621], [-83.90538, 43.58666], [-83.90571, 43.58692], [-83.90568, 43.59047], [-83.90568, 43.59269], [-83.91052, 43.59279], [-83.91049, 43.59471], [-83.91492, 43.59486], [-83.915436, 43.59486], [-83.9154, 43.596172], [-83.915357, 43.597464], [-83.915288, 43.598778], [-83.915236, 43.600035], [-83.915196, 43.601331], [-83.915186, 43.60207], [-83.91515, 43.60207], [-83.91524, 43.59845], [-83.906878, 43.59845], [-83.906905, 43.597416], [-83.905375, 43.597401], [-83.904277, 43.597405], [-83.903351, 43.597394], [-83.903146, 43.597386], [-83.902304, 43.597383], [-83.901261, 43.59737], [-83.900272, 43.59736], [-83.899543, 43.597354], [-83.899238, 43.597338], [-83.89926, 43.59486]]]]}}, {"type": "Feature", "properties": {"area_id": 4277, "city": "Bay City", "state": "MI", "city_survey": true, "cat": "Hazardous", "grade": "D", "label": "D8", "res": true, "com": false, "ind": false, "fill": "#d9838d", "GEOID10": "26017285500", "GISJOIN": "G2600170285500", "calc_area": 382.15785, "pct_tract": 1e-05}, "geometry": {"type": "MultiPolygon", "coordinates": [[[[-83.9175, 43.59475], [-83.917496, 43.59484], [-83.917455, 43.594839], [-83.916809, 43.594837], [-83.916467, 43.594845], [-83.9175, 43.59475]]]]}}, {"type": "Feature", "properties": {"area_id": 4277, "city": "Bay City", "state": "MI", "city_survey": true, "cat": "Hazardous", "grade": "D", "label": "D8", "res": true, "com": false, "ind": false, "fill": "#d9838d", "GEOID10": "26017286600", "GISJOIN": "G2600170286600", "calc_area": 255569.51758, "pct_tract": 0.08887}, "geometry": {"type": "MultiPolygon", "coordinates": [[[[-83.90589, 43.59845], [-83.90565, 43.59873], [-83.90565, 43.60172], [-83.90443, 43.60172], [-83.90428, 43.60123], [-83.90339, 43.60129], [-83.90339, 43.60166], [-83.8992, 43.60164], [-83.899238, 43.597338], [-83.899543, 43.597354], [-83.900272, 43.59736], [-83.901261, 43.59737], [-83.902304, 43.597383], [-83.903146, 43.597386], [-83.903351, 43.597394], [-83.904277, 43.597405], [-83.905375, 43.597401], [-83.906905, 43.597416], [-83.906878, 43.59845], [-83.90589, 43.59845]]]]}}, {"type": "Feature", "properties": {"area_id": 11231, "city": "Bay City", "state": "MI", "city_survey": true, "cat": "Industrial", "grade": null, "label": "Industrial", "res": false, "com": false, "ind": true, "fill": "#000000", "GEOID10": "26017285900", "GISJOIN": "G2600170285900", "calc_area": 222743.43136, "pct_tract": 0.01135}, "geometry": {"type": "MultiPolygon", "coordinates": [[[[-83.8648, 43.61876], [-83.86439, 43.61475], [-83.86872, 43.61462], [-83.86995, 43.61424], [-83.87127, 43.61454], [-83.871889, 43.614382], [-83.871953, 43.614891], [-83.871965, 43.614986], [-83.872195, 43.616823], [-83.872237, 43.616964], [-83.868216, 43.617935], [-83.867134, 43.618174], [-83.866857, 43.618236], [-83.864884, 43.618678], [-83.864803, 43.618759], [-83.8648, 43.61876]]]]}}, {"type": "Feature", "properties": {"area_id": 11231, "city": "Bay City", "state": "MI", "city_survey": true, "cat": "Industrial", "grade": null, "label": "Industrial", "res": false, "com": false, "ind": true, "fill": "#000000", "GEOID10": "26017280700", "GISJOIN": "G2600170280700", "calc_area": 92845.04243, "pct_tract": 0.06102}, "geometry": {"type": "MultiPolygon", "coordinates": [[[[-83.90085, 43.57366], [-83.90154, 43.57399], [-83.90126, 43.57422], [-83.90039, 43.57417], [-83.89998, 43.57624], [-83.90019, 43.57672], [-83.898974, 43.579689], [-83.898128, 43.57964], [-83.897819, 43.57964], [-83.897189, 43.580704], [-83.896357, 43.581935], [-83.895371, 43.58344], [-83.894904, 43.58415], [-83.894399, 43.584927], [-83.89388, 43.585684], [-83.89385, 43.58574], [-83.893739, 43.585907], [-83.893234, 43.586665], [-83.892494, 43.587804], [-83.891967, 43.588638], [-83.891866, 43.588683], [-83.891783, 43.588712], [-83.891753, 43.588716], [-83.89802, 43.57884], [-83.89785, 43.57864], [-83.89831, 43.57781], [-83.89842, 43.57719], [-83.89948, 43.57582], [-83.89968, 43.57471], [-83.9011, 43.5719], [-83.901104, 43.571808], [-83.901223, 43.571778], [-83.901859, 43.571621], [-83.901985, 43.571681], [-83.90085, 43.57366]]]]}}, {"type": "Feature", "properties": {"area_id": 11231, "city": "Bay City", "state": "MI", "city_survey": true, "cat": "Industrial", "grade": null, "label": "Industrial", "res": false, "com": false, "ind": true, "fill": "#000000", "GEOID10": "26017280800", "GISJOIN": "G2600170280800", "calc_area": 100760.84047, "pct_tract": 0.04546}, "geometry": {"type": "MultiPolygon", "coordinates": [[[[-83.88035, 43.57569], [-83.88031, 43.57861], [-83.876536, 43.578648], [-83.876532, 43.578505], [-83.876531, 43.577834], [-83.876546, 43.576629], [-83.876549, 43.576533], [-83.876518, 43.57565], [-83.88035, 43.57569]]]]}}, {"type": "Feature", "properties": {"area_id": 11231, "city": "Bay City", "state": "MI", "city_survey": true, "cat": "Industrial", "grade": null, "label": "Industrial", "res": false, "com": false, "ind": true, "fill": "#000000", "GEOID10": "26017280900", "GISJOIN": "G2600170280900", "calc_area": 190334.76754, "pct_tract": 0.04563}, "geometry": {"type": "MultiPolygon", "coordinates": [[[[-83.90122, 43.56876], [-83.90105, 43.56723], [-83.90127, 43.56587], [-83.90065, 43.55942], [-83.90284, 43.56184], [-83.90366, 43.564], [-83.90326, 43.56641], [-83.90384, 43.56765], [-83.90273, 43.56815], [-83.90296, 43.5693], [-83.90236, 43.56971], [-83.90195, 43.57082], [-83.90202, 43.57162], [-83.901985, 43.571681], [-83.901859, 43.571621], [-83.901223, 43.571778], [-83.901104, 43.571808], [-83.90122, 43.56876]]]]}}, {"type": "Feature", "properties": {"area_id": 11231, "city": "Bay City", "state": "MI", "city_survey": true, "cat": "Industrial", "grade": null, "label": "Industrial", "res": false, "com": false, "ind": true, "fill": "#000000", "GEOID10": "26017281000", "GISJOIN": "G2600170281000", "calc_area": 569054.04, "pct_tract": 0.11781}, "geometry": {"type": "MultiPolygon", "coordinates": [[[[-83.90978, 43.5725], [-83.91289, 43.57488], [-83.91079, 43.579], [-83.90981, 43.579], [-83.90963, 43.58083], [-83.90502, 43.58087], [-83.90531, 43.57998], [-83.90695, 43.57758], [-83.90777, 43.57667], [-83.90978, 43.5725]]], [[[-83.90568, 43.59047], [-83.91061, 43.59056], [-83.91052, 43.59279], [-83.90568, 43.59269], [-83.90568, 43.59047]]], [[[-83.89454, 43.59628], [-83.89738, 43.59163], [-83.89879, 43.59098], [-83.9012, 43.59177], [-83.89926, 43.59486], [-83.898127, 43.59716], [-83.898094, 43.597155], [-83.897267, 43.596995], [-83.895404, 43.596636], [-83.89473, 43.596506], [-83.894497, 43.596459], [-83.89454, 43.59628]]]]}}, {"type": "Feature", "properties": {"area_id": 11231, "city": "Bay City", "state": "MI", "city_survey": true, "cat": "Industrial", "grade": null, "label": "Industrial", "res": false, "com": false, "ind": true, "fill": "#000000", "GEOID10": "26017281300", "GISJOIN": "G2600170281300", "calc_area": 463876.55353, "pct_tract": 0.115}, "geometry": {"type": "MultiPolygon", "coordinates": [[[[-83.864803, 43.618759], [-83.864884, 43.618678], [-83.866857, 43.618236], [-83.867134, 43.618174], [-83.868216, 43.617935], [-83.864803, 43.618759]]], [[[-83.88922, 43.61252], [-83.88435, 43.6131], [-83.88283, 43.61409], [-83.88057, 43.61427], [-83.873, 43.61551], [-83.873, 43.61678], [-83.872237, 43.616964], [-83.872195, 43.616823], [-83.871965, 43.614986], [-83.871953, 43.614891], [-83.871889, 43.614382], [-83.87229, 43.61428], [-83.87422, 43.61411], [-83.87576, 43.6137], [-83.88061, 43.61226], [-83.88073, 43.6128], [-83.87907, 43.61332], [-83.87938, 43.61369], [-83.88184, 43.61305], [-83.88442, 43.61188], [-83.88629, 43.61027], [-83.88867, 43.60858], [-83.88939, 43.60848], [-83.89048, 43.60882], [-83.89114, 43.60789], [-83.89206, 43.60638], [-83.891265, 43.605853], [-83.8918, 43.605973], [-83.892833, 43.606456], [-83.893183, 43.606855], [-83.893232, 43.60814], [-83.893206, 43.610276], [-83.893197, 43.611127], [-83.893213, 43.611347], [-83.893253, 43.611534], [-83.893305, 43.611705], [-83.893469, 43.611989], [-83.893948, 43.612398], [-83.88922, 43.61252]]]]}}, {"type": "Feature", "properties": {"area_id": 11231, "city": "Bay City", "state": "MI", "city_survey": true, "cat": "Industrial", "grade": null, "label": "Industrial", "res": false, "com": false, "ind": true, "fill": "#000000", "GEOID10": "26017285300", "GISJOIN": "G2600170285300", "calc_area": 3001.43329, "pct_tract": 2e-05}, "geometry": {"type": "MultiPolygon", "coordinates": [[[[-83.87636, 43.57865], [-83.8765, 43.57539], [-83.8765, 43.57565], [-83.876518, 43.57565], [-83.876549, 43.576533], [-83.876546, 43.576629], [-83.876531, 43.577834], [-83.876532, 43.578505], [-83.876536, 43.578648], [-83.87636, 43.57865]]]]}}, {"type": "Feature", "properties": {"area_id": 11231, "city": "Bay City", "state": "MI", "city_survey": true, "cat": "Industrial", "grade": null, "label": "Industrial", "res": false, "com": false, "ind": true, "fill": "#000000", "GEOID10": "26017285100", "GISJOIN": "G2600170285100", "calc_area": 313181.66091, "pct_tract": 0.08595}, "geometry": {"type": "MultiPolygon", "coordinates": [[[[-83.85636, 43.61175], [-83.85576, 43.61217], [-83.85553, 43.61273], [-83.85507, 43.61273], [-83.8549, 43.61209], [-83.85468, 43.612], [-83.8542, 43.61201], [-83.85331, 43.61227], [-83.85294, 43.61265], [-83.85285, 43.61349], [-83.85211, 43.61376], [-83.85204, 43.61335], [-83.85167, 43.61316], [-83.85137, 43.61313], [-83.85017, 43.61371], [-83.84926, 43.61427], [-83.8486, 43.61442], [-83.8487, 43.60878], [-83.84903, 43.60882], [-83.85456, 43.60877], [-83.85699, 43.60896], [-83.85632, 43.60964], [-83.857481, 43.609617], [-83.857431, 43.610933], [-83.857429, 43.610946], [-83.857419, 43.611046], [-83.857416, 43.611083], [-83.857414, 43.611429], [-83.85636, 43.61175]]]]}}, {"type": "Feature", "properties": {"area_id": 11231, "city": "Bay City", "state": "MI", "city_survey": true, "cat": "Industrial", "grade": null, "label": "Industrial", "res": false, "com": false, "ind": true, "fill": "#000000", "GEOID10": "26017286500", "GISJOIN": "G2600170286500", "calc_area": 994360.27916, "pct_tract": 0.2641}, "geometry": {"type": "MultiPolygon", "coordinates": [[[[-83.89838, 43.58114], [-83.89674, 43.58194], [-83.89662, 43.58288], [-83.89619, 43.58358], [-83.89713, 43.58371], [-83.89662, 43.58494], [-83.8959, 43.58571], [-83.89514, 43.58584], [-83.89508, 43.58597], [-83.89588, 43.58597], [-83.8953, 43.58785], [-83.89355, 43.58792], [-83.8935, 43.58822], [-83.89526, 43.58808], [-83.89429, 43.5912], [-83.89181, 43.59285], [-83.89091, 43.59227], [-83.89121, 43.59047], [-83.8918, 43.58939], [-83.89175, 43.58872], [-83.891753, 43.588716], [-83.891783, 43.588712], [-83.891866, 43.588683], [-83.891967, 43.588638], [-83.892494, 43.587804], [-83.893234, 43.586665], [-83.893739, 43.585907], [-83.89385, 43.58574], [-83.89388, 43.585684], [-83.894399, 43.584927], [-83.894904, 43.58415], [-83.895371, 43.58344], [-83.896357, 43.581935], [-83.897189, 43.580704], [-83.897819, 43.57964], [-83.898128, 43.57964], [-83.898974, 43.579689], [-83.89838, 43.58114]]], [[[-83.85831, 43.6096], [-83.85831, 43.61007], [-83.85981, 43.61015], [-83.85991, 43.60898], [-83.8673, 43.609], [-83.8673, 43.60657], [-83.86761, 43.60673], [-83.86944, 43.60681], [-83.87222, 43.60723], [-83.87685, 43.60628], [-83.87715, 43.60621], [-83.87871, 43.60587], [-83.8789, 43.60592], [-83.88163, 43.6049], [-83.88099, 43.60398], [-83.88579, 43.60409], [-83.88936, 43.6044], [-83.88871, 43.60529], [-83.88816, 43.60539], [-83.88775, 43.60532], [-83.88747, 43.60547], [-83.88787, 43.60566], [-83.88729, 43.60623], [-83.88703, 43.60614], [-83.88601, 43.60704], [-83.88421, 43.60832], [-83.88389, 43.60915], [-83.88351, 43.60899], [-83.88361, 43.60708], [-83.88341, 43.60689], [-83.88323, 43.60923], [-83.88262, 43.60886], [-83.88279, 43.60782], [-83.88267, 43.60767], [-83.88215, 43.60768], [-83.8814, 43.60795], [-83.88085, 43.60831], [-83.88047, 43.60824], [-83.88018, 43.60779], [-83.87894, 43.60807], [-83.87791, 43.60819], [-83.87788, 43.60842], [-83.87832, 43.60977], [-83.87789, 43.60983], [-83.87738, 43.60849], [-83.877, 43.60867], [-83.87691, 43.60886], [-83.87708, 43.60923], [-83.87753, 43.61035], [-83.87691, 43.6102], [-83.87594, 43.60993], [-83.87542, 43.61003], [-83.87398, 43.61007], [-83.87315, 43.60986], [-83.87225, 43.61005], [-83.87208, 43.61041], [-83.87183, 43.61022], [-83.87026, 43.61037], [-83.86815, 43.61041], [-83.86784, 43.61024], [-83.86736, 43.61027], [-83.86379, 43.61075], [-83.86263, 43.61075], [-83.86121, 43.61119], [-83.85889, 43.6112], [-83.85787, 43.61129], [-83.857414, 43.611429], [-83.857416, 43.611083], [-83.857419, 43.611046], [-83.857429, 43.610946], [-83.857431, 43.610933], [-83.857481, 43.609617], [-83.85831, 43.6096]]]]}}, {"type": "Feature", "properties": {"area_id": 11231, "city": "Bay City", "state": "MI", "city_survey": true, "cat": "Industrial", "grade": null, "label": "Industrial", "res": false, "com": false, "ind": true, "fill": "#000000", "GEOID10": "26017286600", "GISJOIN": "G2600170286600", "calc_area": 368081.96551, "pct_tract": 0.128}, "geometry": {"type": "MultiPolygon", "coordinates": [[[[-83.89759, 43.59825], [-83.89739, 43.60132], [-83.89311, 43.60624], [-83.89477, 43.60691], [-83.89507, 43.6071], [-83.89504, 43.61237], [-83.893948, 43.612398], [-83.893469, 43.611989], [-83.893305, 43.611705], [-83.893253, 43.611534], [-83.893213, 43.611347], [-83.893197, 43.611127], [-83.893206, 43.610276], [-83.893232, 43.60814], [-83.893183, 43.606855], [-83.892833, 43.606456], [-83.8918, 43.605973], [-83.891265, 43.605853], [-83.89126, 43.60585], [-83.89208, 43.60462], [-83.89278, 43.60454], [-83.89348, 43.60383], [-83.89253, 43.60328], [-83.89381, 43.5993], [-83.894497, 43.596459], [-83.89473, 43.596506], [-83.895404, 43.596636], [-83.897267, 43.596995], [-83.898094, 43.597155], [-83.898127, 43.59716], [-83.89759, 43.59825]]]]}}, {"type": "Feature", "properties": {"area_id": 11232, "city": "Bay City", "state": "MI", "city_survey": true, "cat": "Commercial", "grade": null, "label": "Commercial", "res": false, "com": true, "ind": false, "fill": "#000000", "GEOID10": "26017280300", "GISJOIN": "G2600170280300", "calc_area": 76558.48233, "pct_tract": 0.11303}, "geometry": {"type": "MultiPolygon", "coordinates": [[[[-83.88184, 43.59805], [-83.881932, 43.597597], [-83.882365, 43.597626], [-83.883461, 43.597708], [-83.883391, 43.598095], [-83.88184, 43.59805]]], [[[-83.87161, 43.60191], [-83.87348, 43.60206], [-83.87715, 43.60255], [-83.87702, 43.60363], [-83.87153, 43.60356], [-83.871504, 43.603568], [-83.87148, 43.601963], [-83.871477, 43.601895], [-83.87161, 43.60191]]]]}}, {"type": "Feature", "properties": {"area_id": 11232, "city": "Bay City", "state": "MI", "city_survey": true, "cat": "Commercial", "grade": null, "label": "Commercial", "res": false, "com": true, "ind": false, "fill": "#000000", "GEOID10": "26017280400", "GISJOIN": "G2600170280400", "calc_area": 56025.63017, "pct_tract": 0.06446}, "geometry": {"type": "MultiPolygon", "coordinates": [[[[-83.8759, 43.58993], [-83.87375, 43.58992], [-83.873923, 43.589393], [-83.874773, 43.589403], [-83.875136, 43.589405], [-83.87623, 43.589418], [-83.877194, 43.589408], [-83.878299, 43.589417], [-83.879366, 43.589417], [-83.880429, 43.589411], [-83.881489, 43.589421], [-83.882542, 43.589422], [-83.883614, 43.589392], [-83.884656, 43.589415], [-83.884583, 43.58993], [-83.8759, 43.58993]]], [[[-83.88202, 43.59716], [-83.883522, 43.597283], [-83.883461, 43.597708], [-83.882365, 43.597626], [-83.881932, 43.597597], [-83.88202, 43.59716]]]]}}, {"type": "Feature", "properties": {"area_id": 11232, "city": "Bay City", "state": "MI", "city_survey": true, "cat": "Commercial", "grade": null, "label": "Commercial", "res": false, "com": true, "ind": false, "fill": "#000000", "GEOID10": "26017280500", "GISJOIN": "G2600170280500", "calc_area": 150617.7774, "pct_tract": 0.05201}, "geometry": {"type": "MultiPolygon", "coordinates": [[[[-83.85437, 43.59526], [-83.85568, 43.59612], [-83.85542, 43.59647], [-83.85628, 43.59739], [-83.85209, 43.59704], [-83.852033, 43.595672], [-83.852667, 43.595291], [-83.852615, 43.595063], [-83.85437, 43.59526]]], [[[-83.86756, 43.60478], [-83.86727, 43.60146], [-83.87143, 43.60189], [-83.871477, 43.601895], [-83.87148, 43.601963], [-83.871504, 43.603568], [-83.86756, 43.60478]]]]}}, {"type": "Feature", "properties": {"area_id": 11232, "city": "Bay City", "state": "MI", "city_survey": true, "cat": "Commercial", "grade": null, "label": "Commercial", "res": false, "com": true, "ind": false, "fill": "#000000", "GEOID10": "26017280600", "GISJOIN": "G2600170280600", "calc_area": 54235.19489, "pct_tract": 0.04652}, "geometry": {"type": "MultiPolygon", "coordinates": [[[[-83.88363, 43.58061], [-83.882, 43.5806], [-83.88031, 43.58058], [-83.88031, 43.580116], [-83.880328, 43.580116], [-83.881374, 43.580091], [-83.882416, 43.580077], [-83.882489, 43.580077], [-83.883542, 43.58008], [-83.88363, 43.58008], [-83.88363, 43.58061]]], [[[-83.87393, 43.58937], [-83.87408, 43.58925], [-83.87408, 43.58903], [-83.88085, 43.58905], [-83.885769, 43.58903], [-83.885781, 43.589398], [-83.884656, 43.589415], [-83.883614, 43.589392], [-83.882542, 43.589422], [-83.881489, 43.589421], [-83.880429, 43.589411], [-83.879366, 43.589417], [-83.878299, 43.589417], [-83.877194, 43.589408], [-83.87623, 43.589418], [-83.875136, 43.589405], [-83.874773, 43.589403], [-83.873923, 43.589393], [-83.87393, 43.58937]]]]}}, {"type": "Feature", "properties": {"area_id": 11232, "city": "Bay City", "state": "MI", "city_survey": true, "cat": "Commercial", "grade": null, "label": "Commercial", "res": false, "com": true, "ind": false, "fill": "#000000", "GEOID10": "26017280700", "GISJOIN": "G2600170280700", "calc_area": 93891.05082, "pct_tract": 0.06171}, "geometry": {"type": "MultiPolygon", "coordinates": [[[[-83.89413, 43.57572], [-83.89352, 43.57572], [-83.89319, 43.57562], [-83.89319, 43.57309], [-83.89319, 43.572799], [-83.893692, 43.5728], [-83.89413, 43.572801], [-83.89413, 43.57572]]], [[[-83.89848, 43.57657], [-83.89722, 43.57657], [-83.89682, 43.57657], [-83.89682, 43.5762], [-83.89597, 43.57608], [-83.89591, 43.57488], [-83.89968, 43.57471], [-83.89948, 43.57582], [-83.89842, 43.57719], [-83.89846, 43.57675], [-83.89848, 43.57657]]], [[[-83.89048, 43.58901], [-83.890631, 43.588976], [-83.890629, 43.589132], [-83.89059, 43.589241], [-83.890538, 43.58933], [-83.890419, 43.589382], [-83.890315, 43.589401], [-83.890232, 43.589412], [-83.889114, 43.5894], [-83.888489, 43.58938], [-83.887913, 43.589402], [-83.887476, 43.589393], [-83.886889, 43.5894], [-83.885781, 43.589398], [-83.885769, 43.58903], [-83.89048, 43.58901]]]]}}, {"type": "Feature", "properties": {"area_id": 11232, "city": "Bay City", "state": "MI", "city_survey": true, "cat": "Commercial", "grade": null, "label": "Commercial", "res": false, "com": true, "ind": false, "fill": "#000000", "GEOID10": "26017280800", "GISJOIN": "G2600170280800", "calc_area": 13713.78725, "pct_tract": 0.00619}, "geometry": {"type": "MultiPolygon", "coordinates": [[[[-83.88031, 43.57961], [-83.8823, 43.57963], [-83.88363, 43.57965], [-83.88363, 43.58008], [-83.883542, 43.58008], [-83.882489, 43.580077], [-83.882416, 43.580077], [-83.881374, 43.580091], [-83.880328, 43.580116], [-83.88031, 43.580116], [-83.88031, 43.57961]]]]}}, {"type": "Feature", "properties": {"area_id": 11232, "city": "Bay City", "state": "MI", "city_survey": true, "cat": "Commercial", "grade": null, "label": "Commercial", "res": false, "com": true, "ind": false, "fill": "#000000", "GEOID10": "26017280900", "GISJOIN": "G2600170280900", "calc_area": 19367.53278, "pct_tract": 0.00464}, "geometry": {"type": "MultiPolygon", "coordinates": [[[[-83.89319, 43.57056], [-83.89357, 43.57052], [-83.89413, 43.57044], [-83.89413, 43.57238], [-83.89413, 43.572801], [-83.893692, 43.5728], [-83.89319, 43.572799], [-83.89319, 43.57056]]]]}}, {"type": "Feature", "properties": {"area_id": 11232, "city": "Bay City", "state": "MI", "city_survey": true, "cat": "Commercial", "grade": null, "label": "Commercial", "res": false, "com": true, "ind": false, "fill": "#000000", "GEOID10": "26017281000", "GISJOIN": "G2600170281000", "calc_area": 155963.51424, "pct_tract": 0.03229}, "geometry": {"type": "MultiPolygon", "coordinates": [[[[-83.90176, 43.5858], [-83.90398, 43.58662], [-83.90422, 43.58698], [-83.9012, 43.59177], [-83.89879, 43.59098], [-83.89978, 43.58885], [-83.90176, 43.5858]]], [[[-83.89926, 43.59486], [-83.899238, 43.597338], [-83.899063, 43.597329], [-83.898785, 43.597293], [-83.898502, 43.59723], [-83.898255, 43.597182], [-83.898127, 43.59716], [-83.89926, 43.59486]]]]}}, {"type": "Feature", "properties": {"area_id": 11232, "city": "Bay City", "state": "MI", "city_survey": true, "cat": "Commercial", "grade": null, "label": "Commercial", "res": false, "com": true, "ind": false, "fill": "#000000", "GEOID10": "26017281300", "GISJOIN": "G2600170281300", "calc_area": 115494.63472, "pct_tract": 0.02863}, "geometry": {"type": "MultiPolygon", "coordinates": [[[[-83.86937, 43.62072], [-83.87442, 43.62078], [-83.8743, 43.62338], [-83.86937, 43.62328], [-83.86937, 43.62072]]]]}}, {"type": "Feature", "properties": {"area_id": 11232, "city": "Bay City", "state": "MI", "city_survey": true, "cat": "Commercial", "grade": null, "label": "Commercial", "res": false, "com": true, "ind": false, "fill": "#000000", "GEOID10": "26017285201", "GISJOIN": "G2600170285201", "calc_area": 74213.30859, "pct_tract": 0.00189}, "geometry": {"type": "MultiPolygon", "coordinates": [[[[-83.84825, 43.59672], [-83.84821, 43.59457], [-83.852615, 43.595063], [-83.852667, 43.595291], [-83.852033, 43.595672], [-83.85209, 43.59704], [-83.84825, 43.59672]]]]}}, {"type": "Feature", "properties": {"area_id": 11232, "city": "Bay City", "state": "MI", "city_survey": true, "cat": "Commercial", "grade": null, "label": "Commercial", "res": false, "com": true, "ind": false, "fill": "#000000", "GEOID10": "26017286500", "GISJOIN": "G2600170286500", "calc_area": 648849.80459, "pct_tract": 0.17233}, "geometry": {"type": "MultiPolygon", "coordinates": [[[[-83.89175, 43.58872], [-83.8918, 43.58939], [-83.89121, 43.59047], [-83.89091, 43.59227], [-83.89181, 43.59285], [-83.89429, 43.5912], [-83.89348, 43.59393], [-83.89321, 43.59445], [-83.89174, 43.59418], [-83.89159, 43.59533], [-83.89294, 43.59553], [-83.89258, 43.59631], [-83.89124, 43.59618], [-83.89126, 43.59735], [-83.89031, 43.59731], [-83.88995, 43.59916], [-83.89079, 43.59921], [-83.89036, 43.60063], [-83.89003, 43.60286], [-83.88936, 43.6044], [-83.88579, 43.60409], [-83.88594, 43.60285], [-83.88684, 43.60285], [-83.88704, 43.60207], [-83.88708, 43.60145], [-83.88341, 43.60123], [-83.88351, 43.6005], [-83.88389, 43.59811], [-83.883391, 43.598095], [-83.883461, 43.597708], [-83.883522, 43.597283], [-83.88725, 43.59759], [-83.88785, 43.59399], [-83.88853, 43.58993], [-83.884583, 43.58993], [-83.884656, 43.589415], [-83.885781, 43.589398], [-83.886889, 43.5894], [-83.887476, 43.589393], [-83.887913, 43.589402], [-83.888489, 43.58938], [-83.889114, 43.5894], [-83.890232, 43.589412], [-83.890315, 43.589401], [-83.890419, 43.589382], [-83.890538, 43.58933], [-83.89059, 43.589241], [-83.890629, 43.589132], [-83.890631, 43.588976], [-83.89175, 43.58872]]]]}}, {"type": "Feature", "properties": {"area_id": 11232, "city": "Bay City", "state": "MI", "city_survey": true, "cat": "Commercial", "grade": null, "label": "Commercial", "res": false, "com": true, "ind": false, "fill": "#000000", "GEOID10": "26017286600", "GISJOIN": "G2600170286600", "calc_area": 198375.43537, "pct_tract": 0.06898}, "geometry": {"type": "MultiPolygon", "coordinates": [[[[-83.8992, 43.60164], [-83.90339, 43.60166], [-83.90339, 43.60129], [-83.90428, 43.60123], [-83.90443, 43.60172], [-83.90565, 43.60172], [-83.90559, 43.60239], [-83.89745, 43.60237], [-83.8976, 43.60308], [-83.8959, 43.60553], [-83.89477, 43.60691], [-83.89311, 43.60624], [-83.89739, 43.60132], [-83.89759, 43.59825], [-83.898127, 43.59716], [-83.898255, 43.597182], [-83.898502, 43.59723], [-83.898785, 43.597293], [-83.899063, 43.597329], [-83.899238, 43.597338], [-83.8992, 43.60164]]]]}}]}