{"type": "FeatureCollection", "features": [{"type": "Feature", "properties": {"area_id": 10190, "city": "St. Johnsbury", "state": "VT", "city_survey": false, "cat": "Trading", "grade": "", "label": "Trading", "res": false, "com": true, "ind": false, "fill": "#000000", "GEOID10": "50005957400", "GISJOIN": "G5000050957400", "calc_area": 390821.45144, "pct_tract": 0.00815}, "geometry": {"type": "MultiPolygon", "coordinates": [[[[-72.01513, 44.41942], [-72.01554, 44.41762], [-72.01626, 44.41414], [-72.0168, 44.41293], [-72.01835, 44.41048], [-72.01897, 44.40883], [-72.01949, 44.40883], [-72.02007, 44.40876], [-72.02005, 44.40995], [-72.01979, 44.41103], [-72.01921, 44.41114], [-72.01809, 44.41366], [-72.01855, 44.41509], [-72.01938, 44.41683], [-72.02013, 44.41826], [-72.02061, 44.41838], [-72.02217, 44.41867], [-72.0232, 44.41902], [-72.02265, 44.42003], [-72.02223, 44.41997], [-72.02197, 44.42041], [-72.02113, 44.42021], [-72.0207, 44.42032], [-72.02032, 44.42018], [-72.02032, 44.41995], [-72.01946, 44.41977], [-72.01944, 44.41958], [-72.01938, 44.419], [-72.01706, 44.41846], [-72.01656, 44.42035], [-72.01537, 44.42001], [-72.01545, 44.41952], [-72.0153, 44.41947], [-72.01513, 44.41942]]], [[[-72.01083, 44.42392], [-72.01221, 44.42235], [-72.0135, 44.42112], [-72.01357, 44.42075], [-72.01339, 44.42027], [-72.01337, 44.42012], [-72.013063, 44.420191], [-72.012962, 44.419961], [-72.01332, 44.41987], [-72.0153, 44.4196], [-72.01459, 44.42348], [-72.01409, 44.42393], [-72.01412, 44.42454], [-72.01355, 44.42449], [-72.01314, 44.42433], [-72.01271, 44.42428], [-72.012093, 44.424427], [-72.01155, 44.424289], [-72.011152, 44.424163], [-72.011062, 44.424138], [-72.010913, 44.424069], [-72.01083, 44.42392]]], [[[-72.01783, 44.43136], [-72.017825, 44.431384], [-72.017756, 44.431317], [-72.017747, 44.431308], [-72.017643, 44.431243], [-72.01765, 44.43123], [-72.01647, 44.42974], [-72.01668, 44.42902], [-72.01659, 44.42859], [-72.01747, 44.42973], [-72.01812, 44.43118], [-72.018101, 44.431766], [-72.01805, 44.431661], [-72.017907, 44.431464], [-72.017872, 44.43143], [-72.01783, 44.43136]]]]}}, {"type": "Feature", "properties": {"area_id": 10190, "city": "St. Johnsbury", "state": "VT", "city_survey": false, "cat": "Trading", "grade": "", "label": "Trading", "res": false, "com": true, "ind": false, "fill": "#000000", "GEOID10": "50005957500", "GISJOIN": "G5000050957500", "calc_area": 338844.80515, "pct_tract": 0.00717}, "geometry": {"type": "MultiPolygon", "coordinates": [[[[-71.99826, 44.41808], [-71.99897, 44.41721], [-72.00125, 44.41815], [-72.00207, 44.41872], [-72.0034, 44.41881], [-72.00538, 44.41898], [-72.00822, 44.419], [-72.00971, 44.41899], [-72.00959, 44.41593], [-72.00999, 44.41442], [-72.01083, 44.41418], [-72.01118, 44.4147], [-72.01189, 44.41487], [-72.01207, 44.41331], [-72.01212, 44.41207], [-72.01197, 44.41113], [-72.01275, 44.4086], [-72.0133, 44.40728], [-72.01389, 44.40688], [-72.01494, 44.40718], [-72.01432, 44.40785], [-72.01425, 44.40866], [-72.01395, 44.40933], [-72.0133, 44.41044], [-72.01298, 44.41123], [-72.01296, 44.41194], [-72.01301, 44.41309], [-72.01289, 44.41408], [-72.01278, 44.41507], [-72.01258, 44.41697], [-72.01263, 44.41735], [-72.01238, 44.4184], [-72.01212, 44.4196], [-72.01261, 44.41944], [-72.01269, 44.41988], [-72.01183, 44.42012], [-72.01204, 44.41739], [-72.01172, 44.41703], [-72.01045, 44.41683], [-72.01025, 44.41699], [-72.01039, 44.41904], [-72.00982, 44.4191], [-72.00986, 44.41927], [-72.00716, 44.4196], [-72.00503, 44.41965], [-72.00304, 44.41994], [-72.00239, 44.42021], [-71.99826, 44.41808]]], [[[-72.01268, 44.42028], [-72.01275, 44.42064], [-72.01243, 44.42138], [-72.01172, 44.42195], [-72.01096, 44.42229], [-72.01005, 44.42268], [-72.01044, 44.42224], [-72.01049, 44.42187], [-72.01033, 44.42108], [-72.01014, 44.4205], [-72.01086, 44.42047], [-72.01172, 44.42027], [-72.01186, 44.42024], [-72.012962, 44.419961], [-72.013063, 44.420191], [-72.01268, 44.42028]]], [[[-72.01204, 44.42444], [-72.01151, 44.42447], [-72.01103, 44.42428], [-72.010913, 44.424069], [-72.011062, 44.424138], [-72.011152, 44.424163], [-72.01155, 44.424289], [-72.012093, 44.424427], [-72.01204, 44.42444]]], [[[-72.01775, 44.43174], [-72.01779, 44.43222], [-72.01727, 44.43305], [-72.0166, 44.43403], [-72.01646, 44.43472], [-72.01495, 44.43457], [-72.01515, 44.43423], [-72.01564, 44.43341], [-72.01632, 44.43219], [-72.01668, 44.43063], [-72.01721, 44.43109], [-72.01748, 44.43115], [-72.01756, 44.4314], [-72.017643, 44.431243], [-72.017747, 44.431308], [-72.017756, 44.431317], [-72.017825, 44.431384], [-72.01775, 44.43174]]], [[[-72.0181, 44.43181], [-72.017872, 44.43143], [-72.017907, 44.431464], [-72.01805, 44.431661], [-72.018101, 44.431766], [-72.0181, 44.43181]]]]}}, {"type": "Feature", "properties": {"area_id": 10191, "city": "St. Johnsbury", "state": "VT", "city_survey": false, "cat": "Industrial", "grade": "", "label": "Industrial", "res": false, "com": false, "ind": true, "fill": "#1D4D47", "GEOID10": "50005957400", "GISJOIN": "G5000050957400", "calc_area": 791353.2567, "pct_tract": 0.01651}, "geometry": {"type": "MultiPolygon", "coordinates": [[[[-72.02356, 44.4154], [-72.02347, 44.41472], [-72.02322, 44.41332], [-72.02323, 44.41218], [-72.02316, 44.4114], [-72.02278, 44.41107], [-72.02221, 44.41095], [-72.02159, 44.41128], [-72.02136, 44.41167], [-72.02098, 44.41194], [-72.02068, 44.41182], [-72.02018, 44.41113], [-72.01979, 44.41103], [-72.02005, 44.40995], [-72.02007, 44.40876], [-72.0213, 44.40836], [-72.02182, 44.40827], [-72.02224, 44.40847], [-72.02336, 44.40832], [-72.02486, 44.40821], [-72.02548, 44.4092], [-72.02586, 44.41072], [-72.0269, 44.41046], [-72.02717, 44.41099], [-72.02688, 44.41168], [-72.02761, 44.41288], [-72.02812, 44.41297], [-72.02949, 44.41455], [-72.0297, 44.41534], [-72.03067, 44.41652], [-72.03104, 44.41672], [-72.03151, 44.4165], [-72.03286, 44.41746], [-72.03082, 44.41963], [-72.03036, 44.41954], [-72.0296, 44.41902], [-72.02884, 44.41826], [-72.02846, 44.41786], [-72.0281, 44.41773], [-72.0276, 44.41781], [-72.02592, 44.41742], [-72.02484, 44.41675], [-72.02406, 44.4165], [-72.02324, 44.41644], [-72.02356, 44.4154]]], [[[-72.01445, 44.4098], [-72.01508, 44.40889], [-72.01688, 44.40862], [-72.01809, 44.40865], [-72.01897, 44.40883], [-72.01835, 44.41048], [-72.0168, 44.41293], [-72.01626, 44.41414], [-72.01554, 44.41762], [-72.01513, 44.41942], [-72.0153, 44.41947], [-72.0153, 44.4196], [-72.01332, 44.41987], [-72.0133, 44.41952], [-72.01346, 44.41776], [-72.01372, 44.41701], [-72.01362, 44.41617], [-72.01392, 44.41457], [-72.01384, 44.41254], [-72.013722, 44.411803], [-72.013859, 44.411294], [-72.014045, 44.410497], [-72.014236, 44.410125], [-72.01445, 44.4098]]]]}}, {"type": "Feature", "properties": {"area_id": 10191, "city": "St. Johnsbury", "state": "VT", "city_survey": false, "cat": "Industrial", "grade": "", "label": "Industrial", "res": false, "com": false, "ind": true, "fill": "#1D4D47", "GEOID10": "50005957500", "GISJOIN": "G5000050957500", "calc_area": 255485.82626, "pct_tract": 0.00541}, "geometry": {"type": "MultiPolygon", "coordinates": [[[[-72.01369, 44.4116], [-72.01372, 44.41091], [-72.014236, 44.410125], [-72.014045, 44.410497], [-72.013859, 44.411294], [-72.013722, 44.411803], [-72.01369, 44.4116]]], [[[-72.00239, 44.42021], [-72.00903, 44.42358], [-72.00828, 44.42395], [-72.00719, 44.42343], [-72.00651, 44.42323], [-72.00398, 44.42326], [-72.00272, 44.42307], [-72.00147, 44.42316], [-72.00021, 44.42274], [-71.99949, 44.42259], [-71.99836, 44.42246], [-71.99787, 44.42194], [-71.99745, 44.42113], [-71.99631, 44.42048], [-71.99826, 44.41808], [-72.00239, 44.42021]]]]}}, {"type": "Feature", "properties": {"area_id": 10192, "city": "St. Johnsbury", "state": "VT", "city_survey": false, "cat": "#2 Residential", "grade": "", "label": "#2 Residential", "res": true, "com": false, "ind": false, "fill": "#7cb5bd", "GEOID10": "50005957400", "GISJOIN": "G5000050957400", "calc_area": 218805.14008, "pct_tract": 0.00456}, "geometry": {"type": "MultiPolygon", "coordinates": [[[[-72.01855, 44.41509], [-72.01809, 44.41366], [-72.01921, 44.41114], [-72.01979, 44.41103], [-72.02018, 44.41113], [-72.02068, 44.41182], [-72.02098, 44.41194], [-72.02136, 44.41167], [-72.02159, 44.41128], [-72.02221, 44.41095], [-72.02278, 44.41107], [-72.02316, 44.4114], [-72.02323, 44.41218], [-72.02322, 44.41332], [-72.02347, 44.41472], [-72.02356, 44.4154], [-72.02324, 44.41644], [-72.02259, 44.41655], [-72.02153, 44.41642], [-72.02086, 44.41636], [-72.0203, 44.41654], [-72.02006, 44.41681], [-72.01938, 44.41683], [-72.01855, 44.41509]]]]}}, {"type": "Feature", "properties": {"area_id": 10192, "city": "St. Johnsbury", "state": "VT", "city_survey": false, "cat": "#2 Residential", "grade": "", "label": "#2 Residential", "res": true, "com": false, "ind": false, "fill": "#7cb5bd", "GEOID10": "50005957500", "GISJOIN": "G5000050957500", "calc_area": 514853.05676, "pct_tract": 0.0109}, "geometry": {"type": "MultiPolygon", "coordinates": [[[[-72.00976, 44.4239], [-72.01034, 44.42449], [-72.01114, 44.42499], [-72.0124, 44.42524], [-72.01353, 44.42557], [-72.01475, 44.42739], [-72.01509, 44.42842], [-72.01587, 44.42976], [-72.01668, 44.43063], [-72.01632, 44.43219], [-72.01564, 44.43341], [-72.01515, 44.43423], [-72.01224, 44.43402], [-72.01018, 44.4334], [-72.00971, 44.43306], [-72.00896, 44.43265], [-72.00848, 44.43223], [-72.00859, 44.43194], [-72.01035, 44.43011], [-72.01081, 44.42983], [-72.01112, 44.42941], [-72.01098, 44.42883], [-72.01042, 44.42846], [-72.00759, 44.42744], [-72.007, 44.427], [-72.00677, 44.42651], [-72.00759, 44.42515], [-72.00836, 44.42434], [-72.0092, 44.42376], [-72.00976, 44.4239]]]]}}, {"type": "Feature", "properties": {"area_id": 10193, "city": "St. Johnsbury", "state": "VT", "city_survey": false, "cat": "#1 Best Residential", "grade": "", "label": "#1 Best Residential", "res": true, "com": false, "ind": false, "fill": "#76a865", "GEOID10": "50005957400", "GISJOIN": "G5000050957400", "calc_area": 829765.41545, "pct_tract": 0.01731}, "geometry": {"type": "MultiPolygon", "coordinates": [[[[-72.0153, 44.4196], [-72.0153, 44.41947], [-72.01545, 44.41952], [-72.01537, 44.42001], [-72.01656, 44.42035], [-72.01706, 44.41846], [-72.01938, 44.419], [-72.01944, 44.41958], [-72.01946, 44.41977], [-72.02032, 44.41995], [-72.02032, 44.42018], [-72.0207, 44.42032], [-72.02113, 44.42021], [-72.02197, 44.42041], [-72.02223, 44.41997], [-72.02265, 44.42003], [-72.0232, 44.41902], [-72.02217, 44.41867], [-72.02061, 44.41838], [-72.02006, 44.41681], [-72.0203, 44.41654], [-72.02086, 44.41636], [-72.02153, 44.41642], [-72.02259, 44.41655], [-72.02324, 44.41644], [-72.02406, 44.4165], [-72.02484, 44.41675], [-72.02592, 44.41742], [-72.0276, 44.41781], [-72.0281, 44.41773], [-72.02846, 44.41786], [-72.02884, 44.41826], [-72.0296, 44.41902], [-72.03036, 44.41954], [-72.03082, 44.41963], [-72.02915, 44.42059], [-72.02854, 44.42078], [-72.0277, 44.4214], [-72.02683, 44.42216], [-72.02516, 44.42267], [-72.02397, 44.42556], [-72.02321, 44.42609], [-72.02129, 44.4267], [-72.0196, 44.4266], [-72.01763, 44.42613], [-72.01642, 44.42565], [-72.01549, 44.42492], [-72.01523, 44.42434], [-72.01483, 44.42424], [-72.01459, 44.42348], [-72.0153, 44.4196]]]]}}, {"type": "Feature", "properties": {"area_id": 10194, "city": "St. Johnsbury", "state": "VT", "city_survey": false, "cat": "#3 Residential", "grade": "", "label": "#3 Residential", "res": true, "com": false, "ind": false, "fill": "#E09A73", "GEOID10": "50005957500", "GISJOIN": "G5000050957500", "calc_area": 222468.55949, "pct_tract": 0.00471}, "geometry": {"type": "MultiPolygon", "coordinates": [[[[-72.01172, 44.42027], [-72.01086, 44.42047], [-72.01014, 44.4205], [-72.01033, 44.42108], [-72.01049, 44.42187], [-72.01044, 44.42224], [-72.01005, 44.42268], [-72.00961, 44.42288], [-72.00925, 44.42332], [-72.0092, 44.42376], [-72.00903, 44.42358], [-72.00239, 44.42021], [-72.00304, 44.41994], [-72.00503, 44.41965], [-72.00716, 44.4196], [-72.00986, 44.41927], [-72.00982, 44.4191], [-72.01039, 44.41904], [-72.01025, 44.41699], [-72.01045, 44.41683], [-72.01172, 44.41703], [-72.01204, 44.41739], [-72.01183, 44.42012], [-72.01172, 44.42027]]]]}}]}