{"type": "FeatureCollection", "features": [{"type": "Feature", "properties": {"area_id": 8258, "city": "Topeka", "state": "KS", "city_survey": true, "cat": "Best", "grade": "A", "label": "A1", "res": true, "com": false, "ind": false, "holc_grade": "A"}, "geometry": {"type": "Polygon", "coordinates": [[[-95.72469, 39.04216], [-95.724638, 39.043966], [-95.72463, 39.04425], [-95.72457, 39.04425], [-95.717737, 39.044214], [-95.71706, 39.04421], [-95.71706, 39.045831], [-95.71706, 39.0463], [-95.71678, 39.04683], [-95.71548, 39.04676], [-95.71536, 39.04675], [-95.71537, 39.04611], [-95.715371, 39.045839], [-95.71538, 39.04429], [-95.71542, 39.03987], [-95.71544, 39.03987], [-95.71548, 39.03891], [-95.71558, 39.03677], [-95.7197, 39.03675], [-95.7197, 39.03683], [-95.724836, 39.03685], [-95.72484, 39.03685], [-95.724829, 39.03724], [-95.72469, 39.04216]]]}}, {"type": "Feature", "properties": {"area_id": 8256, "city": "Topeka", "state": "KS", "city_survey": true, "cat": "Best", "grade": "A", "label": "A2", "res": true, "com": false, "ind": false, "holc_grade": "A"}, "geometry": {"type": "Polygon", "coordinates": [[[-95.71314, 39.02959], [-95.71961, 39.02967], [-95.71966, 39.0315], [-95.7185, 39.03146], [-95.7185, 39.03344], [-95.71964, 39.03344], [-95.7197, 39.03675], [-95.71558, 39.03677], [-95.71548, 39.03677], [-95.71547, 39.03601], [-95.71542, 39.03328], [-95.71302, 39.0332], [-95.71313, 39.02962], [-95.71314, 39.02959]]]}}, {"type": "Feature", "properties": {"area_id": 8259, "city": "Topeka", "state": "KS", "city_survey": true, "cat": "Best", "grade": "A", "label": "A3", "res": true, "com": false, "ind": false, "holc_grade": "A"}, "geometry": {"type": "Polygon", "coordinates": [[[-95.7114, 39.04427], [-95.71091, 39.04424], [-95.71083, 39.04424], [-95.71083, 39.04415], [-95.71083, 39.04414], [-95.7108, 39.03986], [-95.71542, 39.03987], [-95.71538, 39.04429], [-95.715371, 39.045839], [-95.71537, 39.04611], [-95.71323, 39.04605], [-95.713238, 39.045852], [-95.7133, 39.04437], [-95.7114, 39.04427]]]}}, {"type": "Feature", "properties": {"area_id": 8265, "city": "Topeka", "state": "KS", "city_survey": true, "cat": "Best", "grade": "A", "label": "A4", "res": true, "com": false, "ind": false, "holc_grade": "A"}, "geometry": {"type": "Polygon", "coordinates": [[[-95.70045, 39.0441], [-95.70053, 39.03697], [-95.70053, 39.03689], [-95.7061, 39.03669], [-95.70609, 39.03985], [-95.710794, 39.03986], [-95.7108, 39.03986], [-95.71083, 39.04414], [-95.71083, 39.04415], [-95.710743, 39.04415], [-95.70045, 39.04415], [-95.70045, 39.0441]]]}}, {"type": "Feature", "properties": {"area_id": 8264, "city": "Topeka", "state": "KS", "city_survey": true, "cat": "Best", "grade": "A", "label": "A5", "res": true, "com": false, "ind": false, "holc_grade": "A"}, "geometry": {"type": "Polygon", "coordinates": [[[-95.71083, 39.04773], [-95.71145, 39.04775], [-95.71529, 39.04786], [-95.71516, 39.05135], [-95.71452, 39.05135], [-95.71451, 39.05141], [-95.710736, 39.05145], [-95.70611, 39.0515], [-95.70611, 39.05141], [-95.70611, 39.05139], [-95.70611, 39.05081], [-95.70611, 39.04956], [-95.70611, 39.04906], [-95.70611, 39.04772], [-95.71073, 39.04772], [-95.71083, 39.04772], [-95.71083, 39.04773]]]}}, {"type": "Feature", "properties": {"area_id": 8276, "city": "Topeka", "state": "KS", "city_survey": true, "cat": "Best", "grade": "A", "label": "A6", "res": true, "com": false, "ind": false, "holc_grade": "A"}, "geometry": {"type": "Polygon", "coordinates": [[[-95.68731, 39.06567], [-95.68723, 39.06363], [-95.68722, 39.06323], [-95.68706, 39.05892], [-95.687588, 39.058913], [-95.69171, 39.05886], [-95.69159, 39.06289], [-95.6915, 39.06605], [-95.687573, 39.065928], [-95.68732, 39.06592], [-95.68731, 39.06567]]]}}, {"type": "Feature", "properties": {"area_id": 8288, "city": "Topeka", "state": "KS", "city_survey": true, "cat": "Best", "grade": "A", "label": "A7", "res": true, "com": false, "ind": false, "holc_grade": "A"}, "geometry": {"type": "Polygon", "coordinates": [[[-95.68822, 39.02596], [-95.68447, 39.02603], [-95.67988, 39.02612], [-95.68002, 39.02233], [-95.68822, 39.02221], [-95.68822, 39.02224], [-95.68822, 39.02596]]]}}, {"type": "Feature", "properties": {"area_id": 8257, "city": "Topeka", "state": "KS", "city_survey": true, "cat": "Still Desirable", "grade": "B", "label": "B1", "res": true, "com": false, "ind": false, "holc_grade": "B"}, "geometry": {"type": "Polygon", "coordinates": [[[-95.711997, 39.029602], [-95.71313, 39.02962], [-95.71302, 39.0332], [-95.71542, 39.03328], [-95.71547, 39.03601], [-95.71548, 39.03677], [-95.71558, 39.03677], [-95.71548, 39.03891], [-95.71544, 39.03987], [-95.71542, 39.03987], [-95.7108, 39.03986], [-95.710794, 39.03986], [-95.70609, 39.03985], [-95.7061, 39.03669], [-95.70611, 39.029709], [-95.70611, 39.02951], [-95.711997, 39.029602]]]}}, {"type": "Feature", "properties": {"area_id": 8262, "city": "Topeka", "state": "KS", "city_survey": true, "cat": "Still Desirable", "grade": "B", "label": "B2", "res": true, "com": false, "ind": false, "holc_grade": "B"}, "geometry": {"type": "Polygon", "coordinates": [[[-95.71529, 39.055], [-95.71444, 39.05494], [-95.71444, 39.05493], [-95.71451, 39.05141], [-95.71452, 39.05135], [-95.71516, 39.05135], [-95.72233, 39.05135], [-95.72237, 39.04947], [-95.72456, 39.04951], [-95.72436, 39.05847], [-95.71972, 39.05854], [-95.71545, 39.0586], [-95.71527, 39.0586], [-95.71527, 39.05855], [-95.71529, 39.055]]]}}, {"type": "Feature", "properties": {"area_id": 8273, "city": "Topeka", "state": "KS", "city_survey": true, "cat": "Still Desirable", "grade": "B", "label": "B3", "res": true, "com": false, "ind": false, "holc_grade": "B"}, "geometry": {"type": "Polygon", "coordinates": [[[-95.70115, 39.05286], [-95.70124, 39.05149], [-95.70611, 39.05141], [-95.70599, 39.05488], [-95.710747, 39.054908], [-95.71444, 39.05493], [-95.71444, 39.05494], [-95.71529, 39.055], [-95.71527, 39.05855], [-95.71511, 39.05864], [-95.71511, 39.05869], [-95.706111, 39.058796], [-95.70579, 39.0588], [-95.70559, 39.06135], [-95.69994, 39.06131], [-95.69994, 39.06136], [-95.69988, 39.05876], [-95.69943, 39.05876], [-95.698598, 39.058284], [-95.69859, 39.05828], [-95.70115, 39.05286]]]}}, {"type": "Feature", "properties": {"area_id": 8266, "city": "Topeka", "state": "KS", "city_survey": true, "cat": "Still Desirable", "grade": "B", "label": "B4", "res": true, "com": false, "ind": false, "holc_grade": "B"}, "geometry": {"type": "Polygon", "coordinates": [[[-95.70045, 39.0441], [-95.70045, 39.04415], [-95.710743, 39.04415], [-95.71083, 39.04415], [-95.71083, 39.04424], [-95.71091, 39.04424], [-95.710873, 39.045869], [-95.71083, 39.04772], [-95.71073, 39.04772], [-95.70611, 39.04772], [-95.70611, 39.04906], [-95.70611, 39.04956], [-95.70213, 39.04951], [-95.70059, 39.04949], [-95.70059, 39.04919], [-95.70057, 39.04776], [-95.6975, 39.04772], [-95.69738, 39.04772], [-95.69734, 39.04591], [-95.69734, 39.0459], [-95.697339, 39.045808], [-95.69732, 39.04427], [-95.69732, 39.04423], [-95.70045, 39.0441]]]}}, {"type": "Feature", "properties": {"area_id": 8274, "city": "Topeka", "state": "KS", "city_survey": true, "cat": "Still Desirable", "grade": "B", "label": "B5", "res": true, "com": false, "ind": false, "holc_grade": "B"}, "geometry": {"type": "Polygon", "coordinates": [[[-95.69629, 39.0588], [-95.69629, 39.05876], [-95.69668, 39.05876], [-95.69943, 39.05876], [-95.69988, 39.05876], [-95.69994, 39.06136], [-95.69978, 39.06486], [-95.69664, 39.06482], [-95.69627, 39.06482], [-95.69629, 39.0588]]]}}, {"type": "Feature", "properties": {"area_id": 8269, "city": "Topeka", "state": "KS", "city_survey": true, "cat": "Still Desirable", "grade": "B", "label": "B6", "res": true, "com": false, "ind": false, "holc_grade": "B"}, "geometry": {"type": "Polygon", "coordinates": [[[-95.69629, 39.04975], [-95.69522, 39.052109], [-95.69472, 39.05321], [-95.69434, 39.05405], [-95.69422, 39.05401], [-95.68895, 39.05249], [-95.68972, 39.05115], [-95.69091, 39.0515], [-95.69225, 39.04855], [-95.69269, 39.04867], [-95.69577, 39.0495], [-95.696257, 39.049631], [-95.69629, 39.04964], [-95.69629, 39.04975]]]}}, {"type": "Feature", "properties": {"area_id": 8295, "city": "Topeka", "state": "KS", "city_survey": true, "cat": "Still Desirable", "grade": "B", "label": "B7", "res": true, "com": false, "ind": false, "holc_grade": "B"}, "geometry": {"type": "Polygon", "coordinates": [[[-95.66852, 39.01523], [-95.66852, 39.01525], [-95.66825, 39.02796], [-95.66752, 39.02796], [-95.66747, 39.02975], [-95.66663, 39.02975], [-95.666628, 39.029787], [-95.66651, 39.03171], [-95.66442, 39.03178], [-95.66451, 39.02987], [-95.66416, 39.02978], [-95.664161, 39.02977], [-95.66442, 39.02795], [-95.66296, 39.02782], [-95.66306, 39.0262], [-95.66246, 39.02622], [-95.66262, 39.02271], [-95.65662, 39.02267], [-95.65685, 39.01889], [-95.65155, 39.018977], [-95.65136, 39.01898], [-95.65136, 39.01541], [-95.651647, 39.015407], [-95.665732, 39.015259], [-95.666878, 39.015247], [-95.667223, 39.015244], [-95.66852, 39.01523]]]}}, {"type": "Feature", "properties": {"area_id": 8282, "city": "Topeka", "state": "KS", "city_survey": true, "cat": "Still Desirable", "grade": "B", "label": "B8", "res": true, "com": false, "ind": false, "holc_grade": "B"}, "geometry": {"type": "Polygon", "coordinates": [[[-95.63695, 39.0636], [-95.63699, 39.06329], [-95.63716, 39.06323], [-95.63776, 39.06317], [-95.63824, 39.0631], [-95.63829, 39.06285], [-95.63803, 39.06255], [-95.63817, 39.06247], [-95.6384, 39.06254], [-95.63866, 39.06254], [-95.63881, 39.06251], [-95.63889, 39.05899], [-95.63889, 39.05884], [-95.64431, 39.05883], [-95.64445, 39.05883], [-95.65329, 39.05882], [-95.65327, 39.06227], [-95.65324, 39.06228], [-95.65323, 39.06228], [-95.65165, 39.06239], [-95.65138, 39.06632], [-95.648604, 39.066348], [-95.64339, 39.0664], [-95.64332, 39.07148], [-95.64097, 39.0715], [-95.64081, 39.07947], [-95.63617, 39.07961], [-95.63607, 39.0792], [-95.63481, 39.0792], [-95.63483, 39.07724], [-95.63154, 39.07734], [-95.63191, 39.06328], [-95.63201, 39.06334], [-95.632185, 39.063453], [-95.63229, 39.06352], [-95.63282, 39.06391], [-95.63339, 39.06356], [-95.633449, 39.063531], [-95.633941, 39.063289], [-95.634, 39.06326], [-95.63451, 39.06342], [-95.6354, 39.06397], [-95.63621, 39.06446], [-95.636432, 39.06464], [-95.636753, 39.064902], [-95.6368, 39.06494], [-95.637543, 39.065278], [-95.63757, 39.06529], [-95.6376, 39.065257], [-95.63791, 39.06492], [-95.63793, 39.06454], [-95.6379, 39.064502], [-95.637751, 39.06432], [-95.63763, 39.06417], [-95.63696, 39.06371], [-95.63695, 39.0636]]]}}, {"type": "Feature", "properties": {"area_id": 8255, "city": "Topeka", "state": "KS", "city_survey": true, "cat": "Definitely Declining", "grade": "C", "label": "C1", "res": true, "com": false, "ind": false, "holc_grade": "C"}, "geometry": {"type": "Polygon", "coordinates": [[[-95.728929, 39.033088], [-95.72882, 39.03687], [-95.72484, 39.03685], [-95.724836, 39.03685], [-95.7197, 39.03683], [-95.7197, 39.03675], [-95.71964, 39.03344], [-95.7185, 39.03344], [-95.7185, 39.03146], [-95.71966, 39.0315], [-95.71961, 39.02967], [-95.7196, 39.02965], [-95.723782, 39.029623], [-95.72903, 39.02959], [-95.728929, 39.033088]]]}}, {"type": "Feature", "properties": {"area_id": 8294, "city": "Topeka", "state": "KS", "city_survey": true, "cat": "Definitely Declining", "grade": "C", "label": "C10", "res": true, "com": false, "ind": false, "holc_grade": "C"}, "geometry": {"type": "Polygon", "coordinates": [[[-95.65136, 39.01898], [-95.65155, 39.018977], [-95.65685, 39.01889], [-95.65662, 39.02267], [-95.65408, 39.02265], [-95.65385, 39.02977], [-95.651159, 39.02978], [-95.65103, 39.02978], [-95.651134, 39.026172], [-95.651136, 39.026083], [-95.65134, 39.01898], [-95.65136, 39.01898]]]}}, {"type": "Feature", "properties": {"area_id": 8263, "city": "Topeka", "state": "KS", "city_survey": true, "cat": "Definitely Declining", "grade": "C", "label": "C2", "res": true, "com": false, "ind": false, "holc_grade": "C"}, "geometry": {"type": "Polygon", "coordinates": [[[-95.71511, 39.05864], [-95.71527, 39.05855], [-95.71527, 39.0586], [-95.71545, 39.0586], [-95.71972, 39.05854], [-95.71968, 39.06312], [-95.71499, 39.0631], [-95.71511, 39.05869], [-95.71511, 39.05864]]]}}, {"type": "Feature", "properties": {"area_id": 8260, "city": "Topeka", "state": "KS", "city_survey": true, "cat": "Definitely Declining", "grade": "C", "label": "C3", "res": true, "com": false, "ind": false, "holc_grade": "C"}, "geometry": {"type": "Polygon", "coordinates": [[[-95.7114, 39.04427], [-95.7133, 39.04437], [-95.713238, 39.045852], [-95.71323, 39.04605], [-95.71537, 39.04611], [-95.71536, 39.04675], [-95.71548, 39.04676], [-95.71542, 39.04787], [-95.71529, 39.04786], [-95.71145, 39.04775], [-95.71083, 39.04773], [-95.71083, 39.04772], [-95.710873, 39.045869], [-95.71091, 39.04424], [-95.7114, 39.04427]]]}}, {"type": "Feature", "properties": {"area_id": 8291, "city": "Topeka", "state": "KS", "city_survey": true, "cat": "Definitely Declining", "grade": "C", "label": "C4", "res": true, "com": false, "ind": false, "holc_grade": "C"}, "geometry": {"type": "Polygon", "coordinates": [[[-95.69333, 39.02967], [-95.6933, 39.02954], [-95.696898, 39.029664], [-95.69708, 39.02967], [-95.697081, 39.029702], [-95.69721, 39.03686], [-95.70053, 39.03697], [-95.70045, 39.0441], [-95.69732, 39.04423], [-95.69732, 39.04427], [-95.696997, 39.044271], [-95.69035, 39.0443], [-95.69033, 39.04428], [-95.684456, 39.044265], [-95.67839, 39.04425], [-95.67798, 39.04479], [-95.67797, 39.04483], [-95.67658, 39.04436], [-95.67684, 39.04397], [-95.67763, 39.04192], [-95.67775, 39.04194], [-95.67939, 39.03829], [-95.67931, 39.03669], [-95.682882, 39.036728], [-95.68311, 39.03673], [-95.68312, 39.03669], [-95.687, 39.03668], [-95.68693, 39.04117], [-95.6878, 39.0412], [-95.6879, 39.03664], [-95.68803, 39.03659], [-95.68982, 39.03663], [-95.68992, 39.02974], [-95.68992, 39.029689], [-95.68992, 39.02965], [-95.69121, 39.02962], [-95.69333, 39.02967]]]}}, {"type": "Feature", "properties": {"area_id": 8270, "city": "Topeka", "state": "KS", "city_survey": true, "cat": "Definitely Declining", "grade": "C", "label": "C5", "res": true, "com": false, "ind": false, "holc_grade": "C"}, "geometry": {"type": "Polygon", "coordinates": [[[-95.69629, 39.04964], [-95.69631, 39.04965], [-95.6975, 39.04772], [-95.70057, 39.04776], [-95.70059, 39.04919], [-95.70053, 39.05037], [-95.70047, 39.05146], [-95.6994, 39.05153], [-95.69928, 39.05266], [-95.69696, 39.05759], [-95.69687, 39.05778], [-95.69684, 39.05784], [-95.69663, 39.05776], [-95.693279, 39.056607], [-95.69317, 39.05657], [-95.693646, 39.055409], [-95.69422, 39.05401], [-95.69434, 39.05405], [-95.69472, 39.05321], [-95.69522, 39.052109], [-95.69629, 39.04975], [-95.69629, 39.04964]]]}}, {"type": "Feature", "properties": {"area_id": 8275, "city": "Topeka", "state": "KS", "city_survey": true, "cat": "Definitely Declining", "grade": "C", "label": "C6", "res": true, "com": false, "ind": false, "holc_grade": "C"}, "geometry": {"type": "Polygon", "coordinates": [[[-95.69159, 39.06289], [-95.69171, 39.05886], [-95.69171, 39.0588], [-95.69629, 39.0588], [-95.69627, 39.06482], [-95.69621, 39.06482], [-95.69613, 39.06738], [-95.6915, 39.06606], [-95.6915, 39.06605], [-95.69159, 39.06289]]]}}, {"type": "Feature", "properties": {"area_id": 8278, "city": "Topeka", "state": "KS", "city_survey": true, "cat": "Definitely Declining", "grade": "C", "label": "C7", "res": true, "com": false, "ind": false, "holc_grade": "C"}, "geometry": {"type": "Polygon", "coordinates": [[[-95.69033, 39.0443], [-95.69033, 39.045837], [-95.69033, 39.04589], [-95.69031, 39.04803], [-95.69225, 39.04855], [-95.69091, 39.0515], [-95.68972, 39.05115], [-95.68895, 39.05249], [-95.69422, 39.05401], [-95.693646, 39.055409], [-95.69317, 39.05657], [-95.693279, 39.056607], [-95.69663, 39.05776], [-95.69684, 39.05784], [-95.69687, 39.05778], [-95.697665, 39.058053], [-95.69856, 39.05836], [-95.698589, 39.058282], [-95.69859, 39.05828], [-95.698598, 39.058284], [-95.69943, 39.05876], [-95.69668, 39.05876], [-95.69629, 39.05876], [-95.69629, 39.0588], [-95.69171, 39.0588], [-95.69171, 39.05886], [-95.687588, 39.058913], [-95.68706, 39.05892], [-95.68722, 39.06323], [-95.67851, 39.06092], [-95.67848, 39.061], [-95.677574, 39.060725], [-95.67196, 39.05902], [-95.67797, 39.04483], [-95.67798, 39.04479], [-95.67839, 39.04425], [-95.684456, 39.044265], [-95.69033, 39.04428], [-95.69035, 39.0443], [-95.69033, 39.0443]]]}}, {"type": "Feature", "properties": {"area_id": 8285, "city": "Topeka", "state": "KS", "city_survey": true, "cat": "Definitely Declining", "grade": "C", "label": "C8", "res": true, "com": false, "ind": false, "holc_grade": "C"}, "geometry": {"type": "Polygon", "coordinates": [[[-95.67302, 39.04054], [-95.67311, 39.04056], [-95.6732, 39.04059], [-95.67753, 39.04176], [-95.67767, 39.0418], [-95.67763, 39.04192], [-95.67684, 39.04397], [-95.67658, 39.04436], [-95.67657, 39.04438], [-95.67501, 39.04401], [-95.67173, 39.05121], [-95.66773, 39.05022], [-95.67059, 39.0435], [-95.67056, 39.04333], [-95.67053, 39.0432], [-95.67034, 39.04329], [-95.67302, 39.04054]]]}}, {"type": "Feature", "properties": {"area_id": 8281, "city": "Topeka", "state": "KS", "city_survey": true, "cat": "Definitely Declining", "grade": "C", "label": "C9", "res": true, "com": false, "ind": false, "holc_grade": "C"}, "geometry": {"type": "Polygon", "coordinates": [[[-95.66412, 39.08113], [-95.6644, 39.08127], [-95.66427, 39.087], [-95.6502, 39.08716], [-95.65005, 39.08407], [-95.65237, 39.08101], [-95.66412, 39.08113]]]}}, {"type": "Feature", "properties": {"area_id": 8261, "city": "Topeka", "state": "KS", "city_survey": true, "cat": "Hazardous", "grade": "D", "label": "D1", "res": true, "com": false, "ind": false, "holc_grade": "D"}, "geometry": {"type": "Polygon", "coordinates": [[[-95.73053, 39.04225], [-95.730515, 39.043923], [-95.73047, 39.04898], [-95.724687, 39.049039], [-95.72458, 39.04904], [-95.72457, 39.04425], [-95.72463, 39.04425], [-95.724638, 39.043966], [-95.72469, 39.04216], [-95.724768, 39.042161], [-95.73053, 39.04225]]]}}, {"type": "Feature", "properties": {"area_id": 8277, "city": "Topeka", "state": "KS", "city_survey": true, "cat": "Hazardous", "grade": "D", "label": "D10", "res": true, "com": false, "ind": false, "holc_grade": "D"}, "geometry": {"type": "Polygon", "coordinates": [[[-95.67851, 39.06092], [-95.68722, 39.06323], [-95.68723, 39.06363], [-95.68731, 39.06567], [-95.68614, 39.06594], [-95.68498, 39.06597], [-95.68368, 39.06577], [-95.68229, 39.06547], [-95.68096, 39.06501], [-95.67956, 39.06422], [-95.67798, 39.06312], [-95.6777, 39.06277], [-95.67848, 39.061], [-95.67851, 39.06092]]]}}, {"type": "Feature", "properties": {"area_id": 8280, "city": "Topeka", "state": "KS", "city_survey": true, "cat": "Hazardous", "grade": "D", "label": "D11", "res": true, "com": false, "ind": false, "holc_grade": "D"}, "geometry": {"type": "Polygon", "coordinates": [[[-95.66427, 39.087], [-95.6644, 39.08127], [-95.66412, 39.08113], [-95.65237, 39.08101], [-95.65205, 39.08101], [-95.65761, 39.07154], [-95.66006, 39.06762], [-95.66065, 39.06638], [-95.6616, 39.06583], [-95.66274, 39.06538], [-95.66389, 39.06528], [-95.66415, 39.06509], [-95.66503, 39.06508], [-95.66586, 39.06532], [-95.66623, 39.06554], [-95.66482, 39.06865], [-95.66651, 39.06912], [-95.6687, 39.06474], [-95.67339, 39.066], [-95.673259, 39.06655], [-95.6731, 39.06722], [-95.67566, 39.06816], [-95.67573, 39.06605], [-95.67658, 39.06626], [-95.67743, 39.06681], [-95.67863, 39.06751], [-95.67942, 39.06827], [-95.68025, 39.06869], [-95.68095, 39.06948], [-95.68172, 39.07005], [-95.68278, 39.0705], [-95.68325, 39.07085], [-95.68323, 39.0721], [-95.68241, 39.0717], [-95.68225, 39.07456], [-95.68191, 39.07429], [-95.68181, 39.07616], [-95.67521, 39.07624], [-95.67519, 39.08111], [-95.6843, 39.08103], [-95.68428, 39.08381], [-95.68678, 39.08379], [-95.68674, 39.08703], [-95.67381, 39.08691], [-95.664702, 39.087072], [-95.66427, 39.08708], [-95.66427, 39.087]]]}}, {"type": "Feature", "properties": {"area_id": 8284, "city": "Topeka", "state": "KS", "city_survey": true, "cat": "Hazardous", "grade": "D", "label": "D12", "res": true, "com": false, "ind": false, "holc_grade": "D"}, "geometry": {"type": "Polygon", "coordinates": [[[-95.66785, 39.04478], [-95.66814, 39.04432], [-95.67034, 39.04329], [-95.67053, 39.0432], [-95.67056, 39.04333], [-95.67059, 39.0435], [-95.66773, 39.05022], [-95.67173, 39.05121], [-95.67179, 39.05123], [-95.66885, 39.05835], [-95.66333, 39.05683], [-95.66392, 39.05551], [-95.66302, 39.05511], [-95.66363, 39.05381], [-95.66785, 39.04478]]]}}, {"type": "Feature", "properties": {"area_id": 8283, "city": "Topeka", "state": "KS", "city_survey": true, "cat": "Hazardous", "grade": "D", "label": "D13", "res": true, "com": false, "ind": false, "holc_grade": "D"}, "geometry": {"type": "Polygon", "coordinates": [[[-95.63229, 39.06352], [-95.632185, 39.063453], [-95.63201, 39.06334], [-95.632008, 39.063251], [-95.63189, 39.05886], [-95.63889, 39.05899], [-95.63881, 39.06251], [-95.63866, 39.06254], [-95.6384, 39.06254], [-95.63817, 39.06247], [-95.63803, 39.06255], [-95.63829, 39.06285], [-95.63824, 39.0631], [-95.63776, 39.06317], [-95.63716, 39.06323], [-95.63699, 39.06329], [-95.63695, 39.0636], [-95.63696, 39.06371], [-95.63763, 39.06417], [-95.637751, 39.06432], [-95.6379, 39.064502], [-95.63793, 39.06454], [-95.63791, 39.06492], [-95.6376, 39.065257], [-95.63757, 39.06529], [-95.637543, 39.065278], [-95.6368, 39.06494], [-95.636753, 39.064902], [-95.636432, 39.06464], [-95.63621, 39.06446], [-95.6354, 39.06397], [-95.63451, 39.06342], [-95.634, 39.06326], [-95.633941, 39.063289], [-95.633449, 39.063531], [-95.63339, 39.06356], [-95.63282, 39.06391], [-95.63229, 39.06352]]]}}, {"type": "Feature", "properties": {"area_id": 8296, "city": "Topeka", "state": "KS", "city_survey": true, "cat": "Hazardous", "grade": "D", "label": "D14", "res": true, "com": false, "ind": false, "holc_grade": "D"}, "geometry": {"type": "Polygon", "coordinates": [[[-95.651065, 39.033883], [-95.65103, 39.03704], [-95.66951, 39.0369], [-95.670645, 39.03689], [-95.67185, 39.03688], [-95.67639, 39.0369], [-95.67645, 39.03704], [-95.67311, 39.04056], [-95.67302, 39.04054], [-95.67034, 39.04329], [-95.66814, 39.04432], [-95.66785, 39.04478], [-95.66363, 39.05381], [-95.66245, 39.05351], [-95.66176, 39.05495], [-95.65889, 39.05423], [-95.65584, 39.06185], [-95.65566, 39.061949], [-95.65535, 39.06212], [-95.65474, 39.06236], [-95.65412, 39.06282], [-95.65352, 39.06342], [-95.65335, 39.06351], [-95.65323, 39.06228], [-95.65324, 39.06228], [-95.65327, 39.06227], [-95.65329, 39.05882], [-95.64445, 39.05883], [-95.64445, 39.053928], [-95.64445, 39.05163], [-95.6321, 39.051636], [-95.62294, 39.05164], [-95.623083, 39.044246], [-95.62336, 39.02998], [-95.65111, 39.02978], [-95.651081, 39.03242], [-95.651075, 39.032971], [-95.651065, 39.033883]]]}}, {"type": "Feature", "properties": {"area_id": 8289, "city": "Topeka", "state": "KS", "city_survey": true, "cat": "Hazardous", "grade": "D", "label": "D15", "res": true, "com": false, "ind": false, "holc_grade": "D"}, "geometry": {"type": "Polygon", "coordinates": [[[-95.68932, 39.02966], [-95.68992, 39.02965], [-95.68992, 39.029689], [-95.68992, 39.02974], [-95.68982, 39.03663], [-95.68803, 39.03659], [-95.68814, 39.02972], [-95.68814, 39.029696], [-95.68814, 39.02967], [-95.68932, 39.02966]]]}}, {"type": "Feature", "properties": {"area_id": 8287, "city": "Topeka", "state": "KS", "city_survey": true, "cat": "Hazardous", "grade": "D", "label": "D16", "res": true, "com": false, "ind": false, "holc_grade": "D"}, "geometry": {"type": "Polygon", "coordinates": [[[-95.687, 39.03665], [-95.6879, 39.03663], [-95.6879, 39.03664], [-95.6878, 39.0412], [-95.68693, 39.04117], [-95.687, 39.03668], [-95.687, 39.03665]]]}}, {"type": "Feature", "properties": {"area_id": 8272, "city": "Topeka", "state": "KS", "city_survey": true, "cat": "Hazardous", "grade": "D", "label": "D2", "res": true, "com": false, "ind": false, "holc_grade": "D"}, "geometry": {"type": "Polygon", "coordinates": [[[-95.69613, 39.06738], [-95.69621, 39.06482], [-95.69627, 39.06482], [-95.69664, 39.06482], [-95.69978, 39.06486], [-95.69994, 39.06136], [-95.69994, 39.06131], [-95.70559, 39.06135], [-95.70568, 39.06135], [-95.7054, 39.069853], [-95.70534, 39.07166], [-95.701671, 39.070418], [-95.69609, 39.06853], [-95.69613, 39.06738]]]}}, {"type": "Feature", "properties": {"area_id": 8271, "city": "Topeka", "state": "KS", "city_survey": true, "cat": "Hazardous", "grade": "D", "label": "D3", "res": true, "com": false, "ind": false, "holc_grade": "D"}, "geometry": {"type": "Polygon", "coordinates": [[[-95.69696, 39.05759], [-95.69928, 39.05266], [-95.6994, 39.05153], [-95.70047, 39.05146], [-95.70047, 39.0515], [-95.70124, 39.05149], [-95.70115, 39.05286], [-95.69859, 39.05828], [-95.698589, 39.058282], [-95.69856, 39.05836], [-95.697665, 39.058053], [-95.69687, 39.05778], [-95.69696, 39.05759]]]}}, {"type": "Feature", "properties": {"area_id": 8267, "city": "Topeka", "state": "KS", "city_survey": true, "cat": "Hazardous", "grade": "D", "label": "D4", "res": true, "com": false, "ind": false, "holc_grade": "D"}, "geometry": {"type": "Polygon", "coordinates": [[[-95.70053, 39.05037], [-95.70059, 39.04919], [-95.70059, 39.04949], [-95.70213, 39.04951], [-95.70611, 39.04956], [-95.70611, 39.05081], [-95.70611, 39.05139], [-95.70611, 39.05141], [-95.70124, 39.05149], [-95.70047, 39.0515], [-95.70047, 39.05146], [-95.70053, 39.05037]]]}}, {"type": "Feature", "properties": {"area_id": 8290, "city": "Topeka", "state": "KS", "city_survey": true, "cat": "Hazardous", "grade": "D", "label": "D5", "res": true, "com": false, "ind": false, "holc_grade": "D"}, "geometry": {"type": "Polygon", "coordinates": [[[-95.6831, 39.02963], [-95.68447, 39.02603], [-95.68822, 39.02596], [-95.68822, 39.02224], [-95.6941, 39.02227], [-95.69244, 39.02582], [-95.6933, 39.02954], [-95.69333, 39.02967], [-95.69121, 39.02962], [-95.68992, 39.02965], [-95.68932, 39.02966], [-95.68814, 39.02967], [-95.68814, 39.029696], [-95.68814, 39.02972], [-95.687352, 39.029701], [-95.68605, 39.02967], [-95.685719, 39.029695], [-95.68331, 39.02988], [-95.68331, 39.029699], [-95.68331, 39.02963], [-95.6831, 39.02963]]]}}, {"type": "Feature", "properties": {"area_id": 8292, "city": "Topeka", "state": "KS", "city_survey": true, "cat": "Hazardous", "grade": "D", "label": "D6", "res": true, "com": false, "ind": false, "holc_grade": "D"}, "geometry": {"type": "Polygon", "coordinates": [[[-95.67422, 39.01519], [-95.67422, 39.01521], [-95.67418, 39.02241], [-95.67925, 39.02241], [-95.67515, 39.0297], [-95.669974, 39.029735], [-95.66931, 39.02974], [-95.66821, 39.02974], [-95.66747, 39.02976], [-95.66747, 39.02975], [-95.66752, 39.02796], [-95.66825, 39.02796], [-95.66852, 39.01525], [-95.66852, 39.01523], [-95.668989, 39.015227], [-95.670221, 39.015218], [-95.672472, 39.015202], [-95.67422, 39.01519]]]}}, {"type": "Feature", "properties": {"area_id": 8293, "city": "Topeka", "state": "KS", "city_survey": true, "cat": "Hazardous", "grade": "D", "label": "D7", "res": true, "com": false, "ind": false, "holc_grade": "D"}, "geometry": {"type": "Polygon", "coordinates": [[[-95.65408, 39.02265], [-95.65662, 39.02267], [-95.66262, 39.02271], [-95.66246, 39.02622], [-95.66306, 39.0262], [-95.66296, 39.02782], [-95.66442, 39.02795], [-95.664161, 39.02977], [-95.66416, 39.02978], [-95.66416, 39.02981], [-95.65384, 39.02983], [-95.653846, 39.029795], [-95.65385, 39.02977], [-95.65408, 39.02265]]]}}, {"type": "Feature", "properties": {"area_id": 8286, "city": "Topeka", "state": "KS", "city_survey": true, "cat": "Hazardous", "grade": "D", "label": "D8", "res": true, "com": false, "ind": false, "holc_grade": "D"}, "geometry": {"type": "Polygon", "coordinates": [[[-95.68331, 39.02963], [-95.68331, 39.029699], [-95.68331, 39.02988], [-95.68312, 39.03669], [-95.68311, 39.03673], [-95.682882, 39.036728], [-95.67931, 39.03669], [-95.67939, 39.03829], [-95.67775, 39.04194], [-95.67763, 39.04192], [-95.67767, 39.0418], [-95.67753, 39.04176], [-95.6732, 39.04059], [-95.67311, 39.04056], [-95.67645, 39.03704], [-95.67639, 39.0369], [-95.67185, 39.03688], [-95.670645, 39.03689], [-95.66951, 39.0369], [-95.66931, 39.02994], [-95.66931, 39.029789], [-95.66931, 39.02974], [-95.669974, 39.029735], [-95.67515, 39.0297], [-95.6831, 39.02963], [-95.68331, 39.02963]]]}}, {"type": "Feature", "properties": {"area_id": 8268, "city": "Topeka", "state": "KS", "city_survey": true, "cat": "Hazardous", "grade": "D", "label": "D9", "res": true, "com": false, "ind": false, "holc_grade": "D"}, "geometry": {"type": "Polygon", "coordinates": [[[-95.69033, 39.0443], [-95.69035, 39.0443], [-95.696997, 39.044271], [-95.69732, 39.04427], [-95.697339, 39.045808], [-95.69734, 39.0459], [-95.69734, 39.04591], [-95.69738, 39.04772], [-95.6975, 39.04772], [-95.69631, 39.04965], [-95.69629, 39.04964], [-95.696257, 39.049631], [-95.69577, 39.0495], [-95.69269, 39.04867], [-95.69225, 39.04855], [-95.69031, 39.04803], [-95.69033, 39.04589], [-95.69033, 39.045837], [-95.69033, 39.0443]]]}}, {"type": "Feature", "properties": {"area_id": 11176, "city": "Topeka", "state": "KS", "city_survey": true, "cat": "Business and Industrial", "grade": null, "label": "Business and Industrial", "res": false, "com": true, "ind": true, "holc_grade": null}, "geometry": {"type": "MultiPolygon", "coordinates": [[[[-95.66623, 39.06107], [-95.66501, 39.06081], [-95.6622, 39.0605], [-95.66086, 39.06131], [-95.65976, 39.06122], [-95.65765, 39.06142], [-95.65584, 39.06185], [-95.65889, 39.05423], [-95.66176, 39.05495], [-95.66245, 39.05351], [-95.66363, 39.05381], [-95.66302, 39.05515], [-95.66396, 39.05543], [-95.66333, 39.05683], [-95.66885, 39.05835], [-95.67179, 39.05123], [-95.67501, 39.04401], [-95.67657, 39.04438], [-95.67798, 39.04479], [-95.67499, 39.05187], [-95.67196, 39.05902], [-95.677568, 39.060647], [-95.67851, 39.06092], [-95.6777, 39.06277], [-95.677279, 39.062663], [-95.66783, 39.06026], [-95.6672, 39.06115], [-95.66623, 39.06107]]], [[[-95.6687, 39.06474], [-95.66651, 39.06912], [-95.66482, 39.06865], [-95.66623, 39.06554], [-95.66586, 39.06532], [-95.66503, 39.06508], [-95.66415, 39.06509], [-95.6651, 39.06279], [-95.66668, 39.06286], [-95.66765, 39.06305], [-95.66898, 39.06367], [-95.67229, 39.0641], [-95.674065, 39.064668], [-95.67504, 39.06498], [-95.67573, 39.06605], [-95.67566, 39.06816], [-95.672963, 39.067238], [-95.67288, 39.06721], [-95.67339, 39.066], [-95.6687, 39.06474]]]]}}]}