{"type": "FeatureCollection", "features": [{"type": "Feature", "properties": {"area_id": 7018, "city": "Niagara Falls", "state": "NY", "city_survey": true, "cat": "Best", "grade": "A", "label": "A1", "res": true, "com": false, "ind": false, "holc_grade": "A"}, "geometry": {"type": "Polygon", "coordinates": [[[-79.04775, 43.1304], [-79.05036, 43.12637], [-79.05054, 43.12112], [-79.05399, 43.11739], [-79.05624, 43.11739], [-79.05684, 43.12095], [-79.05577, 43.12247], [-79.06349, 43.12255], [-79.06088, 43.12442], [-79.05915, 43.1252], [-79.05779, 43.12559], [-79.05612, 43.1265], [-79.05452, 43.12754], [-79.05315, 43.1288], [-79.05268, 43.12984], [-79.0522, 43.13044], [-79.0503, 43.13196], [-79.04662, 43.13188], [-79.04775, 43.1304]]]}}, {"type": "Feature", "properties": {"area_id": 7019, "city": "Niagara Falls", "state": "NY", "city_survey": true, "cat": "Still Desirable", "grade": "B", "label": "B1", "res": true, "com": false, "ind": false, "holc_grade": "B"}, "geometry": {"type": "Polygon", "coordinates": [[[-79.052909, 43.115954], [-79.05327, 43.11557], [-79.05387, 43.11444], [-79.05601, 43.11453], [-79.05892, 43.11323], [-79.05939, 43.1137], [-79.06165, 43.11605], [-79.05707, 43.11644], [-79.05601, 43.11631], [-79.05624, 43.11739], [-79.05399, 43.11739], [-79.05054, 43.12112], [-79.05036, 43.12637], [-79.04775, 43.1304], [-79.04662, 43.13188], [-79.04489, 43.13196], [-79.04579, 43.12763], [-79.04549, 43.12385], [-79.047369, 43.12185], [-79.052909, 43.115954]]]}}, {"type": "Feature", "properties": {"area_id": 7022, "city": "Niagara Falls", "state": "NY", "city_survey": true, "cat": "Still Desirable", "grade": "B", "label": "B2", "res": true, "com": false, "ind": false, "holc_grade": "B"}, "geometry": {"type": "MultiPolygon", "coordinates": [[[[-79.05571, 43.09357], [-79.05571, 43.09358], [-79.05571, 43.09362], [-79.0557, 43.09358], [-79.05571, 43.09357]]], [[[-79.0557, 43.09358], [-79.055252, 43.094502], [-79.05143, 43.10238], [-79.05238, 43.10568], [-79.05149, 43.10568], [-79.05167, 43.1085], [-79.05387, 43.10859], [-79.05393, 43.10954], [-79.05167, 43.10945], [-79.05, 43.10828], [-79.04989, 43.10416], [-79.05185, 43.09804], [-79.050666, 43.098275], [-79.05054, 43.0983], [-79.04994, 43.09652], [-79.048695, 43.094775], [-79.04852, 43.09453], [-79.04442, 43.08941], [-79.053235, 43.089053], [-79.05529, 43.08897], [-79.0557, 43.09358]]], [[[-79.05054, 43.0983], [-79.050055, 43.099714], [-79.049228, 43.102122], [-79.04917, 43.10229], [-79.049165, 43.102353], [-79.04905, 43.10394], [-79.04917, 43.10785], [-79.05, 43.10828], [-79.048983, 43.108289], [-79.0402, 43.10837], [-79.040225, 43.107687], [-79.040441, 43.101707], [-79.0405, 43.10008], [-79.03972, 43.1], [-79.03961, 43.09839], [-79.04103, 43.09835], [-79.05054, 43.0983]]], [[[-79.059516, 43.094337], [-79.05969, 43.09748], [-79.05737, 43.10108], [-79.05606, 43.10242], [-79.05553, 43.1036], [-79.05559, 43.10564], [-79.05541, 43.10681], [-79.0544, 43.10681], [-79.0528, 43.10186], [-79.05452, 43.09874], [-79.057066, 43.094433], [-79.05737, 43.09392], [-79.06141, 43.0914], [-79.06147, 43.0931], [-79.05945, 43.09314], [-79.059516, 43.094337]]]]}}, {"type": "Feature", "properties": {"area_id": 7024, "city": "Niagara Falls", "state": "NY", "city_survey": true, "cat": "Still Desirable", "grade": "B", "label": "B3", "res": true, "com": false, "ind": false, "holc_grade": "B"}, "geometry": {"type": "Polygon", "coordinates": [[[-79.03788, 43.10117], [-79.03889, 43.10121], [-79.038886, 43.101694], [-79.038836, 43.10768], [-79.03883, 43.10838], [-79.030205, 43.10844], [-79.02154, 43.1085], [-79.02161, 43.1081], [-79.02198, 43.10808], [-79.02214, 43.1078], [-79.02267, 43.10776], [-79.02279, 43.10733], [-79.02286, 43.1071], [-79.02319, 43.10707], [-79.02326, 43.1068], [-79.02336, 43.10669], [-79.02342, 43.10647], [-79.02359, 43.10629], [-79.0236, 43.10614], [-79.02369, 43.10599], [-79.02369, 43.10579], [-79.02391, 43.10559], [-79.02388, 43.10545], [-79.02391, 43.10527], [-79.02393, 43.10509], [-79.02407, 43.10489], [-79.02412, 43.1043], [-79.02387, 43.10417], [-79.02393, 43.10399], [-79.02423, 43.10387], [-79.02428, 43.1037], [-79.02416, 43.10348], [-79.02428, 43.10334], [-79.027995, 43.103469], [-79.02802, 43.10347], [-79.027312, 43.101632], [-79.02618, 43.09869], [-79.0377, 43.09878], [-79.03788, 43.10117]]]}}, {"type": "Feature", "properties": {"area_id": 7027, "city": "Niagara Falls", "state": "NY", "city_survey": true, "cat": "Still Desirable", "grade": "B", "label": "B4", "res": true, "com": false, "ind": false, "holc_grade": "B"}, "geometry": {"type": "Polygon", "coordinates": [[[-79.05149, 43.081746], [-79.05158, 43.08123], [-79.05534, 43.08109], [-79.05624, 43.08088], [-79.05829, 43.08119], [-79.0589, 43.08112], [-79.05929, 43.08119], [-79.06024, 43.08143], [-79.06128, 43.08171], [-79.06261, 43.08314], [-79.06138, 43.08456], [-79.05857, 43.08348], [-79.0523, 43.08345], [-79.052194, 43.083349], [-79.05135, 43.08255], [-79.05149, 43.081746]]]}}, {"type": "Feature", "properties": {"area_id": 7028, "city": "Niagara Falls", "state": "NY", "city_survey": true, "cat": "Still Desirable", "grade": "B", "label": "B5", "res": true, "com": false, "ind": false, "holc_grade": "B"}, "geometry": {"type": "Polygon", "coordinates": [[[-78.99525, 43.07582], [-78.99913, 43.07554], [-79.00027, 43.07585], [-79.0002, 43.07733], [-79.000195, 43.077461], [-79.00006, 43.08114], [-78.99475, 43.08075], [-78.994598, 43.076444], [-78.99457, 43.07564], [-78.99525, 43.07582]]]}}, {"type": "Feature", "properties": {"area_id": 7030, "city": "Niagara Falls", "state": "NY", "city_survey": true, "cat": "Still Desirable", "grade": "B", "label": "B6", "res": true, "com": false, "ind": false, "holc_grade": "B"}, "geometry": {"type": "MultiPolygon", "coordinates": [[[[-78.960421, 43.08174], [-78.96147, 43.08138], [-78.96118, 43.08068], [-78.96107, 43.07975], [-78.96107, 43.07914], [-78.96368, 43.07924], [-78.96389, 43.08178], [-78.96406, 43.08306], [-78.96432, 43.0835], [-78.96496, 43.08435], [-78.96387, 43.08492], [-78.96508, 43.08704], [-78.96587, 43.08815], [-78.96663, 43.08928], [-78.96755, 43.09027], [-78.96537, 43.09093], [-78.96356, 43.09138], [-78.96358, 43.09155], [-78.96239, 43.091757], [-78.96128, 43.09195], [-78.95883, 43.092], [-78.95508, 43.09181], [-78.95275, 43.09138], [-78.95056, 43.09113], [-78.94709, 43.08999], [-78.945883, 43.089675], [-78.94502, 43.08945], [-78.944946, 43.088709], [-78.94469, 43.08613], [-78.945502, 43.086246], [-78.94778, 43.08657], [-78.95051, 43.08699], [-78.95175, 43.08744], [-78.952191, 43.087493], [-78.952967, 43.087586], [-78.95317, 43.08761], [-78.95472, 43.08785], [-78.9556, 43.08782], [-78.95553, 43.08584], [-78.9555, 43.08483], [-78.95548, 43.08136], [-78.95531, 43.08084], [-78.95534, 43.07803], [-78.95748, 43.0785], [-78.95988, 43.07905], [-78.95985, 43.07943], [-78.95959, 43.08023], [-78.959941, 43.080868], [-78.960414, 43.081728], [-78.96042, 43.08174], [-78.960421, 43.08174]]], [[[-78.9643, 43.07848], [-78.96238, 43.07845], [-78.96195, 43.0783], [-78.96544, 43.07653], [-78.96434, 43.07569], [-78.95995, 43.07819], [-78.95842, 43.07817], [-78.95706, 43.0777], [-78.95692, 43.07746], [-78.95828, 43.07765], [-78.95938, 43.07749], [-78.96049, 43.07705], [-78.96163, 43.07647], [-78.96191, 43.07624], [-78.96273, 43.07595], [-78.96384, 43.07515], [-78.9684, 43.07426], [-78.97058, 43.07403], [-78.97332, 43.07343], [-78.97364, 43.0747], [-78.97706, 43.07452], [-78.97724, 43.07741], [-78.97955, 43.07741], [-78.97952, 43.07952], [-78.96755, 43.07871], [-78.9643, 43.07848]]]]}}, {"type": "Feature", "properties": {"area_id": 7031, "city": "Niagara Falls", "state": "NY", "city_survey": true, "cat": "Still Desirable", "grade": "B", "label": "B7", "res": true, "com": false, "ind": false, "holc_grade": "B"}, "geometry": {"type": "Polygon", "coordinates": [[[-78.96277, 43.07207], [-78.963505, 43.072194], [-78.9636, 43.07221], [-78.964252, 43.072226], [-78.96443, 43.07223], [-78.96534, 43.072542], [-78.96548, 43.07259], [-78.96636, 43.07275], [-78.96736, 43.07285], [-78.96814, 43.07292], [-78.969, 43.07296], [-78.96949, 43.07279], [-78.97023, 43.07256], [-78.97071, 43.0724], [-78.9714, 43.07233], [-78.97211, 43.07218], [-78.97349, 43.07214], [-78.97432, 43.07223], [-78.97501, 43.07221], [-78.97575, 43.07213], [-78.97624, 43.07213], [-78.97667, 43.0722], [-78.97689, 43.07233], [-78.976975, 43.072515], [-78.97701, 43.07259], [-78.976951, 43.072599], [-78.97558, 43.0728], [-78.97484, 43.07292], [-78.97396, 43.07284], [-78.97071, 43.07318], [-78.97042, 43.07329], [-78.96957, 43.07334], [-78.96866, 43.07358], [-78.967, 43.07369], [-78.96474, 43.07414], [-78.96389, 43.07445], [-78.96248, 43.07539], [-78.96137, 43.07589], [-78.95935, 43.07674], [-78.95828, 43.07692], [-78.95683, 43.07687], [-78.95552, 43.07645], [-78.95414, 43.07579], [-78.95245, 43.07431], [-78.95141, 43.07357], [-78.950877, 43.073], [-78.95053, 43.07263], [-78.95069, 43.07233], [-78.952039, 43.07206], [-78.95214, 43.07204], [-78.95309, 43.07188], [-78.95405, 43.07178], [-78.95561, 43.07169], [-78.95718, 43.0718], [-78.95823, 43.0719], [-78.95901, 43.07185], [-78.96032, 43.07174], [-78.9616, 43.07187], [-78.961878, 43.071918], [-78.96277, 43.07207]]]}}, {"type": "Feature", "properties": {"area_id": 7021, "city": "Niagara Falls", "state": "NY", "city_survey": true, "cat": "Definitely Declining", "grade": "C", "label": "C1", "res": true, "com": false, "ind": false, "holc_grade": "C"}, "geometry": {"type": "MultiPolygon", "coordinates": [[[[-79.049001, 43.11012], [-79.04644, 43.11058], [-79.0427, 43.11062], [-79.03753, 43.11041], [-79.03776, 43.11175], [-79.03265, 43.11236], [-79.03271, 43.11171], [-79.031719, 43.111687], [-79.01964, 43.1114], [-79.01964, 43.10932], [-79.01988, 43.1088], [-79.02035, 43.10885], [-79.02071, 43.10837], [-79.02142, 43.10845], [-79.02154, 43.1085], [-79.030205, 43.10844], [-79.03883, 43.10838], [-79.0402, 43.10837], [-79.048983, 43.108289], [-79.05, 43.10828], [-79.04911, 43.1101], [-79.049001, 43.11012]]], [[[-79.05577, 43.10763], [-79.05672, 43.10837], [-79.057186, 43.1094], [-79.05892, 43.11323], [-79.05601, 43.11453], [-79.05387, 43.11444], [-79.05476, 43.11188], [-79.05452, 43.11067], [-79.05547, 43.1108], [-79.055161, 43.109647], [-79.0544, 43.10681], [-79.05541, 43.10681], [-79.05577, 43.10763]]]]}}, {"type": "Feature", "properties": {"area_id": 7023, "city": "Niagara Falls", "state": "NY", "city_survey": true, "cat": "Definitely Declining", "grade": "C", "label": "C2", "res": true, "com": false, "ind": false, "holc_grade": "C"}, "geometry": {"type": "MultiPolygon", "coordinates": [[[[-79.06489, 43.08446], [-79.06575, 43.08466], [-79.06546, 43.08498], [-79.06347, 43.08508], [-79.06356, 43.08557], [-79.05843, 43.08574], [-79.0523, 43.08345], [-79.05857, 43.08348], [-79.06138, 43.08456], [-79.06261, 43.08314], [-79.06295, 43.08307], [-79.063666, 43.083341], [-79.06385, 43.08341], [-79.06399, 43.083551], [-79.06489, 43.08446]]], [[[-79.05571, 43.09358], [-79.05571, 43.09357], [-79.0557, 43.09358], [-79.05529, 43.08897], [-79.06278, 43.0888], [-79.05571, 43.09358]]], [[[-79.05843, 43.08702], [-79.0628, 43.08692], [-79.0629, 43.08786], [-79.05605, 43.08807], [-79.05605, 43.08699], [-79.05539, 43.08605], [-79.05843, 43.08702]]]]}}, {"type": "Feature", "properties": {"area_id": 7025, "city": "Niagara Falls", "state": "NY", "city_survey": true, "cat": "Definitely Declining", "grade": "C", "label": "C3", "res": true, "com": false, "ind": false, "holc_grade": "C"}, "geometry": {"type": "MultiPolygon", "coordinates": [[[[-79.0427, 43.08751], [-79.042922, 43.087501], [-79.052761, 43.087118], [-79.05605, 43.08699], [-79.05605, 43.08807], [-79.05274, 43.088166], [-79.04531, 43.08838], [-79.0436, 43.08831], [-79.04442, 43.08941], [-79.04852, 43.09453], [-79.048695, 43.094775], [-79.04994, 43.09652], [-79.05054, 43.0983], [-79.04103, 43.09835], [-79.04098, 43.09577], [-79.04531, 43.0956], [-79.045335, 43.094909], [-79.04536, 43.09421], [-79.041484, 43.094325], [-79.03961, 43.09438], [-79.039561, 43.088586], [-79.03956, 43.08848], [-79.03761, 43.08855], [-79.03761, 43.088553], [-79.03785, 43.09456], [-79.033177, 43.094584], [-79.0242, 43.09463], [-79.02126, 43.08824], [-79.033, 43.08848], [-79.033001, 43.088447], [-79.03309, 43.08494], [-79.040956, 43.085175], [-79.04113, 43.08518], [-79.04135, 43.085485], [-79.04208, 43.0865], [-79.0427, 43.08751]]], [[[-79.02618, 43.09869], [-79.02473, 43.0957], [-79.0377, 43.0956], [-79.0377, 43.09878], [-79.02618, 43.09869]]]]}}, {"type": "Feature", "properties": {"area_id": 7029, "city": "Niagara Falls", "state": "NY", "city_survey": true, "cat": "Definitely Declining", "grade": "C", "label": "C4", "res": true, "com": false, "ind": false, "holc_grade": "C"}, "geometry": {"type": "MultiPolygon", "coordinates": [[[[-78.96368, 43.07924], [-78.96599, 43.07929], [-78.96748, 43.0795], [-78.97005, 43.07959], [-78.972548, 43.079711], [-78.97295, 43.07973], [-78.97716, 43.08004], [-78.9773, 43.08332], [-78.972572, 43.083404], [-78.97114, 43.08343], [-78.96432, 43.0835], [-78.96406, 43.08306], [-78.96389, 43.08178], [-78.96368, 43.07924]]], [[[-78.982314, 43.072926], [-78.98387, 43.07314], [-78.98526, 43.07364], [-78.985881, 43.073864], [-78.98598, 43.0739], [-78.98772, 43.07421], [-78.98979, 43.0746], [-78.990617, 43.074817], [-78.99147, 43.07504], [-78.99247, 43.07525], [-78.99314, 43.07533], [-78.9935, 43.07546], [-78.99457, 43.07564], [-78.994598, 43.076444], [-78.99475, 43.08075], [-78.981744, 43.0797], [-78.97952, 43.07952], [-78.97955, 43.07741], [-78.9796, 43.07426], [-78.981746, 43.074294], [-78.98273, 43.07431], [-78.98512, 43.07538], [-78.98926, 43.07595], [-78.99158, 43.07629], [-78.991596, 43.075878], [-78.99161, 43.07554], [-78.990619, 43.07541], [-78.985837, 43.074782], [-78.98544, 43.07473], [-78.98338, 43.07366], [-78.97974, 43.07338], [-78.97945, 43.07304], [-78.980089, 43.072878], [-78.9802, 43.07285], [-78.980794, 43.07286], [-78.980984, 43.072863], [-78.98198, 43.07288], [-78.982314, 43.072926]]]]}}, {"type": "Feature", "properties": {"area_id": 7020, "city": "Niagara Falls", "state": "NY", "city_survey": true, "cat": "Hazardous", "grade": "D", "label": "D1", "res": true, "com": false, "ind": false, "holc_grade": "D"}, "geometry": {"type": "MultiPolygon", "coordinates": [[[[-79.04632, 43.11119], [-79.04911, 43.11058], [-79.05333, 43.11067], [-79.05214, 43.11344], [-79.04893, 43.1134], [-79.0484, 43.11431], [-79.03503, 43.11431], [-79.03509, 43.11748], [-79.034136, 43.11748], [-79.03408, 43.11748], [-79.03438, 43.11834], [-79.026, 43.11821], [-79.026, 43.115812], [-79.026, 43.11414], [-79.03146, 43.11336], [-79.03146, 43.11305], [-79.032256, 43.112916], [-79.03426, 43.11258], [-79.04626, 43.11262], [-79.04632, 43.11119]]], [[[-79.04418, 43.12186], [-79.04163, 43.12524], [-79.04406, 43.12541], [-79.04388, 43.12615], [-79.037692, 43.126022], [-79.03759, 43.12602], [-79.03574, 43.12173], [-79.035891, 43.121732], [-79.04418, 43.12186]]]]}}, {"type": "Feature", "properties": {"area_id": 7026, "city": "Niagara Falls", "state": "NY", "city_survey": true, "cat": "Hazardous", "grade": "D", "label": "D2", "res": true, "com": false, "ind": false, "holc_grade": "D"}, "geometry": {"type": "MultiPolygon", "coordinates": [[[[-79.00013, 43.08533], [-78.99992, 43.09072], [-78.99703, 43.09028], [-78.99703, 43.08496], [-78.99411, 43.08486], [-78.99386, 43.08116], [-78.99707, 43.08147], [-79.00006, 43.08166], [-79.00013, 43.08533]]], [[[-79.0523, 43.08345], [-79.05292, 43.08484], [-79.05539, 43.08605], [-79.052621, 43.086144], [-79.042143, 43.086498], [-79.04208, 43.0865], [-79.04135, 43.085485], [-79.04113, 43.08518], [-79.040956, 43.085175], [-79.03309, 43.08494], [-79.033001, 43.088447], [-79.033, 43.08848], [-79.02126, 43.08824], [-79.0242, 43.09463], [-79.02423, 43.09463], [-79.024437, 43.095143], [-79.02444, 43.09515], [-79.024249, 43.095148], [-79.024017, 43.095146], [-79.017087, 43.095083], [-79.01674, 43.09508], [-79.01579, 43.09483], [-79.015776, 43.0945], [-79.01546, 43.08689], [-79.01593, 43.08668], [-79.01627, 43.08317], [-79.02468, 43.08373], [-79.02354, 43.08501], [-79.02316, 43.08595], [-79.02259, 43.08657], [-79.02886, 43.08654], [-79.02886, 43.08355], [-79.03366, 43.08369], [-79.04022, 43.08411], [-79.040422, 43.083213], [-79.04051, 43.08282], [-79.05135, 43.08255], [-79.052194, 43.083349], [-79.0523, 43.08345]]]]}}, {"type": "Feature", "properties": {"area_id": 11395, "city": "Niagara Falls", "state": "NY", "city_survey": true, "cat": "Commercial", "grade": null, "label": "Commercial", "res": false, "com": true, "ind": false, "holc_grade": null}, "geometry": {"type": "MultiPolygon", "coordinates": [[[[-78.96107, 43.07914], [-78.96107, 43.07975], [-78.96118, 43.08068], [-78.96147, 43.08138], [-78.960421, 43.08174], [-78.96042, 43.08174], [-78.960414, 43.081728], [-78.959941, 43.080868], [-78.95959, 43.08023], [-78.95985, 43.07943], [-78.95988, 43.07905], [-78.959915, 43.078616], [-78.95995, 43.07819], [-78.96434, 43.07569], [-78.96544, 43.07653], [-78.96195, 43.0783], [-78.961494, 43.078735], [-78.96107, 43.07914]]], [[[-78.98338, 43.07366], [-78.98544, 43.07473], [-78.985837, 43.074782], [-78.990619, 43.07541], [-78.99161, 43.07554], [-78.991596, 43.075878], [-78.99158, 43.07629], [-78.98926, 43.07595], [-78.98512, 43.07538], [-78.98273, 43.07431], [-78.981746, 43.074294], [-78.9796, 43.07426], [-78.97959, 43.07468], [-78.97706, 43.07452], [-78.97364, 43.0747], [-78.97332, 43.07343], [-78.977402, 43.07317], [-78.978523, 43.073099], [-78.97945, 43.07304], [-78.97974, 43.07338], [-78.98338, 43.07366]]], [[[-79.04536, 43.09421], [-79.045335, 43.094909], [-79.04531, 43.0956], [-79.04098, 43.09577], [-79.04103, 43.09835], [-79.03961, 43.09839], [-79.03972, 43.1], [-79.0405, 43.10008], [-79.040441, 43.101707], [-79.040225, 43.107687], [-79.0402, 43.10837], [-79.03883, 43.10838], [-79.038836, 43.10768], [-79.038886, 43.101694], [-79.03889, 43.10121], [-79.03788, 43.10117], [-79.0377, 43.09878], [-79.0377, 43.0956], [-79.02473, 43.0957], [-79.02444, 43.09515], [-79.024437, 43.095143], [-79.02423, 43.09463], [-79.0242, 43.09463], [-79.033177, 43.094584], [-79.03785, 43.09456], [-79.03761, 43.088553], [-79.03761, 43.08855], [-79.03956, 43.08848], [-79.039561, 43.088586], [-79.03961, 43.09438], [-79.041484, 43.094325], [-79.04536, 43.09421]]], [[[-79.05605, 43.08807], [-79.0629, 43.08786], [-79.0628, 43.08692], [-79.05843, 43.08702], [-79.05539, 43.08605], [-79.05292, 43.08484], [-79.0523, 43.08345], [-79.05843, 43.08574], [-79.06356, 43.08557], [-79.06347, 43.08508], [-79.06546, 43.08498], [-79.06575, 43.08466], [-79.06648, 43.08747], [-79.06147, 43.0931], [-79.06141, 43.0914], [-79.05737, 43.09392], [-79.057066, 43.094433], [-79.05452, 43.09874], [-79.0528, 43.10186], [-79.0544, 43.10681], [-79.055161, 43.109647], [-79.05547, 43.1108], [-79.05452, 43.11067], [-79.054335, 43.11067], [-79.05333, 43.11067], [-79.04911, 43.11058], [-79.04911, 43.110484], [-79.04911, 43.1101], [-79.05, 43.10828], [-79.05167, 43.10945], [-79.05393, 43.10954], [-79.05387, 43.10859], [-79.05167, 43.1085], [-79.05149, 43.10568], [-79.05238, 43.10568], [-79.05143, 43.10238], [-79.055252, 43.094502], [-79.0557, 43.09358], [-79.05571, 43.09362], [-79.05571, 43.09358], [-79.06278, 43.0888], [-79.05529, 43.08897], [-79.053235, 43.089053], [-79.04442, 43.08941], [-79.0436, 43.08831], [-79.04531, 43.08838], [-79.05274, 43.088166], [-79.05605, 43.08807]]], [[[-79.05539, 43.08605], [-79.05605, 43.08699], [-79.052761, 43.087117], [-79.04932, 43.08725], [-79.042922, 43.087501], [-79.0427, 43.08751], [-79.04208, 43.0865], [-79.042143, 43.086498], [-79.0481, 43.0863], [-79.052621, 43.086145], [-79.05539, 43.08605]]], [[[-79.05, 43.10828], [-79.04917, 43.10785], [-79.04907, 43.10459], [-79.04989, 43.10416], [-79.05, 43.10828]]]]}}, {"type": "Feature", "properties": {"area_id": 11394, "city": "Niagara Falls", "state": "NY", "city_survey": true, "cat": "Industrial", "grade": null, "label": "Industrial", "res": false, "com": false, "ind": true, "holc_grade": null}, "geometry": {"type": "MultiPolygon", "coordinates": [[[[-78.95364, 43.07665], [-78.95692, 43.07746], [-78.95706, 43.0777], [-78.95842, 43.07817], [-78.95995, 43.07819], [-78.959915, 43.078616], [-78.95988, 43.07905], [-78.95748, 43.0785], [-78.95534, 43.07803], [-78.95108, 43.07684], [-78.94772, 43.07557], [-78.945413, 43.075042], [-78.94444, 43.07482], [-78.94523, 43.074134], [-78.94565, 43.07377], [-78.94956, 43.07511], [-78.95364, 43.07665]]], [[[-79.05034, 43.08087], [-79.05135, 43.08255], [-79.04051, 43.08282], [-79.040422, 43.083213], [-79.04022, 43.08411], [-79.03366, 43.08369], [-79.02886, 43.08355], [-79.02886, 43.08654], [-79.02259, 43.08657], [-79.02316, 43.08595], [-79.02354, 43.08501], [-79.02468, 43.08373], [-79.01627, 43.08317], [-79.01593, 43.08668], [-79.01546, 43.08689], [-79.015776, 43.0945], [-79.01579, 43.09483], [-79.01182, 43.09415], [-79.0104, 43.093718], [-79.00985, 43.09355], [-79.009731, 43.093563], [-79.00676, 43.09388], [-79.00626, 43.09283], [-79.001586, 43.091275], [-78.99992, 43.09072], [-79.00013, 43.08533], [-79.00006, 43.08166], [-78.99707, 43.08147], [-78.99386, 43.08116], [-78.984252, 43.080516], [-78.97716, 43.08004], [-78.97295, 43.07973], [-78.972548, 43.079711], [-78.97005, 43.07959], [-78.96748, 43.0795], [-78.96599, 43.07929], [-78.96368, 43.07924], [-78.96107, 43.07914], [-78.961494, 43.078735], [-78.96195, 43.0783], [-78.96238, 43.07845], [-78.9643, 43.07848], [-78.96755, 43.07871], [-78.97952, 43.07952], [-78.981744, 43.0797], [-78.99475, 43.08075], [-79.00006, 43.08114], [-79.000195, 43.077461], [-79.0002, 43.07733], [-79.00027, 43.07585], [-79.00179, 43.07607], [-79.0038, 43.07564], [-79.00383, 43.07453], [-79.00659, 43.07509], [-79.0178, 43.07924], [-79.0201, 43.07934], [-79.02181, 43.07874], [-79.04003, 43.078303], [-79.04183, 43.07826], [-79.04554, 43.07924], [-79.04607, 43.07991], [-79.04876, 43.08075], [-79.05034, 43.08087]]], [[[-79.04911, 43.110484], [-79.04911, 43.11058], [-79.04632, 43.11119], [-79.04626, 43.11262], [-79.03426, 43.11258], [-79.032256, 43.112916], [-79.03146, 43.11305], [-79.03146, 43.11336], [-79.026, 43.11414], [-79.02599, 43.11155], [-79.031719, 43.111686], [-79.03271, 43.11171], [-79.03265, 43.11236], [-79.03776, 43.11175], [-79.03753, 43.11041], [-79.0427, 43.11062], [-79.04644, 43.11058], [-79.049001, 43.11012], [-79.04911, 43.1101], [-79.04911, 43.110484]]], [[[-79.047369, 43.12185], [-79.04549, 43.12385], [-79.04579, 43.12763], [-79.04549, 43.12906], [-79.04268, 43.12887], [-79.042928, 43.128308], [-79.04388, 43.12615], [-79.04406, 43.12541], [-79.04163, 43.12524], [-79.04418, 43.12186], [-79.035891, 43.121732], [-79.03574, 43.12173], [-79.03438, 43.11834], [-79.03408, 43.11748], [-79.034136, 43.11748], [-79.03509, 43.11748], [-79.03503, 43.11431], [-79.0484, 43.11431], [-79.04893, 43.1134], [-79.05214, 43.11344], [-79.05333, 43.11067], [-79.054335, 43.11067], [-79.05452, 43.11067], [-79.05476, 43.11188], [-79.05387, 43.11444], [-79.05327, 43.11557], [-79.052909, 43.115954], [-79.047369, 43.12185]]], [[[-79.05185, 43.09804], [-79.04989, 43.10416], [-79.04907, 43.10459], [-79.04905, 43.10394], [-79.049165, 43.102353], [-79.04917, 43.10229], [-79.049228, 43.102122], [-79.050055, 43.099714], [-79.05054, 43.0983], [-79.050666, 43.098275], [-79.05185, 43.09804]]]]}}]}