{"type": "FeatureCollection", "features": [{"type": "Feature", "properties": {"area_id": 10820, "city": "Fargo", "state": "ND", "city_survey": false, "cat": "Best Residential District", "grade": "A", "label": "Best Residential District", "res": true, "com": false, "ind": false, "holc_grade": "A"}, "geometry": {"type": "Polygon", "coordinates": [[[-96.79841, 46.88316], [-96.7983, 46.88462], [-96.801198, 46.88463], [-96.80121, 46.88463], [-96.801209, 46.884669], [-96.80119, 46.8852], [-96.80135, 46.88586], [-96.80135, 46.890372], [-96.80135, 46.8904], [-96.79821, 46.89039], [-96.798125, 46.89039], [-96.790751, 46.890348], [-96.78939, 46.89034], [-96.789389, 46.890358], [-96.78925, 46.89528], [-96.78584, 46.89531], [-96.783087, 46.895333], [-96.78115, 46.89535], [-96.78005, 46.89498], [-96.78021, 46.890342], [-96.78021, 46.89034], [-96.78175, 46.89033], [-96.78165, 46.8831], [-96.78476, 46.8831], [-96.78476, 46.88575], [-96.78774, 46.88578], [-96.78787, 46.88308], [-96.793975, 46.883126], [-96.796996, 46.883149], [-96.797277, 46.883151], [-96.79841, 46.88316]]]}}, {"type": "Feature", "properties": {"area_id": 10821, "city": "Fargo", "state": "ND", "city_survey": false, "cat": "Best Residential District", "grade": "A", "label": "Best Residential District", "res": true, "com": false, "ind": false, "holc_grade": "A"}, "geometry": {"type": "Polygon", "coordinates": [[[-96.78782, 46.86144], [-96.7879, 46.8576], [-96.7879, 46.85564], [-96.79861, 46.85572], [-96.7985, 46.86153], [-96.80385, 46.86151], [-96.803849, 46.861585], [-96.80382, 46.86333], [-96.80373, 46.86862], [-96.80397, 46.86864], [-96.80383, 46.87285], [-96.79856, 46.87281], [-96.798282, 46.872794], [-96.78985, 46.87232], [-96.79032, 46.86868], [-96.78762, 46.86864], [-96.78769, 46.86644], [-96.78354, 46.86637], [-96.78359, 46.86431], [-96.7849, 46.86432], [-96.78488, 46.86157], [-96.78488, 46.86152], [-96.78782, 46.86144]]]}}, {"type": "Feature", "properties": {"area_id": 10822, "city": "Fargo", "state": "ND", "city_survey": false, "cat": "Good Residential District", "grade": "B", "label": "Good Residential District", "res": true, "com": false, "ind": false, "holc_grade": "B"}, "geometry": {"type": "Polygon", "coordinates": [[[-96.79251, 46.87872], [-96.79252, 46.878694], [-96.79304, 46.8774], [-96.80801, 46.87737], [-96.80415, 46.88374], [-96.80351, 46.88359], [-96.79892, 46.88248], [-96.79244, 46.88107], [-96.792494, 46.879449], [-96.79251, 46.87895], [-96.79251, 46.87872]]]}}, {"type": "Feature", "properties": {"area_id": 10823, "city": "Fargo", "state": "ND", "city_survey": false, "cat": "Good Residential District", "grade": "B", "label": "Good Residential District", "res": true, "com": false, "ind": false, "holc_grade": "B"}, "geometry": {"type": "Polygon", "coordinates": [[[-96.80397, 46.86864], [-96.80373, 46.86862], [-96.80382, 46.86333], [-96.80923, 46.86332], [-96.809021, 46.86977], [-96.80892, 46.8729], [-96.806859, 46.87288], [-96.80383, 46.87285], [-96.80397, 46.86864]]]}}, {"type": "Feature", "properties": {"area_id": 10824, "city": "Fargo", "state": "ND", "city_survey": false, "cat": "Fair Residential District", "grade": "C", "label": "Fair Residential District", "res": true, "com": false, "ind": false, "holc_grade": "C"}, "geometry": {"type": "Polygon", "coordinates": [[[-96.80349, 46.88464], [-96.803497, 46.884909], [-96.80364, 46.89036], [-96.802667, 46.890377], [-96.80135, 46.8904], [-96.80135, 46.890372], [-96.80135, 46.88586], [-96.80119, 46.8852], [-96.801209, 46.884669], [-96.80121, 46.88463], [-96.80349, 46.88464]]]}}, {"type": "Feature", "properties": {"area_id": 10825, "city": "Fargo", "state": "ND", "city_survey": false, "cat": "Fair Residential District", "grade": "C", "label": "Fair Residential District", "res": true, "com": false, "ind": false, "holc_grade": "C"}, "geometry": {"type": "Polygon", "coordinates": [[[-96.7879, 46.8576], [-96.78782, 46.86144], [-96.78488, 46.86152], [-96.78492, 46.86072], [-96.78455, 46.8597], [-96.78157, 46.8577], [-96.78053, 46.85739], [-96.77905, 46.8574], [-96.77921, 46.85714], [-96.77924, 46.85556], [-96.77965, 46.85526], [-96.78059, 46.85544], [-96.7822, 46.85617], [-96.78286, 46.85637], [-96.78398, 46.85637], [-96.78494, 46.85625], [-96.78629, 46.85556], [-96.78669, 46.85502], [-96.787, 46.85485], [-96.78793, 46.85484], [-96.7879, 46.85564], [-96.7879, 46.8576]]]}}, {"type": "Feature", "properties": {"area_id": 10826, "city": "Fargo", "state": "ND", "city_survey": false, "cat": "Fair Residential District", "grade": "C", "label": "Fair Residential District", "res": true, "com": false, "ind": false, "holc_grade": "C"}, "geometry": {"type": "Polygon", "coordinates": [[[-96.78154, 46.87648], [-96.78156, 46.87745], [-96.78193, 46.87745], [-96.7822, 46.87803], [-96.78212, 46.87885], [-96.78213, 46.87989], [-96.78155, 46.88014], [-96.78154, 46.88109], [-96.78874, 46.88103], [-96.78994, 46.88112], [-96.79015, 46.88077], [-96.790214, 46.88078], [-96.79169, 46.88102], [-96.792313, 46.879448], [-96.79251, 46.87895], [-96.792494, 46.879449], [-96.79244, 46.88107], [-96.79892, 46.88248], [-96.80351, 46.88359], [-96.80349, 46.88464], [-96.80121, 46.88463], [-96.801198, 46.88463], [-96.7983, 46.88462], [-96.79841, 46.88316], [-96.797277, 46.883151], [-96.796996, 46.883149], [-96.793975, 46.883126], [-96.78787, 46.88308], [-96.78774, 46.88578], [-96.78476, 46.88575], [-96.78476, 46.8831], [-96.78165, 46.8831], [-96.78158, 46.88222], [-96.77759, 46.88225], [-96.77655, 46.88185], [-96.77424, 46.88174], [-96.77201, 46.88139], [-96.77267, 46.88133], [-96.77317, 46.88115], [-96.7734, 46.88081], [-96.77448, 46.8798], [-96.774777, 46.879556], [-96.77567, 46.87882], [-96.77687, 46.87878], [-96.7779, 46.87913], [-96.778141, 46.879281], [-96.77857, 46.87955], [-96.77911, 46.879732], [-96.77943, 46.87984], [-96.78005, 46.880031], [-96.78037, 46.88013], [-96.78076, 46.88], [-96.78115, 46.87956], [-96.781147, 46.879306], [-96.781146, 46.87919], [-96.78114, 46.87871], [-96.780212, 46.877032], [-96.780072, 46.876778], [-96.77999, 46.87663], [-96.779725, 46.876435], [-96.77935, 46.87616], [-96.77857, 46.87584], [-96.778806, 46.875831], [-96.7804, 46.87577], [-96.78145, 46.8756], [-96.78158, 46.87576], [-96.78154, 46.87648]]]}}, {"type": "Feature", "properties": {"area_id": 10827, "city": "Fargo", "state": "ND", "city_survey": false, "cat": "Poor Residential District", "grade": "D", "label": "Poor Residential District", "res": true, "com": false, "ind": false, "holc_grade": "D"}, "geometry": {"type": "Polygon", "coordinates": [[[-96.81989, 46.86854], [-96.819541, 46.890409], [-96.81954, 46.89045], [-96.80823, 46.8905], [-96.807547, 46.890371], [-96.80685, 46.89024], [-96.8054, 46.88947], [-96.80477, 46.88859], [-96.80444, 46.88733], [-96.80485, 46.8861], [-96.805215, 46.8856], [-96.8059, 46.88466], [-96.80649, 46.88378], [-96.8085, 46.88029], [-96.80939, 46.87933], [-96.81067, 46.87749], [-96.81064, 46.87703], [-96.81067, 46.87682], [-96.81154, 46.87621], [-96.81191, 46.87562], [-96.81188, 46.87523], [-96.81204, 46.87475], [-96.81204, 46.87368], [-96.8125, 46.87233], [-96.81304, 46.8714], [-96.81336, 46.87059], [-96.814189, 46.869781], [-96.81548, 46.86852], [-96.819488, 46.868538], [-96.81989, 46.86854]]]}}, {"type": "Feature", "properties": {"area_id": 10828, "city": "Fargo", "state": "ND", "city_survey": false, "cat": "Poor Residential District", "grade": "D", "label": "Poor Residential District", "res": true, "com": false, "ind": false, "holc_grade": "D"}, "geometry": {"type": "Polygon", "coordinates": [[[-96.7702, 46.87739], [-96.77107, 46.8774], [-96.771176, 46.877441], [-96.771363, 46.877513], [-96.7719, 46.87772], [-96.77204, 46.87844], [-96.77146, 46.87964], [-96.771451, 46.880165], [-96.77144, 46.88079], [-96.77171, 46.88129], [-96.77201, 46.88139], [-96.77424, 46.88174], [-96.77655, 46.88185], [-96.77759, 46.88225], [-96.78158, 46.88222], [-96.78165, 46.8831], [-96.78175, 46.89033], [-96.78021, 46.89034], [-96.777855, 46.890355], [-96.77706, 46.89036], [-96.77706, 46.890342], [-96.77711, 46.88673], [-96.77444, 46.88673], [-96.77418, 46.88574], [-96.77367, 46.88487], [-96.77357, 46.884809], [-96.773356, 46.88468], [-96.77263, 46.88424], [-96.77215, 46.884183], [-96.7717, 46.88413], [-96.7716, 46.884149], [-96.77065, 46.88433], [-96.769738, 46.884763], [-96.76928, 46.88498], [-96.768, 46.88499], [-96.76743, 46.88458], [-96.767253, 46.883665], [-96.76724, 46.883597], [-96.7672, 46.88339], [-96.76745, 46.8822], [-96.76827, 46.88005], [-96.768295, 46.879975], [-96.768469, 46.879448], [-96.76877, 46.87854], [-96.76945, 46.87783], [-96.769636, 46.877721], [-96.770017, 46.877497], [-96.7702, 46.87739]]]}}, {"type": "Feature", "properties": {"area_id": 10829, "city": "Fargo", "state": "ND", "city_survey": false, "cat": "Poor Residential District", "grade": "D", "label": "Poor Residential District", "res": true, "com": false, "ind": false, "holc_grade": "D"}, "geometry": {"type": "Polygon", "coordinates": [[[-96.77905, 46.8574], [-96.78053, 46.85739], [-96.78157, 46.8577], [-96.78455, 46.8597], [-96.78492, 46.86072], [-96.78488, 46.86152], [-96.78488, 46.86157], [-96.7849, 46.86432], [-96.78359, 46.86431], [-96.78354, 46.86637], [-96.78769, 46.86644], [-96.78762, 46.86864], [-96.79032, 46.86868], [-96.78985, 46.87232], [-96.7897, 46.87331], [-96.785139, 46.873013], [-96.78417, 46.87295], [-96.780929, 46.872886], [-96.78062, 46.87288], [-96.7805, 46.87379], [-96.77721, 46.87371], [-96.7768, 46.8737], [-96.776898, 46.873544], [-96.77697, 46.87343], [-96.778063, 46.873146], [-96.77893, 46.87292], [-96.7806, 46.87214], [-96.78132, 46.87197], [-96.78313, 46.87202], [-96.78442, 46.87168], [-96.78525, 46.8707], [-96.78522, 46.87002], [-96.7848, 46.86971], [-96.78225, 46.86945], [-96.780825, 46.868941], [-96.78071, 46.8689], [-96.78065, 46.868775], [-96.78043, 46.86832], [-96.780725, 46.867176], [-96.78075, 46.86708], [-96.781255, 46.866394], [-96.781356, 46.866257], [-96.78231, 46.86496], [-96.78284, 46.864595], [-96.78324, 46.86432], [-96.78402, 46.8632], [-96.78393, 46.862127], [-96.78389, 46.86165], [-96.78381, 46.861567], [-96.78244, 46.86014], [-96.78077, 46.85904], [-96.77891, 46.85819], [-96.77905, 46.8574]]]}}, {"type": "Feature", "properties": {"area_id": 10830, "city": "Fargo", "state": "ND", "city_survey": false, "cat": "Poor Residential District", "grade": "D", "label": "Poor Residential District", "res": true, "com": false, "ind": false, "holc_grade": "D"}, "geometry": {"type": "Polygon", "coordinates": [[[-96.798032, 46.901126], [-96.79802, 46.90141], [-96.78753, 46.90132], [-96.787511, 46.90158], [-96.787272, 46.904799], [-96.78725, 46.9051], [-96.782889, 46.905254], [-96.78159, 46.9053], [-96.78197, 46.89776], [-96.783033, 46.89776], [-96.78574, 46.89776], [-96.798052, 46.89776], [-96.79817, 46.89776], [-96.798036, 46.901014], [-96.798032, 46.901126]]]}}, {"type": "Feature", "properties": {"area_id": 10831, "city": "Fargo", "state": "ND", "city_survey": false, "cat": "Business District", "grade": null, "label": "Business District", "res": false, "com": true, "ind": false, "holc_grade": null}, "geometry": {"type": "Polygon", "coordinates": [[[-96.798282, 46.872794], [-96.79856, 46.87281], [-96.80383, 46.87285], [-96.806859, 46.87288], [-96.80892, 46.8729], [-96.80878, 46.87644], [-96.80801, 46.87737], [-96.79304, 46.8774], [-96.79252, 46.878694], [-96.79251, 46.87872], [-96.79251, 46.87895], [-96.792313, 46.879448], [-96.79169, 46.88102], [-96.790214, 46.88078], [-96.79015, 46.88077], [-96.78994, 46.88112], [-96.78874, 46.88103], [-96.78154, 46.88109], [-96.78155, 46.88014], [-96.78213, 46.87989], [-96.78212, 46.87885], [-96.7822, 46.87803], [-96.78193, 46.87745], [-96.78156, 46.87745], [-96.78154, 46.87648], [-96.78158, 46.87576], [-96.78145, 46.8756], [-96.7804, 46.87577], [-96.778806, 46.875831], [-96.77857, 46.87584], [-96.77724, 46.87545], [-96.777217, 46.875371], [-96.77711, 46.875], [-96.777199, 46.873856], [-96.77721, 46.87371], [-96.7805, 46.87379], [-96.78062, 46.87288], [-96.780929, 46.872886], [-96.78417, 46.87295], [-96.785139, 46.873013], [-96.7897, 46.87331], [-96.78985, 46.87232], [-96.798282, 46.872794]]]}}, {"type": "Feature", "properties": {"area_id": 10832, "city": "Fargo", "state": "ND", "city_survey": false, "cat": "Scattered", "grade": null, "label": "Scattered", "res": true, "com": false, "ind": false, "holc_grade": null}, "geometry": {"type": "Polygon", "coordinates": [[[-96.790751, 46.890348], [-96.798125, 46.89039], [-96.79821, 46.89039], [-96.79817, 46.89776], [-96.798052, 46.89776], [-96.78574, 46.89776], [-96.78584, 46.89531], [-96.78925, 46.89528], [-96.789389, 46.890358], [-96.78939, 46.89034], [-96.790751, 46.890348]]]}}, {"type": "Feature", "properties": {"area_id": 10833, "city": "Fargo", "state": "ND", "city_survey": false, "cat": "Scattered", "grade": null, "label": "Scattered", "res": true, "com": false, "ind": false, "holc_grade": null}, "geometry": {"type": "Polygon", "coordinates": [[[-96.7985, 46.86153], [-96.79861, 46.85572], [-96.79859, 46.85442], [-96.809, 46.85446], [-96.80891, 46.86154], [-96.80385, 46.86151], [-96.7985, 46.86153]]]}}]}