{"type": "FeatureCollection", "features": [{"type": "Feature", "properties": {"area_id": 10184, "city": "Windsor", "state": "VT", "city_survey": false, "cat": "Trading", "grade": "", "label": "Trading", "res": false, "com": true, "ind": false, "fill": "#000000", "GEOID10": "50027966000", "GISJOIN": "G5000270966000", "calc_area": 55715.53726, "pct_tract": 0.00109}, "geometry": {"type": "MultiPolygon", "coordinates": [[[[-72.38462, 43.48055], [-72.38475, 43.47962], [-72.38487, 43.47881], [-72.38631, 43.47901], [-72.38638, 43.47874], [-72.38648, 43.47834], [-72.38658, 43.47836], [-72.38775, 43.47864], [-72.38702, 43.47982], [-72.38801, 43.48014], [-72.38771, 43.48056], [-72.38769, 43.48092], [-72.38662, 43.48063], [-72.38601, 43.48163], [-72.38526, 43.4814], [-72.38567, 43.48065], [-72.38554, 43.48056], [-72.38468, 43.48055], [-72.38462, 43.48055]]]]}}, {"type": "Feature", "properties": {"area_id": 10185, "city": "Windsor", "state": "VT", "city_survey": false, "cat": "Industrial", "grade": "", "label": "Industrial", "res": false, "com": false, "ind": true, "fill": "#80303C", "GEOID10": "33019975100", "GISJOIN": "G3300190975100", "calc_area": 3931.65636, "pct_tract": 2e-05}, "geometry": {"type": "MultiPolygon", "coordinates": [[[[-72.38217, 43.47795], [-72.38215, 43.47757], [-72.38232, 43.47684], [-72.38266, 43.47614], [-72.38356, 43.47511], [-72.38362, 43.475125], [-72.383411, 43.475323], [-72.383299, 43.475477], [-72.383254, 43.475545], [-72.382951, 43.476], [-72.382385, 43.477257], [-72.382299, 43.477547], [-72.382178, 43.477951], [-72.38217, 43.47795]]]]}}, {"type": "Feature", "properties": {"area_id": 10185, "city": "Windsor", "state": "VT", "city_survey": false, "cat": "Industrial", "grade": "", "label": "Industrial", "res": false, "com": false, "ind": true, "fill": "#80303C", "GEOID10": "50027966000", "GISJOIN": "G5000270966000", "calc_area": 189848.22638, "pct_tract": 0.00371}, "geometry": {"type": "MultiPolygon", "coordinates": [[[[-72.3918, 43.47616], [-72.39294, 43.47625], [-72.39258, 43.47689], [-72.39192, 43.4769], [-72.39182, 43.47678], [-72.39189, 43.47647], [-72.3918, 43.47616]]], [[[-72.38595, 43.47569], [-72.38572, 43.47594], [-72.38552, 43.47653], [-72.38555, 43.47665], [-72.38606, 43.47709], [-72.38661, 43.47718], [-72.38684, 43.47732], [-72.38689, 43.47752], [-72.38658, 43.47836], [-72.38648, 43.47834], [-72.38638, 43.47874], [-72.38609, 43.47868], [-72.3849, 43.47857], [-72.38417, 43.47817], [-72.382178, 43.477951], [-72.382299, 43.477547], [-72.382385, 43.477257], [-72.382951, 43.476], [-72.383254, 43.475545], [-72.383299, 43.475477], [-72.383411, 43.475323], [-72.38362, 43.475125], [-72.38595, 43.47569]]], [[[-72.38475, 43.47962], [-72.38462, 43.48055], [-72.38468, 43.48055], [-72.38461, 43.48186], [-72.38457, 43.48251], [-72.38433, 43.48249], [-72.38417, 43.48255], [-72.38402, 43.48372], [-72.38361, 43.48381], [-72.38263, 43.48384], [-72.38256, 43.48298], [-72.38241, 43.48242], [-72.38228, 43.48226], [-72.38207, 43.48174], [-72.38185, 43.48101], [-72.38176, 43.48039], [-72.38196, 43.47937], [-72.38475, 43.47962]]]]}}, {"type": "Feature", "properties": {"area_id": 10186, "city": "Windsor", "state": "VT", "city_survey": false, "cat": "#1 Best Residential", "grade": "", "label": "#1 Best Residential", "res": true, "com": false, "ind": false, "fill": "#76a865", "GEOID10": "50027966000", "GISJOIN": "G5000270966000", "calc_area": 951258.75588, "pct_tract": 0.0186}, "geometry": {"type": "MultiPolygon", "coordinates": [[[[-72.38461, 43.48186], [-72.38476, 43.4815], [-72.38502, 43.48137], [-72.38526, 43.4814], [-72.38601, 43.48163], [-72.38662, 43.48063], [-72.38769, 43.48092], [-72.38771, 43.48056], [-72.38801, 43.48014], [-72.38702, 43.47982], [-72.38775, 43.47864], [-72.38658, 43.47836], [-72.38689, 43.47752], [-72.38715, 43.47739], [-72.38742, 43.47668], [-72.38735, 43.47623], [-72.38722, 43.47608], [-72.38799, 43.47567], [-72.38817, 43.47549], [-72.38861, 43.47452], [-72.38887, 43.47415], [-72.38945, 43.47379], [-72.39018, 43.47374], [-72.39429, 43.47476], [-72.39439, 43.47518], [-72.39378, 43.47697], [-72.39399, 43.47714], [-72.39602, 43.47747], [-72.3966, 43.47778], [-72.39631, 43.47711], [-72.39639, 43.47682], [-72.39708, 43.47615], [-72.39795, 43.47578], [-72.39888, 43.47535], [-72.39976, 43.47471], [-72.40089, 43.47488], [-72.40112, 43.47541], [-72.40144, 43.47572], [-72.40283, 43.47565], [-72.40349, 43.47585], [-72.40361, 43.47667], [-72.40514, 43.47745], [-72.40452, 43.47793], [-72.4031, 43.47847], [-72.40225, 43.47853], [-72.4014, 43.47846], [-72.40114, 43.47796], [-72.39951, 43.47828], [-72.39799, 43.47839], [-72.39694, 43.47828], [-72.3969, 43.4788], [-72.39603, 43.47989], [-72.39597, 43.47997], [-72.39552, 43.4806], [-72.39592, 43.48074], [-72.39598, 43.48089], [-72.39569, 43.48106], [-72.39647, 43.48146], [-72.39748, 43.48198], [-72.39772, 43.48235], [-72.39757, 43.48273], [-72.39695, 43.48294], [-72.39536, 43.48297], [-72.39502, 43.48276], [-72.39421, 43.48272], [-72.393, 43.48234], [-72.39242, 43.48196], [-72.39166, 43.48175], [-72.39102, 43.48185], [-72.39031, 43.48208], [-72.38928, 43.48261], [-72.38853, 43.48267], [-72.3876, 43.48296], [-72.38673, 43.48353], [-72.38642, 43.48346], [-72.38647, 43.48693], [-72.38662, 43.48782], [-72.3865, 43.4884], [-72.38606, 43.48895], [-72.38553, 43.48902], [-72.38504, 43.48879], [-72.38468, 43.48832], [-72.38432, 43.48733], [-72.38414, 43.48646], [-72.38414, 43.48543], [-72.38435, 43.48368], [-72.38457, 43.48251], [-72.38461, 43.48186]], [[-72.39182, 43.47678], [-72.39192, 43.4769], [-72.39258, 43.47689], [-72.39294, 43.47625], [-72.3918, 43.47616], [-72.39189, 43.47647], [-72.39182, 43.47678]]]]}}, {"type": "Feature", "properties": {"area_id": 10187, "city": "Windsor", "state": "VT", "city_survey": false, "cat": "#3 Residential", "grade": "", "label": "#3 Residential", "res": true, "com": false, "ind": false, "fill": "#E09A73", "GEOID10": "33019975100", "GISJOIN": "G3300190975100", "calc_area": 2.09417, "pct_tract": 0.0}, "geometry": {"type": "MultiPolygon", "coordinates": [[[[-72.38217, 43.47795], [-72.382178, 43.477951], [-72.382162, 43.478006], [-72.38217, 43.47795]]]]}}, {"type": "Feature", "properties": {"area_id": 10187, "city": "Windsor", "state": "VT", "city_survey": false, "cat": "#3 Residential", "grade": "", "label": "#3 Residential", "res": true, "com": false, "ind": false, "fill": "#E09A73", "GEOID10": "50027966000", "GISJOIN": "G5000270966000", "calc_area": 132478.72845, "pct_tract": 0.00259}, "geometry": {"type": "MultiPolygon", "coordinates": [[[[-72.38735, 43.47623], [-72.38742, 43.47668], [-72.38715, 43.47739], [-72.38689, 43.47752], [-72.38684, 43.47732], [-72.38661, 43.47718], [-72.38606, 43.47709], [-72.38555, 43.47665], [-72.38552, 43.47653], [-72.38572, 43.47594], [-72.38595, 43.47569], [-72.38614, 43.47558], [-72.38652, 43.47553], [-72.38698, 43.47577], [-72.38722, 43.47608], [-72.38735, 43.47623]]], [[[-72.38417, 43.47817], [-72.3849, 43.47857], [-72.38487, 43.47881], [-72.38475, 43.47962], [-72.38196, 43.47937], [-72.382162, 43.478006], [-72.382178, 43.477951], [-72.38417, 43.47817]]], [[[-72.3995, 43.47983], [-72.3995, 43.48022], [-72.39989, 43.48071], [-72.39939, 43.48143], [-72.39812, 43.4817], [-72.39647, 43.48146], [-72.39569, 43.48106], [-72.39598, 43.48089], [-72.39592, 43.48074], [-72.39552, 43.4806], [-72.39597, 43.47997], [-72.39603, 43.47989], [-72.3995, 43.47983]]], [[[-72.38406, 43.48469], [-72.38385, 43.48534], [-72.3833, 43.48555], [-72.38285, 43.48529], [-72.38265, 43.48483], [-72.38261, 43.48435], [-72.38263, 43.48384], [-72.38361, 43.48381], [-72.38402, 43.48372], [-72.38406, 43.48469]]]]}}, {"type": "Feature", "properties": {"area_id": 10188, "city": "Windsor", "state": "VT", "city_survey": false, "cat": "Residence #", "grade": "", "label": "Residence #", "res": true, "com": false, "ind": false, "fill": "transparent", "GEOID10": "50027966000", "GISJOIN": "G5000270966000", "calc_area": 126370.06538, "pct_tract": 0.00247}, "geometry": {"type": "MultiPolygon", "coordinates": [[[[-72.38606, 43.48895], [-72.3866, 43.48903], [-72.3872, 43.48978], [-72.38948, 43.49485], [-72.38892, 43.49562], [-72.38654, 43.49443], [-72.38605, 43.49249], [-72.38552, 43.4913], [-72.38531, 43.48976], [-72.38529, 43.48925], [-72.38553, 43.48902], [-72.38606, 43.48895]]]]}}, {"type": "Feature", "properties": {"area_id": 10189, "city": "Windsor", "state": "VT", "city_survey": false, "cat": "#2 Residential", "grade": "", "label": "#2 Residential", "res": true, "com": false, "ind": false, "fill": "#7cb5bd", "GEOID10": "33019975100", "GISJOIN": "G3300190975100", "calc_area": 1423.04483, "pct_tract": 1e-05}, "geometry": {"type": "MultiPolygon", "coordinates": [[[[-72.38356, 43.47511], [-72.38495, 43.47363], [-72.385158, 43.473702], [-72.384726, 43.474022], [-72.384535, 43.474166], [-72.38408, 43.474606], [-72.383978, 43.47471], [-72.383797, 43.474956], [-72.38362, 43.475125], [-72.38356, 43.47511]]]]}}, {"type": "Feature", "properties": {"area_id": 10189, "city": "Windsor", "state": "VT", "city_survey": false, "cat": "#2 Residential", "grade": "", "label": "#2 Residential", "res": true, "com": false, "ind": false, "fill": "#7cb5bd", "GEOID10": "50027966000", "GISJOIN": "G5000270966000", "calc_area": 862259.29465, "pct_tract": 0.01686}, "geometry": {"type": "MultiPolygon", "coordinates": [[[[-72.38945, 43.47379], [-72.38939, 43.47191], [-72.39069, 43.47023], [-72.3932, 43.46756], [-72.39381, 43.46611], [-72.39403, 43.46515], [-72.3935, 43.4638], [-72.39285, 43.46276], [-72.39273, 43.46116], [-72.39333, 43.45968], [-72.39348, 43.45843], [-72.39346, 43.45713], [-72.39353, 43.45555], [-72.39391, 43.45398], [-72.3941, 43.45228], [-72.39431, 43.45162], [-72.39503, 43.4507], [-72.39551, 43.44922], [-72.39544, 43.44861], [-72.39596, 43.44796], [-72.39652, 43.44677], [-72.39728, 43.44578], [-72.39775, 43.44406], [-72.39792, 43.44328], [-72.3991, 43.44351], [-72.39958, 43.44365], [-72.39972, 43.44431], [-72.39917, 43.4452], [-72.39787, 43.44695], [-72.39637, 43.45001], [-72.39582, 43.45264], [-72.39567, 43.45518], [-72.39622, 43.45716], [-72.39629, 43.45845], [-72.3964, 43.46259], [-72.39587, 43.46363], [-72.39532, 43.46556], [-72.39518, 43.46764], [-72.3925, 43.47101], [-72.39137, 43.47404], [-72.39018, 43.47374], [-72.38945, 43.47379]]], [[[-72.38567, 43.47388], [-72.38721, 43.4746], [-72.38807, 43.47513], [-72.38817, 43.47549], [-72.38799, 43.47567], [-72.38722, 43.47608], [-72.38698, 43.47577], [-72.38652, 43.47553], [-72.38614, 43.47558], [-72.38595, 43.47569], [-72.38362, 43.475125], [-72.383797, 43.474956], [-72.383978, 43.47471], [-72.38408, 43.474606], [-72.384535, 43.474166], [-72.384726, 43.474022], [-72.385158, 43.473702], [-72.38567, 43.47388]]], [[[-72.40016, 43.47414], [-72.40014, 43.47363], [-72.40027, 43.47234], [-72.4012, 43.4716], [-72.40216, 43.47148], [-72.40452, 43.47196], [-72.40544, 43.47247], [-72.40586, 43.47358], [-72.40617, 43.47386], [-72.40617, 43.47547], [-72.40582, 43.477], [-72.40514, 43.47745], [-72.40361, 43.47667], [-72.40349, 43.47585], [-72.40283, 43.47565], [-72.40144, 43.47572], [-72.40112, 43.47541], [-72.40089, 43.47488], [-72.39976, 43.47471], [-72.40016, 43.47414]]]]}}]}