{"type": "FeatureCollection", "features": [{"type": "Feature", "properties": {"area_id": 3470, "city": "Joliet", "state": "IL", "city_survey": true, "cat": "Best", "grade": "A", "label": "A1", "res": true, "com": false, "ind": false, "holc_grade": "A"}, "geometry": {"type": "Polygon", "coordinates": [[[-88.10563, 41.52316], [-88.10477, 41.5232], [-88.10484, 41.52607], [-88.11517, 41.52578], [-88.115277, 41.525774], [-88.11536, 41.52577], [-88.11559, 41.52868], [-88.115764, 41.530117], [-88.11577, 41.53017], [-88.11592, 41.53293], [-88.11586, 41.53724], [-88.11283, 41.53733], [-88.112793, 41.537464], [-88.11271, 41.53776], [-88.1128, 41.5401], [-88.10804, 41.54019], [-88.107925, 41.538938], [-88.10792, 41.53888], [-88.10774, 41.5388], [-88.10556, 41.53902], [-88.10346, 41.53904], [-88.10167, 41.53788], [-88.10167, 41.5379], [-88.101348, 41.537758], [-88.101333, 41.537752], [-88.10126, 41.53772], [-88.09896, 41.5378], [-88.09886, 41.53706], [-88.09886, 41.53603], [-88.094031, 41.532535], [-88.0939, 41.53244], [-88.09379, 41.53011], [-88.09273, 41.52977], [-88.09232, 41.52943], [-88.09177, 41.52884], [-88.09138, 41.52814], [-88.09286, 41.52826], [-88.0929, 41.52797], [-88.09272, 41.52616], [-88.09333, 41.52614], [-88.09336, 41.5258], [-88.09336, 41.52518], [-88.09336, 41.52515], [-88.09773, 41.52467], [-88.100863, 41.523455], [-88.10098, 41.52341], [-88.10091, 41.52171], [-88.100954, 41.521687], [-88.10108, 41.52162], [-88.10564, 41.52153], [-88.10564, 41.521552], [-88.10563, 41.52316]], [[-88.11109, 41.53743], [-88.11085, 41.53347], [-88.10847, 41.53369], [-88.10845, 41.53403], [-88.10859, 41.53477], [-88.10875, 41.53752], [-88.11109, 41.53743]]]}}, {"type": "Feature", "properties": {"area_id": 3467, "city": "Joliet", "state": "IL", "city_survey": true, "cat": "Still Desirable", "grade": "B", "label": "B1", "res": true, "com": false, "ind": false, "holc_grade": "B"}, "geometry": {"type": "Polygon", "coordinates": [[[-88.11144, 41.54835], [-88.111519, 41.552021], [-88.11152, 41.55209], [-88.10797, 41.5522], [-88.102899, 41.552357], [-88.10184, 41.55239], [-88.101834, 41.552288], [-88.101696, 41.549929], [-88.10162, 41.54862], [-88.101658, 41.548619], [-88.11144, 41.54835]]]}}, {"type": "Feature", "properties": {"area_id": 3472, "city": "Joliet", "state": "IL", "city_survey": true, "cat": "Still Desirable", "grade": "B", "label": "B2", "res": true, "com": false, "ind": false, "holc_grade": "B"}, "geometry": {"type": "Polygon", "coordinates": [[[-88.125344, 41.529878], [-88.125698, 41.537132], [-88.1257, 41.53718], [-88.125229, 41.537191], [-88.12034, 41.5373], [-88.1204, 41.54076], [-88.12047, 41.54203], [-88.12046, 41.54244], [-88.12047, 41.54448], [-88.1187, 41.54463], [-88.11888, 41.54636], [-88.11898, 41.54911], [-88.119251, 41.55053], [-88.11928, 41.55068], [-88.11776, 41.54957], [-88.112436, 41.54569], [-88.11116, 41.54476], [-88.110507, 41.544309], [-88.10781, 41.54245], [-88.107848, 41.542409], [-88.10797, 41.54228], [-88.108024, 41.541905], [-88.10808, 41.54151], [-88.10804, 41.54019], [-88.1128, 41.5401], [-88.11271, 41.53776], [-88.112793, 41.537464], [-88.11283, 41.53733], [-88.11586, 41.53724], [-88.11592, 41.53293], [-88.11577, 41.53017], [-88.115764, 41.530117], [-88.11559, 41.52868], [-88.11536, 41.52577], [-88.124721, 41.525633], [-88.12494, 41.52563], [-88.12511, 41.52973], [-88.12534, 41.5298], [-88.125344, 41.529878]]]}}, {"type": "Feature", "properties": {"area_id": 3469, "city": "Joliet", "state": "IL", "city_survey": true, "cat": "Still Desirable", "grade": "B", "label": "B3", "res": true, "com": false, "ind": false, "holc_grade": "B"}, "geometry": {"type": "Polygon", "coordinates": [[[-88.10346, 41.53904], [-88.10556, 41.53902], [-88.10774, 41.5388], [-88.10792, 41.53888], [-88.107925, 41.538938], [-88.10804, 41.54019], [-88.10808, 41.54151], [-88.108024, 41.541905], [-88.10797, 41.54228], [-88.107848, 41.542409], [-88.10781, 41.54245], [-88.110507, 41.544309], [-88.11116, 41.54476], [-88.111139, 41.54476], [-88.10172, 41.54497], [-88.10156, 41.54514], [-88.10161, 41.54594], [-88.101587, 41.546356], [-88.10156, 41.54683], [-88.09922, 41.54688], [-88.09917, 41.54502], [-88.09666, 41.54505], [-88.096583, 41.543311], [-88.09651, 41.54168], [-88.101447, 41.541564], [-88.10162, 41.54156], [-88.10173, 41.53994], [-88.101673, 41.537992], [-88.10167, 41.5379], [-88.10167, 41.53788], [-88.10346, 41.53904]]]}}, {"type": "Feature", "properties": {"area_id": 3478, "city": "Joliet", "state": "IL", "city_survey": true, "cat": "Still Desirable", "grade": "B", "label": "B4", "res": true, "com": false, "ind": false, "holc_grade": "B"}, "geometry": {"type": "Polygon", "coordinates": [[[-88.09336, 41.5258], [-88.09333, 41.52614], [-88.09272, 41.52616], [-88.0929, 41.52797], [-88.09286, 41.52826], [-88.09138, 41.52814], [-88.09177, 41.52884], [-88.09232, 41.52943], [-88.09273, 41.52977], [-88.09379, 41.53011], [-88.0939, 41.53244], [-88.094031, 41.532535], [-88.09886, 41.53603], [-88.09886, 41.53706], [-88.09896, 41.5378], [-88.10126, 41.53772], [-88.101333, 41.537752], [-88.101348, 41.537758], [-88.10167, 41.5379], [-88.101673, 41.537992], [-88.10173, 41.53994], [-88.10162, 41.54156], [-88.101447, 41.541564], [-88.09651, 41.54168], [-88.09638, 41.53788], [-88.08677, 41.53815], [-88.086769, 41.538123], [-88.08675, 41.53743], [-88.08919, 41.53123], [-88.08918, 41.53088], [-88.08938, 41.52955], [-88.08949, 41.52904], [-88.08987, 41.52671], [-88.08988, 41.52636], [-88.08998, 41.526], [-88.09004, 41.52561], [-88.09005, 41.52515], [-88.09101, 41.52522], [-88.09124, 41.525297], [-88.09143, 41.52536], [-88.09336, 41.52518], [-88.09336, 41.5258]]]}}, {"type": "Feature", "properties": {"area_id": 3476, "city": "Joliet", "state": "IL", "city_survey": true, "cat": "Still Desirable", "grade": "B", "label": "B5", "res": true, "com": false, "ind": false, "holc_grade": "B"}, "geometry": {"type": "Polygon", "coordinates": [[[-88.09227, 41.51815], [-88.09408, 41.51816], [-88.094, 41.51595], [-88.09767, 41.51591], [-88.09764, 41.51398], [-88.10025, 41.5139], [-88.10033, 41.51756], [-88.10037, 41.51791], [-88.100587, 41.517907], [-88.10283, 41.51788], [-88.10375, 41.51776], [-88.10556, 41.51775], [-88.10564, 41.52153], [-88.10108, 41.52162], [-88.100954, 41.521687], [-88.10091, 41.52171], [-88.10098, 41.52341], [-88.100863, 41.523455], [-88.09773, 41.52467], [-88.09336, 41.52515], [-88.09336, 41.52518], [-88.09143, 41.52536], [-88.09124, 41.525297], [-88.09101, 41.52522], [-88.09098, 41.521926], [-88.09096, 41.5198], [-88.09227, 41.51981], [-88.09227, 41.51815]]]}}, {"type": "Feature", "properties": {"area_id": 3475, "city": "Joliet", "state": "IL", "city_survey": true, "cat": "Still Desirable", "grade": "B", "label": "B6", "res": true, "com": false, "ind": false, "holc_grade": "B"}, "geometry": {"type": "Polygon", "coordinates": [[[-88.10556, 41.51768], [-88.10535, 41.51514], [-88.10534, 41.51372], [-88.10522, 41.51264], [-88.10535, 41.51253], [-88.11099, 41.51229], [-88.11326, 41.51208], [-88.114708, 41.511983], [-88.11476, 41.51198], [-88.11491, 41.51419], [-88.11522, 41.52205], [-88.115122, 41.522053], [-88.11361, 41.5221], [-88.11365, 41.52306], [-88.115167, 41.523022], [-88.11526, 41.52302], [-88.115216, 41.524372], [-88.11517, 41.52578], [-88.10484, 41.52607], [-88.10477, 41.5232], [-88.10563, 41.52316], [-88.10564, 41.521552], [-88.10564, 41.52153], [-88.10556, 41.51775], [-88.10556, 41.51768]]]}}, {"type": "Feature", "properties": {"area_id": 3489, "city": "Joliet", "state": "IL", "city_survey": true, "cat": "Still Desirable", "grade": "B", "label": "B7", "res": true, "com": false, "ind": false, "holc_grade": "B"}, "geometry": {"type": "Polygon", "coordinates": [[[-88.06095, 41.51935], [-88.06214, 41.51935], [-88.062156, 41.518766], [-88.06216, 41.51862], [-88.06215, 41.51738], [-88.06803, 41.51721], [-88.06827, 41.52077], [-88.06672, 41.52079], [-88.0667, 41.52159], [-88.06535, 41.52205], [-88.0652, 41.52221], [-88.06374, 41.52262], [-88.06261, 41.52286], [-88.06248, 41.52047], [-88.06225, 41.52034], [-88.062204, 41.520342], [-88.06104, 41.52039], [-88.06095, 41.51935]]]}}, {"type": "Feature", "properties": {"area_id": 3471, "city": "Joliet", "state": "IL", "city_survey": true, "cat": "Still Desirable", "grade": "B", "label": "B8", "res": true, "com": false, "ind": false, "holc_grade": "B"}, "geometry": {"type": "Polygon", "coordinates": [[[-88.11085, 41.53347], [-88.11109, 41.53743], [-88.10875, 41.53752], [-88.10859, 41.53477], [-88.10845, 41.53403], [-88.10847, 41.53369], [-88.11085, 41.53347]]]}}, {"type": "Feature", "properties": {"area_id": 3468, "city": "Joliet", "state": "IL", "city_survey": true, "cat": "Definitely Declining", "grade": "C", "label": "C1", "res": true, "com": false, "ind": false, "holc_grade": "C"}, "geometry": {"type": "Polygon", "coordinates": [[[-88.11928, 41.55068], [-88.12076, 41.55177], [-88.118449, 41.55185], [-88.117575, 41.55188], [-88.117455, 41.551884], [-88.116281, 41.551925], [-88.116179, 41.551929], [-88.11152, 41.55209], [-88.111519, 41.552021], [-88.11144, 41.54835], [-88.101658, 41.548619], [-88.10162, 41.54862], [-88.101696, 41.549929], [-88.101834, 41.552288], [-88.10184, 41.55239], [-88.102899, 41.552357], [-88.10797, 41.5522], [-88.10806, 41.55579], [-88.10372, 41.555875], [-88.10192, 41.55591], [-88.102068, 41.559525], [-88.10207, 41.55957], [-88.102043, 41.559571], [-88.0991, 41.5597], [-88.09568, 41.55985], [-88.09258, 41.55992], [-88.09269, 41.56052], [-88.092691, 41.560626], [-88.09272, 41.5634], [-88.08739, 41.56315], [-88.08742, 41.56282], [-88.0884, 41.5607], [-88.08853, 41.559682], [-88.08861, 41.55906], [-88.088324, 41.55595], [-88.088021, 41.552652], [-88.08802, 41.55264], [-88.08711, 41.54925], [-88.08598, 41.54527], [-88.08521, 41.54201], [-88.094208, 41.541747], [-88.09651, 41.54168], [-88.096583, 41.543311], [-88.09666, 41.54505], [-88.09917, 41.54502], [-88.09922, 41.54688], [-88.10156, 41.54683], [-88.101587, 41.546356], [-88.10161, 41.54594], [-88.10156, 41.54514], [-88.10172, 41.54497], [-88.111139, 41.54476], [-88.11116, 41.54476], [-88.112436, 41.54569], [-88.11776, 41.54957], [-88.11928, 41.55068]]]}}, {"type": "Feature", "properties": {"area_id": 3486, "city": "Joliet", "state": "IL", "city_survey": true, "cat": "Definitely Declining", "grade": "C", "label": "C10", "res": true, "com": false, "ind": false, "holc_grade": "C"}, "geometry": {"type": "Polygon", "coordinates": [[[-88.06375, 41.52996], [-88.06364, 41.52675], [-88.064085, 41.526755], [-88.06706, 41.52679], [-88.06743, 41.5268], [-88.06742, 41.52739], [-88.06771, 41.52741], [-88.06776, 41.52993], [-88.067807, 41.532635], [-88.06783, 41.53396], [-88.067946, 41.53645], [-88.06797, 41.53697], [-88.06798, 41.53868], [-88.061681, 41.538723], [-88.06069, 41.53873], [-88.06112, 41.53823], [-88.06188, 41.5371], [-88.06224, 41.53621], [-88.062417, 41.53595], [-88.062466, 41.535878], [-88.06258, 41.53571], [-88.06256, 41.53539], [-88.06247, 41.53394], [-88.062401, 41.531756], [-88.0624, 41.53172], [-88.06381, 41.53173], [-88.06375, 41.52996]]]}}, {"type": "Feature", "properties": {"area_id": 3488, "city": "Joliet", "state": "IL", "city_survey": true, "cat": "Definitely Declining", "grade": "C", "label": "C11", "res": true, "com": false, "ind": false, "holc_grade": "C"}, "geometry": {"type": "Polygon", "coordinates": [[[-88.07874, 41.51344], [-88.07896, 41.51686], [-88.08001, 41.51685], [-88.079986, 41.5169], [-88.07745, 41.52214], [-88.07638, 41.52414], [-88.07421, 41.52416], [-88.073138, 41.524187], [-88.07022, 41.52426], [-88.06862, 41.52441], [-88.06818, 41.52451], [-88.064501, 41.524556], [-88.06346, 41.524569], [-88.06259, 41.52458], [-88.062595, 41.524097], [-88.0626, 41.52358], [-88.06261, 41.52286], [-88.06374, 41.52262], [-88.0652, 41.52221], [-88.06535, 41.52205], [-88.0667, 41.52159], [-88.06672, 41.52079], [-88.06827, 41.52077], [-88.06803, 41.51721], [-88.06934, 41.517227], [-88.06957, 41.51723], [-88.0698, 41.51683], [-88.070129, 41.516493], [-88.07021, 41.51641], [-88.070431, 41.516275], [-88.07083, 41.51603], [-88.07132, 41.51572], [-88.07253, 41.51536], [-88.07348, 41.51512], [-88.07421, 41.51502], [-88.07486, 41.51482], [-88.07525, 41.51425], [-88.075521, 41.513836], [-88.07563, 41.51367], [-88.076169, 41.513041], [-88.076558, 41.512588], [-88.07695, 41.51213], [-88.07861, 41.5111], [-88.078677, 41.512308], [-88.07874, 41.51344]]]}}, {"type": "Feature", "properties": {"area_id": 3490, "city": "Joliet", "state": "IL", "city_survey": true, "cat": "Definitely Declining", "grade": "C", "label": "C12", "res": true, "com": false, "ind": false, "holc_grade": "C"}, "geometry": {"type": "MultiPolygon", "coordinates": [[[[-88.0602, 41.52033], [-88.06026, 41.51941], [-88.06095, 41.51935], [-88.06104, 41.52039], [-88.062204, 41.520342], [-88.06225, 41.52034], [-88.06248, 41.52047], [-88.06261, 41.52286], [-88.0626, 41.52358], [-88.06228, 41.52384], [-88.0606, 41.52352], [-88.0596, 41.523359], [-88.05936, 41.52332], [-88.05965, 41.52206], [-88.06007, 41.52088], [-88.0602, 41.52033]]], [[[-88.07394, 41.50973], [-88.07402, 41.51079], [-88.07856, 41.51063], [-88.07861, 41.5111], [-88.07695, 41.51213], [-88.076558, 41.512588], [-88.076169, 41.513041], [-88.07563, 41.51367], [-88.075521, 41.513836], [-88.07525, 41.51425], [-88.07486, 41.51482], [-88.07421, 41.51502], [-88.07348, 41.51512], [-88.07253, 41.51536], [-88.07132, 41.51572], [-88.07083, 41.51603], [-88.070431, 41.516275], [-88.07021, 41.51641], [-88.070129, 41.516493], [-88.0698, 41.51683], [-88.06957, 41.51723], [-88.06934, 41.517227], [-88.06803, 41.51721], [-88.06215, 41.51738], [-88.06203, 41.5138], [-88.06357, 41.51376], [-88.06377, 41.51569], [-88.06615, 41.51563], [-88.06609, 41.5149], [-88.06613, 41.51463], [-88.06606, 41.51363], [-88.06983, 41.51348], [-88.06982, 41.513343], [-88.06964, 41.51091], [-88.07142, 41.50978], [-88.07394, 41.50973]]]]}}, {"type": "Feature", "properties": {"area_id": 3492, "city": "Joliet", "state": "IL", "city_survey": true, "cat": "Definitely Declining", "grade": "C", "label": "C13", "res": true, "com": false, "ind": false, "holc_grade": "C"}, "geometry": {"type": "Polygon", "coordinates": [[[-88.072521, 41.501326], [-88.072658, 41.501381], [-88.07464, 41.50219], [-88.075289, 41.502577], [-88.07558, 41.50275], [-88.07787, 41.50468], [-88.07814, 41.5051], [-88.07156, 41.50536], [-88.07166, 41.50652], [-88.06862, 41.50661], [-88.06863, 41.50431], [-88.06855, 41.50269], [-88.06842, 41.5016], [-88.06631, 41.50092], [-88.06156, 41.49913], [-88.06147, 41.49727], [-88.062072, 41.497484], [-88.07008, 41.50033], [-88.072521, 41.501326]]]}}, {"type": "Feature", "properties": {"area_id": 3493, "city": "Joliet", "state": "IL", "city_survey": true, "cat": "Definitely Declining", "grade": "C", "label": "C14", "res": true, "com": false, "ind": false, "holc_grade": "C"}, "geometry": {"type": "Polygon", "coordinates": [[[-88.06181, 41.5077], [-88.06188, 41.51036], [-88.04992, 41.51059], [-88.04979, 41.508], [-88.05698, 41.50787], [-88.06181, 41.5077]]]}}, {"type": "Feature", "properties": {"area_id": 3479, "city": "Joliet", "state": "IL", "city_survey": true, "cat": "Definitely Declining", "grade": "C", "label": "C2", "res": true, "com": false, "ind": false, "holc_grade": "C"}, "geometry": {"type": "Polygon", "coordinates": [[[-88.08446, 41.53675], [-88.08669, 41.531], [-88.08742, 41.52929], [-88.08751, 41.52843], [-88.08801, 41.52501], [-88.09005, 41.52515], [-88.09004, 41.52561], [-88.08998, 41.526], [-88.08988, 41.52636], [-88.08987, 41.52671], [-88.08949, 41.52904], [-88.08938, 41.52955], [-88.08918, 41.53088], [-88.08919, 41.53123], [-88.08675, 41.53743], [-88.086769, 41.538123], [-88.08677, 41.53815], [-88.09638, 41.53788], [-88.09651, 41.54168], [-88.094208, 41.541747], [-88.08521, 41.54201], [-88.085201, 41.541801], [-88.08506, 41.53836], [-88.08478, 41.5382], [-88.08391, 41.53822], [-88.083928, 41.538189], [-88.08405, 41.53798], [-88.08446, 41.53675]]]}}, {"type": "Feature", "properties": {"area_id": 3477, "city": "Joliet", "state": "IL", "city_survey": true, "cat": "Definitely Declining", "grade": "C", "label": "C3", "res": true, "com": false, "ind": false, "holc_grade": "C"}, "geometry": {"type": "Polygon", "coordinates": [[[-88.1003, 41.51052], [-88.10522, 41.51034], [-88.105316, 41.511953], [-88.10535, 41.51253], [-88.10522, 41.51264], [-88.10534, 41.51372], [-88.10535, 41.51514], [-88.10556, 41.51768], [-88.10556, 41.51775], [-88.10375, 41.51776], [-88.10283, 41.51788], [-88.100587, 41.517907], [-88.10037, 41.51791], [-88.10033, 41.51756], [-88.10025, 41.5139], [-88.09764, 41.51398], [-88.09767, 41.51591], [-88.094, 41.51595], [-88.09408, 41.51816], [-88.09227, 41.51815], [-88.09227, 41.51981], [-88.09096, 41.5198], [-88.09098, 41.521926], [-88.09101, 41.52522], [-88.09005, 41.52515], [-88.08801, 41.52501], [-88.08829, 41.52326], [-88.088834, 41.521974], [-88.08884, 41.52196], [-88.08995, 41.52191], [-88.0899, 41.51864], [-88.09071, 41.51741], [-88.09102, 41.51738], [-88.09241, 41.51444], [-88.094543, 41.512504], [-88.0948, 41.51227], [-88.10033, 41.51216], [-88.1003, 41.51052]]]}}, {"type": "Feature", "properties": {"area_id": 3474, "city": "Joliet", "state": "IL", "city_survey": true, "cat": "Definitely Declining", "grade": "C", "label": "C4", "res": true, "com": false, "ind": false, "holc_grade": "C"}, "geometry": {"type": "Polygon", "coordinates": [[[-88.10498, 41.50631], [-88.10967, 41.50531], [-88.12414, 41.50486], [-88.124265, 41.511412], [-88.12427, 41.51167], [-88.1242, 41.51385], [-88.1238, 41.51381], [-88.12343, 41.51388], [-88.12319, 41.51407], [-88.1206, 41.51412], [-88.11988, 41.51403], [-88.11491, 41.51419], [-88.11476, 41.51198], [-88.114708, 41.511983], [-88.11326, 41.51208], [-88.11099, 41.51229], [-88.10535, 41.51253], [-88.105316, 41.511953], [-88.10522, 41.51034], [-88.10498, 41.50631]]]}}, {"type": "Feature", "properties": {"area_id": 3473, "city": "Joliet", "state": "IL", "city_survey": true, "cat": "Definitely Declining", "grade": "C", "label": "C5", "res": true, "com": false, "ind": false, "holc_grade": "C"}, "geometry": {"type": "Polygon", "coordinates": [[[-88.124721, 41.525633], [-88.11536, 41.52577], [-88.115277, 41.525774], [-88.11517, 41.52578], [-88.115216, 41.524372], [-88.11526, 41.52302], [-88.115167, 41.523022], [-88.11365, 41.52306], [-88.11361, 41.5221], [-88.115122, 41.522053], [-88.11522, 41.52205], [-88.11491, 41.51419], [-88.11988, 41.51403], [-88.1206, 41.51412], [-88.12319, 41.51407], [-88.12343, 41.51388], [-88.1238, 41.51381], [-88.1242, 41.51385], [-88.12443, 41.513868], [-88.12445, 41.51387], [-88.12494, 41.52563], [-88.124721, 41.525633]]]}}, {"type": "Feature", "properties": {"area_id": 3481, "city": "Joliet", "state": "IL", "city_survey": true, "cat": "Definitely Declining", "grade": "C", "label": "C6", "res": true, "com": false, "ind": false, "holc_grade": "C"}, "geometry": {"type": "MultiPolygon", "coordinates": [[[[-88.0629, 41.54617], [-88.062901, 41.546186], [-88.06294, 41.54721], [-88.0627, 41.54771], [-88.06302, 41.54837], [-88.06316, 41.54886], [-88.06275, 41.54918], [-88.06287, 41.55331], [-88.0727, 41.552953], [-88.07278, 41.55295], [-88.072739, 41.553063], [-88.06896, 41.56354], [-88.06871, 41.56427], [-88.06332, 41.56436], [-88.06329, 41.56133], [-88.06323, 41.55918], [-88.06296, 41.55704], [-88.0571, 41.55723], [-88.05638, 41.55713], [-88.05543, 41.55699], [-88.05543, 41.55601], [-88.0552, 41.55512], [-88.05513, 41.55346], [-88.053886, 41.553503], [-88.05253, 41.55355], [-88.05091, 41.55356], [-88.050902, 41.553501], [-88.05077, 41.5525], [-88.05065, 41.55098], [-88.05068, 41.54876], [-88.05063, 41.5469], [-88.0487, 41.54699], [-88.04868, 41.54577], [-88.04866, 41.54448], [-88.04915, 41.54392], [-88.05552, 41.54372], [-88.05748, 41.54365], [-88.05757, 41.54365], [-88.059739, 41.543621], [-88.06284, 41.54358], [-88.0629, 41.54612], [-88.0629, 41.54617]]], [[[-88.05053, 41.56385], [-88.05039, 41.55957], [-88.05945, 41.55966], [-88.05816, 41.5637], [-88.05053, 41.56385]]]]}}, {"type": "Feature", "properties": {"area_id": 3495, "city": "Joliet", "state": "IL", "city_survey": true, "cat": "Definitely Declining", "grade": "C", "label": "C7", "res": true, "com": false, "ind": false, "holc_grade": "C"}, "geometry": {"type": "Polygon", "coordinates": [[[-88.03317, 41.53921], [-88.03308, 41.53718], [-88.03276, 41.53223], [-88.0337, 41.5314], [-88.03828, 41.53008], [-88.03892, 41.530006], [-88.04079, 41.52979], [-88.04116, 41.52941], [-88.04571, 41.52904], [-88.04698, 41.52897], [-88.04794, 41.52909], [-88.05102, 41.52917], [-88.05535, 41.52916], [-88.05659, 41.52878], [-88.05802, 41.53119], [-88.05749, 41.53198], [-88.05749, 41.532932], [-88.05749, 41.53346], [-88.05634, 41.5348], [-88.05574, 41.53566], [-88.05512, 41.53616], [-88.05417, 41.53681], [-88.0548, 41.53894], [-88.05511, 41.539172], [-88.05743, 41.54091], [-88.057432, 41.541015], [-88.05748, 41.54365], [-88.05552, 41.54372], [-88.04915, 41.54392], [-88.04866, 41.54448], [-88.04868, 41.54577], [-88.045136, 41.545869], [-88.04438, 41.54589], [-88.04432, 41.54559], [-88.04416, 41.54055], [-88.04406, 41.53892], [-88.043584, 41.538951], [-88.04206, 41.53905], [-88.03758, 41.5392], [-88.03317, 41.53921]]]}}, {"type": "Feature", "properties": {"area_id": 3482, "city": "Joliet", "state": "IL", "city_survey": true, "cat": "Definitely Declining", "grade": "C", "label": "C8", "res": true, "com": false, "ind": false, "holc_grade": "C"}, "geometry": {"type": "MultiPolygon", "coordinates": [[[[-88.049586, 41.553534], [-88.04978, 41.55868], [-88.04979, 41.56258], [-88.04013, 41.56355], [-88.0369, 41.56365], [-88.03325, 41.56328], [-88.0333, 41.55883], [-88.04047, 41.55896], [-88.040495, 41.553771], [-88.0405, 41.55285], [-88.04956, 41.55283], [-88.049586, 41.553534]]], [[[-88.03474, 41.52264], [-88.03581, 41.52259], [-88.03574, 41.51946], [-88.03574, 41.51789], [-88.03795, 41.51779], [-88.03789, 41.51554], [-88.04282, 41.51548], [-88.04293, 41.51975], [-88.04513, 41.51973], [-88.04515, 41.51648], [-88.04809, 41.51649], [-88.04811, 41.52048], [-88.04951, 41.52155], [-88.04967, 41.52334], [-88.04928, 41.52332], [-88.04539, 41.52226], [-88.0432, 41.52251], [-88.0431, 41.52339], [-88.04269, 41.52387], [-88.039416, 41.525513], [-88.0387, 41.525872], [-88.03691, 41.52677], [-88.03518, 41.52829], [-88.03474, 41.52264]]]]}}, {"type": "Feature", "properties": {"area_id": 3484, "city": "Joliet", "state": "IL", "city_survey": true, "cat": "Definitely Declining", "grade": "C", "label": "C9", "res": true, "com": false, "ind": false, "holc_grade": "C"}, "geometry": {"type": "Polygon", "coordinates": [[[-88.0694, 41.52736], [-88.0725, 41.52737], [-88.07252, 41.52871], [-88.072591, 41.528773], [-88.07269, 41.52886], [-88.07498, 41.52891], [-88.07495, 41.53129], [-88.07504, 41.53219], [-88.07505, 41.532513], [-88.07514, 41.53536], [-88.0728, 41.5354], [-88.07283, 41.53657], [-88.07282, 41.53665], [-88.072734, 41.537167], [-88.0727, 41.53737], [-88.072684, 41.53778], [-88.07265, 41.53865], [-88.072596, 41.53865], [-88.06798, 41.53868], [-88.06797, 41.53697], [-88.067946, 41.53645], [-88.06783, 41.53396], [-88.067807, 41.532635], [-88.06776, 41.52993], [-88.06771, 41.52741], [-88.0694, 41.52736]]]}}, {"type": "Feature", "properties": {"area_id": 3480, "city": "Joliet", "state": "IL", "city_survey": true, "cat": "Hazardous", "grade": "D", "label": "D1", "res": true, "com": false, "ind": false, "holc_grade": "D"}, "geometry": {"type": "MultiPolygon", "coordinates": [[[[-88.08874, 41.51902], [-88.0888, 41.5185], [-88.08888, 41.51747], [-88.09071, 41.51741], [-88.0899, 41.51864], [-88.08995, 41.52191], [-88.08884, 41.52196], [-88.088834, 41.521974], [-88.08829, 41.52326], [-88.08801, 41.52501], [-88.08751, 41.52843], [-88.08742, 41.52929], [-88.08669, 41.531], [-88.08446, 41.53675], [-88.08405, 41.53798], [-88.083928, 41.538189], [-88.08391, 41.53822], [-88.08355, 41.53827], [-88.08328, 41.53837], [-88.08321, 41.538404], [-88.08291, 41.53855], [-88.08291, 41.53826], [-88.083136, 41.537728], [-88.08339, 41.53713], [-88.08353, 41.5367], [-88.08373, 41.53637], [-88.08379, 41.53607], [-88.0839, 41.53595], [-88.08392, 41.53571], [-88.08407, 41.53538], [-88.08424, 41.53461], [-88.08472, 41.53358], [-88.08494, 41.5329], [-88.08515, 41.53237], [-88.08548, 41.53177], [-88.08556, 41.53121], [-88.08604, 41.53043], [-88.08663, 41.52921], [-88.0868, 41.5285], [-88.08684, 41.5281], [-88.0868, 41.52778], [-88.08696, 41.52712], [-88.08707, 41.525564], [-88.08711, 41.52499], [-88.087134, 41.524879], [-88.08729, 41.52416], [-88.08747, 41.52321], [-88.08765, 41.52252], [-88.0879, 41.52194], [-88.087905, 41.521922], [-88.08803, 41.52149], [-88.08826, 41.52083], [-88.08863, 41.51943], [-88.08874, 41.51902]]], [[[-88.10033, 41.51216], [-88.0948, 41.51227], [-88.09568, 41.51141], [-88.09802, 41.50946], [-88.1003, 41.50936], [-88.10071, 41.50876], [-88.10158, 41.50821], [-88.10262, 41.50769], [-88.10344, 41.50742], [-88.10379, 41.50682], [-88.10364, 41.50658], [-88.10463, 41.50633], [-88.10498, 41.50631], [-88.10522, 41.51034], [-88.1003, 41.51052], [-88.10033, 41.51216]]]]}}, {"type": "Feature", "properties": {"area_id": 3483, "city": "Joliet", "state": "IL", "city_survey": true, "cat": "Hazardous", "grade": "D", "label": "D2", "res": true, "com": false, "ind": false, "holc_grade": "D"}, "geometry": {"type": "Polygon", "coordinates": [[[-88.061681, 41.538723], [-88.06798, 41.53868], [-88.072596, 41.53865], [-88.07265, 41.53865], [-88.072516, 41.541652], [-88.07248, 41.54247], [-88.06793, 41.54259], [-88.06807, 41.54601], [-88.06765, 41.54606], [-88.0629, 41.54617], [-88.0629, 41.54612], [-88.06284, 41.54358], [-88.059739, 41.543621], [-88.05757, 41.54365], [-88.05748, 41.54365], [-88.057432, 41.541015], [-88.05743, 41.54091], [-88.0574, 41.53897], [-88.05764, 41.53901], [-88.05794, 41.53918], [-88.05829, 41.53925], [-88.05888, 41.53914], [-88.05944, 41.53915], [-88.05988, 41.5391], [-88.06017, 41.53908], [-88.060183, 41.539072], [-88.06048, 41.53889], [-88.06069, 41.53873], [-88.061681, 41.538723]]]}}, {"type": "Feature", "properties": {"area_id": 3485, "city": "Joliet", "state": "IL", "city_survey": true, "cat": "Hazardous", "grade": "D", "label": "D3", "res": true, "com": false, "ind": false, "holc_grade": "D"}, "geometry": {"type": "Polygon", "coordinates": [[[-88.07495, 41.53129], [-88.07498, 41.52891], [-88.07861, 41.52885], [-88.07862, 41.52967], [-88.07869, 41.53115], [-88.078756, 41.532455], [-88.07882, 41.53371], [-88.07908, 41.5365], [-88.07282, 41.53665], [-88.07283, 41.53657], [-88.0728, 41.5354], [-88.07514, 41.53536], [-88.07505, 41.532513], [-88.07504, 41.53219], [-88.07495, 41.53129]]]}}, {"type": "Feature", "properties": {"area_id": 3496, "city": "Joliet", "state": "IL", "city_survey": true, "cat": "Hazardous", "grade": "D", "label": "D4", "res": true, "com": false, "ind": false, "holc_grade": "D"}, "geometry": {"type": "Polygon", "coordinates": [[[-88.0445, 41.52705], [-88.04601, 41.52656], [-88.04813, 41.5263], [-88.05044, 41.52595], [-88.05586, 41.52501], [-88.056, 41.52773], [-88.05659, 41.52878], [-88.05535, 41.52916], [-88.05102, 41.52917], [-88.04794, 41.52909], [-88.04698, 41.52897], [-88.04571, 41.52904], [-88.04116, 41.52941], [-88.04079, 41.52979], [-88.03892, 41.530006], [-88.03828, 41.53008], [-88.0337, 41.5314], [-88.03441, 41.53096], [-88.03648, 41.5302], [-88.037048, 41.529955], [-88.0403, 41.52855], [-88.0445, 41.52705]]]}}, {"type": "Feature", "properties": {"area_id": 3498, "city": "Joliet", "state": "IL", "city_survey": true, "cat": "Hazardous", "grade": "D", "label": "D5", "res": true, "com": false, "ind": false, "holc_grade": "D"}, "geometry": {"type": "Polygon", "coordinates": [[[-88.08296, 41.50978], [-88.0834, 41.50943], [-88.09238, 41.5092], [-88.09233, 41.50954], [-88.09214, 41.51013], [-88.09174, 41.51079], [-88.090999, 41.51157], [-88.09079, 41.51179], [-88.08973, 41.51303], [-88.08903, 41.51442], [-88.08883, 41.51504], [-88.08766, 41.51737], [-88.08776, 41.51856], [-88.087717, 41.519216], [-88.08771, 41.51933], [-88.08774, 41.51997], [-88.08716, 41.52132], [-88.08663, 41.52201], [-88.08247, 41.52205], [-88.082334, 41.519257], [-88.08232, 41.51896], [-88.08213, 41.51566], [-88.08195, 41.51361], [-88.08025, 41.51362], [-88.08029, 41.51417], [-88.080434, 41.516887], [-88.08051, 41.51831], [-88.08055, 41.52017], [-88.08051, 41.52214], [-88.08048, 41.52393], [-88.07917, 41.52406], [-88.07638, 41.52414], [-88.07745, 41.52214], [-88.079986, 41.5169], [-88.08001, 41.51685], [-88.07896, 41.51686], [-88.07874, 41.51344], [-88.078677, 41.512308], [-88.07861, 41.5111], [-88.07911, 41.51064], [-88.08001, 41.51017], [-88.08091, 41.51], [-88.081258, 41.50998], [-88.08143, 41.50997], [-88.08264, 41.5099], [-88.08296, 41.50978]]]}}, {"type": "Feature", "properties": {"area_id": 3494, "city": "Joliet", "state": "IL", "city_survey": true, "cat": "Hazardous", "grade": "D", "label": "D6", "res": true, "com": false, "ind": false, "holc_grade": "D"}, "geometry": {"type": "Polygon", "coordinates": [[[-88.0478, 41.51062], [-88.04992, 41.51059], [-88.06188, 41.51036], [-88.06188, 41.51043], [-88.06197, 41.51245], [-88.061027, 41.513303], [-88.05977, 41.51444], [-88.05857, 41.51555], [-88.05728, 41.51671], [-88.05505, 41.51879], [-88.05518, 41.52111], [-88.05237, 41.52351], [-88.04967, 41.52334], [-88.04951, 41.52155], [-88.04811, 41.52048], [-88.04809, 41.51649], [-88.047981, 41.513144], [-88.04793, 41.5116], [-88.0478, 41.51062]]]}}, {"type": "Feature", "properties": {"area_id": 3491, "city": "Joliet", "state": "IL", "city_survey": true, "cat": "Hazardous", "grade": "D", "label": "D7", "res": true, "com": false, "ind": false, "holc_grade": "D"}, "geometry": {"type": "Polygon", "coordinates": [[[-88.06188, 41.51043], [-88.06188, 41.51036], [-88.06181, 41.5077], [-88.05698, 41.50787], [-88.0566, 41.50306], [-88.05663, 41.50237], [-88.05646, 41.49939], [-88.06153, 41.49929], [-88.06156, 41.49913], [-88.06631, 41.50092], [-88.06842, 41.5016], [-88.06855, 41.50269], [-88.06376, 41.50293], [-88.06441, 41.50413], [-88.06455, 41.50529], [-88.06448, 41.50604], [-88.06471, 41.50673], [-88.06862, 41.50661], [-88.07166, 41.50652], [-88.07156, 41.50536], [-88.07814, 41.5051], [-88.0772, 41.50606], [-88.0759, 41.50737], [-88.07512, 41.5082], [-88.07394, 41.50949], [-88.07394, 41.50973], [-88.07142, 41.50978], [-88.06964, 41.51091], [-88.06982, 41.513343], [-88.06983, 41.51348], [-88.06606, 41.51363], [-88.06613, 41.51463], [-88.06609, 41.5149], [-88.06615, 41.51563], [-88.06377, 41.51569], [-88.06357, 41.51376], [-88.06203, 41.5138], [-88.062012, 41.513387], [-88.06197, 41.51245], [-88.06188, 41.51043]]]}}, {"type": "Feature", "properties": {"area_id": 3487, "city": "Joliet", "state": "IL", "city_survey": true, "cat": "Hazardous", "grade": "D", "label": "D8", "res": true, "com": false, "ind": false, "holc_grade": "D"}, "geometry": {"type": "Polygon", "coordinates": [[[-88.0626, 41.52358], [-88.062595, 41.524097], [-88.06259, 41.52458], [-88.06346, 41.524569], [-88.064501, 41.524556], [-88.06818, 41.52451], [-88.067916, 41.52476], [-88.06782, 41.52485], [-88.06759, 41.52519], [-88.0675, 41.52558], [-88.06744, 41.52603], [-88.06738, 41.52637], [-88.06724, 41.52658], [-88.06706, 41.52679], [-88.064085, 41.526755], [-88.06364, 41.52675], [-88.0636, 41.52524], [-88.06263, 41.52522], [-88.06213, 41.52534], [-88.06158, 41.52536], [-88.06013, 41.52512], [-88.05956, 41.52512], [-88.05865, 41.52515], [-88.058887, 41.524952], [-88.060423, 41.523668], [-88.0606, 41.52352], [-88.06228, 41.52384], [-88.0626, 41.52358]]]}}, {"type": "Feature", "properties": {"area_id": 3497, "city": "Joliet", "state": "IL", "city_survey": true, "cat": "Hazardous", "grade": "D", "label": "D9", "res": true, "com": false, "ind": false, "holc_grade": "D"}, "geometry": {"type": "Polygon", "coordinates": [[[-88.10801, 41.49806], [-88.10784, 41.49853], [-88.10748, 41.49885], [-88.10713, 41.49898], [-88.10681, 41.49899], [-88.10643, 41.49881], [-88.106027, 41.498636], [-88.10585, 41.49856], [-88.10512, 41.49855], [-88.1044, 41.49855], [-88.10384, 41.49876], [-88.10338, 41.49914], [-88.10299, 41.49933], [-88.10276, 41.49936], [-88.10169, 41.49945], [-88.10097, 41.49955], [-88.10066, 41.49968], [-88.10035, 41.49987], [-88.10018, 41.50007], [-88.1, 41.50049], [-88.09982, 41.50093], [-88.09971, 41.50117], [-88.09946, 41.50158], [-88.09929, 41.50188], [-88.09895, 41.50237], [-88.09848, 41.50279], [-88.09812, 41.50309], [-88.09778, 41.50352], [-88.09719, 41.50399], [-88.09653, 41.50441], [-88.09581, 41.50476], [-88.09518, 41.50499], [-88.09569, 41.50503], [-88.09593, 41.50525], [-88.09592, 41.50589], [-88.09581, 41.50616], [-88.09529, 41.50679], [-88.09483, 41.50735], [-88.09438, 41.50759], [-88.09348, 41.50767], [-88.09322, 41.50782], [-88.0926, 41.50827], [-88.09245, 41.50873], [-88.09238, 41.5092], [-88.0834, 41.50943], [-88.08296, 41.50978], [-88.08264, 41.5099], [-88.08143, 41.50997], [-88.081258, 41.50998], [-88.08091, 41.51], [-88.08001, 41.51017], [-88.07911, 41.51064], [-88.07861, 41.5111], [-88.07856, 41.51063], [-88.07941, 41.50978], [-88.081073, 41.508499], [-88.08115, 41.50844], [-88.0831, 41.50732], [-88.0853, 41.50619], [-88.08788, 41.50478], [-88.09024, 41.50342], [-88.0903, 41.50184], [-88.08883, 41.50224], [-88.08579, 41.50333], [-88.08432, 41.50366], [-88.08299, 41.50377], [-88.08105, 41.50379], [-88.08096, 41.50279], [-88.08098, 41.50111], [-88.08099, 41.49739], [-88.07765, 41.4974], [-88.07752, 41.49511], [-88.0809, 41.49499], [-88.08061, 41.49122], [-88.08054, 41.48911], [-88.08911, 41.4888], [-88.08659, 41.4908], [-88.08691, 41.49504], [-88.09017, 41.49504], [-88.08998, 41.49167], [-88.08969, 41.48877], [-88.10453, 41.48821], [-88.1235, 41.48762], [-88.123609, 41.490485], [-88.12368, 41.49234], [-88.12376, 41.49398], [-88.12378, 41.49701], [-88.12387, 41.49947], [-88.12328, 41.49949], [-88.1183, 41.50121], [-88.11713, 41.50143], [-88.11412, 41.50208], [-88.11313, 41.50208], [-88.10863, 41.50305], [-88.10766, 41.50344], [-88.10731, 41.50375], [-88.10673, 41.50435], [-88.10575, 41.50486], [-88.1044, 41.50533], [-88.10082, 41.50649], [-88.10013, 41.5068], [-88.09928, 41.5074], [-88.09773, 41.50833], [-88.09628, 41.50934], [-88.0967, 41.50949], [-88.09655, 41.50967], [-88.0952, 41.51063], [-88.09439, 41.51137], [-88.09332, 41.51212], [-88.093265, 41.51216], [-88.09251, 41.51272], [-88.09154, 41.51348], [-88.09087, 41.5139], [-88.09031, 41.51415], [-88.0916, 41.51273], [-88.09243, 41.51205], [-88.092523, 41.511968], [-88.09334, 41.51125], [-88.09419, 41.51038], [-88.09469, 41.50982], [-88.09496, 41.50934], [-88.09539, 41.50884], [-88.09686, 41.50787], [-88.09814, 41.50701], [-88.09874, 41.50649], [-88.09888, 41.50612], [-88.0989, 41.50515], [-88.0989, 41.5045], [-88.09904, 41.50386], [-88.09933, 41.50347], [-88.0999, 41.5028], [-88.10029, 41.50237], [-88.10079, 41.50164], [-88.10097, 41.501292], [-88.10111, 41.50102], [-88.10136, 41.50066], [-88.101537, 41.500605], [-88.10178, 41.50053], [-88.10229, 41.50054], [-88.10278, 41.5005], [-88.10316, 41.50034], [-88.10339, 41.50009], [-88.10364, 41.50015], [-88.10439, 41.49984], [-88.10478, 41.49984], [-88.10502, 41.49992], [-88.1052, 41.50025], [-88.1052, 41.50067], [-88.10556, 41.50081], [-88.10584, 41.50081], [-88.10658, 41.50071], [-88.1074, 41.50056], [-88.10813, 41.50034], [-88.10854, 41.50014], [-88.10886, 41.49989], [-88.10931, 41.49949], [-88.10976, 41.49913], [-88.11004, 41.499], [-88.11039, 41.49874], [-88.11071, 41.49872], [-88.11137, 41.49879], [-88.11166, 41.49881], [-88.11216, 41.49878], [-88.11283, 41.49869], [-88.11331, 41.49865], [-88.11365, 41.49855], [-88.11442, 41.49834], [-88.11547, 41.49797], [-88.11665, 41.49748], [-88.11816, 41.49691], [-88.11867, 41.49686], [-88.11994, 41.49635], [-88.12001, 41.4962], [-88.12018, 41.49617], [-88.12095, 41.49582], [-88.12165, 41.49544], [-88.12144, 41.49533], [-88.12121, 41.49526], [-88.12088, 41.49516], [-88.12081, 41.49516], [-88.12051, 41.49497], [-88.12036, 41.49477], [-88.12036, 41.49453], [-88.12029, 41.49404], [-88.12024, 41.49353], [-88.12027, 41.49325], [-88.119681, 41.493639], [-88.11968, 41.49364], [-88.11846, 41.49432], [-88.11791, 41.49464], [-88.11712, 41.4949], [-88.11621, 41.49516], [-88.11517, 41.49526], [-88.11477, 41.49529], [-88.11395, 41.49542], [-88.11357, 41.49544], [-88.11304, 41.49558], [-88.11241, 41.49581], [-88.11174, 41.49597], [-88.10998, 41.49684], [-88.109473, 41.49711], [-88.10906, 41.49733], [-88.10844, 41.49771], [-88.10801, 41.49806]]]}}, {"type": "Feature", "properties": {"area_id": 11221, "city": "Joliet", "state": "IL", "city_survey": true, "cat": "Commercial", "grade": null, "label": "Commercial", "res": false, "com": true, "ind": false, "holc_grade": null}, "geometry": {"type": "Polygon", "coordinates": [[[-88.08195, 41.51361], [-88.08213, 41.51566], [-88.08232, 41.51896], [-88.082334, 41.519257], [-88.08247, 41.52205], [-88.08663, 41.52201], [-88.08586, 41.52397], [-88.08629, 41.52502], [-88.08605, 41.52782], [-88.08586, 41.52923], [-88.08453, 41.53174], [-88.084422, 41.531993], [-88.08253, 41.53641], [-88.07908, 41.5365], [-88.07882, 41.53371], [-88.078756, 41.532455], [-88.0787, 41.53135], [-88.07869, 41.53115], [-88.07863, 41.52991], [-88.07862, 41.52967], [-88.07861, 41.52885], [-88.07654, 41.52888], [-88.07582, 41.5289], [-88.07498, 41.52891], [-88.07269, 41.52886], [-88.072591, 41.528773], [-88.07252, 41.52871], [-88.0725, 41.52737], [-88.072691, 41.52617], [-88.07279, 41.52555], [-88.073235, 41.524627], [-88.073325, 41.52444], [-88.073333, 41.524423], [-88.07345, 41.52418], [-88.07421, 41.52416], [-88.07638, 41.52414], [-88.07917, 41.52406], [-88.08048, 41.52393], [-88.08051, 41.52214], [-88.08055, 41.52017], [-88.08051, 41.51831], [-88.080434, 41.516887], [-88.08029, 41.51417], [-88.08025, 41.51362], [-88.08195, 41.51361]]]}}, {"type": "Feature", "properties": {"area_id": 11222, "city": "Joliet", "state": "IL", "city_survey": true, "cat": "Industrial", "grade": null, "label": "Industrial", "res": false, "com": false, "ind": true, "holc_grade": null}, "geometry": {"type": "MultiPolygon", "coordinates": [[[[-88.06215, 41.51738], [-88.06216, 41.51862], [-88.062156, 41.518766], [-88.06214, 41.51935], [-88.06095, 41.51935], [-88.06026, 41.51941], [-88.0602, 41.52033], [-88.06007, 41.52088], [-88.05965, 41.52206], [-88.05936, 41.52332], [-88.0596, 41.523359], [-88.0606, 41.52352], [-88.060423, 41.523668], [-88.058887, 41.524952], [-88.05865, 41.52515], [-88.05684, 41.52486], [-88.05724, 41.52522], [-88.05886, 41.5263], [-88.06096, 41.52616], [-88.06286, 41.52559], [-88.06312, 41.52523], [-88.0636, 41.52524], [-88.06364, 41.52675], [-88.06375, 41.52996], [-88.06381, 41.53173], [-88.0624, 41.53172], [-88.062401, 41.531756], [-88.06247, 41.53394], [-88.06256, 41.53539], [-88.06258, 41.53571], [-88.062466, 41.535878], [-88.062417, 41.53595], [-88.06224, 41.53621], [-88.06188, 41.5371], [-88.06112, 41.53823], [-88.06069, 41.53873], [-88.06048, 41.53889], [-88.060183, 41.539072], [-88.06017, 41.53908], [-88.05988, 41.5391], [-88.05944, 41.53915], [-88.05888, 41.53914], [-88.05829, 41.53925], [-88.05794, 41.53918], [-88.05764, 41.53901], [-88.0574, 41.53897], [-88.05743, 41.54091], [-88.05511, 41.539172], [-88.0548, 41.53894], [-88.05417, 41.53681], [-88.05512, 41.53616], [-88.05574, 41.53566], [-88.05634, 41.5348], [-88.05749, 41.53346], [-88.05749, 41.532932], [-88.05749, 41.53198], [-88.05802, 41.53119], [-88.05659, 41.52878], [-88.056, 41.52773], [-88.05586, 41.52501], [-88.05044, 41.52595], [-88.04813, 41.5263], [-88.04601, 41.52656], [-88.0445, 41.52705], [-88.0403, 41.52855], [-88.037048, 41.529955], [-88.03648, 41.5302], [-88.03441, 41.53096], [-88.0337, 41.5314], [-88.03401, 41.529542], [-88.03406, 41.52924], [-88.03518, 41.52829], [-88.03691, 41.52677], [-88.0387, 41.525872], [-88.039416, 41.525513], [-88.04269, 41.52387], [-88.0431, 41.52339], [-88.0432, 41.52251], [-88.04539, 41.52226], [-88.04928, 41.52332], [-88.04967, 41.52334], [-88.05237, 41.52351], [-88.05518, 41.52111], [-88.05505, 41.51879], [-88.05728, 41.51671], [-88.05857, 41.51555], [-88.05977, 41.51444], [-88.061027, 41.513303], [-88.06197, 41.51245], [-88.062012, 41.513387], [-88.06203, 41.5138], [-88.06215, 41.51738]]], [[[-88.06455, 41.50529], [-88.06441, 41.50413], [-88.06376, 41.50293], [-88.06855, 41.50269], [-88.06863, 41.50431], [-88.06862, 41.50661], [-88.06471, 41.50673], [-88.06448, 41.50604], [-88.06455, 41.50529]]], [[[-88.07345, 41.52418], [-88.073333, 41.524423], [-88.073325, 41.52444], [-88.073235, 41.524627], [-88.07279, 41.52555], [-88.072691, 41.52617], [-88.0725, 41.52737], [-88.0694, 41.52736], [-88.06771, 41.52741], [-88.06742, 41.52739], [-88.06743, 41.5268], [-88.06706, 41.52679], [-88.06724, 41.52658], [-88.06738, 41.52637], [-88.06744, 41.52603], [-88.0675, 41.52558], [-88.06759, 41.52519], [-88.06782, 41.52485], [-88.067916, 41.52476], [-88.06818, 41.52451], [-88.06862, 41.52441], [-88.07022, 41.52426], [-88.073138, 41.524188], [-88.07345, 41.52418]]], [[[-88.08169, 41.56299], [-88.08181, 41.56415], [-88.08241, 41.56543], [-88.08029, 41.56548], [-88.0795, 41.55845], [-88.08026, 41.55948], [-88.08062, 41.56057], [-88.08098, 41.56116], [-88.08117, 41.56219], [-88.08169, 41.56299]]], [[[-88.08029, 41.56548], [-88.078193, 41.56551], [-88.06986, 41.56563], [-88.06834, 41.56554], [-88.06871, 41.56427], [-88.06896, 41.56354], [-88.072739, 41.553063], [-88.07278, 41.55295], [-88.07271, 41.550447], [-88.072574, 41.545576], [-88.07257, 41.54544], [-88.06807, 41.54601], [-88.06793, 41.54259], [-88.07248, 41.54247], [-88.072516, 41.541652], [-88.07265, 41.53865], [-88.072684, 41.53778], [-88.0727, 41.53737], [-88.072734, 41.537167], [-88.07282, 41.53665], [-88.07908, 41.5365], [-88.08253, 41.53641], [-88.08234, 41.53726], [-88.08165, 41.53856], [-88.08062, 41.54022], [-88.07931, 41.54213], [-88.08003, 41.54232], [-88.0806, 41.54304], [-88.0801, 41.54459], [-88.08007, 41.5466], [-88.07924, 41.54945], [-88.078762, 41.55224], [-88.078686, 41.552687], [-88.07867, 41.55278], [-88.07829, 41.55408], [-88.07862, 41.55734], [-88.07874, 41.55911], [-88.07893, 41.56012], [-88.07929, 41.56132], [-88.07955, 41.56399], [-88.08029, 41.56548]]], [[[-88.0903, 41.50184], [-88.09024, 41.50342], [-88.08788, 41.50478], [-88.0853, 41.50619], [-88.0831, 41.50732], [-88.08115, 41.50844], [-88.081073, 41.508499], [-88.07941, 41.50978], [-88.07856, 41.51063], [-88.07402, 41.51079], [-88.07394, 41.50973], [-88.07394, 41.50949], [-88.07512, 41.5082], [-88.0759, 41.50737], [-88.0772, 41.50606], [-88.07814, 41.5051], [-88.08017, 41.50468], [-88.080957, 41.503884], [-88.08105, 41.50379], [-88.08299, 41.50377], [-88.08432, 41.50366], [-88.08579, 41.50333], [-88.08883, 41.50224], [-88.0903, 41.50184]]], [[[-88.07654, 41.52902], [-88.07659, 41.52969], [-88.07581, 41.5297], [-88.07582, 41.52901], [-88.07654, 41.52902]]], [[[-88.07869, 41.53115], [-88.0787, 41.53135], [-88.07642, 41.5314], [-88.07634, 41.52995], [-88.07863, 41.52991], [-88.07869, 41.53115]]], [[[-88.08521, 41.54201], [-88.08598, 41.54527], [-88.08711, 41.54925], [-88.08802, 41.55264], [-88.088021, 41.552652], [-88.088324, 41.55595], [-88.08861, 41.55906], [-88.08853, 41.559682], [-88.0884, 41.5607], [-88.08742, 41.56282], [-88.08739, 41.56315], [-88.08681, 41.56383], [-88.08679, 41.56449], [-88.08593, 41.56527], [-88.08305, 41.56536], [-88.08245, 41.56333], [-88.08255, 41.56224], [-88.08219, 41.56156], [-88.08224, 41.56025], [-88.08195, 41.5593], [-88.08057, 41.5579], [-88.08034, 41.55713], [-88.08015, 41.55533], [-88.080555, 41.552725], [-88.08056, 41.55269], [-88.08097, 41.55064], [-88.08147, 41.54604], [-88.081489, 41.545399], [-88.08155, 41.54332], [-88.08291, 41.53855], [-88.08321, 41.538404], [-88.08328, 41.53837], [-88.08355, 41.53827], [-88.08391, 41.53822], [-88.08478, 41.5382], [-88.08506, 41.53836], [-88.085201, 41.541801], [-88.08521, 41.54201]]], [[[-88.08911, 41.4888], [-88.08969, 41.48877], [-88.08998, 41.49167], [-88.09017, 41.49504], [-88.08691, 41.49504], [-88.08659, 41.4908], [-88.08911, 41.4888]]], [[[-88.09628, 41.50934], [-88.09773, 41.50833], [-88.09928, 41.5074], [-88.10013, 41.5068], [-88.10082, 41.50649], [-88.1044, 41.50533], [-88.10575, 41.50486], [-88.10673, 41.50435], [-88.10731, 41.50375], [-88.10766, 41.50344], [-88.10863, 41.50305], [-88.11313, 41.50208], [-88.11412, 41.50208], [-88.11713, 41.50143], [-88.1183, 41.50121], [-88.12328, 41.49949], [-88.12387, 41.49947], [-88.1239, 41.5019], [-88.12881, 41.50185], [-88.12866, 41.50306], [-88.12922, 41.50496], [-88.12414, 41.50486], [-88.10967, 41.50531], [-88.10498, 41.50631], [-88.10463, 41.50633], [-88.10364, 41.50658], [-88.10379, 41.50682], [-88.10344, 41.50742], [-88.10262, 41.50769], [-88.10158, 41.50821], [-88.10071, 41.50876], [-88.1003, 41.50936], [-88.09802, 41.50946], [-88.09568, 41.51141], [-88.0948, 41.51227], [-88.094543, 41.512504], [-88.09241, 41.51444], [-88.09102, 41.51738], [-88.09071, 41.51741], [-88.08888, 41.51747], [-88.08907, 41.51633], [-88.09087, 41.5139], [-88.09154, 41.51348], [-88.09251, 41.51272], [-88.093265, 41.51216], [-88.09332, 41.51212], [-88.09439, 41.51137], [-88.0952, 41.51063], [-88.09655, 41.50967], [-88.0967, 41.50949], [-88.09628, 41.50934]]]]}}]}