{"type": "FeatureCollection", "features": [{"type": "Feature", "geometry": {"type": "Point", "coordinates": [-71.468056, 41.969444]}, "properties": {"facility_name": "HEALY BROTHERS CORP", "industry": null, "tri_facility_id": "02838HLYBR60NEW"}}, {"type": "Feature", "geometry": {"type": "Point", "coordinates": [-71.4982, 41.9829]}, "properties": {"facility_name": "ROCHAMBEAU WORSTED CO", "industry": null, "tri_facility_id": "02838RCHMB1690O"}}, {"type": "Feature", "geometry": {"type": "Point", "coordinates": [-71.432778, 41.935833]}, "properties": {"facility_name": "J T SLOCOMB CO SPECIALTY MATERIALS DIV", "industry": null, "tri_facility_id": "02864JTSLC1FRON"}}, {"type": "Feature", "geometry": {"type": "Point", "coordinates": [-71.433333, 41.933333]}, "properties": {"facility_name": "OKONITE CO INC", "industry": null, "tri_facility_id": "02864KNTCX111MA"}}, {"type": "Feature", "geometry": {"type": "Point", "coordinates": [-71.462033, 41.939037]}, "properties": {"facility_name": "JUICE SERVICES INC DIV OF DEAN FOODS", "industry": null, "tri_facility_id": "02865JCSRV13BLA"}}, {"type": "Feature", "geometry": {"type": "Point", "coordinates": [-71.483333, 41.933333]}, "properties": {"facility_name": "A. T. CROSS CO", "industry": null, "tri_facility_id": "02865TCRSSONEAL"}}, {"type": "Feature", "geometry": {"type": "Point", "coordinates": [-71.574444, 41.993889]}, "properties": {"facility_name": "NARRAGANSETT IMAGING", "industry": null, "tri_facility_id": "02876MRPXLPROVI"}}, {"type": "Feature", "geometry": {"type": "Point", "coordinates": [-71.56916666666666, 41.985]}, "properties": {"facility_name": "CUSTOM COATINGS INC.", "industry": null, "tri_facility_id": "02876NTRPR22STE"}}, {"type": "Feature", "geometry": {"type": "Point", "coordinates": [-71.579167, 41.998611]}, "properties": {"facility_name": "POLYTOP CORP", "industry": null, "tri_facility_id": "02876PLYTP110GR"}}, {"type": "Feature", "geometry": {"type": "Point", "coordinates": [-71.512222, 42.013889]}, "properties": {"facility_name": "CNC INTERNATIONAL LP", "industry": null, "tri_facility_id": "02895CNCNT20PRI"}}, {"type": "Feature", "geometry": {"type": "Point", "coordinates": [-71.503056, 42.005]}, "properties": {"facility_name": "CONSOLIDATED AUTO SCREEN INC", "industry": null, "tri_facility_id": "02895CNSLD104VI"}}, {"type": "Feature", "geometry": {"type": "Point", "coordinates": [-71.5, 42.000556]}, "properties": {"facility_name": "OCEAN STATE FINISHING CO", "industry": null, "tri_facility_id": "02895CNSTT413MA"}}, {"type": "Feature", "geometry": {"type": "Point", "coordinates": [-71.525, 42.008333]}, "properties": {"facility_name": "CAROL CABLE CO INC", "industry": null, "tri_facility_id": "02895CRLCB150HA"}}, {"type": "Feature", "geometry": {"type": "Point", "coordinates": [-71.503056, 42.004722]}, "properties": {"facility_name": "ACS INDUSTRIES INC", "industry": null, "tri_facility_id": "02895CSNDS71VIL"}}, {"type": "Feature", "geometry": {"type": "Point", "coordinates": [-71.52536, 42.00493]}, "properties": {"facility_name": "DORADO PROCESSING INC", "industry": null, "tri_facility_id": "02895DRNDP719RI"}}, {"type": "Feature", "geometry": {"type": "Point", "coordinates": [-71.48, 41.993889]}, "properties": {"facility_name": "HAMILTON STANDARD INTERCONNECT, SYS", "industry": null, "tri_facility_id": "02895HMLTN300PA"}}, {"type": "Feature", "geometry": {"type": "Point", "coordinates": [-71.51722222222222, 42.004444444444445]}, "properties": {"facility_name": "HONEYWELL SENSING & CONTROL", "industry": null, "tri_facility_id": "02895HNYWL245RA"}}, {"type": "Feature", "geometry": {"type": "Point", "coordinates": [-71.512333, 41.9959]}, "properties": {"facility_name": "CARPENTER POWDER PRODUCTS", "industry": null, "tri_facility_id": "02895LTRFN500PA"}}, {"type": "Feature", "geometry": {"type": "Point", "coordinates": [-71.5, 42.001944]}, "properties": {"facility_name": "NORTHERN PRODUCTS INC", "industry": null, "tri_facility_id": "02895NRTHR153HA"}}, {"type": "Feature", "geometry": {"type": "Point", "coordinates": [-71.515278, 42.002778]}, "properties": {"facility_name": "NATIONAL CHROMIUM CO INC (WOONSOCKET)", "industry": null, "tri_facility_id": "02895NTNLC185AL"}}, {"type": "Feature", "geometry": {"type": "Point", "coordinates": [-71.513333, 42.013333]}, "properties": {"facility_name": "POLYURETHANE MOLDING INC.", "industry": null, "tri_facility_id": "02895PLYRT32MEC"}}, {"type": "Feature", "geometry": {"type": "Point", "coordinates": [-71.5, 42.008333]}, "properties": {"facility_name": "ROSECRAFT INCORPORATED", "industry": null, "tri_facility_id": "02895RSCRF685SO"}}, {"type": "Feature", "geometry": {"type": "Point", "coordinates": [-71.51416666666667, 42.00388888888889]}, "properties": {"facility_name": "SILHOUETTES INC", "industry": null, "tri_facility_id": "02895SLHTT43RAI"}}, {"type": "Feature", "geometry": {"type": "Point", "coordinates": [-71.535, 42.013333]}, "properties": {"facility_name": "EASTERN RESINS & CHEMICALS CO", "industry": null, "tri_facility_id": "02895STRNR1174R"}}, {"type": "Feature", "geometry": {"type": "Point", "coordinates": [-71.526741, 42.002751]}, "properties": {"facility_name": "SEVILLE DYEING CO INC", "industry": null, "tri_facility_id": "02895SVLLD229FI"}}, {"type": "Feature", "geometry": {"type": "Point", "coordinates": [-71.474444, 41.998889]}, "properties": {"facility_name": "TECHNIC INC ENGINEERED POWDERS DIV", "industry": null, "tri_facility_id": "02895TCHNC300PA"}}, {"type": "Feature", "geometry": {"type": "Point", "coordinates": [-71.524444, 42.008611]}, "properties": {"facility_name": "PORTOLA TECH INTERNATIONAL", "industry": null, "tri_facility_id": "02895TCHND85FAI"}}, {"type": "Feature", "geometry": {"type": "Point", "coordinates": [-71.5017, 42.0004]}, "properties": {"facility_name": "ATP MFG CO", "industry": null, "tri_facility_id": "02895TLNTCENDOF"}}, {"type": "Feature", "geometry": {"type": "Point", "coordinates": [-71.540278, 42.010833]}, "properties": {"facility_name": "ATP MANUFACTURING", "industry": null, "tri_facility_id": "02896TPMFG761GR"}}]}