{"type": "FeatureCollection", "features": [{"type": "Feature", "properties": {"area_id": 10202, "city": "Springfield", "state": "VT", "city_survey": false, "cat": "#1 Best Residential", "grade": null, "label": "#1 Best Residential", "res": true, "com": false, "ind": false, "holc_grade": null}, "geometry": {"type": "Polygon", "coordinates": [[[-72.47037, 43.29277], [-72.4707, 43.29328], [-72.47113, 43.29347], [-72.47238, 43.29348], [-72.47296, 43.29356], [-72.47396, 43.29427], [-72.47473, 43.29473], [-72.47617, 43.29486], [-72.47861, 43.29544], [-72.48009, 43.29602], [-72.48114, 43.2972], [-72.48114, 43.29788], [-72.48143, 43.29798], [-72.4812, 43.29912], [-72.48031, 43.29928], [-72.47975, 43.30073], [-72.47948, 43.30096], [-72.47805, 43.3018], [-72.47639, 43.30216], [-72.47531, 43.302], [-72.47348, 43.30148], [-72.47214, 43.30081], [-72.47144, 43.30002], [-72.46871, 43.29683], [-72.46611, 43.29429], [-72.46414, 43.29313], [-72.46376, 43.29269], [-72.46381, 43.29204], [-72.4644, 43.29088], [-72.46624, 43.29016], [-72.46857, 43.2896], [-72.46968, 43.28977], [-72.47004, 43.29099], [-72.47032, 43.29224], [-72.47037, 43.29277]]]}}, {"type": "Feature", "properties": {"area_id": 10203, "city": "Springfield", "state": "VT", "city_survey": false, "cat": "#2 Residential", "grade": null, "label": "#2 Residential", "res": true, "com": false, "ind": false, "holc_grade": null}, "geometry": {"type": "MultiPolygon", "coordinates": [[[[-72.48588, 43.29777], [-72.4859, 43.29692], [-72.48418, 43.29609], [-72.48419, 43.29546], [-72.48405, 43.29471], [-72.48286, 43.29349], [-72.48168, 43.29329], [-72.4806, 43.29334], [-72.47988, 43.29292], [-72.47952, 43.29231], [-72.47946, 43.29183], [-72.47835, 43.29113], [-72.47769, 43.2909], [-72.47703, 43.29011], [-72.47686, 43.28898], [-72.47603, 43.28803], [-72.47471, 43.28509], [-72.47435, 43.28306], [-72.4746, 43.28273], [-72.47586, 43.28283], [-72.47708, 43.28322], [-72.47756, 43.28399], [-72.47761, 43.28449], [-72.47786, 43.28519], [-72.47891, 43.2855], [-72.48065, 43.28561], [-72.48164, 43.28621], [-72.48209, 43.2872], [-72.48298, 43.28839], [-72.48488, 43.29013], [-72.48651, 43.2911], [-72.48859, 43.29249], [-72.48894, 43.29351], [-72.49022, 43.29488], [-72.4908, 43.29574], [-72.49144, 43.29641], [-72.49287, 43.29777], [-72.49393, 43.29819], [-72.495, 43.29888], [-72.49539, 43.29956], [-72.49489, 43.30143], [-72.49437, 43.30169], [-72.49342, 43.3018], [-72.49218, 43.30154], [-72.49165, 43.30124], [-72.49152, 43.30063], [-72.49119, 43.30033], [-72.4878, 43.29989], [-72.48866, 43.30041], [-72.48952, 43.3012], [-72.4895, 43.30186], [-72.48913, 43.30226], [-72.48817, 43.30245], [-72.48836, 43.3019], [-72.48639, 43.30018], [-72.48582, 43.30027], [-72.48537, 43.30011], [-72.48457, 43.29935], [-72.48459, 43.29874], [-72.48492, 43.29829], [-72.48576, 43.29828], [-72.48659, 43.29857], [-72.48588, 43.29777]]], [[[-72.48254, 43.29995], [-72.482738, 43.300124], [-72.48287, 43.30024], [-72.482895, 43.300238], [-72.48369, 43.30019], [-72.48433, 43.30083], [-72.48599, 43.30169], [-72.486953, 43.302731], [-72.4871, 43.30289], [-72.48698, 43.30404], [-72.48638, 43.30497], [-72.48493, 43.30576], [-72.48355, 43.30604], [-72.48228, 43.30586], [-72.48046, 43.30538], [-72.47984, 43.30454], [-72.47971, 43.30363], [-72.48031, 43.30205], [-72.48022, 43.30086], [-72.48055, 43.2999], [-72.48111, 43.29985], [-72.48124, 43.30017], [-72.48173, 43.30013], [-72.482524, 43.299954], [-72.48254, 43.29995]]]]}}, {"type": "Feature", "properties": {"area_id": 10204, "city": "Springfield", "state": "VT", "city_survey": false, "cat": "#3 Residential", "grade": null, "label": "#3 Residential", "res": true, "com": false, "ind": false, "holc_grade": null}, "geometry": {"type": "MultiPolygon", "coordinates": [[[[-72.47335, 43.28864], [-72.47349, 43.28761], [-72.47412, 43.28715], [-72.47514, 43.28721], [-72.47603, 43.28803], [-72.47686, 43.28898], [-72.47703, 43.29011], [-72.47769, 43.2909], [-72.47835, 43.29113], [-72.47946, 43.29183], [-72.47952, 43.29231], [-72.47988, 43.29292], [-72.48009, 43.29323], [-72.47978, 43.29343], [-72.4792, 43.29364], [-72.47826, 43.29342], [-72.47717, 43.29283], [-72.47565, 43.29201], [-72.47446, 43.2913], [-72.47416, 43.29159], [-72.473529, 43.291257], [-72.47323, 43.2911], [-72.47319, 43.290906], [-72.47313, 43.29061], [-72.47351, 43.29042], [-72.47335, 43.28864]]], [[[-72.48168, 43.29329], [-72.48286, 43.29349], [-72.48405, 43.29471], [-72.48419, 43.29546], [-72.48344, 43.29556], [-72.48309, 43.29595], [-72.48218, 43.29601], [-72.48138, 43.29587], [-72.48019, 43.2951], [-72.480116, 43.295056], [-72.4796, 43.29475], [-72.47956, 43.29432], [-72.479839, 43.294247], [-72.48074, 43.29401], [-72.48066, 43.29362], [-72.48168, 43.29329]]]]}}, {"type": "Feature", "properties": {"area_id": 10201, "city": "Springfield", "state": "VT", "city_survey": false, "cat": "Industrial", "grade": null, "label": "Industrial", "res": false, "com": false, "ind": true, "holc_grade": null}, "geometry": {"type": "MultiPolygon", "coordinates": [[[[-72.47367, 43.2858], [-72.4738, 43.28658], [-72.47354, 43.28723], [-72.47349, 43.28761], [-72.47335, 43.28864], [-72.47351, 43.29042], [-72.47313, 43.29061], [-72.47319, 43.290906], [-72.47323, 43.2911], [-72.473529, 43.291257], [-72.47416, 43.29159], [-72.47446, 43.2913], [-72.47565, 43.29201], [-72.47563, 43.29237], [-72.47612, 43.2926], [-72.475982, 43.292768], [-72.47562, 43.29321], [-72.4745, 43.29309], [-72.47449, 43.29336], [-72.47427, 43.29365], [-72.4744, 43.29403], [-72.47396, 43.29427], [-72.47296, 43.29356], [-72.47238, 43.29348], [-72.47113, 43.29347], [-72.4707, 43.29328], [-72.47037, 43.29277], [-72.47032, 43.29224], [-72.47059, 43.29139], [-72.47054, 43.29099], [-72.47077, 43.29053], [-72.47074, 43.28926], [-72.47048, 43.28844], [-72.47036, 43.28578], [-72.47041, 43.28461], [-72.47085, 43.28369], [-72.47081, 43.28342], [-72.47106, 43.28313], [-72.471274, 43.283061], [-72.47193, 43.28285], [-72.4729, 43.28285], [-72.47367, 43.2858]]], [[[-72.48164, 43.29616], [-72.481108, 43.296223], [-72.48105, 43.29623], [-72.48077, 43.29588], [-72.48027, 43.29537], [-72.480261, 43.295338], [-72.48019, 43.2951], [-72.48138, 43.29587], [-72.48164, 43.29616]]], [[[-72.48492, 43.29829], [-72.48459, 43.29874], [-72.48457, 43.29935], [-72.48537, 43.30011], [-72.48582, 43.30027], [-72.48639, 43.30018], [-72.48836, 43.3019], [-72.48817, 43.30245], [-72.4873, 43.30227], [-72.48479, 43.30036], [-72.48449, 43.30022], [-72.48268, 43.29879], [-72.48276, 43.29833], [-72.4827, 43.29738], [-72.4825, 43.29654], [-72.48218, 43.29601], [-72.48309, 43.29595], [-72.48418, 43.29609], [-72.4859, 43.29692], [-72.48492, 43.29829]]]]}}, {"type": "Feature", "properties": {"area_id": 10200, "city": "Springfield", "state": "VT", "city_survey": false, "cat": "Trading", "grade": null, "label": "Trading", "res": false, "com": true, "ind": false, "holc_grade": null}, "geometry": {"type": "MultiPolygon", "coordinates": [[[[-72.47717, 43.29283], [-72.47826, 43.29342], [-72.47888, 43.29376], [-72.4792, 43.29364], [-72.47978, 43.29343], [-72.4806, 43.29334], [-72.48066, 43.29362], [-72.48074, 43.29401], [-72.479839, 43.294247], [-72.47956, 43.29432], [-72.47938, 43.29457], [-72.47828, 43.29426], [-72.47778, 43.2942], [-72.47761, 43.294], [-72.477743, 43.293602], [-72.47778, 43.29349], [-72.47692, 43.293], [-72.47717, 43.29283]]], [[[-72.48111, 43.29985], [-72.48055, 43.2999], [-72.48022, 43.30086], [-72.47975, 43.30073], [-72.48031, 43.29928], [-72.4812, 43.29912], [-72.48143, 43.29798], [-72.48114, 43.29788], [-72.48114, 43.2972], [-72.48009, 43.29602], [-72.48077, 43.29588], [-72.48105, 43.29623], [-72.48144, 43.29672], [-72.48157, 43.29717], [-72.481733, 43.297126], [-72.48187, 43.29709], [-72.48192, 43.29744], [-72.48236, 43.29745], [-72.48241, 43.29866], [-72.48267, 43.29909], [-72.48321, 43.29976], [-72.48369, 43.30019], [-72.482895, 43.300238], [-72.48287, 43.30024], [-72.482738, 43.300124], [-72.48254, 43.29995], [-72.482524, 43.299954], [-72.48173, 43.30013], [-72.48124, 43.30017], [-72.48111, 43.29985]]]]}}]}