{"type": "FeatureCollection", "features": [{"type": "Feature", "properties": {"area_id": 10488, "city": "Aiken", "state": "SC", "city_survey": false, "cat": "Best Local Residential", "grade": null, "label": "Best Local Residential", "res": true, "com": false, "ind": false, "holc_grade": null}, "geometry": {"type": "MultiPolygon", "coordinates": [[[[-81.71723, 33.55509], [-81.71051, 33.55278], [-81.7113, 33.55107], [-81.7095, 33.55059], [-81.69894, 33.54713], [-81.698169, 33.548754], [-81.69782, 33.54949], [-81.697756, 33.54947], [-81.69473, 33.54852], [-81.69382, 33.54839], [-81.69336, 33.54773], [-81.69257, 33.54755], [-81.69227, 33.54684], [-81.6919, 33.54608], [-81.69202, 33.54517], [-81.69272, 33.54406], [-81.69379, 33.54335], [-81.69559, 33.54101], [-81.6974, 33.53891], [-81.69852, 33.53768], [-81.7002, 33.53701], [-81.70242, 33.53667], [-81.71247, 33.53473], [-81.71823, 33.53421], [-81.72018, 33.53417], [-81.721, 33.53464], [-81.72351, 33.53401], [-81.72391, 33.53293], [-81.724072, 33.531876], [-81.72425, 33.53072], [-81.72683, 33.52683], [-81.73206, 33.52732], [-81.72898, 33.53289], [-81.72934, 33.53628], [-81.73134, 33.53676], [-81.73076, 33.53979], [-81.72894, 33.54472], [-81.73003, 33.5489], [-81.73086, 33.55002], [-81.73101, 33.55374], [-81.733308, 33.557974], [-81.73343, 33.5582], [-81.72694, 33.557677], [-81.72586, 33.55759], [-81.724373, 33.557505], [-81.72235, 33.55739], [-81.71964, 33.55727], [-81.71784, 33.55701], [-81.71694, 33.55729], [-81.71636, 33.55707], [-81.716779, 33.556116], [-81.71708, 33.55543], [-81.71723, 33.55509]]], [[[-81.72475, 33.56193], [-81.72425, 33.56175], [-81.72469, 33.56095], [-81.72808, 33.55977], [-81.72809, 33.55835], [-81.73116, 33.55889], [-81.73248, 33.56028], [-81.73363, 33.56246], [-81.73322, 33.56308], [-81.73258, 33.56498], [-81.72803, 33.56346], [-81.726939, 33.565484], [-81.72603, 33.56717], [-81.72074, 33.56546], [-81.721496, 33.563717], [-81.72224, 33.562], [-81.72418, 33.5628], [-81.72484, 33.56265], [-81.72475, 33.56193]]]]}}, {"type": "Feature", "properties": {"area_id": 10487, "city": "Aiken", "state": "SC", "city_survey": false, "cat": "Blighted - Industry Mixed Races Colored", "grade": null, "label": "Blighted - Industry Mixed Races Colored", "res": true, "com": false, "ind": false, "holc_grade": null}, "geometry": {"type": "Polygon", "coordinates": [[[-81.7002, 33.56006], [-81.69836, 33.5584], [-81.69769, 33.5581], [-81.6977, 33.55726], [-81.69843, 33.55728], [-81.70017, 33.55235], [-81.705032, 33.553966], [-81.70706, 33.55464], [-81.7078, 33.55449], [-81.70994, 33.55515], [-81.71106, 33.55639], [-81.71238, 33.5568], [-81.71479, 33.55802], [-81.71343, 33.5608], [-81.71512, 33.56152], [-81.71673, 33.56215], [-81.71772, 33.56458], [-81.71713, 33.56648], [-81.71935, 33.56737], [-81.72478, 33.56929], [-81.72545, 33.56945], [-81.72463, 33.57119], [-81.7235, 33.57111], [-81.72068, 33.57046], [-81.71868, 33.56995], [-81.71826, 33.56958], [-81.71708, 33.56917], [-81.71655, 33.56887], [-81.71487, 33.56883], [-81.71118, 33.56742], [-81.70166, 33.56375], [-81.701189, 33.562079], [-81.70109, 33.56173], [-81.7002, 33.56006]]]}}, {"type": "Feature", "properties": {"area_id": 10523, "city": "Aiken", "state": "SC", "city_survey": false, "cat": "Business + Professional", "grade": null, "label": "Business + Professional", "res": false, "com": true, "ind": false, "holc_grade": null}, "geometry": {"type": "Polygon", "coordinates": [[[-81.72201, 33.5619], [-81.72216, 33.56144], [-81.71952, 33.56061], [-81.7204, 33.55899], [-81.71964, 33.55727], [-81.72235, 33.55739], [-81.72263, 33.55836], [-81.72486, 33.55908], [-81.72598, 33.55889], [-81.72711, 33.55832], [-81.72809, 33.55835], [-81.72808, 33.55977], [-81.72469, 33.56095], [-81.72425, 33.56175], [-81.72475, 33.56193], [-81.72484, 33.56265], [-81.72418, 33.5628], [-81.72224, 33.562], [-81.72201, 33.5619]]]}}, {"type": "Feature", "properties": {"area_id": 10486, "city": "Aiken", "state": "SC", "city_survey": false, "cat": "Middle Class Residential", "grade": null, "label": "Middle Class Residential", "res": true, "com": false, "ind": false, "holc_grade": null}, "geometry": {"type": "MultiPolygon", "coordinates": [[[[-81.71051, 33.55278], [-81.71723, 33.55509], [-81.71708, 33.55543], [-81.716779, 33.556116], [-81.71636, 33.55707], [-81.716254, 33.55704], [-81.71405, 33.55642], [-81.70994, 33.55515], [-81.7078, 33.55449], [-81.708604, 33.552646], [-81.7095, 33.55059], [-81.7113, 33.55107], [-81.71051, 33.55278]]], [[[-81.71964, 33.55727], [-81.7204, 33.55899], [-81.71952, 33.56061], [-81.72216, 33.56144], [-81.72201, 33.5619], [-81.72224, 33.562], [-81.721496, 33.563717], [-81.72074, 33.56546], [-81.72603, 33.56717], [-81.726939, 33.565484], [-81.72803, 33.56346], [-81.73258, 33.56498], [-81.73322, 33.56308], [-81.73363, 33.56246], [-81.73384, 33.56216], [-81.73656, 33.563], [-81.7376, 33.56369], [-81.74041, 33.56422], [-81.74092, 33.56469], [-81.7409, 33.56551], [-81.74038, 33.56644], [-81.73945, 33.56706], [-81.73679, 33.56708], [-81.73412, 33.56641], [-81.73345, 33.56617], [-81.733291, 33.566692], [-81.73258, 33.56903], [-81.73223, 33.57057], [-81.73146, 33.57085], [-81.72545, 33.56945], [-81.72478, 33.56929], [-81.71935, 33.56737], [-81.71713, 33.56648], [-81.71772, 33.56458], [-81.71673, 33.56215], [-81.71512, 33.56152], [-81.715933, 33.559631], [-81.71694, 33.55729], [-81.71784, 33.55701], [-81.71964, 33.55727]]]]}}]}