{"type": "FeatureCollection", "features": [{"type": "Feature", "geometry": {"type": "Point", "coordinates": [-81.6675, 33.54527777777778]}, "properties": {"facility_name": "AGY AIKEN LLC", "industry": null, "tri_facility_id": "29801DVNCD2556W"}}, {"type": "Feature", "geometry": {"type": "Point", "coordinates": [-81.731117, 33.564892]}, "properties": {"facility_name": "HUBBELL POWER SYSTEMS INC", "industry": null, "tri_facility_id": "29801HBBLL2200R"}}, {"type": "Feature", "geometry": {"type": "Point", "coordinates": [-81.66227, 33.543877]}, "properties": {"facility_name": "AIRCO INDUSTRIAL GASES (DBA BOC GASES AMERICAS)", "industry": null, "tri_facility_id": "29801RCNDS85AIR"}}, {"type": "Feature", "geometry": {"type": "Point", "coordinates": [-81.716667, 33.579167]}, "properties": {"facility_name": "HARVEY INDUSTRIES DIE CASTING LLC", "industry": null, "tri_facility_id": "29801RPHLN895UN"}}, {"type": "Feature", "geometry": {"type": "Point", "coordinates": [-81.708333, 33.583333]}, "properties": {"facility_name": "ASCO L.P.", "industry": null, "tri_facility_id": "29801TMTCSHWY1N"}}, {"type": "Feature", "geometry": {"type": "Point", "coordinates": [-81.687778, 33.543611]}, "properties": {"facility_name": "OWENS CORNING", "industry": null, "tri_facility_id": "29801WNSCRHWY30"}}, {"type": "Feature", "geometry": {"type": "Point", "coordinates": [-81.709, 33.6126]}, "properties": {"facility_name": "U.S. DOE SAVANNAH RIVER OPS", "industry": null, "tri_facility_id": "29802SDSVNSCHWY"}}, {"type": "Feature", "geometry": {"type": "Point", "coordinates": [-81.767, 33.546]}, "properties": {"facility_name": "US DOE SAVANNAH RIVER SITE-SAVANNAH RIVER MISSION COMPLETION", "industry": null, "tri_facility_id": "29802SVNNHSCHIG"}}]}