{"type": "FeatureCollection", "features": [{"type": "Feature", "geometry": {"type": "Point", "coordinates": [-83.893611, 35.963333]}, "properties": {"facility_name": "GENERAL SHALE BRICK INC. PLANT #7", "industry": null, "tri_facility_id": "37660GNRLS1740R"}}, {"type": "Feature", "geometry": {"type": "Point", "coordinates": [-83.94, 35.950556]}, "properties": {"facility_name": "FULTON BELLOWS & COMPONENTS INC", "industry": null, "tri_facility_id": "37901RBRTS2318K"}}, {"type": "Feature", "geometry": {"type": "Point", "coordinates": [-83.827778, 35.955556]}, "properties": {"facility_name": "CARRIER CORP", "industry": null, "tri_facility_id": "37914CRRRC5301N"}}, {"type": "Feature", "geometry": {"type": "Point", "coordinates": [-83.836111, 36.023611]}, "properties": {"facility_name": "CEMEX CONSTRUCTION MATERIALS ATLANTIC LLC", "industry": null, "tri_facility_id": "37914DXCMN6212C"}}, {"type": "Feature", "geometry": {"type": "Point", "coordinates": [-83.836389, 35.9425]}, "properties": {"facility_name": "KELVION PRODUCTS INC. - KNOXVILLE", "industry": null, "tri_facility_id": "37914MDNMN5050S"}}, {"type": "Feature", "geometry": {"type": "Point", "coordinates": [-83.82694444444444, 35.959722222222226]}, "properties": {"facility_name": "SCHICK MANUFACTURING INC", "industry": null, "tri_facility_id": "37914MRCNS2820M"}}, {"type": "Feature", "geometry": {"type": "Point", "coordinates": [-83.834444, 35.941389]}, "properties": {"facility_name": "PANASONIC ELECTRONIC DEVICES CORP OF AMERICA", "industry": null, "tri_facility_id": "37914MTSSH5105S"}}, {"type": "Feature", "geometry": {"type": "Point", "coordinates": [-83.825556, 35.958333]}, "properties": {"facility_name": "NATIONAL STANDARD CO", "industry": null, "tri_facility_id": "37914NTNLS5427N"}}, {"type": "Feature", "geometry": {"type": "Point", "coordinates": [-83.843954, 35.948633]}, "properties": {"facility_name": "PEPSI COLA KNOXVILLE (APC- 71)", "industry": null, "tri_facility_id": "37914PPSCL2708F"}}, {"type": "Feature", "geometry": {"type": "Point", "coordinates": [-83.827222, 35.96]}, "properties": {"facility_name": "AQUA-CHEM, INC.", "industry": null, "tri_facility_id": "37914QCHMN3001E"}}, {"type": "Feature", "geometry": {"type": "Point", "coordinates": [-83.845833, 35.95]}, "properties": {"facility_name": "EXPLORE INDUSTRIES USA INC", "industry": null, "tri_facility_id": "37914SRYBT2601S"}}, {"type": "Feature", "geometry": {"type": "Point", "coordinates": [-83.8446, 35.9473]}, "properties": {"facility_name": "SEA RAY BOATS, RIVERVIEW FACILITY", "industry": null, "tri_facility_id": "37914SRYBT5502I"}}, {"type": "Feature", "geometry": {"type": "Point", "coordinates": [-83.833333, 35.946667]}, "properties": {"facility_name": "TRW INC TRANSPORTATION ELECTRONICS DIV", "industry": null, "tri_facility_id": "37914TRWNC5008N"}}, {"type": "Feature", "geometry": {"type": "Point", "coordinates": [-83.896667, 35.981111]}, "properties": {"facility_name": "KNOX PLATING WORKS INC", "industry": null, "tri_facility_id": "37915KNXPL2327M"}}, {"type": "Feature", "geometry": {"type": "Point", "coordinates": [-83.915278, 35.972222]}, "properties": {"facility_name": "LAY PACKING CO INC", "industry": null, "tri_facility_id": "37915LYPCK400EA"}}, {"type": "Feature", "geometry": {"type": "Point", "coordinates": [-83.93, 35.943888888888885]}, "properties": {"facility_name": "READY MIX USA LLC-NEYLAND DRIVE PLANT", "industry": null, "tri_facility_id": "37916NYLND22NEY"}}, {"type": "Feature", "geometry": {"type": "Point", "coordinates": [-83.902778, 35.996389]}, "properties": {"facility_name": "LEVI STRAUSS & CO", "industry": null, "tri_facility_id": "37917LVSTR2700H"}}, {"type": "Feature", "geometry": {"type": "Point", "coordinates": [-83.939722, 35.995278]}, "properties": {"facility_name": "SILVER FURNITURE CO", "industry": null, "tri_facility_id": "37917SLVRF2742H"}}, {"type": "Feature", "geometry": {"type": "Point", "coordinates": [-83.914607, 35.985066]}, "properties": {"facility_name": "TENNESSEE PRESS INC", "industry": null, "tri_facility_id": "37917TNNSS1400S"}}, {"type": "Feature", "geometry": {"type": "Point", "coordinates": [-83.918056, 35.973056]}, "properties": {"facility_name": "KNOXVILLE MILLING CO", "industry": null, "tri_facility_id": "37917WHTLL218EA"}}, {"type": "Feature", "geometry": {"type": "Point", "coordinates": [-83.93083333333334, 36.068333333333335]}, "properties": {"facility_name": "TRU HALLS", "industry": null, "tri_facility_id": "37918CLYTN3938F"}}, {"type": "Feature", "geometry": {"type": "Point", "coordinates": [-83.895314, 36.032246]}, "properties": {"facility_name": "CORECHEM INC.", "industry": null, "tri_facility_id": "37918GRNWY4320G"}}, {"type": "Feature", "geometry": {"type": "Point", "coordinates": [-83.882572, 36.077498]}, "properties": {"facility_name": "THUNDER CRAFT BOATS INC", "industry": null, "tri_facility_id": "37918THNDR6412A"}}, {"type": "Feature", "geometry": {"type": "Point", "coordinates": [-84.0006, 35.9136]}, "properties": {"facility_name": "BRIGGS INDUSTRIES INC", "industry": null, "tri_facility_id": "37919BRGGS5040N"}}, {"type": "Feature", "geometry": {"type": "Point", "coordinates": [-83.964389, 35.951163]}, "properties": {"facility_name": "MERRITT-HOLLAND CO", "industry": null, "tri_facility_id": "37919MRRTT200LI"}}, {"type": "Feature", "geometry": {"type": "Point", "coordinates": [-83.78944444444444, 35.894999999999996]}, "properties": {"facility_name": "BULLET BOATS INC.", "industry": null, "tri_facility_id": "37920BLLTB8819V"}}, {"type": "Feature", "geometry": {"type": "Point", "coordinates": [-83.94, 35.95055555555556]}, "properties": {"facility_name": "FULTON BELLOWS & COMPONENTS INC", "industry": null, "tri_facility_id": "37920FLTNB2300K"}}, {"type": "Feature", "geometry": {"type": "Point", "coordinates": [-83.91027777777778, 35.95944444444445]}, "properties": {"facility_name": "MARATHON PETROLEUM CO - KNOXVILLE TN ASP TERMINAL", "industry": null, "tri_facility_id": "37920MRTHN1808J"}}, {"type": "Feature", "geometry": {"type": "Point", "coordinates": [-83.99083333333333, 35.965833333333336]}, "properties": {"facility_name": "LUXOTTICA OPTICAL MANUFACTURING NORTH AMERICA MIDDLE CREE", "industry": null, "tri_facility_id": "37921CLVSN4716M"}}, {"type": "Feature", "geometry": {"type": "Point", "coordinates": [-83.955833, 35.9775]}, "properties": {"facility_name": "CMC STEEL TENNESSEE", "industry": null, "tri_facility_id": "37921FLRDS1919T"}}, {"type": "Feature", "geometry": {"type": "Point", "coordinates": [-84.0125, 35.958056]}, "properties": {"facility_name": "GREENKOTE IPC", "industry": null, "tri_facility_id": "37921FNCLR1737L"}}, {"type": "Feature", "geometry": {"type": "Point", "coordinates": [-84.0068, 35.9571]}, "properties": {"facility_name": "BREED TECHS INC", "industry": null, "tri_facility_id": "37921LLDTM1601M"}}, {"type": "Feature", "geometry": {"type": "Point", "coordinates": [-83.9864, 35.9687]}, "properties": {"facility_name": "MIDSOUTH ICE & COLD STORAGE", "industry": null, "tri_facility_id": "37921MDSTH4611W"}}, {"type": "Feature", "geometry": {"type": "Point", "coordinates": [-83.940833, 35.96]}, "properties": {"facility_name": "ROHM & HAAS CHEMICALS LLC - KNOXVILLE SITE", "industry": null, "tri_facility_id": "37921RHMND730DA"}}, {"type": "Feature", "geometry": {"type": "Point", "coordinates": [-84.011111, 35.961389]}, "properties": {"facility_name": "SCREEN ARTS", "industry": null, "tri_facility_id": "37921SCRNR1801M"}}, {"type": "Feature", "geometry": {"type": "Point", "coordinates": [-84.02638888888889, 36.00333333333333]}, "properties": {"facility_name": "SAFETY-KLEEN SYSTEMS KNOXVILLE (KNO)", "industry": null, "tri_facility_id": "37921SFTYK6617P"}}, {"type": "Feature", "geometry": {"type": "Point", "coordinates": [-83.950278, 35.983611]}, "properties": {"facility_name": "TAMKO ROOFING PRODS INC", "industry": null, "tri_facility_id": "37921TMKSP2506J"}}, {"type": "Feature", "geometry": {"type": "Point", "coordinates": [-83.99472222222222, 35.95916666666667]}, "properties": {"facility_name": "EXXONMOBIL CORP KNOXVILLE TERMINAL", "industry": null, "tri_facility_id": "37921XXNCS5009M"}}, {"type": "Feature", "geometry": {"type": "Point", "coordinates": [-84.009167, 36.051389]}, "properties": {"facility_name": "PLASTI-LINE INC", "industry": null, "tri_facility_id": "37950PLSTL623EE"}}, {"type": "Feature", "geometry": {"type": "Point", "coordinates": [-83.943889, 35.965278]}, "properties": {"facility_name": "RODDY COCA-COLA BOTTLING CO INC", "industry": null, "tri_facility_id": "37950RDDYC2200L"}}, {"type": "Feature", "geometry": {"type": "Point", "coordinates": [-83.83388888888888, 35.9525]}, "properties": {"facility_name": "ASHLAND DISTRIBUTION  - KNOXVILLE", "industry": null, "tri_facility_id": "38106SHLND5263N"}}]}