{"type": "FeatureCollection", "features": [{"type": "Feature", "properties": {"area_id": 2796, "city": "Greensboro", "state": "NC", "city_survey": true, "cat": "Best", "grade": "A", "label": "A1", "res": true, "com": false, "ind": false, "holc_grade": "A"}, "geometry": {"type": "Polygon", "coordinates": [[[-79.79722, 36.08983], [-79.79732, 36.08939], [-79.79736, 36.08904], [-79.79743, 36.08905], [-79.79867, 36.08911], [-79.79967, 36.08916], [-79.80069, 36.08921], [-79.80177, 36.08928], [-79.80293, 36.08938], [-79.80293, 36.08994], [-79.80292, 36.09075], [-79.80291, 36.09105], [-79.80288, 36.09148], [-79.8029, 36.09197], [-79.80292, 36.0924], [-79.80307, 36.09258], [-79.80497, 36.09266], [-79.80493, 36.09391], [-79.804768, 36.094149], [-79.80455, 36.09447], [-79.80515, 36.09499], [-79.80554, 36.09537], [-79.80538, 36.09632], [-79.80528, 36.09679], [-79.80506, 36.09761], [-79.80491, 36.09812], [-79.80476, 36.09839], [-79.80442, 36.09867], [-79.80427, 36.09821], [-79.80417, 36.09788], [-79.80394, 36.09751], [-79.80379, 36.09724], [-79.8035, 36.09696], [-79.80317, 36.09673], [-79.80295, 36.09664], [-79.80244, 36.09693], [-79.80241, 36.09719], [-79.80249, 36.09766], [-79.80255, 36.09821], [-79.80062, 36.0982], [-79.79945, 36.09826], [-79.79888, 36.09829], [-79.79893, 36.09719], [-79.79732, 36.096], [-79.79707, 36.09588], [-79.79657, 36.09586], [-79.79579, 36.09581], [-79.79523, 36.09571], [-79.79465, 36.09563], [-79.79426, 36.0957], [-79.79394, 36.09579], [-79.79343, 36.09598], [-79.79201, 36.09651], [-79.79126, 36.09675], [-79.79066, 36.09684], [-79.78997, 36.09687], [-79.78997, 36.09716], [-79.79004, 36.09772], [-79.79116, 36.09765], [-79.79417, 36.09733], [-79.79436, 36.09793], [-79.79449, 36.09856], [-79.79459, 36.09951], [-79.79631, 36.09949], [-79.79765, 36.09951], [-79.79992, 36.09953], [-79.80487, 36.09956], [-79.80568, 36.09955], [-79.80602, 36.09951], [-79.80619, 36.09944], [-79.80642, 36.09931], [-79.80662, 36.09914], [-79.80679, 36.09808], [-79.80685, 36.09677], [-79.80684, 36.09619], [-79.80684, 36.09558], [-79.80686, 36.09502], [-79.80702, 36.095], [-79.80751, 36.095], [-79.80795, 36.095], [-79.80849, 36.09507], [-79.8089, 36.09521], [-79.80943, 36.09536], [-79.80991, 36.09547], [-79.810081, 36.095233], [-79.81009, 36.09522], [-79.81032, 36.095], [-79.81077, 36.09467], [-79.81108, 36.09446], [-79.81146, 36.09423], [-79.81194, 36.094], [-79.81175, 36.09351], [-79.81162, 36.09279], [-79.81145, 36.09221], [-79.81146, 36.09186], [-79.81192, 36.09213], [-79.81256, 36.09249], [-79.81315, 36.09278], [-79.81383, 36.09296], [-79.81428, 36.0938], [-79.81488, 36.09525], [-79.814628, 36.095434], [-79.81451, 36.09552], [-79.81405, 36.09569], [-79.81352, 36.09586], [-79.81302, 36.09595], [-79.81254, 36.09593], [-79.81179, 36.09593], [-79.811, 36.09595], [-79.8104, 36.09599], [-79.81008, 36.096], [-79.80959, 36.09592], [-79.80915, 36.09583], [-79.80879, 36.09582], [-79.8085, 36.09591], [-79.80824, 36.09612], [-79.80808, 36.09649], [-79.80787, 36.09705], [-79.80775, 36.09757], [-79.80702, 36.09937], [-79.80748, 36.09973], [-79.80784, 36.10011], [-79.80865, 36.09977], [-79.810598, 36.103406], [-79.8106, 36.10341], [-79.810492, 36.103445], [-79.810373, 36.103483], [-79.81032, 36.1035], [-79.810277, 36.1035], [-79.81002, 36.1035], [-79.809678, 36.103461], [-79.80941, 36.10343], [-79.80879, 36.10338], [-79.80823, 36.10336], [-79.80776, 36.10333], [-79.8072, 36.10335], [-79.806795, 36.10342], [-79.80656, 36.10346], [-79.805566, 36.103739], [-79.80542, 36.10378], [-79.805256, 36.103483], [-79.8051, 36.1032], [-79.8049, 36.10276], [-79.80477, 36.10229], [-79.80464, 36.10183], [-79.80456, 36.10159], [-79.80367, 36.10175], [-79.8031, 36.10184], [-79.80069, 36.10296], [-79.80004, 36.10327], [-79.79964, 36.10339], [-79.7954, 36.10322], [-79.79255, 36.10313], [-79.78816, 36.10297], [-79.78814, 36.10184], [-79.78818, 36.10136], [-79.78822, 36.10106], [-79.7883, 36.10047], [-79.78832, 36.1], [-79.78839, 36.09918], [-79.78841, 36.09825], [-79.78841, 36.09724], [-79.788332, 36.097207], [-79.78765, 36.09692], [-79.78768, 36.09667], [-79.78774, 36.09641], [-79.78786, 36.09625], [-79.78806, 36.09635], [-79.78822, 36.09633], [-79.78838, 36.09612], [-79.78844, 36.09497], [-79.78851, 36.094924], [-79.78867, 36.09482], [-79.78911, 36.0947], [-79.78979, 36.09446], [-79.79038, 36.09417], [-79.79084, 36.09391], [-79.79114, 36.09368], [-79.79129, 36.09342], [-79.79139, 36.09307], [-79.79168, 36.09265], [-79.79192, 36.09237], [-79.79295, 36.09148], [-79.79352, 36.09118], [-79.79416, 36.09107], [-79.79511, 36.09106], [-79.79575, 36.09103], [-79.79617, 36.09096], [-79.79652, 36.09087], [-79.796544, 36.090856], [-79.7968, 36.09071], [-79.797, 36.09051], [-79.79718, 36.0902], [-79.79722, 36.08983]]]}}, {"type": "Feature", "properties": {"area_id": 2782, "city": "Greensboro", "state": "NC", "city_survey": true, "cat": "Best", "grade": "A", "label": "A2", "res": true, "com": false, "ind": false, "holc_grade": "A"}, "geometry": {"type": "Polygon", "coordinates": [[[-79.78849, 36.08733], [-79.78838, 36.08724], [-79.78814, 36.08715], [-79.78779, 36.08704], [-79.7874, 36.087], [-79.78745, 36.08313], [-79.78731, 36.0829], [-79.78709, 36.08277], [-79.78678, 36.08266], [-79.7866, 36.0825], [-79.78661, 36.08214], [-79.78666, 36.08185], [-79.7868, 36.08152], [-79.78695, 36.08108], [-79.78701, 36.08072], [-79.78718, 36.08061], [-79.78909, 36.08152], [-79.789568, 36.081698], [-79.78979, 36.08178], [-79.79022, 36.08192], [-79.79062, 36.08197], [-79.79084, 36.08192], [-79.7913, 36.08192], [-79.79186, 36.08198], [-79.79241, 36.08214], [-79.79274, 36.08227], [-79.79285, 36.08309], [-79.79295, 36.08338], [-79.7932, 36.0836], [-79.79363, 36.08366], [-79.79388, 36.08377], [-79.79394, 36.08413], [-79.79393, 36.08468], [-79.79394, 36.08552], [-79.79406, 36.08601], [-79.79377, 36.08619], [-79.79353, 36.08638], [-79.79333, 36.08654], [-79.79308, 36.08694], [-79.79281, 36.08738], [-79.79248, 36.08776], [-79.79174, 36.08774], [-79.79176, 36.08754], [-79.789086, 36.087474], [-79.78851, 36.08746], [-79.78849, 36.08733]]]}}, {"type": "Feature", "properties": {"area_id": 2800, "city": "Greensboro", "state": "NC", "city_survey": true, "cat": "Best", "grade": "A", "label": "A3", "res": true, "com": false, "ind": false, "holc_grade": "A"}, "geometry": {"type": "Polygon", "coordinates": [[[-79.81506, 36.07165], [-79.81509, 36.07016], [-79.81515, 36.06922], [-79.8231, 36.06943], [-79.82752, 36.06954], [-79.82756, 36.06992], [-79.82752, 36.07125], [-79.82748, 36.07221], [-79.82735, 36.07303], [-79.82733, 36.07333], [-79.82734, 36.07398], [-79.827387, 36.074407], [-79.82755, 36.0759], [-79.82966, 36.07714], [-79.82923, 36.07798], [-79.82909, 36.07842], [-79.82887, 36.07923], [-79.82906, 36.07974], [-79.82909, 36.08012], [-79.82877, 36.08073], [-79.82813, 36.08155], [-79.82764, 36.08216], [-79.82749, 36.08285], [-79.82678, 36.08355], [-79.82639, 36.08409], [-79.82602, 36.08423], [-79.82536, 36.08427], [-79.82476, 36.08469], [-79.82423, 36.08475], [-79.82384, 36.08457], [-79.82277, 36.08436], [-79.82227, 36.08407], [-79.8219, 36.08355], [-79.82181, 36.0831], [-79.82147, 36.08269], [-79.82057, 36.08206], [-79.82001, 36.08188], [-79.81935, 36.08184], [-79.81903, 36.08165], [-79.8185, 36.0808], [-79.81774, 36.08053], [-79.81719, 36.08019], [-79.81644, 36.07963], [-79.81591, 36.07934], [-79.81513, 36.07931], [-79.81465, 36.07909], [-79.81412, 36.07898], [-79.81378, 36.07888], [-79.813623, 36.078833], [-79.81312, 36.07868], [-79.81302, 36.07896], [-79.813, 36.079243], [-79.81298, 36.07953], [-79.81308, 36.08115], [-79.81326, 36.0832], [-79.80949, 36.08325], [-79.80957, 36.08215], [-79.80966, 36.08058], [-79.80837, 36.07979], [-79.80859, 36.07945], [-79.80873, 36.07894], [-79.808766, 36.07861], [-79.80889, 36.07748], [-79.80898, 36.0766], [-79.80848, 36.0769], [-79.80802, 36.07706], [-79.80784, 36.07756], [-79.80749, 36.07818], [-79.80724, 36.0786], [-79.80688, 36.07896], [-79.80629, 36.07916], [-79.80558, 36.07932], [-79.80458, 36.08024], [-79.8047, 36.07767], [-79.80477, 36.07686], [-79.80482, 36.07637], [-79.808, 36.07643], [-79.80811, 36.0763], [-79.80814, 36.07611], [-79.80814, 36.07588], [-79.80808, 36.0756], [-79.80796, 36.07522], [-79.80728, 36.07416], [-79.80698, 36.07358], [-79.8072, 36.07342], [-79.80925, 36.073534], [-79.80966, 36.073557], [-79.80971, 36.07356], [-79.810335, 36.073592], [-79.8107, 36.07361], [-79.81145, 36.07366], [-79.81253, 36.07371], [-79.81364, 36.07375], [-79.814735, 36.073767], [-79.8149, 36.07377], [-79.81495, 36.07346], [-79.81506, 36.07165]]]}}, {"type": "Feature", "properties": {"area_id": 2797, "city": "Greensboro", "state": "NC", "city_survey": true, "cat": "Still Desirable", "grade": "B", "label": "B1", "res": true, "com": false, "ind": false, "holc_grade": "B"}, "geometry": {"type": "Polygon", "coordinates": [[[-79.81202, 36.09852], [-79.8134, 36.09818], [-79.814259, 36.098011], [-79.81457, 36.09795], [-79.8151, 36.09789], [-79.81752, 36.09749], [-79.81938, 36.10021], [-79.81929, 36.10051], [-79.81919, 36.10115], [-79.8191, 36.10157], [-79.81886, 36.1021], [-79.81857, 36.10305], [-79.8172, 36.10296], [-79.81624, 36.10301], [-79.81484, 36.10301], [-79.81478, 36.10323], [-79.81465, 36.10512], [-79.81457, 36.10585], [-79.81444, 36.10616], [-79.80814, 36.10614], [-79.80769, 36.10608], [-79.80734, 36.10595], [-79.80684, 36.10572], [-79.80642, 36.10533], [-79.80615, 36.10497], [-79.80588, 36.10457], [-79.8057, 36.10428], [-79.80542, 36.10378], [-79.805566, 36.103739], [-79.80656, 36.10346], [-79.806795, 36.10342], [-79.8072, 36.10335], [-79.80776, 36.10333], [-79.80823, 36.10336], [-79.80879, 36.10338], [-79.80941, 36.10343], [-79.809678, 36.103461], [-79.81002, 36.1035], [-79.810277, 36.1035], [-79.81032, 36.1035], [-79.810373, 36.103483], [-79.810492, 36.103445], [-79.8106, 36.10341], [-79.81381, 36.10235], [-79.813811, 36.102336], [-79.81392, 36.10047], [-79.81286, 36.09946], [-79.81202, 36.09852]]]}}, {"type": "Feature", "properties": {"area_id": 2783, "city": "Greensboro", "state": "NC", "city_survey": true, "cat": "Still Desirable", "grade": "B", "label": "B2", "res": true, "com": false, "ind": false, "holc_grade": "B"}, "geometry": {"type": "Polygon", "coordinates": [[[-79.789086, 36.087474], [-79.79176, 36.08754], [-79.79174, 36.08774], [-79.79172, 36.08803], [-79.79155, 36.08808], [-79.79121, 36.08812], [-79.79086, 36.08814], [-79.79055, 36.08811], [-79.7903, 36.08811], [-79.79022, 36.08956], [-79.79022, 36.09061], [-79.79018, 36.09142], [-79.79007, 36.09252], [-79.788697, 36.092512], [-79.78824, 36.09251], [-79.78842, 36.09009], [-79.78846, 36.08852], [-79.78847, 36.08836], [-79.788485, 36.088032], [-79.78851, 36.08746], [-79.789086, 36.087474]]]}}, {"type": "Feature", "properties": {"area_id": 2781, "city": "Greensboro", "state": "NC", "city_survey": true, "cat": "Still Desirable", "grade": "B", "label": "B3", "res": true, "com": false, "ind": false, "holc_grade": "B"}, "geometry": {"type": "Polygon", "coordinates": [[[-79.78694, 36.07834], [-79.786957, 36.078345], [-79.78951, 36.07915], [-79.789756, 36.079203], [-79.78979, 36.07921], [-79.79015, 36.07921], [-79.7912, 36.07921], [-79.79309, 36.07926], [-79.79304, 36.0802], [-79.79306, 36.08041], [-79.79316, 36.08055], [-79.79334, 36.08067], [-79.79352, 36.08067], [-79.79377, 36.08068], [-79.79393, 36.08073], [-79.79402, 36.08085], [-79.79407, 36.08099], [-79.79406, 36.08153], [-79.79401, 36.08178], [-79.79398, 36.08204], [-79.79402, 36.08264], [-79.7941, 36.08274], [-79.7947, 36.08275], [-79.79461, 36.08467], [-79.7946, 36.08573], [-79.79432, 36.0859], [-79.79406, 36.08601], [-79.79394, 36.08552], [-79.79393, 36.08468], [-79.79394, 36.08413], [-79.79388, 36.08377], [-79.79363, 36.08366], [-79.7932, 36.0836], [-79.79295, 36.08338], [-79.79285, 36.08309], [-79.79274, 36.08227], [-79.79241, 36.08214], [-79.79186, 36.08198], [-79.7913, 36.08192], [-79.79084, 36.08192], [-79.79062, 36.08197], [-79.79022, 36.08192], [-79.78979, 36.08178], [-79.789568, 36.081698], [-79.78909, 36.08152], [-79.78718, 36.08061], [-79.78701, 36.08072], [-79.78695, 36.08108], [-79.7868, 36.08152], [-79.78666, 36.08185], [-79.78661, 36.08214], [-79.7866, 36.0825], [-79.78678, 36.08266], [-79.78709, 36.08277], [-79.78731, 36.0829], [-79.78745, 36.08313], [-79.7874, 36.087], [-79.78667, 36.08694], [-79.78677, 36.08588], [-79.78623, 36.08585], [-79.78492, 36.08582], [-79.78566, 36.08308], [-79.78583, 36.08251], [-79.78622, 36.08064], [-79.78643, 36.07987], [-79.786574, 36.079339], [-79.78665, 36.07906], [-79.78694, 36.07834]]]}}, {"type": "Feature", "properties": {"area_id": 2785, "city": "Greensboro", "state": "NC", "city_survey": true, "cat": "Still Desirable", "grade": "B", "label": "B4", "res": true, "com": false, "ind": false, "holc_grade": "B"}, "geometry": {"type": "Polygon", "coordinates": [[[-79.77787, 36.08196], [-79.77796, 36.08193], [-79.77825, 36.082], [-79.77904, 36.08229], [-79.77966, 36.08181], [-79.78019, 36.08145], [-79.78118, 36.08078], [-79.78395, 36.07921], [-79.78404, 36.07934], [-79.78405, 36.07994], [-79.78404, 36.08047], [-79.7839, 36.08221], [-79.78384, 36.0828], [-79.78374, 36.08394], [-79.78367, 36.08422], [-79.78367, 36.08488], [-79.78357, 36.08575], [-79.78354, 36.08663], [-79.782592, 36.086583], [-79.77815, 36.08636], [-79.77665, 36.08627], [-79.77544, 36.08624], [-79.775979, 36.08537], [-79.77679, 36.08406], [-79.77787, 36.08196]]]}}, {"type": "Feature", "properties": {"area_id": 2779, "city": "Greensboro", "state": "NC", "city_survey": true, "cat": "Still Desirable", "grade": "B", "label": "B5", "res": true, "com": false, "ind": false, "holc_grade": "B"}, "geometry": {"type": "MultiPolygon", "coordinates": [[[[-79.79846, 36.07174], [-79.798436, 36.072896], [-79.79843, 36.07321], [-79.79846, 36.07338], [-79.79865, 36.07342], [-79.79883, 36.07347], [-79.79896, 36.07359], [-79.79899, 36.07395], [-79.79909, 36.07423], [-79.79916, 36.07458], [-79.79948, 36.07548], [-79.79958, 36.07583], [-79.79963, 36.07639], [-79.79967, 36.07849], [-79.79972, 36.07897], [-79.79979, 36.07937], [-79.79997, 36.07981], [-79.7993, 36.0796], [-79.79889, 36.07958], [-79.79844, 36.07954], [-79.7977, 36.07943], [-79.79712, 36.07934], [-79.795684, 36.078979], [-79.79565, 36.07897], [-79.79526, 36.07886], [-79.79482, 36.07875], [-79.7946, 36.07858], [-79.79451, 36.07798], [-79.79455, 36.07734], [-79.79467, 36.07566], [-79.79471, 36.07507], [-79.79485, 36.07332], [-79.79574, 36.07332], [-79.796098, 36.073332], [-79.79726, 36.07337], [-79.797281, 36.072841], [-79.79732, 36.07188], [-79.79732, 36.07171], [-79.79846, 36.07174]]], [[[-79.80097, 36.07231], [-79.80104, 36.07219], [-79.80119, 36.07212], [-79.80144, 36.07209], [-79.80163, 36.07198], [-79.80174, 36.07179], [-79.80184, 36.0712], [-79.80182, 36.0709], [-79.80109, 36.07069], [-79.8011, 36.06938], [-79.80104, 36.06925], [-79.80096, 36.0692], [-79.80044, 36.06918], [-79.80056, 36.06865], [-79.80125, 36.06868], [-79.80338, 36.06878], [-79.80335, 36.06949], [-79.80326, 36.07057], [-79.80317, 36.0714], [-79.80313, 36.07164], [-79.80318, 36.07183], [-79.8033, 36.0719], [-79.80509, 36.0719], [-79.80514, 36.07131], [-79.80522, 36.07052], [-79.80535, 36.06931], [-79.80543, 36.06906], [-79.80565, 36.06896], [-79.8058, 36.06881], [-79.80595, 36.06865], [-79.80596, 36.06847], [-79.80597, 36.06811], [-79.80767, 36.06818], [-79.80738, 36.07329], [-79.807226, 36.073401], [-79.8072, 36.07342], [-79.80698, 36.07358], [-79.80728, 36.07416], [-79.80796, 36.07522], [-79.80808, 36.0756], [-79.80814, 36.07588], [-79.80814, 36.07611], [-79.80811, 36.0763], [-79.808, 36.07643], [-79.80482, 36.07637], [-79.80477, 36.07686], [-79.8047, 36.07767], [-79.80458, 36.08024], [-79.8042, 36.08049], [-79.80389, 36.08062], [-79.8036, 36.08071], [-79.80316, 36.08084], [-79.80275, 36.08087], [-79.80249, 36.08086], [-79.80226, 36.08093], [-79.80212, 36.08109], [-79.80179, 36.08076], [-79.80149, 36.08047], [-79.80107, 36.08025], [-79.80064, 36.07999], [-79.80057, 36.07917], [-79.80047, 36.07882], [-79.8004, 36.0785], [-79.80028, 36.07813], [-79.80025, 36.07765], [-79.80022, 36.07544], [-79.8001, 36.07457], [-79.80006, 36.07395], [-79.7999, 36.07341], [-79.79987, 36.07317], [-79.79987, 36.072965], [-79.79987, 36.07294], [-79.80092, 36.07296], [-79.80097, 36.07231]], [[-79.80376, 36.0761], [-79.80393, 36.07612], [-79.80407, 36.0761], [-79.80422, 36.07603], [-79.80432, 36.07582], [-79.80611, 36.07589], [-79.80613, 36.07445], [-79.80529, 36.07438], [-79.80463, 36.07431], [-79.80358, 36.07428], [-79.80312, 36.0743], [-79.80309, 36.07449], [-79.80297, 36.07466], [-79.80254, 36.07466], [-79.80251, 36.07574], [-79.80313, 36.07577], [-79.80312, 36.076], [-79.80322, 36.07607], [-79.8033, 36.07613], [-79.80347, 36.0761], [-79.80357, 36.07608], [-79.8037, 36.07608], [-79.80376, 36.0761]]]]}}, {"type": "Feature", "properties": {"area_id": 2795, "city": "Greensboro", "state": "NC", "city_survey": true, "cat": "Still Desirable", "grade": "B", "label": "B6", "res": true, "com": false, "ind": false, "holc_grade": "B"}, "geometry": {"type": "Polygon", "coordinates": [[[-79.81049, 36.06674], [-79.81092, 36.06666], [-79.81261, 36.06639], [-79.815281, 36.065694], [-79.81806, 36.06497], [-79.81814, 36.06597], [-79.8182, 36.06665], [-79.81824, 36.06764], [-79.81827, 36.06807], [-79.81855, 36.06811], [-79.81982, 36.06816], [-79.82891, 36.06828], [-79.82897, 36.06701], [-79.82912, 36.06586], [-79.82918, 36.06489], [-79.830153, 36.064919], [-79.83515, 36.06507], [-79.83682, 36.06512], [-79.8373, 36.06505], [-79.83828, 36.06486], [-79.838, 36.06427], [-79.83799, 36.06423], [-79.83818, 36.06422], [-79.83926, 36.06417], [-79.83981, 36.06415], [-79.84014, 36.06421], [-79.84049, 36.06436], [-79.84079, 36.06453], [-79.84101, 36.06485], [-79.84111, 36.06511], [-79.84121, 36.06539], [-79.84131, 36.06565], [-79.84151, 36.06602], [-79.84103, 36.06648], [-79.84086, 36.06668], [-79.84077, 36.06685], [-79.84072, 36.06705], [-79.84068, 36.06732], [-79.84067, 36.06826], [-79.84065, 36.06844], [-79.84055, 36.06869], [-79.8404, 36.06883], [-79.84011, 36.06891], [-79.83987, 36.06901], [-79.83972, 36.06913], [-79.83953, 36.0694], [-79.83931, 36.06964], [-79.8389, 36.06999], [-79.83835, 36.07037], [-79.83717, 36.07114], [-79.83566, 36.07222], [-79.83496, 36.07262], [-79.83478, 36.07263], [-79.83458, 36.07264], [-79.83425, 36.07269], [-79.83385, 36.07275], [-79.83343, 36.07296], [-79.83284, 36.07337], [-79.83226, 36.07395], [-79.831641, 36.074595], [-79.83154, 36.0747], [-79.83083, 36.07544], [-79.83031, 36.07602], [-79.83, 36.07654], [-79.82966, 36.07714], [-79.82755, 36.0759], [-79.827387, 36.074407], [-79.82734, 36.07398], [-79.82733, 36.07333], [-79.82735, 36.07303], [-79.82748, 36.07221], [-79.82752, 36.07125], [-79.82756, 36.06992], [-79.82752, 36.06954], [-79.8231, 36.06943], [-79.81515, 36.06922], [-79.8152, 36.06855], [-79.815157, 36.068547], [-79.81015, 36.06825], [-79.81015, 36.06677], [-79.81049, 36.06674]]]}}, {"type": "Feature", "properties": {"area_id": 2798, "city": "Greensboro", "state": "NC", "city_survey": true, "cat": "Definitely Declining", "grade": "C", "label": "C1", "res": true, "com": false, "ind": false, "holc_grade": "C"}, "geometry": {"type": "Polygon", "coordinates": [[[-79.77001, 36.09907], [-79.76957, 36.09848], [-79.76869, 36.09764], [-79.76782, 36.09703], [-79.76739, 36.09691], [-79.76559, 36.09914], [-79.765041, 36.09914], [-79.76289, 36.09914], [-79.762861, 36.099324], [-79.76276, 36.09997], [-79.7627, 36.10061], [-79.76263, 36.10192], [-79.76261, 36.10272], [-79.76258, 36.10347], [-79.762619, 36.103501], [-79.76305, 36.10384], [-79.76431, 36.10458], [-79.76462, 36.10476], [-79.76492, 36.10497], [-79.764972, 36.10502], [-79.76523, 36.10527], [-79.76548, 36.10546], [-79.76584, 36.1056], [-79.76631, 36.10573], [-79.7667, 36.10579], [-79.76732, 36.10584], [-79.76762, 36.10591], [-79.76758, 36.1062], [-79.76732, 36.10654], [-79.76715, 36.10692], [-79.76706, 36.10727], [-79.76698, 36.10773], [-79.76685, 36.10855], [-79.76681, 36.10913], [-79.7669, 36.10953], [-79.76728, 36.10972], [-79.76809, 36.11011], [-79.76885, 36.11046], [-79.76936, 36.11074], [-79.77036, 36.11125], [-79.77083, 36.11157], [-79.77101, 36.11178], [-79.77105, 36.11216], [-79.77105, 36.11265], [-79.77098, 36.11302], [-79.77088, 36.11336], [-79.76491, 36.11302], [-79.76497, 36.11191], [-79.76503, 36.11036], [-79.76502, 36.10951], [-79.76452, 36.10946], [-79.76169, 36.10926], [-79.76172, 36.10872], [-79.76179, 36.10769], [-79.76184, 36.10659], [-79.76193, 36.10531], [-79.76189, 36.10507], [-79.761854, 36.104869], [-79.76185, 36.10485], [-79.76182, 36.10468], [-79.761769, 36.104605], [-79.76169, 36.10449], [-79.76156, 36.10439], [-79.7613, 36.10425], [-79.76099, 36.10412], [-79.76051, 36.10393], [-79.76021, 36.10383], [-79.75985, 36.10358], [-79.75959, 36.1032], [-79.75913, 36.10101], [-79.75923, 36.10084], [-79.76024, 36.10032], [-79.76104, 36.09981], [-79.762082, 36.099086], [-79.76212, 36.09906], [-79.761118, 36.099013], [-79.76106, 36.09901], [-79.761018, 36.098997], [-79.76014, 36.09872], [-79.75706, 36.09797], [-79.7568, 36.09797], [-79.756798, 36.09797], [-79.75652, 36.09793], [-79.756078, 36.097786], [-79.755764, 36.097684], [-79.75326, 36.09687], [-79.75329, 36.09403], [-79.75545, 36.09402], [-79.75557, 36.09394], [-79.75562, 36.09326], [-79.75561, 36.09171], [-79.75562, 36.09021], [-79.75569, 36.08883], [-79.755645, 36.087655], [-79.75564, 36.08753], [-79.75279, 36.08748], [-79.75284, 36.08625], [-79.75286, 36.08517], [-79.75679, 36.08524], [-79.756807, 36.085234], [-79.75785, 36.08486], [-79.75784, 36.08502], [-79.75779, 36.08628], [-79.75775, 36.08718], [-79.757744, 36.087246], [-79.75768, 36.088], [-79.75764, 36.08922], [-79.75763, 36.09002], [-79.75765, 36.09074], [-79.75903, 36.09081], [-79.76335, 36.091], [-79.765767, 36.09104], [-79.76634, 36.09105], [-79.76711, 36.09006], [-79.76844, 36.08866], [-79.77158, 36.08887], [-79.77746, 36.08908], [-79.77741, 36.08937], [-79.77734, 36.09021], [-79.77734, 36.0909], [-79.77757, 36.09101], [-79.77848, 36.09111], [-79.77928, 36.09104], [-79.77987, 36.09118], [-79.78046, 36.09144], [-79.78078, 36.09174], [-79.78105, 36.09213], [-79.78117, 36.09245], [-79.78132, 36.09276], [-79.78136, 36.09304], [-79.78127, 36.09437], [-79.78114, 36.0953], [-79.78108, 36.09583], [-79.78098, 36.0966], [-79.780837, 36.097741], [-79.78082, 36.09788], [-79.7811, 36.09795], [-79.78159, 36.09809], [-79.78224, 36.09811], [-79.78283, 36.09812], [-79.78326, 36.09814], [-79.78385, 36.09831], [-79.78435, 36.09855], [-79.78482, 36.09894], [-79.78539, 36.09936], [-79.78596, 36.0997], [-79.78631, 36.09978], [-79.78659, 36.09977], [-79.7869, 36.09985], [-79.78687, 36.10032], [-79.78685, 36.10103], [-79.78684, 36.10155], [-79.78678, 36.10232], [-79.78673, 36.10288], [-79.78637, 36.10273], [-79.78604, 36.10254], [-79.78477, 36.10181], [-79.78456, 36.10245], [-79.78432, 36.10326], [-79.78428, 36.10364], [-79.78421, 36.10394], [-79.7841, 36.10423], [-79.78399, 36.10452], [-79.78365, 36.105], [-79.78149, 36.10712], [-79.78118, 36.10745], [-79.7808, 36.10791], [-79.7807, 36.10814], [-79.78067, 36.10845], [-79.78065, 36.10882], [-79.77856, 36.10921], [-79.77656, 36.10917], [-79.77698, 36.11099], [-79.77423, 36.11084], [-79.77396, 36.11079], [-79.77374, 36.11065], [-79.77347, 36.1106], [-79.77328, 36.11062], [-79.77313, 36.11075], [-79.77197, 36.1107], [-79.77187, 36.10959], [-79.77177, 36.1076], [-79.77165, 36.10582], [-79.77159, 36.10528], [-79.77147, 36.10307], [-79.771383, 36.102574], [-79.77133, 36.10227], [-79.77113, 36.10145], [-79.77058, 36.10011], [-79.77001, 36.09907]]]}}, {"type": "Feature", "properties": {"area_id": 2780, "city": "Greensboro", "state": "NC", "city_survey": true, "cat": "Definitely Declining", "grade": "C", "label": "C2", "res": true, "com": false, "ind": false, "holc_grade": "C"}, "geometry": {"type": "Polygon", "coordinates": [[[-79.800242, 36.080529], [-79.80016, 36.08049], [-79.800079, 36.080492], [-79.79918, 36.08051], [-79.79781, 36.08046], [-79.79713, 36.08031], [-79.79659, 36.08009], [-79.79486, 36.07958], [-79.79486, 36.08019], [-79.79478, 36.08061], [-79.79471, 36.0815], [-79.7947, 36.08275], [-79.7941, 36.08274], [-79.79402, 36.08264], [-79.79398, 36.08204], [-79.79401, 36.08178], [-79.79406, 36.08153], [-79.79407, 36.08099], [-79.79402, 36.08085], [-79.79393, 36.08073], [-79.79377, 36.08068], [-79.79352, 36.08067], [-79.79334, 36.08067], [-79.79316, 36.08055], [-79.79306, 36.08041], [-79.79304, 36.0802], [-79.79309, 36.07926], [-79.7912, 36.07921], [-79.79015, 36.07921], [-79.78979, 36.07921], [-79.789756, 36.079203], [-79.78951, 36.07915], [-79.786957, 36.078345], [-79.78694, 36.07834], [-79.787114, 36.077939], [-79.787125, 36.077916], [-79.78761, 36.0768], [-79.78913, 36.07733], [-79.78936, 36.07742], [-79.78972, 36.07742], [-79.79012, 36.07731], [-79.79115, 36.07708], [-79.79233, 36.07691], [-79.79245, 36.07641], [-79.79252, 36.07546], [-79.79467, 36.07566], [-79.79455, 36.07734], [-79.79451, 36.07798], [-79.7946, 36.07858], [-79.79482, 36.07875], [-79.79526, 36.07886], [-79.79565, 36.07897], [-79.795684, 36.078979], [-79.79712, 36.07934], [-79.7977, 36.07943], [-79.79844, 36.07954], [-79.79889, 36.07958], [-79.7993, 36.0796], [-79.79997, 36.07981], [-79.80059, 36.07996], [-79.80064, 36.07999], [-79.80107, 36.08025], [-79.80149, 36.08047], [-79.80179, 36.08076], [-79.80212, 36.08109], [-79.80224, 36.08121], [-79.802463, 36.081436], [-79.803, 36.08198], [-79.80417, 36.0829], [-79.80455, 36.08325], [-79.80498, 36.08347], [-79.80616, 36.08416], [-79.80745, 36.08486], [-79.8087, 36.08551], [-79.80988, 36.08638], [-79.81089, 36.08716], [-79.81136, 36.08757], [-79.81208, 36.088265], [-79.8125, 36.08867], [-79.81369, 36.08994], [-79.81398, 36.09038], [-79.81458, 36.09119], [-79.81593, 36.09322], [-79.81611, 36.09348], [-79.81614, 36.09372], [-79.81596, 36.09407], [-79.815752, 36.094343], [-79.81567, 36.09445], [-79.815652, 36.094468], [-79.815507, 36.094615], [-79.81488, 36.09525], [-79.81428, 36.0938], [-79.81383, 36.09296], [-79.81315, 36.09278], [-79.81256, 36.09249], [-79.81192, 36.09213], [-79.81146, 36.09186], [-79.81115, 36.09167], [-79.81026, 36.09125], [-79.8087, 36.09052], [-79.80786, 36.09027], [-79.80765, 36.09017], [-79.80727, 36.09014], [-79.80603, 36.0898], [-79.80442, 36.08955], [-79.80312, 36.0894], [-79.80293, 36.08938], [-79.80177, 36.08928], [-79.80069, 36.08921], [-79.79967, 36.08916], [-79.79867, 36.08911], [-79.79743, 36.08905], [-79.79736, 36.08904], [-79.79691, 36.08897], [-79.795757, 36.088902], [-79.79538, 36.08888], [-79.79386, 36.08881], [-79.79262, 36.08876], [-79.79225, 36.08941], [-79.79188, 36.09021], [-79.79161, 36.09066], [-79.79125, 36.09114], [-79.79102, 36.09144], [-79.79061, 36.0919], [-79.79007, 36.09252], [-79.79018, 36.09142], [-79.79022, 36.09061], [-79.79022, 36.08956], [-79.7903, 36.08811], [-79.79055, 36.08811], [-79.79086, 36.08814], [-79.79121, 36.08812], [-79.79155, 36.08808], [-79.79172, 36.08803], [-79.79174, 36.08774], [-79.79248, 36.08776], [-79.79348, 36.08778], [-79.79582, 36.08784], [-79.795981, 36.087849], [-79.79732, 36.08792], [-79.7994, 36.08802], [-79.80142, 36.08811], [-79.8041, 36.08822], [-79.80373, 36.0877], [-79.8032, 36.08701], [-79.80272, 36.08636], [-79.80238, 36.08586], [-79.80223, 36.08554], [-79.80218, 36.08534], [-79.80218, 36.08507], [-79.80227, 36.08483], [-79.8024, 36.08461], [-79.80312, 36.08393], [-79.80328, 36.08362], [-79.80337, 36.08336], [-79.80328, 36.08303], [-79.80294, 36.08247], [-79.801986, 36.081702], [-79.80171, 36.08148], [-79.800797, 36.0808], [-79.80077, 36.08078], [-79.800749, 36.08077], [-79.800242, 36.080529]]]}}, {"type": "Feature", "properties": {"area_id": 2784, "city": "Greensboro", "state": "NC", "city_survey": true, "cat": "Definitely Declining", "grade": "C", "label": "C3", "res": true, "com": false, "ind": false, "holc_grade": "C"}, "geometry": {"type": "Polygon", "coordinates": [[[-79.786574, 36.079339], [-79.78643, 36.07987], [-79.78622, 36.08064], [-79.78583, 36.08251], [-79.78566, 36.08308], [-79.78492, 36.08582], [-79.78623, 36.08585], [-79.78677, 36.08588], [-79.78667, 36.08694], [-79.7874, 36.087], [-79.78779, 36.08704], [-79.78814, 36.08715], [-79.78838, 36.08724], [-79.78849, 36.08733], [-79.78851, 36.08746], [-79.788485, 36.088032], [-79.78847, 36.08836], [-79.78846, 36.08852], [-79.78444, 36.08832], [-79.784509, 36.087808], [-79.78466, 36.08669], [-79.78354, 36.08663], [-79.78357, 36.08575], [-79.78367, 36.08488], [-79.78367, 36.08422], [-79.78374, 36.08394], [-79.78384, 36.0828], [-79.7839, 36.08221], [-79.78404, 36.08047], [-79.78405, 36.07994], [-79.78404, 36.07934], [-79.78395, 36.07921], [-79.78118, 36.08078], [-79.78019, 36.08145], [-79.77966, 36.08181], [-79.77904, 36.08229], [-79.77825, 36.082], [-79.77796, 36.08193], [-79.77787, 36.08196], [-79.77679, 36.08406], [-79.775979, 36.08537], [-79.77544, 36.08624], [-79.7714, 36.0861], [-79.77098, 36.08601], [-79.77046, 36.08575], [-79.77016, 36.08548], [-79.76993, 36.08521], [-79.769854, 36.08509], [-79.769794, 36.084994], [-79.76976, 36.08494], [-79.76959, 36.08463], [-79.76946, 36.08434], [-79.7694, 36.08404], [-79.76936, 36.08387], [-79.7694, 36.08386], [-79.76985, 36.08375], [-79.769989, 36.083698], [-79.7703, 36.08358], [-79.77058, 36.08351], [-79.77106, 36.08333], [-79.77142, 36.08316], [-79.77184, 36.08291], [-79.77219, 36.08272], [-79.77243, 36.08254], [-79.77265, 36.08236], [-79.77289, 36.08216], [-79.7731, 36.08201], [-79.77328, 36.08184], [-79.77349, 36.08161], [-79.77374, 36.08137], [-79.77395, 36.08112], [-79.77418, 36.08085], [-79.77425, 36.08074], [-79.77533, 36.08095], [-79.77618, 36.08118], [-79.77681, 36.08136], [-79.77711, 36.08106], [-79.77733, 36.08084], [-79.77751, 36.08064], [-79.7777, 36.08049], [-79.77806, 36.08023], [-79.77848, 36.07992], [-79.77902, 36.07954], [-79.77878, 36.07925], [-79.77845, 36.07883], [-79.77871, 36.07864], [-79.77923, 36.07834], [-79.77989, 36.07801], [-79.78033, 36.07779], [-79.78044, 36.07769], [-79.7826, 36.07778], [-79.78347, 36.07864], [-79.78499, 36.07775], [-79.78532, 36.077554], [-79.7862, 36.07703], [-79.78743, 36.07634], [-79.78784, 36.076], [-79.78761, 36.0768], [-79.787125, 36.077916], [-79.787114, 36.077939], [-79.78694, 36.07834], [-79.78665, 36.07906], [-79.786574, 36.079339]]]}}, {"type": "Feature", "properties": {"area_id": 2786, "city": "Greensboro", "state": "NC", "city_survey": true, "cat": "Definitely Declining", "grade": "C", "label": "C4", "res": true, "com": false, "ind": false, "holc_grade": "C"}, "geometry": {"type": "Polygon", "coordinates": [[[-79.7738, 36.07539], [-79.77853, 36.07558], [-79.77861, 36.07491], [-79.77875, 36.07369], [-79.77898, 36.07295], [-79.7803, 36.07296], [-79.78014, 36.07565], [-79.78001, 36.07672], [-79.77995, 36.07713], [-79.77989, 36.07741], [-79.77988, 36.07741], [-79.7785, 36.07736], [-79.77532, 36.07729], [-79.77193, 36.07722], [-79.77166, 36.07714], [-79.7695, 36.07706], [-79.76901, 36.07703], [-79.76917, 36.07474], [-79.77382, 36.0749], [-79.7738, 36.07539]]]}}, {"type": "Feature", "properties": {"area_id": 2788, "city": "Greensboro", "state": "NC", "city_survey": true, "cat": "Definitely Declining", "grade": "C", "label": "C5", "res": true, "com": false, "ind": false, "holc_grade": "C"}, "geometry": {"type": "Polygon", "coordinates": [[[-79.76933, 36.06011], [-79.77249, 36.05936], [-79.77243, 36.0605], [-79.77239, 36.06121], [-79.77229, 36.06201], [-79.77224, 36.06266], [-79.77217, 36.06353], [-79.77201, 36.06567], [-79.77287, 36.06573], [-79.77362, 36.06577], [-79.77405, 36.06581], [-79.77843, 36.06589], [-79.7784, 36.06626], [-79.77831, 36.06641], [-79.77822, 36.06653], [-79.77756, 36.06654], [-79.77749, 36.0676], [-79.77743, 36.06796], [-79.7774, 36.06833], [-79.77739, 36.06916], [-79.77738, 36.06949], [-79.77732, 36.06964], [-79.77713, 36.06971], [-79.77075, 36.06949], [-79.76903, 36.06941], [-79.76845, 36.06936], [-79.76849, 36.06863], [-79.76862, 36.06768], [-79.76873, 36.06704], [-79.76878, 36.06647], [-79.76884, 36.06542], [-79.7689, 36.06475], [-79.76902, 36.06392], [-79.76911, 36.06326], [-79.76915, 36.06269], [-79.76919, 36.06239], [-79.76922, 36.06217], [-79.76929, 36.06141], [-79.7693, 36.06078], [-79.76933, 36.06011]]]}}, {"type": "Feature", "properties": {"area_id": 2790, "city": "Greensboro", "state": "NC", "city_survey": true, "cat": "Definitely Declining", "grade": "C", "label": "C6", "res": true, "com": false, "ind": false, "holc_grade": "C"}, "geometry": {"type": "Polygon", "coordinates": [[[-79.79134, 36.05867], [-79.791328, 36.05895], [-79.79132, 36.05914], [-79.791309, 36.059235], [-79.79128, 36.05949], [-79.791268, 36.059761], [-79.79123, 36.06066], [-79.79119, 36.060661], [-79.79059, 36.06067], [-79.79052, 36.06124], [-79.79049, 36.06171], [-79.79043, 36.06216], [-79.79039, 36.06248], [-79.79029, 36.06287], [-79.78999, 36.06391], [-79.78987, 36.064585], [-79.78986, 36.06464], [-79.78982, 36.06497], [-79.7898, 36.06544], [-79.78973, 36.06573], [-79.78957, 36.06591], [-79.78931, 36.06606], [-79.78906, 36.06613], [-79.78884, 36.06618], [-79.7886, 36.06628], [-79.78844, 36.06639], [-79.78828, 36.06653], [-79.788096, 36.06663], [-79.78806, 36.06665], [-79.78781, 36.06668], [-79.78656, 36.06668], [-79.78095, 36.06658], [-79.7798, 36.06655], [-79.77985, 36.06593], [-79.77985, 36.0653], [-79.77986, 36.06454], [-79.77994, 36.06415], [-79.78, 36.06365], [-79.78, 36.06294], [-79.77999, 36.06248], [-79.78, 36.06193], [-79.78007, 36.06156], [-79.78014, 36.05994], [-79.7802, 36.05926], [-79.78025, 36.05894], [-79.78032, 36.05855], [-79.78034, 36.05751], [-79.77971, 36.05747], [-79.77857, 36.0574], [-79.77765, 36.05735], [-79.77746, 36.05716], [-79.777324, 36.056816], [-79.77729, 36.05673], [-79.77727, 36.05647], [-79.77724, 36.05618], [-79.7771, 36.05586], [-79.77697, 36.05558], [-79.77673, 36.05527], [-79.77648, 36.05504], [-79.77621, 36.05489], [-79.77589, 36.05482], [-79.77558, 36.05471], [-79.77568, 36.05459], [-79.77653, 36.05361], [-79.77697, 36.05312], [-79.77767, 36.0523], [-79.77856, 36.05138], [-79.77933, 36.0506], [-79.78109, 36.05172], [-79.78147, 36.0521], [-79.78181, 36.05246], [-79.78231, 36.05296], [-79.7832, 36.05394], [-79.78353, 36.05379], [-79.78386, 36.05367], [-79.78443, 36.05367], [-79.78493, 36.05372], [-79.78535, 36.05376], [-79.78582, 36.05377], [-79.78657, 36.05379], [-79.78818, 36.05364], [-79.78843, 36.05377], [-79.78867, 36.054], [-79.78879, 36.05418], [-79.78894, 36.05429], [-79.78967, 36.05459], [-79.79054, 36.05502], [-79.791417, 36.0554], [-79.79144, 36.05541], [-79.791379, 36.057405], [-79.79134, 36.05867]]]}}, {"type": "Feature", "properties": {"area_id": 2792, "city": "Greensboro", "state": "NC", "city_survey": true, "cat": "Definitely Declining", "grade": "C", "label": "C7", "res": true, "com": false, "ind": false, "holc_grade": "C"}, "geometry": {"type": "Polygon", "coordinates": [[[-79.79168, 36.07171], [-79.79177, 36.07056], [-79.79179, 36.07009], [-79.79179, 36.06937], [-79.79185, 36.06828], [-79.7929, 36.06829], [-79.79311, 36.06836], [-79.79418, 36.06841], [-79.79451, 36.06838], [-79.79607, 36.06847], [-79.796642, 36.068489], [-79.79729, 36.06851], [-79.79827, 36.06856], [-79.79943, 36.06863], [-79.80056, 36.06865], [-79.80044, 36.06918], [-79.79987, 36.06918], [-79.79931, 36.06924], [-79.79849, 36.0693], [-79.7978, 36.06928], [-79.79751, 36.06938], [-79.79747, 36.07002], [-79.79738, 36.07085], [-79.79735, 36.07122], [-79.79732, 36.07171], [-79.79732, 36.07188], [-79.796204, 36.071849], [-79.79331, 36.07177], [-79.79168, 36.07171]]]}}, {"type": "Feature", "properties": {"area_id": 2794, "city": "Greensboro", "state": "NC", "city_survey": true, "cat": "Definitely Declining", "grade": "C", "label": "C8", "res": true, "com": false, "ind": false, "holc_grade": "C"}, "geometry": {"type": "Polygon", "coordinates": [[[-79.805, 36.05331], [-79.80529, 36.05294], [-79.80547, 36.05275], [-79.80556, 36.05257], [-79.80565, 36.05231], [-79.80564, 36.05219], [-79.806767, 36.052234], [-79.80692, 36.05224], [-79.80738, 36.05231], [-79.80837, 36.05233], [-79.8095, 36.05236], [-79.81022, 36.05239], [-79.81107, 36.05241], [-79.81241, 36.05246], [-79.81432, 36.0525], [-79.81558, 36.052367], [-79.81593, 36.05233], [-79.81675, 36.05228], [-79.81761, 36.05224], [-79.82022, 36.05226], [-79.82228, 36.05217], [-79.82336, 36.05206], [-79.82436, 36.052], [-79.8253, 36.05192], [-79.82597, 36.05189], [-79.8272, 36.05193], [-79.8283, 36.05212], [-79.8293, 36.05227], [-79.82988, 36.05235], [-79.83046, 36.0524], [-79.83139, 36.05245], [-79.83199, 36.05255], [-79.83284, 36.05266], [-79.833015, 36.052681], [-79.83367, 36.05276], [-79.83347, 36.05432], [-79.83332, 36.05641], [-79.83329, 36.05701], [-79.83318, 36.05774], [-79.83306, 36.05891], [-79.83296, 36.06004], [-79.8342, 36.06016], [-79.83555, 36.06028], [-79.83641, 36.06038], [-79.83713, 36.06043], [-79.837225, 36.060542], [-79.83741, 36.06076], [-79.83786, 36.06381], [-79.83799, 36.06423], [-79.838, 36.06427], [-79.83828, 36.06486], [-79.8373, 36.06505], [-79.83682, 36.06512], [-79.83515, 36.06507], [-79.830153, 36.064919], [-79.82918, 36.06489], [-79.82912, 36.06586], [-79.82897, 36.06701], [-79.82891, 36.06828], [-79.81982, 36.06816], [-79.81855, 36.06811], [-79.81827, 36.06807], [-79.81824, 36.06764], [-79.8182, 36.06665], [-79.81814, 36.06597], [-79.81806, 36.06497], [-79.815281, 36.065694], [-79.81261, 36.06639], [-79.81092, 36.06666], [-79.81049, 36.06674], [-79.81015, 36.06677], [-79.81015, 36.06594], [-79.81019, 36.06552], [-79.81021, 36.06496], [-79.81023, 36.06405], [-79.80946, 36.06407], [-79.80812, 36.06425], [-79.80714, 36.06436], [-79.80716, 36.06491], [-79.80726, 36.06571], [-79.80735, 36.06628], [-79.80562, 36.06652], [-79.8055, 36.06807], [-79.80597, 36.06811], [-79.80596, 36.06847], [-79.80595, 36.06865], [-79.8058, 36.06881], [-79.80565, 36.06896], [-79.80543, 36.06906], [-79.80535, 36.06931], [-79.80522, 36.07052], [-79.80514, 36.07131], [-79.80509, 36.0719], [-79.8033, 36.0719], [-79.80318, 36.07183], [-79.80313, 36.07164], [-79.80317, 36.0714], [-79.80326, 36.07057], [-79.80335, 36.06949], [-79.80338, 36.06878], [-79.80125, 36.06868], [-79.80056, 36.06865], [-79.80065, 36.06774], [-79.80071, 36.06619], [-79.80079, 36.06537], [-79.8012, 36.06505], [-79.801207, 36.064967], [-79.80129, 36.06405], [-79.80371, 36.06375], [-79.80372, 36.06244], [-79.80379, 36.05942], [-79.80376, 36.05865], [-79.80386, 36.05646], [-79.80414, 36.05491], [-79.804141, 36.054907], [-79.80436, 36.05433], [-79.80467, 36.05372], [-79.805, 36.05331]], [[-79.826532, 36.060501], [-79.82664, 36.06037], [-79.82679, 36.06008], [-79.82691, 36.05978], [-79.82704, 36.0594], [-79.8272, 36.05907], [-79.82735, 36.05875], [-79.82755, 36.05845], [-79.82772, 36.05821], [-79.82796, 36.05792], [-79.82811, 36.05781], [-79.82834, 36.05759], [-79.82876, 36.0573], [-79.82913, 36.05699], [-79.82918, 36.05691], [-79.82875, 36.05682], [-79.82826, 36.05674], [-79.82599, 36.05631], [-79.82375, 36.05662], [-79.82329, 36.0567], [-79.82328, 36.0567], [-79.82313, 36.05677], [-79.82325, 36.05765], [-79.82334, 36.05843], [-79.82341, 36.05908], [-79.82351, 36.05981], [-79.82363, 36.06019], [-79.82366, 36.0605], [-79.82372, 36.0607], [-79.82385, 36.06077], [-79.82397, 36.06083], [-79.826047, 36.060718], [-79.8262, 36.06071], [-79.8265, 36.06054], [-79.826532, 36.060501]]]}}, {"type": "Feature", "properties": {"area_id": 2799, "city": "Greensboro", "state": "NC", "city_survey": true, "cat": "Definitely Declining", "grade": "C", "label": "C9", "res": true, "com": false, "ind": false, "holc_grade": "C"}, "geometry": {"type": "Polygon", "coordinates": [[[-79.8505, 36.06909], [-79.8487, 36.06916], [-79.84868, 36.06886], [-79.84872, 36.06849], [-79.84874, 36.06806], [-79.8489, 36.06642], [-79.84899, 36.06537], [-79.84902, 36.06456], [-79.8493, 36.06451], [-79.84963, 36.06439], [-79.84992, 36.06424], [-79.85017, 36.06401], [-79.85028, 36.06388], [-79.85043, 36.06365], [-79.85054, 36.06341], [-79.85085, 36.06211], [-79.85135, 36.06051], [-79.85523, 36.06056], [-79.85538, 36.05996], [-79.85543, 36.05948], [-79.85549, 36.05901], [-79.85561, 36.05853], [-79.85579, 36.05777], [-79.85586, 36.05725], [-79.85592, 36.05672], [-79.856, 36.05618], [-79.85945, 36.05371], [-79.8605, 36.05291], [-79.86075, 36.05278], [-79.86083, 36.05349], [-79.8609, 36.05458], [-79.86093, 36.05793], [-79.86087, 36.05905], [-79.86076, 36.05993], [-79.86069, 36.06067], [-79.86058, 36.06135], [-79.86028, 36.06248], [-79.86004, 36.06335], [-79.85941, 36.0652], [-79.85807, 36.06761], [-79.85746, 36.0682], [-79.85655, 36.06891], [-79.855552, 36.068937], [-79.855374, 36.068942], [-79.85327, 36.069], [-79.8505, 36.06909]]]}}, {"type": "Feature", "properties": {"area_id": 2787, "city": "Greensboro", "state": "NC", "city_survey": true, "cat": "Hazardous", "grade": "D", "label": "D1", "res": true, "com": false, "ind": false, "holc_grade": "D"}, "geometry": {"type": "Polygon", "coordinates": [[[-79.76456, 36.0625], [-79.7664, 36.06259], [-79.76678, 36.06259], [-79.76719, 36.06252], [-79.76754, 36.06237], [-79.767749, 36.062221], [-79.76827, 36.06185], [-79.76876, 36.06139], [-79.7693, 36.06078], [-79.76929, 36.06141], [-79.76922, 36.06217], [-79.76919, 36.06239], [-79.76915, 36.06269], [-79.76911, 36.06326], [-79.76902, 36.06392], [-79.7689, 36.06475], [-79.76884, 36.06542], [-79.76878, 36.06647], [-79.76873, 36.06704], [-79.76862, 36.06768], [-79.76849, 36.06863], [-79.76845, 36.06936], [-79.76903, 36.06941], [-79.77075, 36.06949], [-79.77713, 36.06971], [-79.77732, 36.06964], [-79.77738, 36.06949], [-79.77739, 36.06916], [-79.77907, 36.0692], [-79.78069, 36.06921], [-79.78086, 36.06904], [-79.7809, 36.06889], [-79.78087, 36.06867], [-79.78083, 36.06845], [-79.78083, 36.06773], [-79.78087, 36.0672], [-79.78095, 36.06658], [-79.78656, 36.06668], [-79.78525, 36.06753], [-79.78431, 36.06819], [-79.78371, 36.06871], [-79.783669, 36.069296], [-79.78365, 36.06957], [-79.78355, 36.07191], [-79.78387, 36.07219], [-79.78368, 36.07582], [-79.78417, 36.07586], [-79.784271, 36.075864], [-79.785001, 36.075895], [-79.78609, 36.07594], [-79.78784, 36.076], [-79.78743, 36.07634], [-79.7862, 36.07703], [-79.78532, 36.077554], [-79.78499, 36.07775], [-79.78347, 36.07864], [-79.7826, 36.07778], [-79.78044, 36.07769], [-79.78033, 36.07779], [-79.77989, 36.07801], [-79.77923, 36.07834], [-79.77871, 36.07864], [-79.77845, 36.07883], [-79.77796, 36.07844], [-79.7772, 36.07889], [-79.77609, 36.07944], [-79.77545, 36.07983], [-79.77533, 36.08095], [-79.77425, 36.08074], [-79.77418, 36.08085], [-79.77395, 36.08112], [-79.77374, 36.08137], [-79.77349, 36.08161], [-79.77328, 36.08184], [-79.7731, 36.08201], [-79.77289, 36.08216], [-79.77265, 36.08236], [-79.77243, 36.08254], [-79.77219, 36.08272], [-79.77184, 36.08291], [-79.77142, 36.08316], [-79.77106, 36.08333], [-79.77058, 36.08351], [-79.7703, 36.08358], [-79.769989, 36.083698], [-79.76985, 36.08375], [-79.7694, 36.08386], [-79.76888, 36.08398], [-79.76821, 36.08394], [-79.76666, 36.08388], [-79.76562, 36.08381], [-79.76446, 36.08375], [-79.76377, 36.08371], [-79.76134, 36.08361], [-79.75865, 36.0836], [-79.75753, 36.08356], [-79.756971, 36.083521], [-79.75696, 36.08352], [-79.757037, 36.082902], [-79.75705, 36.0828], [-79.757065, 36.082639], [-79.75722, 36.08097], [-79.75747, 36.07847], [-79.75764, 36.07702], [-79.757644, 36.076803], [-79.75767, 36.0754], [-79.757653, 36.075208], [-79.75764, 36.07507], [-79.757655, 36.075065], [-79.76036, 36.07417], [-79.760368, 36.074153], [-79.7605, 36.07386], [-79.76063, 36.07317], [-79.76069, 36.07256], [-79.76077, 36.07194], [-79.76082, 36.07171], [-79.76092, 36.07153], [-79.76124, 36.07138], [-79.76127, 36.07095], [-79.76128, 36.07004], [-79.76136, 36.06849], [-79.76141, 36.06756], [-79.76148, 36.06686], [-79.76154, 36.06606], [-79.76155, 36.06568], [-79.76152, 36.06541], [-79.76142, 36.06508], [-79.76137, 36.06492], [-79.76116, 36.06479], [-79.76068, 36.06468], [-79.76006, 36.06456], [-79.75945, 36.06441], [-79.75888, 36.06424], [-79.75833, 36.06408], [-79.75786, 36.06387], [-79.75784, 36.0629], [-79.7579, 36.06243], [-79.75803, 36.06226], [-79.75828, 36.06221], [-79.75893, 36.06225], [-79.759144, 36.06226], [-79.76039, 36.06232], [-79.76139, 36.06238], [-79.76364, 36.06245], [-79.76456, 36.0625]], [[-79.77382, 36.0749], [-79.76917, 36.07474], [-79.76901, 36.07703], [-79.7695, 36.07706], [-79.77166, 36.07714], [-79.77193, 36.07722], [-79.77532, 36.07729], [-79.7785, 36.07736], [-79.77988, 36.07741], [-79.77989, 36.07741], [-79.77995, 36.07713], [-79.78001, 36.07672], [-79.78014, 36.07565], [-79.7803, 36.07296], [-79.77898, 36.07295], [-79.77875, 36.07369], [-79.77788, 36.07362], [-79.77587, 36.0735], [-79.77394, 36.07343], [-79.77382, 36.0749]]]}}, {"type": "Feature", "properties": {"area_id": 2789, "city": "Greensboro", "state": "NC", "city_survey": true, "cat": "Hazardous", "grade": "D", "label": "D2", "res": true, "com": false, "ind": false, "holc_grade": "D"}, "geometry": {"type": "Polygon", "coordinates": [[[-79.77471, 36.05606], [-79.77522, 36.0556], [-79.77589, 36.05482], [-79.77621, 36.05489], [-79.77648, 36.05504], [-79.77673, 36.05527], [-79.77697, 36.05558], [-79.7771, 36.05586], [-79.77724, 36.05618], [-79.77727, 36.05647], [-79.77729, 36.05673], [-79.777324, 36.056816], [-79.77746, 36.05716], [-79.77765, 36.05735], [-79.77857, 36.0574], [-79.77971, 36.05747], [-79.78034, 36.05751], [-79.78032, 36.05855], [-79.78025, 36.05894], [-79.7802, 36.05926], [-79.78014, 36.05994], [-79.78007, 36.06156], [-79.78, 36.06193], [-79.77999, 36.06248], [-79.78, 36.06294], [-79.78, 36.06365], [-79.77994, 36.06415], [-79.77986, 36.06454], [-79.77985, 36.0653], [-79.77985, 36.06593], [-79.7798, 36.06655], [-79.77822, 36.06653], [-79.77831, 36.06641], [-79.7784, 36.06626], [-79.77843, 36.06589], [-79.77405, 36.06581], [-79.77362, 36.06577], [-79.77287, 36.06573], [-79.77201, 36.06567], [-79.77217, 36.06353], [-79.77224, 36.06266], [-79.77229, 36.06201], [-79.77239, 36.06121], [-79.77243, 36.0605], [-79.77249, 36.05936], [-79.77257, 36.05898], [-79.77255, 36.05842], [-79.77262, 36.05821], [-79.77277, 36.05801], [-79.77345, 36.05729], [-79.774072, 36.056677], [-79.77412, 36.05663], [-79.77471, 36.05606]]]}}, {"type": "Feature", "properties": {"area_id": 2791, "city": "Greensboro", "state": "NC", "city_survey": true, "cat": "Hazardous", "grade": "D", "label": "D3", "res": true, "com": false, "ind": false, "holc_grade": "D"}, "geometry": {"type": "Polygon", "coordinates": [[[-79.792093, 36.053199], [-79.79212, 36.05317], [-79.79255, 36.05287], [-79.79318, 36.05248], [-79.79362, 36.05225], [-79.7942, 36.05208], [-79.79478, 36.05193], [-79.79587, 36.05175], [-79.79686, 36.05173], [-79.79721, 36.0518], [-79.79876, 36.05188], [-79.80183, 36.05201], [-79.80564, 36.05219], [-79.80565, 36.05231], [-79.80556, 36.05257], [-79.80547, 36.05275], [-79.80529, 36.05294], [-79.805, 36.05331], [-79.80467, 36.05372], [-79.80436, 36.05433], [-79.804141, 36.054907], [-79.80414, 36.05491], [-79.80386, 36.05646], [-79.80376, 36.05865], [-79.80379, 36.05942], [-79.80372, 36.06244], [-79.80371, 36.06375], [-79.80129, 36.06405], [-79.801207, 36.064967], [-79.8012, 36.06505], [-79.80079, 36.06537], [-79.80071, 36.06619], [-79.80065, 36.06774], [-79.80056, 36.06865], [-79.79943, 36.06863], [-79.79827, 36.06856], [-79.79729, 36.06851], [-79.796642, 36.068489], [-79.79607, 36.06847], [-79.79451, 36.06838], [-79.79418, 36.06841], [-79.79311, 36.06836], [-79.7929, 36.06829], [-79.79185, 36.06828], [-79.79186, 36.06757], [-79.79196, 36.06707], [-79.79213, 36.06629], [-79.79222, 36.06578], [-79.79236, 36.06527], [-79.792372, 36.06499], [-79.79238, 36.06482], [-79.79233, 36.06452], [-79.79226, 36.06417], [-79.79218, 36.06293], [-79.79214, 36.06257], [-79.79215, 36.06229], [-79.79219, 36.06075], [-79.79201, 36.06069], [-79.79123, 36.06066], [-79.791268, 36.059761], [-79.79128, 36.05949], [-79.791309, 36.059235], [-79.79132, 36.05914], [-79.791328, 36.05895], [-79.79134, 36.05867], [-79.791379, 36.057405], [-79.79144, 36.05541], [-79.79147, 36.05512], [-79.79147, 36.05471], [-79.79149, 36.05442], [-79.79152, 36.05417], [-79.791597, 36.053912], [-79.79161, 36.05387], [-79.79175, 36.05356], [-79.792093, 36.053199]]]}}, {"type": "Feature", "properties": {"area_id": 11349, "city": "Greensboro", "state": "NC", "city_survey": true, "cat": "Industrial and Commercial", "grade": null, "label": "Industrial and Commercial", "res": false, "com": true, "ind": true, "holc_grade": null}, "geometry": {"type": "MultiPolygon", "coordinates": [[[[-79.79043, 36.06216], [-79.79049, 36.06171], [-79.79052, 36.06124], [-79.79059, 36.06067], [-79.79119, 36.060661], [-79.79123, 36.06066], [-79.79201, 36.06069], [-79.79219, 36.06075], [-79.79215, 36.06229], [-79.79214, 36.06257], [-79.79218, 36.06293], [-79.79226, 36.06417], [-79.79233, 36.06452], [-79.79238, 36.06482], [-79.792372, 36.06499], [-79.79236, 36.06527], [-79.79222, 36.06578], [-79.79213, 36.06629], [-79.79196, 36.06707], [-79.79186, 36.06757], [-79.79185, 36.06828], [-79.79179, 36.06937], [-79.79179, 36.07009], [-79.79177, 36.07056], [-79.79168, 36.07171], [-79.79331, 36.07177], [-79.796204, 36.071849], [-79.79732, 36.07188], [-79.797281, 36.072841], [-79.79726, 36.07337], [-79.796098, 36.073332], [-79.79574, 36.07332], [-79.79485, 36.07332], [-79.79471, 36.07507], [-79.79467, 36.07566], [-79.79252, 36.07546], [-79.79245, 36.07641], [-79.79233, 36.07691], [-79.79115, 36.07708], [-79.79012, 36.07731], [-79.78972, 36.07742], [-79.78936, 36.07742], [-79.78913, 36.07733], [-79.78761, 36.0768], [-79.78784, 36.076], [-79.78609, 36.07594], [-79.785001, 36.075895], [-79.784271, 36.075864], [-79.78417, 36.07586], [-79.78368, 36.07582], [-79.78387, 36.07219], [-79.78355, 36.07191], [-79.78365, 36.06957], [-79.783669, 36.069296], [-79.78371, 36.06871], [-79.78431, 36.06819], [-79.78525, 36.06753], [-79.78656, 36.06668], [-79.78781, 36.06668], [-79.78806, 36.06665], [-79.788096, 36.06663], [-79.78828, 36.06653], [-79.78844, 36.06639], [-79.7886, 36.06628], [-79.78884, 36.06618], [-79.78906, 36.06613], [-79.78931, 36.06606], [-79.78957, 36.06591], [-79.78973, 36.06573], [-79.7898, 36.06544], [-79.78982, 36.06497], [-79.78986, 36.06464], [-79.78987, 36.064585], [-79.78999, 36.06391], [-79.79029, 36.06287], [-79.79039, 36.06248], [-79.79043, 36.06216]]], [[[-79.79987, 36.07317], [-79.7999, 36.07341], [-79.80006, 36.07395], [-79.8001, 36.07457], [-79.80022, 36.07544], [-79.80025, 36.07765], [-79.80028, 36.07813], [-79.8004, 36.0785], [-79.80047, 36.07882], [-79.80057, 36.07917], [-79.80064, 36.07999], [-79.80059, 36.07996], [-79.79997, 36.07981], [-79.79979, 36.07937], [-79.79972, 36.07897], [-79.79967, 36.07849], [-79.79963, 36.07639], [-79.79958, 36.07583], [-79.79948, 36.07548], [-79.79916, 36.07458], [-79.79909, 36.07423], [-79.79899, 36.07395], [-79.79896, 36.07359], [-79.79883, 36.07347], [-79.79865, 36.07342], [-79.79846, 36.07338], [-79.79843, 36.07321], [-79.798439, 36.072897], [-79.79844, 36.07287], [-79.79987, 36.07294], [-79.79987, 36.072965], [-79.79987, 36.07317]]]]}}]}