{"type": "FeatureCollection", "features": [{"type": "Feature", "properties": {"area_id": 8538, "city": "Salt Lake City", "state": "UT", "city_survey": true, "cat": "Best", "grade": "A", "label": "A1", "res": true, "com": false, "ind": false, "holc_grade": "A"}, "geometry": {"type": "Polygon", "coordinates": [[[-111.85228, 40.76706], [-111.85228, 40.767105], [-111.85228, 40.76729], [-111.85228, 40.771244], [-111.85228, 40.77334], [-111.85228, 40.77695], [-111.852242, 40.776951], [-111.84318, 40.77711], [-111.843128, 40.774069], [-111.843085, 40.771499], [-111.843081, 40.771316], [-111.84308, 40.77123], [-111.843226, 40.771228], [-111.84811, 40.77115], [-111.84827, 40.76702], [-111.851948, 40.767057], [-111.85228, 40.76706]]]}}, {"type": "Feature", "properties": {"area_id": 8548, "city": "Salt Lake City", "state": "UT", "city_survey": true, "cat": "Best", "grade": "A", "label": "A2", "res": true, "com": false, "ind": false, "holc_grade": "A"}, "geometry": {"type": "Polygon", "coordinates": [[[-111.85966, 40.74908], [-111.85966, 40.749794], [-111.85966, 40.74986], [-111.85397, 40.74996], [-111.85398, 40.75123], [-111.853889, 40.751229], [-111.851599, 40.751208], [-111.82429, 40.75096], [-111.824278, 40.750736], [-111.82413, 40.748], [-111.83062, 40.74809], [-111.830632, 40.745557], [-111.83065, 40.74179], [-111.83631, 40.74176], [-111.842262, 40.741726], [-111.853891, 40.74166], [-111.85396, 40.74166], [-111.85963, 40.74165], [-111.85966, 40.74908]]]}}, {"type": "Feature", "properties": {"area_id": 8549, "city": "Salt Lake City", "state": "UT", "city_survey": true, "cat": "Best", "grade": "A", "label": "A3", "res": true, "com": false, "ind": false, "holc_grade": "A"}, "geometry": {"type": "Polygon", "coordinates": [[[-111.84209, 40.73345], [-111.842266, 40.73345], [-111.85389, 40.73346], [-111.85395, 40.73346], [-111.85395, 40.733508], [-111.85396, 40.741637], [-111.85396, 40.74166], [-111.853891, 40.74166], [-111.842262, 40.741726], [-111.83631, 40.74176], [-111.83631, 40.741643], [-111.83631, 40.7414], [-111.83631, 40.7396], [-111.8369, 40.7395], [-111.83747, 40.73959], [-111.83922, 40.73899], [-111.84148, 40.73901], [-111.84143, 40.73632], [-111.8422, 40.73633], [-111.842095, 40.733589], [-111.84209, 40.73345]]]}}, {"type": "Feature", "properties": {"area_id": 8560, "city": "Salt Lake City", "state": "UT", "city_survey": true, "cat": "Best", "grade": "A", "label": "A4", "res": true, "com": false, "ind": false, "holc_grade": "A"}, "geometry": {"type": "Polygon", "coordinates": [[[-111.832582, 40.719019], [-111.83241, 40.72547], [-111.831351, 40.725493], [-111.825081, 40.725629], [-111.82503, 40.72563], [-111.82441, 40.72576], [-111.82383, 40.72533], [-111.823849, 40.724781], [-111.82416, 40.71601], [-111.83262, 40.7176], [-111.832582, 40.719019]]]}}, {"type": "Feature", "properties": {"area_id": 8547, "city": "Salt Lake City", "state": "UT", "city_survey": true, "cat": "Still Desirable", "grade": "B", "label": "B1", "res": true, "com": false, "ind": false, "holc_grade": "B"}, "geometry": {"type": "Polygon", "coordinates": [[[-111.86502, 40.705224], [-111.86502, 40.70546], [-111.865442, 40.70547], [-111.8685, 40.70554], [-111.8685, 40.710931], [-111.8685, 40.71137], [-111.8711, 40.71127], [-111.87113, 40.71256], [-111.876865, 40.71256], [-111.8799, 40.71256], [-111.88011, 40.72096], [-111.87706, 40.72088], [-111.87711, 40.72534], [-111.88658, 40.72542], [-111.88658, 40.725444], [-111.8865, 40.733507], [-111.88642, 40.7416], [-111.888213, 40.7416], [-111.88824, 40.7416], [-111.888213, 40.742674], [-111.88808, 40.748], [-111.8868, 40.74796], [-111.88674, 40.74975], [-111.884241, 40.74978], [-111.879631, 40.749835], [-111.87674, 40.74987], [-111.87675, 40.75091], [-111.871059, 40.751077], [-111.87027, 40.7511], [-111.86342, 40.75103], [-111.862311, 40.751068], [-111.85967, 40.75116], [-111.85966, 40.74986], [-111.85966, 40.749794], [-111.85966, 40.74908], [-111.85963, 40.74165], [-111.85396, 40.74166], [-111.85396, 40.741637], [-111.85395, 40.733508], [-111.85395, 40.73346], [-111.85389, 40.73346], [-111.842266, 40.73345], [-111.84209, 40.73345], [-111.84208, 40.733589], [-111.84206, 40.73385], [-111.83938, 40.73373], [-111.839377, 40.733587], [-111.83925, 40.72723], [-111.83678, 40.72728], [-111.83675, 40.72575], [-111.83394, 40.72575], [-111.833919, 40.725499], [-111.8339, 40.72526], [-111.83815, 40.72523], [-111.83815, 40.71983], [-111.84089, 40.71986], [-111.84092, 40.7251], [-111.84171, 40.72513], [-111.84201, 40.72526], [-111.84223, 40.72536], [-111.842221, 40.725515], [-111.84216, 40.72653], [-111.842269, 40.726531], [-111.85389, 40.726609], [-111.85397, 40.72661], [-111.85397, 40.72548], [-111.85397, 40.72543], [-111.85397, 40.725414], [-111.85397, 40.72541], [-111.85471, 40.72538], [-111.855251, 40.725417], [-111.85677, 40.72552], [-111.85671, 40.72626], [-111.86534, 40.72639], [-111.865247, 40.725418], [-111.86517, 40.72461], [-111.86116, 40.72468], [-111.86099, 40.72271], [-111.859713, 40.719689], [-111.85949, 40.71916], [-111.85848, 40.71802], [-111.85853, 40.71754], [-111.85865, 40.7165], [-111.856929, 40.712684], [-111.85415, 40.70652], [-111.86191, 40.70639], [-111.861894, 40.705876], [-111.86181, 40.70319], [-111.86357, 40.70315], [-111.86352, 40.70254], [-111.86502, 40.7025], [-111.86502, 40.705224]]]}}, {"type": "Feature", "properties": {"area_id": 8550, "city": "Salt Lake City", "state": "UT", "city_survey": true, "cat": "Still Desirable", "grade": "B", "label": "B2", "res": true, "com": false, "ind": false, "holc_grade": "B"}, "geometry": {"type": "Polygon", "coordinates": [[[-111.852141, 40.706101], [-111.85271, 40.70651], [-111.85415, 40.70652], [-111.856929, 40.712684], [-111.85865, 40.7165], [-111.85853, 40.71754], [-111.85814, 40.719739], [-111.85806, 40.72019], [-111.85897, 40.72088], [-111.85902, 40.72181], [-111.85945, 40.72238], [-111.85544, 40.72241], [-111.85507, 40.72242], [-111.85506, 40.72242], [-111.855122, 40.71977], [-111.85517, 40.71774], [-111.85517, 40.71765], [-111.84336, 40.71752], [-111.84335, 40.71746], [-111.84319, 40.7129], [-111.84365, 40.712699], [-111.8439, 40.71259], [-111.84374, 40.70827], [-111.84373, 40.70823], [-111.843612, 40.706205], [-111.8436, 40.70599], [-111.85182, 40.70587], [-111.852141, 40.706101]]]}}, {"type": "Feature", "properties": {"area_id": 8551, "city": "Salt Lake City", "state": "UT", "city_survey": true, "cat": "Still Desirable", "grade": "B", "label": "B3", "res": true, "com": false, "ind": false, "holc_grade": "B"}, "geometry": {"type": "Polygon", "coordinates": [[[-111.843603, 40.708269], [-111.84374, 40.70827], [-111.8439, 40.71259], [-111.84365, 40.712699], [-111.84319, 40.7129], [-111.84335, 40.71746], [-111.84247, 40.71753], [-111.84233, 40.71754], [-111.8424, 40.71693], [-111.8358, 40.71681], [-111.83576, 40.71298], [-111.83365, 40.71298], [-111.833639, 40.712712], [-111.83346, 40.70822], [-111.834078, 40.708223], [-111.83888, 40.708246], [-111.843603, 40.708269]]]}}, {"type": "Feature", "properties": {"area_id": 8539, "city": "Salt Lake City", "state": "UT", "city_survey": true, "cat": "Still Desirable", "grade": "B", "label": "B4", "res": true, "com": false, "ind": false, "holc_grade": "B"}, "geometry": {"type": "Polygon", "coordinates": [[[-111.85397, 40.74996], [-111.85966, 40.74986], [-111.85967, 40.75116], [-111.859738, 40.760662], [-111.8598, 40.769354], [-111.8598, 40.76939], [-111.863833, 40.769356], [-111.863906, 40.769355], [-111.864276, 40.769352], [-111.86569, 40.76934], [-111.86569, 40.76935], [-111.86569, 40.77344], [-111.85228, 40.77334], [-111.85228, 40.771244], [-111.85228, 40.76729], [-111.85228, 40.767105], [-111.85228, 40.76706], [-111.85209, 40.75852], [-111.852353, 40.758528], [-111.85401, 40.75858], [-111.85398, 40.75123], [-111.85397, 40.74996]]]}}, {"type": "Feature", "properties": {"area_id": 8541, "city": "Salt Lake City", "state": "UT", "city_survey": true, "cat": "Still Desirable", "grade": "B", "label": "B5", "res": true, "com": false, "ind": false, "holc_grade": "B"}, "geometry": {"type": "Polygon", "coordinates": [[[-111.86373, 40.78084], [-111.8647, 40.7808], [-111.8648, 40.77496], [-111.871555, 40.774987], [-111.879056, 40.775016], [-111.88503, 40.77504], [-111.88455, 40.77759], [-111.884001, 40.779638], [-111.88369, 40.7808], [-111.88188, 40.78315], [-111.881736, 40.783147], [-111.876154, 40.783032], [-111.87165, 40.78294], [-111.87165, 40.784157], [-111.87165, 40.78428], [-111.866422, 40.784148], [-111.86373, 40.78408], [-111.86373, 40.781815], [-111.86373, 40.78084]]]}}, {"type": "Feature", "properties": {"area_id": 8542, "city": "Salt Lake City", "state": "UT", "city_survey": true, "cat": "Still Desirable", "grade": "B", "label": "B6", "res": true, "com": false, "ind": false, "holc_grade": "B"}, "geometry": {"type": "Polygon", "coordinates": [[[-111.88668, 40.77469], [-111.88808, 40.77334], [-111.88809, 40.77281], [-111.89113, 40.77265], [-111.89113, 40.77403], [-111.89236, 40.77585], [-111.892324, 40.775973], [-111.89087, 40.78092], [-111.89119, 40.78157], [-111.891178, 40.782167], [-111.89113, 40.78452], [-111.88584, 40.7846], [-111.88562, 40.77986], [-111.88962, 40.77969], [-111.89068, 40.77611], [-111.88625, 40.77612], [-111.886321, 40.775856], [-111.88642, 40.77549], [-111.88668, 40.77469]]]}}, {"type": "Feature", "properties": {"area_id": 8557, "city": "Salt Lake City", "state": "UT", "city_survey": true, "cat": "Still Desirable", "grade": "B", "label": "B7", "res": true, "com": false, "ind": false, "holc_grade": "B"}, "geometry": {"type": "Polygon", "coordinates": [[[-111.92233, 40.73977], [-111.92245, 40.74006], [-111.922317, 40.740451], [-111.92225, 40.74065], [-111.92155, 40.74109], [-111.92006, 40.74144], [-111.91942, 40.7414], [-111.91893, 40.74152], [-111.91853, 40.74155], [-111.91786, 40.74177], [-111.91824, 40.74306], [-111.91855, 40.74391], [-111.92082, 40.7438], [-111.92111, 40.74423], [-111.92095, 40.74482], [-111.92022, 40.74589], [-111.92029, 40.74698], [-111.92066, 40.74724], [-111.92158, 40.74684], [-111.92215, 40.74704], [-111.92225, 40.7475], [-111.92202, 40.74782], [-111.91931, 40.74929], [-111.91937, 40.74973], [-111.91944, 40.74978], [-111.91977, 40.75002], [-111.919812, 40.750013], [-111.92047, 40.7499], [-111.92087, 40.749919], [-111.92109, 40.74993], [-111.92135, 40.75044], [-111.92138, 40.75092], [-111.921415, 40.751017], [-111.92154, 40.75136], [-111.92131, 40.75136], [-111.921289, 40.75173], [-111.92128, 40.7519], [-111.921423, 40.752076], [-111.92193, 40.7527], [-111.92288, 40.75287], [-111.92315, 40.75328], [-111.92295, 40.75393], [-111.922924, 40.753955], [-111.92196, 40.75489], [-111.92083, 40.75555], [-111.92029, 40.75568], [-111.92011, 40.7564], [-111.92029, 40.75742], [-111.92061, 40.75748], [-111.92153, 40.7567], [-111.92198, 40.75663], [-111.92236, 40.75699], [-111.92263, 40.75748], [-111.92218, 40.75842], [-111.91673, 40.75852], [-111.916672, 40.749754], [-111.916611, 40.74052], [-111.9166, 40.73884], [-111.92188, 40.73874], [-111.92233, 40.73977]]]}}, {"type": "Feature", "properties": {"area_id": 8546, "city": "Salt Lake City", "state": "UT", "city_survey": true, "cat": "Definitely Declining", "grade": "C", "label": "C1", "res": true, "com": false, "ind": false, "holc_grade": "C"}, "geometry": {"type": "Polygon", "coordinates": [[[-111.85967, 40.75116], [-111.862311, 40.751068], [-111.86342, 40.75103], [-111.87027, 40.7511], [-111.871059, 40.751077], [-111.87675, 40.75091], [-111.87683, 40.760654], [-111.8769, 40.76929], [-111.87106, 40.769316], [-111.86569, 40.76934], [-111.864276, 40.769352], [-111.863906, 40.769355], [-111.863833, 40.769356], [-111.8598, 40.76939], [-111.8598, 40.769354], [-111.859738, 40.760662], [-111.85967, 40.75116]]]}}, {"type": "Feature", "properties": {"area_id": 8540, "city": "Salt Lake City", "state": "UT", "city_survey": true, "cat": "Definitely Declining", "grade": "C", "label": "C2", "res": true, "com": false, "ind": false, "holc_grade": "C"}, "geometry": {"type": "Polygon", "coordinates": [[[-111.86569, 40.76934], [-111.87106, 40.769316], [-111.8769, 40.76929], [-111.879641, 40.769281], [-111.885369, 40.769261], [-111.88557, 40.76926], [-111.88814, 40.76925], [-111.888139, 40.769349], [-111.88811, 40.77123], [-111.888106, 40.771536], [-111.88809, 40.77281], [-111.88808, 40.77334], [-111.88668, 40.77469], [-111.88632, 40.77504], [-111.885788, 40.77504], [-111.88503, 40.77504], [-111.879056, 40.775016], [-111.871555, 40.774987], [-111.8648, 40.77496], [-111.8647, 40.7808], [-111.86373, 40.78084], [-111.86373, 40.77411], [-111.85383, 40.77407], [-111.853762, 40.778601], [-111.85373, 40.78075], [-111.85228, 40.78071], [-111.85228, 40.778253], [-111.85228, 40.77695], [-111.85228, 40.77334], [-111.86569, 40.77344], [-111.86569, 40.76935], [-111.86569, 40.76934]]]}}, {"type": "Feature", "properties": {"area_id": 8543, "city": "Salt Lake City", "state": "UT", "city_survey": true, "cat": "Definitely Declining", "grade": "C", "label": "C3", "res": true, "com": false, "ind": false, "holc_grade": "C"}, "geometry": {"type": "Polygon", "coordinates": [[[-111.90253, 40.76916], [-111.90253, 40.771545], [-111.90253, 40.77164], [-111.90114, 40.77164], [-111.90119, 40.77374], [-111.90253, 40.77378], [-111.90264, 40.77597], [-111.90098, 40.77593], [-111.90098, 40.78254], [-111.8998, 40.78254], [-111.8998, 40.78651], [-111.8998, 40.78695], [-111.89979, 40.78694], [-111.899684, 40.786881], [-111.89777, 40.78582], [-111.896363, 40.787087], [-111.89606, 40.78736], [-111.89311, 40.7846], [-111.89113, 40.78452], [-111.891178, 40.782167], [-111.89119, 40.78157], [-111.89087, 40.78092], [-111.892324, 40.775973], [-111.89236, 40.77585], [-111.89113, 40.77403], [-111.89113, 40.77265], [-111.88809, 40.77281], [-111.888106, 40.771536], [-111.88811, 40.77123], [-111.888224, 40.771235], [-111.89402, 40.77147], [-111.893924, 40.769346], [-111.89392, 40.76925], [-111.893957, 40.76925], [-111.90253, 40.76916]]]}}, {"type": "Feature", "properties": {"area_id": 8564, "city": "Salt Lake City", "state": "UT", "city_survey": true, "cat": "Definitely Declining", "grade": "C", "label": "C4", "res": true, "com": false, "ind": false, "holc_grade": "C"}, "geometry": {"type": "MultiPolygon", "coordinates": [[[[-111.92617, 40.77584], [-111.92625, 40.77616], [-111.92667, 40.77644], [-111.92712, 40.77672], [-111.92744, 40.77699], [-111.92793, 40.77717], [-111.92872, 40.77712], [-111.9297, 40.77673], [-111.9308, 40.7761], [-111.93126, 40.77587], [-111.93184, 40.77596], [-111.93292, 40.77655], [-111.93407, 40.7773], [-111.93588, 40.77835], [-111.93633, 40.7785], [-111.93725, 40.77807], [-111.93783, 40.77763], [-111.93818, 40.77809], [-111.93814, 40.77863], [-111.93783, 40.77941], [-111.93762, 40.77994], [-111.93766, 40.78026], [-111.93785, 40.78051], [-111.93779, 40.78074], [-111.93725, 40.7806], [-111.93625, 40.78068], [-111.93594, 40.78093], [-111.93611, 40.78133], [-111.93575, 40.78156], [-111.93423, 40.78106], [-111.93362, 40.78123], [-111.93368, 40.78178], [-111.93402, 40.78231], [-111.91103, 40.78236], [-111.91099, 40.7758], [-111.91979, 40.77594], [-111.92617, 40.77584]]], [[[-111.93428, 40.78634], [-111.93469, 40.78658], [-111.93502, 40.78662], [-111.93552, 40.78675], [-111.93588, 40.787], [-111.93594, 40.78723], [-111.93573, 40.78731], [-111.93482, 40.78782], [-111.93475, 40.78805], [-111.93496, 40.78837], [-111.93567, 40.7885], [-111.93621, 40.78847], [-111.93636, 40.7886], [-111.93646, 40.78893], [-111.93601, 40.78893], [-111.93402, 40.78895], [-111.93402, 40.78617], [-111.93428, 40.78634]]]]}}, {"type": "Feature", "properties": {"area_id": 8553, "city": "Salt Lake City", "state": "UT", "city_survey": true, "cat": "Definitely Declining", "grade": "C", "label": "C5", "res": true, "com": false, "ind": false, "holc_grade": "C"}, "geometry": {"type": "Polygon", "coordinates": [[[-111.91097, 40.77155], [-111.91413, 40.77157], [-111.91918, 40.7716], [-111.91979, 40.7716], [-111.91979, 40.77594], [-111.91099, 40.7758], [-111.91097, 40.77155]]]}}, {"type": "Feature", "properties": {"area_id": 8555, "city": "Salt Lake City", "state": "UT", "city_survey": true, "cat": "Definitely Declining", "grade": "C", "label": "C6", "res": true, "com": false, "ind": false, "holc_grade": "C"}, "geometry": {"type": "Polygon", "coordinates": [[[-111.91402, 40.762771], [-111.92265, 40.76284], [-111.92247, 40.76736], [-111.91386, 40.76727], [-111.913869, 40.763425], [-111.91387, 40.76277], [-111.91402, 40.762771]]]}}, {"type": "Feature", "properties": {"area_id": 8556, "city": "Salt Lake City", "state": "UT", "city_survey": true, "cat": "Definitely Declining", "grade": "C", "label": "C7", "res": true, "com": false, "ind": false, "holc_grade": "C"}, "geometry": {"type": "Polygon", "coordinates": [[[-111.92131, 40.75136], [-111.92154, 40.75136], [-111.939003, 40.75127], [-111.93903, 40.75127], [-111.939011, 40.754947], [-111.93899, 40.758937], [-111.93897, 40.7627], [-111.924451, 40.762824], [-111.92377, 40.76283], [-111.924188, 40.762224], [-111.92428, 40.76209], [-111.92415, 40.76158], [-111.92373, 40.76084], [-111.92375, 40.76014], [-111.9235, 40.75965], [-111.923327, 40.759669], [-111.92295, 40.75971], [-111.92218, 40.75969], [-111.92186, 40.75935], [-111.92218, 40.75878], [-111.92218, 40.75842], [-111.92263, 40.75748], [-111.92236, 40.75699], [-111.92198, 40.75663], [-111.92153, 40.7567], [-111.92061, 40.75748], [-111.92029, 40.75742], [-111.92011, 40.7564], [-111.92029, 40.75568], [-111.92083, 40.75555], [-111.92196, 40.75489], [-111.922924, 40.753955], [-111.92295, 40.75393], [-111.92315, 40.75328], [-111.92288, 40.75287], [-111.92193, 40.7527], [-111.921423, 40.752076], [-111.92128, 40.7519], [-111.921289, 40.75173], [-111.92131, 40.75136]]]}}, {"type": "Feature", "properties": {"area_id": 8562, "city": "Salt Lake City", "state": "UT", "city_survey": true, "cat": "Definitely Declining", "grade": "C", "label": "C8", "res": true, "com": false, "ind": false, "holc_grade": "C"}, "geometry": {"type": "Polygon", "coordinates": [[[-111.89674, 40.74165], [-111.89265, 40.74183], [-111.89236, 40.74172], [-111.88977, 40.74181], [-111.88968, 40.73349], [-111.8967, 40.73351], [-111.89674, 40.74165]]]}}, {"type": "Feature", "properties": {"area_id": 8559, "city": "Salt Lake City", "state": "UT", "city_survey": true, "cat": "Definitely Declining", "grade": "C", "label": "C9", "res": true, "com": false, "ind": false, "holc_grade": "C"}, "geometry": {"type": "Polygon", "coordinates": [[[-111.84324, 40.72523], [-111.84355, 40.72523], [-111.843621, 40.72556], [-111.84364, 40.72565], [-111.844061, 40.725656], [-111.85145, 40.72576], [-111.852593, 40.72574], [-111.8526, 40.72574], [-111.852613, 40.725726], [-111.85285, 40.72547], [-111.852975, 40.725471], [-111.85389, 40.725479], [-111.85397, 40.72548], [-111.85397, 40.72661], [-111.85389, 40.726609], [-111.842269, 40.726531], [-111.84216, 40.72653], [-111.842221, 40.725515], [-111.84223, 40.72536], [-111.84201, 40.72526], [-111.84203, 40.72191], [-111.84216, 40.718877], [-111.8422, 40.71794], [-111.84247, 40.71753], [-111.84335, 40.71746], [-111.84336, 40.71752], [-111.85517, 40.71765], [-111.85517, 40.71774], [-111.855122, 40.71977], [-111.85506, 40.72242], [-111.85507, 40.72242], [-111.85507, 40.72243], [-111.85282, 40.72244], [-111.852784, 40.719771], [-111.85277, 40.7187], [-111.84316, 40.71864], [-111.843166, 40.719095], [-111.84324, 40.72523]]]}}, {"type": "Feature", "properties": {"area_id": 8545, "city": "Salt Lake City", "state": "UT", "city_survey": true, "cat": "Hazardous", "grade": "D", "label": "D1", "res": true, "com": false, "ind": false, "holc_grade": "D"}, "geometry": {"type": "Polygon", "coordinates": [[[-111.88696, 40.75177], [-111.88808, 40.75181], [-111.888222, 40.757676], [-111.88824, 40.75842], [-111.888223, 40.75842], [-111.88535, 40.75842], [-111.885363, 40.759061], [-111.88557, 40.76926], [-111.885369, 40.769261], [-111.879641, 40.769281], [-111.8769, 40.76929], [-111.87683, 40.760654], [-111.87675, 40.75091], [-111.87674, 40.74987], [-111.879631, 40.749835], [-111.884241, 40.74978], [-111.88674, 40.74975], [-111.886743, 40.749776], [-111.88696, 40.75177]]]}}, {"type": "Feature", "properties": {"area_id": 8563, "city": "Salt Lake City", "state": "UT", "city_survey": true, "cat": "Hazardous", "grade": "D", "label": "D2", "res": true, "com": false, "ind": false, "holc_grade": "D"}, "geometry": {"type": "Polygon", "coordinates": [[[-111.90224, 40.74981], [-111.90245, 40.76049], [-111.8939, 40.76051], [-111.89393, 40.74981], [-111.90224, 40.74981]]]}}, {"type": "Feature", "properties": {"area_id": 8561, "city": "Salt Lake City", "state": "UT", "city_survey": true, "cat": "Hazardous", "grade": "D", "label": "D3", "res": true, "com": false, "ind": false, "holc_grade": "D"}, "geometry": {"type": "Polygon", "coordinates": [[[-111.908965, 40.7416], [-111.909229, 40.74963], [-111.909234, 40.749759], [-111.90924, 40.74995], [-111.90869, 40.74981], [-111.90224, 40.74981], [-111.89393, 40.74981], [-111.89251, 40.74981], [-111.892511, 40.749774], [-111.89265, 40.74183], [-111.89674, 40.74165], [-111.8967, 40.73351], [-111.8967, 40.73345], [-111.90314, 40.73345], [-111.90295, 40.74129], [-111.904048, 40.741318], [-111.90968, 40.74146], [-111.90896, 40.74145], [-111.908965, 40.7416]]]}}, {"type": "Feature", "properties": {"area_id": 8558, "city": "Salt Lake City", "state": "UT", "city_survey": true, "cat": "Hazardous", "grade": "D", "label": "D4", "res": true, "com": false, "ind": false, "holc_grade": "D"}, "geometry": {"type": "Polygon", "coordinates": [[[-111.9136, 40.73562], [-111.91506, 40.73562], [-111.91541, 40.73373], [-111.9231, 40.73368], [-111.92282, 40.73526], [-111.92344, 40.73568], [-111.92483, 40.73552], [-111.92531, 40.7362], [-111.92261, 40.73736], [-111.92188, 40.73874], [-111.9166, 40.73884], [-111.916611, 40.74052], [-111.916672, 40.749754], [-111.91673, 40.75852], [-111.92218, 40.75842], [-111.92218, 40.75878], [-111.92186, 40.75935], [-111.92218, 40.75969], [-111.92295, 40.75971], [-111.923327, 40.759669], [-111.9235, 40.75965], [-111.92375, 40.76014], [-111.92373, 40.76084], [-111.92415, 40.76158], [-111.92428, 40.76209], [-111.924188, 40.762224], [-111.92377, 40.76283], [-111.92265, 40.76284], [-111.91402, 40.762771], [-111.91387, 40.76277], [-111.91374, 40.7615], [-111.91375, 40.760635], [-111.913761, 40.759761], [-111.913879, 40.749754], [-111.91388, 40.74969], [-111.912717, 40.749755], [-111.909502, 40.749935], [-111.90924, 40.74995], [-111.909234, 40.749759], [-111.909229, 40.74963], [-111.908965, 40.7416], [-111.90896, 40.74145], [-111.90968, 40.74146], [-111.91367, 40.7415], [-111.9136, 40.73562]]]}}, {"type": "Feature", "properties": {"area_id": 8565, "city": "Salt Lake City", "state": "UT", "city_survey": true, "cat": "Hazardous", "grade": "D", "label": "D5", "res": true, "com": false, "ind": false, "holc_grade": "D"}, "geometry": {"type": "Polygon", "coordinates": [[[-111.9656, 40.77179], [-111.95234, 40.77161], [-111.95234, 40.79451], [-111.949421, 40.79451], [-111.94829, 40.79451], [-111.94867, 40.80516], [-111.941177, 40.80516], [-111.93926, 40.80516], [-111.93917, 40.78907], [-111.93898, 40.78497], [-111.93893, 40.780197], [-111.93889, 40.77646], [-111.938808, 40.771524], [-111.9388, 40.77103], [-111.93897, 40.7627], [-111.93899, 40.758937], [-111.939011, 40.754947], [-111.93903, 40.75127], [-111.939003, 40.75127], [-111.92154, 40.75136], [-111.921415, 40.751017], [-111.92138, 40.75092], [-111.92135, 40.75044], [-111.92109, 40.74993], [-111.92087, 40.749919], [-111.92047, 40.7499], [-111.919812, 40.750013], [-111.91977, 40.75002], [-111.91944, 40.74978], [-111.91937, 40.74973], [-111.91931, 40.74929], [-111.92202, 40.74782], [-111.92225, 40.7475], [-111.92215, 40.74704], [-111.92158, 40.74684], [-111.92066, 40.74724], [-111.92029, 40.74698], [-111.92022, 40.74589], [-111.92095, 40.74482], [-111.92111, 40.74423], [-111.92082, 40.7438], [-111.91855, 40.74391], [-111.91824, 40.74306], [-111.91786, 40.74177], [-111.91853, 40.74155], [-111.91893, 40.74152], [-111.91942, 40.7414], [-111.92006, 40.74144], [-111.92155, 40.74109], [-111.92225, 40.74065], [-111.922317, 40.740451], [-111.92245, 40.74006], [-111.92233, 40.73977], [-111.92188, 40.73874], [-111.92261, 40.73736], [-111.92531, 40.7362], [-111.92483, 40.73552], [-111.92344, 40.73568], [-111.92282, 40.73526], [-111.9231, 40.73368], [-111.926, 40.72586], [-111.938953, 40.725779], [-111.953374, 40.725688], [-111.96574, 40.72561], [-111.965737, 40.726613], [-111.965621, 40.764802], [-111.9656, 40.77179]]]}}, {"type": "Feature", "properties": {"area_id": 8554, "city": "Salt Lake City", "state": "UT", "city_survey": true, "cat": "Hazardous", "grade": "D", "label": "D6", "res": true, "com": false, "ind": false, "holc_grade": "D"}, "geometry": {"type": "Polygon", "coordinates": [[[-111.93879, 40.77147], [-111.929974, 40.771528], [-111.92969983089584, 40.77152982881004], [-111.929791, 40.771529], [-111.929681, 40.77153], [-111.92967416666741, 40.77153], [-111.91918, 40.7716], [-111.91413, 40.77157], [-111.914128, 40.771541], [-111.91385, 40.76768], [-111.91382, 40.76727], [-111.91386, 40.76727], [-111.92247, 40.76736], [-111.92265, 40.76284], [-111.92377, 40.76283], [-111.924451, 40.762824], [-111.93897, 40.7627], [-111.9388, 40.77103], [-111.93879, 40.77147]]]}}, {"type": "Feature", "properties": {"area_id": 8552, "city": "Salt Lake City", "state": "UT", "city_survey": true, "cat": "Hazardous", "grade": "D", "label": "D7", "res": true, "com": false, "ind": false, "holc_grade": "D"}, "geometry": {"type": "Polygon", "coordinates": [[[-111.91099, 40.7758], [-111.91103, 40.78236], [-111.93402, 40.78231], [-111.93402, 40.782865], [-111.93402, 40.78617], [-111.93402, 40.78895], [-111.914425, 40.788833], [-111.91227, 40.78882], [-111.91273, 40.79045], [-111.91282, 40.79074], [-111.90542, 40.78051], [-111.90525, 40.78006], [-111.90549, 40.77155], [-111.90993, 40.77155], [-111.910455, 40.77155], [-111.91097, 40.77155], [-111.91099, 40.7758]]]}}, {"type": "Feature", "properties": {"area_id": 8544, "city": "Salt Lake City", "state": "UT", "city_survey": true, "cat": "Hazardous", "grade": "D", "label": "D8", "res": true, "com": false, "ind": false, "holc_grade": "D"}, "geometry": {"type": "Polygon", "coordinates": [[[-111.8998, 40.78695], [-111.8998, 40.78651], [-111.8998, 40.78254], [-111.90098, 40.78254], [-111.90098, 40.77593], [-111.90264, 40.77597], [-111.90376, 40.77601], [-111.90525, 40.78006], [-111.90542, 40.78051], [-111.90585, 40.78258], [-111.90515, 40.78258], [-111.90531, 40.78469], [-111.90243, 40.78464], [-111.90232, 40.78874], [-111.90061, 40.78874], [-111.89975, 40.78785], [-111.89979, 40.78694], [-111.8998, 40.78695]]]}}, {"type": "Feature", "properties": {"area_id": 8566, "city": "Salt Lake City", "state": "UT", "city_survey": true, "cat": "Hazardous", "grade": "D", "label": "D9", "res": true, "com": false, "ind": false, "holc_grade": "D"}, "geometry": {"type": "Polygon", "coordinates": [[[-111.93553, 40.79074], [-111.935525, 40.790821], [-111.935508, 40.791069], [-111.93546, 40.79181], [-111.93571, 40.79225], [-111.93554, 40.79285], [-111.93608, 40.79317], [-111.93629, 40.79326], [-111.936339, 40.793258], [-111.93694, 40.79323], [-111.93725, 40.79314], [-111.93741, 40.79323], [-111.93712, 40.79342], [-111.93658, 40.79342], [-111.936358, 40.793548], [-111.93608, 40.79371], [-111.93588, 40.79418], [-111.93608, 40.79451], [-111.936459, 40.79454], [-111.93671, 40.79456], [-111.93721, 40.79474], [-111.93731, 40.7952], [-111.936736, 40.795477], [-111.93646, 40.79561], [-111.93633, 40.79597], [-111.93652, 40.79651], [-111.9333, 40.79663], [-111.93313, 40.7937], [-111.93315, 40.79339], [-111.92942, 40.79342], [-111.92943, 40.7954], [-111.92937, 40.79623], [-111.92523, 40.79626], [-111.92511, 40.80172], [-111.92078, 40.80161], [-111.919988, 40.800579], [-111.91912, 40.79945], [-111.91325, 40.7911], [-111.91273, 40.79045], [-111.91227, 40.78882], [-111.914425, 40.788833], [-111.93402, 40.78895], [-111.93601, 40.78893], [-111.93523, 40.78946], [-111.935224, 40.789706], [-111.93522, 40.78988], [-111.93554, 40.79041], [-111.93553, 40.79074]]]}}, {"type": "Feature", "properties": {"area_id": 11167, "city": "Salt Lake City", "state": "UT", "city_survey": true, "cat": "Commercial", "grade": null, "label": "Commercial", "res": false, "com": true, "ind": false, "holc_grade": null}, "geometry": {"type": "MultiPolygon", "coordinates": [[[[-111.90243, 40.78464], [-111.90531, 40.78469], [-111.90515, 40.78258], [-111.90585, 40.78258], [-111.90542, 40.78051], [-111.91282, 40.79074], [-111.91273, 40.79045], [-111.91325, 40.7911], [-111.91912, 40.79945], [-111.919988, 40.800579], [-111.92078, 40.80161], [-111.92075, 40.802036], [-111.92041, 40.80691], [-111.90391, 40.79422], [-111.90061, 40.78874], [-111.90232, 40.78874], [-111.90243, 40.78464]]], [[[-111.91375, 40.760635], [-111.91374, 40.7615], [-111.91387, 40.76277], [-111.913869, 40.763425], [-111.91386, 40.76727], [-111.91382, 40.76727], [-111.91385, 40.76768], [-111.914128, 40.771541], [-111.91413, 40.77157], [-111.91097, 40.77155], [-111.910455, 40.77155], [-111.90993, 40.77155], [-111.90549, 40.77155], [-111.90525, 40.78006], [-111.90376, 40.77601], [-111.90264, 40.77597], [-111.90253, 40.77378], [-111.90119, 40.77374], [-111.90114, 40.77164], [-111.90253, 40.77164], [-111.90253, 40.771545], [-111.90253, 40.76916], [-111.902451, 40.760645], [-111.90245, 40.76049], [-111.90224, 40.74981], [-111.90869, 40.74981], [-111.90924, 40.74995], [-111.909502, 40.749935], [-111.912717, 40.749755], [-111.91388, 40.74969], [-111.913879, 40.749754], [-111.913761, 40.759761], [-111.91375, 40.760635]]]]}}, {"type": "Feature", "properties": {"area_id": 11168, "city": "Salt Lake City", "state": "UT", "city_survey": true, "cat": "Industrial", "grade": null, "label": "Industrial", "res": false, "com": false, "ind": true, "holc_grade": null}, "geometry": {"type": "MultiPolygon", "coordinates": [[[[-111.86099, 40.72271], [-111.86116, 40.72468], [-111.86517, 40.72461], [-111.865247, 40.725418], [-111.86534, 40.72639], [-111.85671, 40.72626], [-111.85677, 40.72552], [-111.855251, 40.725417], [-111.85471, 40.72538], [-111.85397, 40.72541], [-111.85397, 40.725414], [-111.85397, 40.72543], [-111.85397, 40.72548], [-111.85389, 40.725479], [-111.852975, 40.725471], [-111.85285, 40.72547], [-111.85282, 40.72244], [-111.85507, 40.72243], [-111.85507, 40.72242], [-111.85544, 40.72241], [-111.85945, 40.72238], [-111.85902, 40.72181], [-111.85897, 40.72088], [-111.85806, 40.72019], [-111.85814, 40.719739], [-111.85853, 40.71754], [-111.85848, 40.71802], [-111.85949, 40.71916], [-111.859713, 40.719689], [-111.86099, 40.72271]]], [[[-111.88658, 40.72542], [-111.888216, 40.725345], [-111.89006, 40.72526], [-111.890051, 40.725445], [-111.88968, 40.73349], [-111.88977, 40.74181], [-111.89236, 40.74172], [-111.89265, 40.74183], [-111.892511, 40.749774], [-111.89251, 40.74981], [-111.89393, 40.74981], [-111.8939, 40.76051], [-111.90245, 40.76049], [-111.902451, 40.760645], [-111.90253, 40.76916], [-111.893957, 40.76925], [-111.89392, 40.76925], [-111.893924, 40.769346], [-111.89402, 40.77147], [-111.888224, 40.771235], [-111.88811, 40.77123], [-111.888139, 40.769349], [-111.88814, 40.76925], [-111.88557, 40.76926], [-111.885363, 40.759061], [-111.88535, 40.75842], [-111.888223, 40.75842], [-111.88824, 40.75842], [-111.888222, 40.757676], [-111.88808, 40.75181], [-111.88696, 40.75177], [-111.886743, 40.749776], [-111.88674, 40.74975], [-111.8868, 40.74796], [-111.88808, 40.748], [-111.888213, 40.742674], [-111.88824, 40.7416], [-111.888213, 40.7416], [-111.88642, 40.7416], [-111.8865, 40.733507], [-111.88658, 40.725444], [-111.88658, 40.72542]]]]}}]}