{"type": "FeatureCollection", "features": [{"type": "Feature", "geometry": {"type": "Point", "coordinates": [-111.8969, 40.7548]}, "properties": {"facility_name": "CEREAL FOOD PROCESSORS INC", "industry": null, "tri_facility_id": "84101CRLFD425W5"}}, {"type": "Feature", "geometry": {"type": "Point", "coordinates": [-111.890556, 40.747778]}, "properties": {"facility_name": "MEADOW GOLD DAIRIES INC", "industry": null, "tri_facility_id": "84101MDWGL1030S"}}, {"type": "Feature", "geometry": {"type": "Point", "coordinates": [-111.906389, 40.759444]}, "properties": {"facility_name": "PACKAGING CORP OF AMERICA", "industry": null, "tri_facility_id": "84101PCKGN460WE"}}, {"type": "Feature", "geometry": {"type": "Point", "coordinates": [-111.906389, 40.760278]}, "properties": {"facility_name": "QUALITY PLATING CO. INC.", "industry": null, "tri_facility_id": "84101QLTYP533WE"}}, {"type": "Feature", "geometry": {"type": "Point", "coordinates": [-111.904167, 40.7375]}, "properties": {"facility_name": "SCHMIDT SIGN INC", "industry": null, "tri_facility_id": "84101SCHMD1235S"}}, {"type": "Feature", "geometry": {"type": "Point", "coordinates": [-111.910556, 40.755833]}, "properties": {"facility_name": "STARFIRE IND", "industry": null, "tri_facility_id": "84101STRFR619SO"}}, {"type": "Feature", "geometry": {"type": "Point", "coordinates": [-111.902778, 40.78]}, "properties": {"facility_name": "CP INDUSTRIES", "industry": null, "tri_facility_id": "84103CPNDS503NO"}}, {"type": "Feature", "geometry": {"type": "Point", "coordinates": [-111.902778, 40.791667]}, "properties": {"facility_name": "TESORO REFINING & MARKETING COMPANY LLC - SLC", "industry": null, "tri_facility_id": "84103MCLCM474WE"}}, {"type": "Feature", "geometry": {"type": "Point", "coordinates": [-111.905944, 40.7919]}, "properties": {"facility_name": "MAY FOUNDRY & MACHINE CO", "industry": null, "tri_facility_id": "84103MYFND454WE"}}, {"type": "Feature", "geometry": {"type": "Point", "coordinates": [-111.957022, 40.744024]}, "properties": {"facility_name": "BLANCHARD METALS PROCESSING CO", "industry": null, "tri_facility_id": "84104BLNCH1115S"}}, {"type": "Feature", "geometry": {"type": "Point", "coordinates": [-111.967778, 40.730833]}, "properties": {"facility_name": "CLASSIC CABINETS", "industry": null, "tri_facility_id": "84104CLSSC1830S"}}, {"type": "Feature", "geometry": {"type": "Point", "coordinates": [-111.961111, 40.745556]}, "properties": {"facility_name": "CLASSIC CABINETS INC", "industry": null, "tri_facility_id": "84104CLSSC2587W"}}, {"type": "Feature", "geometry": {"type": "Point", "coordinates": [-111.995, 40.734167]}, "properties": {"facility_name": "MILK SPECIALTIES GLOBAL", "industry": null, "tri_facility_id": "84104CNTNN1658S"}}, {"type": "Feature", "geometry": {"type": "Point", "coordinates": [-111.9525, 40.73527777777778]}, "properties": {"facility_name": "CIRCUIT GRAPHICS INC", "industry": null, "tri_facility_id": "84104CRCTG1120S"}}, {"type": "Feature", "geometry": {"type": "Point", "coordinates": [-111.938056, 40.734444]}, "properties": {"facility_name": "IC SECURITY PRINTERS INC", "industry": null, "tri_facility_id": "84104CSCRT1635S"}}, {"type": "Feature", "geometry": {"type": "Point", "coordinates": [-111.91055555555556, 40.768055555555556]}, "properties": {"facility_name": "CYTOZYME LABORATORIES INC", "industry": null, "tri_facility_id": "84104CYTZY134S7"}}, {"type": "Feature", "geometry": {"type": "Point", "coordinates": [-111.956721, 40.741702]}, "properties": {"facility_name": "MIDWESTERN FABRICATORS INC", "industry": null, "tri_facility_id": "84104DLTFB1235S"}}, {"type": "Feature", "geometry": {"type": "Point", "coordinates": [-111.968056, 40.786944]}, "properties": {"facility_name": "PUROLATOR PRODUCTS INC", "industry": null, "tri_facility_id": "84104FCTTM1900S"}}, {"type": "Feature", "geometry": {"type": "Point", "coordinates": [-112.00472222222223, 40.73111111111111]}, "properties": {"facility_name": "SCHNEIDER ELECTRIC USA INC", "industry": null, "tri_facility_id": "84104FLCTR1751S"}}, {"type": "Feature", "geometry": {"type": "Point", "coordinates": [-111.9525, 40.74722222222222]}, "properties": {"facility_name": "BRENNTAG PACIFIC INC", "industry": null, "tri_facility_id": "84104GRTWS2334W"}}, {"type": "Feature", "geometry": {"type": "Point", "coordinates": [-111.975833, 40.728889]}, "properties": {"facility_name": "HENKEL US OPERATION CORP", "industry": null, "tri_facility_id": "84104HSHDT3540W"}}, {"type": "Feature", "geometry": {"type": "Point", "coordinates": [-111.908889, 40.735556]}, "properties": {"facility_name": "OLYMPIA SALES CO", "industry": null, "tri_facility_id": "84104LYMPS1537S"}}, {"type": "Feature", "geometry": {"type": "Point", "coordinates": [-111.910278, 40.762778]}, "properties": {"facility_name": "EIMCO PROCESS EQUIPMENT", "industry": null, "tri_facility_id": "84104MCPRC669WE"}}, {"type": "Feature", "geometry": {"type": "Point", "coordinates": [-111.890556, 40.747778]}, "properties": {"facility_name": "DFA DAIRY BRANDS FLUID LLC DBA MEADOW GOLD DAIRY", "industry": null, "tri_facility_id": "84104MDWGL3730W"}}, {"type": "Feature", "geometry": {"type": "Point", "coordinates": [-111.891667, 40.755556]}, "properties": {"facility_name": "MARK STEEL CORP PIONEER PLANT", "industry": null, "tri_facility_id": "84104MRKST455W6"}}, {"type": "Feature", "geometry": {"type": "Point", "coordinates": [-111.964722, 40.736944]}, "properties": {"facility_name": "ENGELHARD CORP", "industry": null, "tri_facility_id": "84104NGLHR2580A"}}, {"type": "Feature", "geometry": {"type": "Point", "coordinates": [-112.00194444444445, 40.72777777777778]}, "properties": {"facility_name": "PILKINGTON METAL FINISHING LLC", "industry": null, "tri_facility_id": "84104PLKNG4088W"}}, {"type": "Feature", "geometry": {"type": "Point", "coordinates": [-111.957778, 40.737222]}, "properties": {"facility_name": "ACADEMY PIONEER LLC", "industry": null, "tri_facility_id": "84104PNRRF1520P"}}, {"type": "Feature", "geometry": {"type": "Point", "coordinates": [-111.910556, 40.747222]}, "properties": {"facility_name": "PRS INC", "industry": null, "tri_facility_id": "84104PRSRC977SO"}}, {"type": "Feature", "geometry": {"type": "Point", "coordinates": [-111.9595, 40.7359]}, "properties": {"facility_name": "ROCKY MOUNTAIN REFRACTORIES", "industry": null, "tri_facility_id": "84104RCKYM2363W"}}, {"type": "Feature", "geometry": {"type": "Point", "coordinates": [-111.94861111111112, 40.73916666666667]}, "properties": {"facility_name": "AIRGAS INTERMOUNTAIN", "industry": null, "tri_facility_id": "84104RGSNT1177S"}}, {"type": "Feature", "geometry": {"type": "Point", "coordinates": [-111.95694444444445, 40.74305555555556]}, "properties": {"facility_name": "AIRGAS USA LLC", "industry": null, "tri_facility_id": "84104RGSPN1211S"}}, {"type": "Feature", "geometry": {"type": "Point", "coordinates": [-111.947222, 40.751111]}, "properties": {"facility_name": "WESTERN BRIQUETTE & REP CHEMICALS CO", "industry": null, "tri_facility_id": "84104RPNCD2150W"}}, {"type": "Feature", "geometry": {"type": "Point", "coordinates": [-111.956588, 40.740617]}, "properties": {"facility_name": "USA INDUSTRIES", "industry": null, "tri_facility_id": "84104SNDST1291S"}}, {"type": "Feature", "geometry": {"type": "Point", "coordinates": [-111.95527777777778, 40.76027777777778]}, "properties": {"facility_name": "STEEL COATINGS INC", "industry": null, "tri_facility_id": "84104STLCT410SO"}}, {"type": "Feature", "geometry": {"type": "Point", "coordinates": [-111.945278, 40.730556]}, "properties": {"facility_name": "EASTMAN CHRISTENSEN", "industry": null, "tri_facility_id": "84104STMNC1822S"}}, {"type": "Feature", "geometry": {"type": "Point", "coordinates": [-111.958333, 40.75]}, "properties": {"facility_name": "STAR FOUNDRY & MACHINE", "industry": null, "tri_facility_id": "84104STRBR976PI"}}, {"type": "Feature", "geometry": {"type": "Point", "coordinates": [-111.890278, 40.729167]}, "properties": {"facility_name": "ATWOOD MOBILE PRODUCTS", "industry": null, "tri_facility_id": "84104TWDMB1847S"}}, {"type": "Feature", "geometry": {"type": "Point", "coordinates": [-111.90972222222223, 40.75333333333333]}, "properties": {"facility_name": "UNIVAR SOLUTIONS SALT LAKE CITY", "industry": null, "tri_facility_id": "84104VNWTR650W8"}}, {"type": "Feature", "geometry": {"type": "Point", "coordinates": [-111.959722, 40.733333]}, "properties": {"facility_name": "VAREX IMAGING CORP", "industry": null, "tri_facility_id": "84104VRNMC1678S"}}, {"type": "Feature", "geometry": {"type": "Point", "coordinates": [-111.969722, 40.773611]}, "properties": {"facility_name": "OWENS CORNING INSULATING SYSTEM LLC-SALT LAKE CITY", "industry": null, "tri_facility_id": "84104WSTRN4340W"}}, {"type": "Feature", "geometry": {"type": "Point", "coordinates": [-111.891667, 40.658333]}, "properties": {"facility_name": "BUEHNER CORP", "industry": null, "tri_facility_id": "84107BHNRC5200S"}}, {"type": "Feature", "geometry": {"type": "Point", "coordinates": [-111.90583333333333, 40.66722222222222]}, "properties": {"facility_name": "ELITE MARBLE & MAINTENANCE INC", "industry": null, "tri_facility_id": "84107LTMRB23W48"}}, {"type": "Feature", "geometry": {"type": "Point", "coordinates": [-111.894444, 40.675833]}, "properties": {"facility_name": "SIMPSON STEEL FABRICATORS &, ERECTORS INC", "industry": null, "tri_facility_id": "84107SMPSN120WF"}}, {"type": "Feature", "geometry": {"type": "Point", "coordinates": [-111.9025, 40.666667]}, "properties": {"facility_name": "EXPRESS METAL FABRICATORS LLC-ST GEORGE STEEL DIV", "industry": null, "tri_facility_id": "84107TTNST4315S"}}, {"type": "Feature", "geometry": {"type": "Point", "coordinates": [-111.883611, 40.683056]}, "properties": {"facility_name": "VACATION VILLAGE INC.", "industry": null, "tri_facility_id": "84107VCTNV4231S"}}, {"type": "Feature", "geometry": {"type": "Point", "coordinates": [-111.82916666666667, 40.757222222222225]}, "properties": {"facility_name": "SANMINA-SCI", "industry": null, "tri_facility_id": "84108SNMNS560AR"}}, {"type": "Feature", "geometry": {"type": "Point", "coordinates": [-111.82083333333333, 40.75833333333333]}, "properties": {"facility_name": "ACTAVIS LABORATORIES UT INC", "industry": null, "tri_facility_id": "84108WTSNL575CH"}}, {"type": "Feature", "geometry": {"type": "Point", "coordinates": [-111.904444, 40.751944]}, "properties": {"facility_name": "TRILLIUM PUMPS USA INC", "industry": null, "tri_facility_id": "84110BGNTR440W8"}}, {"type": "Feature", "geometry": {"type": "Point", "coordinates": [-111.905, 40.741389]}, "properties": {"facility_name": "CENEX SUPPLY & MARKETING INC", "industry": null, "tri_facility_id": "84115CNXSP580WE"}}, {"type": "Feature", "geometry": {"type": "Point", "coordinates": [-111.888889, 40.728056]}, "properties": {"facility_name": "OC TANNER MANUFACTURING CO", "industry": null, "tri_facility_id": "84115CTNNR1930S"}}, {"type": "Feature", "geometry": {"type": "Point", "coordinates": [-111.898056, 40.713611]}, "properties": {"facility_name": "EDO CORP WESTERN DIV", "industry": null, "tri_facility_id": "84115DCRPR2645S"}}, {"type": "Feature", "geometry": {"type": "Point", "coordinates": [-111.883333, 40.718056]}, "properties": {"facility_name": "DALEBOOT USA", "industry": null, "tri_facility_id": "84115DLBTS2150S"}}, {"type": "Feature", "geometry": {"type": "Point", "coordinates": [-111.891667, 40.719444]}, "properties": {"facility_name": "FETZER'S INC", "industry": null, "tri_facility_id": "84115FTZRS1436S"}}, {"type": "Feature", "geometry": {"type": "Point", "coordinates": [-111.8907, 40.713]}, "properties": {"facility_name": "HUGHES CHRISTENSEN CO", "industry": null, "tri_facility_id": "84115HGHSC1937S"}}, {"type": "Feature", "geometry": {"type": "Point", "coordinates": [-111.89694444444446, 40.73361111111111]}, "properties": {"facility_name": "LYNRUS", "industry": null, "tri_facility_id": "84115LNRSL24W17"}}, {"type": "Feature", "geometry": {"type": "Point", "coordinates": [-111.891667, 40.71]}, "properties": {"facility_name": "PRECISION TECHNOLOGY INC", "industry": null, "tri_facility_id": "84115PRCSN2970S"}}, {"type": "Feature", "geometry": {"type": "Point", "coordinates": [-111.8907, 40.713]}, "properties": {"facility_name": "PAX CO", "industry": null, "tri_facility_id": "84115PXCXX580W1"}}, {"type": "Feature", "geometry": {"type": "Point", "coordinates": [-111.8907, 40.713]}, "properties": {"facility_name": "SALT LAKE EGG INC", "industry": null, "tri_facility_id": "84115SLTLK1855S"}}, {"type": "Feature", "geometry": {"type": "Point", "coordinates": [-111.925, 40.825]}, "properties": {"facility_name": "CHEVRON PRODUCTS CO - SALT LAKE REFINERY", "industry": null, "tri_facility_id": "84116CHVRN2351N"}}, {"type": "Feature", "geometry": {"type": "Point", "coordinates": [-112.013861, 40.775618]}, "properties": {"facility_name": "ACME ELECTRIC CORP POWER PRODS GROUP", "industry": null, "tri_facility_id": "84116CMLCT5416A"}}, {"type": "Feature", "geometry": {"type": "Point", "coordinates": [-111.9608, 40.8057]}, "properties": {"facility_name": "COMPEQ INTERNATIONAL", "industry": null, "tri_facility_id": "84116CMPQN620NO"}}, {"type": "Feature", "geometry": {"type": "Point", "coordinates": [-111.92, 40.77583333333333]}, "properties": {"facility_name": "PEAK ASPHALT LLC GADSBY ASPHALT TERMINAL", "industry": null, "tri_facility_id": "84116CRWNS1251W"}}, {"type": "Feature", "geometry": {"type": "Point", "coordinates": [-111.95138888888889, 40.78333333333333]}, "properties": {"facility_name": "L3 TECHNOLOGIES INC. COMMUNICATION SYSTEMS - WEST", "industry": null, "tri_facility_id": "84116L3CMM640N2"}}, {"type": "Feature", "geometry": {"type": "Point", "coordinates": [-112.014167, 40.78]}, "properties": {"facility_name": "VIKTRON UTAH", "industry": null, "tri_facility_id": "84116LKTHX594NB"}}, {"type": "Feature", "geometry": {"type": "Point", "coordinates": [-111.954722, 40.771111]}, "properties": {"facility_name": "NORTHROP GRUMMAN SYSTEMS COPORATION", "industry": null, "tri_facility_id": "84116LTTNG2211W"}}, {"type": "Feature", "geometry": {"type": "Point", "coordinates": [-111.8725, 40.766667]}, "properties": {"facility_name": "MARK STEEL CORP JORDAN RIVER PLANT", "industry": null, "tri_facility_id": "84116MRKST1230W"}}, {"type": "Feature", "geometry": {"type": "Point", "coordinates": [-111.951111, 40.777778]}, "properties": {"facility_name": "PARAMAX SYSTEMS CORP PARAMAX", "industry": null, "tri_facility_id": "84116NSYSS322NO"}}, {"type": "Feature", "geometry": {"type": "Point", "coordinates": [-111.966389, 40.816667]}, "properties": {"facility_name": "ROCKY MOUNTAIN FABRICATION", "industry": null, "tri_facility_id": "84116RCKYM1125W"}}, {"type": "Feature", "geometry": {"type": "Point", "coordinates": [-111.91861111111112, 40.80916666666666]}, "properties": {"facility_name": "STAKER & PARSON COS BECK NORTH READY MIX & ASPHALT", "industry": null, "tri_facility_id": "84116STKRP2080N"}}, {"type": "Feature", "geometry": {"type": "Point", "coordinates": [-111.951667, 40.775556]}, "properties": {"facility_name": "STONE CONTAINER CORP BAG PKG EQUIP", "industry": null, "tri_facility_id": "84116STNCN1881W"}}, {"type": "Feature", "geometry": {"type": "Point", "coordinates": [-112.011111, 40.781944]}, "properties": {"facility_name": "EASTON TECHNICAL PRODUCTS", "industry": null, "tri_facility_id": "84116STNLM5040W"}}, {"type": "Feature", "geometry": {"type": "Point", "coordinates": [-111.861944, 40.664444]}, "properties": {"facility_name": "GULL LABORATORIES INC", "industry": null, "tri_facility_id": "84117GLLLB1011E"}}, {"type": "Feature", "geometry": {"type": "Point", "coordinates": [-112.013611, 40.666111]}, "properties": {"facility_name": "SPS TECHS INC", "industry": null, "tri_facility_id": "84118SPSTC5195W"}}, {"type": "Feature", "geometry": {"type": "Point", "coordinates": [-111.964167, 40.726389]}, "properties": {"facility_name": "BONNEVILLE CANNING CO", "industry": null, "tri_facility_id": "84119BNNVL2269S"}}, {"type": "Feature", "geometry": {"type": "Point", "coordinates": [-111.916944, 40.713889]}, "properties": {"facility_name": "DAW TECHNOLOGIES", "industry": null, "tri_facility_id": "84119DWTCH2700S"}}, {"type": "Feature", "geometry": {"type": "Point", "coordinates": [-111.9088888888889, 40.68472222222222]}, "properties": {"facility_name": "FABRI-NETICS", "industry": null, "tri_facility_id": "84119FBRNT643WE"}}, {"type": "Feature", "geometry": {"type": "Point", "coordinates": [-111.91, 40.698333]}, "properties": {"facility_name": "AIRGAS MOUNTAIN INC (DBA UTAH WELDERS SUPPLY CO", "industry": null, "tri_facility_id": "84119MNTNR3415S"}}, {"type": "Feature", "geometry": {"type": "Point", "coordinates": [-111.944722, 40.718056]}, "properties": {"facility_name": "INTERCON INC", "industry": null, "tri_facility_id": "84119NTRCN1811W"}}, {"type": "Feature", "geometry": {"type": "Point", "coordinates": [-111.966667, 40.73]}, "properties": {"facility_name": "INTERMOUNTAIN DESIGN INC", "industry": null, "tri_facility_id": "84119NTRMN2190S"}}, {"type": "Feature", "geometry": {"type": "Point", "coordinates": [-111.97555555555556, 40.722500000000004]}, "properties": {"facility_name": "PARKER HANNIFIN CORP EPS DIV", "industry": null, "tri_facility_id": "84119PRKRP2220S"}}, {"type": "Feature", "geometry": {"type": "Point", "coordinates": [-111.908333, 40.696667]}, "properties": {"facility_name": "WEIR MINERALS LINATEX- SALT LAKE CITY", "industry": null, "tri_facility_id": "84119RBBRN3459S"}}, {"type": "Feature", "geometry": {"type": "Point", "coordinates": [-111.97694444444444, 40.70472222222222]}, "properties": {"facility_name": "GREENFIBER SLC INC", "industry": null, "tri_facility_id": "84119RDTHR361S3"}}, {"type": "Feature", "geometry": {"type": "Point", "coordinates": [-111.9088888888889, 40.68472222222222]}, "properties": {"facility_name": "VERMAX KITCHEN & BATH", "industry": null, "tri_facility_id": "84119SLDSR3575S"}}, {"type": "Feature", "geometry": {"type": "Point", "coordinates": [-111.940833, 40.729722]}, "properties": {"facility_name": "SALT LAKE CIRCUITS", "industry": null, "tri_facility_id": "84119SLTLK2036W"}}, {"type": "Feature", "geometry": {"type": "Point", "coordinates": [-111.969722, 40.721389]}, "properties": {"facility_name": "E-SYSTEMS INC MONTEK DIV", "industry": null, "tri_facility_id": "84119SYSTM2268S"}}, {"type": "Feature", "geometry": {"type": "Point", "coordinates": [-111.908889, 40.684722]}, "properties": {"facility_name": "VERMAX", "industry": null, "tri_facility_id": "84119VRMXN660WE"}}, {"type": "Feature", "geometry": {"type": "Point", "coordinates": [-112.0025, 40.725833]}, "properties": {"facility_name": "ASAHI REFINING USA INC", "industry": null, "tri_facility_id": "84120JHNSN4601W"}}, {"type": "Feature", "geometry": {"type": "Point", "coordinates": [-112.0025, 40.725833333333334]}, "properties": {"facility_name": "HONEYWELL INTERNATIONAL  INC", "industry": null, "tri_facility_id": "84120THLTG4603W"}}, {"type": "Feature", "geometry": {"type": "Point", "coordinates": [-112.014444, 40.681389]}, "properties": {"facility_name": "WINDER DAIRY INC", "industry": null, "tri_facility_id": "84120WNDRD4400W"}}, {"type": "Feature", "geometry": {"type": "Point", "coordinates": [-111.916667, 40.666667]}, "properties": {"facility_name": "ICU MEDICAL", "industry": null, "tri_facility_id": "84123BBTTC4455A"}}, {"type": "Feature", "geometry": {"type": "Point", "coordinates": [-111.905278, 40.683333]}, "properties": {"facility_name": "IC GROUP - IC SECURITY PRINTERS INC.", "industry": null, "tri_facility_id": "84123CSCRT4080S"}}, {"type": "Feature", "geometry": {"type": "Point", "coordinates": [-111.933333, 40.733333]}, "properties": {"facility_name": "THATCHER CO", "industry": null, "tri_facility_id": "84127THTCH1905F"}}, {"type": "Feature", "geometry": {"type": "Point", "coordinates": [-111.890111, 40.7659]}, "properties": {"facility_name": "NEWSPAPER AGENCY CORP", "industry": null, "tri_facility_id": "84145NWSPP143SM"}}]}