{"type": "FeatureCollection", "features": [{"type": "Feature", "properties": {"area_id": 4271, "city": "Battle Creek", "state": "MI", "city_survey": true, "cat": "Best", "grade": "A", "label": "A1", "res": true, "com": false, "ind": false, "holc_grade": "A"}, "geometry": {"type": "Polygon", "coordinates": [[[-85.17027, 42.32644], [-85.17034, 42.32589], [-85.1715, 42.32565], [-85.17313, 42.32582], [-85.173276, 42.328421], [-85.17331, 42.32903], [-85.17322, 42.33239], [-85.17025, 42.33246], [-85.17027, 42.33002], [-85.16832, 42.32995], [-85.168303, 42.328485], [-85.16828, 42.32649], [-85.17027, 42.32644]]]}}, {"type": "Feature", "properties": {"area_id": 4237, "city": "Battle Creek", "state": "MI", "city_survey": true, "cat": "Best", "grade": "A", "label": "A2", "res": true, "com": false, "ind": false, "holc_grade": "A"}, "geometry": {"type": "Polygon", "coordinates": [[[-85.19608, 42.27817], [-85.19626, 42.27735], [-85.19754, 42.27563], [-85.19883, 42.27571], [-85.1989, 42.27938], [-85.198969, 42.282899], [-85.19897, 42.28294], [-85.194315, 42.28294], [-85.190851, 42.28294], [-85.18906, 42.28294], [-85.189025, 42.278865], [-85.18902, 42.27827], [-85.19608, 42.27817]]]}}, {"type": "Feature", "properties": {"area_id": 4239, "city": "Battle Creek", "state": "MI", "city_survey": true, "cat": "Best", "grade": "A", "label": "A3", "res": true, "com": false, "ind": false, "holc_grade": "A"}, "geometry": {"type": "Polygon", "coordinates": [[[-85.2163, 42.28043], [-85.21533, 42.28072], [-85.21483, 42.28109], [-85.2143, 42.28159], [-85.21426, 42.28202], [-85.2133, 42.28231], [-85.21287, 42.28236], [-85.21202, 42.28223], [-85.21173, 42.28188], [-85.21145, 42.28125], [-85.21109, 42.28096], [-85.2107, 42.28075], [-85.21006, 42.2808], [-85.20984, 42.28091], [-85.20941, 42.28104], [-85.20895, 42.28133], [-85.20867, 42.28144], [-85.20877, 42.28062], [-85.20977, 42.2803], [-85.21113, 42.28043], [-85.21177, 42.28059], [-85.21252, 42.28165], [-85.21273, 42.28175], [-85.21302, 42.28181], [-85.21359, 42.28144], [-85.21476, 42.28051], [-85.21605, 42.27985], [-85.21719, 42.27967], [-85.21786, 42.27975], [-85.21783, 42.28033], [-85.2163, 42.28043]]]}}, {"type": "Feature", "properties": {"area_id": 4260, "city": "Battle Creek", "state": "MI", "city_survey": true, "cat": "Still Desirable", "grade": "B", "label": "B1", "res": true, "com": false, "ind": false, "holc_grade": "B"}, "geometry": {"type": "Polygon", "coordinates": [[[-85.19818, 42.32973], [-85.19814, 42.33129], [-85.198, 42.33173], [-85.19016, 42.33179], [-85.19009, 42.33092], [-85.19205, 42.33092], [-85.19226, 42.32978], [-85.19818, 42.32973]]]}}, {"type": "Feature", "properties": {"area_id": 4270, "city": "Battle Creek", "state": "MI", "city_survey": true, "cat": "Still Desirable", "grade": "B", "label": "B2", "res": true, "com": false, "ind": false, "holc_grade": "B"}, "geometry": {"type": "Polygon", "coordinates": [[[-85.18038, 42.33015], [-85.180376, 42.33015], [-85.17833, 42.32992], [-85.17828, 42.33064], [-85.17581, 42.33069], [-85.17586, 42.32988], [-85.17486, 42.3299], [-85.17476, 42.33064], [-85.17431, 42.33067], [-85.17429, 42.33243], [-85.17322, 42.33239], [-85.17331, 42.32903], [-85.17587, 42.32918], [-85.17599, 42.32809], [-85.180326, 42.327934], [-85.18044, 42.32793], [-85.18038, 42.33015]]]}}, {"type": "Feature", "properties": {"area_id": 4272, "city": "Battle Creek", "state": "MI", "city_survey": true, "cat": "Still Desirable", "grade": "B", "label": "B3", "res": true, "com": false, "ind": false, "holc_grade": "B"}, "geometry": {"type": "Polygon", "coordinates": [[[-85.16718, 42.32364], [-85.16764, 42.32349], [-85.17141, 42.32295], [-85.1715, 42.32565], [-85.17034, 42.32589], [-85.17027, 42.32644], [-85.16828, 42.32649], [-85.168303, 42.328485], [-85.16832, 42.32995], [-85.167689, 42.329996], [-85.16737, 42.33002], [-85.16718, 42.32364]]]}}, {"type": "Feature", "properties": {"area_id": 4273, "city": "Battle Creek", "state": "MI", "city_survey": true, "cat": "Still Desirable", "grade": "B", "label": "B4", "res": true, "com": false, "ind": false, "holc_grade": "B"}, "geometry": {"type": "Polygon", "coordinates": [[[-85.16396, 42.32644], [-85.16405, 42.3242], [-85.16465, 42.32415], [-85.16471, 42.32773], [-85.1639, 42.32778], [-85.1639, 42.3271], [-85.16153, 42.32712], [-85.16156, 42.32644], [-85.16396, 42.32644]]]}}, {"type": "Feature", "properties": {"area_id": 4252, "city": "Battle Creek", "state": "MI", "city_survey": true, "cat": "Still Desirable", "grade": "B", "label": "B5", "res": true, "com": false, "ind": false, "holc_grade": "B"}, "geometry": {"type": "Polygon", "coordinates": [[[-85.21815, 42.3084], [-85.21877, 42.30847], [-85.21885, 42.30467], [-85.22377, 42.30457], [-85.22387, 42.30338], [-85.22986, 42.30333], [-85.22993, 42.30602], [-85.21992, 42.30591], [-85.21974, 42.30939], [-85.21988, 42.312], [-85.219695, 42.31201], [-85.21899, 42.31205], [-85.218795, 42.312011], [-85.21839, 42.31193], [-85.21815, 42.3084]]]}}, {"type": "Feature", "properties": {"area_id": 4245, "city": "Battle Creek", "state": "MI", "city_survey": true, "cat": "Still Desirable", "grade": "B", "label": "B6", "res": true, "com": false, "ind": false, "holc_grade": "B"}, "geometry": {"type": "Polygon", "coordinates": [[[-85.213653, 42.30473], [-85.21459, 42.30476], [-85.2148, 42.30655], [-85.21358, 42.30651], [-85.211377, 42.306447], [-85.20938, 42.30639], [-85.20924, 42.30478], [-85.211335, 42.304789], [-85.21145, 42.30479], [-85.211445, 42.304728], [-85.21144, 42.30466], [-85.213653, 42.30473]]]}}, {"type": "Feature", "properties": {"area_id": 4241, "city": "Battle Creek", "state": "MI", "city_survey": true, "cat": "Still Desirable", "grade": "B", "label": "B7", "res": true, "com": false, "ind": false, "holc_grade": "B"}, "geometry": {"type": "Polygon", "coordinates": [[[-85.21105, 42.29535], [-85.21043, 42.29518], [-85.20936, 42.29546], [-85.20836, 42.2954], [-85.20808, 42.29518], [-85.20796, 42.29491], [-85.2077, 42.29495], [-85.20746, 42.29502], [-85.20736, 42.2947], [-85.20772, 42.29421], [-85.20867, 42.29405], [-85.21012, 42.29403], [-85.21064, 42.29382], [-85.21102, 42.29356], [-85.21133, 42.29342], [-85.21304, 42.29345], [-85.2135, 42.29347], [-85.21366, 42.29322], [-85.21366, 42.29294], [-85.21309, 42.29285], [-85.2125, 42.29284], [-85.21205, 42.29256], [-85.21131, 42.29182], [-85.21086, 42.2914], [-85.21024, 42.29104], [-85.20969, 42.29089], [-85.20967, 42.29073], [-85.21012, 42.29066], [-85.21024, 42.29048], [-85.21043, 42.29008], [-85.2105, 42.28999], [-85.21086, 42.28987], [-85.21121, 42.28951], [-85.21155, 42.28913], [-85.21243, 42.2886], [-85.21321, 42.28851], [-85.21421, 42.28846], [-85.21483, 42.28876], [-85.21174, 42.29052], [-85.21231, 42.2908], [-85.21314, 42.29124], [-85.21395, 42.29143], [-85.21464, 42.29145], [-85.21471, 42.29162], [-85.2149, 42.29187], [-85.21502, 42.29205], [-85.21506, 42.29347], [-85.21143, 42.294], [-85.21133, 42.29579], [-85.21105, 42.29535]]]}}, {"type": "Feature", "properties": {"area_id": 4238, "city": "Battle Creek", "state": "MI", "city_survey": true, "cat": "Still Desirable", "grade": "B", "label": "B8", "res": true, "com": false, "ind": false, "holc_grade": "B"}, "geometry": {"type": "Polygon", "coordinates": [[[-85.19883, 42.27571], [-85.19865, 42.27537], [-85.20859, 42.27508], [-85.208603, 42.275498], [-85.20867, 42.27764], [-85.20054, 42.27769], [-85.20039, 42.27938], [-85.198987, 42.27938], [-85.1989, 42.27938], [-85.19883, 42.27571]]]}}, {"type": "Feature", "properties": {"area_id": 4254, "city": "Battle Creek", "state": "MI", "city_survey": true, "cat": "Definitely Declining", "grade": "C", "label": "C1", "res": true, "com": false, "ind": false, "holc_grade": "C"}, "geometry": {"type": "Polygon", "coordinates": [[[-85.26899, 42.36225], [-85.26903, 42.35777], [-85.27434, 42.3588], [-85.27434, 42.35477], [-85.28329, 42.35527], [-85.28354, 42.36281], [-85.26899, 42.36225]]]}}, {"type": "Feature", "properties": {"area_id": 4274, "city": "Battle Creek", "state": "MI", "city_survey": true, "cat": "Definitely Declining", "grade": "C", "label": "C10", "res": true, "com": false, "ind": false, "holc_grade": "C"}, "geometry": {"type": "Polygon", "coordinates": [[[-85.16764, 42.32349], [-85.16718, 42.32364], [-85.16737, 42.33002], [-85.16664, 42.33], [-85.166641, 42.330067], [-85.1667, 42.3334], [-85.17106, 42.33345], [-85.1708, 42.33667], [-85.16913, 42.33672], [-85.16901, 42.33953], [-85.16581, 42.33946], [-85.165771, 42.338704], [-85.16566, 42.33654], [-85.16069, 42.33648], [-85.16108, 42.33746], [-85.161113, 42.338482], [-85.16126, 42.34304], [-85.161094, 42.343041], [-85.15422, 42.34309], [-85.15487, 42.33935], [-85.154962, 42.338509], [-85.1555, 42.33358], [-85.15398, 42.33366], [-85.15374, 42.33215], [-85.15362, 42.33202], [-85.15353, 42.33019], [-85.15428, 42.33035], [-85.15413, 42.32598], [-85.15564, 42.32591], [-85.15567, 42.32519], [-85.15642, 42.32506], [-85.15651, 42.32462], [-85.15725, 42.32402], [-85.15775, 42.32402], [-85.15802, 42.32358], [-85.16019, 42.3235], [-85.16013, 42.3231], [-85.160334, 42.322959], [-85.16399, 42.32042], [-85.16758, 42.32075], [-85.16764, 42.32349]], [[-85.16135, 42.32585], [-85.16156, 42.32644], [-85.16153, 42.32712], [-85.1639, 42.3271], [-85.1639, 42.32778], [-85.16471, 42.32773], [-85.16465, 42.32415], [-85.16405, 42.3242], [-85.16173, 42.32475], [-85.16064, 42.32543], [-85.16135, 42.32585]]]}}, {"type": "Feature", "properties": {"area_id": 4251, "city": "Battle Creek", "state": "MI", "city_survey": true, "cat": "Definitely Declining", "grade": "C", "label": "C11", "res": true, "com": false, "ind": false, "holc_grade": "C"}, "geometry": {"type": "Polygon", "coordinates": [[[-85.21974, 42.30939], [-85.23856, 42.30905], [-85.23885, 42.31184], [-85.24409, 42.31174], [-85.24412, 42.31546], [-85.23881, 42.31551], [-85.23881, 42.318701], [-85.23881, 42.31883], [-85.23624, 42.31886], [-85.23621, 42.32031], [-85.2387, 42.32025], [-85.23899, 42.32379], [-85.23186, 42.32373], [-85.22947, 42.32334], [-85.22366, 42.32284], [-85.21949, 42.32255], [-85.21935, 42.32183], [-85.21952, 42.31949], [-85.22644, 42.31938], [-85.22648, 42.31733], [-85.2192, 42.31754], [-85.21899, 42.31205], [-85.219695, 42.31201], [-85.21988, 42.312], [-85.21974, 42.30939]], [[-85.21992, 42.31485], [-85.21984, 42.31661], [-85.22177, 42.31656], [-85.2222, 42.31551], [-85.22181, 42.31464], [-85.22091, 42.31432], [-85.21992, 42.31485]]]}}, {"type": "Feature", "properties": {"area_id": 4253, "city": "Battle Creek", "state": "MI", "city_survey": true, "cat": "Definitely Declining", "grade": "C", "label": "C12", "res": true, "com": false, "ind": false, "holc_grade": "C"}, "geometry": {"type": "Polygon", "coordinates": [[[-85.23371, 42.29734], [-85.23371, 42.297367], [-85.23371, 42.30454], [-85.23856, 42.30457], [-85.23856, 42.30905], [-85.21974, 42.30939], [-85.21992, 42.30591], [-85.22993, 42.30602], [-85.22986, 42.30333], [-85.22387, 42.30338], [-85.22359, 42.297426], [-85.22359, 42.29742], [-85.23371, 42.29734]]]}}, {"type": "Feature", "properties": {"area_id": 4246, "city": "Battle Creek", "state": "MI", "city_survey": true, "cat": "Definitely Declining", "grade": "C", "label": "C13", "res": true, "com": false, "ind": false, "holc_grade": "C"}, "geometry": {"type": "Polygon", "coordinates": [[[-85.19862, 42.3047], [-85.20924, 42.30478], [-85.20938, 42.30639], [-85.211377, 42.306447], [-85.21358, 42.30651], [-85.21369, 42.30835], [-85.21815, 42.3084], [-85.21839, 42.31193], [-85.211518, 42.311977], [-85.211438, 42.311977], [-85.20953, 42.31199], [-85.209462, 42.31199], [-85.20487, 42.31202], [-85.20481, 42.31202], [-85.20404, 42.31202], [-85.204036, 42.311944], [-85.20392, 42.30965], [-85.20356, 42.30829], [-85.19964, 42.30826], [-85.19943, 42.30644], [-85.19466, 42.30639], [-85.19468, 42.30583], [-85.1941, 42.30586], [-85.194194, 42.304691], [-85.1942, 42.30462], [-85.197315, 42.304676], [-85.19862, 42.3047]]]}}, {"type": "Feature", "properties": {"area_id": 4243, "city": "Battle Creek", "state": "MI", "city_survey": true, "cat": "Definitely Declining", "grade": "C", "label": "C14", "res": true, "com": false, "ind": false, "holc_grade": "C"}, "geometry": {"type": "Polygon", "coordinates": [[[-85.199385, 42.298435], [-85.19943, 42.29853], [-85.20349, 42.29857], [-85.20361, 42.29924], [-85.21112, 42.29918], [-85.21144, 42.30466], [-85.211445, 42.304728], [-85.21145, 42.30479], [-85.211335, 42.304789], [-85.20924, 42.30478], [-85.19862, 42.3047], [-85.19862, 42.30467], [-85.19864, 42.30026], [-85.19405, 42.30033], [-85.19391, 42.2992], [-85.19068, 42.29932], [-85.19082, 42.30465], [-85.19034, 42.30467], [-85.18973, 42.304692], [-85.18949, 42.3047], [-85.189335, 42.298573], [-85.18932, 42.29799], [-85.19919, 42.29802], [-85.199385, 42.298435]]]}}, {"type": "Feature", "properties": {"area_id": 4240, "city": "Battle Creek", "state": "MI", "city_survey": true, "cat": "Definitely Declining", "grade": "C", "label": "C15", "res": true, "com": false, "ind": false, "holc_grade": "C"}, "geometry": {"type": "Polygon", "coordinates": [[[-85.2032, 42.2879], [-85.20373, 42.28765], [-85.20489, 42.28739], [-85.20553, 42.2873], [-85.20646, 42.28733], [-85.20587, 42.28656], [-85.20579, 42.28621], [-85.20572, 42.2845], [-85.20684, 42.28452], [-85.20691, 42.28498], [-85.20708, 42.28556], [-85.20743, 42.2867], [-85.20741, 42.28726], [-85.20736, 42.28814], [-85.20703, 42.28827], [-85.20651, 42.28863], [-85.20622, 42.28916], [-85.20579, 42.28951], [-85.20544, 42.28964], [-85.2047, 42.29015], [-85.20377, 42.29009], [-85.20294, 42.29022], [-85.20232, 42.29062], [-85.20194, 42.29101], [-85.20059, 42.29168], [-85.20019, 42.29169], [-85.19976, 42.2922], [-85.19926, 42.29285], [-85.19926, 42.292849], [-85.19907, 42.28832], [-85.199157, 42.288317], [-85.20304, 42.2882], [-85.2032, 42.2879]]]}}, {"type": "Feature", "properties": {"area_id": 4247, "city": "Battle Creek", "state": "MI", "city_survey": true, "cat": "Definitely Declining", "grade": "C", "label": "C16", "res": true, "com": false, "ind": false, "holc_grade": "C"}, "geometry": {"type": "Polygon", "coordinates": [[[-85.19037, 42.30822], [-85.18963, 42.30833], [-85.18734, 42.31055], [-85.18847, 42.31106], [-85.19109, 42.30824], [-85.19415, 42.30832], [-85.19427, 42.30709], [-85.19465, 42.30699], [-85.19466, 42.30639], [-85.19943, 42.30644], [-85.19964, 42.30826], [-85.20356, 42.30829], [-85.20392, 42.30965], [-85.204036, 42.311944], [-85.20404, 42.31202], [-85.20481, 42.31202], [-85.2049, 42.31503], [-85.20493, 42.31615], [-85.20457, 42.31677], [-85.20261, 42.3189], [-85.20448, 42.32013], [-85.20356, 42.32022], [-85.20148, 42.31896], [-85.19655, 42.31615], [-85.19593, 42.31598], [-85.19293, 42.31525], [-85.1912, 42.31508], [-85.19203, 42.31288], [-85.193302, 42.311986], [-85.19566, 42.31033], [-85.19646, 42.3096], [-85.19619, 42.30912], [-85.19527, 42.3087], [-85.19046, 42.31187], [-85.190429, 42.311958], [-85.18933, 42.31505], [-85.1866, 42.31497], [-85.18606, 42.31442], [-85.18544, 42.31411], [-85.18481, 42.31338], [-85.18479, 42.31253], [-85.185304, 42.311855], [-85.18571, 42.31132], [-85.186, 42.31081], [-85.1866, 42.3104], [-85.18862, 42.30859], [-85.18906, 42.30763], [-85.18877, 42.30684], [-85.1874, 42.30574], [-85.18547, 42.30471], [-85.18949, 42.3047], [-85.18973, 42.304692], [-85.19034, 42.30467], [-85.19034, 42.304719], [-85.19037, 42.30822]]]}}, {"type": "Feature", "properties": {"area_id": 4267, "city": "Battle Creek", "state": "MI", "city_survey": true, "cat": "Definitely Declining", "grade": "C", "label": "C17", "res": true, "com": false, "ind": false, "holc_grade": "C"}, "geometry": {"type": "MultiPolygon", "coordinates": [[[[-85.15221, 42.3076], [-85.15238, 42.30913], [-85.1526, 42.31], [-85.15278, 42.31155], [-85.15011, 42.31127], [-85.15021, 42.30981], [-85.14978, 42.30839], [-85.15221, 42.3076]]], [[[-85.16222, 42.30061], [-85.1639, 42.29956], [-85.16529, 42.29927], [-85.16607, 42.29895], [-85.16711, 42.29842], [-85.16907, 42.29853], [-85.17007, 42.29927], [-85.170199, 42.300105], [-85.17064, 42.30296], [-85.17481, 42.30301], [-85.17481, 42.30842], [-85.17484, 42.30926], [-85.17184, 42.30943], [-85.16997, 42.30959], [-85.169911, 42.30959], [-85.15934, 42.3096], [-85.15941, 42.31184], [-85.15869, 42.31183], [-85.15552, 42.31179], [-85.15577, 42.3096], [-85.15573, 42.30791], [-85.155484, 42.305623], [-85.15541, 42.30494], [-85.157242, 42.304818], [-85.15976, 42.30465], [-85.159798, 42.303609], [-85.15991, 42.30058], [-85.1609, 42.30069], [-85.16222, 42.30061]]]]}}, {"type": "Feature", "properties": {"area_id": 4255, "city": "Battle Creek", "state": "MI", "city_survey": true, "cat": "Definitely Declining", "grade": "C", "label": "C2", "res": true, "com": false, "ind": false, "holc_grade": "C"}, "geometry": {"type": "Polygon", "coordinates": [[[-85.25413, 42.36122], [-85.24279, 42.36112], [-85.2429, 42.35854], [-85.24593, 42.3587], [-85.24589, 42.35756], [-85.24949, 42.35762], [-85.24956, 42.3538], [-85.24931, 42.35314], [-85.24832, 42.35285], [-85.24817, 42.3525], [-85.25013, 42.3524], [-85.25067, 42.35282], [-85.25074, 42.35619], [-85.25309, 42.35617], [-85.25317, 42.352], [-85.257933, 42.353807], [-85.26026, 42.35469], [-85.26033, 42.36209], [-85.259593, 42.36208], [-85.25416, 42.36201], [-85.25413, 42.36122]]]}}, {"type": "Feature", "properties": {"area_id": 4256, "city": "Battle Creek", "state": "MI", "city_survey": true, "cat": "Definitely Declining", "grade": "C", "label": "C3", "res": true, "com": false, "ind": false, "holc_grade": "C"}, "geometry": {"type": "Polygon", "coordinates": [[[-85.24516, 42.35227], [-85.24606, 42.35241], [-85.24639, 42.35258], [-85.24817, 42.3525], [-85.24832, 42.35285], [-85.24801, 42.35448], [-85.2443, 42.35441], [-85.24425, 42.35522], [-85.24112, 42.35532], [-85.24116, 42.35655], [-85.239758, 42.356568], [-85.23251, 42.35666], [-85.232256, 42.356506], [-85.22995, 42.35511], [-85.229952, 42.355001], [-85.22999, 42.35244], [-85.239692, 42.352384], [-85.24221, 42.35237], [-85.24516, 42.35227]]]}}, {"type": "Feature", "properties": {"area_id": 4257, "city": "Battle Creek", "state": "MI", "city_survey": true, "cat": "Definitely Declining", "grade": "C", "label": "C4", "res": true, "com": false, "ind": false, "holc_grade": "C"}, "geometry": {"type": "MultiPolygon", "coordinates": [[[[-85.24349, 42.34194], [-85.2434, 42.34152], [-85.24345, 42.34106], [-85.24378, 42.34113], [-85.24387, 42.34148], [-85.24411, 42.3424], [-85.245382, 42.34307], [-85.24597, 42.34338], [-85.24592, 42.34907], [-85.24853, 42.34998], [-85.24796, 42.35178], [-85.24817, 42.3525], [-85.24639, 42.35258], [-85.24606, 42.35241], [-85.24516, 42.35227], [-85.24221, 42.35237], [-85.239692, 42.352384], [-85.22999, 42.35244], [-85.2299, 42.34876], [-85.22011, 42.34872], [-85.22011, 42.34349], [-85.21787, 42.34349], [-85.21773, 42.34039], [-85.22006, 42.33906], [-85.2212, 42.33902], [-85.22215, 42.33955], [-85.22248, 42.34015], [-85.22296, 42.3412], [-85.22381, 42.34215], [-85.22476, 42.34229], [-85.22562, 42.34204], [-85.22638, 42.34134], [-85.22614, 42.34078], [-85.22438, 42.33962], [-85.22415, 42.33902], [-85.22486, 42.33843], [-85.22709, 42.33983], [-85.23289, 42.34212], [-85.23337, 42.34401], [-85.2337, 42.34654], [-85.23346, 42.34774], [-85.23242, 42.3477], [-85.23218, 42.34939], [-85.239647, 42.349627], [-85.23974, 42.34963], [-85.23982, 42.347372], [-85.23983, 42.3471], [-85.2415, 42.34763], [-85.241999, 42.347055], [-85.24202, 42.34703], [-85.24254, 42.34377], [-85.242641, 42.343058], [-85.24273, 42.34243], [-85.24321, 42.34236], [-85.24349, 42.34194]]], [[[-85.23836, 42.34679], [-85.23503, 42.34591], [-85.23584, 42.34229], [-85.23941, 42.34292], [-85.23836, 42.34679]]]]}}, {"type": "Feature", "properties": {"area_id": 4262, "city": "Battle Creek", "state": "MI", "city_survey": true, "cat": "Definitely Declining", "grade": "C", "label": "C5", "res": true, "com": false, "ind": false, "holc_grade": "C"}, "geometry": {"type": "MultiPolygon", "coordinates": [[[[-85.18574, 42.32723], [-85.18809, 42.32826], [-85.18809, 42.33023], [-85.1898, 42.33036], [-85.19009, 42.33092], [-85.19016, 42.33179], [-85.18927, 42.33184], [-85.18909, 42.33108], [-85.1846, 42.3311], [-85.18474, 42.32852], [-85.18574, 42.32723]]], [[[-85.190144, 42.333638], [-85.19012, 42.33571], [-85.19387, 42.33575], [-85.1939, 42.34062], [-85.19041, 42.3407], [-85.19019, 42.33766], [-85.18502, 42.33774], [-85.18502, 42.333877], [-85.18502, 42.33321], [-85.19015, 42.33311], [-85.190144, 42.333638]]]]}}, {"type": "Feature", "properties": {"area_id": 4261, "city": "Battle Creek", "state": "MI", "city_survey": true, "cat": "Definitely Declining", "grade": "C", "label": "C6", "res": true, "com": false, "ind": false, "holc_grade": "C"}, "geometry": {"type": "Polygon", "coordinates": [[[-85.19016, 42.33179], [-85.198, 42.33173], [-85.19814, 42.33129], [-85.2026, 42.33126], [-85.20253, 42.33258], [-85.202425, 42.333361], [-85.20242, 42.3334], [-85.20018, 42.33345], [-85.2, 42.33582], [-85.19387, 42.33575], [-85.19012, 42.33571], [-85.190144, 42.333638], [-85.19015, 42.33311], [-85.19016, 42.33179]]]}}, {"type": "Feature", "properties": {"area_id": 4259, "city": "Battle Creek", "state": "MI", "city_survey": true, "cat": "Definitely Declining", "grade": "C", "label": "C7", "res": true, "com": false, "ind": false, "holc_grade": "C"}, "geometry": {"type": "Polygon", "coordinates": [[[-85.19814, 42.33129], [-85.19818, 42.32973], [-85.19226, 42.32978], [-85.19198, 42.32699], [-85.19201, 42.32665], [-85.19148, 42.32636], [-85.19272, 42.32399], [-85.19369, 42.32414], [-85.19643, 42.32496], [-85.19807, 42.32544], [-85.20096, 42.32636], [-85.20403, 42.3271], [-85.20435, 42.32744], [-85.20492, 42.32791], [-85.20581, 42.32828], [-85.20681, 42.32855], [-85.2097, 42.32986], [-85.20977, 42.33324], [-85.20267, 42.32989], [-85.2026, 42.33126], [-85.19814, 42.33129]]]}}, {"type": "Feature", "properties": {"area_id": 4265, "city": "Battle Creek", "state": "MI", "city_survey": true, "cat": "Definitely Declining", "grade": "C", "label": "C8", "res": true, "com": false, "ind": false, "holc_grade": "C"}, "geometry": {"type": "Polygon", "coordinates": [[[-85.1851, 42.34072], [-85.1851, 42.34802], [-85.180693, 42.34802], [-85.18063, 42.34802], [-85.180656, 42.346003], [-85.18072, 42.34096], [-85.1851, 42.34072]]]}}, {"type": "Feature", "properties": {"area_id": 4269, "city": "Battle Creek", "state": "MI", "city_survey": true, "cat": "Definitely Declining", "grade": "C", "label": "C9", "res": true, "com": false, "ind": false, "holc_grade": "C"}, "geometry": {"type": "Polygon", "coordinates": [[[-85.1715, 42.32565], [-85.17141, 42.32295], [-85.16764, 42.32349], [-85.16758, 42.32075], [-85.16758, 42.32046], [-85.16808, 42.32033], [-85.17691, 42.32005], [-85.17768, 42.32038], [-85.17679, 42.32207], [-85.17925, 42.32152], [-85.180225, 42.323425], [-85.18035, 42.32367], [-85.18065, 42.32338], [-85.18285, 42.32393], [-85.18294, 42.32921], [-85.18214, 42.32925], [-85.1819, 42.33017], [-85.18038, 42.33015], [-85.18044, 42.32793], [-85.180326, 42.327934], [-85.17599, 42.32809], [-85.17587, 42.32918], [-85.17331, 42.32903], [-85.173276, 42.328421], [-85.17313, 42.32582], [-85.1715, 42.32565]]]}}, {"type": "Feature", "properties": {"area_id": 4258, "city": "Battle Creek", "state": "MI", "city_survey": true, "cat": "Hazardous", "grade": "D", "label": "D1", "res": true, "com": false, "ind": false, "holc_grade": "D"}, "geometry": {"type": "Polygon", "coordinates": [[[-85.2026, 42.33126], [-85.20267, 42.32989], [-85.20977, 42.33324], [-85.206222, 42.333317], [-85.20242, 42.3334], [-85.202425, 42.333361], [-85.20253, 42.33258], [-85.2026, 42.33126]]]}}, {"type": "Feature", "properties": {"area_id": 4244, "city": "Battle Creek", "state": "MI", "city_survey": true, "cat": "Hazardous", "grade": "D", "label": "D10", "res": true, "com": false, "ind": false, "holc_grade": "D"}, "geometry": {"type": "Polygon", "coordinates": [[[-85.19082, 42.30465], [-85.1942, 42.30462], [-85.194194, 42.304691], [-85.1941, 42.30586], [-85.19344, 42.30593], [-85.19353, 42.30701], [-85.19427, 42.30709], [-85.19415, 42.30832], [-85.19109, 42.30824], [-85.19037, 42.30822], [-85.19034, 42.304719], [-85.19034, 42.30467], [-85.19082, 42.30465]]]}}, {"type": "Feature", "properties": {"area_id": 4242, "city": "Battle Creek", "state": "MI", "city_survey": true, "cat": "Hazardous", "grade": "D", "label": "D11", "res": true, "com": false, "ind": false, "holc_grade": "D"}, "geometry": {"type": "Polygon", "coordinates": [[[-85.20004, 42.29781], [-85.1999, 42.29755], [-85.20016, 42.29757], [-85.20085, 42.2975], [-85.20171, 42.29723], [-85.20183, 42.29688], [-85.20251, 42.29706], [-85.20304, 42.29709], [-85.20366, 42.29714], [-85.20437, 42.297], [-85.20503, 42.29699], [-85.20522, 42.29727], [-85.20558, 42.29734], [-85.2062, 42.29741], [-85.20686, 42.29721], [-85.20748, 42.29685], [-85.20841, 42.29648], [-85.209, 42.29618], [-85.21067, 42.29618], [-85.21126, 42.29655], [-85.21112, 42.29918], [-85.20361, 42.29924], [-85.20349, 42.29857], [-85.19943, 42.29853], [-85.199385, 42.298435], [-85.19919, 42.29802], [-85.199377, 42.297999], [-85.19964, 42.29797], [-85.20004, 42.29781]]]}}, {"type": "Feature", "properties": {"area_id": 4264, "city": "Battle Creek", "state": "MI", "city_survey": true, "cat": "Hazardous", "grade": "D", "label": "D2", "res": true, "com": false, "ind": false, "holc_grade": "D"}, "geometry": {"type": "Polygon", "coordinates": [[[-85.19387, 42.33575], [-85.2, 42.33582], [-85.2, 42.34064], [-85.19822, 42.3407], [-85.19822, 42.34257], [-85.19572, 42.34259], [-85.19547, 42.34077], [-85.1939, 42.34062], [-85.19387, 42.33575]]]}}, {"type": "Feature", "properties": {"area_id": 4263, "city": "Battle Creek", "state": "MI", "city_survey": true, "cat": "Hazardous", "grade": "D", "label": "D3", "res": true, "com": false, "ind": false, "holc_grade": "D"}, "geometry": {"type": "Polygon", "coordinates": [[[-85.19015, 42.33311], [-85.18502, 42.33321], [-85.18392, 42.33324], [-85.18388, 42.33168], [-85.18456, 42.33171], [-85.1846, 42.3311], [-85.18909, 42.33108], [-85.18927, 42.33184], [-85.19016, 42.33179], [-85.19015, 42.33311]]]}}, {"type": "Feature", "properties": {"area_id": 4275, "city": "Battle Creek", "state": "MI", "city_survey": true, "cat": "Hazardous", "grade": "D", "label": "D4", "res": true, "com": false, "ind": false, "holc_grade": "D"}, "geometry": {"type": "MultiPolygon", "coordinates": [[[[-85.14572, 42.31714], [-85.14543, 42.31796], [-85.145307, 42.318103], [-85.14098, 42.32315], [-85.140984, 42.323352], [-85.141142, 42.332105], [-85.141196, 42.33513], [-85.14123, 42.33699], [-85.13916, 42.3401], [-85.13435, 42.34013], [-85.13424, 42.34068], [-85.13228, 42.34052], [-85.13214, 42.33528], [-85.13281, 42.33449], [-85.1342, 42.33362], [-85.13734, 42.33367], [-85.13734, 42.33271], [-85.13734, 42.33146], [-85.13467, 42.33148], [-85.13445, 42.33006], [-85.12811, 42.33001], [-85.12804, 42.32916], [-85.12632, 42.32903], [-85.12643, 42.32463], [-85.13046, 42.3246], [-85.130423, 42.323239], [-85.13042, 42.32313], [-85.13084, 42.323085], [-85.13267, 42.32289], [-85.13281, 42.32046], [-85.13288, 42.31988], [-85.13385, 42.31965], [-85.13688, 42.31957], [-85.13677, 42.3182], [-85.13649, 42.3178], [-85.13663, 42.31722], [-85.13745, 42.31646], [-85.13734, 42.31443], [-85.145511, 42.317072], [-85.14572, 42.31714]]], [[[-85.13359, 42.3077], [-85.13362, 42.30867], [-85.13525, 42.30871], [-85.13549, 42.31062], [-85.13442, 42.31062], [-85.13466, 42.3115], [-85.13484, 42.31214], [-85.13472, 42.31284], [-85.1346, 42.31361], [-85.13433, 42.314], [-85.13201, 42.31453], [-85.13178, 42.31526], [-85.130848, 42.31531], [-85.13065, 42.31532], [-85.13068, 42.31387], [-85.130999, 42.313806], [-85.13296, 42.31341], [-85.13353, 42.31319], [-85.13344, 42.31207], [-85.13207, 42.31047], [-85.130862, 42.31047], [-85.13059, 42.31047], [-85.13071, 42.30757], [-85.1308, 42.307574], [-85.13359, 42.3077]]], [[[-85.15028, 42.33386], [-85.14821, 42.33549], [-85.14743, 42.33681], [-85.14686, 42.33684], [-85.146572, 42.336959], [-85.145484, 42.337411], [-85.14457, 42.33779], [-85.14453, 42.336922], [-85.14443, 42.33476], [-85.14707, 42.33115], [-85.1501, 42.33078], [-85.15028, 42.33386]]]]}}, {"type": "Feature", "properties": {"area_id": 4249, "city": "Battle Creek", "state": "MI", "city_survey": true, "cat": "Hazardous", "grade": "D", "label": "D5", "res": true, "com": false, "ind": false, "holc_grade": "D"}, "geometry": {"type": "MultiPolygon", "coordinates": [[[[-85.18539, 42.31881], [-85.18467, 42.31838], [-85.18377, 42.31765], [-85.18372, 42.31708], [-85.18472, 42.31638], [-85.18572, 42.31743], [-85.18567, 42.31786], [-85.18696, 42.31951], [-85.18781, 42.31909], [-85.18909, 42.3206], [-85.19209, 42.32148], [-85.19166, 42.32225], [-85.19394, 42.32151], [-85.19508, 42.32162], [-85.19651, 42.32158], [-85.19779, 42.32169], [-85.20545, 42.32443], [-85.206241, 42.324682], [-85.21305, 42.32685], [-85.21614, 42.32798], [-85.21619, 42.33016], [-85.216535, 42.332331], [-85.21657, 42.33255], [-85.21353, 42.33121], [-85.212342, 42.330355], [-85.21139, 42.32967], [-85.2103, 42.32931], [-85.2093, 42.32861], [-85.20835, 42.32833], [-85.20683, 42.32784], [-85.20607, 42.327612], [-85.2053, 42.32738], [-85.20431, 42.32675], [-85.20403, 42.3271], [-85.20096, 42.32636], [-85.19807, 42.32544], [-85.19643, 42.32496], [-85.19369, 42.32414], [-85.19272, 42.32399], [-85.19114, 42.32337], [-85.19147, 42.32274], [-85.19009, 42.32257], [-85.19032, 42.322306], [-85.19043, 42.32218], [-85.189618, 42.322169], [-85.188845, 42.322159], [-85.18748, 42.32214], [-85.18619, 42.32018], [-85.18586, 42.31979], [-85.18539, 42.31881]]], [[[-85.19646, 42.3096], [-85.19566, 42.31033], [-85.193302, 42.311986], [-85.19203, 42.31288], [-85.1912, 42.31508], [-85.19293, 42.31525], [-85.19593, 42.31598], [-85.19655, 42.31615], [-85.20148, 42.31896], [-85.20356, 42.32022], [-85.20448, 42.32013], [-85.208865, 42.320254], [-85.20979, 42.32028], [-85.2099, 42.32226], [-85.20929, 42.32226], [-85.20829, 42.32305], [-85.207971, 42.322961], [-85.20355, 42.32173], [-85.20302, 42.32099], [-85.19913, 42.32107], [-85.19956, 42.32002], [-85.19838, 42.32036], [-85.19749, 42.32033], [-85.19681, 42.32025], [-85.19578, 42.3206], [-85.19471, 42.32065], [-85.19396, 42.32057], [-85.19314, 42.32057], [-85.19246, 42.32036], [-85.19132, 42.32031], [-85.19171, 42.31909], [-85.1895, 42.3183], [-85.19008, 42.3178], [-85.18829, 42.31601], [-85.18961, 42.31546], [-85.18933, 42.31505], [-85.190429, 42.311958], [-85.19046, 42.31187], [-85.19527, 42.3087], [-85.19619, 42.30912], [-85.19646, 42.3096]]]]}}, {"type": "Feature", "properties": {"area_id": 4250, "city": "Battle Creek", "state": "MI", "city_survey": true, "cat": "Hazardous", "grade": "D", "label": "D6", "res": true, "com": false, "ind": false, "holc_grade": "D"}, "geometry": {"type": "Polygon", "coordinates": [[[-85.20929, 42.32226], [-85.2099, 42.32226], [-85.21186, 42.32199], [-85.21935, 42.32183], [-85.21949, 42.32255], [-85.22366, 42.32284], [-85.22947, 42.32334], [-85.23186, 42.32373], [-85.23899, 42.32379], [-85.23913, 42.32771], [-85.23446, 42.3274], [-85.2243, 42.32595], [-85.22409, 42.32618], [-85.22409, 42.32658], [-85.21945, 42.32537], [-85.21945, 42.32684], [-85.21664, 42.32613], [-85.21107, 42.32421], [-85.211, 42.3235], [-85.20983, 42.32347], [-85.20829, 42.32305], [-85.20929, 42.32226]]]}}, {"type": "Feature", "properties": {"area_id": 4248, "city": "Battle Creek", "state": "MI", "city_survey": true, "cat": "Hazardous", "grade": "D", "label": "D7", "res": true, "com": false, "ind": false, "holc_grade": "D"}, "geometry": {"type": "Polygon", "coordinates": [[[-85.20974, 42.31612], [-85.209584, 42.316121], [-85.20493, 42.31615], [-85.2049, 42.31503], [-85.20481, 42.31202], [-85.20487, 42.31202], [-85.209462, 42.31199], [-85.20953, 42.31199], [-85.20974, 42.31612]]]}}, {"type": "Feature", "properties": {"area_id": 4266, "city": "Battle Creek", "state": "MI", "city_survey": true, "cat": "Hazardous", "grade": "D", "label": "D8", "res": true, "com": false, "ind": false, "holc_grade": "D"}, "geometry": {"type": "MultiPolygon", "coordinates": [[[[-85.16975, 42.31943], [-85.1707, 42.31932], [-85.17156, 42.31884], [-85.17236, 42.3186], [-85.17304, 42.31838], [-85.17515, 42.31829], [-85.1772, 42.31855], [-85.17845, 42.31915], [-85.17768, 42.32038], [-85.17691, 42.32005], [-85.16808, 42.32033], [-85.16758, 42.32046], [-85.16761, 42.31866], [-85.1679, 42.31866], [-85.16874, 42.31899], [-85.16975, 42.31943]]], [[[-85.17484, 42.30926], [-85.17481, 42.30842], [-85.17968, 42.30831], [-85.17995, 42.30877], [-85.18402, 42.30862], [-85.1839, 42.30598], [-85.17973, 42.30633], [-85.17949, 42.30474], [-85.18396, 42.30471], [-85.1845, 42.3051], [-85.18461, 42.30552], [-85.18479, 42.30605], [-85.18479, 42.30737], [-85.18464, 42.30796], [-85.18461, 42.3088], [-85.18381, 42.30917], [-85.18224, 42.30913], [-85.18185, 42.30919], [-85.18182, 42.30961], [-85.1817, 42.31051], [-85.18117, 42.31095], [-85.18093, 42.31148], [-85.1809, 42.31196], [-85.18132, 42.31244], [-85.181697, 42.312551], [-85.18176, 42.31257], [-85.18209, 42.31273], [-85.18265, 42.3131], [-85.1836, 42.31306], [-85.18405, 42.31297], [-85.18396, 42.31356], [-85.18438, 42.31392], [-85.18494, 42.31424], [-85.18524, 42.3149], [-85.18518, 42.3155], [-85.18375, 42.31613], [-85.18322, 42.31673], [-85.18298, 42.31743], [-85.18325, 42.31807], [-85.18411, 42.31868], [-85.18485, 42.31901], [-85.18562, 42.32046], [-85.18649, 42.32158], [-85.18669, 42.32231], [-85.18346, 42.31886], [-85.1823, 42.31923], [-85.18093, 42.31745], [-85.17992, 42.31686], [-85.17903, 42.31649], [-85.17793, 42.315998], [-85.17686, 42.31552], [-85.1722, 42.31413], [-85.172078, 42.313455], [-85.17193, 42.31264], [-85.172054, 42.312635], [-85.17243, 42.31262], [-85.17318, 42.31255], [-85.17395, 42.31273], [-85.17419, 42.31264], [-85.17457, 42.31222], [-85.17546, 42.31218], [-85.17555, 42.312], [-85.17534, 42.31176], [-85.172043, 42.311747], [-85.17038, 42.31174], [-85.170168, 42.310627], [-85.16997, 42.30959], [-85.17184, 42.30943], [-85.17484, 42.30926]]]]}}, {"type": "Feature", "properties": {"area_id": 4268, "city": "Battle Creek", "state": "MI", "city_survey": true, "cat": "Hazardous", "grade": "D", "label": "D9", "res": true, "com": false, "ind": false, "holc_grade": "D"}, "geometry": {"type": "MultiPolygon", "coordinates": [[[[-85.145343, 42.310844], [-85.14654, 42.31087], [-85.1496, 42.31121], [-85.15011, 42.31127], [-85.15278, 42.31155], [-85.15552, 42.31179], [-85.15869, 42.31183], [-85.15007, 42.3158], [-85.145487, 42.315724], [-85.14525, 42.31572], [-85.14518, 42.31084], [-85.145343, 42.310844]], [[-85.15174, 42.31461], [-85.15281, 42.31422], [-85.15281, 42.31361], [-85.15171, 42.31364], [-85.15174, 42.31461]]], [[[-85.16486, 42.31332], [-85.16226, 42.31387], [-85.15912, 42.31498], [-85.15834, 42.31545], [-85.15531, 42.31748], [-85.1552, 42.31406], [-85.16044, 42.31182], [-85.16479, 42.31195], [-85.16486, 42.31332]]], [[[-85.168, 42.31503], [-85.16882, 42.31406], [-85.1701, 42.31432], [-85.17003, 42.31503], [-85.16918, 42.31524], [-85.16843, 42.31698], [-85.16821, 42.31717], [-85.16764, 42.3173], [-85.16408, 42.3173], [-85.16397, 42.31767], [-85.15941, 42.31775], [-85.15955, 42.31619], [-85.16019, 42.31585], [-85.1629, 42.31482], [-85.16319, 42.31524], [-85.168, 42.31503]]]]}}, {"type": "Feature", "properties": {"area_id": 11230, "city": "Battle Creek", "state": "MI", "city_survey": true, "cat": "Industrial and Commercial", "grade": null, "label": "Industrial and Commercial", "res": false, "com": true, "ind": true, "holc_grade": null}, "geometry": {"type": "Polygon", "coordinates": [[[-85.170168, 42.310627], [-85.17038, 42.31174], [-85.172043, 42.311747], [-85.17534, 42.31176], [-85.17555, 42.312], [-85.17546, 42.31218], [-85.17457, 42.31222], [-85.17419, 42.31264], [-85.17395, 42.31273], [-85.17318, 42.31255], [-85.17243, 42.31262], [-85.172054, 42.312635], [-85.17193, 42.31264], [-85.172078, 42.313455], [-85.1722, 42.31413], [-85.17686, 42.31552], [-85.17793, 42.315998], [-85.17903, 42.31649], [-85.17992, 42.31686], [-85.18093, 42.31745], [-85.1823, 42.31923], [-85.18346, 42.31886], [-85.18669, 42.32231], [-85.18649, 42.32158], [-85.18562, 42.32046], [-85.18485, 42.31901], [-85.18411, 42.31868], [-85.18325, 42.31807], [-85.18298, 42.31743], [-85.18322, 42.31673], [-85.18375, 42.31613], [-85.18518, 42.3155], [-85.18524, 42.3149], [-85.1866, 42.31497], [-85.18933, 42.31505], [-85.18961, 42.31546], [-85.18829, 42.31601], [-85.19008, 42.3178], [-85.1895, 42.3183], [-85.19171, 42.31909], [-85.19132, 42.32031], [-85.19246, 42.32036], [-85.19314, 42.32057], [-85.19396, 42.32057], [-85.19471, 42.32065], [-85.19578, 42.3206], [-85.19681, 42.32025], [-85.19749, 42.32033], [-85.1979, 42.32034], [-85.19838, 42.32036], [-85.19956, 42.32002], [-85.19913, 42.32107], [-85.20302, 42.32099], [-85.20355, 42.32173], [-85.207971, 42.322961], [-85.20829, 42.32305], [-85.20983, 42.32347], [-85.211, 42.3235], [-85.21107, 42.32421], [-85.21664, 42.32613], [-85.21945, 42.32684], [-85.21945, 42.32537], [-85.22409, 42.32658], [-85.22409, 42.32618], [-85.2243, 42.32595], [-85.23082, 42.32688], [-85.23095, 42.33276], [-85.22846, 42.33233], [-85.21614, 42.32798], [-85.21305, 42.32685], [-85.21014, 42.32592], [-85.206242, 42.324681], [-85.20545, 42.32443], [-85.19779, 42.32169], [-85.19651, 42.32158], [-85.19508, 42.32162], [-85.19394, 42.32151], [-85.19166, 42.32225], [-85.19209, 42.32148], [-85.18909, 42.3206], [-85.18781, 42.31909], [-85.18696, 42.31951], [-85.18567, 42.31786], [-85.18572, 42.31743], [-85.18472, 42.31638], [-85.18372, 42.31708], [-85.18377, 42.31765], [-85.18467, 42.31838], [-85.18539, 42.31881], [-85.18586, 42.31979], [-85.18619, 42.32018], [-85.18748, 42.32214], [-85.188845, 42.322159], [-85.189618, 42.322169], [-85.19043, 42.32218], [-85.19032, 42.322306], [-85.19009, 42.32257], [-85.19147, 42.32274], [-85.19114, 42.32337], [-85.19272, 42.32399], [-85.19148, 42.32636], [-85.19201, 42.32665], [-85.19198, 42.32699], [-85.19226, 42.32978], [-85.19205, 42.33092], [-85.19009, 42.33092], [-85.1898, 42.33036], [-85.18809, 42.33023], [-85.18809, 42.32826], [-85.18574, 42.32723], [-85.18673, 42.3259], [-85.1847, 42.3254], [-85.18366, 42.32717], [-85.18361, 42.32893], [-85.18294, 42.32921], [-85.18285, 42.32393], [-85.18065, 42.32338], [-85.18035, 42.32367], [-85.180225, 42.323425], [-85.17925, 42.32152], [-85.17679, 42.32207], [-85.17768, 42.32038], [-85.17845, 42.31915], [-85.1772, 42.31855], [-85.17515, 42.31829], [-85.17304, 42.31838], [-85.17236, 42.3186], [-85.17156, 42.31884], [-85.1707, 42.31932], [-85.16975, 42.31943], [-85.16874, 42.31899], [-85.1679, 42.31866], [-85.16761, 42.31866], [-85.167618, 42.31829], [-85.16764, 42.3173], [-85.16821, 42.31717], [-85.16843, 42.31698], [-85.16918, 42.31524], [-85.17003, 42.31503], [-85.1701, 42.31432], [-85.16882, 42.31406], [-85.168, 42.31503], [-85.16319, 42.31524], [-85.1629, 42.31482], [-85.16226, 42.31387], [-85.16486, 42.31332], [-85.16479, 42.31195], [-85.16044, 42.31182], [-85.1552, 42.31406], [-85.15531, 42.31748], [-85.15085, 42.31894], [-85.15007, 42.3158], [-85.15869, 42.31183], [-85.15941, 42.31184], [-85.15934, 42.3096], [-85.169911, 42.30959], [-85.16997, 42.30959], [-85.170168, 42.310627]]]}}]}