{"type": "FeatureCollection", "features": [{"type": "Feature", "properties": {"area_id": 1052, "city": "Aurora", "state": "IL", "city_survey": true, "cat": "Best", "grade": "A", "label": "A1", "res": true, "com": false, "ind": false, "holc_grade": "A"}, "geometry": {"type": "Polygon", "coordinates": [[[-88.32039, 41.77079], [-88.32044, 41.77359], [-88.32057, 41.77408], [-88.31576, 41.77418], [-88.31559, 41.77305], [-88.31561, 41.77085], [-88.32039, 41.77079]]]}}, {"type": "Feature", "properties": {"area_id": 1043, "city": "Aurora", "state": "IL", "city_survey": true, "cat": "Best", "grade": "A", "label": "A2", "res": true, "com": false, "ind": false, "holc_grade": "A"}, "geometry": {"type": "Polygon", "coordinates": [[[-88.34249, 41.76058], [-88.34393, 41.7608], [-88.34426, 41.75815], [-88.34423, 41.75755], [-88.34136, 41.75764], [-88.34127, 41.75995], [-88.33519, 41.75929], [-88.33544, 41.75756], [-88.33982, 41.75804], [-88.33996, 41.756], [-88.34403, 41.75599], [-88.34407, 41.75414], [-88.34967, 41.75406], [-88.35341, 41.75402], [-88.35344, 41.76127], [-88.353459, 41.763434], [-88.35346, 41.76359], [-88.349663, 41.763246], [-88.3496, 41.76324], [-88.34297, 41.76283], [-88.34216, 41.76276], [-88.34219, 41.762547], [-88.34229, 41.76184], [-88.34249, 41.76058]]]}}, {"type": "Feature", "properties": {"area_id": 1055, "city": "Aurora", "state": "IL", "city_survey": true, "cat": "Still Desirable", "grade": "B", "label": "B", "res": true, "com": false, "ind": false, "holc_grade": "B"}, "geometry": {"type": "Polygon", "coordinates": [[[-88.359092, 41.753916], [-88.35942, 41.75391], [-88.35944, 41.763915], [-88.35944, 41.76415], [-88.359252, 41.764138], [-88.35671, 41.76398], [-88.35346, 41.76359], [-88.353459, 41.763434], [-88.35344, 41.76127], [-88.35341, 41.75402], [-88.359092, 41.753916]]]}}, {"type": "Feature", "properties": {"area_id": 1039, "city": "Aurora", "state": "IL", "city_survey": true, "cat": "Still Desirable", "grade": "B", "label": "B1", "res": true, "com": false, "ind": false, "holc_grade": "B"}, "geometry": {"type": "MultiPolygon", "coordinates": [[[[-88.3171, 41.76992], [-88.31705, 41.76726], [-88.31328, 41.76727], [-88.31305, 41.76661], [-88.31343, 41.76556], [-88.31349, 41.76548], [-88.31448, 41.76429], [-88.32138, 41.76482], [-88.321519, 41.770614], [-88.32152, 41.77064], [-88.32217, 41.77064], [-88.32223, 41.77365], [-88.32232, 41.77407], [-88.32057, 41.77408], [-88.32044, 41.77359], [-88.32039, 41.77079], [-88.31561, 41.77085], [-88.31561, 41.770685], [-88.31561, 41.76994], [-88.3171, 41.76992]]], [[[-88.31561, 41.77085], [-88.31559, 41.77305], [-88.31576, 41.77418], [-88.31507, 41.77419], [-88.31486, 41.7742], [-88.31431, 41.77281], [-88.31388, 41.7708], [-88.31561, 41.77085]]]]}}, {"type": "Feature", "properties": {"area_id": 1042, "city": "Aurora", "state": "IL", "city_survey": true, "cat": "Still Desirable", "grade": "B", "label": "B2", "res": true, "com": false, "ind": false, "holc_grade": "B"}, "geometry": {"type": "Polygon", "coordinates": [[[-88.34965, 41.75198], [-88.349651, 41.752082], [-88.34967, 41.75406], [-88.34407, 41.75414], [-88.34403, 41.75599], [-88.33996, 41.756], [-88.33982, 41.75804], [-88.33544, 41.75756], [-88.33519, 41.75929], [-88.34127, 41.75995], [-88.34136, 41.75764], [-88.34423, 41.75755], [-88.34426, 41.75815], [-88.34393, 41.7608], [-88.34249, 41.76058], [-88.34229, 41.76184], [-88.33326, 41.76116], [-88.33344, 41.75832], [-88.33475, 41.75626], [-88.33542, 41.75539], [-88.33652, 41.75366], [-88.33988, 41.75354], [-88.33989, 41.75423], [-88.34264, 41.75417], [-88.342697, 41.752232], [-88.3427, 41.75214], [-88.34965, 41.75198]]]}}, {"type": "Feature", "properties": {"area_id": 1051, "city": "Aurora", "state": "IL", "city_survey": true, "cat": "Still Desirable", "grade": "B", "label": "B3", "res": true, "com": false, "ind": false, "holc_grade": "B"}, "geometry": {"type": "Polygon", "coordinates": [[[-88.32048, 41.738147], [-88.32047, 41.74153], [-88.32121, 41.74161], [-88.32107, 41.74312], [-88.3184, 41.7461], [-88.31651, 41.74846], [-88.31485, 41.75037], [-88.31304, 41.75017], [-88.31095, 41.75009], [-88.310953, 41.750069], [-88.31111, 41.749127], [-88.311204, 41.74856], [-88.311233, 41.748386], [-88.31165, 41.74588], [-88.311621, 41.745878], [-88.30828, 41.74563], [-88.30467, 41.74558], [-88.30495, 41.7438], [-88.30392, 41.7437], [-88.304177, 41.741936], [-88.30452, 41.73958], [-88.30465, 41.73848], [-88.30724, 41.73877], [-88.30955, 41.73896], [-88.3098, 41.73742], [-88.312945, 41.737614], [-88.314255, 41.737695], [-88.31433, 41.7377], [-88.32048, 41.73804], [-88.32048, 41.738147]]]}}, {"type": "Feature", "properties": {"area_id": 1033, "city": "Aurora", "state": "IL", "city_survey": true, "cat": "Still Desirable", "grade": "B", "label": "B4", "res": true, "com": false, "ind": false, "holc_grade": "B"}, "geometry": {"type": "Polygon", "coordinates": [[[-88.32943, 41.81049], [-88.3309, 41.81038], [-88.330906, 41.810786], [-88.33093, 41.81226], [-88.32784, 41.81235], [-88.32786, 41.81173], [-88.32665, 41.81181], [-88.3267, 41.81243], [-88.3259, 41.81246], [-88.325392, 41.810833], [-88.32535, 41.8107], [-88.32943, 41.81049]]]}}, {"type": "Feature", "properties": {"area_id": 1054, "city": "Aurora", "state": "IL", "city_survey": true, "cat": "Definitely Declining", "grade": "C", "label": "C1", "res": true, "com": false, "ind": false, "holc_grade": "C"}, "geometry": {"type": "Polygon", "coordinates": [[[-88.3108, 41.76738], [-88.31098, 41.76553], [-88.31349, 41.76548], [-88.31343, 41.76556], [-88.31305, 41.76661], [-88.31328, 41.76727], [-88.31705, 41.76726], [-88.3171, 41.76992], [-88.31561, 41.76994], [-88.31561, 41.770685], [-88.31561, 41.77085], [-88.31388, 41.7708], [-88.31431, 41.77281], [-88.31486, 41.7742], [-88.31291, 41.77424], [-88.31274, 41.77291], [-88.31234, 41.77291], [-88.31221, 41.77089], [-88.31054, 41.77089], [-88.31054, 41.770755], [-88.31054, 41.77026], [-88.3108, 41.76738]], [[-88.31564, 41.7698], [-88.31573, 41.76825], [-88.31345, 41.76829], [-88.31369, 41.76977], [-88.31564, 41.7698]]]}}, {"type": "Feature", "properties": {"area_id": 1037, "city": "Aurora", "state": "IL", "city_survey": true, "cat": "Definitely Declining", "grade": "C", "label": "C2", "res": true, "com": false, "ind": false, "holc_grade": "C"}, "geometry": {"type": "Polygon", "coordinates": [[[-88.34963, 41.75064], [-88.34965, 41.75198], [-88.3427, 41.75214], [-88.342697, 41.752232], [-88.34264, 41.75417], [-88.33989, 41.75423], [-88.33988, 41.75354], [-88.33652, 41.75366], [-88.33542, 41.75539], [-88.33475, 41.75626], [-88.33344, 41.75832], [-88.33326, 41.76116], [-88.34229, 41.76184], [-88.34219, 41.762547], [-88.34216, 41.76276], [-88.34297, 41.76283], [-88.34291, 41.76424], [-88.33738, 41.76376], [-88.33423, 41.76341], [-88.33092, 41.7631], [-88.33102, 41.76255], [-88.330684, 41.762522], [-88.32957, 41.76243], [-88.32731, 41.76224], [-88.32683, 41.76511], [-88.32556, 41.76502], [-88.32577, 41.76833], [-88.32499, 41.76833], [-88.325033, 41.770561], [-88.32509, 41.77355], [-88.3252, 41.77412], [-88.32232, 41.77407], [-88.32223, 41.77365], [-88.32217, 41.77064], [-88.32152, 41.77064], [-88.321519, 41.770614], [-88.32138, 41.76482], [-88.31448, 41.76429], [-88.3174, 41.76069], [-88.317484, 41.760589], [-88.31759, 41.76046], [-88.31939, 41.76124], [-88.32012, 41.76047], [-88.32015, 41.76044], [-88.32176, 41.76062], [-88.32182, 41.75943], [-88.32347, 41.75956], [-88.32357, 41.7589], [-88.32526, 41.7591], [-88.32524, 41.75852], [-88.32662, 41.75871], [-88.326683, 41.758184], [-88.32674, 41.75771], [-88.326778, 41.757713], [-88.33239, 41.75818], [-88.332426, 41.758119], [-88.33294, 41.75726], [-88.33321, 41.75681], [-88.33356, 41.75612], [-88.33535, 41.75256], [-88.335736, 41.75255], [-88.34142, 41.7524], [-88.341422, 41.752249], [-88.34144, 41.7509], [-88.34701, 41.75072], [-88.34963, 41.75064]]]}}, {"type": "Feature", "properties": {"area_id": 1058, "city": "Aurora", "state": "IL", "city_survey": true, "cat": "Definitely Declining", "grade": "C", "label": "C3", "res": true, "com": false, "ind": false, "holc_grade": "C"}, "geometry": {"type": "Polygon", "coordinates": [[[-88.29865, 41.77423], [-88.2985, 41.77353], [-88.29734, 41.77352], [-88.29703, 41.77201], [-88.29699, 41.76942], [-88.29564, 41.76949], [-88.29551, 41.76817], [-88.29817, 41.76817], [-88.30196, 41.76831], [-88.30173, 41.76939], [-88.301547, 41.774038], [-88.30154, 41.77421], [-88.301442, 41.774207], [-88.30007, 41.77417], [-88.29865, 41.77423]]]}}, {"type": "Feature", "properties": {"area_id": 1049, "city": "Aurora", "state": "IL", "city_survey": true, "cat": "Definitely Declining", "grade": "C", "label": "C4", "res": true, "com": false, "ind": false, "holc_grade": "C"}, "geometry": {"type": "Polygon", "coordinates": [[[-88.320796, 41.738145], [-88.3208, 41.73816], [-88.32216, 41.74159], [-88.32176, 41.74151], [-88.32158, 41.74319], [-88.322141, 41.743289], [-88.32226, 41.74331], [-88.322027, 41.743418], [-88.322, 41.74343], [-88.322011, 41.743436], [-88.32329, 41.74407], [-88.32232, 41.7451], [-88.32009, 41.74774], [-88.31934, 41.7488], [-88.31815, 41.74994], [-88.31743, 41.75084], [-88.31597, 41.75267], [-88.315004, 41.753672], [-88.31409, 41.75462], [-88.31273, 41.754], [-88.31185, 41.75496], [-88.311732, 41.754901], [-88.30893, 41.7535], [-88.306117, 41.756521], [-88.30609, 41.75655], [-88.30443, 41.7558], [-88.303034, 41.755519], [-88.30299, 41.75551], [-88.30318, 41.75459], [-88.30368, 41.75456], [-88.30391, 41.75336], [-88.30279, 41.75318], [-88.30279, 41.75282], [-88.30009, 41.75249], [-88.30006, 41.75296], [-88.29949, 41.75291], [-88.299194, 41.75497], [-88.29919, 41.755], [-88.29636, 41.75465], [-88.29436, 41.75446], [-88.294382, 41.754278], [-88.29447, 41.75353], [-88.29446, 41.75212], [-88.29611, 41.75218], [-88.29958, 41.75261], [-88.29971, 41.75105], [-88.29447, 41.75077], [-88.2945, 41.74917], [-88.293716, 41.749105], [-88.29089, 41.74887], [-88.29086, 41.74605], [-88.28814, 41.746115], [-88.28791, 41.74612], [-88.28781, 41.74179], [-88.288079, 41.741788], [-88.29397, 41.74175], [-88.29389, 41.73833], [-88.29692, 41.73847], [-88.29933, 41.73844], [-88.30078, 41.73841], [-88.30329, 41.73847], [-88.30348, 41.73787], [-88.30342, 41.73764], [-88.30369, 41.73737], [-88.30413, 41.73734], [-88.30612, 41.73739], [-88.30776, 41.73735], [-88.30996, 41.73726], [-88.31004, 41.73541], [-88.310455, 41.735404], [-88.3185, 41.73529], [-88.32031, 41.73699], [-88.32069, 41.73774], [-88.320796, 41.738145]], [[-88.30216, 41.74845], [-88.30198, 41.74944], [-88.30389, 41.74953], [-88.3042, 41.74849], [-88.30216, 41.74845]], [[-88.31095, 41.75009], [-88.31304, 41.75017], [-88.31485, 41.75037], [-88.31651, 41.74846], [-88.3184, 41.7461], [-88.32107, 41.74312], [-88.32121, 41.74161], [-88.32047, 41.74153], [-88.32048, 41.738147], [-88.32048, 41.73804], [-88.31433, 41.7377], [-88.314255, 41.737695], [-88.312945, 41.737614], [-88.3098, 41.73742], [-88.30955, 41.73896], [-88.30724, 41.73877], [-88.30465, 41.73848], [-88.30452, 41.73958], [-88.304177, 41.741936], [-88.30392, 41.7437], [-88.30495, 41.7438], [-88.30467, 41.74558], [-88.30828, 41.74563], [-88.311621, 41.745878], [-88.31165, 41.74588], [-88.311233, 41.748386], [-88.311204, 41.74856], [-88.31111, 41.749127], [-88.310953, 41.750069], [-88.31095, 41.75009]]]}}, {"type": "Feature", "properties": {"area_id": 1047, "city": "Aurora", "state": "IL", "city_survey": true, "cat": "Definitely Declining", "grade": "C", "label": "C5", "res": true, "com": false, "ind": false, "holc_grade": "C"}, "geometry": {"type": "Polygon", "coordinates": [[[-88.347785, 41.722929], [-88.34936, 41.72359], [-88.34784, 41.72575], [-88.34715, 41.72644], [-88.34507, 41.72898], [-88.34255, 41.72803], [-88.34408, 41.7259], [-88.34461, 41.72539], [-88.34513, 41.72451], [-88.346197, 41.723027], [-88.34662, 41.72244], [-88.347785, 41.722929]]]}}, {"type": "Feature", "properties": {"area_id": 1034, "city": "Aurora", "state": "IL", "city_survey": true, "cat": "Definitely Declining", "grade": "C", "label": "C6", "res": true, "com": false, "ind": false, "holc_grade": "C"}, "geometry": {"type": "MultiPolygon", "coordinates": [[[[-88.31798, 41.80612], [-88.31929, 41.80596], [-88.32169, 41.80586], [-88.322493, 41.81087], [-88.32277, 41.8126], [-88.321, 41.81264], [-88.320821, 41.810898], [-88.3206, 41.80874], [-88.31795, 41.80936], [-88.31798, 41.80612]]], [[[-88.32173, 41.7967], [-88.32255, 41.79667], [-88.32443, 41.79667], [-88.32487, 41.7978], [-88.3256, 41.80002], [-88.32636, 41.80205], [-88.32667, 41.80325], [-88.32674, 41.80411], [-88.32747, 41.80408], [-88.32769, 41.80559], [-88.32852, 41.80554], [-88.32934, 41.80837], [-88.32943, 41.81049], [-88.32535, 41.8107], [-88.32535, 41.81015], [-88.32512, 41.80968], [-88.32492, 41.80844], [-88.32455, 41.80738], [-88.32457, 41.80713], [-88.32693, 41.80676], [-88.32675, 41.80583], [-88.32468, 41.80616], [-88.32445, 41.80524], [-88.32409, 41.8045], [-88.32406, 41.80403], [-88.32387, 41.80365], [-88.32389, 41.80335], [-88.3234, 41.80177], [-88.32308, 41.80127], [-88.32306, 41.80077], [-88.32279, 41.80021], [-88.32264, 41.79937], [-88.32222, 41.7985], [-88.32193, 41.79776], [-88.321515, 41.797345], [-88.32091, 41.79674], [-88.321137, 41.796729], [-88.32173, 41.7967]]]]}}, {"type": "Feature", "properties": {"area_id": 1056, "city": "Aurora", "state": "IL", "city_survey": true, "cat": "Hazardous", "grade": "D", "label": "D", "res": true, "com": false, "ind": false, "holc_grade": "D"}, "geometry": {"type": "Polygon", "coordinates": [[[-88.31486, 41.7742], [-88.31507, 41.77419], [-88.316, 41.7773], [-88.31599, 41.77873], [-88.31612, 41.77923], [-88.31716, 41.78195], [-88.31547, 41.78198], [-88.31454, 41.77873], [-88.31444, 41.77764], [-88.31291, 41.77424], [-88.31486, 41.7742]]]}}, {"type": "Feature", "properties": {"area_id": 1057, "city": "Aurora", "state": "IL", "city_survey": true, "cat": "Hazardous", "grade": "D", "label": "D1", "res": true, "com": false, "ind": false, "holc_grade": "D"}, "geometry": {"type": "Polygon", "coordinates": [[[-88.295, 41.76751], [-88.29781, 41.76741], [-88.29949, 41.76738], [-88.30222, 41.76763], [-88.3043, 41.7677], [-88.30572, 41.76783], [-88.3053, 41.77072], [-88.305638, 41.771004], [-88.30568, 41.77104], [-88.30734, 41.77506], [-88.30582, 41.77706], [-88.30388, 41.77987], [-88.30205, 41.78127], [-88.29679, 41.7813], [-88.29717, 41.77889], [-88.29718, 41.77749], [-88.2949, 41.77762], [-88.29494, 41.77515], [-88.28884, 41.77729], [-88.28903, 41.76858], [-88.291329, 41.76812], [-88.29448, 41.76749], [-88.295, 41.76751]], [[-88.30173, 41.76939], [-88.30196, 41.76831], [-88.29817, 41.76817], [-88.29551, 41.76817], [-88.29564, 41.76949], [-88.29699, 41.76942], [-88.29703, 41.77201], [-88.29734, 41.77352], [-88.2985, 41.77353], [-88.29865, 41.77423], [-88.30007, 41.77417], [-88.301442, 41.774207], [-88.30154, 41.77421], [-88.301547, 41.774038], [-88.30173, 41.76939]]]}}, {"type": "Feature", "properties": {"area_id": 1038, "city": "Aurora", "state": "IL", "city_survey": true, "cat": "Hazardous", "grade": "D", "label": "D2", "res": true, "com": false, "ind": false, "holc_grade": "D"}, "geometry": {"type": "Polygon", "coordinates": [[[-88.32577, 41.76833], [-88.32556, 41.76502], [-88.32683, 41.76511], [-88.32731, 41.76224], [-88.32957, 41.76243], [-88.3291, 41.76688], [-88.32935, 41.76686], [-88.32935, 41.770489], [-88.32935, 41.7721], [-88.32951, 41.77417], [-88.3252, 41.77412], [-88.32509, 41.77355], [-88.325033, 41.770561], [-88.32499, 41.76833], [-88.32577, 41.76833]]]}}, {"type": "Feature", "properties": {"area_id": 1036, "city": "Aurora", "state": "IL", "city_survey": true, "cat": "Hazardous", "grade": "D", "label": "D3", "res": true, "com": false, "ind": false, "holc_grade": "D"}, "geometry": {"type": "Polygon", "coordinates": [[[-88.33423, 41.76341], [-88.33738, 41.76376], [-88.34291, 41.76424], [-88.34287, 41.76734], [-88.33505, 41.76746], [-88.33502, 41.76693], [-88.33344, 41.7669], [-88.33341, 41.76562], [-88.33065, 41.76541], [-88.33092, 41.7631], [-88.33423, 41.76341]]]}}, {"type": "Feature", "properties": {"area_id": 1040, "city": "Aurora", "state": "IL", "city_survey": true, "cat": "Hazardous", "grade": "D", "label": "D4", "res": true, "com": false, "ind": false, "holc_grade": "D"}, "geometry": {"type": "MultiPolygon", "coordinates": [[[[-88.31349, 41.76548], [-88.31098, 41.76553], [-88.31121, 41.76482], [-88.315517, 41.760117], [-88.31567, 41.75995], [-88.317269, 41.760634], [-88.3174, 41.76069], [-88.31448, 41.76429], [-88.31349, 41.76548]]], [[[-88.34311, 41.74603], [-88.34687, 41.74584], [-88.34701, 41.75072], [-88.34144, 41.7509], [-88.341422, 41.752249], [-88.34142, 41.7524], [-88.335736, 41.75255], [-88.33535, 41.75256], [-88.33356, 41.75612], [-88.33064, 41.75599], [-88.33046, 41.75713], [-88.33294, 41.75726], [-88.332426, 41.758119], [-88.33239, 41.75818], [-88.326778, 41.757713], [-88.32674, 41.75771], [-88.326683, 41.758184], [-88.32662, 41.75871], [-88.32524, 41.75852], [-88.32526, 41.7591], [-88.32357, 41.7589], [-88.32347, 41.75956], [-88.32182, 41.75943], [-88.32176, 41.76062], [-88.32015, 41.76044], [-88.32012, 41.76047], [-88.3201, 41.76029], [-88.32084, 41.75843], [-88.32054, 41.75824], [-88.320619, 41.758188], [-88.32333, 41.7564], [-88.32426, 41.75711], [-88.32278, 41.75805], [-88.32423, 41.75818], [-88.32811, 41.75567], [-88.32881, 41.75513], [-88.33038, 41.75535], [-88.33044, 41.75475], [-88.33298, 41.75499], [-88.3329, 41.75259], [-88.33479, 41.75262], [-88.33486, 41.75119], [-88.336464, 41.75116], [-88.33971, 41.7511], [-88.33967, 41.74741], [-88.34165, 41.74737], [-88.34164, 41.74638], [-88.34311, 41.74603]]], [[[-88.34185, 41.744985], [-88.34191, 41.74592], [-88.33801, 41.74614], [-88.33527, 41.748744], [-88.33519, 41.74882], [-88.33517, 41.74947], [-88.3348, 41.7496], [-88.33199, 41.7523], [-88.32994, 41.75237], [-88.32563, 41.7559], [-88.32498, 41.75526], [-88.32908, 41.75193], [-88.33358, 41.74837], [-88.334409, 41.747786], [-88.33619, 41.74653], [-88.335838, 41.746407], [-88.33504, 41.74613], [-88.33291, 41.74518], [-88.333011, 41.745043], [-88.33475, 41.74269], [-88.33946, 41.74289], [-88.34023, 41.74128], [-88.34161, 41.74125], [-88.34185, 41.744985]]], [[[-88.32964, 41.74298], [-88.32989, 41.74275], [-88.33001, 41.74248], [-88.32999, 41.74214], [-88.33013, 41.74161], [-88.33033, 41.74109], [-88.33039, 41.74074], [-88.33046, 41.74052], [-88.33059, 41.7403], [-88.33081, 41.73956], [-88.33118, 41.7389], [-88.33139, 41.73866], [-88.3317, 41.73807], [-88.33476, 41.738], [-88.33473, 41.73881], [-88.3378, 41.73878], [-88.33528, 41.74216], [-88.33349, 41.74146], [-88.331361, 41.744347], [-88.33057, 41.74542], [-88.32961, 41.74533], [-88.32942, 41.74599], [-88.32916, 41.74598], [-88.32907, 41.74582], [-88.32899, 41.74572], [-88.32874, 41.74559], [-88.32855, 41.74551], [-88.32834, 41.74538], [-88.32816, 41.74526], [-88.32809, 41.7451], [-88.32804, 41.74486], [-88.328191, 41.744426], [-88.32837, 41.74391], [-88.32883, 41.74364], [-88.3292, 41.74337], [-88.32964, 41.74298]]]]}}, {"type": "Feature", "properties": {"area_id": 1059, "city": "Aurora", "state": "IL", "city_survey": true, "cat": "Hazardous", "grade": "D", "label": "D5", "res": true, "com": false, "ind": false, "holc_grade": "D"}, "geometry": {"type": "Polygon", "coordinates": [[[-88.30443, 41.7558], [-88.30609, 41.75655], [-88.306117, 41.756521], [-88.30893, 41.7535], [-88.311732, 41.754901], [-88.31185, 41.75496], [-88.308905, 41.757997], [-88.30675, 41.76022], [-88.3064, 41.7613], [-88.306021, 41.761893], [-88.305885, 41.762107], [-88.30486, 41.76371], [-88.30404, 41.76355], [-88.30389, 41.76416], [-88.30342, 41.76467], [-88.30242, 41.76451], [-88.30227, 41.76573], [-88.300953, 41.7659], [-88.29769, 41.76632], [-88.291334, 41.767398], [-88.29103, 41.76745], [-88.28232, 41.76738], [-88.281809, 41.767384], [-88.27652, 41.76743], [-88.27179, 41.76744], [-88.27172, 41.76238], [-88.271666, 41.758889], [-88.27161, 41.75524], [-88.27159, 41.75329], [-88.28002, 41.75326], [-88.27999, 41.75215], [-88.27638, 41.75213], [-88.27625, 41.75023], [-88.28125, 41.7504], [-88.28126, 41.74913], [-88.288, 41.74964], [-88.28791, 41.74612], [-88.28814, 41.746115], [-88.29086, 41.74605], [-88.29089, 41.74887], [-88.293716, 41.749105], [-88.2945, 41.74917], [-88.29447, 41.75077], [-88.29971, 41.75105], [-88.29958, 41.75261], [-88.29611, 41.75218], [-88.29446, 41.75212], [-88.29447, 41.75353], [-88.294382, 41.754278], [-88.29436, 41.75446], [-88.29636, 41.75465], [-88.29919, 41.755], [-88.302986, 41.755509], [-88.303034, 41.755519], [-88.30443, 41.7558]], [[-88.277037, 41.757363], [-88.27704, 41.75761], [-88.27936, 41.75767], [-88.28123, 41.75786], [-88.28123, 41.75678], [-88.279619, 41.756757], [-88.27703, 41.75672], [-88.277037, 41.757363]], [[-88.291084, 41.750965], [-88.29109, 41.75141], [-88.2943, 41.75157], [-88.29425, 41.75085], [-88.291153, 41.750694], [-88.29108, 41.75069], [-88.291084, 41.750965]], [[-88.29565, 41.757], [-88.29551, 41.75824], [-88.29849, 41.75849], [-88.29865, 41.75734], [-88.29565, 41.757]]]}}, {"type": "Feature", "properties": {"area_id": 1050, "city": "Aurora", "state": "IL", "city_survey": true, "cat": "Hazardous", "grade": "D", "label": "D6", "res": true, "com": false, "ind": false, "holc_grade": "D"}, "geometry": {"type": "Polygon", "coordinates": [[[-88.322027, 41.743418], [-88.32226, 41.74331], [-88.32337, 41.74214], [-88.32619, 41.74362], [-88.32746, 41.74234], [-88.32832, 41.73943], [-88.32886, 41.73817], [-88.32967, 41.73817], [-88.32946, 41.73868], [-88.3292, 41.73896], [-88.329, 41.73936], [-88.32876, 41.73966], [-88.32857, 41.74185], [-88.32837, 41.74235], [-88.32807, 41.74286], [-88.32772, 41.7432], [-88.32732, 41.74363], [-88.32712, 41.74383], [-88.32651, 41.7451], [-88.32584, 41.74602], [-88.32564, 41.74636], [-88.32548, 41.74694], [-88.32471, 41.74772], [-88.32364, 41.74875], [-88.32318, 41.74915], [-88.32304, 41.74947], [-88.32288, 41.74973], [-88.32267, 41.74987], [-88.32224, 41.75034], [-88.32194, 41.75084], [-88.32076, 41.75182], [-88.31923, 41.7512], [-88.31747, 41.75281], [-88.31597, 41.75267], [-88.31743, 41.75084], [-88.31815, 41.74994], [-88.31934, 41.7488], [-88.32009, 41.74774], [-88.32232, 41.7451], [-88.32441, 41.74612], [-88.32538, 41.74505], [-88.32329, 41.74407], [-88.322011, 41.743436], [-88.322, 41.74343], [-88.322027, 41.743418]]]}}, {"type": "Feature", "properties": {"area_id": 1048, "city": "Aurora", "state": "IL", "city_survey": true, "cat": "Hazardous", "grade": "D", "label": "D7", "res": true, "com": false, "ind": false, "holc_grade": "D"}, "geometry": {"type": "Polygon", "coordinates": [[[-88.3007, 41.72967], [-88.30075, 41.7286], [-88.30543, 41.73022], [-88.30531, 41.72732], [-88.31069, 41.7273], [-88.31289, 41.72722], [-88.31951, 41.72724], [-88.319545, 41.727334], [-88.32039, 41.7296], [-88.32047, 41.7307], [-88.32293, 41.73059], [-88.32911, 41.73053], [-88.33012, 41.73618], [-88.3301, 41.73675], [-88.32998, 41.73756], [-88.329752, 41.738009], [-88.32967, 41.73817], [-88.32886, 41.73817], [-88.321034, 41.73816], [-88.3208, 41.73816], [-88.320796, 41.738145], [-88.32069, 41.73774], [-88.32031, 41.73699], [-88.3185, 41.73529], [-88.310455, 41.735404], [-88.31004, 41.73541], [-88.30996, 41.73726], [-88.30776, 41.73735], [-88.30612, 41.73739], [-88.30413, 41.73734], [-88.30369, 41.73737], [-88.30368, 41.73737], [-88.30292, 41.73743], [-88.29831, 41.73738], [-88.29809, 41.73576], [-88.29809, 41.73484], [-88.29809, 41.73161], [-88.298284, 41.731596], [-88.30069, 41.73142], [-88.30062, 41.73068], [-88.3007, 41.72967]]]}}, {"type": "Feature", "properties": {"area_id": 1046, "city": "Aurora", "state": "IL", "city_survey": true, "cat": "Hazardous", "grade": "D", "label": "D8", "res": true, "com": false, "ind": false, "holc_grade": "D"}, "geometry": {"type": "Polygon", "coordinates": [[[-88.33805, 41.73366], [-88.33879, 41.73287], [-88.33714, 41.73225], [-88.33792, 41.7315], [-88.33997, 41.72999], [-88.34013, 41.72995], [-88.34134, 41.72917], [-88.34407, 41.73033], [-88.34247, 41.73237], [-88.34149, 41.73186], [-88.33961, 41.73434], [-88.33805, 41.73366]]]}}, {"type": "Feature", "properties": {"area_id": 11217, "city": "Aurora", "state": "IL", "city_survey": true, "cat": "Commercial", "grade": null, "label": "Commercial", "res": false, "com": true, "ind": false, "holc_grade": null}, "geometry": {"type": "MultiPolygon", "coordinates": [[[[-88.28123, 41.75786], [-88.27936, 41.75767], [-88.27704, 41.75761], [-88.277037, 41.757363], [-88.27703, 41.75672], [-88.279619, 41.756757], [-88.28123, 41.75678], [-88.28123, 41.75786]]], [[[-88.30279, 41.75318], [-88.30391, 41.75336], [-88.30368, 41.75456], [-88.30318, 41.75459], [-88.30299, 41.75551], [-88.302986, 41.755509], [-88.29919, 41.755], [-88.299194, 41.75497], [-88.29949, 41.75291], [-88.30006, 41.75296], [-88.30009, 41.75249], [-88.30279, 41.75282], [-88.30279, 41.75318]]], [[[-88.31819, 41.75518], [-88.31871, 41.75554], [-88.31928, 41.75507], [-88.319489, 41.755232], [-88.32206, 41.75723], [-88.320619, 41.758188], [-88.32054, 41.75824], [-88.32084, 41.75843], [-88.3201, 41.76029], [-88.32012, 41.76047], [-88.31939, 41.76124], [-88.31759, 41.76046], [-88.317484, 41.760589], [-88.3174, 41.76069], [-88.317269, 41.760634], [-88.31567, 41.75995], [-88.31459, 41.75944], [-88.313184, 41.758772], [-88.31278, 41.75858], [-88.31235, 41.75838], [-88.311953, 41.758167], [-88.31166, 41.75801], [-88.310455, 41.75878], [-88.31033, 41.75886], [-88.30876, 41.75814], [-88.308901, 41.757995], [-88.31185, 41.75496], [-88.31273, 41.754], [-88.31409, 41.75462], [-88.315004, 41.753672], [-88.31597, 41.75267], [-88.31747, 41.75281], [-88.31937, 41.75423], [-88.31819, 41.75518]]], [[[-88.34134, 41.72917], [-88.34255, 41.72803], [-88.34507, 41.72898], [-88.34407, 41.73033], [-88.34134, 41.72917]]]]}}, {"type": "Feature", "properties": {"area_id": 11218, "city": "Aurora", "state": "IL", "city_survey": true, "cat": "Industrial", "grade": null, "label": "Industrial", "res": false, "com": false, "ind": true, "holc_grade": null}, "geometry": {"type": "MultiPolygon", "coordinates": [[[[-88.31278, 41.75858], [-88.31179, 41.75955], [-88.31041, 41.76088], [-88.30997, 41.76141], [-88.30953, 41.76358], [-88.3092, 41.76525], [-88.30967, 41.76627], [-88.30918, 41.76725], [-88.30848, 41.76863], [-88.30821, 41.76985], [-88.308419, 41.77078], [-88.30856, 41.77141], [-88.30862, 41.7737], [-88.30883, 41.77423], [-88.30913, 41.77482], [-88.30956, 41.77544], [-88.310182, 41.776137], [-88.31047, 41.77646], [-88.31047, 41.776798], [-88.31047, 41.77783], [-88.31082, 41.77845], [-88.31061, 41.77944], [-88.31056, 41.78028], [-88.31077, 41.78125], [-88.311429, 41.782097], [-88.31161, 41.78233], [-88.30949, 41.78238], [-88.309384, 41.7821], [-88.30889, 41.7808], [-88.30862, 41.77931], [-88.30867, 41.77895], [-88.30778, 41.77716], [-88.30698, 41.77553], [-88.30734, 41.77506], [-88.30568, 41.77104], [-88.305638, 41.771004], [-88.3053, 41.77072], [-88.30572, 41.76783], [-88.3043, 41.7677], [-88.30222, 41.76763], [-88.29949, 41.76738], [-88.29781, 41.76741], [-88.295, 41.76751], [-88.29448, 41.76749], [-88.291329, 41.76812], [-88.28903, 41.76858], [-88.28378, 41.76986], [-88.282445, 41.770065], [-88.28241, 41.77007], [-88.2822, 41.77078], [-88.27986, 41.77076], [-88.27964, 41.7714], [-88.27445, 41.77157], [-88.27301, 41.77187], [-88.27128, 41.77184], [-88.26936, 41.7711], [-88.269451, 41.770963], [-88.27179, 41.76744], [-88.27652, 41.76743], [-88.281809, 41.767384], [-88.28232, 41.76738], [-88.29103, 41.76745], [-88.291334, 41.767398], [-88.29769, 41.76632], [-88.300953, 41.7659], [-88.30227, 41.76573], [-88.30242, 41.76451], [-88.30342, 41.76467], [-88.30389, 41.76416], [-88.30404, 41.76355], [-88.30486, 41.76371], [-88.305885, 41.762107], [-88.306021, 41.761893], [-88.3064, 41.7613], [-88.30675, 41.76022], [-88.30876, 41.75814], [-88.31033, 41.75886], [-88.310455, 41.75878], [-88.31166, 41.75801], [-88.311953, 41.758167], [-88.31235, 41.75838], [-88.31278, 41.75858]]], [[[-88.291084, 41.750965], [-88.29108, 41.75069], [-88.291153, 41.750694], [-88.29425, 41.75085], [-88.2943, 41.75157], [-88.29109, 41.75141], [-88.291084, 41.750965]]], [[[-88.29865, 41.75734], [-88.29849, 41.75849], [-88.29551, 41.75824], [-88.29565, 41.757], [-88.29865, 41.75734]]], [[[-88.3042, 41.74849], [-88.30389, 41.74953], [-88.30198, 41.74944], [-88.30216, 41.74845], [-88.3042, 41.74849]]], [[[-88.31364, 41.78237], [-88.313547, 41.782095], [-88.31293, 41.78026], [-88.312941, 41.77995], [-88.31301, 41.77798], [-88.31256, 41.77692], [-88.31204, 41.77599], [-88.31089, 41.77465], [-88.31071, 41.77314], [-88.31066, 41.77133], [-88.31054, 41.77089], [-88.31221, 41.77089], [-88.31234, 41.77291], [-88.31274, 41.77291], [-88.31291, 41.77424], [-88.31444, 41.77764], [-88.31454, 41.77873], [-88.31547, 41.78198], [-88.314334, 41.782222], [-88.31364, 41.78237]]], [[[-88.315517, 41.760117], [-88.31121, 41.76482], [-88.31213, 41.76182], [-88.31348, 41.76037], [-88.313552, 41.76031], [-88.31376, 41.760136], [-88.313773, 41.760124], [-88.313886, 41.76003], [-88.314383, 41.759614], [-88.31459, 41.75944], [-88.31567, 41.75995], [-88.315517, 41.760117]]], [[[-88.33859, 41.73541], [-88.33937, 41.73424], [-88.33961, 41.73434], [-88.34149, 41.73186], [-88.34247, 41.73237], [-88.34407, 41.73033], [-88.34507, 41.72898], [-88.34715, 41.72644], [-88.34784, 41.72575], [-88.34936, 41.72359], [-88.35078, 41.72305], [-88.34899, 41.72524], [-88.3482, 41.72662], [-88.34598, 41.73018], [-88.3441, 41.73448], [-88.34184, 41.73877], [-88.3407, 41.74127], [-88.34023, 41.74128], [-88.33946, 41.74289], [-88.33475, 41.74269], [-88.333011, 41.745043], [-88.33291, 41.74518], [-88.33504, 41.74613], [-88.335838, 41.746407], [-88.33619, 41.74653], [-88.334409, 41.747786], [-88.33358, 41.74837], [-88.32908, 41.75193], [-88.32498, 41.75526], [-88.32563, 41.7559], [-88.32994, 41.75237], [-88.33199, 41.7523], [-88.3348, 41.7496], [-88.33517, 41.74947], [-88.33519, 41.74882], [-88.33527, 41.748744], [-88.33801, 41.74614], [-88.34191, 41.74592], [-88.341853, 41.744985], [-88.34184, 41.74478], [-88.34995, 41.74456], [-88.349968, 41.744832], [-88.35004, 41.74589], [-88.34687, 41.74584], [-88.34311, 41.74603], [-88.34164, 41.74638], [-88.34165, 41.74737], [-88.33967, 41.74741], [-88.33971, 41.7511], [-88.336464, 41.75116], [-88.33486, 41.75119], [-88.33479, 41.75262], [-88.3329, 41.75259], [-88.33298, 41.75499], [-88.33044, 41.75475], [-88.33038, 41.75535], [-88.32881, 41.75513], [-88.32811, 41.75567], [-88.32423, 41.75818], [-88.32278, 41.75805], [-88.32426, 41.75711], [-88.32333, 41.7564], [-88.32206, 41.75723], [-88.319489, 41.755232], [-88.31928, 41.75507], [-88.31871, 41.75554], [-88.31819, 41.75518], [-88.31937, 41.75423], [-88.31747, 41.75281], [-88.31923, 41.7512], [-88.32076, 41.75182], [-88.32194, 41.75084], [-88.32224, 41.75034], [-88.32267, 41.74987], [-88.32288, 41.74973], [-88.32524, 41.74858], [-88.326686, 41.747651], [-88.32742, 41.74718], [-88.32829, 41.74625], [-88.32847, 41.7457], [-88.32816, 41.74526], [-88.32834, 41.74538], [-88.32855, 41.74551], [-88.32874, 41.74559], [-88.32899, 41.74572], [-88.32907, 41.74582], [-88.32916, 41.74598], [-88.32942, 41.74599], [-88.32961, 41.74533], [-88.33057, 41.74542], [-88.331361, 41.744347], [-88.33349, 41.74146], [-88.33528, 41.74216], [-88.3378, 41.73878], [-88.33554, 41.7388], [-88.33764, 41.73606], [-88.33859, 41.73541]]], [[[-88.31912, 41.79701], [-88.31966, 41.79708], [-88.32098, 41.79918], [-88.32098, 41.79996], [-88.32197, 41.80272], [-88.32296, 41.80704], [-88.32342, 41.80888], [-88.323634, 41.810889], [-88.32366, 41.81113], [-88.323971, 41.811982], [-88.32415, 41.81247], [-88.323962, 41.812488], [-88.32277, 41.8126], [-88.322493, 41.81087], [-88.32169, 41.80586], [-88.31929, 41.80596], [-88.31798, 41.80612], [-88.31819, 41.80303], [-88.31918, 41.80306], [-88.31932, 41.79781], [-88.31912, 41.79701]]], [[[-88.32538, 41.74505], [-88.32441, 41.74612], [-88.32232, 41.7451], [-88.32329, 41.74407], [-88.32538, 41.74505]]], [[[-88.33092, 41.7631], [-88.33065, 41.76541], [-88.33341, 41.76562], [-88.33344, 41.7669], [-88.33243, 41.76692], [-88.33226, 41.76954], [-88.33315, 41.77041], [-88.333153, 41.770428], [-88.33342, 41.77234], [-88.33338, 41.77417], [-88.330062, 41.77417], [-88.32951, 41.77417], [-88.32935, 41.7721], [-88.32935, 41.770489], [-88.32935, 41.76686], [-88.3291, 41.76688], [-88.32957, 41.76243], [-88.330684, 41.762522], [-88.33102, 41.76255], [-88.33092, 41.7631]]], [[[-88.33356, 41.75612], [-88.33321, 41.75681], [-88.33294, 41.75726], [-88.33046, 41.75713], [-88.33064, 41.75599], [-88.33356, 41.75612]]]]}}]}