{"type": "FeatureCollection", "features": [{"type": "Feature", "properties": {"area_id": 11106, "city": "New Bedford", "state": "MA", "city_survey": false, "cat": "Security Improving", "grade": "A", "label": "Security Improving", "res": true, "com": false, "ind": false, "holc_grade": "A"}, "geometry": {"type": "MultiPolygon", "coordinates": [[[[-70.92773, 41.66921], [-70.93371, 41.66875], [-70.934798, 41.672817], [-70.93542, 41.67514], [-70.93655, 41.68152], [-70.93533, 41.68207], [-70.93273, 41.68212], [-70.931644, 41.682179], [-70.92775, 41.68239], [-70.927708, 41.682391], [-70.927675, 41.682392], [-70.92747, 41.682398], [-70.92466, 41.68248], [-70.92298, 41.68189], [-70.92191, 41.68182], [-70.92318, 41.67904], [-70.92343, 41.67725], [-70.923426, 41.677229], [-70.923419, 41.677197], [-70.92304, 41.67534], [-70.923117, 41.675175], [-70.923839, 41.673631], [-70.9239, 41.6735], [-70.923915, 41.673483], [-70.927692, 41.669253], [-70.92773, 41.66921]]], [[[-70.959103, 41.635625], [-70.95976, 41.6367], [-70.959946, 41.637763], [-70.96035, 41.64008], [-70.960439, 41.640155], [-70.96914, 41.64741], [-70.96948, 41.64839], [-70.969417, 41.648401], [-70.9681, 41.64864], [-70.96163, 41.65261], [-70.95839, 41.65583], [-70.95509, 41.65679], [-70.94715, 41.65943], [-70.949158, 41.662467], [-70.94916, 41.66247], [-70.947158, 41.662632], [-70.94299, 41.66297], [-70.942478, 41.662981], [-70.93972, 41.66304], [-70.93905, 41.66238], [-70.93649, 41.6567], [-70.9393, 41.65622], [-70.93844, 41.65455], [-70.93719, 41.65318], [-70.937124, 41.653019], [-70.93588, 41.64999], [-70.94165, 41.649332], [-70.94736, 41.64868], [-70.943435, 41.642969], [-70.94189, 41.64072], [-70.94418, 41.64047], [-70.94406, 41.63953], [-70.94342, 41.63823], [-70.94322, 41.637213], [-70.9426, 41.63405], [-70.94305, 41.63389], [-70.94278, 41.63318], [-70.93702, 41.633841], [-70.93319, 41.63428], [-70.932768, 41.63176], [-70.93187, 41.6264], [-70.936777, 41.625878], [-70.94089, 41.62544], [-70.94641, 41.62455], [-70.951727, 41.624097], [-70.95204, 41.62407], [-70.959103, 41.635625]]]]}}, {"type": "Feature", "properties": {"area_id": 11105, "city": "New Bedford", "state": "MA", "city_survey": false, "cat": "Security Stable", "grade": "B", "label": "Security Stable", "res": true, "com": false, "ind": false, "holc_grade": "B"}, "geometry": {"type": "MultiPolygon", "coordinates": [[[[-70.911276, 41.595501], [-70.91177, 41.59586], [-70.91257, 41.59835], [-70.913367, 41.59975], [-70.91339, 41.59979], [-70.913319, 41.599939], [-70.91306, 41.60048], [-70.914, 41.60242], [-70.91525, 41.60352], [-70.915527, 41.605391], [-70.91553, 41.60541], [-70.915561, 41.605439], [-70.9173, 41.60706], [-70.917098, 41.607202], [-70.9169, 41.60734], [-70.916979, 41.607464], [-70.91767, 41.60855], [-70.917865, 41.610076], [-70.91792, 41.61051], [-70.91788, 41.61162], [-70.91581, 41.61276], [-70.91307, 41.61351], [-70.91196, 41.61186], [-70.90793, 41.61287], [-70.907542, 41.61249], [-70.906084, 41.611062], [-70.906035, 41.611015], [-70.904966, 41.609967], [-70.90407, 41.60909], [-70.90349, 41.60646], [-70.902535, 41.604186], [-70.902013, 41.602943], [-70.901853, 41.602561], [-70.90184, 41.60253], [-70.903054, 41.597503], [-70.903125, 41.597211], [-70.90313, 41.59719], [-70.91089, 41.59522], [-70.911276, 41.595501]]], [[[-70.94089, 41.62544], [-70.936777, 41.625878], [-70.93187, 41.6264], [-70.932768, 41.63176], [-70.93319, 41.63428], [-70.93702, 41.633841], [-70.94278, 41.63318], [-70.94305, 41.63389], [-70.9426, 41.63405], [-70.94322, 41.637213], [-70.94342, 41.63823], [-70.94406, 41.63953], [-70.94418, 41.64047], [-70.94189, 41.64072], [-70.943435, 41.642969], [-70.94736, 41.64868], [-70.94165, 41.649332], [-70.93588, 41.64999], [-70.937124, 41.653019], [-70.93719, 41.65318], [-70.93844, 41.65455], [-70.9393, 41.65622], [-70.93649, 41.6567], [-70.93905, 41.66238], [-70.93972, 41.66304], [-70.942478, 41.662981], [-70.94299, 41.66297], [-70.943385, 41.66542], [-70.94394, 41.66886], [-70.94446, 41.67169], [-70.94755, 41.67144], [-70.94874, 41.6747], [-70.95054, 41.67507], [-70.95051, 41.6776], [-70.95262, 41.68102], [-70.95033, 41.68193], [-70.94605, 41.68013], [-70.94706, 41.68397], [-70.94693, 41.68709], [-70.94354, 41.68718], [-70.942487, 41.687103], [-70.9404, 41.68695], [-70.941713, 41.69343], [-70.94348, 41.70215], [-70.93581, 41.69984], [-70.93545, 41.69813], [-70.935407, 41.698088], [-70.93429, 41.69699], [-70.93123, 41.69772], [-70.93065, 41.69688], [-70.92796, 41.69795], [-70.925861, 41.692314], [-70.924733, 41.689284], [-70.92418, 41.6878], [-70.92375, 41.68805], [-70.92353, 41.68736], [-70.92179, 41.68739], [-70.92173, 41.68654], [-70.922728, 41.685794], [-70.9228, 41.68574], [-70.92054, 41.68424], [-70.91984, 41.68319], [-70.91946, 41.68199], [-70.919458, 41.681989], [-70.919214, 41.681818], [-70.918653, 41.681426], [-70.918627, 41.681408], [-70.91853, 41.68134], [-70.91739, 41.68069], [-70.91684, 41.67952], [-70.91692, 41.67838], [-70.916823, 41.677595], [-70.916818, 41.677554], [-70.91679, 41.67733], [-70.916822, 41.676593], [-70.91684, 41.67619], [-70.92055, 41.67611], [-70.920539, 41.67361], [-70.92052, 41.66943], [-70.92156, 41.66738], [-70.92727, 41.66686], [-70.927126, 41.666046], [-70.926456, 41.662249], [-70.925681, 41.657859], [-70.92515, 41.65485], [-70.9276, 41.65459], [-70.92797, 41.65324], [-70.92732, 41.65001], [-70.927115, 41.64856], [-70.925903, 41.64], [-70.92564, 41.63814], [-70.92472, 41.63821], [-70.9239, 41.63311], [-70.92472, 41.63296], [-70.92732, 41.63267], [-70.927129, 41.631631], [-70.92605, 41.62576], [-70.925432, 41.624949], [-70.9249, 41.62425], [-70.924881, 41.623419], [-70.924842, 41.621754], [-70.92484, 41.62167], [-70.927328, 41.621289], [-70.927558, 41.621254], [-70.92824, 41.62115], [-70.928237, 41.621137], [-70.92703, 41.61466], [-70.92839, 41.61423], [-70.93019, 41.6135], [-70.930278, 41.612618], [-70.93028, 41.612596], [-70.930302, 41.612379], [-70.93032, 41.6122], [-70.930188, 41.611946], [-70.930095, 41.611768], [-70.9297, 41.61101], [-70.93071, 41.60831], [-70.931509, 41.608199], [-70.93236, 41.60808], [-70.932395, 41.608199], [-70.93252515328066, 41.60863672117512], [-70.932526, 41.608639], [-70.93252628602202, 41.608640530720876], [-70.9331, 41.61057], [-70.93444, 41.60982], [-70.934569, 41.61008], [-70.935132, 41.611216], [-70.93658, 41.61414], [-70.95008, 41.62092], [-70.95204, 41.62407], [-70.951727, 41.624097], [-70.94641, 41.62455], [-70.94089, 41.62544]], [[-70.92775, 41.68239], [-70.931644, 41.682179], [-70.93273, 41.68212], [-70.93533, 41.68207], [-70.93655, 41.68152], [-70.93542, 41.67514], [-70.934798, 41.672817], [-70.93371, 41.66875], [-70.92773, 41.66921], [-70.927692, 41.669253], [-70.923915, 41.673483], [-70.9239, 41.6735], [-70.923839, 41.673631], [-70.923117, 41.675175], [-70.92304, 41.67534], [-70.923419, 41.677197], [-70.923426, 41.677229], [-70.92343, 41.67725], [-70.92318, 41.67904], [-70.92191, 41.68182], [-70.92298, 41.68189], [-70.92466, 41.68248], [-70.92747, 41.682398], [-70.927675, 41.682392], [-70.927708, 41.682391], [-70.92775, 41.68239]]], [[[-70.94293, 41.70865], [-70.94351, 41.71104], [-70.937867, 41.71143], [-70.93325, 41.71175], [-70.93294, 41.70938], [-70.937215, 41.709068], [-70.94293, 41.70865]]], [[[-70.94232, 41.71533], [-70.94217, 41.71806], [-70.941119, 41.718112], [-70.93606, 41.71836], [-70.93484, 41.71581], [-70.939487, 41.715512], [-70.94232, 41.71533]]], [[[-70.93872, 41.70148], [-70.94009, 41.70593], [-70.936626, 41.706893], [-70.93624, 41.707], [-70.93557, 41.70247], [-70.935715, 41.702425], [-70.93872, 41.70148]]], [[[-70.9546, 41.73505], [-70.95201, 41.73526], [-70.95057, 41.73685], [-70.95094, 41.73813], [-70.94785, 41.73879], [-70.94736, 41.73747], [-70.94602, 41.73854], [-70.94443, 41.73874], [-70.94357, 41.74032], [-70.941601, 41.740456], [-70.94125, 41.74048], [-70.93966, 41.73608], [-70.93893, 41.73316], [-70.939225, 41.733123], [-70.94208, 41.73277], [-70.94119, 41.73005], [-70.94159, 41.72951], [-70.94385, 41.72981], [-70.94275, 41.72718], [-70.94623, 41.72682], [-70.94657, 41.72801], [-70.94837, 41.72846], [-70.94907, 41.73054], [-70.95129, 41.73101], [-70.95176, 41.73092], [-70.953184, 41.731689], [-70.9535, 41.73186], [-70.953621, 41.73217], [-70.95399, 41.73311], [-70.95502, 41.733724], [-70.95503, 41.73373], [-70.955029, 41.733734], [-70.9546, 41.73505]]]]}}, {"type": "Feature", "properties": {"area_id": 11104, "city": "New Bedford", "state": "MA", "city_survey": false, "cat": "Security Declining", "grade": "C", "label": "Security Declining", "res": true, "com": false, "ind": false, "holc_grade": "C"}, "geometry": {"type": "Polygon", "coordinates": [[[-70.92824, 41.62115], [-70.927558, 41.621254], [-70.927328, 41.621289], [-70.92484, 41.62167], [-70.924842, 41.621754], [-70.924881, 41.623419], [-70.9249, 41.62425], [-70.925432, 41.624949], [-70.92605, 41.62576], [-70.927129, 41.631631], [-70.92732, 41.63267], [-70.92472, 41.63296], [-70.92454, 41.631873], [-70.922979, 41.622426], [-70.92228, 41.6182], [-70.922699, 41.618093], [-70.92275, 41.61808], [-70.92255, 41.617613], [-70.92208, 41.61652], [-70.91943, 41.61597], [-70.916259, 41.615987], [-70.91565, 41.61599], [-70.913649, 41.616878], [-70.91351, 41.61694], [-70.913487, 41.61693], [-70.91254, 41.61651], [-70.90957, 41.61507], [-70.908646, 41.614173], [-70.90855, 41.61408], [-70.90832, 41.613631], [-70.90793, 41.61287], [-70.91196, 41.61186], [-70.91307, 41.61351], [-70.91581, 41.61276], [-70.91788, 41.61162], [-70.91792, 41.61051], [-70.91851, 41.61108], [-70.91962, 41.61152], [-70.91982, 41.61233], [-70.92089, 41.61262], [-70.921169, 41.613245], [-70.92126, 41.61345], [-70.921142, 41.614069], [-70.92105, 41.61455], [-70.92175, 41.61497], [-70.922735, 41.615003], [-70.92443, 41.61506], [-70.926019, 41.614816], [-70.92703, 41.61466], [-70.928237, 41.621137], [-70.92824, 41.62115]]]}}, {"type": "Feature", "properties": {"area_id": 11103, "city": "New Bedford", "state": "MA", "city_survey": false, "cat": "Security Hazardous", "grade": "D", "label": "Security Hazardous", "res": true, "com": false, "ind": false, "holc_grade": "D"}, "geometry": {"type": "Polygon", "coordinates": [[[-70.92275, 41.61808], [-70.922699, 41.618093], [-70.92228, 41.6182], [-70.922979, 41.622426], [-70.92454, 41.631873], [-70.92472, 41.63296], [-70.9239, 41.63311], [-70.92472, 41.63821], [-70.92564, 41.63814], [-70.925903, 41.64], [-70.927115, 41.64856], [-70.92732, 41.65001], [-70.92797, 41.65324], [-70.9276, 41.65459], [-70.92515, 41.65485], [-70.925681, 41.657859], [-70.926456, 41.662249], [-70.927126, 41.666046], [-70.92727, 41.66686], [-70.92156, 41.66738], [-70.92052, 41.66943], [-70.920539, 41.67361], [-70.92055, 41.67611], [-70.91684, 41.67619], [-70.916762, 41.675671], [-70.91675, 41.67559], [-70.916707, 41.675512], [-70.91638, 41.67491], [-70.917043, 41.673634], [-70.917101, 41.673524], [-70.91717, 41.67339], [-70.917259, 41.673335], [-70.91796, 41.6729], [-70.918158, 41.672443], [-70.918246, 41.67224], [-70.918593, 41.671435], [-70.919208, 41.670013], [-70.91927, 41.66987], [-70.918991, 41.669659], [-70.91894, 41.66962], [-70.918992, 41.669506], [-70.91906, 41.66936], [-70.919008, 41.669047], [-70.918992, 41.668953], [-70.918944, 41.668664], [-70.91803, 41.66318], [-70.91814, 41.6627], [-70.918282, 41.662686], [-70.91874, 41.66264], [-70.91882, 41.6622], [-70.919198, 41.662184], [-70.91953, 41.66217], [-70.92056, 41.66266], [-70.92138, 41.6626], [-70.921471, 41.662443], [-70.92156, 41.66229], [-70.921836, 41.662188], [-70.9221, 41.66209], [-70.92262, 41.66223], [-70.922807, 41.661809], [-70.92282, 41.66178], [-70.92262, 41.66143], [-70.922607, 41.661315], [-70.92259, 41.66117], [-70.922316, 41.661074], [-70.92219, 41.66103], [-70.922011, 41.660702], [-70.92196, 41.66061], [-70.922027, 41.660485], [-70.92218, 41.6602], [-70.922023, 41.65983], [-70.92196, 41.65968], [-70.921051, 41.65976], [-70.92083, 41.65978], [-70.92086, 41.66008], [-70.92002, 41.66022], [-70.919999, 41.660133], [-70.919778, 41.659232], [-70.91966, 41.65875], [-70.91894, 41.65882], [-70.91834, 41.65626], [-70.918344, 41.656254], [-70.918541, 41.655959], [-70.918975, 41.655311], [-70.919409, 41.654663], [-70.919778, 41.654112], [-70.919925, 41.653891], [-70.9201, 41.65363], [-70.920112, 41.653629], [-70.92159, 41.6535], [-70.92109, 41.65306], [-70.92092, 41.6527], [-70.921182, 41.651711], [-70.921228, 41.651535], [-70.92142, 41.65081], [-70.921163, 41.650118], [-70.92116, 41.65011], [-70.921712, 41.650008], [-70.92197, 41.64996], [-70.921753, 41.649149], [-70.92171, 41.64899], [-70.923643, 41.648781], [-70.92365, 41.64878], [-70.92365, 41.648772], [-70.92365, 41.648724], [-70.92365, 41.64817], [-70.92416, 41.64749], [-70.92415, 41.64702], [-70.92369, 41.64648], [-70.92412, 41.6459], [-70.9235, 41.64487], [-70.92287, 41.64477], [-70.92353, 41.64454], [-70.9239, 41.64425], [-70.924, 41.64278], [-70.92427, 41.6411], [-70.92341, 41.64121], [-70.92315, 41.64061], [-70.92173, 41.64074], [-70.921639, 41.640333], [-70.92152, 41.6398], [-70.921631, 41.639778], [-70.92313, 41.63948], [-70.9221, 41.63837], [-70.921423, 41.638388], [-70.92135, 41.63839], [-70.921124, 41.63809], [-70.921058, 41.638003], [-70.921027, 41.637963], [-70.92095, 41.63786], [-70.920453, 41.636496], [-70.9204, 41.63635], [-70.920337, 41.636241], [-70.920293, 41.636164], [-70.920094, 41.635818], [-70.919883, 41.635451], [-70.91979, 41.63529], [-70.9189, 41.63537], [-70.91878, 41.63496], [-70.91919, 41.63485], [-70.919096, 41.634454], [-70.91904, 41.63422], [-70.9203, 41.63407], [-70.920192, 41.633293], [-70.92016, 41.63306], [-70.920286, 41.632668], [-70.92033, 41.63253], [-70.920452, 41.632449], [-70.920524, 41.632401], [-70.9206, 41.63235], [-70.92042, 41.63223], [-70.920378, 41.632235], [-70.9192, 41.63238], [-70.919215, 41.632308], [-70.919243, 41.632172], [-70.919259, 41.632094], [-70.91927, 41.63204], [-70.919207, 41.631611], [-70.91918, 41.63143], [-70.9205, 41.63128], [-70.92047, 41.63119], [-70.920183, 41.631201], [-70.91972, 41.63122], [-70.91967, 41.63089], [-70.919561, 41.630901], [-70.91862, 41.631], [-70.918562, 41.630836], [-70.91846, 41.63055], [-70.91895, 41.63038], [-70.91891, 41.63014], [-70.91927, 41.63006], [-70.9192, 41.63], [-70.91891, 41.62997], [-70.918796, 41.629778], [-70.918779, 41.629749], [-70.91875, 41.6297], [-70.918271, 41.629678], [-70.91811, 41.62967], [-70.918027, 41.629256], [-70.91802, 41.62922], [-70.91754, 41.62926], [-70.917465, 41.629082], [-70.91743, 41.629], [-70.917889, 41.628898], [-70.91797, 41.62888], [-70.91789, 41.62846], [-70.917747, 41.628487], [-70.91742, 41.62855], [-70.917422, 41.628548], [-70.91766, 41.62823], [-70.91704, 41.62642], [-70.91685, 41.62639], [-70.91685, 41.62621], [-70.91815, 41.62602], [-70.9179, 41.62466], [-70.91831, 41.62454], [-70.91811, 41.62425], [-70.91784, 41.62428], [-70.91744, 41.62381], [-70.91702, 41.62369], [-70.91571, 41.62357], [-70.91529, 41.62277], [-70.91569, 41.62123], [-70.915275, 41.620297], [-70.915221, 41.620175], [-70.91517, 41.62006], [-70.915178, 41.619195], [-70.91518, 41.61898], [-70.91366, 41.6192], [-70.91293, 41.61719], [-70.91351, 41.61694], [-70.913649, 41.616878], [-70.91565, 41.61599], [-70.916259, 41.615987], [-70.91943, 41.61597], [-70.92208, 41.61652], [-70.92255, 41.617613], [-70.92275, 41.61808]]]}}]}