{"type": "FeatureCollection", "features": [{"type": "Feature", "properties": {"area_id": 2184, "city": "New Castle", "state": "PA", "city_survey": true, "cat": "Best", "grade": "A", "label": "A1", "res": true, "com": false, "ind": false, "holc_grade": "A"}, "geometry": {"type": "Polygon", "coordinates": [[[-80.33818, 41.02498], [-80.346545, 41.024754], [-80.34671, 41.02475], [-80.34679, 41.02752], [-80.33837, 41.02771], [-80.338263, 41.02624], [-80.3382, 41.02537], [-80.33818, 41.02498]]]}}, {"type": "Feature", "properties": {"area_id": 2186, "city": "New Castle", "state": "PA", "city_survey": true, "cat": "Best", "grade": "A", "label": "A2", "res": true, "com": false, "ind": false, "holc_grade": "A"}, "geometry": {"type": "Polygon", "coordinates": [[[-80.34278, 41.00986], [-80.34288, 41.01174], [-80.342902, 41.01217], [-80.34317, 41.0173], [-80.34331, 41.02004], [-80.33882, 41.02012], [-80.33865, 41.01562], [-80.3423, 41.01553], [-80.34217, 41.01264], [-80.33894, 41.01269], [-80.3392, 41.012252], [-80.34068, 41.00976], [-80.34278, 41.00986]]]}}, {"type": "Feature", "properties": {"area_id": 2187, "city": "New Castle", "state": "PA", "city_survey": true, "cat": "Best", "grade": "A", "label": "A3", "res": true, "com": false, "ind": false, "holc_grade": "A"}, "geometry": {"type": "Polygon", "coordinates": [[[-80.34613, 41.01211], [-80.35025, 41.01203], [-80.35009, 41.01151], [-80.35167, 41.01148], [-80.35198, 41.01245], [-80.35065, 41.01249], [-80.35156, 41.01382], [-80.35485, 41.01363], [-80.35489, 41.015242], [-80.3549, 41.01567], [-80.35217, 41.01563], [-80.352012, 41.015324], [-80.3515, 41.01433], [-80.3463, 41.01451], [-80.346356, 41.015572], [-80.34639, 41.01623], [-80.346253, 41.016233], [-80.34426, 41.01627], [-80.34435, 41.01729], [-80.34317, 41.0173], [-80.342902, 41.01217], [-80.34288, 41.01174], [-80.34613, 41.01168], [-80.34613, 41.01211]]]}}, {"type": "Feature", "properties": {"area_id": 2185, "city": "New Castle", "state": "PA", "city_survey": true, "cat": "Still Desirable", "grade": "B", "label": "B1", "res": true, "com": false, "ind": false, "holc_grade": "B"}, "geometry": {"type": "Polygon", "coordinates": [[[-80.33206, 41.0108], [-80.33305, 41.01005], [-80.3345, 41.00861], [-80.33755, 41.00858], [-80.33753, 41.00804], [-80.34173, 41.00799], [-80.34068, 41.00976], [-80.3392, 41.012252], [-80.33894, 41.01269], [-80.34217, 41.01264], [-80.3423, 41.01553], [-80.33865, 41.01562], [-80.33882, 41.02012], [-80.34331, 41.02004], [-80.346381, 41.019982], [-80.34647, 41.01998], [-80.34671, 41.02475], [-80.346545, 41.024754], [-80.33818, 41.02498], [-80.3382, 41.02537], [-80.33514, 41.02546], [-80.33496, 41.02069], [-80.33326, 41.02074], [-80.33313, 41.01532], [-80.33284, 41.01444], [-80.33269, 41.01364], [-80.33259, 41.01275], [-80.332368, 41.01238], [-80.33235, 41.01235], [-80.33206, 41.0108]]]}}, {"type": "Feature", "properties": {"area_id": 2188, "city": "New Castle", "state": "PA", "city_survey": true, "cat": "Still Desirable", "grade": "B", "label": "B2", "res": true, "com": false, "ind": false, "holc_grade": "B"}, "geometry": {"type": "Polygon", "coordinates": [[[-80.34173, 41.00799], [-80.34753, 41.00786], [-80.34785, 41.00786], [-80.35009, 41.01151], [-80.35025, 41.01203], [-80.34613, 41.01211], [-80.34613, 41.01168], [-80.34288, 41.01174], [-80.34278, 41.00986], [-80.34068, 41.00976], [-80.34173, 41.00799]]]}}, {"type": "Feature", "properties": {"area_id": 2195, "city": "New Castle", "state": "PA", "city_survey": true, "cat": "Still Desirable", "grade": "B", "label": "B3", "res": true, "com": false, "ind": false, "holc_grade": "B"}, "geometry": {"type": "Polygon", "coordinates": [[[-80.336959, 40.991952], [-80.33696, 40.992], [-80.33313, 40.99302], [-80.33306, 40.99295], [-80.331844, 40.992055], [-80.33181, 40.99203], [-80.331779, 40.991999], [-80.331754, 40.991973], [-80.33041, 40.9906], [-80.33127, 40.99008], [-80.33222, 40.98973], [-80.33211, 40.989], [-80.33243, 40.98882], [-80.33267, 40.98862], [-80.33306, 40.98845], [-80.33286, 40.98605], [-80.336771, 40.986008], [-80.33931, 40.98598], [-80.339353, 40.987879], [-80.33939, 40.9895], [-80.33689, 40.98955], [-80.336957, 40.991883], [-80.336959, 40.991952]]]}}, {"type": "Feature", "properties": {"area_id": 2196, "city": "New Castle", "state": "PA", "city_survey": true, "cat": "Still Desirable", "grade": "B", "label": "B4", "res": true, "com": false, "ind": false, "holc_grade": "B"}, "geometry": {"type": "Polygon", "coordinates": [[[-80.321146, 40.98031], [-80.32348, 40.98259], [-80.32643, 40.98136], [-80.32789, 40.98372], [-80.32782, 40.98502], [-80.32875, 40.98505], [-80.33211, 40.989], [-80.33222, 40.98973], [-80.33127, 40.99008], [-80.33041, 40.9906], [-80.331754, 40.991973], [-80.331779, 40.991999], [-80.33181, 40.99203], [-80.32638, 40.99088], [-80.32263, 40.98998], [-80.322497, 40.990051], [-80.32145, 40.99061], [-80.31914, 40.98937], [-80.319149, 40.989281], [-80.31974, 40.98326], [-80.320349, 40.980324], [-80.3204, 40.98008], [-80.32089, 40.98006], [-80.321146, 40.98031]]]}}, {"type": "Feature", "properties": {"area_id": 2207, "city": "New Castle", "state": "PA", "city_survey": true, "cat": "Still Desirable", "grade": "B", "label": "B5", "res": true, "com": false, "ind": false, "holc_grade": "B"}, "geometry": {"type": "Polygon", "coordinates": [[[-80.38132, 40.97808], [-80.37953, 40.97864], [-80.37421, 40.9756], [-80.37527, 40.9746], [-80.38113, 40.97781], [-80.38132, 40.97808]]]}}, {"type": "Feature", "properties": {"area_id": 2205, "city": "New Castle", "state": "PA", "city_survey": true, "cat": "Still Desirable", "grade": "B", "label": "B6", "res": true, "com": false, "ind": false, "holc_grade": "B"}, "geometry": {"type": "Polygon", "coordinates": [[[-80.37432, 40.996842], [-80.37379, 41.00325], [-80.37383, 41.00544], [-80.3771, 41.00599], [-80.37707, 41.00667], [-80.37719, 41.00694], [-80.37714, 41.00882], [-80.37597, 41.00868], [-80.37361, 41.0087], [-80.37299, 41.00867], [-80.37208, 41.00875], [-80.36813, 41.00869], [-80.36702, 41.00869], [-80.367, 41.00477], [-80.36729, 41.00483], [-80.36743, 41.00382], [-80.3675, 41.00027], [-80.36733, 40.99706], [-80.369662, 40.996987], [-80.37432, 40.99684], [-80.37432, 40.996842]]]}}, {"type": "Feature", "properties": {"area_id": 2189, "city": "New Castle", "state": "PA", "city_survey": true, "cat": "Definitely Declining", "grade": "C", "label": "C1", "res": true, "com": false, "ind": false, "holc_grade": "C"}, "geometry": {"type": "Polygon", "coordinates": [[[-80.35164, 41.00236], [-80.35162, 41.00282], [-80.35284, 41.00282], [-80.35291, 41.00391], [-80.35212, 41.00393], [-80.34885, 41.004], [-80.34901, 41.00646], [-80.347707, 41.006495], [-80.3475, 41.0065], [-80.34753, 41.00786], [-80.34173, 41.00799], [-80.33753, 41.00804], [-80.3375, 41.00672], [-80.33637, 41.00677], [-80.33538, 41.00669], [-80.33545, 41.00616], [-80.3358, 41.00565], [-80.33627, 41.0052], [-80.33747, 41.0044], [-80.33882, 41.00345], [-80.33953, 41.00345], [-80.33955, 41.00555], [-80.34137, 41.0055], [-80.34136, 41.00344], [-80.3415, 41.00345], [-80.34154, 41.00305], [-80.34307, 41.00308], [-80.34304, 41.00254], [-80.345782, 41.002483], [-80.35026, 41.00239], [-80.35164, 41.00236]]]}}, {"type": "Feature", "properties": {"area_id": 2190, "city": "New Castle", "state": "PA", "city_survey": true, "cat": "Definitely Declining", "grade": "C", "label": "C2", "res": true, "com": false, "ind": false, "holc_grade": "C"}, "geometry": {"type": "Polygon", "coordinates": [[[-80.34009, 41.00117], [-80.340336, 41.001442], [-80.34038, 41.00149], [-80.342964, 41.001432], [-80.34304, 41.00143], [-80.34304, 41.002457], [-80.34304, 41.00254], [-80.34307, 41.00308], [-80.34154, 41.00305], [-80.3415, 41.00345], [-80.34136, 41.00344], [-80.34137, 41.0055], [-80.33955, 41.00555], [-80.33953, 41.00345], [-80.33882, 41.00345], [-80.33747, 41.0044], [-80.33627, 41.0052], [-80.3358, 41.00565], [-80.33545, 41.00616], [-80.33538, 41.00669], [-80.33495, 41.00733], [-80.334176, 41.006881], [-80.33383, 41.00668], [-80.33448, 41.00595], [-80.33545, 41.00436], [-80.33591, 41.00394], [-80.33629, 41.00344], [-80.33667, 41.00303], [-80.336944, 41.002838], [-80.33862, 41.00166], [-80.340031, 41.00119], [-80.34009, 41.00117]]]}}, {"type": "Feature", "properties": {"area_id": 2191, "city": "New Castle", "state": "PA", "city_survey": true, "cat": "Definitely Declining", "grade": "C", "label": "C3", "res": true, "com": false, "ind": false, "holc_grade": "C"}, "geometry": {"type": "Polygon", "coordinates": [[[-80.33243, 41.00423], [-80.33377, 41.00415], [-80.333787, 41.004542], [-80.33379, 41.00462], [-80.3338, 41.00493], [-80.33352, 41.00525], [-80.3331, 41.00562], [-80.33267, 41.00589], [-80.33258, 41.00602], [-80.3324, 41.00775], [-80.33155, 41.009], [-80.33025, 41.00983], [-80.33005, 41.0096], [-80.32924, 41.0095], [-80.32868, 41.0103], [-80.32799, 41.01029], [-80.328, 41.00989], [-80.32288, 41.00997], [-80.32259, 41.00833], [-80.31811, 41.00954], [-80.31807, 41.00899], [-80.31804, 41.00844], [-80.32137, 41.00756], [-80.32133, 41.00563], [-80.32204, 41.00564], [-80.32162, 41.0034], [-80.32504, 41.0034], [-80.32502, 41.00436], [-80.33002, 41.00433], [-80.33003, 41.00409], [-80.331219, 41.00409], [-80.33153, 41.00409], [-80.33243, 41.00423]]]}}, {"type": "Feature", "properties": {"area_id": 2193, "city": "New Castle", "state": "PA", "city_survey": true, "cat": "Definitely Declining", "grade": "C", "label": "C4", "res": true, "com": false, "ind": false, "holc_grade": "C"}, "geometry": {"type": "Polygon", "coordinates": [[[-80.331844, 40.992055], [-80.33306, 40.99295], [-80.33313, 40.99302], [-80.336382, 40.996327], [-80.33727, 40.99723], [-80.33746, 40.99729], [-80.33911, 40.99778], [-80.340054, 40.998267], [-80.34037, 40.99843], [-80.34035, 40.998461], [-80.34008, 40.99888], [-80.34039, 40.99906], [-80.34085, 40.99959], [-80.341206, 40.999933], [-80.34141, 41.00013], [-80.34115, 41.00036], [-80.33905, 41.00121], [-80.33765, 41.00172], [-80.336365, 41.00264], [-80.33617, 41.00278], [-80.335958, 41.003064], [-80.33552, 41.00365], [-80.33517, 41.00396], [-80.33435, 41.00443], [-80.33379, 41.00462], [-80.333787, 41.004542], [-80.33377, 41.00415], [-80.33243, 41.00423], [-80.33153, 41.00409], [-80.331219, 41.00409], [-80.33003, 41.00409], [-80.33002, 41.00226], [-80.32746, 41.00225], [-80.3274, 41.00061], [-80.32863, 41.00059], [-80.32863, 40.99939], [-80.32786, 40.99938], [-80.32801, 40.99727], [-80.3268, 40.99728], [-80.32671, 40.99349], [-80.32699, 40.99297], [-80.32721, 40.99239], [-80.32615, 40.99204], [-80.32638, 40.99118], [-80.32638, 40.990925], [-80.32638, 40.99088], [-80.33181, 40.99203], [-80.331844, 40.992055]]]}}, {"type": "Feature", "properties": {"area_id": 2194, "city": "New Castle", "state": "PA", "city_survey": true, "cat": "Definitely Declining", "grade": "C", "label": "C5", "res": true, "com": false, "ind": false, "holc_grade": "C"}, "geometry": {"type": "Polygon", "coordinates": [[[-80.333705, 40.979854], [-80.33401, 40.97985], [-80.33412, 40.98487], [-80.33662, 40.98485], [-80.33659, 40.98273], [-80.339607, 40.982684], [-80.34118, 40.98266], [-80.34087, 40.98336], [-80.34109, 40.98589], [-80.34364, 40.98583], [-80.34364, 40.985864], [-80.34365, 40.98735], [-80.34396, 40.99583], [-80.34397, 40.99618], [-80.34324, 40.99628], [-80.34317, 40.9965], [-80.34303, 40.99687], [-80.34279, 40.99728], [-80.34232, 40.99773], [-80.34108, 40.99779], [-80.341, 40.99791], [-80.3409, 40.99808], [-80.34077, 40.99826], [-80.34058, 40.99837], [-80.34037, 40.99843], [-80.340054, 40.998267], [-80.33911, 40.99778], [-80.33746, 40.99729], [-80.33727, 40.99723], [-80.336382, 40.996327], [-80.33313, 40.99302], [-80.33696, 40.992], [-80.336959, 40.991952], [-80.336957, 40.991883], [-80.33689, 40.98955], [-80.33939, 40.9895], [-80.339353, 40.987879], [-80.33931, 40.98598], [-80.336771, 40.986008], [-80.33286, 40.98605], [-80.33306, 40.98845], [-80.33267, 40.98862], [-80.33243, 40.98882], [-80.33211, 40.989], [-80.32875, 40.98505], [-80.3294, 40.98503], [-80.32939, 40.98057], [-80.3261, 40.98068], [-80.32643, 40.98136], [-80.32348, 40.98259], [-80.321146, 40.98031], [-80.32089, 40.98006], [-80.32352, 40.97999], [-80.333705, 40.979854]], [[-80.34104, 40.9941], [-80.33972, 40.9937], [-80.33908, 40.99432], [-80.33897, 40.99454], [-80.34073, 40.99506], [-80.34105, 40.99466], [-80.34104, 40.9941]]]}}, {"type": "Feature", "properties": {"area_id": 2198, "city": "New Castle", "state": "PA", "city_survey": true, "cat": "Definitely Declining", "grade": "C", "label": "C6", "res": true, "com": false, "ind": false, "holc_grade": "C"}, "geometry": {"type": "Polygon", "coordinates": [[[-80.34034, 40.97154], [-80.34405, 40.97139], [-80.34508, 40.97045], [-80.35056, 40.96971], [-80.35109, 40.97949], [-80.351052, 40.979711], [-80.3504, 40.98347], [-80.3477, 40.98348], [-80.34765, 40.98378], [-80.34554, 40.98378], [-80.34552, 40.98331], [-80.34413, 40.98328], [-80.3438, 40.98259], [-80.34369, 40.98196], [-80.34363, 40.98101], [-80.343125, 40.979881], [-80.3405, 40.97401], [-80.34034, 40.97154]]]}}, {"type": "Feature", "properties": {"area_id": 2206, "city": "New Castle", "state": "PA", "city_survey": true, "cat": "Definitely Declining", "grade": "C", "label": "C7", "res": true, "com": false, "ind": false, "holc_grade": "C"}, "geometry": {"type": "Polygon", "coordinates": [[[-80.36186, 40.98173], [-80.36082, 40.98177], [-80.36344, 40.97933], [-80.3642, 40.97941], [-80.36453, 40.97932], [-80.36599, 40.97806], [-80.36687, 40.97721], [-80.36808, 40.97655], [-80.36736, 40.97587], [-80.3705, 40.97389], [-80.37128, 40.97345], [-80.37244, 40.97251], [-80.37297, 40.97272], [-80.37422, 40.97147], [-80.37651, 40.97299], [-80.37753, 40.97362], [-80.37742, 40.97381], [-80.3805, 40.97633], [-80.38065, 40.97698], [-80.38113, 40.97781], [-80.37527, 40.9746], [-80.37421, 40.9756], [-80.37953, 40.97864], [-80.38132, 40.97808], [-80.38147, 40.97852], [-80.38173, 40.9791], [-80.38221, 40.97968], [-80.38246, 40.98004], [-80.38308, 40.98034], [-80.38366, 40.9808], [-80.38417, 40.98136], [-80.38476, 40.98195], [-80.38539, 40.98312], [-80.38438, 40.98307], [-80.38326, 40.9832], [-80.3816, 40.98146], [-80.37983, 40.97976], [-80.37411, 40.97662], [-80.37206, 40.97741], [-80.37287, 40.97857], [-80.37118, 40.97916], [-80.37103, 40.97893], [-80.36907, 40.97975], [-80.369, 40.97925], [-80.3651, 40.98269], [-80.365655, 40.98317], [-80.36569, 40.9832], [-80.364201, 40.983215], [-80.36371, 40.98322], [-80.363698, 40.983231], [-80.36289, 40.98398], [-80.361783, 40.983291], [-80.3608, 40.98268], [-80.36186, 40.98173]]]}}, {"type": "Feature", "properties": {"area_id": 2204, "city": "New Castle", "state": "PA", "city_survey": true, "cat": "Definitely Declining", "grade": "C", "label": "C8", "res": true, "com": false, "ind": false, "holc_grade": "C"}, "geometry": {"type": "Polygon", "coordinates": [[[-80.3572, 40.99561], [-80.36327, 40.99549], [-80.36364, 40.99594], [-80.36584, 40.99607], [-80.36596, 40.99728], [-80.365912, 40.997436], [-80.36584, 40.99767], [-80.36576, 40.99865], [-80.36584, 41.00034], [-80.36514, 41.00086], [-80.36502, 41.00107], [-80.36277, 41.00237], [-80.36212, 40.99986], [-80.36102, 41.0003], [-80.35283, 41.00048], [-80.35264, 41.00019], [-80.35248, 40.99989], [-80.35248, 40.99949], [-80.35257, 40.99913], [-80.35278, 40.99877], [-80.35366, 40.99772], [-80.355064, 40.995469], [-80.35512, 40.99538], [-80.3572, 40.99561]], [[-80.35459, 40.9983], [-80.35466, 40.99915], [-80.3591, 40.99896], [-80.3591, 40.99735], [-80.35739, 40.99747], [-80.35684, 40.99713], [-80.35665, 40.997], [-80.35642, 40.99694], [-80.35607, 40.99686], [-80.35582, 40.99688], [-80.35544, 40.99683], [-80.35512, 40.99725], [-80.35474, 40.99759], [-80.35459, 40.99791], [-80.35459, 40.9983]]]}}, {"type": "Feature", "properties": {"area_id": 2203, "city": "New Castle", "state": "PA", "city_survey": true, "cat": "Hazardous", "grade": "D", "label": "D1", "res": true, "com": false, "ind": false, "holc_grade": "D"}, "geometry": {"type": "Polygon", "coordinates": [[[-80.3569, 41.00653], [-80.35877, 41.00649], [-80.35859, 41.0032], [-80.35851, 41.00303], [-80.35837, 41.00291], [-80.35797, 41.00278], [-80.3561, 41.00197], [-80.35493, 41.00154], [-80.35482, 41.00142], [-80.35475, 41.00135], [-80.35458, 41.00126], [-80.35442, 41.00126], [-80.35421, 41.00127], [-80.35412, 41.00129], [-80.35359, 41.00112], [-80.35326, 41.00094], [-80.35293, 41.00063], [-80.35283, 41.00048], [-80.36102, 41.0003], [-80.36086, 41.00043], [-80.36002, 41.00261], [-80.3614, 41.00293], [-80.36139, 41.00334], [-80.36232, 41.00347], [-80.36321, 41.00336], [-80.36369, 41.00331], [-80.36398, 41.00328], [-80.36419, 41.00329], [-80.36446, 41.00346], [-80.36467, 41.00361], [-80.36479, 41.00518], [-80.36172, 41.00509], [-80.36239, 41.00879], [-80.36253, 41.00925], [-80.36257, 41.00942], [-80.36257, 41.00962], [-80.3624, 41.00995], [-80.36158, 41.01195], [-80.36124, 41.01275], [-80.35945, 41.01252], [-80.35897, 41.00951], [-80.35849, 41.00957], [-80.356933, 41.009461], [-80.35678, 41.00945], [-80.356893, 41.00874], [-80.35699, 41.00813], [-80.3569, 41.00653]]]}}, {"type": "Feature", "properties": {"area_id": 2202, "city": "New Castle", "state": "PA", "city_survey": true, "cat": "Hazardous", "grade": "D", "label": "D2", "res": true, "com": false, "ind": false, "holc_grade": "D"}, "geometry": {"type": "Polygon", "coordinates": [[[-80.35211, 41.00421], [-80.35212, 41.00393], [-80.35291, 41.00391], [-80.35284, 41.00282], [-80.35162, 41.00282], [-80.35164, 41.00236], [-80.35026, 41.00239], [-80.35024, 41.00061], [-80.35048, 41.00097], [-80.35066, 41.00123], [-80.35103, 41.00155], [-80.35143, 41.00181], [-80.35217, 41.00198], [-80.35341, 41.0021], [-80.35432, 41.00226], [-80.35495, 41.00246], [-80.3551, 41.00264], [-80.3552, 41.00286], [-80.35526, 41.00299], [-80.355274, 41.003261], [-80.35538, 41.00526], [-80.35558, 41.00846], [-80.35538, 41.00956], [-80.35317, 41.00951], [-80.35099, 41.00961], [-80.35074, 41.00751], [-80.35057, 41.00642], [-80.35294, 41.00633], [-80.35279, 41.0053], [-80.35197, 41.00535], [-80.35142, 41.00533], [-80.35142, 41.005325], [-80.35141, 41.00423], [-80.35211, 41.00421]]]}}, {"type": "Feature", "properties": {"area_id": 2201, "city": "New Castle", "state": "PA", "city_survey": true, "cat": "Hazardous", "grade": "D", "label": "D3", "res": true, "com": false, "ind": false, "holc_grade": "D"}, "geometry": {"type": "Polygon", "coordinates": [[[-80.34718, 40.99867], [-80.3471, 40.99708], [-80.34842, 40.99707], [-80.34851, 40.99655], [-80.35041, 40.99649], [-80.34993, 40.99861], [-80.34718, 40.99867]]]}}, {"type": "Feature", "properties": {"area_id": 2200, "city": "New Castle", "state": "PA", "city_survey": true, "cat": "Hazardous", "grade": "D", "label": "D4", "res": true, "com": false, "ind": false, "holc_grade": "D"}, "geometry": {"type": "Polygon", "coordinates": [[[-80.35087, 40.99401], [-80.35088, 40.99433], [-80.35071, 40.9946], [-80.35046, 40.99477], [-80.35028, 40.99503], [-80.34993, 40.99531], [-80.34942, 40.99552], [-80.34698, 40.99574], [-80.34698, 40.99416], [-80.35087, 40.99401]]]}}, {"type": "Feature", "properties": {"area_id": 2192, "city": "New Castle", "state": "PA", "city_survey": true, "cat": "Hazardous", "grade": "D", "label": "D5", "res": true, "com": false, "ind": false, "holc_grade": "D"}, "geometry": {"type": "Polygon", "coordinates": [[[-80.32137, 41.00756], [-80.31804, 41.00844], [-80.31807, 41.00899], [-80.31795, 41.009017], [-80.31736, 41.00915], [-80.31598, 41.00661], [-80.31606, 41.00554], [-80.31737, 41.00551], [-80.317776, 41.005522], [-80.32133, 41.00563], [-80.32137, 41.00756]]]}}, {"type": "Feature", "properties": {"area_id": 2197, "city": "New Castle", "state": "PA", "city_survey": true, "cat": "Hazardous", "grade": "D", "label": "D6", "res": true, "com": false, "ind": false, "holc_grade": "D"}, "geometry": {"type": "Polygon", "coordinates": [[[-80.33659, 40.98273], [-80.33656, 40.98001], [-80.340349, 40.979939], [-80.34193, 40.97991], [-80.341934, 40.979918], [-80.34306, 40.98215], [-80.34266, 40.9833], [-80.34265, 40.98441], [-80.343, 40.9847], [-80.34332, 40.98482], [-80.34365, 40.98485], [-80.3445, 40.98489], [-80.34457, 40.98477], [-80.34597, 40.98475], [-80.3463, 40.98483], [-80.34674, 40.98484], [-80.34791, 40.98482], [-80.34792, 40.98435], [-80.34879, 40.98439], [-80.34887, 40.98386], [-80.35033, 40.98387], [-80.34768, 40.99186], [-80.34606, 40.99193], [-80.3461, 40.9922], [-80.3454, 40.99221], [-80.3456, 40.99559], [-80.34544, 40.99567], [-80.34517, 40.99578], [-80.34483, 40.9958], [-80.344148, 40.995824], [-80.34396, 40.99583], [-80.34365, 40.98735], [-80.34364, 40.985864], [-80.34364, 40.98583], [-80.34109, 40.98589], [-80.34087, 40.98336], [-80.34118, 40.98266], [-80.339607, 40.982684], [-80.33659, 40.98273]]]}}, {"type": "Feature", "properties": {"area_id": 2199, "city": "New Castle", "state": "PA", "city_survey": true, "cat": "Hazardous", "grade": "D", "label": "D7", "res": true, "com": false, "ind": false, "holc_grade": "D"}, "geometry": {"type": "Polygon", "coordinates": [[[-80.35793, 40.98192], [-80.35793, 40.98193], [-80.35795, 40.98193], [-80.35622, 40.98346], [-80.3546, 40.9835], [-80.35455, 40.98336], [-80.35497, 40.98156], [-80.35481, 40.9809], [-80.36116, 40.98071], [-80.35996, 40.98185], [-80.35793, 40.98192]]]}}, {"type": "Feature", "properties": {"area_id": 2208, "city": "New Castle", "state": "PA", "city_survey": true, "cat": "Hazardous", "grade": "D", "label": "D8", "res": true, "com": false, "ind": false, "holc_grade": "D"}, "geometry": {"type": "Polygon", "coordinates": [[[-80.36853, 40.97293], [-80.37245, 40.97006], [-80.37255, 40.9702], [-80.37259, 40.97031], [-80.37187, 40.97215], [-80.36954, 40.97391], [-80.36853, 40.97293]]]}}, {"type": "Feature", "properties": {"area_id": 2209, "city": "New Castle", "state": "PA", "city_survey": true, "cat": "Hazardous", "grade": "D", "label": "D9", "res": true, "com": false, "ind": false, "holc_grade": "D"}, "geometry": {"type": "Polygon", "coordinates": [[[-80.3801, 40.97453], [-80.37636, 40.9725], [-80.37533, 40.97182], [-80.37434, 40.97098], [-80.37539, 40.97018], [-80.37605, 40.96957], [-80.37639, 40.96934], [-80.37671, 40.96923], [-80.37721, 40.96908], [-80.37811, 40.96899], [-80.3786, 40.96895], [-80.37907, 40.96903], [-80.37968, 40.96923], [-80.38026, 40.96952], [-80.38096, 40.97009], [-80.38219, 40.97133], [-80.38128, 40.9714], [-80.38157, 40.9723], [-80.38083, 40.97464], [-80.3801, 40.97453]]]}}, {"type": "Feature", "properties": {"area_id": 11358, "city": "New Castle", "state": "PA", "city_survey": true, "cat": "Industrial and Commercial", "grade": null, "label": "Industrial and Commercial", "res": false, "com": true, "ind": true, "holc_grade": null}, "geometry": {"type": "MultiPolygon", "coordinates": [[[[-80.34048, 40.9761], [-80.34025, 40.97676], [-80.33962, 40.97678], [-80.33897, 40.97625], [-80.33875, 40.97559], [-80.33724, 40.97404], [-80.33657, 40.97321], [-80.3366, 40.97261], [-80.33701, 40.97227], [-80.33765, 40.97238], [-80.33881, 40.97343], [-80.33978, 40.97512], [-80.34048, 40.9761]]], [[[-80.34221, 40.99987], [-80.34141, 41.00013], [-80.341206, 40.999933], [-80.34085, 40.99959], [-80.34039, 40.99906], [-80.34008, 40.99888], [-80.34035, 40.998461], [-80.34037, 40.99843], [-80.34058, 40.99837], [-80.34077, 40.99826], [-80.3409, 40.99808], [-80.341, 40.99791], [-80.34108, 40.99779], [-80.34232, 40.99773], [-80.34279, 40.99728], [-80.34303, 40.99687], [-80.34317, 40.9965], [-80.34324, 40.99628], [-80.34397, 40.99618], [-80.34396, 40.99583], [-80.344148, 40.995824], [-80.34426, 40.99582], [-80.34431, 40.99819], [-80.344233, 40.998251], [-80.342346, 40.999762], [-80.34221, 40.99987]]], [[[-80.34718, 40.99867], [-80.34993, 40.99861], [-80.35024, 41.00061], [-80.35026, 41.00239], [-80.345782, 41.002483], [-80.34304, 41.00254], [-80.34304, 41.002457], [-80.34304, 41.00143], [-80.342964, 41.001432], [-80.34038, 41.00149], [-80.340464, 41.001448], [-80.34273, 41.00031], [-80.344208, 40.998832], [-80.344256, 40.998784], [-80.34626, 40.99678], [-80.346521, 40.99678], [-80.34713, 40.99678], [-80.3471, 40.99708], [-80.34718, 40.99867]]], [[[-80.3546, 40.9835], [-80.35622, 40.98346], [-80.35795, 40.98193], [-80.35793, 40.98193], [-80.35793, 40.98192], [-80.35996, 40.98185], [-80.3603, 40.982], [-80.358592, 40.983547], [-80.358588, 40.983551], [-80.35668, 40.98528], [-80.35501, 40.98521], [-80.3546, 40.9835]]], [[[-80.35683, 40.97944], [-80.36154, 40.97922], [-80.36243, 40.97973], [-80.36116, 40.98071], [-80.35481, 40.9809], [-80.35683, 40.97944]]], [[[-80.35877, 41.00649], [-80.3569, 41.00653], [-80.356577, 41.006489], [-80.35651, 41.00648], [-80.35616, 41.00605], [-80.356141, 41.003238], [-80.35614, 41.00316], [-80.35747, 41.00313], [-80.3583, 41.00451], [-80.35872, 41.00565], [-80.35877, 41.00649]]], [[[-80.36675, 40.97217], [-80.3693, 40.97409], [-80.36565, 40.97691], [-80.36302, 40.9751], [-80.36675, 40.97217]]]]}}]}