{"type": "FeatureCollection", "features": [{"type": "Feature", "properties": {"area_id": 3192, "city": "Dayton", "state": "OH", "city_survey": true, "cat": "Best", "grade": "A", "label": "A1", "res": true, "com": false, "ind": false, "holc_grade": "A"}, "geometry": {"type": "Polygon", "coordinates": [[[-84.16871, 39.70404], [-84.17002, 39.70416], [-84.170432, 39.704394], [-84.17053, 39.70445], [-84.170609, 39.70524], [-84.1708, 39.70714], [-84.171, 39.70782], [-84.17119, 39.70969], [-84.17175, 39.71339], [-84.17184, 39.71405], [-84.17218, 39.71694], [-84.172101, 39.716936], [-84.16752, 39.71673], [-84.16321, 39.71651], [-84.16135, 39.71638], [-84.16171, 39.71143], [-84.16192, 39.70955], [-84.16215, 39.70713], [-84.16223, 39.70613], [-84.162338, 39.704869], [-84.16234, 39.70485], [-84.16858, 39.70524], [-84.16871, 39.70404]]]}}, {"type": "Feature", "properties": {"area_id": 3189, "city": "Dayton", "state": "OH", "city_survey": true, "cat": "Best", "grade": "A", "label": "A2", "res": true, "com": false, "ind": false, "holc_grade": "A"}, "geometry": {"type": "Polygon", "coordinates": [[[-84.17245, 39.71868], [-84.17253, 39.71983], [-84.1725, 39.719829], [-84.16808, 39.71964], [-84.16755, 39.72499], [-84.16985, 39.72516], [-84.16939, 39.73031], [-84.16945, 39.73081], [-84.16982, 39.73193], [-84.16981, 39.73255], [-84.169555, 39.733188], [-84.16951, 39.7333], [-84.168672, 39.732888], [-84.16825, 39.73268], [-84.16751, 39.73241], [-84.16669, 39.7319], [-84.16548, 39.73086], [-84.16482, 39.73007], [-84.16451, 39.72968], [-84.16434, 39.72948], [-84.164054, 39.728548], [-84.16396, 39.72824], [-84.163874, 39.727749], [-84.1638, 39.72733], [-84.163661, 39.726866], [-84.16359, 39.72663], [-84.1634, 39.7251], [-84.16309, 39.72387], [-84.162993, 39.723477], [-84.1628, 39.7227], [-84.1624, 39.7215], [-84.16172, 39.72002], [-84.16126, 39.719401], [-84.161196, 39.719315], [-84.16114, 39.71924], [-84.16126, 39.7186], [-84.16135, 39.71638], [-84.16321, 39.71651], [-84.16752, 39.71673], [-84.172101, 39.716936], [-84.17218, 39.71694], [-84.17227, 39.71755], [-84.17245, 39.71868]]]}}, {"type": "Feature", "properties": {"area_id": 3188, "city": "Dayton", "state": "OH", "city_survey": true, "cat": "Best", "grade": "A", "label": "A3", "res": true, "com": false, "ind": false, "holc_grade": "A"}, "geometry": {"type": "Polygon", "coordinates": [[[-84.17253, 39.71983], [-84.172626, 39.720329], [-84.172739, 39.72092], [-84.17301, 39.72233], [-84.17327, 39.72372], [-84.173554, 39.724563], [-84.17357, 39.72461], [-84.173581, 39.724633], [-84.17427, 39.726], [-84.17467, 39.72635], [-84.17535, 39.72658], [-84.17658, 39.7268], [-84.17751, 39.72715], [-84.1782, 39.727571], [-84.179083, 39.728109], [-84.17961, 39.72843], [-84.18095, 39.72932], [-84.1819, 39.73016], [-84.18235, 39.73064], [-84.18252, 39.73083], [-84.18334, 39.732], [-84.18319, 39.732021], [-84.17999, 39.73246], [-84.1795, 39.73245], [-84.17938, 39.7319], [-84.17171, 39.73315], [-84.17169, 39.7335], [-84.17154, 39.73372], [-84.17131, 39.73383], [-84.171084, 39.733873], [-84.17078, 39.73393], [-84.16951, 39.7333], [-84.169555, 39.733188], [-84.16981, 39.73255], [-84.16982, 39.73193], [-84.16945, 39.73081], [-84.16939, 39.73031], [-84.16985, 39.72516], [-84.16755, 39.72499], [-84.16808, 39.71964], [-84.1725, 39.719829], [-84.17253, 39.71983]]]}}, {"type": "Feature", "properties": {"area_id": 3190, "city": "Dayton", "state": "OH", "city_survey": true, "cat": "Best", "grade": "A", "label": "A4", "res": true, "com": false, "ind": false, "holc_grade": "A"}, "geometry": {"type": "Polygon", "coordinates": [[[-84.18211, 39.71244], [-84.1828, 39.71321], [-84.18353, 39.71359], [-84.18414, 39.71381], [-84.18491, 39.7143], [-84.18566, 39.71495], [-84.18641, 39.71513], [-84.18749, 39.71607], [-84.18801, 39.71652], [-84.18875, 39.71692], [-84.18951, 39.7167], [-84.19011, 39.71663], [-84.19087, 39.71659], [-84.19141, 39.71652], [-84.19145, 39.71564], [-84.19153, 39.7155], [-84.1919, 39.71537], [-84.19381, 39.71502], [-84.19417, 39.71483], [-84.19468, 39.71457], [-84.19495, 39.7146], [-84.19495, 39.71465], [-84.1949, 39.71505], [-84.19493, 39.71541], [-84.19535, 39.71558], [-84.19588, 39.71568], [-84.19607, 39.71585], [-84.1957, 39.7171], [-84.19535, 39.71846], [-84.19525, 39.71926], [-84.19494, 39.72015], [-84.19456, 39.72128], [-84.19592, 39.72267], [-84.19608, 39.72297], [-84.19619, 39.72378], [-84.19616, 39.72432], [-84.19557, 39.72411], [-84.19517, 39.72418], [-84.19443, 39.72443], [-84.19384, 39.72453], [-84.19411, 39.72517], [-84.1939, 39.72528], [-84.19305, 39.72627], [-84.19211, 39.72743], [-84.19107, 39.72841], [-84.18952, 39.72876], [-84.189012, 39.728914], [-84.18863, 39.72903], [-84.18737, 39.7296], [-84.18596, 39.73013], [-84.18528, 39.73013], [-84.18377, 39.73007], [-84.18321, 39.73016], [-84.18235, 39.73064], [-84.1819, 39.73016], [-84.18095, 39.72932], [-84.17961, 39.72843], [-84.179083, 39.728109], [-84.1782, 39.727571], [-84.17751, 39.72715], [-84.17658, 39.7268], [-84.17535, 39.72658], [-84.17467, 39.72635], [-84.17427, 39.726], [-84.173581, 39.724633], [-84.17357, 39.72461], [-84.173554, 39.724563], [-84.17327, 39.72372], [-84.17301, 39.72233], [-84.172739, 39.72092], [-84.172626, 39.720329], [-84.17253, 39.71983], [-84.17245, 39.71868], [-84.17227, 39.71755], [-84.17218, 39.71694], [-84.17184, 39.71405], [-84.17175, 39.71339], [-84.17229, 39.71333], [-84.17307, 39.71335], [-84.17406, 39.71349], [-84.17529, 39.71356], [-84.17679, 39.71338], [-84.17932, 39.71287], [-84.179409, 39.712847], [-84.18077, 39.71249], [-84.18189, 39.71213], [-84.18211, 39.71244]], [[-84.18861, 39.72701], [-84.18873, 39.72686], [-84.18874, 39.72624], [-84.18858, 39.72531], [-84.18873, 39.72466], [-84.18961, 39.72333], [-84.19011, 39.72265], [-84.19032, 39.72227], [-84.19043, 39.72181], [-84.19035, 39.72118], [-84.19022, 39.72055], [-84.1899, 39.72004], [-84.18882, 39.71944], [-84.18749, 39.71879], [-84.18637, 39.71817], [-84.18546, 39.7173], [-84.18472, 39.7165], [-84.18454, 39.71633], [-84.18409, 39.71618], [-84.18345, 39.71635], [-84.18364, 39.716694], [-84.18371, 39.71682], [-84.18388, 39.71739], [-84.18366, 39.71777], [-84.18337, 39.71802], [-84.1827, 39.71824], [-84.18183, 39.71832], [-84.18175, 39.71848], [-84.18201, 39.71859], [-84.18215, 39.7187], [-84.18256, 39.71881], [-84.18267, 39.71905], [-84.18264, 39.71982], [-84.18289, 39.72047], [-84.18332, 39.72153], [-84.18332, 39.72188], [-84.18319, 39.72212], [-84.18296, 39.72256], [-84.18292, 39.72309], [-84.18169, 39.72354], [-84.18037, 39.72413], [-84.17974, 39.72473], [-84.17942, 39.72513], [-84.17941, 39.72553], [-84.17953, 39.72594], [-84.17978, 39.72684], [-84.1809, 39.72637], [-84.18136, 39.7259], [-84.18221, 39.72519], [-84.18287, 39.72498], [-84.183355, 39.724914], [-84.18368, 39.72487], [-84.1845, 39.72498], [-84.18538, 39.72525], [-84.1857, 39.72553], [-84.18587, 39.7258], [-84.185853, 39.726608], [-84.18583, 39.72765], [-84.186362, 39.727627], [-84.187709, 39.72757], [-84.18817, 39.72755], [-84.188211, 39.727453], [-84.18831, 39.72722], [-84.18861, 39.72701]]]}}, {"type": "Feature", "properties": {"area_id": 3191, "city": "Dayton", "state": "OH", "city_survey": true, "cat": "Best", "grade": "A", "label": "A5", "res": true, "com": false, "ind": false, "holc_grade": "A"}, "geometry": {"type": "Polygon", "coordinates": [[[-84.17284, 39.70464], [-84.17444, 39.70482], [-84.17543, 39.70479], [-84.17617, 39.70464], [-84.1767, 39.70441], [-84.17743, 39.7042], [-84.17801, 39.7042], [-84.17867, 39.70405], [-84.17983, 39.70371], [-84.18047, 39.70386], [-84.18121, 39.70437], [-84.181654, 39.704807], [-84.18178, 39.70493], [-84.18174, 39.70542], [-84.1815, 39.70594], [-84.18118, 39.70678], [-84.18128, 39.70759], [-84.18101, 39.70841], [-84.18082, 39.70949], [-84.18101, 39.71074], [-84.18135, 39.71135], [-84.18189, 39.71213], [-84.18077, 39.71249], [-84.179409, 39.712847], [-84.17932, 39.71287], [-84.17679, 39.71338], [-84.17529, 39.71356], [-84.17406, 39.71349], [-84.17307, 39.71335], [-84.17229, 39.71333], [-84.17175, 39.71339], [-84.17119, 39.70969], [-84.171, 39.70782], [-84.1708, 39.70714], [-84.170609, 39.70524], [-84.17053, 39.70445], [-84.17284, 39.70464]]]}}, {"type": "Feature", "properties": {"area_id": 3194, "city": "Dayton", "state": "OH", "city_survey": true, "cat": "Best", "grade": "A", "label": "A6", "res": true, "com": false, "ind": false, "holc_grade": "A"}, "geometry": {"type": "Polygon", "coordinates": [[[-84.16863, 39.68578], [-84.17451, 39.68576], [-84.17965, 39.68572], [-84.18775, 39.68568], [-84.19357, 39.68561], [-84.20418, 39.6855], [-84.21137, 39.68539], [-84.2115, 39.68816], [-84.21137, 39.68937], [-84.21117, 39.69164], [-84.210971, 39.694101], [-84.21097, 39.69412], [-84.21051, 39.69422], [-84.21034, 39.69553], [-84.207406, 39.698148], [-84.20644, 39.69901], [-84.20419, 39.70131], [-84.2024, 39.70295], [-84.20161, 39.70375], [-84.20136, 39.70593], [-84.20142, 39.70698], [-84.201326, 39.707823], [-84.20124, 39.70859], [-84.19947, 39.70857], [-84.197886, 39.708285], [-84.19453, 39.70768], [-84.19313, 39.70736], [-84.19082, 39.70701], [-84.19067, 39.70698], [-84.1869, 39.70614], [-84.183284, 39.70535], [-84.1831, 39.70531], [-84.182287, 39.705076], [-84.18178, 39.70493], [-84.181654, 39.704807], [-84.18121, 39.70437], [-84.18047, 39.70386], [-84.17983, 39.70371], [-84.17867, 39.70405], [-84.17801, 39.7042], [-84.17743, 39.7042], [-84.1767, 39.70441], [-84.17617, 39.70464], [-84.17543, 39.70479], [-84.17444, 39.70482], [-84.17284, 39.70464], [-84.17053, 39.70445], [-84.17024, 39.70258], [-84.17006, 39.70141], [-84.17002, 39.70121], [-84.17001, 39.70119], [-84.170006, 39.701169], [-84.16957, 39.69889], [-84.16925, 39.6967], [-84.169173, 39.696196], [-84.16913, 39.69591], [-84.16903, 39.69537], [-84.16882, 39.69416], [-84.16875, 39.69294], [-84.16874, 39.69279], [-84.16893, 39.69262], [-84.16893, 39.6897], [-84.168889, 39.689588], [-84.16885, 39.68948], [-84.16869, 39.68899], [-84.16863, 39.68578]]]}}, {"type": "Feature", "properties": {"area_id": 3165, "city": "Dayton", "state": "OH", "city_survey": true, "cat": "Best", "grade": "A", "label": "A7", "res": true, "com": false, "ind": false, "holc_grade": "A"}, "geometry": {"type": "MultiPolygon", "coordinates": [[[[-84.22319, 39.78087], [-84.223048, 39.780997], [-84.2223, 39.78167], [-84.22116, 39.78242], [-84.22032, 39.78284], [-84.21964, 39.78299], [-84.21872, 39.78296], [-84.21801, 39.78272], [-84.2173, 39.78226], [-84.2168, 39.78178], [-84.21701, 39.78168], [-84.21764, 39.78141], [-84.21833, 39.78125], [-84.21908, 39.78115], [-84.21907, 39.78012], [-84.21673, 39.78006], [-84.21673, 39.77991], [-84.21674, 39.77962], [-84.2167, 39.77916], [-84.21687, 39.77875], [-84.2171, 39.77861], [-84.21741, 39.77852], [-84.21768, 39.77847], [-84.21787, 39.77833], [-84.21833, 39.7775], [-84.21884, 39.77723], [-84.22018, 39.77865], [-84.220301, 39.778743], [-84.22142, 39.77961], [-84.22302, 39.78062], [-84.223141, 39.780798], [-84.22319, 39.78087]]], [[[-84.22117, 39.7765], [-84.22309, 39.77648], [-84.22313, 39.77205], [-84.22292, 39.77083], [-84.22436, 39.77119], [-84.22534, 39.77144], [-84.22721, 39.7715], [-84.23187, 39.77145], [-84.23294, 39.77147], [-84.233767, 39.771287], [-84.23437, 39.771154], [-84.23439, 39.77115], [-84.23446, 39.77297], [-84.23448, 39.7745], [-84.23457, 39.77625], [-84.24396, 39.77609], [-84.243962, 39.77626], [-84.24403, 39.78144], [-84.24385, 39.78155], [-84.243683, 39.781559], [-84.24213, 39.78164], [-84.24078, 39.78159], [-84.23939, 39.78154], [-84.23843, 39.7815], [-84.23819, 39.78199], [-84.23811, 39.78262], [-84.23818, 39.78481], [-84.23732, 39.78474], [-84.2372, 39.78514], [-84.23695, 39.78628], [-84.2368, 39.78809], [-84.23573, 39.78753], [-84.234933, 39.787321], [-84.23489, 39.78731], [-84.2348, 39.78684], [-84.23413, 39.78652], [-84.23316, 39.786], [-84.2323, 39.78562], [-84.23127, 39.7851], [-84.23051, 39.78473], [-84.22945, 39.78421], [-84.22893, 39.78394], [-84.22713, 39.7827], [-84.2272, 39.7816], [-84.22712, 39.78103], [-84.22543, 39.78119], [-84.22458, 39.78118], [-84.22428, 39.78083], [-84.22399, 39.7806], [-84.22348, 39.78033], [-84.22298, 39.77982], [-84.22302, 39.77914], [-84.22281, 39.7788], [-84.22172, 39.77718], [-84.22102, 39.77659], [-84.221123, 39.776528], [-84.22117, 39.7765]]]]}}, {"type": "Feature", "properties": {"area_id": 3195, "city": "Dayton", "state": "OH", "city_survey": true, "cat": "Still Desirable", "grade": "B", "label": "B1", "res": true, "com": false, "ind": false, "holc_grade": "B"}, "geometry": {"type": "MultiPolygon", "coordinates": [[[[-84.16925, 39.6967], [-84.16855, 39.6968], [-84.16742, 39.69694], [-84.16461, 39.69732], [-84.16284, 39.69767], [-84.16271, 39.69907], [-84.16254, 39.70048], [-84.15344, 39.70022], [-84.153714, 39.696478], [-84.15385, 39.69462], [-84.15685, 39.69474], [-84.16145, 39.6949], [-84.16149, 39.69671], [-84.16233, 39.69662], [-84.16659, 39.69584], [-84.16901, 39.695374], [-84.16903, 39.69537], [-84.16913, 39.69591], [-84.169173, 39.696196], [-84.16925, 39.6967]]], [[[-84.17006, 39.70141], [-84.17024, 39.70258], [-84.170208, 39.702579], [-84.16209, 39.70223], [-84.16245, 39.70084], [-84.170012, 39.70121], [-84.17002, 39.70121], [-84.17006, 39.70141]]], [[[-84.168889, 39.689588], [-84.16893, 39.6897], [-84.16893, 39.69262], [-84.16874, 39.69279], [-84.16875, 39.69294], [-84.168698, 39.692939], [-84.16308, 39.69284], [-84.16322, 39.69266], [-84.16322, 39.6926], [-84.163455, 39.68944], [-84.16346, 39.68937], [-84.168643, 39.689476], [-84.16885, 39.68948], [-84.168889, 39.689588]]]]}}, {"type": "Feature", "properties": {"area_id": 3169, "city": "Dayton", "state": "OH", "city_survey": true, "cat": "Still Desirable", "grade": "B", "label": "B10", "res": true, "com": false, "ind": false, "holc_grade": "B"}, "geometry": {"type": "MultiPolygon", "coordinates": [[[[-84.22302, 39.78062], [-84.22428, 39.78083], [-84.22458, 39.78118], [-84.22543, 39.78119], [-84.22712, 39.78103], [-84.2272, 39.7816], [-84.22713, 39.7827], [-84.22893, 39.78394], [-84.22945, 39.78421], [-84.23051, 39.78473], [-84.23127, 39.7851], [-84.2323, 39.78562], [-84.23316, 39.786], [-84.23413, 39.78652], [-84.2348, 39.78684], [-84.23489, 39.78731], [-84.22762, 39.78749], [-84.22777, 39.79033], [-84.22615, 39.79042], [-84.22613, 39.79119], [-84.2318, 39.79108], [-84.23181, 39.7927], [-84.23265, 39.79271], [-84.23288, 39.79288], [-84.23311, 39.79315], [-84.23318, 39.79436], [-84.23284, 39.79469], [-84.23235, 39.79478], [-84.225848, 39.794899], [-84.22581, 39.7949], [-84.225838, 39.794161], [-84.22588, 39.79304], [-84.225825, 39.79304], [-84.21982, 39.79305], [-84.21992, 39.79362], [-84.21989, 39.79433], [-84.21952, 39.79501], [-84.21908, 39.79579], [-84.21912, 39.79649], [-84.21956, 39.79749], [-84.22005, 39.79847], [-84.22069, 39.79842], [-84.22072, 39.798474], [-84.22094, 39.79887], [-84.2214, 39.79936], [-84.2221, 39.79976], [-84.22218, 39.80176], [-84.22224, 39.80289], [-84.22113, 39.80289], [-84.22043, 39.80281], [-84.22264, 39.80592], [-84.222517, 39.805922], [-84.20978, 39.80609], [-84.20981, 39.80304], [-84.20951, 39.8024], [-84.20889, 39.80184], [-84.20788, 39.80085], [-84.207773, 39.800413], [-84.20722, 39.79816], [-84.20671, 39.79653], [-84.206, 39.79383], [-84.20624, 39.79078], [-84.20616, 39.79005], [-84.20557, 39.7885], [-84.20533, 39.78779], [-84.20513, 39.78627], [-84.20461, 39.78468], [-84.2038, 39.78329], [-84.20335, 39.78249], [-84.203576, 39.782264], [-84.20367, 39.78217], [-84.204159, 39.78203], [-84.20444, 39.78195], [-84.204767, 39.781782], [-84.2049, 39.781714], [-84.2052, 39.78156], [-84.20633, 39.78067], [-84.20759, 39.7816], [-84.20979, 39.78492], [-84.21163, 39.78773], [-84.21219, 39.78753], [-84.210761, 39.785376], [-84.210392, 39.784821], [-84.21, 39.78423], [-84.21054, 39.78396], [-84.20842, 39.78081], [-84.206537, 39.779385], [-84.20521, 39.77838], [-84.20458, 39.77792], [-84.20402, 39.77732], [-84.20321, 39.77695], [-84.20288, 39.7749], [-84.20276, 39.77429], [-84.20524, 39.77464], [-84.21023, 39.77453], [-84.210442, 39.777122], [-84.21052, 39.77807], [-84.2154, 39.77812], [-84.21833, 39.7775], [-84.21787, 39.77833], [-84.21768, 39.77847], [-84.21741, 39.77852], [-84.2171, 39.77861], [-84.21687, 39.77875], [-84.2167, 39.77916], [-84.21674, 39.77962], [-84.21673, 39.77991], [-84.21647, 39.77997], [-84.21646, 39.78168], [-84.21701, 39.78168], [-84.2168, 39.78178], [-84.2173, 39.78226], [-84.21801, 39.78272], [-84.21872, 39.78296], [-84.21964, 39.78299], [-84.22032, 39.78284], [-84.22116, 39.78242], [-84.2223, 39.78167], [-84.223048, 39.780997], [-84.22319, 39.78087], [-84.223141, 39.780798], [-84.22302, 39.78062]]], [[[-84.22589, 39.79839], [-84.225883, 39.79839], [-84.22218, 39.79844], [-84.22213, 39.79672], [-84.22585, 39.79669], [-84.225872, 39.797612], [-84.22589, 39.79839]]], [[[-84.22797, 39.80784], [-84.23048, 39.80796], [-84.23048, 39.80975], [-84.22783, 39.80958], [-84.22783, 39.80907], [-84.225449, 39.81003], [-84.22535, 39.81007], [-84.22303, 39.80688], [-84.223157, 39.806825], [-84.22372, 39.80658], [-84.22605, 39.8065], [-84.22598, 39.80785], [-84.22798, 39.80766], [-84.22797, 39.80784]]], [[[-84.22752, 39.8127], [-84.227607, 39.812817], [-84.22869, 39.81427], [-84.22868, 39.814537], [-84.22866, 39.81504], [-84.22315, 39.81493], [-84.223247, 39.812737], [-84.22325, 39.81267], [-84.227349, 39.812699], [-84.22752, 39.8127]]], [[[-84.243786, 39.785299], [-84.24062, 39.7854], [-84.24066, 39.78729], [-84.24004, 39.78737], [-84.24018, 39.78984], [-84.23949, 39.78948], [-84.2368, 39.78809], [-84.23695, 39.78628], [-84.2372, 39.78514], [-84.23732, 39.78474], [-84.23818, 39.78481], [-84.23811, 39.78262], [-84.23819, 39.78199], [-84.23843, 39.7815], [-84.23939, 39.78154], [-84.24078, 39.78159], [-84.24213, 39.78164], [-84.243683, 39.781559], [-84.24385, 39.78155], [-84.24396, 39.78347], [-84.2444, 39.7835], [-84.24438, 39.78528], [-84.243786, 39.785299]]]]}}, {"type": "Feature", "properties": {"area_id": 3223, "city": "Dayton", "state": "OH", "city_survey": true, "cat": "Still Desirable", "grade": "B", "label": "B11", "res": true, "com": false, "ind": false, "holc_grade": "B"}, "geometry": {"type": "Polygon", "coordinates": [[[-84.20202, 39.80074], [-84.20181, 39.80145], [-84.20047, 39.80259], [-84.19991, 39.80266], [-84.1998, 39.80306], [-84.19867, 39.80348], [-84.19801, 39.80359], [-84.19807, 39.80115], [-84.19831, 39.80011], [-84.19821, 39.79971], [-84.19779, 39.79793], [-84.19784, 39.79644], [-84.19837, 39.79576], [-84.1986, 39.79489], [-84.19884, 39.79419], [-84.19904, 39.79377], [-84.19907, 39.7933], [-84.19937, 39.79146], [-84.19985, 39.79012], [-84.20069, 39.78847], [-84.20094, 39.78842], [-84.20178, 39.79128], [-84.20169, 39.79281], [-84.20213, 39.79341], [-84.20138, 39.7941], [-84.20149, 39.7958], [-84.20145, 39.79858], [-84.20211, 39.79865], [-84.20202, 39.80074]]]}}, {"type": "Feature", "properties": {"area_id": 3200, "city": "Dayton", "state": "OH", "city_survey": true, "cat": "Still Desirable", "grade": "B", "label": "B2", "res": true, "com": false, "ind": false, "holc_grade": "B"}, "geometry": {"type": "Polygon", "coordinates": [[[-84.16171, 39.71143], [-84.16135, 39.71638], [-84.16126, 39.7186], [-84.16114, 39.71924], [-84.161196, 39.719315], [-84.16126, 39.719401], [-84.16172, 39.72002], [-84.1624, 39.7215], [-84.1628, 39.7227], [-84.162993, 39.723477], [-84.16309, 39.72387], [-84.1634, 39.7251], [-84.16359, 39.72663], [-84.163661, 39.726866], [-84.1638, 39.72733], [-84.163874, 39.727749], [-84.16396, 39.72824], [-84.164054, 39.728548], [-84.16434, 39.72948], [-84.16451, 39.72968], [-84.16438, 39.730345], [-84.16415, 39.73152], [-84.163971, 39.732396], [-84.16395, 39.7325], [-84.16312, 39.73251], [-84.16302, 39.73417], [-84.16291, 39.73459], [-84.16261, 39.73482], [-84.161701, 39.735332], [-84.16165, 39.73536], [-84.16098, 39.73473], [-84.1597, 39.73336], [-84.15933, 39.73367], [-84.159, 39.73366], [-84.15868, 39.73331], [-84.15849, 39.73293], [-84.15819, 39.73254], [-84.15689, 39.73094], [-84.1567, 39.73079], [-84.15661, 39.73073], [-84.1563, 39.73031], [-84.15617, 39.72996], [-84.156157, 39.729843], [-84.15611, 39.72944], [-84.15594, 39.72902], [-84.15442, 39.72686], [-84.154249, 39.726614], [-84.15419, 39.72653], [-84.154179, 39.726523], [-84.1537, 39.72623], [-84.1533, 39.72607], [-84.1525, 39.72599], [-84.15132, 39.72596], [-84.15102, 39.72746], [-84.15005, 39.72794], [-84.14364, 39.72762], [-84.14404, 39.72374], [-84.14183, 39.72367], [-84.14188, 39.72316], [-84.14204, 39.72142], [-84.14894, 39.72175], [-84.14874, 39.72396], [-84.15229, 39.72414], [-84.152302, 39.724108], [-84.15271, 39.72305], [-84.1529, 39.72092], [-84.152937, 39.719881], [-84.15296, 39.71924], [-84.153124, 39.717775], [-84.153217, 39.716933], [-84.15322, 39.71691], [-84.155253, 39.717017], [-84.15988, 39.71726], [-84.15891, 39.71618], [-84.15919, 39.71179], [-84.15955, 39.70604], [-84.16182, 39.706116], [-84.16223, 39.70613], [-84.16215, 39.70713], [-84.16192, 39.70955], [-84.16171, 39.71143]]]}}, {"type": "Feature", "properties": {"area_id": 3193, "city": "Dayton", "state": "OH", "city_survey": true, "cat": "Still Desirable", "grade": "B", "label": "B3", "res": true, "com": false, "ind": false, "holc_grade": "B"}, "geometry": {"type": "MultiPolygon", "coordinates": [[[[-84.19889, 39.71976], [-84.19879, 39.72126], [-84.19851, 39.72257], [-84.19844, 39.72416], [-84.19843, 39.7244], [-84.19841, 39.72532], [-84.198127, 39.72527], [-84.19807, 39.72526], [-84.19776, 39.72525], [-84.19759, 39.72542], [-84.19752, 39.72583], [-84.1974, 39.72657], [-84.19722, 39.72694], [-84.19704, 39.7272], [-84.19571, 39.72678], [-84.19465, 39.72756], [-84.19423, 39.72719], [-84.19442, 39.72685], [-84.19418, 39.72627], [-84.19417, 39.72584], [-84.19424, 39.72526], [-84.19411, 39.72517], [-84.19384, 39.72453], [-84.19443, 39.72443], [-84.19517, 39.72418], [-84.19557, 39.72411], [-84.19616, 39.72432], [-84.19619, 39.72378], [-84.19608, 39.72297], [-84.19592, 39.72267], [-84.19456, 39.72128], [-84.19494, 39.72015], [-84.19525, 39.71926], [-84.19535, 39.71846], [-84.1957, 39.7171], [-84.19607, 39.71585], [-84.19588, 39.71568], [-84.19535, 39.71558], [-84.19493, 39.71541], [-84.1949, 39.71505], [-84.19495, 39.71465], [-84.19566, 39.71448], [-84.19637, 39.71442], [-84.19793, 39.71461], [-84.19912, 39.71469], [-84.19873, 39.71585], [-84.1993, 39.7159], [-84.19914, 39.71705], [-84.19909, 39.71801], [-84.199008, 39.718732], [-84.198946, 39.719273], [-84.19889, 39.71976]]], [[[-84.21998, 39.69239], [-84.21944, 39.69273], [-84.21895, 39.69296], [-84.21844, 39.69312], [-84.2179, 39.69332], [-84.21745, 39.69365], [-84.21686, 39.69409], [-84.21635, 39.69462], [-84.214052, 39.696388], [-84.21401, 39.69642], [-84.21138, 39.6946], [-84.211429, 39.694554], [-84.21273, 39.69333], [-84.21545, 39.69097], [-84.22051, 39.6919], [-84.21998, 39.69239]]], [[[-84.2195, 39.68805], [-84.21827, 39.68898], [-84.21745, 39.68963], [-84.2164, 39.69058], [-84.21536, 39.6898], [-84.21376, 39.6896], [-84.21372, 39.68787], [-84.21458, 39.68701], [-84.21756, 39.6872], [-84.21817, 39.68754], [-84.21916, 39.68677], [-84.220741, 39.686843], [-84.22089, 39.68685], [-84.220732, 39.686987], [-84.2195, 39.68805]]]]}}, {"type": "Feature", "properties": {"area_id": 3187, "city": "Dayton", "state": "OH", "city_survey": true, "cat": "Still Desirable", "grade": "B", "label": "B4", "res": true, "com": false, "ind": false, "holc_grade": "B"}, "geometry": {"type": "Polygon", "coordinates": [[[-84.184271, 39.733428], [-84.18532, 39.73505], [-84.18558, 39.73571], [-84.18573, 39.736], [-84.18568, 39.73637], [-84.18588, 39.73675], [-84.18585, 39.73703], [-84.185679, 39.737021], [-84.18387, 39.73693], [-84.18226, 39.73696], [-84.18127, 39.73707], [-84.18028, 39.73348], [-84.17272, 39.73462], [-84.17245, 39.73473], [-84.17219, 39.73456], [-84.17178, 39.7344], [-84.17131, 39.73418], [-84.17078, 39.73393], [-84.171084, 39.733873], [-84.17131, 39.73383], [-84.17154, 39.73372], [-84.17169, 39.7335], [-84.17171, 39.73315], [-84.17938, 39.7319], [-84.1795, 39.73245], [-84.17999, 39.73246], [-84.18319, 39.732021], [-84.18334, 39.732], [-84.18422, 39.73335], [-84.184271, 39.733428]]]}}, {"type": "Feature", "properties": {"area_id": 3204, "city": "Dayton", "state": "OH", "city_survey": true, "cat": "Still Desirable", "grade": "B", "label": "B5", "res": true, "com": false, "ind": false, "holc_grade": "B"}, "geometry": {"type": "MultiPolygon", "coordinates": [[[[-84.146722, 39.766858], [-84.14626, 39.77046], [-84.1458, 39.77044], [-84.13741, 39.77012], [-84.13782, 39.76533], [-84.137803, 39.765329], [-84.13741, 39.765298], [-84.1373, 39.76529], [-84.137144, 39.765316], [-84.13645, 39.76543], [-84.135718, 39.765692], [-84.13564, 39.76572], [-84.13475, 39.76593], [-84.133177, 39.766073], [-84.1331, 39.76608], [-84.13219, 39.76618], [-84.132192, 39.766165], [-84.13232, 39.76529], [-84.13225, 39.76464], [-84.13212, 39.76406], [-84.13182, 39.7637], [-84.13143, 39.76332], [-84.13133, 39.76311], [-84.13544, 39.76343], [-84.13563, 39.76134], [-84.13812, 39.7615], [-84.13801, 39.76243], [-84.138056, 39.762432], [-84.14116, 39.76258], [-84.14263, 39.76265], [-84.1427, 39.76236], [-84.14619, 39.76259], [-84.14726, 39.76267], [-84.147248, 39.762767], [-84.146722, 39.766858]]], [[[-84.159864, 39.739466], [-84.15966, 39.7404], [-84.1602, 39.74043], [-84.16008, 39.7414], [-84.16312, 39.74162], [-84.16433, 39.7417], [-84.16418, 39.74376], [-84.16403, 39.7454], [-84.16395, 39.747118], [-84.16395, 39.74712], [-84.163869, 39.747113], [-84.16288, 39.74703], [-84.162878, 39.747053], [-84.16281, 39.748], [-84.15995, 39.74787], [-84.15969, 39.751], [-84.16311, 39.75121], [-84.16321, 39.75221], [-84.16005, 39.75232], [-84.158932, 39.752288], [-84.15523, 39.75218], [-84.15515, 39.75299], [-84.15148, 39.75307], [-84.15041, 39.7523], [-84.14865, 39.7536], [-84.14843, 39.75359], [-84.146951, 39.753546], [-84.14675, 39.75354], [-84.146743, 39.753461], [-84.14669, 39.75291], [-84.14686, 39.75282], [-84.14684, 39.75261], [-84.14629, 39.7525], [-84.14648, 39.75191], [-84.14661, 39.7511], [-84.14661, 39.75044], [-84.1471, 39.75038], [-84.14729, 39.75021], [-84.14428, 39.74864], [-84.14435, 39.7465], [-84.14914, 39.74666], [-84.14914, 39.74625], [-84.15023, 39.74631], [-84.15026, 39.74566], [-84.15033, 39.7449], [-84.15045, 39.74369], [-84.150735, 39.741289], [-84.15101, 39.738982], [-84.15101, 39.73898], [-84.15147, 39.73899], [-84.15987, 39.73944], [-84.159864, 39.739466]]]]}}, {"type": "Feature", "properties": {"area_id": 3207, "city": "Dayton", "state": "OH", "city_survey": true, "cat": "Still Desirable", "grade": "B", "label": "B6", "res": true, "com": false, "ind": false, "holc_grade": "B"}, "geometry": {"type": "Polygon", "coordinates": [[[-84.15026, 39.75722], [-84.1502, 39.75775], [-84.15013, 39.7582], [-84.145986, 39.757981], [-84.14407, 39.75788], [-84.14086, 39.75767], [-84.14065, 39.76046], [-84.138282, 39.760321], [-84.13826, 39.76032], [-84.13847, 39.75775], [-84.13877, 39.7541], [-84.1388, 39.75396], [-84.139042, 39.752464], [-84.13908, 39.75223], [-84.13911, 39.75205], [-84.13915, 39.75201], [-84.13925, 39.75203], [-84.13977, 39.75218], [-84.146343, 39.754016], [-84.15051, 39.75518], [-84.15026, 39.75722]]]}}, {"type": "Feature", "properties": {"area_id": 3166, "city": "Dayton", "state": "OH", "city_survey": true, "cat": "Still Desirable", "grade": "B", "label": "B7", "res": true, "com": false, "ind": false, "holc_grade": "B"}, "geometry": {"type": "Polygon", "coordinates": [[[-84.23635, 39.76694], [-84.236367, 39.766946], [-84.23658, 39.76702], [-84.23655, 39.76718], [-84.23655, 39.76733], [-84.23662, 39.76749], [-84.23682, 39.76765], [-84.2437, 39.77043], [-84.24396, 39.77609], [-84.23457, 39.77625], [-84.23448, 39.7745], [-84.23446, 39.77297], [-84.23439, 39.77115], [-84.23437, 39.771154], [-84.233767, 39.771287], [-84.23294, 39.77147], [-84.23187, 39.77145], [-84.22721, 39.7715], [-84.22534, 39.77144], [-84.22436, 39.77119], [-84.22292, 39.77083], [-84.22083, 39.77083], [-84.2171, 39.77081], [-84.216635, 39.770823], [-84.215252, 39.770861], [-84.21313, 39.77092], [-84.21153, 39.76905], [-84.21507, 39.76893], [-84.21508, 39.76657], [-84.215139, 39.766569], [-84.22016, 39.76645], [-84.22018, 39.76493], [-84.22646, 39.76488], [-84.22654, 39.76532], [-84.22783, 39.76528], [-84.22798, 39.76629], [-84.22991, 39.7662], [-84.23156, 39.76613], [-84.23412, 39.76705], [-84.23425, 39.76699], [-84.234261, 39.766932], [-84.234273, 39.766871], [-84.23429, 39.76678], [-84.23615, 39.76688], [-84.23635, 39.76694]]]}}, {"type": "Feature", "properties": {"area_id": 3227, "city": "Dayton", "state": "OH", "city_survey": true, "cat": "Still Desirable", "grade": "B", "label": "B8", "res": true, "com": false, "ind": false, "holc_grade": "B"}, "geometry": {"type": "Polygon", "coordinates": [[[-84.214076, 39.771984], [-84.21363, 39.77153], [-84.213424, 39.771279], [-84.21313, 39.77092], [-84.215252, 39.770861], [-84.216635, 39.770823], [-84.2171, 39.77081], [-84.22083, 39.77083], [-84.22292, 39.77083], [-84.22313, 39.77205], [-84.22309, 39.77648], [-84.22117, 39.7765], [-84.221123, 39.776528], [-84.22102, 39.77659], [-84.22172, 39.77718], [-84.22281, 39.7788], [-84.22302, 39.77914], [-84.22298, 39.77982], [-84.22348, 39.78033], [-84.22399, 39.7806], [-84.22428, 39.78083], [-84.22302, 39.78062], [-84.22142, 39.77961], [-84.220301, 39.778743], [-84.22018, 39.77865], [-84.21884, 39.77723], [-84.218239, 39.776529], [-84.21619, 39.77414], [-84.214086, 39.771995], [-84.214076, 39.771984]]]}}, {"type": "Feature", "properties": {"area_id": 3218, "city": "Dayton", "state": "OH", "city_survey": true, "cat": "Still Desirable", "grade": "B", "label": "B9", "res": true, "com": false, "ind": false, "holc_grade": "B"}, "geometry": {"type": "Polygon", "coordinates": [[[-84.19866, 39.76853], [-84.19825, 39.76841], [-84.19841, 39.76609], [-84.19955, 39.766], [-84.20024, 39.76577], [-84.202, 39.76449], [-84.20272, 39.76399], [-84.20347, 39.76331], [-84.20379, 39.76384], [-84.20506, 39.76553], [-84.20536, 39.76593], [-84.20625, 39.76676], [-84.20742, 39.7681], [-84.207882, 39.768775], [-84.20792, 39.76883], [-84.20812, 39.76954], [-84.20833, 39.77234], [-84.20896, 39.7724], [-84.2108, 39.77217], [-84.21199, 39.77198], [-84.21299, 39.77182], [-84.21363, 39.77153], [-84.214076, 39.771984], [-84.214086, 39.771995], [-84.21619, 39.77414], [-84.218239, 39.776529], [-84.21884, 39.77723], [-84.21833, 39.7775], [-84.2154, 39.77812], [-84.21052, 39.77807], [-84.210442, 39.777122], [-84.21023, 39.77453], [-84.20524, 39.77464], [-84.20276, 39.77429], [-84.20241, 39.77253], [-84.20203, 39.7727], [-84.20158, 39.77136], [-84.20117, 39.7691], [-84.201112, 39.768869], [-84.20092, 39.76811], [-84.20016, 39.76825], [-84.19866, 39.76853]]]}}, {"type": "Feature", "properties": {"area_id": 3201, "city": "Dayton", "state": "OH", "city_survey": true, "cat": "Definitely Declining", "grade": "C", "label": "C1", "res": true, "com": false, "ind": false, "holc_grade": "C"}, "geometry": {"type": "MultiPolygon", "coordinates": [[[[-84.12235, 39.77912], [-84.12157, 39.78045], [-84.11841, 39.7804], [-84.116522, 39.78031], [-84.11441, 39.78021], [-84.11453, 39.77968], [-84.11468, 39.77796], [-84.117392, 39.778399], [-84.11981, 39.77879], [-84.12235, 39.77912]]], [[[-84.12066, 39.75687], [-84.12421, 39.75722], [-84.12216, 39.75941], [-84.12047, 39.75928], [-84.12066, 39.75687]]], [[[-84.1373, 39.7278], [-84.13231, 39.72436], [-84.132445, 39.722657], [-84.13245, 39.72259], [-84.132986, 39.715706], [-84.13299, 39.71566], [-84.13532, 39.71577], [-84.135314, 39.715847], [-84.13489, 39.72128], [-84.13587, 39.72134], [-84.135864, 39.72141], [-84.13574, 39.72287], [-84.141845, 39.723158], [-84.14188, 39.72316], [-84.14183, 39.72367], [-84.14404, 39.72374], [-84.14364, 39.72762], [-84.15005, 39.72794], [-84.15102, 39.72746], [-84.15132, 39.72596], [-84.1525, 39.72599], [-84.1533, 39.72607], [-84.1537, 39.72623], [-84.154179, 39.726523], [-84.15419, 39.72653], [-84.154249, 39.726614], [-84.15442, 39.72686], [-84.15594, 39.72902], [-84.15611, 39.72944], [-84.156157, 39.729843], [-84.15617, 39.72996], [-84.1563, 39.73031], [-84.15661, 39.73073], [-84.1567, 39.73079], [-84.15322, 39.73064], [-84.15315, 39.73101], [-84.1509, 39.7308], [-84.15063, 39.73293], [-84.15151, 39.73301], [-84.15115, 39.73587], [-84.1518, 39.73589], [-84.15147, 39.73899], [-84.15101, 39.73898], [-84.15101, 39.738982], [-84.150735, 39.741289], [-84.15045, 39.74369], [-84.15033, 39.7449], [-84.15026, 39.74566], [-84.15023, 39.74631], [-84.14914, 39.74625], [-84.14914, 39.74666], [-84.14435, 39.7465], [-84.14428, 39.74864], [-84.14729, 39.75021], [-84.1471, 39.75038], [-84.14661, 39.75044], [-84.14661, 39.7511], [-84.14648, 39.75191], [-84.14629, 39.7525], [-84.143076, 39.75159], [-84.14198, 39.75128], [-84.14155, 39.75199], [-84.13984, 39.75157], [-84.1392, 39.75141], [-84.139293, 39.749994], [-84.139295, 39.749962], [-84.13941, 39.74821], [-84.13513, 39.74797], [-84.13059, 39.74783], [-84.13075, 39.7459], [-84.1307, 39.74562], [-84.12998, 39.74521], [-84.12824, 39.74509], [-84.12835, 39.74441], [-84.12884, 39.74303], [-84.13007, 39.74032], [-84.130363, 39.739574], [-84.13069, 39.73874], [-84.13078, 39.73875], [-84.13867, 39.73918], [-84.13909, 39.73548], [-84.13966, 39.73567], [-84.140645, 39.735788], [-84.14066, 39.73579], [-84.140796, 39.734241], [-84.14098, 39.73215], [-84.141002, 39.731902], [-84.14112, 39.73058], [-84.141101, 39.730568], [-84.13995, 39.72985], [-84.1373, 39.7278]]], [[[-84.13594, 39.75799], [-84.13352, 39.75788], [-84.1333, 39.76004], [-84.1314, 39.75992], [-84.13156, 39.75808], [-84.13177, 39.75632], [-84.12931, 39.75621], [-84.12965, 39.75262], [-84.13227, 39.75269], [-84.1322, 39.75362], [-84.13679, 39.75389], [-84.1388, 39.75396], [-84.13877, 39.7541], [-84.13847, 39.75775], [-84.13826, 39.76032], [-84.13584, 39.76021], [-84.13594, 39.75799]]], [[[-84.14417, 39.7722], [-84.14376, 39.77246], [-84.14319, 39.77283], [-84.14228, 39.77323], [-84.14144, 39.77392], [-84.14113, 39.77435], [-84.14096, 39.77486], [-84.13971, 39.77472], [-84.13636, 39.7747], [-84.13632, 39.77397], [-84.13649, 39.77324], [-84.13607, 39.77305], [-84.13588, 39.77288], [-84.135804, 39.772636], [-84.13578, 39.77256], [-84.13575, 39.77198], [-84.13589, 39.77152], [-84.13612, 39.77137], [-84.13627, 39.77113], [-84.13639, 39.77054], [-84.13638, 39.77005], [-84.137367, 39.770117], [-84.13741, 39.77012], [-84.1458, 39.77044], [-84.14559, 39.77077], [-84.14523, 39.7713], [-84.14476, 39.77172], [-84.14417, 39.7722]]]]}}, {"type": "Feature", "properties": {"area_id": 3170, "city": "Dayton", "state": "OH", "city_survey": true, "cat": "Definitely Declining", "grade": "C", "label": "C10", "res": true, "com": false, "ind": false, "holc_grade": "C"}, "geometry": {"type": "Polygon", "coordinates": [[[-84.20117, 39.7691], [-84.20158, 39.77136], [-84.20203, 39.7727], [-84.20241, 39.77253], [-84.20276, 39.77429], [-84.20288, 39.7749], [-84.20321, 39.77695], [-84.20402, 39.77732], [-84.20458, 39.77792], [-84.20521, 39.77838], [-84.206537, 39.779385], [-84.20842, 39.78081], [-84.21054, 39.78396], [-84.21, 39.78423], [-84.210392, 39.784821], [-84.210761, 39.785376], [-84.21219, 39.78753], [-84.21163, 39.78773], [-84.20979, 39.78492], [-84.20759, 39.7816], [-84.20633, 39.78067], [-84.2052, 39.78156], [-84.2049, 39.781714], [-84.204767, 39.781782], [-84.20444, 39.78195], [-84.204159, 39.78203], [-84.20367, 39.78217], [-84.203576, 39.782264], [-84.20335, 39.78249], [-84.203302, 39.782374], [-84.20217, 39.77961], [-84.20174, 39.779], [-84.20093, 39.77828], [-84.19992, 39.77755], [-84.19908, 39.77702], [-84.19825, 39.7766], [-84.1972, 39.77599], [-84.19644, 39.77544], [-84.19603, 39.77481], [-84.19587, 39.77451], [-84.19614, 39.77402], [-84.19724, 39.77309], [-84.19744, 39.77303], [-84.19775, 39.77308], [-84.19793, 39.77307], [-84.19992, 39.77158], [-84.20095, 39.77139], [-84.200346, 39.768988], [-84.20016, 39.76825], [-84.20092, 39.76811], [-84.201112, 39.768869], [-84.20117, 39.7691]]]}}, {"type": "Feature", "properties": {"area_id": 3167, "city": "Dayton", "state": "OH", "city_survey": true, "cat": "Definitely Declining", "grade": "C", "label": "C11", "res": true, "com": false, "ind": false, "holc_grade": "C"}, "geometry": {"type": "Polygon", "coordinates": [[[-84.22305, 39.76311], [-84.22433, 39.7632], [-84.22537, 39.76315], [-84.22643, 39.76324], [-84.22858, 39.76426], [-84.22912, 39.76449], [-84.22952, 39.76484], [-84.23065, 39.76525], [-84.23319, 39.76611], [-84.23383, 39.76643], [-84.23429, 39.76678], [-84.234273, 39.766871], [-84.234261, 39.766932], [-84.23425, 39.76699], [-84.23412, 39.76705], [-84.23156, 39.76613], [-84.22991, 39.7662], [-84.22798, 39.76629], [-84.22783, 39.76528], [-84.22654, 39.76532], [-84.22646, 39.76488], [-84.22018, 39.76493], [-84.22016, 39.76645], [-84.215139, 39.766569], [-84.21508, 39.76657], [-84.21507, 39.76893], [-84.21153, 39.76905], [-84.21313, 39.77092], [-84.213424, 39.771279], [-84.21363, 39.77153], [-84.21299, 39.77182], [-84.21199, 39.77198], [-84.2108, 39.77217], [-84.20896, 39.7724], [-84.20833, 39.77234], [-84.20812, 39.76954], [-84.20792, 39.76883], [-84.207882, 39.768775], [-84.20742, 39.7681], [-84.20625, 39.76676], [-84.20536, 39.76593], [-84.20506, 39.76553], [-84.20379, 39.76384], [-84.20347, 39.76331], [-84.20506, 39.76242], [-84.20562, 39.76288], [-84.20605, 39.76344], [-84.207456, 39.764821], [-84.20823, 39.76558], [-84.21508, 39.76552], [-84.21493, 39.76163], [-84.215012, 39.761653], [-84.21771, 39.76242], [-84.21847, 39.76249], [-84.22305, 39.76311]]]}}, {"type": "Feature", "properties": {"area_id": 3178, "city": "Dayton", "state": "OH", "city_survey": true, "cat": "Definitely Declining", "grade": "C", "label": "C12", "res": true, "com": false, "ind": false, "holc_grade": "C"}, "geometry": {"type": "MultiPolygon", "coordinates": [[[[-84.239311, 39.751687], [-84.23978, 39.75196], [-84.23999, 39.75208], [-84.24129, 39.75248], [-84.24343, 39.75313], [-84.24585, 39.75386], [-84.24701, 39.75462], [-84.24778, 39.75531], [-84.24855, 39.75613], [-84.249795, 39.758051], [-84.24995, 39.75829], [-84.25079, 39.75995], [-84.25159, 39.76143], [-84.25229, 39.76141], [-84.25258, 39.7614], [-84.25284, 39.76369], [-84.24863, 39.7638], [-84.24863, 39.7657], [-84.24723, 39.76572], [-84.24602, 39.76582], [-84.24591, 39.76617], [-84.24474, 39.76831], [-84.24302, 39.76786], [-84.23979, 39.76728], [-84.23812, 39.76689], [-84.23642, 39.76636], [-84.23612, 39.76605], [-84.23517, 39.76478], [-84.23494, 39.76431], [-84.23448, 39.76402], [-84.23174, 39.76237], [-84.23126, 39.76185], [-84.231074, 39.76168], [-84.23035, 39.76102], [-84.22971, 39.76081], [-84.22931, 39.76055], [-84.22854, 39.75969], [-84.22742, 39.75888], [-84.22702, 39.75832], [-84.23093, 39.7583], [-84.23089, 39.75609], [-84.23065, 39.75527], [-84.23166, 39.75506], [-84.23135, 39.75418], [-84.231787, 39.754101], [-84.23357, 39.75378], [-84.23336, 39.75317], [-84.23408, 39.75305], [-84.234099, 39.752547], [-84.2341, 39.75253], [-84.2389, 39.75175], [-84.2393, 39.75168], [-84.239311, 39.751687]]], [[[-84.262312, 39.747881], [-84.26238, 39.7547], [-84.265997, 39.754754], [-84.2664, 39.75476], [-84.26641, 39.75809], [-84.26369, 39.75804], [-84.26293, 39.75815], [-84.26162, 39.75815], [-84.26165, 39.75954], [-84.25866, 39.75952], [-84.25869, 39.75816], [-84.25704, 39.75815], [-84.25568, 39.7583], [-84.25427, 39.75828], [-84.25327, 39.758345], [-84.2532, 39.75835], [-84.2532, 39.75798], [-84.25088, 39.75807], [-84.250842, 39.758007], [-84.24951, 39.75581], [-84.24887, 39.75489], [-84.24796, 39.75409], [-84.24741, 39.75403], [-84.24697, 39.75387], [-84.24553, 39.75326], [-84.24405, 39.75274], [-84.24256, 39.75227], [-84.24075, 39.75173], [-84.240134, 39.751551], [-84.24013, 39.75155], [-84.24102, 39.7514], [-84.253, 39.7494], [-84.25368, 39.74929], [-84.25368, 39.749297], [-84.25382, 39.75257], [-84.25569, 39.75171], [-84.25676, 39.7511], [-84.25855, 39.75097], [-84.25851, 39.74852], [-84.258988, 39.748419], [-84.26231, 39.74772], [-84.262312, 39.747881]], [[-84.25309, 39.75228], [-84.24924, 39.75214], [-84.24927, 39.75456], [-84.25316, 39.75456], [-84.25309, 39.75228]]]]}}, {"type": "Feature", "properties": {"area_id": 3181, "city": "Dayton", "state": "OH", "city_survey": true, "cat": "Definitely Declining", "grade": "C", "label": "C13", "res": true, "com": false, "ind": false, "holc_grade": "C"}, "geometry": {"type": "Polygon", "coordinates": [[[-84.20928, 39.7358], [-84.20921, 39.73748], [-84.21013, 39.7376], [-84.21085, 39.73752], [-84.21089, 39.73691], [-84.21224, 39.73698], [-84.21231, 39.73638], [-84.21234, 39.73468], [-84.21224, 39.73381], [-84.21563, 39.73376], [-84.21552, 39.73539], [-84.21558, 39.73671], [-84.21828, 39.73657], [-84.21828, 39.73713], [-84.21818, 39.73739], [-84.21735, 39.73802], [-84.21657, 39.73881], [-84.21563, 39.73971], [-84.213, 39.73972], [-84.21309, 39.74173], [-84.20914, 39.74177], [-84.20765, 39.74178], [-84.2028, 39.74183], [-84.20394, 39.7402], [-84.20685, 39.73585], [-84.2068, 39.73579], [-84.20928, 39.7358]]]}}, {"type": "Feature", "properties": {"area_id": 3163, "city": "Dayton", "state": "OH", "city_survey": true, "cat": "Definitely Declining", "grade": "C", "label": "C14", "res": true, "com": false, "ind": false, "holc_grade": "C"}, "geometry": {"type": "MultiPolygon", "coordinates": [[[[-84.13874, 39.79746], [-84.13806, 39.80296], [-84.14363, 39.8031], [-84.14242, 39.80446], [-84.14136, 39.80555], [-84.13526, 39.81142], [-84.13328, 39.81122], [-84.13381, 39.80632], [-84.13721, 39.80655], [-84.13756, 39.80315], [-84.13475, 39.80305], [-84.1353, 39.79732], [-84.13874, 39.79746]]], [[[-84.14824, 39.797274], [-84.14823, 39.79738], [-84.13881, 39.79685], [-84.13582, 39.79395], [-84.13604, 39.79385], [-84.13822, 39.79267], [-84.144242, 39.789122], [-84.14523, 39.78854], [-84.1452, 39.79012], [-84.14756, 39.79016], [-84.14721, 39.79416], [-84.14853, 39.79419], [-84.14824, 39.797274]]], [[[-84.15065, 39.79942], [-84.150622, 39.799591], [-84.15046, 39.80056], [-84.14661, 39.80027], [-84.147464, 39.799391], [-84.14765, 39.7992], [-84.15065, 39.79942]]], [[[-84.1564, 39.79983], [-84.156286, 39.799934], [-84.15472, 39.80136], [-84.15307, 39.80123], [-84.15321, 39.8003], [-84.153265, 39.799754], [-84.15327, 39.7997], [-84.1564, 39.79983]]], [[[-84.15543, 39.79317], [-84.16334, 39.79363], [-84.16192, 39.79498], [-84.15452, 39.79452], [-84.15543, 39.79317]]], [[[-84.19496, 39.80267], [-84.19611, 39.80556], [-84.196197, 39.806162], [-84.19624, 39.80646], [-84.196281, 39.80646], [-84.19922, 39.80647], [-84.19939, 39.80731], [-84.196535, 39.807369], [-84.19647, 39.80737], [-84.19742, 39.81101], [-84.188974, 39.811225], [-84.18877, 39.81123], [-84.18862, 39.81315], [-84.17941, 39.81325], [-84.1793, 39.80639], [-84.188854, 39.806246], [-84.19326, 39.80618], [-84.19362, 39.80373], [-84.189608, 39.803783], [-84.189092, 39.80379], [-84.18754, 39.80381], [-84.187544, 39.803697], [-84.18761, 39.80201], [-84.19169, 39.80189], [-84.19178, 39.80264], [-84.194949, 39.80267], [-84.19496, 39.80267]]], [[[-84.20614, 39.80533], [-84.20626, 39.80466], [-84.20646, 39.80388], [-84.2067, 39.80288], [-84.20702, 39.80167], [-84.2073, 39.80135], [-84.20788, 39.80085], [-84.20889, 39.80184], [-84.20951, 39.8024], [-84.20981, 39.80304], [-84.20978, 39.80609], [-84.20622, 39.8061], [-84.20614, 39.80533]]], [[[-84.24308, 39.78981], [-84.24308, 39.79015], [-84.24296, 39.79042], [-84.242905, 39.790481], [-84.24278, 39.79062], [-84.24261, 39.79067], [-84.242201, 39.790717], [-84.241848, 39.790757], [-84.241607, 39.790784], [-84.24147, 39.7908], [-84.24003, 39.79081], [-84.23837, 39.79081], [-84.23497, 39.79082], [-84.23489, 39.78731], [-84.234933, 39.787321], [-84.23573, 39.78753], [-84.2368, 39.78809], [-84.23949, 39.78948], [-84.24018, 39.78984], [-84.24004, 39.78737], [-84.24066, 39.78729], [-84.24062, 39.7854], [-84.243786, 39.785299], [-84.24438, 39.78528], [-84.24439, 39.78882], [-84.24413, 39.78897], [-84.2441, 39.78917], [-84.24308, 39.78981]]], [[[-84.2654, 39.78415], [-84.26755, 39.78405], [-84.2677, 39.78433], [-84.26833, 39.78483], [-84.26903, 39.78534], [-84.26941, 39.78578], [-84.26953, 39.7863], [-84.26757, 39.78655], [-84.26384, 39.78646], [-84.26241, 39.78658], [-84.26243, 39.789], [-84.262487, 39.790523], [-84.26249, 39.79061], [-84.25388, 39.79061], [-84.25388, 39.790602], [-84.25388, 39.78415], [-84.25907, 39.78411], [-84.25909, 39.78144], [-84.26532, 39.78135], [-84.2654, 39.78415]]], [[[-84.26523, 39.80521], [-84.26851, 39.80519], [-84.26865, 39.80767], [-84.26557, 39.80771], [-84.26558, 39.81019], [-84.2654, 39.81058], [-84.26342, 39.80946], [-84.25589, 39.80456], [-84.25536, 39.80394], [-84.255139, 39.803552], [-84.25487, 39.80308], [-84.26148, 39.80302], [-84.26149, 39.80251], [-84.26504, 39.80247], [-84.265105, 39.803402], [-84.26523, 39.80521]]]]}}, {"type": "Feature", "properties": {"area_id": 3197, "city": "Dayton", "state": "OH", "city_survey": true, "cat": "Definitely Declining", "grade": "C", "label": "C15", "res": true, "com": false, "ind": false, "holc_grade": "C"}, "geometry": {"type": "Polygon", "coordinates": [[[-84.14908, 39.69635], [-84.149078, 39.696373], [-84.14868, 39.70146], [-84.148484, 39.701452], [-84.14631, 39.70136], [-84.14617, 39.70085], [-84.14618, 39.70018], [-84.1435, 39.70002], [-84.14354, 39.69944], [-84.14364, 39.69777], [-84.143893, 39.696174], [-84.1439, 39.69613], [-84.14908, 39.69635]]]}}, {"type": "Feature", "properties": {"area_id": 3202, "city": "Dayton", "state": "OH", "city_survey": true, "cat": "Definitely Declining", "grade": "C", "label": "C2", "res": true, "com": false, "ind": false, "holc_grade": "C"}, "geometry": {"type": "Polygon", "coordinates": [[[-84.132445, 39.722657], [-84.13231, 39.72436], [-84.1373, 39.7278], [-84.13995, 39.72985], [-84.141101, 39.730568], [-84.14112, 39.73058], [-84.141002, 39.731902], [-84.14098, 39.73215], [-84.13556, 39.73181], [-84.13151, 39.73165], [-84.13174, 39.72835], [-84.12446, 39.72794], [-84.124465, 39.727875], [-84.12483, 39.7228], [-84.130398, 39.723169], [-84.13042, 39.72317], [-84.130479, 39.722776], [-84.13052, 39.7225], [-84.13245, 39.72259], [-84.132445, 39.722657]]]}}, {"type": "Feature", "properties": {"area_id": 3205, "city": "Dayton", "state": "OH", "city_survey": true, "cat": "Definitely Declining", "grade": "C", "label": "C3", "res": true, "com": false, "ind": false, "holc_grade": "C"}, "geometry": {"type": "Polygon", "coordinates": [[[-84.15041, 39.7523], [-84.15148, 39.75307], [-84.15515, 39.75299], [-84.15523, 39.75218], [-84.158932, 39.752288], [-84.16005, 39.75232], [-84.16321, 39.75221], [-84.16325, 39.75266], [-84.163072, 39.755002], [-84.16307, 39.75503], [-84.16276, 39.75779], [-84.15924, 39.75687], [-84.157, 39.75625], [-84.155129, 39.755801], [-84.15504, 39.75578], [-84.153093, 39.754281], [-84.15169, 39.7532], [-84.150241, 39.754225], [-84.14988, 39.75448], [-84.14842, 39.75421], [-84.148424, 39.753951], [-84.14843, 39.75359], [-84.14865, 39.7536], [-84.15041, 39.7523]]]}}, {"type": "Feature", "properties": {"area_id": 3186, "city": "Dayton", "state": "OH", "city_survey": true, "cat": "Definitely Declining", "grade": "C", "label": "C4", "res": true, "com": false, "ind": false, "holc_grade": "C"}, "geometry": {"type": "MultiPolygon", "coordinates": [[[[-84.14407, 39.75788], [-84.145986, 39.757981], [-84.15013, 39.7582], [-84.1502, 39.75775], [-84.156471, 39.758149], [-84.15791, 39.75824], [-84.15792, 39.75803], [-84.15809, 39.75796], [-84.15922, 39.75882], [-84.16652, 39.75954], [-84.16827, 39.76508], [-84.16775, 39.76506], [-84.16816, 39.76634], [-84.16681, 39.76657], [-84.16166, 39.76746], [-84.1613, 39.76621], [-84.16248, 39.76562], [-84.16573, 39.76403], [-84.16595, 39.76382], [-84.16375, 39.76412], [-84.16258, 39.76444], [-84.16261, 39.7649], [-84.16151, 39.76528], [-84.16021, 39.76577], [-84.15929, 39.76616], [-84.15797, 39.76694], [-84.157745, 39.767046], [-84.15646, 39.76765], [-84.15455, 39.76876], [-84.15371, 39.76919], [-84.15295, 39.76923], [-84.1521, 39.76935], [-84.15166, 39.76945], [-84.15157, 39.76948], [-84.15095, 39.76948], [-84.15043, 39.76955], [-84.15, 39.76961], [-84.14881, 39.76964], [-84.14758, 39.76974], [-84.14697, 39.77006], [-84.14648, 39.77045], [-84.14626, 39.77046], [-84.146722, 39.766858], [-84.147248, 39.762767], [-84.14726, 39.76267], [-84.14619, 39.76259], [-84.14636, 39.76082], [-84.1439, 39.76065], [-84.14407, 39.75788]]], [[[-84.17272, 39.73462], [-84.18028, 39.73348], [-84.18127, 39.73707], [-84.18226, 39.73696], [-84.18387, 39.73693], [-84.185679, 39.737021], [-84.18585, 39.73703], [-84.18634, 39.7393], [-84.18741, 39.74257], [-84.18752, 39.74301], [-84.18771, 39.7438], [-84.18833, 39.74626], [-84.18342, 39.74701], [-84.18356, 39.74842], [-84.18265, 39.75008], [-84.18246, 39.75029], [-84.17912, 39.75233], [-84.17814, 39.75304], [-84.17722, 39.75208], [-84.17521, 39.75042], [-84.17379, 39.74888], [-84.172289, 39.747552], [-84.17179, 39.74711], [-84.17021, 39.7456], [-84.16866, 39.74407], [-84.167319, 39.742826], [-84.16701, 39.74254], [-84.16373, 39.74019], [-84.16286, 39.73948], [-84.162879, 39.738599], [-84.16288, 39.73855], [-84.16442, 39.7386], [-84.16545, 39.73867], [-84.1659, 39.73873], [-84.166537, 39.738703], [-84.16661, 39.7387], [-84.166628, 39.738409], [-84.16669, 39.73737], [-84.16917, 39.73741], [-84.16902, 39.73936], [-84.169, 39.73996], [-84.168913, 39.739984], [-84.16871, 39.74004], [-84.16871, 39.74195], [-84.17098, 39.74204], [-84.17091, 39.74411], [-84.17188, 39.74511], [-84.17102, 39.74566], [-84.17152, 39.74607], [-84.1721, 39.74656], [-84.17263, 39.74701], [-84.17313, 39.74672], [-84.17359, 39.74647], [-84.17406, 39.74644], [-84.1741, 39.74584], [-84.17603, 39.74576], [-84.17635, 39.7462], [-84.17799, 39.7457], [-84.17801, 39.74525], [-84.1776, 39.74523], [-84.17768, 39.74435], [-84.17852, 39.74429], [-84.17852, 39.74387], [-84.17918, 39.74391], [-84.17932, 39.74247], [-84.18032, 39.74254], [-84.18045, 39.74154], [-84.17775, 39.74139], [-84.177752, 39.741265], [-84.17777, 39.74032], [-84.18015, 39.74045], [-84.179881, 39.739393], [-84.179772, 39.73897], [-84.17952, 39.73798], [-84.17946, 39.73729], [-84.17872, 39.73735], [-84.17785, 39.73734], [-84.1773, 39.73728], [-84.176318, 39.73715], [-84.17609, 39.73712], [-84.175427, 39.736884], [-84.17533, 39.73685], [-84.175139, 39.73672], [-84.17486, 39.73653], [-84.174422, 39.736389], [-84.17427, 39.73634], [-84.17343, 39.73589], [-84.17311, 39.73559], [-84.173049, 39.735533], [-84.173012, 39.735498], [-84.17295, 39.73544], [-84.17292, 39.73535], [-84.17245, 39.73473], [-84.17272, 39.73462]]]]}}, {"type": "Feature", "properties": {"area_id": 3185, "city": "Dayton", "state": "OH", "city_survey": true, "cat": "Definitely Declining", "grade": "C", "label": "C5", "res": true, "com": false, "ind": false, "holc_grade": "C"}, "geometry": {"type": "Polygon", "coordinates": [[[-84.16373, 39.74019], [-84.16701, 39.74254], [-84.167319, 39.742826], [-84.16866, 39.74407], [-84.17021, 39.7456], [-84.17179, 39.74711], [-84.172289, 39.747552], [-84.17379, 39.74888], [-84.17521, 39.75042], [-84.17722, 39.75208], [-84.17814, 39.75304], [-84.178692, 39.753662], [-84.17877, 39.75375], [-84.176651, 39.756159], [-84.17665, 39.75616], [-84.17579, 39.75801], [-84.1757, 39.75835], [-84.1739, 39.75868], [-84.17392, 39.75881], [-84.17442, 39.76137], [-84.17457, 39.7621], [-84.17363, 39.7615], [-84.17305, 39.76147], [-84.17123, 39.76086], [-84.16972, 39.76042], [-84.16857, 39.76009], [-84.16669, 39.75947], [-84.16647, 39.7594], [-84.16447, 39.75845], [-84.16276, 39.75779], [-84.16307, 39.75503], [-84.163072, 39.755002], [-84.16325, 39.75266], [-84.16321, 39.75221], [-84.16311, 39.75121], [-84.1631, 39.75108], [-84.16298, 39.74961], [-84.16274, 39.74905], [-84.16281, 39.748], [-84.162878, 39.747053], [-84.16288, 39.74703], [-84.163869, 39.747113], [-84.16395, 39.74712], [-84.16395, 39.747118], [-84.16403, 39.7454], [-84.16418, 39.74376], [-84.16433, 39.7417], [-84.16312, 39.74162], [-84.16315, 39.74094], [-84.1628, 39.74073], [-84.1628, 39.74036], [-84.16259, 39.74034], [-84.162629, 39.739612], [-84.16263, 39.73959], [-84.162844, 39.739488], [-84.16286, 39.73948], [-84.16373, 39.74019]]]}}, {"type": "Feature", "properties": {"area_id": 3184, "city": "Dayton", "state": "OH", "city_survey": true, "cat": "Definitely Declining", "grade": "C", "label": "C6", "res": true, "com": false, "ind": false, "holc_grade": "C"}, "geometry": {"type": "Polygon", "coordinates": [[[-84.16652, 39.75954], [-84.16647, 39.7594], [-84.16669, 39.75947], [-84.16857, 39.76009], [-84.16972, 39.76042], [-84.17123, 39.76086], [-84.17305, 39.76147], [-84.17363, 39.7615], [-84.17457, 39.7621], [-84.17472, 39.7622], [-84.17304, 39.76261], [-84.17344, 39.76396], [-84.17304, 39.76416], [-84.16843, 39.76497], [-84.16831, 39.76519], [-84.16827, 39.76508], [-84.16652, 39.75954]]]}}, {"type": "Feature", "properties": {"area_id": 3196, "city": "Dayton", "state": "OH", "city_survey": true, "cat": "Definitely Declining", "grade": "C", "label": "C7", "res": true, "com": false, "ind": false, "holc_grade": "C"}, "geometry": {"type": "Polygon", "coordinates": [[[-84.20124, 39.70859], [-84.20119, 39.708726], [-84.19995, 39.71212], [-84.19454, 39.71189], [-84.1945, 39.71149], [-84.19112, 39.71127], [-84.19134, 39.71085], [-84.19132, 39.71037], [-84.19119, 39.70996], [-84.19102, 39.70967], [-84.19071, 39.70933], [-84.19065, 39.70897], [-84.19074, 39.70801], [-84.19079, 39.70745], [-84.19082, 39.70701], [-84.19313, 39.70736], [-84.19453, 39.70768], [-84.197886, 39.708285], [-84.19947, 39.70857], [-84.20124, 39.70859]]]}}, {"type": "Feature", "properties": {"area_id": 3213, "city": "Dayton", "state": "OH", "city_survey": true, "cat": "Definitely Declining", "grade": "C", "label": "C8", "res": true, "com": false, "ind": false, "holc_grade": "C"}, "geometry": {"type": "Polygon", "coordinates": [[[-84.16234, 39.70485], [-84.162338, 39.704869], [-84.16223, 39.70613], [-84.16182, 39.706116], [-84.15955, 39.70604], [-84.15919, 39.71179], [-84.15536, 39.71164], [-84.15477, 39.71186], [-84.154635, 39.711939], [-84.15441, 39.71207], [-84.15278, 39.71034], [-84.15215, 39.70959], [-84.15108, 39.70873], [-84.1499, 39.70744], [-84.14979, 39.70652], [-84.14996, 39.70531], [-84.149979, 39.703845], [-84.14998, 39.70374], [-84.16244, 39.70387], [-84.16234, 39.70485]]]}}, {"type": "Feature", "properties": {"area_id": 3212, "city": "Dayton", "state": "OH", "city_survey": true, "cat": "Definitely Declining", "grade": "C", "label": "C9", "res": true, "com": false, "ind": false, "holc_grade": "C"}, "geometry": {"type": "Polygon", "coordinates": [[[-84.17401, 39.78268], [-84.17135, 39.78262], [-84.16994, 39.78254], [-84.16767, 39.7824], [-84.16673, 39.78232], [-84.16546, 39.78222], [-84.16538, 39.78172], [-84.1647, 39.78168], [-84.16415, 39.78165], [-84.16294, 39.78116], [-84.16192, 39.78079], [-84.16161, 39.78062], [-84.16213, 39.78027], [-84.16188, 39.77922], [-84.16421, 39.77846], [-84.16479, 39.77815], [-84.16483, 39.7777], [-84.16571, 39.77692], [-84.16613, 39.77696], [-84.16723, 39.77769], [-84.16743, 39.77782], [-84.16794, 39.77792], [-84.16829, 39.77796], [-84.16909, 39.77807], [-84.17053, 39.77812], [-84.17428, 39.77826], [-84.1743, 39.77863], [-84.17725, 39.77874], [-84.17715, 39.78027], [-84.177803, 39.780309], [-84.18256, 39.78059], [-84.18238, 39.78296], [-84.17937, 39.78278], [-84.177542, 39.782666], [-84.17408, 39.78245], [-84.17401, 39.78268]]]}}, {"type": "Feature", "properties": {"area_id": 3224, "city": "Dayton", "state": "OH", "city_survey": true, "cat": "Hazardous", "grade": "D", "label": "D1", "res": true, "com": false, "ind": false, "holc_grade": "D"}, "geometry": {"type": "MultiPolygon", "coordinates": [[[[-84.14402, 39.69446], [-84.143959, 39.694457], [-84.14156, 39.69434], [-84.13898, 39.69403], [-84.138296, 39.694477], [-84.1382, 39.69454], [-84.13178, 39.68899], [-84.132013, 39.688901], [-84.13238, 39.68876], [-84.13426, 39.68804], [-84.144402, 39.688526], [-84.14449, 39.68853], [-84.144486, 39.68872], [-84.14444, 39.69074], [-84.14402, 39.69446]]], [[[-84.147158, 39.70384], [-84.1474, 39.70453], [-84.14807, 39.70589], [-84.14889, 39.70701], [-84.14942, 39.70761], [-84.14942, 39.70989], [-84.14915, 39.71268], [-84.142865, 39.712342], [-84.14282, 39.71234], [-84.143097, 39.709092], [-84.1431, 39.70906], [-84.14309, 39.709019], [-84.142806, 39.707827], [-84.142031, 39.704577], [-84.14185, 39.70382], [-84.141842, 39.703744], [-84.14183, 39.70362], [-84.13389, 39.70322], [-84.13416, 39.70078], [-84.13456, 39.69937], [-84.13908, 39.69959], [-84.141463, 39.699845], [-84.14151, 39.69985], [-84.14198, 39.70366], [-84.14712, 39.70373], [-84.147158, 39.70384]]]]}}, {"type": "Feature", "properties": {"area_id": 3179, "city": "Dayton", "state": "OH", "city_survey": true, "cat": "Hazardous", "grade": "D", "label": "D10", "res": true, "com": false, "ind": false, "holc_grade": "D"}, "geometry": {"type": "MultiPolygon", "coordinates": [[[[-84.21736, 39.75879], [-84.21855, 39.75859], [-84.21948, 39.75985], [-84.21713, 39.76016], [-84.21637, 39.76013], [-84.21484, 39.75991], [-84.21323, 39.75971], [-84.21142, 39.75938], [-84.21144, 39.75927], [-84.21204, 39.75627], [-84.21549, 39.75569], [-84.21557, 39.75596], [-84.21653, 39.75662], [-84.21736, 39.75879]]], [[[-84.23408, 39.75305], [-84.23336, 39.75317], [-84.23357, 39.75378], [-84.231787, 39.754101], [-84.23135, 39.75418], [-84.23166, 39.75506], [-84.23065, 39.75527], [-84.23089, 39.75609], [-84.23093, 39.7583], [-84.22702, 39.75832], [-84.22385, 39.75839], [-84.22373, 39.75782], [-84.22276, 39.75795], [-84.22278, 39.75753], [-84.21891, 39.75814], [-84.21858, 39.75717], [-84.21784, 39.75722], [-84.21765, 39.75649], [-84.21676, 39.75547], [-84.231642, 39.752947], [-84.2341, 39.75253], [-84.234099, 39.752547], [-84.23408, 39.75305]]]]}}, {"type": "Feature", "properties": {"area_id": 3180, "city": "Dayton", "state": "OH", "city_survey": true, "cat": "Hazardous", "grade": "D", "label": "D11", "res": true, "com": false, "ind": false, "holc_grade": "D"}, "geometry": {"type": "MultiPolygon", "coordinates": [[[[-84.19815, 39.74324], [-84.19901, 39.74324], [-84.19934, 39.74281], [-84.19973, 39.7423], [-84.19821, 39.74233], [-84.19812, 39.74136], [-84.19478, 39.74136], [-84.19481, 39.74066], [-84.19504, 39.73931], [-84.1951, 39.73895], [-84.1969, 39.73904], [-84.20337, 39.73905], [-84.20477, 39.73737], [-84.20555, 39.73653], [-84.20604, 39.73574], [-84.2068, 39.73579], [-84.20685, 39.73585], [-84.20394, 39.7402], [-84.2028, 39.74183], [-84.20765, 39.74178], [-84.20764, 39.74239], [-84.20756, 39.7433], [-84.20737, 39.74397], [-84.20741, 39.74415], [-84.20695, 39.74415], [-84.20694, 39.74431], [-84.20698, 39.7457], [-84.20696, 39.74728], [-84.206896, 39.74767], [-84.20685, 39.74795], [-84.20587, 39.74792], [-84.20584, 39.74964], [-84.2034, 39.74968], [-84.20335, 39.75167], [-84.20135, 39.75239], [-84.20073, 39.75174], [-84.19968, 39.75047], [-84.19917, 39.75024], [-84.198767, 39.749761], [-84.19811, 39.74898], [-84.19746, 39.74796], [-84.19902, 39.74789], [-84.19883, 39.74428], [-84.19819, 39.74423], [-84.19815, 39.74324]]], [[[-84.19874, 39.73547], [-84.19867, 39.73833], [-84.19521, 39.73835], [-84.19531, 39.73773], [-84.19689, 39.73574], [-84.19853, 39.73413], [-84.20003, 39.73323], [-84.20172, 39.73241], [-84.20512, 39.73228], [-84.20525, 39.73408], [-84.20248, 39.7342], [-84.20249, 39.73534], [-84.19874, 39.73547]]], [[[-84.20544, 39.75587], [-84.20486, 39.75571], [-84.20461, 39.75497], [-84.20443, 39.7548], [-84.20408, 39.75482], [-84.20391, 39.7543], [-84.20325, 39.75431], [-84.20278, 39.75383], [-84.20206, 39.75282], [-84.20172, 39.75264], [-84.20371, 39.7519], [-84.2061, 39.75121], [-84.20653, 39.75122], [-84.20731, 39.75141], [-84.20806, 39.75143], [-84.20905, 39.75141], [-84.20985, 39.7516], [-84.21073, 39.75185], [-84.21171, 39.75231], [-84.21281, 39.75299], [-84.21387, 39.75387], [-84.21448, 39.75442], [-84.21507, 39.75503], [-84.21549, 39.75569], [-84.21204, 39.75627], [-84.21144, 39.75927], [-84.20808, 39.75848], [-84.20695, 39.75809], [-84.20582, 39.75712], [-84.20544, 39.75587]]], [[[-84.22871, 39.74842], [-84.23062, 39.74912], [-84.230711, 39.749132], [-84.23124, 39.749201], [-84.23162, 39.74925], [-84.231612, 39.749477], [-84.23158, 39.75033], [-84.231604, 39.750332], [-84.23185, 39.75035], [-84.23312, 39.75006], [-84.23392, 39.74997], [-84.23467, 39.75012], [-84.2357, 39.75058], [-84.23791, 39.75127], [-84.2389, 39.75175], [-84.2341, 39.75253], [-84.231642, 39.752947], [-84.21676, 39.75547], [-84.21597, 39.75478], [-84.21436, 39.75311], [-84.21371, 39.75272], [-84.21222, 39.7518], [-84.21082, 39.75117], [-84.20961, 39.7509], [-84.20811, 39.75075], [-84.20805, 39.74878], [-84.20838, 39.74856], [-84.20865, 39.74808], [-84.2092, 39.74748], [-84.209282, 39.747409], [-84.21039, 39.74644], [-84.2113, 39.74602], [-84.21488, 39.74596], [-84.21488, 39.74639], [-84.21757, 39.7463], [-84.21752, 39.74336], [-84.21604, 39.74341], [-84.21571, 39.74346], [-84.2157, 39.74367], [-84.21476, 39.74375], [-84.21469, 39.74528], [-84.2137, 39.74526], [-84.21364, 39.74273], [-84.21466, 39.74272], [-84.21468, 39.74229], [-84.21568, 39.74226], [-84.21564, 39.74073], [-84.21615, 39.74023], [-84.21896, 39.73746], [-84.22009, 39.73652], [-84.22012, 39.73692], [-84.222016, 39.73691], [-84.2221, 39.73691], [-84.22209, 39.73765], [-84.22463, 39.73763], [-84.22471, 39.74013], [-84.22228, 39.74021], [-84.22231, 39.74488], [-84.22228, 39.74516], [-84.222213, 39.74518], [-84.22185, 39.74529], [-84.22107, 39.74561], [-84.220631, 39.745877], [-84.22036, 39.746041], [-84.22023, 39.74612], [-84.22036, 39.746123], [-84.22683, 39.74629], [-84.22673, 39.74796], [-84.22763, 39.74811], [-84.22818, 39.74833], [-84.22871, 39.74842]]], [[[-84.21143, 39.74409], [-84.20863, 39.7441], [-84.20846, 39.74408], [-84.20892, 39.74297], [-84.20898, 39.7427], [-84.20906, 39.74222], [-84.20914, 39.74177], [-84.21309, 39.74173], [-84.21353, 39.74173], [-84.21293, 39.74244], [-84.21256, 39.74293], [-84.21196, 39.74362], [-84.21143, 39.74409]]], [[[-84.24636, 39.736366], [-84.24643, 39.73645], [-84.25, 39.73511], [-84.25278, 39.73414], [-84.25272, 39.73446], [-84.25274, 39.73516], [-84.25284, 39.73677], [-84.25295, 39.73748], [-84.25298, 39.74018], [-84.2525, 39.74032], [-84.25131, 39.73998], [-84.25014, 39.7407], [-84.24978, 39.74039], [-84.24921, 39.74028], [-84.24678, 39.74027], [-84.24677, 39.73941], [-84.24656, 39.73817], [-84.24627, 39.73654], [-84.24279, 39.73786], [-84.24276, 39.73944], [-84.24575, 39.73938], [-84.24563, 39.74143], [-84.24571, 39.74313], [-84.24299, 39.74316], [-84.24295, 39.74465], [-84.24267, 39.74501], [-84.24247, 39.74539], [-84.2441, 39.74482], [-84.24658, 39.74406], [-84.24765, 39.74363], [-84.248385, 39.743562], [-84.24916, 39.74349], [-84.25018, 39.74306], [-84.25173, 39.7433], [-84.25298, 39.74313], [-84.253, 39.7494], [-84.24102, 39.7514], [-84.24013, 39.75155], [-84.23995, 39.75157], [-84.23995, 39.74897], [-84.2437, 39.74896], [-84.24377, 39.74774], [-84.24463, 39.74746], [-84.24568, 39.74702], [-84.24668, 39.74661], [-84.241868, 39.746566], [-84.24005, 39.74655], [-84.240019, 39.747461], [-84.23999, 39.7483], [-84.23665, 39.74885], [-84.23665, 39.74938], [-84.23488, 39.74978], [-84.23501, 39.74858], [-84.23269, 39.74894], [-84.232638, 39.748716], [-84.23255, 39.74834], [-84.231495, 39.748645], [-84.23141, 39.74867], [-84.2313, 39.74812], [-84.22964, 39.74816], [-84.22878, 39.74794], [-84.22879, 39.74403], [-84.22622, 39.74497], [-84.22279, 39.74504], [-84.22286, 39.74489], [-84.22707, 39.74323], [-84.22706, 39.7392], [-84.2288, 39.73916], [-84.2288, 39.7372], [-84.22884, 39.7362], [-84.23119, 39.73615], [-84.2322, 39.73825], [-84.23662, 39.73828], [-84.23663, 39.73555], [-84.23399, 39.73559], [-84.23389, 39.73386], [-84.239779, 39.73396], [-84.23979, 39.73396], [-84.23981, 39.73445], [-84.2456, 39.73449], [-84.24618, 39.73615], [-84.24636, 39.736366]]], [[[-84.24475, 39.72896], [-84.24547, 39.72944], [-84.24589, 39.7299], [-84.24601, 39.73099], [-84.24602, 39.73155], [-84.23962, 39.73162], [-84.23935, 39.72677], [-84.24433, 39.72678], [-84.24464, 39.72734], [-84.24542, 39.72817], [-84.24475, 39.72896]]], [[[-84.25793, 39.72975], [-84.25798, 39.73092], [-84.25454, 39.7318], [-84.25464, 39.72978], [-84.25793, 39.72975]]]]}}, {"type": "Feature", "properties": {"area_id": 3182, "city": "Dayton", "state": "OH", "city_survey": true, "cat": "Hazardous", "grade": "D", "label": "D12", "res": true, "com": false, "ind": false, "holc_grade": "D"}, "geometry": {"type": "Polygon", "coordinates": [[[-84.19672, 39.75768], [-84.1969, 39.75498], [-84.19711, 39.75449], [-84.19768, 39.75441], [-84.19868, 39.75422], [-84.19938, 39.75394], [-84.20019, 39.75429], [-84.20178, 39.7556], [-84.20228, 39.75621], [-84.2023, 39.75651], [-84.20251, 39.75778], [-84.20325, 39.75766], [-84.20362, 39.75917], [-84.20344, 39.75961], [-84.20301, 39.76058], [-84.20216, 39.76072], [-84.20173, 39.76098], [-84.20122, 39.76161], [-84.20072, 39.76223], [-84.20027, 39.7624], [-84.19942, 39.76241], [-84.19697, 39.7617], [-84.19678, 39.76065], [-84.19647, 39.75968], [-84.19672, 39.75768]]]}}, {"type": "Feature", "properties": {"area_id": 3183, "city": "Dayton", "state": "OH", "city_survey": true, "cat": "Hazardous", "grade": "D", "label": "D13", "res": true, "com": false, "ind": false, "holc_grade": "D"}, "geometry": {"type": "MultiPolygon", "coordinates": [[[[-84.178092, 39.762933], [-84.17673, 39.76395], [-84.17619, 39.76428], [-84.17514, 39.76488], [-84.17511, 39.76465], [-84.17009, 39.76561], [-84.16996, 39.76508], [-84.16876, 39.76529], [-84.16831, 39.76519], [-84.16843, 39.76497], [-84.17304, 39.76416], [-84.17344, 39.76396], [-84.17304, 39.76261], [-84.17472, 39.7622], [-84.17511, 39.76214], [-84.178197, 39.761692], [-84.17986, 39.76145], [-84.17979, 39.76155], [-84.17839, 39.76271], [-84.178092, 39.762933]]], [[[-84.18246, 39.75029], [-84.18265, 39.75008], [-84.18356, 39.74842], [-84.18342, 39.74701], [-84.18833, 39.74626], [-84.19048, 39.74593], [-84.19199, 39.74811], [-84.19205, 39.74813], [-84.1935, 39.74791], [-84.19688, 39.75321], [-84.19572, 39.75372], [-84.19437, 39.75385], [-84.1934, 39.75399], [-84.19101, 39.75458], [-84.18847, 39.75562], [-84.187918, 39.755945], [-84.18713, 39.75641], [-84.18615, 39.75721], [-84.18553, 39.75771], [-84.18411, 39.75845], [-84.18355, 39.75872], [-84.18295, 39.75895], [-84.182, 39.75914], [-84.182, 39.75946], [-84.18106, 39.75963], [-84.18081, 39.75979], [-84.18093, 39.76027], [-84.18054, 39.76045], [-84.1801, 39.76049], [-84.17806, 39.76094], [-84.177969, 39.760951], [-84.17442, 39.76137], [-84.17392, 39.75881], [-84.1739, 39.75868], [-84.1757, 39.75835], [-84.17579, 39.75801], [-84.17665, 39.75616], [-84.176651, 39.756159], [-84.17877, 39.75375], [-84.178692, 39.753662], [-84.17814, 39.75304], [-84.17912, 39.75233], [-84.18246, 39.75029]]]]}}, {"type": "Feature", "properties": {"area_id": 3177, "city": "Dayton", "state": "OH", "city_survey": true, "cat": "Hazardous", "grade": "D", "label": "D14", "res": true, "com": false, "ind": false, "holc_grade": "D"}, "geometry": {"type": "Polygon", "coordinates": [[[-84.27755, 39.74264], [-84.27762, 39.74656], [-84.278441, 39.74656], [-84.282194, 39.74656], [-84.28222, 39.74656], [-84.287629, 39.746468], [-84.28853, 39.746453], [-84.289216, 39.746441], [-84.29632, 39.74632], [-84.296323, 39.746399], [-84.29642, 39.74924], [-84.29223, 39.74921], [-84.29226, 39.7506], [-84.28243, 39.75071], [-84.2824, 39.75031], [-84.282383, 39.75031], [-84.28136, 39.75028], [-84.27772, 39.75032], [-84.27761, 39.74665], [-84.271763, 39.746709], [-84.27171, 39.74671], [-84.271809, 39.748552], [-84.27214, 39.75471], [-84.26811, 39.75474], [-84.26821, 39.7586], [-84.27227, 39.75856], [-84.272279, 39.761325], [-84.27228, 39.76152], [-84.253337, 39.76155], [-84.25319, 39.76155], [-84.25319, 39.76143], [-84.25319, 39.76142], [-84.2532, 39.75835], [-84.25327, 39.758345], [-84.25427, 39.75828], [-84.25568, 39.7583], [-84.25704, 39.75815], [-84.25869, 39.75816], [-84.25866, 39.75952], [-84.26165, 39.75954], [-84.26162, 39.75815], [-84.26293, 39.75815], [-84.26369, 39.75804], [-84.26641, 39.75809], [-84.2664, 39.75476], [-84.265997, 39.754754], [-84.26238, 39.7547], [-84.262312, 39.747881], [-84.26231, 39.74772], [-84.26847, 39.74673], [-84.268467, 39.746626], [-84.268432, 39.74525], [-84.26841, 39.74439], [-84.2682, 39.74278], [-84.268373, 39.742777], [-84.27755, 39.74264]]]}}, {"type": "Feature", "properties": {"area_id": 3203, "city": "Dayton", "state": "OH", "city_survey": true, "cat": "Hazardous", "grade": "D", "label": "D2", "res": true, "com": false, "ind": false, "holc_grade": "D"}, "geometry": {"type": "MultiPolygon", "coordinates": [[[[-84.120639, 39.746491], [-84.12078, 39.74653], [-84.12047, 39.75023], [-84.12029, 39.75197], [-84.119884, 39.751947], [-84.11056, 39.75142], [-84.11066, 39.74878], [-84.11111, 39.74511], [-84.111191, 39.745117], [-84.11387, 39.74534], [-84.11635, 39.7453], [-84.120639, 39.746491]]], [[[-84.13091, 39.73821], [-84.13112, 39.73737], [-84.13397, 39.73751], [-84.13402, 39.73789], [-84.13485, 39.73763], [-84.13493, 39.73589], [-84.13477, 39.73517], [-84.13843, 39.73536], [-84.13909, 39.73548], [-84.13867, 39.73918], [-84.13078, 39.73875], [-84.13091, 39.73821]]]]}}, {"type": "Feature", "properties": {"area_id": 3206, "city": "Dayton", "state": "OH", "city_survey": true, "cat": "Hazardous", "grade": "D", "label": "D3", "res": true, "com": false, "ind": false, "holc_grade": "D"}, "geometry": {"type": "MultiPolygon", "coordinates": [[[[-84.15504, 39.75578], [-84.15522, 39.75591], [-84.15504, 39.7559], [-84.15466, 39.7559], [-84.15059, 39.75475], [-84.14988, 39.75448], [-84.150241, 39.754225], [-84.15169, 39.7532], [-84.153093, 39.754281], [-84.15504, 39.75578]]], [[[-84.15747, 39.757645], [-84.15772, 39.75766], [-84.15792, 39.75803], [-84.15791, 39.75824], [-84.156471, 39.758149], [-84.1502, 39.75775], [-84.15026, 39.75722], [-84.15747, 39.757645]]]]}}, {"type": "Feature", "properties": {"area_id": 3208, "city": "Dayton", "state": "OH", "city_survey": true, "cat": "Hazardous", "grade": "D", "label": "D4", "res": true, "com": false, "ind": false, "holc_grade": "D"}, "geometry": {"type": "Polygon", "coordinates": [[[-84.15929, 39.76616], [-84.16021, 39.76577], [-84.16151, 39.76528], [-84.16261, 39.7649], [-84.16258, 39.76444], [-84.16375, 39.76412], [-84.16595, 39.76382], [-84.16573, 39.76403], [-84.16248, 39.76562], [-84.1613, 39.76621], [-84.16166, 39.76746], [-84.16221, 39.7695], [-84.15882, 39.77075], [-84.15848, 39.769687], [-84.15795, 39.76803], [-84.15664, 39.76829], [-84.15238, 39.77059], [-84.15297, 39.77249], [-84.15203, 39.77311], [-84.15049, 39.77392], [-84.1501, 39.77265], [-84.14998, 39.77224], [-84.14876, 39.77288], [-84.14932, 39.77473], [-84.14819, 39.77527], [-84.14632, 39.77605], [-84.14632, 39.77503], [-84.14686, 39.77482], [-84.14681, 39.77402], [-84.14636, 39.77425], [-84.14638, 39.77448], [-84.14398, 39.77591], [-84.14346, 39.77576], [-84.14241, 39.77485], [-84.14253, 39.77452], [-84.14276, 39.77427], [-84.14375, 39.77366], [-84.14398, 39.77324], [-84.14376, 39.77246], [-84.14417, 39.7722], [-84.14476, 39.77172], [-84.14523, 39.7713], [-84.14559, 39.77077], [-84.1458, 39.77044], [-84.14626, 39.77046], [-84.14663, 39.77073], [-84.14731, 39.77106], [-84.14782, 39.77148], [-84.14815, 39.7715], [-84.15166, 39.76945], [-84.1521, 39.76935], [-84.15295, 39.76923], [-84.15371, 39.76919], [-84.15455, 39.76876], [-84.15646, 39.76765], [-84.157745, 39.767046], [-84.15797, 39.76694], [-84.15929, 39.76616]]]}}, {"type": "Feature", "properties": {"area_id": 3214, "city": "Dayton", "state": "OH", "city_survey": true, "cat": "Hazardous", "grade": "D", "label": "D5", "res": true, "com": false, "ind": false, "holc_grade": "D"}, "geometry": {"type": "Polygon", "coordinates": [[[-84.13652, 39.77905], [-84.13287, 39.77997], [-84.13217, 39.78007], [-84.1313, 39.78028], [-84.13035, 39.78045], [-84.1299, 39.78045], [-84.1296, 39.7802], [-84.12925, 39.77944], [-84.12912, 39.77884], [-84.12915, 39.77822], [-84.12901, 39.77772], [-84.12874, 39.77696], [-84.12852, 39.77658], [-84.12811, 39.77616], [-84.12748, 39.77566], [-84.1277, 39.77354], [-84.1321, 39.77363], [-84.1344, 39.77553], [-84.13588, 39.7768], [-84.13768, 39.77787], [-84.138287, 39.778209], [-84.138523, 39.77834], [-84.13854, 39.77835], [-84.13652, 39.77905]]]}}, {"type": "Feature", "properties": {"area_id": 3216, "city": "Dayton", "state": "OH", "city_survey": true, "cat": "Hazardous", "grade": "D", "label": "D6", "res": true, "com": false, "ind": false, "holc_grade": "D"}, "geometry": {"type": "Polygon", "coordinates": [[[-84.13604, 39.79385], [-84.13582, 39.79395], [-84.13562, 39.7936], [-84.13556, 39.79307], [-84.1355, 39.7926], [-84.13533, 39.79198], [-84.1355, 39.78994], [-84.13576, 39.78973], [-84.13623, 39.78969], [-84.13783, 39.78985], [-84.1383, 39.79026], [-84.1391, 39.7911], [-84.13812, 39.79179], [-84.13822, 39.79267], [-84.13604, 39.79385]]]}}, {"type": "Feature", "properties": {"area_id": 3211, "city": "Dayton", "state": "OH", "city_survey": true, "cat": "Hazardous", "grade": "D", "label": "D7", "res": true, "com": false, "ind": false, "holc_grade": "D"}, "geometry": {"type": "MultiPolygon", "coordinates": [[[[-84.15502, 39.78056], [-84.15513, 39.7796], [-84.15761, 39.77965], [-84.16116, 39.77919], [-84.161166, 39.779212], [-84.16155, 39.78059], [-84.16161, 39.78062], [-84.16192, 39.78079], [-84.16294, 39.78116], [-84.16415, 39.78165], [-84.1647, 39.78168], [-84.16538, 39.78172], [-84.16546, 39.78222], [-84.16673, 39.78232], [-84.16767, 39.7824], [-84.16994, 39.78254], [-84.17135, 39.78262], [-84.17401, 39.78268], [-84.17392, 39.78365], [-84.17382, 39.78385], [-84.1732, 39.78434], [-84.17157, 39.78434], [-84.16581, 39.78402], [-84.16561, 39.7845], [-84.16394, 39.78433], [-84.16146, 39.78396], [-84.1598, 39.78613], [-84.15757, 39.78553], [-84.15634, 39.78348], [-84.15628, 39.78313], [-84.15607, 39.78295], [-84.15552, 39.78296], [-84.15504, 39.78273], [-84.155, 39.78205], [-84.154741, 39.782045], [-84.15272, 39.78201], [-84.15264, 39.78052], [-84.15502, 39.78056]]], [[[-84.1743, 39.77863], [-84.17428, 39.77826], [-84.17053, 39.77812], [-84.16909, 39.77807], [-84.16829, 39.77796], [-84.16794, 39.77792], [-84.16743, 39.77782], [-84.16723, 39.77769], [-84.16613, 39.77696], [-84.16622, 39.77688], [-84.16815, 39.77519], [-84.16905, 39.77449], [-84.16962, 39.77417], [-84.16893, 39.77358], [-84.17151, 39.77187], [-84.17207, 39.77232], [-84.1748, 39.77038], [-84.17688, 39.76925], [-84.17848, 39.77089], [-84.178622, 39.770888], [-84.17907, 39.77088], [-84.17976, 39.771], [-84.17987, 39.76992], [-84.18136, 39.76999], [-84.18219, 39.77003], [-84.1837, 39.77016], [-84.18474, 39.77022], [-84.18515, 39.77032], [-84.18556, 39.77067], [-84.18578, 39.77096], [-84.18611, 39.7712], [-84.18666, 39.7714], [-84.18812, 39.77186], [-84.19106, 39.77406], [-84.19307, 39.77591], [-84.19386, 39.77674], [-84.19204, 39.77673], [-84.18902, 39.77648], [-84.18822, 39.77637], [-84.18839, 39.77375], [-84.18631, 39.77359], [-84.18593, 39.7791], [-84.18701, 39.7804], [-84.1886, 39.78208], [-84.1889, 39.7831], [-84.18879, 39.78314], [-84.18601, 39.78304], [-84.18592, 39.78429], [-84.18533, 39.78451], [-84.18481, 39.78488], [-84.18445, 39.78521], [-84.18211, 39.78504], [-84.18238, 39.78304], [-84.18238, 39.78296], [-84.18256, 39.78059], [-84.177803, 39.780309], [-84.17715, 39.78027], [-84.17725, 39.77874], [-84.1743, 39.77863]]]]}}, {"type": "Feature", "properties": {"area_id": 3171, "city": "Dayton", "state": "OH", "city_survey": true, "cat": "Hazardous", "grade": "D", "label": "D8", "res": true, "com": false, "ind": false, "holc_grade": "D"}, "geometry": {"type": "Polygon", "coordinates": [[[-84.19038, 39.77002], [-84.19019, 39.76827], [-84.19039, 39.76693], [-84.19055, 39.76658], [-84.19088, 39.76625], [-84.19166, 39.76599], [-84.1936, 39.76574], [-84.19465, 39.76588], [-84.19634, 39.76606], [-84.19841, 39.76609], [-84.19825, 39.76841], [-84.19866, 39.76853], [-84.20016, 39.76825], [-84.200346, 39.768988], [-84.20095, 39.77139], [-84.19992, 39.77158], [-84.19793, 39.77307], [-84.19775, 39.77308], [-84.19744, 39.77303], [-84.19724, 39.77309], [-84.19614, 39.77402], [-84.19587, 39.77451], [-84.19447, 39.7738], [-84.19371, 39.77332], [-84.19323, 39.77296], [-84.19123, 39.77173], [-84.191141, 39.771653], [-84.19064, 39.77122], [-84.19038, 39.77002]]]}}, {"type": "Feature", "properties": {"area_id": 3168, "city": "Dayton", "state": "OH", "city_survey": true, "cat": "Hazardous", "grade": "D", "label": "D9", "res": true, "com": false, "ind": false, "holc_grade": "D"}, "geometry": {"type": "Polygon", "coordinates": [[[-84.21707, 39.7609], [-84.2187, 39.76077], [-84.21941, 39.76066], [-84.21977, 39.76063], [-84.21973, 39.7609], [-84.22022, 39.76095], [-84.22026, 39.76185], [-84.22082, 39.76185], [-84.2216, 39.76187], [-84.22262, 39.76185], [-84.22318, 39.76191], [-84.22361, 39.76204], [-84.22393, 39.76217], [-84.22422, 39.76238], [-84.22445, 39.76256], [-84.22462, 39.76266], [-84.22519, 39.76275], [-84.22643, 39.76324], [-84.22537, 39.76315], [-84.22433, 39.7632], [-84.22305, 39.76311], [-84.21847, 39.76249], [-84.21771, 39.76242], [-84.215012, 39.761653], [-84.21493, 39.76163], [-84.21508, 39.76552], [-84.20823, 39.76558], [-84.207456, 39.764821], [-84.20605, 39.76344], [-84.20562, 39.76288], [-84.20506, 39.76242], [-84.205098, 39.762379], [-84.20555, 39.7619], [-84.2058, 39.76145], [-84.20628, 39.76057], [-84.20665, 39.75966], [-84.20675, 39.75919], [-84.20784, 39.75923], [-84.20851, 39.75942], [-84.20961, 39.75966], [-84.2119, 39.7602], [-84.21317, 39.76049], [-84.21455, 39.76069], [-84.214981, 39.760767], [-84.21583, 39.76092], [-84.21707, 39.7609]]]}}, {"type": "Feature", "properties": {"area_id": 11321, "city": "Dayton", "state": "OH", "city_survey": true, "cat": "Commercial", "grade": null, "label": "Commercial", "res": false, "com": true, "ind": false, "holc_grade": null}, "geometry": {"type": "MultiPolygon", "coordinates": [[[[-84.15059, 39.75475], [-84.15466, 39.7559], [-84.15504, 39.7559], [-84.15522, 39.75591], [-84.15504, 39.75578], [-84.155129, 39.755801], [-84.157, 39.75625], [-84.15924, 39.75687], [-84.16276, 39.75779], [-84.16447, 39.75845], [-84.16647, 39.7594], [-84.16652, 39.75954], [-84.15922, 39.75882], [-84.15809, 39.75796], [-84.15792, 39.75803], [-84.15772, 39.75766], [-84.15747, 39.757645], [-84.15026, 39.75722], [-84.15051, 39.75518], [-84.15059, 39.75475]]], [[[-84.1934, 39.75399], [-84.19437, 39.75385], [-84.19572, 39.75372], [-84.19688, 39.75321], [-84.19438, 39.74929], [-84.19756, 39.75068], [-84.19916, 39.7525], [-84.199346, 39.753717], [-84.19938, 39.75394], [-84.19868, 39.75422], [-84.19768, 39.75441], [-84.19711, 39.75449], [-84.1969, 39.75498], [-84.19672, 39.75768], [-84.19647, 39.75968], [-84.19678, 39.76065], [-84.19697, 39.7617], [-84.19942, 39.76241], [-84.20027, 39.7624], [-84.19981, 39.76367], [-84.19771, 39.76396], [-84.19648, 39.76328], [-84.18796, 39.76463], [-84.18711, 39.7625], [-84.18699, 39.76018], [-84.18767, 39.75692], [-84.18713, 39.75641], [-84.187918, 39.755945], [-84.18847, 39.75562], [-84.19101, 39.75458], [-84.1934, 39.75399]]]]}}, {"type": "Feature", "properties": {"area_id": 11320, "city": "Dayton", "state": "OH", "city_survey": true, "cat": "Industrial", "grade": null, "label": "Industrial", "res": false, "com": false, "ind": true, "holc_grade": null}, "geometry": {"type": "MultiPolygon", "coordinates": [[[[-84.177969, 39.760951], [-84.17806, 39.76094], [-84.1801, 39.76049], [-84.18054, 39.76045], [-84.18093, 39.76027], [-84.18081, 39.75979], [-84.18106, 39.75963], [-84.182, 39.75946], [-84.182, 39.75914], [-84.18295, 39.75895], [-84.18355, 39.75872], [-84.18411, 39.75845], [-84.18553, 39.75771], [-84.18615, 39.75721], [-84.18713, 39.75641], [-84.18767, 39.75692], [-84.18699, 39.76018], [-84.18711, 39.7625], [-84.18796, 39.76463], [-84.18179, 39.76825], [-84.17848, 39.768292], [-84.17702, 39.76831], [-84.174783, 39.769416], [-84.17152, 39.77103], [-84.171389, 39.770775], [-84.17058, 39.7692], [-84.16911, 39.76969], [-84.16779, 39.77087], [-84.16135, 39.7736], [-84.159674, 39.773999], [-84.1582, 39.77435], [-84.154102, 39.772892], [-84.15297, 39.77249], [-84.15238, 39.77059], [-84.15664, 39.76829], [-84.15795, 39.76803], [-84.15848, 39.769687], [-84.15882, 39.77075], [-84.16221, 39.7695], [-84.16166, 39.76746], [-84.16681, 39.76657], [-84.16816, 39.76634], [-84.16775, 39.76506], [-84.16827, 39.76508], [-84.16831, 39.76519], [-84.16876, 39.76529], [-84.16996, 39.76508], [-84.17009, 39.76561], [-84.17511, 39.76465], [-84.17514, 39.76488], [-84.17619, 39.76428], [-84.17673, 39.76395], [-84.178092, 39.762933], [-84.17839, 39.76271], [-84.17979, 39.76155], [-84.17986, 39.76145], [-84.178197, 39.761692], [-84.17511, 39.76214], [-84.17472, 39.7622], [-84.17457, 39.7621], [-84.17442, 39.76137], [-84.177969, 39.760951]]], [[[-84.20741, 39.74415], [-84.20737, 39.74397], [-84.20756, 39.7433], [-84.20764, 39.74239], [-84.20765, 39.74178], [-84.20914, 39.74177], [-84.20906, 39.74222], [-84.20898, 39.7427], [-84.20892, 39.74297], [-84.20846, 39.74408], [-84.20863, 39.7441], [-84.21143, 39.74409], [-84.21196, 39.74362], [-84.21256, 39.74293], [-84.21293, 39.74244], [-84.21353, 39.74173], [-84.21309, 39.74173], [-84.213, 39.73972], [-84.21563, 39.73971], [-84.21564, 39.74073], [-84.21568, 39.74226], [-84.21468, 39.74229], [-84.21466, 39.74272], [-84.21364, 39.74273], [-84.2137, 39.74526], [-84.21469, 39.74528], [-84.21476, 39.74375], [-84.2157, 39.74367], [-84.21571, 39.74346], [-84.21604, 39.74341], [-84.21752, 39.74336], [-84.21757, 39.7463], [-84.21488, 39.74639], [-84.21488, 39.74596], [-84.2113, 39.74602], [-84.21039, 39.74644], [-84.209282, 39.747409], [-84.2092, 39.74748], [-84.20865, 39.74808], [-84.20838, 39.74856], [-84.20805, 39.74878], [-84.20811, 39.75075], [-84.20961, 39.7509], [-84.21082, 39.75117], [-84.21222, 39.7518], [-84.21371, 39.75272], [-84.21436, 39.75311], [-84.21597, 39.75478], [-84.21676, 39.75547], [-84.21765, 39.75649], [-84.21784, 39.75722], [-84.21858, 39.75717], [-84.21891, 39.75814], [-84.21948, 39.75985], [-84.21855, 39.75859], [-84.21736, 39.75879], [-84.21653, 39.75662], [-84.21557, 39.75596], [-84.21549, 39.75569], [-84.21507, 39.75503], [-84.21448, 39.75442], [-84.21387, 39.75387], [-84.21281, 39.75299], [-84.21171, 39.75231], [-84.21073, 39.75185], [-84.20985, 39.7516], [-84.20905, 39.75141], [-84.20806, 39.75143], [-84.20731, 39.75141], [-84.20653, 39.75122], [-84.2061, 39.75121], [-84.20371, 39.7519], [-84.20172, 39.75264], [-84.20135, 39.75239], [-84.20335, 39.75167], [-84.2034, 39.74968], [-84.20584, 39.74964], [-84.20587, 39.74792], [-84.20685, 39.74795], [-84.206896, 39.74767], [-84.20696, 39.74728], [-84.20698, 39.7457], [-84.20694, 39.74431], [-84.20695, 39.74415], [-84.20741, 39.74415]]], [[[-84.22468, 39.73911], [-84.22706, 39.7392], [-84.22707, 39.74323], [-84.22286, 39.74489], [-84.22279, 39.74504], [-84.22622, 39.74497], [-84.22879, 39.74403], [-84.22878, 39.74794], [-84.22964, 39.74816], [-84.2313, 39.74812], [-84.23141, 39.74867], [-84.231495, 39.748645], [-84.23255, 39.74834], [-84.232638, 39.748716], [-84.23269, 39.74894], [-84.23501, 39.74858], [-84.23488, 39.74978], [-84.23665, 39.74938], [-84.23665, 39.74885], [-84.23999, 39.7483], [-84.240019, 39.747461], [-84.24005, 39.74655], [-84.241868, 39.746566], [-84.24668, 39.74661], [-84.24568, 39.74702], [-84.24463, 39.74746], [-84.24377, 39.74774], [-84.2437, 39.74896], [-84.23995, 39.74897], [-84.23995, 39.75157], [-84.2393, 39.75168], [-84.2389, 39.75175], [-84.23791, 39.75127], [-84.2357, 39.75058], [-84.23467, 39.75012], [-84.23392, 39.74997], [-84.23312, 39.75006], [-84.23185, 39.75035], [-84.231604, 39.750332], [-84.23158, 39.75033], [-84.231612, 39.749477], [-84.23162, 39.74925], [-84.23124, 39.749201], [-84.230711, 39.749132], [-84.23062, 39.74912], [-84.22871, 39.74842], [-84.22818, 39.74833], [-84.22763, 39.74811], [-84.22673, 39.74796], [-84.22683, 39.74629], [-84.22036, 39.746123], [-84.22023, 39.74612], [-84.22036, 39.746041], [-84.220631, 39.745877], [-84.22107, 39.74561], [-84.22185, 39.74529], [-84.222213, 39.74518], [-84.22228, 39.74516], [-84.22231, 39.74488], [-84.22228, 39.74021], [-84.22471, 39.74013], [-84.22468, 39.73911]]]]}}]}