{"type": "FeatureCollection", "features": [{"type": "Feature", "geometry": {"type": "Point", "coordinates": [-94.133333, 30.075]}, "properties": {"facility_name": "AMERICAN VALVE & HYDRANT MANUFACTURING CO", "industry": null, "tri_facility_id": "77013MRCNV3350H"}}, {"type": "Feature", "geometry": {"type": "Point", "coordinates": [-94.026389, 30.013056]}, "properties": {"facility_name": "JEFFERSON TERMINAL SOUTH LLC", "industry": null, "tri_facility_id": "77627CCRYL6350N"}}, {"type": "Feature", "geometry": {"type": "Point", "coordinates": [-94.034167, 30.0]}, "properties": {"facility_name": "CHEMTREAT INC", "industry": null, "tri_facility_id": "77627CHMTR4200T"}}, {"type": "Feature", "geometry": {"type": "Point", "coordinates": [-94.070278, 30.063889]}, "properties": {"facility_name": "EXXONMOBIL OIL BEAUMONT REFINERY (PART)", "industry": null, "tri_facility_id": "77701BMNTREASTE"}}, {"type": "Feature", "geometry": {"type": "Point", "coordinates": [-94.10972222222222, 30.07777777777778]}, "properties": {"facility_name": "WIRE MESH TEXAS LLC", "industry": null, "tri_facility_id": "77701CRGLL220AV"}}, {"type": "Feature", "geometry": {"type": "Point", "coordinates": [-94.0961111111111, 30.07638888888889]}, "properties": {"facility_name": "OHMSTEDE/EXELL LTD", "industry": null, "tri_facility_id": "77701HMSTD1110N"}}, {"type": "Feature", "geometry": {"type": "Point", "coordinates": [-94.10055555555554, 30.089166666666664]}, "properties": {"facility_name": "OHMSTEDE LTD", "industry": null, "tri_facility_id": "77701HMSTD895NM"}}, {"type": "Feature", "geometry": {"type": "Point", "coordinates": [-94.09888888888888, 30.075277777777778]}, "properties": {"facility_name": "EASTHAM FORGE INC.", "industry": null, "tri_facility_id": "77701STHMF155AR"}}, {"type": "Feature", "geometry": {"type": "Point", "coordinates": [-94.075556, 30.063333]}, "properties": {"facility_name": "VALSPAR CORP BEAMONT", "industry": null, "tri_facility_id": "77701THVLS1700D"}}, {"type": "Feature", "geometry": {"type": "Point", "coordinates": [-94.088611, 30.088056]}, "properties": {"facility_name": "CB&I-BEAUMONT", "industry": null, "tri_facility_id": "77701TRNTY850PI"}}, {"type": "Feature", "geometry": {"type": "Point", "coordinates": [-94.099735, 30.090132]}, "properties": {"facility_name": "TEXAS METAL WORKS INC", "industry": null, "tri_facility_id": "77701TXSMT937PI"}}, {"type": "Feature", "geometry": {"type": "Point", "coordinates": [-94.1214, 30.1]}, "properties": {"facility_name": "JOHN DOLLINGER JR INC", "industry": null, "tri_facility_id": "77703JHNDL7THAT"}}, {"type": "Feature", "geometry": {"type": "Point", "coordinates": [-94.030556, 30.013889]}, "properties": {"facility_name": "THE DOW CHEMICAL CO - BEAUMONT ANILINE", "industry": null, "tri_facility_id": "77704DPNTBSTATE"}}, {"type": "Feature", "geometry": {"type": "Point", "coordinates": [-94.155232, 30.058531]}, "properties": {"facility_name": "HELENA LABORATORIES INC", "industry": null, "tri_facility_id": "77704HLNLB1530L"}}, {"type": "Feature", "geometry": {"type": "Point", "coordinates": [-94.059722, 30.068056]}, "properties": {"facility_name": "EXXONMOBIL OIL CORP BCSP (DBA MOBIL CHEMICAL CO)", "industry": null, "tri_facility_id": "77704MBLC2GULFS"}}, {"type": "Feature", "geometry": {"type": "Point", "coordinates": [-94.062222, 30.069722]}, "properties": {"facility_name": "EXXONMOBIL OIL CORP CHEMICAL PLANT (PART)", "industry": null, "tri_facility_id": "77704MBLCHGULFS"}}, {"type": "Feature", "geometry": {"type": "Point", "coordinates": [-94.04583333333333, 30.033333333333335]}, "properties": {"facility_name": "MARTIN OPERATING PTNR-STANOLIND", "industry": null, "tri_facility_id": "77704MRTNG10SUL"}}, {"type": "Feature", "geometry": {"type": "Point", "coordinates": [-94.061111, 30.0625]}, "properties": {"facility_name": "LNVA-NORTH REGIONAL TREATMENT PLANT", "industry": null, "tri_facility_id": "77704NCHSRGULFS"}}, {"type": "Feature", "geometry": {"type": "Point", "coordinates": [-94.045833, 30.058333]}, "properties": {"facility_name": "PD GLYCOL", "industry": null, "tri_facility_id": "77704PDGLYGULFS"}}, {"type": "Feature", "geometry": {"type": "Point", "coordinates": [-94.056944, 30.058333]}, "properties": {"facility_name": "ARKEMA INC", "industry": null, "tri_facility_id": "77704PNNWL2052G"}}, {"type": "Feature", "geometry": {"type": "Point", "coordinates": [-94.0275, 30.01222222222222]}, "properties": {"facility_name": "DUPONT PERFORMANCE ELASTOMERS (DPE) BEAUMONT PLANT", "industry": null, "tri_facility_id": "77705DDBMNSTATE"}}, {"type": "Feature", "geometry": {"type": "Point", "coordinates": [-94.059979, 30.03229]}, "properties": {"facility_name": "HARKRIDER DIST CO INC", "industry": null, "tri_facility_id": "77705HRKRD1866S"}}, {"type": "Feature", "geometry": {"type": "Point", "coordinates": [-94.068889, 30.046389]}, "properties": {"facility_name": "CHEMTRADE REFINERY SERVICES INC.", "industry": null, "tri_facility_id": "77705LNCRP1400O"}}, {"type": "Feature", "geometry": {"type": "Point", "coordinates": [-94.045, 30.000555555555554]}, "properties": {"facility_name": "AMOCO PIPELINE CO BEAUMONT TERMINAL", "industry": null, "tri_facility_id": "77705MCPPL6275H"}}, {"type": "Feature", "geometry": {"type": "Point", "coordinates": [-94.03472222222221, 30.058055555555555]}, "properties": {"facility_name": "MARTIN OPERATING PTNR-NECHES", "industry": null, "tri_facility_id": "77705MRTNG1GULF"}}, {"type": "Feature", "geometry": {"type": "Point", "coordinates": [-94.04138888888889, 30.061111111111114]}, "properties": {"facility_name": "MESSER GRIESHEIM", "industry": null, "tri_facility_id": "77705MSSRG3980G"}}, {"type": "Feature", "geometry": {"type": "Point", "coordinates": [-94.129167, 30.054722]}, "properties": {"facility_name": "HELENA LABORATORIES INC", "industry": null, "tri_facility_id": "77707HLNLB3795W"}}, {"type": "Feature", "geometry": {"type": "Point", "coordinates": [-94.17583333333334, 30.143055555555556]}, "properties": {"facility_name": "QUALITY SALES CO INC", "industry": null, "tri_facility_id": "77708QLTYS795EA"}}, {"type": "Feature", "geometry": {"type": "Point", "coordinates": [-94.029167, 30.013889]}, "properties": {"facility_name": "OCI BEAUMONT LLC", "industry": null, "tri_facility_id": "77720BMNTMHWY34"}}]}