{"type": "FeatureCollection", "features": [{"type": "Feature", "geometry": {"type": "Point", "coordinates": [-75.946389, 41.329167]}, "properties": {"facility_name": "OFFSET PAPERBACK MANUFACTURERS INC", "industry": null, "tri_facility_id": "18612FFSTPRTE30"}}, {"type": "Feature", "geometry": {"type": "Point", "coordinates": [-75.942222, 41.336111]}, "properties": {"facility_name": "ENERGY CONVERTORS INC", "industry": null, "tri_facility_id": "18612NRGYCBOX10"}}, {"type": "Feature", "geometry": {"type": "Point", "coordinates": [-76.012147, 41.190458]}, "properties": {"facility_name": "REILLY PLATING CO INC", "industry": null, "tri_facility_id": "18634RLLYP130AL"}}, {"type": "Feature", "geometry": {"type": "Point", "coordinates": [-75.779167, 41.304167]}, "properties": {"facility_name": "KEYSTONE COCA-COLA BOTTLING CORP", "industry": null, "tri_facility_id": "18640KYSTN300OA"}}, {"type": "Feature", "geometry": {"type": "Point", "coordinates": [-75.808889, 41.338889]}, "properties": {"facility_name": "BRIDON AMERICAN CORP", "industry": null, "tri_facility_id": "18642BRDNM100ST"}}, {"type": "Feature", "geometry": {"type": "Point", "coordinates": [-75.806865, 41.337309]}, "properties": {"facility_name": "GEMARK SERVICE CORP", "industry": null, "tri_facility_id": "18643GMRKS99STE"}}, {"type": "Feature", "geometry": {"type": "Point", "coordinates": [-75.8, 41.32944444444445]}, "properties": {"facility_name": "PRIDE MOBILITY PRODUCTS EXETER FACILITY", "industry": null, "tri_facility_id": "18643PRDMB182SU"}}, {"type": "Feature", "geometry": {"type": "Point", "coordinates": [-75.8, 41.32944444444445]}, "properties": {"facility_name": "PRIDE MOBILITY PRODUCTS SCOOTER FACILITY", "industry": null, "tri_facility_id": "18643PRDMB508DE"}}, {"type": "Feature", "geometry": {"type": "Point", "coordinates": [-75.84055555555555, 41.315]}, "properties": {"facility_name": "DIAMOND MANUFACTURING CO", "industry": null, "tri_facility_id": "18644DMNDM243W8"}}, {"type": "Feature", "geometry": {"type": "Point", "coordinates": [-75.798173, 41.195376]}, "properties": {"facility_name": "LIQUID CARBONIC INDUSTRIES CORP", "industry": null, "tri_facility_id": "18702LQDCR3720L"}}, {"type": "Feature", "geometry": {"type": "Point", "coordinates": [-75.858333, 41.255278]}, "properties": {"facility_name": "THE LION BREWERY INC", "industry": null, "tri_facility_id": "18703LNNCX700NP"}}, {"type": "Feature", "geometry": {"type": "Point", "coordinates": [-75.90055555555556, 41.27305555555555]}, "properties": {"facility_name": "KINGSTON METAL CORP", "industry": null, "tri_facility_id": "18704KNGST1KORN"}}, {"type": "Feature", "geometry": {"type": "Point", "coordinates": [-75.8975, 41.268611]}, "properties": {"facility_name": "ROYER IND INC", "industry": null, "tri_facility_id": "18704RYRND158PR"}}, {"type": "Feature", "geometry": {"type": "Point", "coordinates": [-75.90833333333335, 41.25833333333333]}, "properties": {"facility_name": "SUNOCO PARTNERS MARKETING & TERMINALS LP KINGSTON TERMINAL", "industry": null, "tri_facility_id": "18704SNCNCRTE11"}}, {"type": "Feature", "geometry": {"type": "Point", "coordinates": [-75.848043, 41.263444]}, "properties": {"facility_name": "CARTER FOOTWEAR INC", "industry": null, "tri_facility_id": "18705CRTRF1167N"}}, {"type": "Feature", "geometry": {"type": "Point", "coordinates": [-75.8415, 41.2719]}, "properties": {"facility_name": "ALTEC INDUSTRIES INC", "industry": null, "tri_facility_id": "18705LTCND250LA"}}, {"type": "Feature", "geometry": {"type": "Point", "coordinates": [-75.85, 41.261111]}, "properties": {"facility_name": "INTERMETRO INDUSTRIES CORP", "industry": null, "tri_facility_id": "18705NTRMT1101N"}}, {"type": "Feature", "geometry": {"type": "Point", "coordinates": [-75.8948, 41.2387]}, "properties": {"facility_name": "BRIDON - BEKAERT HANOVER PLANT", "industry": null, "tri_facility_id": "18706BRDNM280NE"}}, {"type": "Feature", "geometry": {"type": "Point", "coordinates": [-75.9825, 41.18555555555555]}, "properties": {"facility_name": "KOEHLER-BRIGHT STAR INC.", "industry": null, "tri_facility_id": "18706KHLRB380ST"}}, {"type": "Feature", "geometry": {"type": "Point", "coordinates": [-75.91611111111112, 41.21638888888889]}, "properties": {"facility_name": "INTEGRATED POWER DESIGNS INC", "industry": null, "tri_facility_id": "18706NTGRT300ST"}}, {"type": "Feature", "geometry": {"type": "Point", "coordinates": [-75.893889, 41.1425]}, "properties": {"facility_name": "FAIRCHILD SEMICONDUCTOR", "industry": null, "tri_facility_id": "18707GSLDS125CR"}}, {"type": "Feature", "geometry": {"type": "Point", "coordinates": [-75.90027777777779, 41.28638888888889]}, "properties": {"facility_name": "KINGSTON METAL CORP", "industry": null, "tri_facility_id": "18709KNGST100PA"}}, {"type": "Feature", "geometry": {"type": "Point", "coordinates": [-75.831944, 41.2625]}, "properties": {"facility_name": "MUSKIN INC", "industry": null, "tri_facility_id": "18773SLSRC401ET"}}]}