{"type": "FeatureCollection", "features": [{"type": "Feature", "properties": {"area_id": 10937, "city": "Monmouth", "state": "NJ", "city_survey": false, "cat": "Loaning Territory", "grade": null, "label": "Loaning Territory", "res": true, "com": false, "ind": false, "holc_grade": null}, "geometry": {"type": "MultiPolygon", "coordinates": [[[[-73.996181, 40.33546], [-73.996031, 40.336487], [-73.99573, 40.33854], [-73.9892, 40.34209], [-73.98087, 40.34239], [-73.976847, 40.340488], [-73.972541, 40.338452], [-73.97078, 40.33762], [-73.96804, 40.33407], [-73.9682, 40.32842], [-73.973511, 40.326767], [-73.97517, 40.32625], [-73.98451, 40.326938], [-73.99052, 40.32738], [-73.99271, 40.329399], [-73.994308, 40.330873], [-73.99655, 40.33294], [-73.996181, 40.33546]]], [[[-74.04316, 40.14127], [-74.037656, 40.140773], [-74.03718, 40.14073], [-74.03724, 40.14194], [-74.037329, 40.142123], [-74.0397, 40.14697], [-74.04031, 40.15259], [-74.04031, 40.15707], [-74.03998, 40.16034], [-74.03806, 40.16311], [-74.037785, 40.163328], [-74.03543, 40.1652], [-74.033937, 40.164904], [-74.032277, 40.164575], [-74.03225, 40.16457], [-74.027505, 40.166719], [-74.02715, 40.16688], [-74.026143, 40.167008], [-74.02156, 40.16759], [-74.01931, 40.16742], [-74.019156, 40.167872], [-74.01722, 40.17354], [-74.02304, 40.17521], [-74.02912, 40.17555], [-74.02994, 40.17656], [-74.02994, 40.17945], [-74.02903, 40.18232], [-74.029878, 40.182721], [-74.03269, 40.18405], [-74.03088, 40.19009], [-74.02945, 40.19235], [-74.029768, 40.192634], [-74.03554, 40.19779], [-74.04102, 40.19817], [-74.037532, 40.19674], [-74.03663, 40.19637], [-74.03587, 40.19038], [-74.036373, 40.189193], [-74.038, 40.18535], [-74.040002, 40.184812], [-74.04064, 40.18464], [-74.05632, 40.18933], [-74.05686, 40.195215], [-74.05692, 40.19587], [-74.05506, 40.20114], [-74.053651, 40.202796], [-74.051553, 40.205262], [-74.05078, 40.20617], [-74.050528, 40.206278], [-74.04607, 40.20818], [-74.04031, 40.20831], [-74.038396, 40.207808], [-74.02673, 40.20475], [-74.026, 40.20864], [-74.025842, 40.209519], [-74.02517, 40.21325], [-74.025426, 40.218179], [-74.025518, 40.219951], [-74.02572, 40.22384], [-74.025818, 40.223954], [-74.026889, 40.225192], [-74.02764, 40.22606], [-74.03779, 40.22995], [-74.03192, 40.23908], [-74.02441, 40.23811], [-74.02145, 40.24623], [-74.01415, 40.25034], [-74.012759, 40.253171], [-74.01158, 40.25557], [-74.01547, 40.25611], [-74.01881, 40.25845], [-74.02029, 40.26109], [-74.01958, 40.26343], [-74.01503, 40.26573], [-74.014405, 40.265753], [-74.00941, 40.26594], [-74.01009, 40.275326], [-74.01015, 40.27615], [-74.01141, 40.28213], [-74.01404, 40.28297], [-74.014948, 40.286271], [-74.01519, 40.28715], [-74.01306, 40.28715], [-74.00812, 40.28954], [-74.00417, 40.29209], [-74.00818, 40.29619], [-74.007968, 40.2993], [-74.00796, 40.29941], [-74.00861, 40.30192], [-74.009842, 40.304275], [-74.010415, 40.30537], [-74.01108, 40.30664], [-74.008327, 40.308282], [-74.007422, 40.308821], [-74.004243, 40.310717], [-74.003516, 40.311151], [-73.998951, 40.313873], [-73.998364, 40.314223], [-73.994096, 40.316768], [-73.99354, 40.3171], [-73.992321, 40.316058], [-73.98942, 40.31358], [-73.984444, 40.314118], [-73.97933, 40.31467], [-73.975568, 40.314229], [-73.97182, 40.31379], [-73.97253, 40.30284], [-73.97363, 40.29995], [-73.97862, 40.29113], [-73.9818, 40.27548], [-73.98454, 40.26653], [-73.986631, 40.263016], [-73.98723, 40.26201], [-73.987532, 40.260637], [-73.988425, 40.256577], [-73.989044, 40.253762], [-73.989116, 40.253436], [-73.99266, 40.23732], [-73.99343, 40.23037], [-73.99332, 40.22811], [-73.99513, 40.2235], [-73.99803, 40.21722], [-73.999255, 40.217744], [-74.00039, 40.21823], [-74.00286, 40.21789], [-74.01026, 40.21521], [-74.0141, 40.21509], [-74.014249, 40.21462], [-74.014345, 40.214316], [-74.015494, 40.21068], [-74.016175, 40.208523], [-74.01635, 40.20797], [-74.00973, 40.20649], [-74.00557, 40.20827], [-74.003394, 40.208044], [-74.00143, 40.20784], [-73.99979, 40.20759], [-74.00231, 40.20202], [-74.00461, 40.1962], [-74.0056, 40.19], [-74.00829, 40.18728], [-74.008441, 40.186649], [-74.00889, 40.18477], [-74.009486, 40.183369], [-74.011463, 40.178722], [-74.011855, 40.177799], [-74.01251, 40.17626], [-74.01284, 40.17346], [-74.0153, 40.16746], [-74.01541, 40.16126], [-74.01624, 40.15514], [-74.0181, 40.1494], [-74.01969, 40.14672], [-74.02101, 40.14052], [-74.02369, 40.1388], [-74.026, 40.12878], [-74.03028, 40.12226], [-74.030311, 40.122266], [-74.03345, 40.12285], [-74.03619, 40.12514], [-74.03876, 40.12566], [-74.042781, 40.128821], [-74.04493, 40.13051], [-74.0468, 40.13096], [-74.046776, 40.131335], [-74.04656, 40.13469], [-74.04354, 40.13938], [-74.043223, 40.140958], [-74.04316, 40.14127]]], [[[-74.02666, 40.339411], [-74.02627, 40.33917], [-74.026014, 40.338285], [-74.024545, 40.333199], [-74.02441, 40.33273], [-74.02427, 40.332421], [-74.02221, 40.32788], [-74.03356, 40.32395], [-74.04475, 40.32717], [-74.04579, 40.3334], [-74.04859, 40.33762], [-74.04025, 40.34268], [-74.03356, 40.34368], [-74.02666, 40.339411]]], [[[-74.065106, 40.311181], [-74.069083, 40.314861], [-74.071679, 40.317263], [-74.072, 40.31756], [-74.072019, 40.317654], [-74.072657, 40.320903], [-74.07315, 40.32341], [-74.07293, 40.323652], [-74.06783, 40.32926], [-74.05977, 40.32968], [-74.05286, 40.32441], [-74.050121, 40.316575], [-74.05007, 40.31643], [-74.05067, 40.3145], [-74.050935, 40.314367], [-74.053178, 40.313239], [-74.05407, 40.31279], [-74.05934, 40.31262], [-74.064427, 40.311281], [-74.06504, 40.31112], [-74.065106, 40.311181]]], [[[-74.083371, 40.352931], [-74.083214, 40.353167], [-74.08193, 40.35509], [-74.08185, 40.355128], [-74.08139, 40.355347], [-74.081134, 40.355469], [-74.07738, 40.35726], [-74.077203, 40.357277], [-74.0692, 40.35806], [-74.058535, 40.356758], [-74.05544, 40.35638], [-74.050788, 40.35304], [-74.05062, 40.35292], [-74.050619, 40.352875], [-74.050597, 40.352076], [-74.050582, 40.351515], [-74.050577, 40.351337], [-74.050532, 40.349671], [-74.050515, 40.349045], [-74.05051, 40.34886], [-74.050598, 40.348156], [-74.05106, 40.34447], [-74.05528, 40.34038], [-74.06213, 40.33762], [-74.062296, 40.337575], [-74.07112, 40.33515], [-74.074635, 40.335387], [-74.07557, 40.33545], [-74.080348, 40.336865], [-74.08121, 40.33712], [-74.083261, 40.339201], [-74.08533, 40.3413], [-74.08681, 40.34778], [-74.083371, 40.352931]]], [[[-74.281087, 40.244373], [-74.28405, 40.24499], [-74.290747, 40.249242], [-74.29476, 40.25179], [-74.293835, 40.25934], [-74.29339, 40.26297], [-74.291935, 40.26461], [-74.291668, 40.264911], [-74.28585, 40.27147], [-74.27197, 40.27565], [-74.265103, 40.273049], [-74.26212, 40.27192], [-74.25612, 40.26369], [-74.25501, 40.25643], [-74.255141, 40.256146], [-74.25844, 40.24898], [-74.26803, 40.2444], [-74.27617, 40.24335], [-74.281087, 40.244373]]]]}}, {"type": "Feature", "properties": {"area_id": 10936, "city": "Monmouth", "state": "NJ", "city_survey": false, "cat": "Non-Loaning Territory", "grade": null, "label": "Non-Loaning Territory", "res": true, "com": false, "ind": false, "holc_grade": null}, "geometry": {"type": "MultiPolygon", "coordinates": [[[[-74.024421, 40.356954], [-74.02557, 40.35581], [-74.03722, 40.35209], [-74.037439, 40.352315], [-74.049922, 40.365153], [-74.05093, 40.36619], [-74.05641, 40.36658], [-74.04682, 40.37069], [-74.03576, 40.37285], [-74.03157, 40.37441], [-74.01614, 40.3812], [-74.01057, 40.38166], [-73.99712, 40.38185], [-73.9775, 40.38348], [-73.976285, 40.380834], [-73.97608, 40.38039], [-73.976005, 40.380227], [-73.97484, 40.37769], [-73.974705, 40.370528], [-73.97462, 40.36599], [-73.976691, 40.365829], [-73.97939, 40.36562], [-73.98707, 40.36583], [-73.987389, 40.365761], [-73.99112, 40.36495], [-73.99447, 40.36307], [-73.994578, 40.363268], [-73.99809, 40.36971], [-74.00351, 40.3685], [-74.003937, 40.368286], [-74.01347, 40.36351], [-74.019087, 40.360392], [-74.02334, 40.35803], [-74.024421, 40.356954]]], [[[-74.04464, 40.41093], [-74.04841, 40.412146], [-74.05177, 40.41323], [-74.06959, 40.41632], [-74.074298, 40.416559], [-74.07452, 40.41657], [-74.07409, 40.41486], [-74.087262, 40.414979], [-74.08735, 40.41498], [-74.087365, 40.415293], [-74.087518, 40.418562], [-74.08752, 40.41861], [-74.094721, 40.421397], [-74.09509, 40.42154], [-74.103818, 40.425056], [-74.1043, 40.42525], [-74.106688, 40.42708], [-74.11214, 40.43126], [-74.111978, 40.431284], [-74.10929, 40.43168], [-74.10803, 40.43389], [-74.10578, 40.43523], [-74.10348, 40.43848], [-74.103607, 40.440068], [-74.103744, 40.441784], [-74.103783, 40.442277], [-74.1038, 40.44249], [-74.10232, 40.44416], [-74.09602, 40.44253], [-74.08176, 40.43686], [-74.07381, 40.43481], [-74.07233, 40.43055], [-74.0709, 40.43064], [-74.06526, 40.42684], [-74.06257, 40.42625], [-74.05643, 40.42296], [-74.05451, 40.42154], [-74.05095, 40.42116], [-74.04848, 40.42008], [-74.042835, 40.418372], [-74.03784, 40.41686], [-74.030797, 40.4157], [-74.029038, 40.415411], [-74.028943, 40.415395], [-74.02873, 40.41536], [-74.02031, 40.41392], [-74.01315, 40.41315], [-74.012959, 40.41306], [-74.00729, 40.41039], [-74.0028, 40.40964], [-74.002403, 40.409635], [-73.998322, 40.409585], [-73.99216, 40.40951], [-73.98356, 40.40546], [-73.97988, 40.402], [-73.97889, 40.39941], [-73.97785, 40.38847], [-73.981186, 40.389587], [-73.98421, 40.3906], [-73.98372, 40.39168], [-73.98635, 40.39248], [-73.988385, 40.3921], [-73.9886, 40.39206], [-73.988512, 40.394593], [-73.98844, 40.39669], [-73.990475, 40.397234], [-73.99048, 40.397235], [-73.99048843430624, 40.39723758630094], [-73.99282, 40.39786], [-73.992781, 40.397966], [-73.992258, 40.399398], [-73.991455, 40.401596], [-73.99123, 40.40221], [-73.9994, 40.40375], [-74.00132, 40.40538], [-74.0039, 40.40617], [-74.004459, 40.40634], [-74.005253, 40.406581], [-74.007028, 40.407121], [-74.009, 40.40772], [-74.009575, 40.407141], [-74.0107, 40.40601], [-74.01552, 40.40713], [-74.01498, 40.40859], [-74.01836, 40.408651], [-74.01996, 40.40868], [-74.01996, 40.408156], [-74.01996, 40.40738], [-74.02353, 40.40722], [-74.02397, 40.40859], [-74.024344, 40.40858], [-74.0255, 40.40855], [-74.026189, 40.405785], [-74.02627, 40.40546], [-74.02896, 40.40313], [-74.030363, 40.402867], [-74.033214, 40.402333], [-74.03323, 40.40233], [-74.040481, 40.408334], [-74.04201, 40.4096], [-74.04217, 40.41131], [-74.043093, 40.411168], [-74.04464, 40.41093]]], [[[-74.0141, 40.21509], [-74.01026, 40.21521], [-74.00286, 40.21789], [-74.00039, 40.21823], [-73.999255, 40.217744], [-73.99803, 40.21722], [-74.00143, 40.20784], [-74.003394, 40.208044], [-74.00557, 40.20827], [-74.00973, 40.20649], [-74.01635, 40.20797], [-74.016175, 40.208523], [-74.015494, 40.21068], [-74.014345, 40.214316], [-74.014249, 40.21462], [-74.0141, 40.21509]]], [[[-74.0794, 40.3025], [-74.079488, 40.302941], [-74.080323, 40.307106], [-74.08034, 40.30719], [-74.077631, 40.306691], [-74.07578, 40.30635], [-74.075754, 40.306359], [-74.068857, 40.308661], [-74.06838, 40.30882], [-74.06504, 40.31112], [-74.064427, 40.311281], [-74.05934, 40.31262], [-74.05407, 40.31279], [-74.053178, 40.313239], [-74.050935, 40.314367], [-74.05067, 40.3145], [-74.05007, 40.31643], [-74.04882, 40.316349], [-74.04758, 40.316269], [-74.04744, 40.31626], [-74.046156, 40.317352], [-74.04557, 40.31785], [-74.040859, 40.319665], [-74.04069, 40.31973], [-74.03625, 40.321648], [-74.03488, 40.32224], [-74.034308, 40.321228], [-74.030838, 40.315091], [-74.0306, 40.31467], [-74.030005, 40.3146], [-74.028199, 40.31439], [-74.027545, 40.314313], [-74.02452, 40.31396], [-74.01996, 40.30836], [-74.01382, 40.30505], [-74.013316, 40.304747], [-74.012252, 40.304108], [-74.00861, 40.30192], [-74.00796, 40.29941], [-74.007968, 40.2993], [-74.00818, 40.29619], [-74.00417, 40.29209], [-74.00812, 40.28954], [-74.01306, 40.28715], [-74.01519, 40.28715], [-74.014948, 40.286271], [-74.01404, 40.28297], [-74.01141, 40.28213], [-74.01015, 40.27615], [-74.02171, 40.27433], [-74.02459, 40.27299], [-74.02733, 40.27312], [-74.028418, 40.278168], [-74.0295, 40.28319], [-74.03115, 40.28298], [-74.031273, 40.283278], [-74.03171, 40.28434], [-74.032517, 40.284355], [-74.036, 40.28442], [-74.036, 40.28504], [-74.035686, 40.28509], [-74.03519, 40.28517], [-74.035217, 40.285591], [-74.035447, 40.289205], [-74.03545, 40.28926], [-74.03768, 40.29042], [-74.038158, 40.291709], [-74.03838, 40.292309], [-74.03844, 40.29247], [-74.051764, 40.291283], [-74.05615, 40.290892], [-74.073948, 40.289306], [-74.079047, 40.288852], [-74.07929, 40.28883], [-74.07886, 40.2915], [-74.078825, 40.291765], [-74.07836, 40.29527], [-74.0794, 40.3025]]], [[[-74.05352, 40.14534], [-74.05292, 40.14961], [-74.051532, 40.150557], [-74.05144, 40.15062], [-74.05109, 40.151763], [-74.050152, 40.154825], [-74.05012, 40.15493], [-74.05016, 40.155045], [-74.050184, 40.155114], [-74.05215, 40.16076], [-74.04963, 40.1613], [-74.04925, 40.1626], [-74.03866, 40.16523], [-74.04502, 40.16763], [-74.04557, 40.17304], [-74.04343, 40.17496], [-74.04283, 40.1771], [-74.041755, 40.177644], [-74.03795, 40.17957], [-74.03499, 40.17945], [-74.03159, 40.17857], [-74.02994, 40.17945], [-74.02994, 40.17656], [-74.02912, 40.17555], [-74.02304, 40.17521], [-74.01722, 40.17354], [-74.019156, 40.167872], [-74.01931, 40.16742], [-74.02156, 40.16759], [-74.026143, 40.167008], [-74.02715, 40.16688], [-74.027505, 40.166719], [-74.03225, 40.16457], [-74.032277, 40.164575], [-74.033937, 40.164904], [-74.03543, 40.1652], [-74.037785, 40.163328], [-74.03806, 40.16311], [-74.03998, 40.16034], [-74.04031, 40.15707], [-74.04031, 40.15259], [-74.0397, 40.14697], [-74.037329, 40.142123], [-74.03724, 40.14194], [-74.03718, 40.14073], [-74.037656, 40.140773], [-74.04316, 40.14127], [-74.043747, 40.141062], [-74.04612, 40.14022], [-74.046551, 40.140668], [-74.05012, 40.14438], [-74.053356, 40.145294], [-74.05352, 40.14534]]], [[[-74.05423, 40.104618], [-74.054407, 40.104762], [-74.05758, 40.10735], [-74.05676, 40.10957], [-74.05928, 40.11192], [-74.06464, 40.11499], [-74.063052, 40.119488], [-74.06249, 40.12108], [-74.061952, 40.120896], [-74.061054, 40.120589], [-74.06018, 40.12029], [-74.060095, 40.120421], [-74.053448, 40.130639], [-74.05238, 40.13228], [-74.05223, 40.132245], [-74.0468, 40.13096], [-74.04493, 40.13051], [-74.042781, 40.128821], [-74.03876, 40.12566], [-74.03619, 40.12514], [-74.03345, 40.12285], [-74.030311, 40.122266], [-74.03028, 40.12226], [-74.030338, 40.122149], [-74.03225, 40.11852], [-74.032268, 40.118086], [-74.032548, 40.11131], [-74.03276, 40.1062], [-74.033706, 40.102922], [-74.033745, 40.102789], [-74.034046, 40.101746], [-74.03414, 40.10142], [-74.038344, 40.103338], [-74.039774, 40.10399], [-74.039987, 40.104087], [-74.04475, 40.10626], [-74.05254, 40.10324], [-74.054225, 40.104614], [-74.05423, 40.104618]]], [[[-74.131764, 40.433233], [-74.13616, 40.43393], [-74.13681, 40.43631], [-74.1411, 40.436941], [-74.14932, 40.43815], [-74.14925, 40.438546], [-74.148811, 40.44105], [-74.14873, 40.44151], [-74.147958, 40.441472], [-74.14652, 40.4414], [-74.14756, 40.44257], [-74.1471, 40.44392], [-74.147565, 40.444488], [-74.14791, 40.44491], [-74.14854, 40.44827], [-74.147877, 40.449338], [-74.14718, 40.45046], [-74.13988, 40.45559], [-74.139583, 40.455753], [-74.139126, 40.456004], [-74.13753, 40.45688], [-74.1344, 40.45693], [-74.12799, 40.45359], [-74.1185, 40.45], [-74.11444, 40.44825], [-74.11417, 40.44616], [-74.11591, 40.44639], [-74.115889, 40.445668], [-74.11576, 40.4412], [-74.123324, 40.441493], [-74.124042, 40.441521], [-74.124737, 40.441548], [-74.1253, 40.44157], [-74.125387, 40.441537], [-74.127517, 40.440729], [-74.1287, 40.44028], [-74.129018, 40.439115], [-74.129047, 40.43901], [-74.129767, 40.436368], [-74.130081, 40.435218], [-74.13067, 40.43306], [-74.131764, 40.433233]]], [[[-74.212029, 40.423304], [-74.215984, 40.433324], [-74.21616, 40.43377], [-74.216214, 40.433801], [-74.224268, 40.438414], [-74.22482, 40.43873], [-74.232468, 40.444618], [-74.23464, 40.44629], [-74.22734, 40.45129], [-74.22422, 40.45192], [-74.223046, 40.451631], [-74.21834, 40.450475], [-74.21523, 40.44971], [-74.21106, 40.44879], [-74.20645, 40.44524], [-74.20645, 40.44349], [-74.20486, 40.44103], [-74.20612, 40.43852], [-74.21111, 40.43761], [-74.211596, 40.436836], [-74.211679, 40.436705], [-74.211707, 40.436661], [-74.21177, 40.43656], [-74.20855, 40.435927], [-74.208235, 40.435865], [-74.207551, 40.43573], [-74.20755, 40.43573], [-74.206954, 40.436183], [-74.20591, 40.436977], [-74.203737, 40.438629], [-74.203009, 40.439182], [-74.202939, 40.439236], [-74.20267, 40.43944], [-74.19677, 40.4403], [-74.19148, 40.44332], [-74.191344, 40.4435], [-74.191079, 40.443851], [-74.189788, 40.44556], [-74.189436, 40.446026], [-74.18836, 40.44745], [-74.187473, 40.44844], [-74.18611, 40.44996], [-74.185773, 40.452619], [-74.18573, 40.45296], [-74.183705, 40.455403], [-74.18267, 40.456653], [-74.18244, 40.45693], [-74.182148, 40.456998], [-74.17832, 40.45789], [-74.175201, 40.456819], [-74.17465, 40.45663], [-74.17292, 40.45374], [-74.17213, 40.45242], [-74.16516, 40.44867], [-74.164228, 40.448453], [-74.163788, 40.44835], [-74.15852, 40.447123], [-74.157964, 40.446993], [-74.15529, 40.44637], [-74.155771, 40.438376], [-74.15584, 40.43723], [-74.16423, 40.43752], [-74.17284, 40.43694], [-74.18085, 40.43256], [-74.187381, 40.42985], [-74.19143, 40.42817], [-74.19274, 40.42475], [-74.195141, 40.424448], [-74.204586, 40.42326], [-74.21166, 40.42237], [-74.21176, 40.422622], [-74.211822, 40.42278], [-74.212029, 40.423304]]], [[[-74.17747, 40.19867], [-74.18236, 40.20829], [-74.18313, 40.21424], [-74.17405, 40.21228], [-74.16745, 40.21267], [-74.16205, 40.21287], [-74.162843, 40.202121], [-74.16291, 40.20122], [-74.16257, 40.199], [-74.16051, 40.19743], [-74.15657, 40.19625], [-74.16796, 40.18781], [-74.168641, 40.188443], [-74.17704, 40.19625], [-74.17747, 40.19867]]], [[[-74.17353, 40.29127], [-74.174101, 40.29286], [-74.1755, 40.29676], [-74.17531, 40.296787], [-74.17088, 40.29741], [-74.16231, 40.29794], [-74.15828, 40.28284], [-74.17062, 40.27866], [-74.17362, 40.28715], [-74.173616, 40.287352], [-74.173563, 40.289775], [-74.17353, 40.29127]]]]}}]}