{"type": "FeatureCollection", "features": [{"type": "Feature", "geometry": {"type": "Point", "coordinates": [-80.888056, 35.716944]}, "properties": {"facility_name": "ABT INC", "industry": null, "tri_facility_id": "28166BTNCXPOBOX"}}, {"type": "Feature", "geometry": {"type": "Point", "coordinates": [-80.88944444444445, 35.71388888888889]}, "properties": {"facility_name": "KEYSTONE POWDERED METAL CO", "industry": null, "tri_facility_id": "28166NGNRD250OL"}}, {"type": "Feature", "geometry": {"type": "Point", "coordinates": [-80.88833333333334, 35.71416666666667]}, "properties": {"facility_name": "THOMASVILLE FURN INDUSTRIES INC CENTRAL FRAME #4", "industry": null, "tri_facility_id": "28166THMSV350OL"}}, {"type": "Feature", "geometry": {"type": "Point", "coordinates": [-80.84888888888888, 35.816944444444445]}, "properties": {"facility_name": "HEXPOL COMPOUNDING NC INC.", "industry": null, "tri_facility_id": "28625DVNCD280CR"}}, {"type": "Feature", "geometry": {"type": "Point", "coordinates": [-80.88111111111111, 35.77472222222222]}, "properties": {"facility_name": "ARMSTRONG HARDWOOD FLOORING CO", "industry": null, "tri_facility_id": "28677BRCHR755WA"}}, {"type": "Feature", "geometry": {"type": "Point", "coordinates": [-80.916667, 35.7875]}, "properties": {"facility_name": "BURLINGTON INDUSTRIES INC STATESVILLE PLANT", "industry": null, "tri_facility_id": "28677BRLNG201PH"}}, {"type": "Feature", "geometry": {"type": "Point", "coordinates": [-80.883333, 35.783333]}, "properties": {"facility_name": "ATHENS FURNITURE INDUSTRIES INC", "industry": null, "tri_facility_id": "28677BRNHR529MO"}}, {"type": "Feature", "geometry": {"type": "Point", "coordinates": [-80.875556, 35.777222]}, "properties": {"facility_name": "BARTLETT MILLING CO", "industry": null, "tri_facility_id": "28677BRTLT701SC"}}, {"type": "Feature", "geometry": {"type": "Point", "coordinates": [-80.866417, 35.775045]}, "properties": {"facility_name": "BASSETT FURNITURE INDUSTRIES INC OF NC", "industry": null, "tri_facility_id": "28677BSSTT1010S"}}, {"type": "Feature", "geometry": {"type": "Point", "coordinates": [-80.85, 35.8]}, "properties": {"facility_name": "CLARK EQUIPMENT DBA DOOSAN INFRACORE CONSTRUCTION EQUIPMENT", "industry": null, "tri_facility_id": "28677CLRKQI77I4"}}, {"type": "Feature", "geometry": {"type": "Point", "coordinates": [-80.897778, 35.776389]}, "properties": {"facility_name": "CLARK SCHWEBEL CORP", "industry": null, "tri_facility_id": "28677CLRKS535CO"}}, {"type": "Feature", "geometry": {"type": "Point", "coordinates": [-80.919444, 35.7875]}, "properties": {"facility_name": "CARNATION CO", "industry": null, "tri_facility_id": "28677CRNTN1700W"}}, {"type": "Feature", "geometry": {"type": "Point", "coordinates": [-80.959722, 35.779167]}, "properties": {"facility_name": "FURST-MCNESS CO", "industry": null, "tri_facility_id": "28677FRSTMROUTE"}}, {"type": "Feature", "geometry": {"type": "Point", "coordinates": [-80.928611, 35.794167]}, "properties": {"facility_name": "HUNT CORP", "industry": null, "tri_facility_id": "28677HNTMN2301S"}}, {"type": "Feature", "geometry": {"type": "Point", "coordinates": [-80.890278, 35.775556]}, "properties": {"facility_name": "J C STEELE & SONS INC", "industry": null, "tri_facility_id": "28677JCSTL710SM"}}, {"type": "Feature", "geometry": {"type": "Point", "coordinates": [-80.93464, 35.792938]}, "properties": {"facility_name": "KEWAUNEE SCIENTIFIC CORP.", "industry": null, "tri_facility_id": "28677KWNSC2700W"}}, {"type": "Feature", "geometry": {"type": "Point", "coordinates": [-80.824167, 35.760278]}, "properties": {"facility_name": "MERCHANTS METALS", "industry": null, "tri_facility_id": "28677MRCHNFANJO"}}, {"type": "Feature", "geometry": {"type": "Point", "coordinates": [-80.944444, 35.808056]}, "properties": {"facility_name": "3A COMPOSITES USA, INC.", "industry": null, "tri_facility_id": "28677NTRNTHIGHW"}}, {"type": "Feature", "geometry": {"type": "Point", "coordinates": [-80.917222, 35.788333]}, "properties": {"facility_name": "INTERNATIONAL PAPER CO CONTAINER DIV", "industry": null, "tri_facility_id": "28677NTRNTPOB58"}}, {"type": "Feature", "geometry": {"type": "Point", "coordinates": [-80.9125, 35.843889]}, "properties": {"facility_name": "POLYDRAIN INC", "industry": null, "tri_facility_id": "28677PLYDRMURDO"}}, {"type": "Feature", "geometry": {"type": "Point", "coordinates": [-80.823722, 35.7624]}, "properties": {"facility_name": "LPFP-STATESVILLE  BRANCH 0118", "industry": null, "tri_facility_id": "28677RDLLF180YF"}}, {"type": "Feature", "geometry": {"type": "Point", "coordinates": [-80.8475, 35.77027777777778]}, "properties": {"facility_name": "RENE COMPOSITE MATERIALS CORP", "industry": null, "tri_facility_id": "28677RNCMP1405I"}}, {"type": "Feature", "geometry": {"type": "Point", "coordinates": [-80.9375, 35.804167]}, "properties": {"facility_name": "AEROQUIP CORP", "industry": null, "tri_facility_id": "28677RQPCR151WA"}}, {"type": "Feature", "geometry": {"type": "Point", "coordinates": [-80.950833, 35.751944]}, "properties": {"facility_name": "COMMERCIAL VEHICLE GROUP", "industry": null, "tri_facility_id": "28677SCCLMRTE15"}}, {"type": "Feature", "geometry": {"type": "Point", "coordinates": [-80.848611, 35.832778]}, "properties": {"facility_name": "DENSO MANUFACTURING NORTH CAROLINA INC. - STATESVILLE PLANT", "industry": null, "tri_facility_id": "28677SMNRT1804C"}}, {"type": "Feature", "geometry": {"type": "Point", "coordinates": [-80.855556, 35.7705]}, "properties": {"facility_name": "SOUTHERN STATES COOP INC", "industry": null, "tri_facility_id": "28677STHRNHWY70"}}, {"type": "Feature", "geometry": {"type": "Point", "coordinates": [-80.855556, 35.765833]}, "properties": {"facility_name": "FARLEY INC SOUTHERN FASTENING SYSTEMS DIV", "industry": null, "tri_facility_id": "28677STHRNPOBOX"}}, {"type": "Feature", "geometry": {"type": "Point", "coordinates": [-80.923056, 35.793889]}, "properties": {"facility_name": "THONET IND", "industry": null, "tri_facility_id": "28677THNTN2001S"}}, {"type": "Feature", "geometry": {"type": "Point", "coordinates": [-80.85, 35.75]}, "properties": {"facility_name": "SHERWIN-WILLIAMS CO", "industry": null, "tri_facility_id": "28677THVLS1931S"}}, {"type": "Feature", "geometry": {"type": "Point", "coordinates": [-80.9125, 35.843889]}, "properties": {"facility_name": "WR GRACE & CO CONN", "industry": null, "tri_facility_id": "28677WRGRCHIGHW"}}, {"type": "Feature", "geometry": {"type": "Point", "coordinates": [-80.864722, 35.768056]}, "properties": {"facility_name": "WARLICK PAINT CO INC", "industry": null, "tri_facility_id": "28677WRLCK945MO"}}, {"type": "Feature", "geometry": {"type": "Point", "coordinates": [-80.922343, 35.793505]}, "properties": {"facility_name": "O W SLANE GLASS CO INC", "industry": null, "tri_facility_id": "28677WSLNG606ME"}}, {"type": "Feature", "geometry": {"type": "Point", "coordinates": [-80.95833333333334, 35.76]}, "properties": {"facility_name": "INTERCRAFT INDUSTRIES INC BURNES OF BOSTON", "industry": null, "tri_facility_id": "28687NTRCR135IN"}}, {"type": "Feature", "geometry": {"type": "Point", "coordinates": [-80.923889, 35.7875]}, "properties": {"facility_name": "VISHAY ROEDERSTEIN ELECTRONICS INC", "industry": null, "tri_facility_id": "28687RDRST2100W"}}]}