{"type": "FeatureCollection", "features": [{"type": "Feature", "geometry": {"type": "Point", "coordinates": [-75.831389, 42.076111]}, "properties": {"facility_name": "OCEAN STEEL CORP", "industry": null, "tri_facility_id": "13748CNRNCSHAWR"}}, {"type": "Feature", "geometry": {"type": "Point", "coordinates": [-75.82, 42.063889]}, "properties": {"facility_name": "FOAMEX LP", "industry": null, "tri_facility_id": "13748RCTCL100CL"}}, {"type": "Feature", "geometry": {"type": "Point", "coordinates": [-76.041667, 42.1]}, "properties": {"facility_name": "IBM CORP", "industry": null, "tri_facility_id": "13760BMXXX1701N"}}, {"type": "Feature", "geometry": {"type": "Point", "coordinates": [-76.0375, 42.091667]}, "properties": {"facility_name": "CATALYST MANUFACTURING SERVICES  ENDICOTT", "industry": null, "tri_facility_id": "13760CHNNG2507W"}}, {"type": "Feature", "geometry": {"type": "Point", "coordinates": [-76.015278, 42.109444]}, "properties": {"facility_name": "AMPHENOL INTERCONNECT PRODSCO", "industry": null, "tri_facility_id": "13760MPHNL20VAL"}}, {"type": "Feature", "geometry": {"type": "Point", "coordinates": [-76.04194444444444, 42.106944444444444]}, "properties": {"facility_name": "I3 ELECTRONICS INC", "industry": null, "tri_facility_id": "13760NDCTT1701N"}}, {"type": "Feature", "geometry": {"type": "Point", "coordinates": [-76.041306, 42.106308]}, "properties": {"facility_name": "ENDICOTT FORGING INC", "industry": null, "tri_facility_id": "13760NDCTT1901N"}}, {"type": "Feature", "geometry": {"type": "Point", "coordinates": [-76.03555555555555, 42.10916666666667]}, "properties": {"facility_name": "ENDICOTT RESEARCH GROUP", "industry": null, "tri_facility_id": "13760NDCTT2601W"}}, {"type": "Feature", "geometry": {"type": "Point", "coordinates": [-76.088056, 42.114722]}, "properties": {"facility_name": "EJ FOOTWEAR CORP", "industry": null, "tri_facility_id": "13760NDCTT301GL"}}, {"type": "Feature", "geometry": {"type": "Point", "coordinates": [-75.952778, 42.1125]}, "properties": {"facility_name": "FILM & PAPER CORP OF AMERICA", "industry": null, "tri_facility_id": "13790FLMPP25OZA"}}, {"type": "Feature", "geometry": {"type": "Point", "coordinates": [-75.972222, 42.1125]}, "properties": {"facility_name": "BAE SYSTEMS CONTROLS INC", "industry": null, "tri_facility_id": "13790GNRLL600MA"}}, {"type": "Feature", "geometry": {"type": "Point", "coordinates": [-76.050444, 42.0981]}, "properties": {"facility_name": "ENDICOTT JOHNSON CORP W L JOHNSON", "industry": null, "tri_facility_id": "13790NDCTTBRIGH"}}, {"type": "Feature", "geometry": {"type": "Point", "coordinates": [-76.050444, 42.0981]}, "properties": {"facility_name": "ENDICOTT JOHNSON CORP PARACORD/SUNRISE", "industry": null, "tri_facility_id": "13790NDCTTLESTE"}}, {"type": "Feature", "geometry": {"type": "Point", "coordinates": [-75.972222, 42.1125]}, "properties": {"facility_name": "US AIR FORCE PLANT 59", "industry": null, "tri_facility_id": "13790SDDSF600MA"}}, {"type": "Feature", "geometry": {"type": "Point", "coordinates": [-75.97472222222223, 42.111666666666665]}, "properties": {"facility_name": "AES WESTOVER", "industry": null, "tri_facility_id": "13790SWSTV720RI"}}, {"type": "Feature", "geometry": {"type": "Point", "coordinates": [-75.958333, 42.116667]}, "properties": {"facility_name": "INTELICOAT TECHNOLOGIES AZON LLC", "industry": null, "tri_facility_id": "13790ZNCRP720AZ"}}, {"type": "Feature", "geometry": {"type": "Point", "coordinates": [-75.833333, 42.094444]}, "properties": {"facility_name": "DOVER ELECTRONICS CO", "industry": null, "tri_facility_id": "13795DVRLCKIRKW"}}, {"type": "Feature", "geometry": {"type": "Point", "coordinates": [-75.81416666666667, 42.088055555555556]}, "properties": {"facility_name": "PENGUIN GROUP USA", "industry": null, "tri_facility_id": "13795PNGNP1GROS"}}, {"type": "Feature", "geometry": {"type": "Point", "coordinates": [-75.99361111111111, 42.105000000000004]}, "properties": {"facility_name": "EXXONMOBIL OIL CORP BINGHAMTON TERMINAL", "industry": null, "tri_facility_id": "13850MBLLB3301O"}}, {"type": "Feature", "geometry": {"type": "Point", "coordinates": [-76.05, 42.091667]}, "properties": {"facility_name": "AMERICAN BOARD CO", "industry": null, "tri_facility_id": "13850MRCNB200ST"}}, {"type": "Feature", "geometry": {"type": "Point", "coordinates": [-75.9975, 42.10611111111111]}, "properties": {"facility_name": "AMERADA HESS CORP VESTAL TERMINAL", "industry": null, "tri_facility_id": "13850MRDHS440PR"}}, {"type": "Feature", "geometry": {"type": "Point", "coordinates": [-75.958333, 42.090278]}, "properties": {"facility_name": "ATLANTIC DESIGN CO INC", "industry": null, "tri_facility_id": "13850TLNTC120PL"}}, {"type": "Feature", "geometry": {"type": "Point", "coordinates": [-75.904167, 42.105278]}, "properties": {"facility_name": "C H THOMPSON CO INC", "industry": null, "tri_facility_id": "13901CHTHM8591E"}}, {"type": "Feature", "geometry": {"type": "Point", "coordinates": [-75.88786, 42.14681]}, "properties": {"facility_name": "ELLIOTT MANUFACTURING", "industry": null, "tri_facility_id": "13901CLNKC11BEC"}}, {"type": "Feature", "geometry": {"type": "Point", "coordinates": [-75.89750000000001, 42.111666666666665]}, "properties": {"facility_name": "EMS TECHNOLOGIES SERVICES LLC", "industry": null, "tri_facility_id": "13901MSTCH71FRE"}}, {"type": "Feature", "geometry": {"type": "Point", "coordinates": [-75.90861111111111, 42.099444444444444]}, "properties": {"facility_name": "MATCO TECHNOLOGIES", "industry": null, "tri_facility_id": "13901MTCTC151CT"}}, {"type": "Feature", "geometry": {"type": "Point", "coordinates": [-75.883611, 42.147222]}, "properties": {"facility_name": "TRIPLE CITIES METAL FINISHING CORP", "industry": null, "tri_facility_id": "13901TRPLC4NOWL"}}, {"type": "Feature", "geometry": {"type": "Point", "coordinates": [-75.8947, 42.1036]}, "properties": {"facility_name": "EBONEX INC", "industry": null, "tri_facility_id": "13902BNXNC305CO"}}, {"type": "Feature", "geometry": {"type": "Point", "coordinates": [-75.828056, 42.092778]}, "properties": {"facility_name": "CAE-LINK CORP FLIGHT SIMULATION DIV", "industry": null, "tri_facility_id": "13902CLNKFBROOM"}}, {"type": "Feature", "geometry": {"type": "Point", "coordinates": [-75.91250000000001, 42.10444444444445]}, "properties": {"facility_name": "EMERSON NETWORK POWER SURGE PROTECTION INC", "industry": null, "tri_facility_id": "13902CNTRL328WA"}}, {"type": "Feature", "geometry": {"type": "Point", "coordinates": [-75.907552, 42.105443]}, "properties": {"facility_name": "I3 ASSEMBLY LLC", "industry": null, "tri_facility_id": "13902LNDRC100EL"}}, {"type": "Feature", "geometry": {"type": "Point", "coordinates": [-75.908931, 42.103566]}, "properties": {"facility_name": "LANDER CO INC", "industry": null, "tri_facility_id": "13902LNDRC141CH"}}, {"type": "Feature", "geometry": {"type": "Point", "coordinates": [-75.927222, 42.108889]}, "properties": {"facility_name": "KODAK POLYCHROME GRAPHICS CO LTD", "industry": null, "tri_facility_id": "13902NTCMG40CHA"}}, {"type": "Feature", "geometry": {"type": "Point", "coordinates": [-75.904722, 42.0925]}, "properties": {"facility_name": "HP HOOD LLC", "industry": null, "tri_facility_id": "13903CRWLY145CO"}}, {"type": "Feature", "geometry": {"type": "Point", "coordinates": [-75.87444444444444, 42.09916666666667]}, "properties": {"facility_name": "MCINTOSH LABORATORY INC.", "industry": null, "tri_facility_id": "13903MCNTS2CHAM"}}, {"type": "Feature", "geometry": {"type": "Point", "coordinates": [-75.874722, 42.1]}, "properties": {"facility_name": "DOVER ELECTRONICS CO", "industry": null, "tri_facility_id": "13903NVRSL498CO"}}, {"type": "Feature", "geometry": {"type": "Point", "coordinates": [-75.9389, 42.1761]}, "properties": {"facility_name": "GJC LTD INC", "industry": null, "tri_facility_id": "13903TJCLT6EMMA"}}, {"type": "Feature", "geometry": {"type": "Point", "coordinates": [-75.831, 42.1036]}, "properties": {"facility_name": "FRITO - LAY INC.", "industry": null, "tri_facility_id": "13904FRTLYCOLES"}}, {"type": "Feature", "geometry": {"type": "Point", "coordinates": [-75.89194444444445, 42.111666666666665]}, "properties": {"facility_name": "AMREX CHEMICAL CO INC", "industry": null, "tri_facility_id": "13904MRXCH117EF"}}, {"type": "Feature", "geometry": {"type": "Point", "coordinates": [-75.891111, 42.12]}, "properties": {"facility_name": "SYSTEMS MANUFACTURING CORP", "industry": null, "tri_facility_id": "13904SYSTM13BRO"}}, {"type": "Feature", "geometry": {"type": "Point", "coordinates": [-75.82972222222222, 42.1025]}, "properties": {"facility_name": "TRIPLE CITIES METAL FINISHING CORP", "industry": null, "tri_facility_id": "13904TRPLC349IN"}}, {"type": "Feature", "geometry": {"type": "Point", "coordinates": [-75.895177, 42.110339]}, "properties": {"facility_name": "AGWAY INC BINGHAMTON FEED MILL", "industry": null, "tri_facility_id": "13905GWYNC4450M"}}, {"type": "Feature", "geometry": {"type": "Point", "coordinates": [-75.920833, 42.104167]}, "properties": {"facility_name": "E H TITCHENER & CO", "industry": null, "tri_facility_id": "13905HTTCH67CLI"}}, {"type": "Feature", "geometry": {"type": "Point", "coordinates": [-75.93083333333334, 42.115]}, "properties": {"facility_name": "AMETEK PDS BINGHAMTON", "industry": null, "tri_facility_id": "13905MTKRS33LEW"}}, {"type": "Feature", "geometry": {"type": "Point", "coordinates": [-75.94472222222223, 42.11194444444445]}, "properties": {"facility_name": "RAMP INDUSTRIES", "industry": null, "tri_facility_id": "13905RMPND1NFLR"}}, {"type": "Feature", "geometry": {"type": "Point", "coordinates": [-75.9437, 42.1114]}, "properties": {"facility_name": "SPECIAL PRODS MFG INC", "industry": null, "tri_facility_id": "13905SPCLP6EMMA"}}]}