{"type": "FeatureCollection", "features": [{"type": "Feature", "properties": {"area_id": 10414, "city": "DeLand", "state": "FL", "city_survey": false, "cat": "Business Section", "grade": null, "label": "Business Section", "res": false, "com": true, "ind": false, "holc_grade": null}, "geometry": {"type": "Polygon", "coordinates": [[[-81.2997, 29.02954], [-81.2997, 29.02825], [-81.30154, 29.02829], [-81.30146, 29.02535], [-81.30539, 29.02531], [-81.30541, 29.02622], [-81.30549, 29.03005], [-81.30316, 29.03009], [-81.30316, 29.02953], [-81.30087, 29.02954], [-81.2997, 29.02954]]]}}, {"type": "Feature", "properties": {"area_id": 10416, "city": "DeLand", "state": "FL", "city_survey": false, "cat": "Fair White Residential Section", "grade": null, "label": "Fair White Residential Section", "res": true, "com": false, "ind": false, "holc_grade": null}, "geometry": {"type": "MultiPolygon", "coordinates": [[[[-81.2953, 29.03357], [-81.29541, 29.03551], [-81.29563, 29.03919], [-81.3029, 29.03902], [-81.302999, 29.042826], [-81.303, 29.04285], [-81.292617, 29.042967], [-81.29146, 29.04298], [-81.29119, 29.03554], [-81.29112, 29.0336], [-81.2953, 29.03357]]], [[[-81.320362, 29.038821], [-81.32039, 29.03882], [-81.32051, 29.04263], [-81.30811, 29.04278], [-81.308108, 29.04275], [-81.30781, 29.03907], [-81.320362, 29.038821]]], [[[-81.32005, 29.02623], [-81.319992, 29.02623], [-81.319525, 29.02623], [-81.312223, 29.02623], [-81.31161, 29.02623], [-81.31159, 29.02271], [-81.31257, 29.0227], [-81.31259, 29.02059], [-81.3118, 29.02057], [-81.31158, 29.01724], [-81.31131, 29.01724], [-81.31127, 29.013617], [-81.31127, 29.0136], [-81.31967, 29.01348], [-81.32005, 29.02623]]]]}}, {"type": "Feature", "properties": {"area_id": 10417, "city": "DeLand", "state": "FL", "city_survey": false, "cat": "Good White Residential Section", "grade": null, "label": "Good White Residential Section", "res": true, "com": false, "ind": false, "holc_grade": null}, "geometry": {"type": "MultiPolygon", "coordinates": [[[[-81.295175, 29.029982], [-81.29103, 29.03002], [-81.2909, 29.02773], [-81.295118, 29.027692], [-81.29972, 29.02765], [-81.2997, 29.02825], [-81.2997, 29.02954], [-81.29976, 29.02994], [-81.295175, 29.029982]]], [[[-81.312223, 29.02623], [-81.319525, 29.02623], [-81.319992, 29.02623], [-81.32005, 29.02623], [-81.320084, 29.027932], [-81.32023, 29.035266], [-81.32023, 29.03527], [-81.32023, 29.035274], [-81.32039, 29.03882], [-81.320362, 29.038821], [-81.30781, 29.03907], [-81.308108, 29.04275], [-81.30811, 29.04278], [-81.303904, 29.042838], [-81.303, 29.04285], [-81.302999, 29.042826], [-81.3029, 29.03902], [-81.29563, 29.03919], [-81.29541, 29.03551], [-81.29945, 29.03546], [-81.299424, 29.033561], [-81.29941, 29.03258], [-81.30339, 29.03262], [-81.30317, 29.03078], [-81.30316, 29.03009], [-81.30549, 29.03005], [-81.30541, 29.02622], [-81.307496, 29.026223], [-81.31161, 29.02623], [-81.312223, 29.02623]]]]}}, {"type": "Feature", "properties": {"area_id": 10415, "city": "DeLand", "state": "FL", "city_survey": false, "cat": "Negro Section", "grade": null, "label": "Negro Section", "res": true, "com": false, "ind": false, "holc_grade": null}, "geometry": {"type": "MultiPolygon", "coordinates": [[[[-81.299424, 29.033561], [-81.29945, 29.03546], [-81.29541, 29.03551], [-81.2953, 29.03357], [-81.29519, 29.03185], [-81.295254, 29.031849], [-81.2994, 29.03179], [-81.29941, 29.03258], [-81.299424, 29.033561]]], [[[-81.30317, 29.03078], [-81.30094, 29.03077], [-81.30087, 29.02954], [-81.30316, 29.02953], [-81.30316, 29.03009], [-81.30317, 29.03078]]], [[[-81.31259, 29.02059], [-81.31257, 29.0227], [-81.31159, 29.02271], [-81.30738, 29.02277], [-81.30725, 29.01735], [-81.31131, 29.01724], [-81.31158, 29.01724], [-81.3118, 29.02057], [-81.31259, 29.02059]]]]}}, {"type": "Feature", "properties": {"area_id": 10419, "city": "DeLand", "state": "FL", "city_survey": false, "cat": "Scattered Dwellings", "grade": null, "label": "Scattered Dwellings", "res": true, "com": false, "ind": false, "holc_grade": null}, "geometry": {"type": "MultiPolygon", "coordinates": [[[[-81.31127, 29.0136], [-81.31127, 29.013617], [-81.31131, 29.01724], [-81.30725, 29.01735], [-81.30738, 29.02277], [-81.31159, 29.02271], [-81.31161, 29.02623], [-81.307496, 29.026223], [-81.30541, 29.02622], [-81.30549, 29.03005], [-81.30316, 29.03009], [-81.30316, 29.02953], [-81.30087, 29.02954], [-81.30094, 29.03077], [-81.30317, 29.03078], [-81.30339, 29.03262], [-81.29941, 29.03258], [-81.2994, 29.03179], [-81.295254, 29.031849], [-81.29519, 29.03185], [-81.2953, 29.03357], [-81.29112, 29.0336], [-81.29119, 29.03554], [-81.28291, 29.03554], [-81.282904, 29.03554], [-81.27475, 29.0358], [-81.27439, 29.02829], [-81.282703, 29.02825], [-81.28271, 29.02825], [-81.282534, 29.019549], [-81.282528, 29.019275], [-81.282527, 29.019226], [-81.28242, 29.01395], [-81.283032, 29.013943], [-81.284418, 29.013926], [-81.284751, 29.013922], [-81.284843, 29.013921], [-81.287681, 29.013886], [-81.302957, 29.013701], [-81.31127, 29.0136]], [[-81.295175, 29.029982], [-81.29976, 29.02994], [-81.2997, 29.02954], [-81.2997, 29.02825], [-81.29972, 29.02765], [-81.295118, 29.027692], [-81.2909, 29.02773], [-81.29103, 29.03002], [-81.295175, 29.029982]]], [[[-81.32005, 29.02623], [-81.31967, 29.01348], [-81.323791, 29.013359], [-81.35108, 29.01256], [-81.355118, 29.024263], [-81.35863, 29.03444], [-81.324416, 29.03518], [-81.32023, 29.03527], [-81.32023, 29.035269], [-81.32023, 29.035266], [-81.320084, 29.027932], [-81.32005, 29.02623]]]]}}]}