{"type": "FeatureCollection", "features": [{"type": "Feature", "properties": {"area_id": 5172, "city": "Schenectady", "state": "NY", "city_survey": true, "cat": "Best", "grade": "A", "label": "A1", "res": true, "com": false, "ind": false, "holc_grade": "A"}, "geometry": {"type": "Polygon", "coordinates": [[[-73.94936, 42.82877], [-73.95171, 42.82901], [-73.95367, 42.82911], [-73.95676, 42.8292], [-73.95993, 42.82928], [-73.95893, 42.83108], [-73.95899, 42.83147], [-73.9586, 42.83162], [-73.95522, 42.8316], [-73.95183, 42.83132], [-73.94936, 42.82877]]]}}, {"type": "Feature", "properties": {"area_id": 5188, "city": "Schenectady", "state": "NY", "city_survey": true, "cat": "Best", "grade": "A", "label": "A2", "res": true, "com": false, "ind": false, "holc_grade": "A"}, "geometry": {"type": "Polygon", "coordinates": [[[-73.92444, 42.81649], [-73.9234, 42.81778], [-73.92283, 42.81925], [-73.92033, 42.8186], [-73.91952, 42.81982], [-73.91596, 42.81888], [-73.91691, 42.81689], [-73.91707, 42.81623], [-73.91819, 42.81475], [-73.91933, 42.81379], [-73.92233, 42.81487], [-73.92259, 42.81449], [-73.92506, 42.81541], [-73.92444, 42.81649]]]}}, {"type": "Feature", "properties": {"area_id": 5193, "city": "Schenectady", "state": "NY", "city_survey": true, "cat": "Best", "grade": "A", "label": "A3", "res": true, "com": false, "ind": false, "holc_grade": "A"}, "geometry": {"type": "Polygon", "coordinates": [[[-73.892766, 42.811513], [-73.89842, 42.81171], [-73.89821, 42.81323], [-73.89774, 42.81386], [-73.89735, 42.81491], [-73.89942, 42.81532], [-73.89903, 42.81629], [-73.89828, 42.81729], [-73.89978, 42.81744], [-73.9012, 42.81748], [-73.89913, 42.82042], [-73.89493, 42.82032], [-73.89486, 42.81825], [-73.89568, 42.817], [-73.8965, 42.81655], [-73.89692, 42.81608], [-73.89254, 42.81553], [-73.892582, 42.814324], [-73.89268, 42.81151], [-73.892766, 42.811513]]]}}, {"type": "Feature", "properties": {"area_id": 5197, "city": "Schenectady", "state": "NY", "city_survey": true, "cat": "Best", "grade": "A", "label": "A4", "res": true, "com": false, "ind": false, "holc_grade": "A"}, "geometry": {"type": "Polygon", "coordinates": [[[-73.90013, 42.80286], [-73.90009, 42.802888], [-73.900068, 42.802903], [-73.89832, 42.80413], [-73.89699, 42.80574], [-73.89882, 42.80652], [-73.90022, 42.80715], [-73.900931, 42.807357], [-73.90146, 42.80751], [-73.90291, 42.81388], [-73.90398, 42.81452], [-73.90621, 42.81555], [-73.9054, 42.81806], [-73.905395, 42.818058], [-73.90477, 42.81783], [-73.904208, 42.817768], [-73.903259, 42.817663], [-73.9017, 42.81749], [-73.9012, 42.81748], [-73.89978, 42.81744], [-73.89828, 42.81729], [-73.89903, 42.81629], [-73.89942, 42.81532], [-73.89735, 42.81491], [-73.89774, 42.81386], [-73.89821, 42.81323], [-73.89842, 42.81171], [-73.892766, 42.811513], [-73.89268, 42.81151], [-73.89286, 42.8069], [-73.892941, 42.806911], [-73.89407, 42.80706], [-73.89496, 42.80703], [-73.89592, 42.80675], [-73.89603, 42.80633], [-73.89635, 42.8058], [-73.89632, 42.80431], [-73.899231, 42.802438], [-73.89929, 42.8024], [-73.900113, 42.802851], [-73.90013, 42.80286]]]}}, {"type": "Feature", "properties": {"area_id": 5192, "city": "Schenectady", "state": "NY", "city_survey": true, "cat": "Best", "grade": "A", "label": "A5", "res": true, "com": false, "ind": false, "holc_grade": "A"}, "geometry": {"type": "Polygon", "coordinates": [[[-73.87856, 42.79416], [-73.878695, 42.793641], [-73.87995, 42.7888], [-73.88648, 42.78932], [-73.89011, 42.78998], [-73.88958, 42.79416], [-73.88979, 42.79571], [-73.89953, 42.80133], [-73.89896, 42.80222], [-73.89929, 42.8024], [-73.899231, 42.802438], [-73.89632, 42.80431], [-73.89625, 42.80384], [-73.89386, 42.80248], [-73.893141, 42.802423], [-73.89286, 42.8024], [-73.893, 42.8], [-73.89065, 42.79843], [-73.887207, 42.796217], [-73.8869, 42.79602], [-73.88633, 42.79568], [-73.87856, 42.79416]]]}}, {"type": "Feature", "properties": {"area_id": 5171, "city": "Schenectady", "state": "NY", "city_survey": true, "cat": "Still Desirable", "grade": "B", "label": "B1", "res": true, "com": false, "ind": false, "holc_grade": "B"}, "geometry": {"type": "Polygon", "coordinates": [[[-73.973317, 42.823703], [-73.9726, 42.825], [-73.97176, 42.82665], [-73.97072, 42.82818], [-73.97049, 42.82864], [-73.97165, 42.8292], [-73.977173, 42.831086], [-73.97815, 42.83142], [-73.976327, 42.833439], [-73.975457, 42.834404], [-73.97435, 42.83563], [-73.97209, 42.83626], [-73.971578, 42.835646], [-73.97078, 42.83469], [-73.970676, 42.834098], [-73.97064, 42.83389], [-73.970127, 42.833142], [-73.96992, 42.83284], [-73.969585, 42.832271], [-73.96906, 42.83138], [-73.969042, 42.831385], [-73.96511, 42.83243], [-73.96449, 42.83254], [-73.96288, 42.83336], [-73.96276, 42.8328], [-73.96036, 42.83339], [-73.95991, 42.83217], [-73.95634, 42.83264], [-73.95323, 42.83269], [-73.95183, 42.83132], [-73.95522, 42.8316], [-73.9586, 42.83162], [-73.95899, 42.83147], [-73.95893, 42.83108], [-73.95993, 42.82928], [-73.96068, 42.82794], [-73.95938, 42.82757], [-73.96018, 42.82502], [-73.95786, 42.82256], [-73.958064, 42.822333], [-73.95822, 42.82216], [-73.960423, 42.822001], [-73.96113, 42.82195], [-73.96246, 42.82234], [-73.96398, 42.82275], [-73.96463, 42.82288], [-73.96591, 42.82293], [-73.96698, 42.82312], [-73.96763, 42.82334], [-73.96814, 42.82356], [-73.968184, 42.823563], [-73.96894, 42.82362], [-73.96954, 42.82351], [-73.970333, 42.823312], [-73.97046, 42.82328], [-73.970473, 42.823283], [-73.97138, 42.82349], [-73.97185, 42.8231], [-73.97251, 42.82323], [-73.973018, 42.82208], [-73.97349, 42.82101], [-73.97449, 42.82121], [-73.97402, 42.82243], [-73.973317, 42.823703]], [[-73.96018, 42.82502], [-73.96143, 42.82585], [-73.96386, 42.82702], [-73.967038, 42.827969], [-73.96781, 42.8282], [-73.96832, 42.82722], [-73.96484, 42.82602], [-73.96413, 42.8258], [-73.96217, 42.82471], [-73.96113, 42.82408], [-73.96041, 42.82373], [-73.960289, 42.824411], [-73.96018, 42.82502]]]}}, {"type": "Feature", "properties": {"area_id": 5177, "city": "Schenectady", "state": "NY", "city_survey": true, "cat": "Still Desirable", "grade": "B", "label": "B2", "res": true, "com": false, "ind": false, "holc_grade": "B"}, "geometry": {"type": "Polygon", "coordinates": [[[-73.9443, 42.78935], [-73.944265, 42.789741], [-73.94419, 42.79059], [-73.94413, 42.79151], [-73.944445, 42.792212], [-73.94448, 42.79229], [-73.944946, 42.792972], [-73.94502, 42.79308], [-73.944988, 42.793082], [-73.94306, 42.79321], [-73.94157, 42.79365], [-73.936294, 42.797063], [-73.93599, 42.79726], [-73.93455, 42.79758], [-73.933788, 42.797375], [-73.93217, 42.79694], [-73.92963, 42.79458], [-73.928175, 42.795968], [-73.92811, 42.79603], [-73.92671, 42.79577], [-73.92542, 42.79505], [-73.92377, 42.79317], [-73.92563, 42.79251], [-73.926076, 42.792287], [-73.92679, 42.79193], [-73.92961, 42.79193], [-73.93041, 42.79166], [-73.93139, 42.7917], [-73.93172, 42.7932], [-73.93407, 42.79184], [-73.93937, 42.78867], [-73.94104, 42.78915], [-73.94298, 42.78915], [-73.943, 42.78915], [-73.94361, 42.78892], [-73.9443, 42.78935]]]}}, {"type": "Feature", "properties": {"area_id": 5185, "city": "Schenectady", "state": "NY", "city_survey": true, "cat": "Still Desirable", "grade": "B", "label": "B3", "res": true, "com": false, "ind": false, "holc_grade": "B"}, "geometry": {"type": "Polygon", "coordinates": [[[-73.91429, 42.79956], [-73.914531, 42.79943], [-73.91695, 42.79812], [-73.92058, 42.79594], [-73.92664, 42.80123], [-73.924806, 42.802373], [-73.92335, 42.80328], [-73.92247, 42.8038], [-73.92385, 42.80511], [-73.923412, 42.8058], [-73.92126, 42.80919], [-73.91501, 42.80675], [-73.91762, 42.80509], [-73.91501, 42.80284], [-73.91622, 42.8024], [-73.915918, 42.802054], [-73.9156, 42.80169], [-73.91534, 42.80085], [-73.915144, 42.800609], [-73.914954, 42.800376], [-73.914324, 42.799602], [-73.91429, 42.79956]]]}}, {"type": "Feature", "properties": {"area_id": 5187, "city": "Schenectady", "state": "NY", "city_survey": true, "cat": "Still Desirable", "grade": "B", "label": "B4", "res": true, "com": false, "ind": false, "holc_grade": "B"}, "geometry": {"type": "Polygon", "coordinates": [[[-73.90331, 42.80057], [-73.90811, 42.80256], [-73.90971, 42.80164], [-73.91294, 42.80321], [-73.91315, 42.80394], [-73.91282, 42.8045], [-73.91318, 42.80563], [-73.91194, 42.80757], [-73.917622, 42.809623], [-73.919951, 42.810464], [-73.920669, 42.810724], [-73.920751, 42.810753], [-73.922748, 42.811475], [-73.924423, 42.81208], [-73.929207, 42.813809], [-73.93065, 42.81433], [-73.92506, 42.81541], [-73.92259, 42.81449], [-73.92233, 42.81487], [-73.91933, 42.81379], [-73.91819, 42.81475], [-73.91707, 42.81623], [-73.91691, 42.81689], [-73.91596, 42.81888], [-73.91952, 42.81982], [-73.92033, 42.8186], [-73.92283, 42.81925], [-73.92264, 42.82], [-73.921032, 42.82], [-73.92085, 42.82], [-73.91836, 42.82422], [-73.91772, 42.82441], [-73.91667, 42.82406], [-73.91617, 42.82488], [-73.91484, 42.82437], [-73.91406, 42.82408], [-73.9133, 42.82335], [-73.91351, 42.82315], [-73.90871, 42.82092], [-73.90735, 42.82247], [-73.903739, 42.820669], [-73.90324, 42.82042], [-73.903617, 42.820028], [-73.90403, 42.8196], [-73.90559, 42.81831], [-73.905401, 42.818061], [-73.9054, 42.81806], [-73.90621, 42.81555], [-73.90999, 42.81651], [-73.91073, 42.81292], [-73.90678, 42.81149], [-73.90505, 42.81034], [-73.90407, 42.81339], [-73.90398, 42.81452], [-73.90291, 42.81388], [-73.90146, 42.80751], [-73.900931, 42.807357], [-73.90022, 42.80715], [-73.89882, 42.80652], [-73.89699, 42.80574], [-73.89832, 42.80413], [-73.900068, 42.802903], [-73.90009, 42.802888], [-73.90013, 42.80286], [-73.900164, 42.802826], [-73.90085, 42.80214], [-73.90198, 42.80101], [-73.90331, 42.80057]]]}}, {"type": "Feature", "properties": {"area_id": 5194, "city": "Schenectady", "state": "NY", "city_survey": true, "cat": "Still Desirable", "grade": "B", "label": "B5", "res": true, "com": false, "ind": false, "holc_grade": "B"}, "geometry": {"type": "Polygon", "coordinates": [[[-73.887207, 42.796217], [-73.89065, 42.79843], [-73.88837, 42.80201], [-73.88231, 42.80225], [-73.88448, 42.79764], [-73.88482, 42.797412], [-73.8869, 42.79602], [-73.887207, 42.796217]]]}}, {"type": "Feature", "properties": {"area_id": 5170, "city": "Schenectady", "state": "NY", "city_survey": true, "cat": "Definitely Declining", "grade": "C", "label": "C1", "res": true, "com": false, "ind": false, "holc_grade": "C"}, "geometry": {"type": "Polygon", "coordinates": [[[-73.97449, 42.82121], [-73.97557, 42.81839], [-73.9761, 42.81852], [-73.97684, 42.819], [-73.978, 42.82057], [-73.97863, 42.82208], [-73.97937, 42.82306], [-73.97979, 42.8241], [-73.98068, 42.82582], [-73.98151, 42.82628], [-73.97815, 42.83142], [-73.977173, 42.831086], [-73.97165, 42.8292], [-73.97049, 42.82864], [-73.97072, 42.82818], [-73.97176, 42.82665], [-73.9726, 42.825], [-73.973317, 42.823703], [-73.97402, 42.82243], [-73.97449, 42.82121]]]}}, {"type": "Feature", "properties": {"area_id": 5169, "city": "Schenectady", "state": "NY", "city_survey": true, "cat": "Definitely Declining", "grade": "C", "label": "C10", "res": true, "com": false, "ind": false, "holc_grade": "C"}, "geometry": {"type": "Polygon", "coordinates": [[[-73.94544, 42.794306], [-73.94544, 42.79478], [-73.945733, 42.795431], [-73.94603, 42.79609], [-73.94698, 42.79761], [-73.947164, 42.797961], [-73.94751, 42.79862], [-73.94829, 42.79962], [-73.94847, 42.80019], [-73.94401, 42.8004], [-73.94188, 42.799554], [-73.94139, 42.79936], [-73.93741, 42.79792], [-73.93599, 42.79726], [-73.936294, 42.797063], [-73.94157, 42.79365], [-73.94306, 42.79321], [-73.944988, 42.793082], [-73.94502, 42.79308], [-73.94544, 42.79417], [-73.94544, 42.794306]]]}}, {"type": "Feature", "properties": {"area_id": 5183, "city": "Schenectady", "state": "NY", "city_survey": true, "cat": "Definitely Declining", "grade": "C", "label": "C11", "res": true, "com": false, "ind": false, "holc_grade": "C"}, "geometry": {"type": "Polygon", "coordinates": [[[-73.92995, 42.79858], [-73.930067, 42.79858], [-73.93102, 42.79858], [-73.93306, 42.79906], [-73.9333, 42.79873], [-73.936322, 42.799534], [-73.9377, 42.7999], [-73.937689, 42.800012], [-73.93762, 42.80072], [-73.93846, 42.80105], [-73.93953, 42.8014], [-73.94045, 42.80184], [-73.94321, 42.8026], [-73.943311, 42.802649], [-73.9443, 42.80313], [-73.94288, 42.80443], [-73.93941, 42.80604], [-73.93791, 42.80705], [-73.937348, 42.806162], [-73.93724, 42.80599], [-73.93413, 42.80353], [-73.93297, 42.80419], [-73.93045, 42.80236], [-73.928247, 42.800391], [-73.92809, 42.80025], [-73.928812, 42.799885], [-73.92912, 42.79973], [-73.929305, 42.799473], [-73.92995, 42.79858]]]}}, {"type": "Feature", "properties": {"area_id": 5181, "city": "Schenectady", "state": "NY", "city_survey": true, "cat": "Definitely Declining", "grade": "C", "label": "C12", "res": true, "com": false, "ind": false, "holc_grade": "C"}, "geometry": {"type": "MultiPolygon", "coordinates": [[[[-73.92761, 42.8021], [-73.92758, 42.80219], [-73.92458, 42.80432], [-73.92335, 42.80328], [-73.924806, 42.802373], [-73.92664, 42.80123], [-73.926757, 42.801335], [-73.92761, 42.8021]]], [[[-73.92979, 42.80706], [-73.9265, 42.80432], [-73.92855, 42.80284], [-73.93206, 42.80577], [-73.92979, 42.80706]]], [[[-73.93024, 42.80746], [-73.93246, 42.8061], [-73.93499, 42.80862], [-73.93312, 42.80965], [-73.93201, 42.80916], [-73.93024, 42.80746]]]]}}, {"type": "Feature", "properties": {"area_id": 5186, "city": "Schenectady", "state": "NY", "city_survey": true, "cat": "Definitely Declining", "grade": "C", "label": "C13", "res": true, "com": false, "ind": false, "holc_grade": "C"}, "geometry": {"type": "Polygon", "coordinates": [[[-73.91439, 42.80704], [-73.91501, 42.80675], [-73.92126, 42.80919], [-73.923412, 42.8058], [-73.92385, 42.80511], [-73.92492, 42.80607], [-73.92527, 42.80776], [-73.9257, 42.80818], [-73.9258, 42.80886], [-73.92596, 42.80903], [-73.92594, 42.8102], [-73.92839, 42.81071], [-73.92939, 42.8109], [-73.92981, 42.81086], [-73.93055, 42.81048], [-73.93084, 42.8102], [-73.93212, 42.81099], [-73.93141, 42.8126], [-73.93232, 42.81262], [-73.93231, 42.81304], [-73.93297, 42.81308], [-73.93329, 42.81258], [-73.934268, 42.813087], [-73.93435, 42.81313], [-73.93389, 42.81386], [-73.933371, 42.81444], [-73.932875, 42.814994], [-73.93287, 42.815], [-73.93065, 42.81433], [-73.929207, 42.813809], [-73.924423, 42.81208], [-73.922748, 42.811475], [-73.920751, 42.810753], [-73.920669, 42.810724], [-73.919951, 42.810464], [-73.917622, 42.809623], [-73.91194, 42.80757], [-73.91318, 42.80563], [-73.91439, 42.80704]]]}}, {"type": "Feature", "properties": {"area_id": 5190, "city": "Schenectady", "state": "NY", "city_survey": true, "cat": "Definitely Declining", "grade": "C", "label": "C14", "res": true, "com": false, "ind": false, "holc_grade": "C"}, "geometry": {"type": "Polygon", "coordinates": [[[-73.92264, 42.82], [-73.924336, 42.820056], [-73.925152, 42.820083], [-73.92687, 42.82014], [-73.922062, 42.827112], [-73.92038, 42.82955], [-73.917015, 42.828178], [-73.91454, 42.82717], [-73.91525, 42.82607], [-73.91413, 42.82564], [-73.91484, 42.82437], [-73.91617, 42.82488], [-73.91667, 42.82406], [-73.91772, 42.82441], [-73.91836, 42.82422], [-73.92085, 42.82], [-73.921032, 42.82], [-73.92264, 42.82]]]}}, {"type": "Feature", "properties": {"area_id": 5191, "city": "Schenectady", "state": "NY", "city_survey": true, "cat": "Definitely Declining", "grade": "C", "label": "C15", "res": true, "com": false, "ind": false, "holc_grade": "C"}, "geometry": {"type": "Polygon", "coordinates": [[[-73.91406, 42.82408], [-73.91484, 42.82437], [-73.91413, 42.82564], [-73.91525, 42.82607], [-73.91454, 42.82717], [-73.917015, 42.828178], [-73.92038, 42.82955], [-73.918979, 42.832318], [-73.91871, 42.83285], [-73.918296, 42.833494], [-73.91729, 42.83506], [-73.915837, 42.83666], [-73.915533, 42.836994], [-73.91551, 42.83702], [-73.91147, 42.83935], [-73.90655, 42.83745], [-73.90943, 42.83327], [-73.90267, 42.8313], [-73.90489, 42.82884], [-73.90536, 42.82848], [-73.90762, 42.82675], [-73.9133, 42.82335], [-73.91406, 42.82408]]]}}, {"type": "Feature", "properties": {"area_id": 5166, "city": "Schenectady", "state": "NY", "city_survey": true, "cat": "Definitely Declining", "grade": "C", "label": "C16", "res": true, "com": false, "ind": false, "holc_grade": "C"}, "geometry": {"type": "Polygon", "coordinates": [[[-73.95577, 42.78004], [-73.956036, 42.780167], [-73.96035, 42.78222], [-73.95756, 42.7834], [-73.95542, 42.78405], [-73.95114, 42.78562], [-73.94811, 42.78689], [-73.94502, 42.78837], [-73.944838, 42.788441], [-73.94361, 42.78892], [-73.943, 42.78915], [-73.94298, 42.78915], [-73.94104, 42.78915], [-73.93937, 42.78867], [-73.940056, 42.788217], [-73.940249, 42.78809], [-73.943867, 42.785703], [-73.94472, 42.78514], [-73.944935, 42.785089], [-73.94621, 42.78479], [-73.94692, 42.78405], [-73.946891, 42.783964], [-73.94383, 42.77485], [-73.94454, 42.77393], [-73.94656, 42.77354], [-73.94876, 42.77249], [-73.95179, 42.77485], [-73.953016, 42.775774], [-73.95358, 42.7762], [-73.954626, 42.778033], [-73.95577, 42.78004]]]}}, {"type": "Feature", "properties": {"area_id": 5176, "city": "Schenectady", "state": "NY", "city_survey": true, "cat": "Definitely Declining", "grade": "C", "label": "C17", "res": true, "com": false, "ind": false, "holc_grade": "C"}, "geometry": {"type": "Polygon", "coordinates": [[[-73.93674, 42.77208], [-73.936626, 42.772238], [-73.93419, 42.77562], [-73.93324, 42.77838], [-73.933318, 42.778426], [-73.93502, 42.77944], [-73.93588, 42.77974], [-73.933, 42.78441], [-73.93274, 42.78506], [-73.938597, 42.788249], [-73.93937, 42.78867], [-73.93407, 42.79184], [-73.93221, 42.78979], [-73.931804, 42.789259], [-73.93039, 42.78741], [-73.930291, 42.789508], [-73.93025, 42.79038], [-73.93041, 42.79166], [-73.92961, 42.79193], [-73.92679, 42.79193], [-73.926076, 42.792287], [-73.92563, 42.79251], [-73.92377, 42.79317], [-73.92168, 42.79212], [-73.92101, 42.79084], [-73.91962, 42.78949], [-73.919, 42.78879], [-73.91611, 42.78615], [-73.91516, 42.78537], [-73.91425, 42.78436], [-73.913786, 42.784011], [-73.91324, 42.7836], [-73.91233, 42.78295], [-73.91037, 42.78233], [-73.90976, 42.78177], [-73.91164, 42.78187], [-73.91326, 42.78261], [-73.9143, 42.78316], [-73.9151, 42.78335], [-73.91605, 42.78333], [-73.916251, 42.783486], [-73.91769, 42.7846], [-73.91995, 42.78552], [-73.92073, 42.78471], [-73.922067, 42.784484], [-73.92286, 42.78435], [-73.92714, 42.78346], [-73.92925, 42.78312], [-73.92773, 42.78075], [-73.92737, 42.78017], [-73.92711, 42.77853], [-73.92737, 42.77716], [-73.92825, 42.77511], [-73.92747, 42.77265], [-73.92716, 42.7707], [-73.92704, 42.76969], [-73.92732, 42.7691], [-73.93652, 42.76855], [-73.937, 42.77019], [-73.937089, 42.770822], [-73.93719, 42.77154], [-73.93728, 42.77178], [-73.93674, 42.77208]]]}}, {"type": "Feature", "properties": {"area_id": 5198, "city": "Schenectady", "state": "NY", "city_survey": true, "cat": "Definitely Declining", "grade": "C", "label": "C18", "res": true, "com": false, "ind": false, "holc_grade": "C"}, "geometry": {"type": "Polygon", "coordinates": [[[-73.92664, 42.80123], [-73.92058, 42.79594], [-73.91695, 42.79812], [-73.916705, 42.797863], [-73.916652, 42.797808], [-73.916604, 42.797757], [-73.915667, 42.796774], [-73.914825, 42.795891], [-73.91326, 42.79425], [-73.914511, 42.793466], [-73.91535, 42.79294], [-73.91108, 42.78893], [-73.91135, 42.78881], [-73.912781, 42.788212], [-73.91317, 42.78805], [-73.91611, 42.78615], [-73.919, 42.78879], [-73.91962, 42.78949], [-73.92101, 42.79084], [-73.92168, 42.79212], [-73.92377, 42.79317], [-73.92542, 42.79505], [-73.92671, 42.79577], [-73.92811, 42.79603], [-73.92902, 42.79769], [-73.92995, 42.79858], [-73.929305, 42.799473], [-73.92912, 42.79973], [-73.928812, 42.799885], [-73.92809, 42.80025], [-73.927164, 42.800876], [-73.92664, 42.80123]]]}}, {"type": "Feature", "properties": {"area_id": 5184, "city": "Schenectady", "state": "NY", "city_survey": true, "cat": "Definitely Declining", "grade": "C", "label": "C19", "res": true, "com": false, "ind": false, "holc_grade": "C"}, "geometry": {"type": "Polygon", "coordinates": [[[-73.87875, 42.75875], [-73.88191, 42.75695], [-73.88541, 42.75979], [-73.891785, 42.765232], [-73.89382, 42.76697], [-73.89717, 42.77012], [-73.89952, 42.77215], [-73.9014, 42.77231], [-73.90558, 42.77573], [-73.90478, 42.77637], [-73.90654, 42.77822], [-73.90856, 42.77965], [-73.90848, 42.77998], [-73.90976, 42.78177], [-73.91037, 42.78233], [-73.91233, 42.78295], [-73.91324, 42.7836], [-73.913786, 42.784011], [-73.91425, 42.78436], [-73.91516, 42.78537], [-73.91611, 42.78615], [-73.91317, 42.78805], [-73.912781, 42.788212], [-73.91135, 42.78881], [-73.908702, 42.78629], [-73.89767, 42.77579], [-73.89648, 42.77473], [-73.896127, 42.774428], [-73.89363, 42.77229], [-73.886856, 42.765937], [-73.88607, 42.7652], [-73.88208, 42.76161], [-73.87875, 42.75875]]]}}, {"type": "Feature", "properties": {"area_id": 5173, "city": "Schenectady", "state": "NY", "city_survey": true, "cat": "Definitely Declining", "grade": "C", "label": "C2", "res": true, "com": false, "ind": false, "holc_grade": "C"}, "geometry": {"type": "Polygon", "coordinates": [[[-73.969585, 42.832271], [-73.96992, 42.83284], [-73.96324, 42.83452], [-73.9638, 42.83665], [-73.964725, 42.837264], [-73.96502, 42.83746], [-73.962786, 42.839784], [-73.96255, 42.84003], [-73.95578, 42.8361], [-73.95388, 42.835], [-73.9548, 42.83456], [-73.95323, 42.83269], [-73.95634, 42.83264], [-73.95991, 42.83217], [-73.96036, 42.83339], [-73.96276, 42.8328], [-73.96288, 42.83336], [-73.96449, 42.83254], [-73.96511, 42.83243], [-73.969042, 42.831385], [-73.96906, 42.83138], [-73.969585, 42.832271]]]}}, {"type": "Feature", "properties": {"area_id": 5199, "city": "Schenectady", "state": "NY", "city_survey": true, "cat": "Definitely Declining", "grade": "C", "label": "C20", "res": true, "com": false, "ind": false, "holc_grade": "C"}, "geometry": {"type": "Polygon", "coordinates": [[[-73.90204, 42.79214], [-73.90066, 42.79127], [-73.90492, 42.78748], [-73.90216, 42.78603], [-73.89936, 42.78535], [-73.89532, 42.78356], [-73.89952, 42.78028], [-73.89888, 42.77981], [-73.89962, 42.77932], [-73.89643, 42.77637], [-73.89767, 42.77579], [-73.908702, 42.78629], [-73.91135, 42.78881], [-73.91108, 42.78893], [-73.91036, 42.78907], [-73.90896, 42.78877], [-73.91034, 42.79087], [-73.905746, 42.793563], [-73.9057, 42.79359], [-73.904181, 42.792538], [-73.90297, 42.7917], [-73.90204, 42.79214]]]}}, {"type": "Feature", "properties": {"area_id": 5174, "city": "Schenectady", "state": "NY", "city_survey": true, "cat": "Definitely Declining", "grade": "C", "label": "C3", "res": true, "com": false, "ind": false, "holc_grade": "C"}, "geometry": {"type": "Polygon", "coordinates": [[[-73.95578, 42.8361], [-73.955407, 42.837489], [-73.95397, 42.84284], [-73.95358, 42.84545], [-73.9493, 42.84395], [-73.94927, 42.8448], [-73.94978, 42.84765], [-73.94993, 42.85046], [-73.942804, 42.849409], [-73.94274, 42.8494], [-73.94173, 42.8489], [-73.94265, 42.84829], [-73.9447, 42.84489], [-73.94794, 42.84267], [-73.94889, 42.83925], [-73.95011, 42.83713], [-73.952401, 42.835836], [-73.95388, 42.835], [-73.95578, 42.8361]]]}}, {"type": "Feature", "properties": {"area_id": 5196, "city": "Schenectady", "state": "NY", "city_survey": true, "cat": "Definitely Declining", "grade": "C", "label": "C4", "res": true, "com": false, "ind": false, "holc_grade": "C"}, "geometry": {"type": "Polygon", "coordinates": [[[-73.89026, 42.8571], [-73.88826, 42.85735], [-73.88558, 42.85718], [-73.88344, 42.85533], [-73.8848, 42.85198], [-73.8857, 42.85204], [-73.88809, 42.85158], [-73.88868, 42.85156], [-73.88933, 42.85137], [-73.89003, 42.8517], [-73.89072, 42.85185], [-73.88975, 42.85574], [-73.89627, 42.85689], [-73.89593, 42.85269], [-73.896152, 42.852752], [-73.89654, 42.85286], [-73.90011, 42.85231], [-73.90059, 42.85209], [-73.90268, 42.85174], [-73.90346, 42.85192], [-73.90386, 42.8524], [-73.90386, 42.85374], [-73.90329, 42.85524], [-73.90268, 42.85659], [-73.90253, 42.85739], [-73.9022, 42.85855], [-73.9026, 42.85895], [-73.90251, 42.85938], [-73.90203, 42.85993], [-73.90169, 42.8602], [-73.90165, 42.86047], [-73.89979, 42.86016], [-73.90017, 42.85783], [-73.896878, 42.858053], [-73.8953, 42.85816], [-73.89026, 42.8571]]]}}, {"type": "Feature", "properties": {"area_id": 5179, "city": "Schenectady", "state": "NY", "city_survey": true, "cat": "Definitely Declining", "grade": "C", "label": "C5", "res": true, "com": false, "ind": false, "holc_grade": "C"}, "geometry": {"type": "Polygon", "coordinates": [[[-73.94363, 42.81472], [-73.94529, 42.81546], [-73.94629, 42.81572], [-73.94771, 42.81599], [-73.94902, 42.81611], [-73.94914, 42.81552], [-73.95106, 42.81575], [-73.95066, 42.81603], [-73.95041, 42.81638], [-73.95035, 42.81681], [-73.95029, 42.81781], [-73.95009, 42.81806], [-73.95011, 42.81842], [-73.94968, 42.81883], [-73.94901, 42.81914], [-73.94687, 42.81987], [-73.9456, 42.82026], [-73.94506, 42.82068], [-73.94466, 42.82069], [-73.94446, 42.82092], [-73.9437, 42.82108], [-73.943218, 42.821369], [-73.9431, 42.82144], [-73.94205, 42.82001], [-73.94186, 42.81945], [-73.94138, 42.8185], [-73.94118, 42.81694], [-73.941468, 42.816633], [-73.94253, 42.8155], [-73.94363, 42.81472]]]}}, {"type": "Feature", "properties": {"area_id": 5164, "city": "Schenectady", "state": "NY", "city_survey": true, "cat": "Definitely Declining", "grade": "C", "label": "C6", "res": true, "com": false, "ind": false, "holc_grade": "C"}, "geometry": {"type": "Polygon", "coordinates": [[[-73.97639, 42.76922], [-73.977062, 42.772219], [-73.97812, 42.77694], [-73.97806, 42.77755], [-73.97865, 42.78074], [-73.98317, 42.78192], [-73.98174, 42.78235], [-73.97936, 42.78649], [-73.98406, 42.7882], [-73.98323, 42.78959], [-73.985, 42.789335], [-73.98531, 42.78929], [-73.99395, 42.787379], [-73.99458, 42.78724], [-73.99612, 42.78985], [-73.99654, 42.7899], [-73.99725, 42.78702], [-73.99963, 42.78789], [-74.00111, 42.78898], [-74.00236, 42.78933], [-74.00515, 42.7899], [-74.00414, 42.79373], [-74.003109, 42.794121], [-73.998614, 42.795824], [-73.996622, 42.796579], [-73.984544, 42.801155], [-73.983212, 42.80166], [-73.98279, 42.80182], [-73.97402, 42.7946], [-73.974093, 42.79457], [-73.97538, 42.79404], [-73.97645, 42.79273], [-73.97728, 42.79125], [-73.97717, 42.79024], [-73.97592, 42.7902], [-73.9758, 42.79151], [-73.97509, 42.79247], [-73.97443, 42.79325], [-73.97336, 42.79369], [-73.96862, 42.7902], [-73.968335, 42.790176], [-73.968059, 42.790154], [-73.96713, 42.790077], [-73.95738, 42.78927], [-73.95542, 42.78405], [-73.95756, 42.7834], [-73.96035, 42.78222], [-73.960384, 42.782207], [-73.96184, 42.78165], [-73.961998, 42.781755], [-73.9657, 42.78423], [-73.97021, 42.78562], [-73.96998, 42.78492], [-73.96998, 42.78366], [-73.97015, 42.78165], [-73.97051, 42.78056], [-73.971693, 42.778116], [-73.97247, 42.77651], [-73.97312, 42.77659], [-73.973465, 42.775813], [-73.975311, 42.771652], [-73.97639, 42.76922]]]}}, {"type": "Feature", "properties": {"area_id": 5165, "city": "Schenectady", "state": "NY", "city_survey": true, "cat": "Definitely Declining", "grade": "C", "label": "C7", "res": true, "com": false, "ind": false, "holc_grade": "C"}, "geometry": {"type": "Polygon", "coordinates": [[[-73.97116, 42.80223], [-73.97009, 42.80114], [-73.96908, 42.8008], [-73.96784, 42.80088], [-73.96712, 42.80106], [-73.96683, 42.80171], [-73.96397, 42.8018], [-73.96178, 42.8021], [-73.95833, 42.80285], [-73.96213, 42.79997], [-73.96415, 42.79879], [-73.96718, 42.79761], [-73.97402, 42.7946], [-73.98279, 42.80182], [-73.981673, 42.802262], [-73.97877, 42.80341], [-73.97758, 42.80337], [-73.976266, 42.802814], [-73.97562, 42.80254], [-73.97116, 42.80223]]]}}, {"type": "Feature", "properties": {"area_id": 5200, "city": "Schenectady", "state": "NY", "city_survey": true, "cat": "Definitely Declining", "grade": "C", "label": "C8", "res": true, "com": false, "ind": false, "holc_grade": "C"}, "geometry": {"type": "Polygon", "coordinates": [[[-73.95738, 42.78927], [-73.96713, 42.790077], [-73.968059, 42.790154], [-73.968335, 42.790176], [-73.96862, 42.7902], [-73.97336, 42.79369], [-73.973034, 42.793817], [-73.97223, 42.79413], [-73.96914, 42.79543], [-73.96736, 42.79631], [-73.96582, 42.79687], [-73.96374, 42.79757], [-73.96088, 42.79879], [-73.960455, 42.799632], [-73.96035, 42.79984], [-73.95857, 42.80136], [-73.958595, 42.801229], [-73.95886, 42.79984], [-73.95904, 42.79866], [-73.95875, 42.7984], [-73.95797, 42.79766], [-73.95774, 42.79678], [-73.95797, 42.79639], [-73.95762, 42.79569], [-73.9572, 42.79434], [-73.9572, 42.79343], [-73.95785, 42.79269], [-73.95809, 42.7919], [-73.95768, 42.79094], [-73.95774, 42.79016], [-73.9575, 42.78959], [-73.957431, 42.789406], [-73.95738, 42.78927]]]}}, {"type": "Feature", "properties": {"area_id": 5168, "city": "Schenectady", "state": "NY", "city_survey": true, "cat": "Definitely Declining", "grade": "C", "label": "C9", "res": true, "com": false, "ind": false, "holc_grade": "C"}, "geometry": {"type": "Polygon", "coordinates": [[[-73.9443, 42.78935], [-73.945948, 42.790384], [-73.94615, 42.79051], [-73.95007, 42.79238], [-73.95025, 42.79404], [-73.95126, 42.79561], [-73.951649, 42.796642], [-73.95328, 42.80097], [-73.95049, 42.80141], [-73.95025, 42.80184], [-73.9487, 42.80176], [-73.94847, 42.80019], [-73.94829, 42.79962], [-73.94751, 42.79862], [-73.947164, 42.797961], [-73.94698, 42.79761], [-73.94603, 42.79609], [-73.945733, 42.795431], [-73.94544, 42.79478], [-73.94544, 42.794306], [-73.94544, 42.79417], [-73.94502, 42.79308], [-73.944946, 42.792972], [-73.94448, 42.79229], [-73.944445, 42.792212], [-73.94413, 42.79151], [-73.94419, 42.79059], [-73.944265, 42.789741], [-73.9443, 42.78935]]]}}, {"type": "Feature", "properties": {"area_id": 5175, "city": "Schenectady", "state": "NY", "city_survey": true, "cat": "Hazardous", "grade": "D", "label": "D1", "res": true, "com": false, "ind": false, "holc_grade": "D"}, "geometry": {"type": "Polygon", "coordinates": [[[-73.95271, 42.82219], [-73.95231, 42.82314], [-73.95094, 42.8256], [-73.94898, 42.82531], [-73.94866, 42.82443], [-73.94837, 42.82241], [-73.94826, 42.82174], [-73.94837, 42.82152], [-73.94957, 42.82085], [-73.95054, 42.82088], [-73.95294, 42.82123], [-73.95271, 42.82219]]]}}, {"type": "Feature", "properties": {"area_id": 5178, "city": "Schenectady", "state": "NY", "city_survey": true, "cat": "Hazardous", "grade": "D", "label": "D2", "res": true, "com": false, "ind": false, "holc_grade": "D"}, "geometry": {"type": "Polygon", "coordinates": [[[-73.94928, 42.81376], [-73.94918, 42.81503], [-73.9483, 42.8149], [-73.94755, 42.81474], [-73.94668, 42.81429], [-73.94597, 42.81388], [-73.94523, 42.81363], [-73.95085, 42.81134], [-73.94928, 42.81376]]]}}, {"type": "Feature", "properties": {"area_id": 5167, "city": "Schenectady", "state": "NY", "city_survey": true, "cat": "Hazardous", "grade": "D", "label": "D3", "res": true, "com": false, "ind": false, "holc_grade": "D"}, "geometry": {"type": "Polygon", "coordinates": [[[-73.95114, 42.78562], [-73.95542, 42.78405], [-73.95476, 42.78501], [-73.9547, 42.78676], [-73.95542, 42.7882], [-73.956029, 42.7893], [-73.95619, 42.78959], [-73.95667, 42.79068], [-73.95655, 42.79181], [-73.95607, 42.79282], [-73.95571, 42.79373], [-73.955765, 42.794602], [-73.95577, 42.79469], [-73.956125, 42.795304], [-73.95625, 42.79552], [-73.95684, 42.79622], [-73.95714, 42.79796], [-73.95714, 42.79944], [-73.957116, 42.799565], [-73.95684, 42.80097], [-73.95655, 42.80228], [-73.954459, 42.802868], [-73.95161, 42.80367], [-73.947244, 42.804635], [-73.94704, 42.80468], [-73.94707, 42.804506], [-73.94716, 42.80398], [-73.94662, 42.8038], [-73.9465, 42.80328], [-73.94549, 42.80289], [-73.94579, 42.80219], [-73.9487, 42.80176], [-73.95025, 42.80184], [-73.95049, 42.80141], [-73.95328, 42.80097], [-73.951649, 42.796642], [-73.95126, 42.79561], [-73.95025, 42.79404], [-73.95007, 42.79238], [-73.94615, 42.79051], [-73.945948, 42.790384], [-73.9443, 42.78935], [-73.94361, 42.78892], [-73.944838, 42.788441], [-73.94502, 42.78837], [-73.94811, 42.78689], [-73.95114, 42.78562]]]}}, {"type": "Feature", "properties": {"area_id": 5182, "city": "Schenectady", "state": "NY", "city_survey": true, "cat": "Hazardous", "grade": "D", "label": "D4", "res": true, "com": false, "ind": false, "holc_grade": "D"}, "geometry": {"type": "Polygon", "coordinates": [[[-73.93791, 42.80705], [-73.93941, 42.80604], [-73.94288, 42.80443], [-73.9443, 42.80313], [-73.94706, 42.80487], [-73.943506, 42.810347], [-73.94257, 42.81179], [-73.93995, 42.80981], [-73.939795, 42.809633], [-73.93831, 42.80794], [-73.93791, 42.80705]]]}}, {"type": "Feature", "properties": {"area_id": 5180, "city": "Schenectady", "state": "NY", "city_survey": true, "cat": "Hazardous", "grade": "D", "label": "D5", "res": true, "com": false, "ind": false, "holc_grade": "D"}, "geometry": {"type": "Polygon", "coordinates": [[[-73.93231, 42.81304], [-73.93232, 42.81262], [-73.93141, 42.8126], [-73.93212, 42.81099], [-73.93324, 42.81123], [-73.93391, 42.81161], [-73.93486, 42.81203], [-73.93615, 42.8111], [-73.93312, 42.80965], [-73.93499, 42.80862], [-73.937349, 42.810751], [-73.93955, 42.81274], [-73.94071, 42.81339], [-73.94047, 42.81373], [-73.94141, 42.81419], [-73.940302, 42.816204], [-73.94021, 42.81637], [-73.94118, 42.81694], [-73.94138, 42.8185], [-73.94186, 42.81945], [-73.94205, 42.82001], [-73.9431, 42.82144], [-73.94018, 42.82244], [-73.93834, 42.82119], [-73.93646, 42.82173], [-73.935882, 42.821691], [-73.93572, 42.82168], [-73.935792, 42.821608], [-73.9365, 42.8209], [-73.93732, 42.81957], [-73.93744, 42.81898], [-73.93769, 42.81854], [-73.93737, 42.81837], [-73.93587, 42.81909], [-73.93285, 42.81819], [-73.934166, 42.816031], [-73.93449, 42.8155], [-73.93287, 42.815], [-73.932875, 42.814994], [-73.933371, 42.81444], [-73.93389, 42.81386], [-73.93435, 42.81313], [-73.934268, 42.813087], [-73.93329, 42.81258], [-73.93297, 42.81308], [-73.93231, 42.81304]]]}}, {"type": "Feature", "properties": {"area_id": 5189, "city": "Schenectady", "state": "NY", "city_survey": true, "cat": "Hazardous", "grade": "D", "label": "D6", "res": true, "com": false, "ind": false, "holc_grade": "D"}, "geometry": {"type": "Polygon", "coordinates": [[[-73.93138, 42.82075], [-73.93036, 42.8224], [-73.92996, 42.82242], [-73.92366, 42.83208], [-73.917403, 42.835007], [-73.91729, 42.83506], [-73.918296, 42.833494], [-73.91871, 42.83285], [-73.918979, 42.832318], [-73.92038, 42.82955], [-73.922062, 42.827112], [-73.92687, 42.82014], [-73.93138, 42.82075]]]}}, {"type": "Feature", "properties": {"area_id": 5195, "city": "Schenectady", "state": "NY", "city_survey": true, "cat": "Hazardous", "grade": "D", "label": "D7", "res": true, "com": false, "ind": false, "holc_grade": "D"}, "geometry": {"type": "Polygon", "coordinates": [[[-73.87977, 42.84675], [-73.88009, 42.84551], [-73.88013, 42.84504], [-73.88037, 42.84477], [-73.88283, 42.84388], [-73.88321, 42.84451], [-73.8838, 42.84529], [-73.88448, 42.84589], [-73.88526, 42.8464], [-73.88589, 42.84672], [-73.88688, 42.84707], [-73.88787, 42.84731], [-73.88872, 42.84748], [-73.88939, 42.84751], [-73.88923, 42.84798], [-73.88842, 42.84813], [-73.88785, 42.84838], [-73.88728, 42.84904], [-73.88724, 42.84953], [-73.88699, 42.84989], [-73.88452, 42.85034], [-73.883017, 42.85073], [-73.88298, 42.85074], [-73.882954, 42.850738], [-73.88216, 42.85067], [-73.88142, 42.85035], [-73.880898, 42.849924], [-73.88077, 42.84982], [-73.880743, 42.849755], [-73.88013, 42.84827], [-73.87977, 42.84675]]]}}, {"type": "Feature", "properties": {"area_id": 11400, "city": "Schenectady", "state": "NY", "city_survey": true, "cat": "Commercial", "grade": null, "label": "Commercial", "res": false, "com": true, "ind": false, "holc_grade": null}, "geometry": {"type": "MultiPolygon", "coordinates": [[[[-73.97592, 42.7902], [-73.97717, 42.79024], [-73.97728, 42.79125], [-73.97645, 42.79273], [-73.97538, 42.79404], [-73.974093, 42.79457], [-73.97402, 42.7946], [-73.96718, 42.79761], [-73.96415, 42.79879], [-73.96213, 42.79997], [-73.95833, 42.80285], [-73.95502, 42.80387], [-73.953467, 42.804298], [-73.95143, 42.80486], [-73.94821, 42.80569], [-73.94518, 42.81048], [-73.94393, 42.81245], [-73.94429, 42.81306], [-73.94523, 42.81363], [-73.94597, 42.81388], [-73.94668, 42.81429], [-73.94755, 42.81474], [-73.9483, 42.8149], [-73.94918, 42.81503], [-73.94914, 42.81552], [-73.94902, 42.81611], [-73.94771, 42.81599], [-73.94629, 42.81572], [-73.94529, 42.81546], [-73.94363, 42.81472], [-73.94253, 42.8155], [-73.941468, 42.816633], [-73.94118, 42.81694], [-73.94021, 42.81637], [-73.940302, 42.816204], [-73.94141, 42.81419], [-73.94047, 42.81373], [-73.94071, 42.81339], [-73.93955, 42.81274], [-73.937349, 42.810751], [-73.93499, 42.80862], [-73.93246, 42.8061], [-73.93206, 42.80577], [-73.92855, 42.80284], [-73.92902, 42.80254], [-73.928899, 42.802421], [-73.92837, 42.8019], [-73.928311, 42.801922], [-73.92758, 42.80219], [-73.92761, 42.8021], [-73.926757, 42.801335], [-73.92664, 42.80123], [-73.927164, 42.800876], [-73.92809, 42.80025], [-73.928247, 42.800391], [-73.93045, 42.80236], [-73.93297, 42.80419], [-73.93413, 42.80353], [-73.93724, 42.80599], [-73.937348, 42.806162], [-73.93791, 42.80705], [-73.93831, 42.80794], [-73.939795, 42.809633], [-73.93995, 42.80981], [-73.94257, 42.81179], [-73.943506, 42.810347], [-73.94706, 42.80487], [-73.94704, 42.80468], [-73.947244, 42.804635], [-73.95161, 42.80367], [-73.954459, 42.802868], [-73.95655, 42.80228], [-73.956962, 42.802536], [-73.957, 42.80256], [-73.95745, 42.80255], [-73.95792, 42.80195], [-73.95857, 42.80136], [-73.96035, 42.79984], [-73.960455, 42.799632], [-73.96088, 42.79879], [-73.96374, 42.79757], [-73.96582, 42.79687], [-73.96736, 42.79631], [-73.96914, 42.79543], [-73.97223, 42.79413], [-73.973034, 42.793817], [-73.97336, 42.79369], [-73.97443, 42.79325], [-73.97509, 42.79247], [-73.9758, 42.79151], [-73.97592, 42.7902]]], [[[-73.96484, 42.82602], [-73.96832, 42.82722], [-73.96781, 42.8282], [-73.967038, 42.827969], [-73.96386, 42.82702], [-73.96143, 42.82585], [-73.96018, 42.82502], [-73.960289, 42.824411], [-73.96041, 42.82373], [-73.96113, 42.82408], [-73.96217, 42.82471], [-73.96413, 42.8258], [-73.96484, 42.82602]]]]}}, {"type": "Feature", "properties": {"area_id": 11422, "city": "Schenectady", "state": "NY", "city_survey": true, "cat": "Industrial", "grade": null, "label": "Industrial", "res": false, "com": false, "ind": true, "holc_grade": null}, "geometry": {"type": "MultiPolygon", "coordinates": [[[[-73.93737, 42.81837], [-73.93769, 42.81854], [-73.93744, 42.81898], [-73.93732, 42.81957], [-73.9365, 42.8209], [-73.935792, 42.821608], [-73.93572, 42.82168], [-73.935882, 42.821691], [-73.93646, 42.82173], [-73.93834, 42.82119], [-73.94018, 42.82244], [-73.938738, 42.823435], [-73.93834, 42.82371], [-73.93787, 42.8246], [-73.93592, 42.82608], [-73.93449, 42.82697], [-73.93305, 42.82758], [-73.93089, 42.82837], [-73.92968, 42.82957], [-73.92893, 42.83019], [-73.92761, 42.83246], [-73.92586, 42.8342], [-73.92483, 42.83206], [-73.9247, 42.83048], [-73.92996, 42.82242], [-73.93036, 42.8224], [-73.93138, 42.82075], [-73.931405, 42.820707], [-73.93285, 42.81819], [-73.93587, 42.81909], [-73.93737, 42.81837]]], [[[-73.96178, 42.8021], [-73.96397, 42.8018], [-73.96683, 42.80171], [-73.96712, 42.80106], [-73.96784, 42.80088], [-73.96908, 42.8008], [-73.97009, 42.80114], [-73.97116, 42.80223], [-73.97562, 42.80254], [-73.976266, 42.802814], [-73.97758, 42.80337], [-73.97877, 42.80341], [-73.97834, 42.80457], [-73.9777, 42.80452], [-73.97668, 42.80435], [-73.97529, 42.8048], [-73.9734, 42.80465], [-73.97231, 42.80517], [-73.97181, 42.80619], [-73.97272, 42.80781], [-73.97283, 42.80859], [-73.972296, 42.809919], [-73.97224, 42.81006], [-73.97055, 42.81158], [-73.96985, 42.8106], [-73.96812, 42.80931], [-73.96664, 42.80858], [-73.96554, 42.80861], [-73.9647, 42.80943], [-73.96413, 42.81093], [-73.96163, 42.81205], [-73.96058, 42.8128], [-73.95985, 42.81312], [-73.95917, 42.81312], [-73.95842, 42.81282], [-73.95742, 42.81329], [-73.95603, 42.81314], [-73.95348, 42.81274], [-73.953194, 42.812751], [-73.95188, 42.8128], [-73.95129, 42.81324], [-73.95129, 42.81446], [-73.95106, 42.81575], [-73.94914, 42.81552], [-73.94918, 42.81503], [-73.94928, 42.81376], [-73.95085, 42.81134], [-73.94523, 42.81363], [-73.94429, 42.81306], [-73.94393, 42.81245], [-73.94518, 42.81048], [-73.94821, 42.80569], [-73.95143, 42.80486], [-73.953467, 42.804298], [-73.95502, 42.80387], [-73.95833, 42.80285], [-73.96178, 42.8021]]]]}}]}