{"type": "FeatureCollection", "features": [{"type": "Feature", "properties": {"area_id": 9541, "city": "York", "state": "PA", "city_survey": true, "cat": "Best", "grade": "A", "label": "A10", "res": true, "com": false, "ind": false, "holc_grade": "A"}, "geometry": {"type": "Polygon", "coordinates": [[[-76.73109, 39.94802], [-76.73149, 39.94772], [-76.73143, 39.94752], [-76.73111, 39.94631], [-76.73103, 39.94561], [-76.73078, 39.94419], [-76.73106, 39.94405], [-76.73092, 39.94379], [-76.73024, 39.94366], [-76.7299, 39.94352], [-76.72975, 39.94335], [-76.7291, 39.94287], [-76.72874, 39.94252], [-76.72846, 39.94207], [-76.72819, 39.94159], [-76.72775, 39.94079], [-76.72774, 39.94048], [-76.72782, 39.94024], [-76.72846, 39.9401], [-76.72903, 39.93999], [-76.72951, 39.93978], [-76.72964, 39.94017], [-76.73052, 39.94103], [-76.73145, 39.94177], [-76.73208, 39.94206], [-76.73229, 39.94236], [-76.73237, 39.9429], [-76.73255, 39.94324], [-76.73365, 39.94492], [-76.73378, 39.94512], [-76.73413, 39.94537], [-76.73469, 39.94625], [-76.73508, 39.94679], [-76.73522, 39.94702], [-76.73363, 39.94748], [-76.731298, 39.948317], [-76.73129, 39.94832], [-76.731273, 39.948294], [-76.73122, 39.94821], [-76.73109, 39.94802]]]}}, {"type": "Feature", "properties": {"area_id": 9523, "city": "York", "state": "PA", "city_survey": true, "cat": "Best", "grade": "A", "label": "A2", "res": true, "com": false, "ind": false, "holc_grade": "A"}, "geometry": {"type": "Polygon", "coordinates": [[[-76.68737, 39.96911], [-76.68783, 39.96868], [-76.68842, 39.96806], [-76.68904, 39.96772], [-76.68934, 39.96757], [-76.68962, 39.96754], [-76.68988, 39.96815], [-76.68994, 39.96899], [-76.69017, 39.96984], [-76.69027, 39.96998], [-76.69095, 39.97], [-76.69168, 39.96984], [-76.69214, 39.96972], [-76.69232, 39.97004], [-76.69249, 39.97042], [-76.69264, 39.97119], [-76.69285, 39.97203], [-76.69348, 39.97368], [-76.69357, 39.97426], [-76.69382, 39.97491], [-76.69427, 39.97638], [-76.69314, 39.97648], [-76.69258, 39.9766], [-76.69224, 39.97667], [-76.69089, 39.97667], [-76.69033, 39.97677], [-76.68811, 39.97692], [-76.68733, 39.97597], [-76.68696, 39.97533], [-76.68671, 39.97537], [-76.68548, 39.97592], [-76.68454, 39.97614], [-76.68379, 39.97589], [-76.68316, 39.97564], [-76.68278, 39.97546], [-76.68222, 39.97525], [-76.6817, 39.9741], [-76.68022, 39.97423], [-76.679884, 39.97355], [-76.6798, 39.97338], [-76.679721, 39.973026], [-76.679559, 39.972306], [-76.67954, 39.97222], [-76.679573, 39.972211], [-76.68345, 39.97112], [-76.68737, 39.96911]]]}}, {"type": "Feature", "properties": {"area_id": 9519, "city": "York", "state": "PA", "city_survey": true, "cat": "Best", "grade": "A", "label": "A8", "res": true, "com": false, "ind": false, "holc_grade": "A"}, "geometry": {"type": "Polygon", "coordinates": [[[-76.71367, 39.94725], [-76.71473, 39.94714], [-76.71662, 39.94718], [-76.716836, 39.947247], [-76.71717, 39.94735], [-76.71764, 39.9474], [-76.71835, 39.94751], [-76.71927, 39.94757], [-76.71953, 39.9485], [-76.71985, 39.94927], [-76.72014, 39.95012], [-76.72185, 39.94954], [-76.72214, 39.95048], [-76.72123, 39.9506], [-76.71884, 39.95103], [-76.71776, 39.95125], [-76.71724, 39.95153], [-76.71635, 39.95188], [-76.71495, 39.95068], [-76.71291, 39.94919], [-76.71169, 39.9485], [-76.711934, 39.948315], [-76.71288, 39.9476], [-76.71367, 39.94725]]]}}, {"type": "Feature", "properties": {"area_id": 9542, "city": "York", "state": "PA", "city_survey": true, "cat": "Best", "grade": "A", "label": "A9", "res": true, "com": false, "ind": false, "holc_grade": "A"}, "geometry": {"type": "Polygon", "coordinates": [[[-76.72916, 39.9393], [-76.72911, 39.93892], [-76.72886, 39.93853], [-76.7282, 39.93823], [-76.72778, 39.9381], [-76.72747, 39.93796], [-76.72667, 39.93728], [-76.72631, 39.93702], [-76.72579, 39.93661], [-76.72525, 39.93599], [-76.72494, 39.93563], [-76.72498, 39.93518], [-76.72567, 39.93447], [-76.72631, 39.9337], [-76.72627, 39.93348], [-76.72631, 39.93323], [-76.72675, 39.93306], [-76.72747, 39.93251], [-76.72771, 39.93234], [-76.72811, 39.93198], [-76.72858, 39.9317], [-76.7284, 39.93091], [-76.72832, 39.93064], [-76.72822, 39.93042], [-76.72804, 39.93028], [-76.72778, 39.92938], [-76.72799, 39.92916], [-76.72803, 39.92888], [-76.72791, 39.92837], [-76.72902, 39.92803], [-76.72981, 39.92759], [-76.73135, 39.92702], [-76.73174, 39.92681], [-76.73285, 39.92628], [-76.73407, 39.92563], [-76.73464, 39.92542], [-76.73501, 39.92528], [-76.73581, 39.92526], [-76.73641, 39.92517], [-76.73698, 39.92509], [-76.73756, 39.92509], [-76.73792, 39.92501], [-76.7383, 39.92566], [-76.73836, 39.92612], [-76.7382, 39.92706], [-76.73791, 39.92782], [-76.73739, 39.92853], [-76.73713, 39.92903], [-76.73679, 39.92939], [-76.73608, 39.92981], [-76.73543, 39.93028], [-76.73533, 39.93039], [-76.73584, 39.93142], [-76.73615, 39.93187], [-76.73674, 39.93192], [-76.73715, 39.93202], [-76.7375, 39.93219], [-76.738, 39.93296], [-76.73836, 39.93357], [-76.7388, 39.93423], [-76.73943, 39.93504], [-76.73976, 39.93577], [-76.74037, 39.93694], [-76.74094, 39.93823], [-76.74143, 39.93903], [-76.74149, 39.93928], [-76.74084, 39.93942], [-76.74113, 39.94006], [-76.74126, 39.94044], [-76.74015, 39.94095], [-76.74051, 39.94137], [-76.73954, 39.9419], [-76.73762, 39.94288], [-76.73565, 39.94379], [-76.734, 39.94436], [-76.73418, 39.94472], [-76.73365, 39.94492], [-76.73255, 39.94324], [-76.73237, 39.9429], [-76.73229, 39.94236], [-76.73208, 39.94206], [-76.73145, 39.94177], [-76.73052, 39.94103], [-76.72964, 39.94017], [-76.72951, 39.93978], [-76.72916, 39.9393]]]}}, {"type": "Feature", "properties": {"area_id": 9533, "city": "York", "state": "PA", "city_survey": true, "cat": "Still Desirable", "grade": "B", "label": "B1", "res": true, "com": false, "ind": false, "holc_grade": "B"}, "geometry": {"type": "Polygon", "coordinates": [[[-76.65709, 39.97608], [-76.65703, 39.97548], [-76.6568, 39.97429], [-76.65849, 39.97407], [-76.659991, 39.973832], [-76.66038, 39.97377], [-76.66295, 39.97349], [-76.66354, 39.97556], [-76.664003, 39.977725], [-76.66404, 39.9779], [-76.66156, 39.97875], [-76.661288, 39.978854], [-76.65957, 39.97951], [-76.65875, 39.9798], [-76.65815, 39.97928], [-76.65765, 39.97884], [-76.65726, 39.97844], [-76.65722, 39.97791], [-76.65729, 39.97739], [-76.65729, 39.976981], [-76.65729, 39.97685], [-76.65725, 39.97645], [-76.65709, 39.97608]]]}}, {"type": "Feature", "properties": {"area_id": 9538, "city": "York", "state": "PA", "city_survey": true, "cat": "Still Desirable", "grade": "B", "label": "B11", "res": true, "com": false, "ind": false, "holc_grade": "B"}, "geometry": {"type": "Polygon", "coordinates": [[[-76.72879, 39.95256], [-76.724628, 39.953681], [-76.72337, 39.95402], [-76.723262, 39.953604], [-76.72307, 39.95286], [-76.723838, 39.952632], [-76.72818, 39.95134], [-76.72879, 39.95256]]]}}, {"type": "Feature", "properties": {"area_id": 9532, "city": "York", "state": "PA", "city_survey": true, "cat": "Still Desirable", "grade": "B", "label": "B15", "res": true, "com": false, "ind": false, "holc_grade": "B"}, "geometry": {"type": "MultiPolygon", "coordinates": [[[[-76.77245, 39.95144], [-76.77441, 39.95076], [-76.77357, 39.94912], [-76.77507, 39.94864], [-76.77585, 39.94964], [-76.77768, 39.94844], [-76.778802, 39.949474], [-76.77986, 39.95045], [-76.77834, 39.95151], [-76.77837, 39.9518], [-76.779, 39.95276], [-76.7782, 39.95313], [-76.77601, 39.95379], [-76.77516, 39.95208], [-76.77318, 39.95274], [-76.77285, 39.95291], [-76.76821, 39.953656], [-76.76769, 39.95374], [-76.76504, 39.95399], [-76.76488, 39.95246], [-76.76592, 39.9524], [-76.76693, 39.95224], [-76.767646, 39.952207], [-76.76869, 39.95216], [-76.77124, 39.95166], [-76.77245, 39.95144]]], [[[-76.78107, 39.94632], [-76.7807, 39.94624], [-76.77966, 39.94583], [-76.7791, 39.94548], [-76.77888, 39.94497], [-76.77922, 39.94449], [-76.77971, 39.94426], [-76.78073, 39.94422], [-76.78152, 39.94419], [-76.7825, 39.94389], [-76.78453, 39.94323], [-76.78548, 39.94279], [-76.78621, 39.94222], [-76.78694, 39.9417], [-76.78772, 39.94121], [-76.78831, 39.9409], [-76.7882, 39.94181], [-76.78816, 39.94222], [-76.78818, 39.94262], [-76.78854, 39.94265], [-76.788732, 39.942928], [-76.78941, 39.94391], [-76.78724, 39.94489], [-76.78551, 39.94568], [-76.78358, 39.94651], [-76.7827, 39.947], [-76.78228, 39.94679], [-76.782108, 39.946636], [-76.782, 39.94654], [-76.78162, 39.94636], [-76.78107, 39.94632]]]]}}, {"type": "Feature", "properties": {"area_id": 9535, "city": "York", "state": "PA", "city_survey": true, "cat": "Still Desirable", "grade": "B", "label": "B17", "res": true, "com": false, "ind": false, "holc_grade": "B"}, "geometry": {"type": "Polygon", "coordinates": [[[-76.75646, 39.96033], [-76.756617, 39.960437], [-76.75668, 39.96048], [-76.75531, 39.96184], [-76.75302, 39.96429], [-76.7515, 39.96593], [-76.75021, 39.96731], [-76.747949, 39.966183], [-76.74698, 39.9657], [-76.746994, 39.965684], [-76.74738, 39.96523], [-76.74842, 39.96415], [-76.74952, 39.96298], [-76.75107, 39.96128], [-76.752996, 39.959183], [-76.7531, 39.95907], [-76.75646, 39.96033]]]}}, {"type": "Feature", "properties": {"area_id": 9539, "city": "York", "state": "PA", "city_survey": true, "cat": "Still Desirable", "grade": "B", "label": "B27", "res": true, "com": false, "ind": false, "holc_grade": "B"}, "geometry": {"type": "Polygon", "coordinates": [[[-76.7201, 39.95798], [-76.71875, 39.95834], [-76.71845, 39.95817], [-76.71815, 39.95756], [-76.71792, 39.95738], [-76.71714, 39.95742], [-76.71682, 39.95702], [-76.7167, 39.95669], [-76.71865, 39.95568], [-76.71921, 39.95699], [-76.71942, 39.95722], [-76.71972, 39.9572], [-76.71994, 39.95754], [-76.7201, 39.95798]]]}}, {"type": "Feature", "properties": {"area_id": 9522, "city": "York", "state": "PA", "city_survey": true, "cat": "Still Desirable", "grade": "B", "label": "B3", "res": true, "com": false, "ind": false, "holc_grade": "B"}, "geometry": {"type": "Polygon", "coordinates": [[[-76.69372, 39.96362], [-76.69556, 39.96388], [-76.69629, 39.96383], [-76.69646, 39.96395], [-76.69709, 39.96388], [-76.69789, 39.96389], [-76.69829, 39.96391], [-76.69881, 39.96387], [-76.69924, 39.9638], [-76.69943, 39.9637], [-76.69954, 39.964853], [-76.69979, 39.96747], [-76.701081, 39.969186], [-76.70131, 39.96949], [-76.702763, 39.97137], [-76.70322, 39.97196], [-76.70335, 39.97254], [-76.70343, 39.97316], [-76.7036, 39.9736], [-76.70362, 39.974], [-76.70364, 39.97432], [-76.70362, 39.97461], [-76.70371, 39.9749], [-76.70242, 39.97499], [-76.70242, 39.9754], [-76.70204, 39.97544], [-76.701644, 39.975483], [-76.70067, 39.97559], [-76.69989, 39.97573], [-76.69678, 39.9759], [-76.69668, 39.97563], [-76.69628, 39.97534], [-76.69608, 39.97498], [-76.69597, 39.97452], [-76.69561, 39.97343], [-76.694918, 39.973566], [-76.69388, 39.97377], [-76.69348, 39.97368], [-76.69285, 39.97203], [-76.69264, 39.97119], [-76.69249, 39.97042], [-76.69232, 39.97004], [-76.69214, 39.96972], [-76.69168, 39.96984], [-76.69095, 39.97], [-76.69027, 39.96998], [-76.69017, 39.96984], [-76.68994, 39.96899], [-76.68988, 39.96815], [-76.68962, 39.96754], [-76.68934, 39.96757], [-76.68851, 39.96651], [-76.68832, 39.96573], [-76.6881, 39.96449], [-76.6886, 39.96434], [-76.68871, 39.964495], [-76.68885, 39.96469], [-76.69166, 39.96318], [-76.69372, 39.96362]]]}}, {"type": "Feature", "properties": {"area_id": 9520, "city": "York", "state": "PA", "city_survey": true, "cat": "Still Desirable", "grade": "B", "label": "B7", "res": true, "com": false, "ind": false, "holc_grade": "B"}, "geometry": {"type": "Polygon", "coordinates": [[[-76.72567, 39.94976], [-76.72792, 39.94906], [-76.72888, 39.94898], [-76.72903, 39.94942], [-76.72624, 39.95029], [-76.72553, 39.95039], [-76.72435, 39.95073], [-76.723335, 39.950898], [-76.72302, 39.95095], [-76.72199, 39.95112], [-76.7217, 39.9511], [-76.72063, 39.95136], [-76.71831, 39.95178], [-76.71776, 39.95191], [-76.71689, 39.95243], [-76.71635, 39.95188], [-76.71724, 39.95153], [-76.71776, 39.95125], [-76.71884, 39.95103], [-76.72123, 39.9506], [-76.72214, 39.95048], [-76.72185, 39.94954], [-76.72285, 39.94939], [-76.72302, 39.94967], [-76.723703, 39.949547], [-76.72535, 39.94925], [-76.72567, 39.94976]]]}}, {"type": "Feature", "properties": {"area_id": 9527, "city": "York", "state": "PA", "city_survey": true, "cat": "Definitely Declining", "grade": "C", "label": "C13", "res": true, "com": false, "ind": false, "holc_grade": "C"}, "geometry": {"type": "Polygon", "coordinates": [[[-76.75931, 39.94829], [-76.76188, 39.9469], [-76.76266, 39.94622], [-76.76311, 39.94593], [-76.76348, 39.94574], [-76.76403, 39.94566], [-76.76446, 39.94581], [-76.76469, 39.94608], [-76.76465, 39.94636], [-76.76433, 39.94667], [-76.764573, 39.946848], [-76.76522, 39.94732], [-76.76357, 39.94858], [-76.76138, 39.94981], [-76.75996, 39.95062], [-76.75905, 39.95109], [-76.758, 39.95147], [-76.75564, 39.95227], [-76.7537, 39.95285], [-76.75158, 39.95227], [-76.751, 39.95212], [-76.74933, 39.95258], [-76.75026, 39.95307], [-76.75086, 39.95348], [-76.751, 39.95376], [-76.749937, 39.954008], [-76.74907, 39.95421], [-76.749105, 39.954276], [-76.7498, 39.9556], [-76.750613, 39.955217], [-76.75065, 39.9552], [-76.75178, 39.95493], [-76.7522, 39.95484], [-76.75191, 39.9553], [-76.751116, 39.955924], [-76.75107, 39.95596], [-76.75084, 39.95611], [-76.74927, 39.95726], [-76.74874, 39.95762], [-76.7461, 39.95842], [-76.74641, 39.95935], [-76.74494, 39.9598], [-76.74268, 39.96048], [-76.74226, 39.9598], [-76.74218, 39.95967], [-76.73898, 39.96065], [-76.737807, 39.961008], [-76.7378, 39.96101], [-76.737742, 39.960885], [-76.73648, 39.95816], [-76.736501, 39.958138], [-76.73737, 39.95723], [-76.73797, 39.9573], [-76.73917, 39.95643], [-76.73898, 39.95605], [-76.73947, 39.95567], [-76.74313, 39.95357], [-76.7435, 39.95342], [-76.74455, 39.95276], [-76.74585, 39.95241], [-76.748055, 39.951726], [-76.75075, 39.95089], [-76.75466, 39.94973], [-76.754978, 39.950366], [-76.75507, 39.95055], [-76.75539, 39.95066], [-76.75586, 39.95057], [-76.75639, 39.95015], [-76.75679, 39.94995], [-76.756893, 39.949772], [-76.75701, 39.94957], [-76.75821, 39.94886], [-76.75931, 39.94829]]]}}, {"type": "Feature", "properties": {"area_id": 9531, "city": "York", "state": "PA", "city_survey": true, "cat": "Definitely Declining", "grade": "C", "label": "C14", "res": true, "com": false, "ind": false, "holc_grade": "C"}, "geometry": {"type": "Polygon", "coordinates": [[[-76.7693, 39.95021], [-76.77087, 39.94993], [-76.77168, 39.94976], [-76.77276, 39.94936], [-76.77357, 39.94912], [-76.77441, 39.95076], [-76.77245, 39.95144], [-76.77124, 39.95166], [-76.76869, 39.95216], [-76.767646, 39.952207], [-76.76693, 39.95224], [-76.76592, 39.9524], [-76.76488, 39.95246], [-76.76504, 39.95399], [-76.76769, 39.95374], [-76.76821, 39.953656], [-76.77285, 39.95291], [-76.77318, 39.95274], [-76.77516, 39.95208], [-76.77601, 39.95379], [-76.77358, 39.95451], [-76.77091, 39.95499], [-76.76953, 39.95516], [-76.76976, 39.95615], [-76.76918, 39.956236], [-76.76915, 39.95624], [-76.769214, 39.956626], [-76.76929, 39.95708], [-76.769256, 39.957083], [-76.76466, 39.9575], [-76.75999, 39.95787], [-76.75817, 39.958], [-76.758104, 39.957455], [-76.75808, 39.95726], [-76.758122, 39.956963], [-76.75818, 39.95656], [-76.75702, 39.9559], [-76.75665, 39.95564], [-76.75631, 39.95496], [-76.75612, 39.95451], [-76.75642, 39.95453], [-76.75637, 39.95389], [-76.75656, 39.95374], [-76.75776, 39.95374], [-76.75907, 39.9537], [-76.75902, 39.95282], [-76.75889, 39.95258], [-76.75894, 39.95211], [-76.75909, 39.95201], [-76.76, 39.952], [-76.76025, 39.9517], [-76.76058, 39.95157], [-76.76124, 39.95145], [-76.76296, 39.95136], [-76.76364, 39.95129], [-76.76463, 39.95128], [-76.76467, 39.9507], [-76.7654, 39.95059], [-76.76578, 39.95062], [-76.76644, 39.95055], [-76.766999, 39.95053], [-76.76729, 39.95052], [-76.76812, 39.95039], [-76.7693, 39.95021]]]}}, {"type": "Feature", "properties": {"area_id": 9534, "city": "York", "state": "PA", "city_survey": true, "cat": "Definitely Declining", "grade": "C", "label": "C16", "res": true, "com": false, "ind": false, "holc_grade": "C"}, "geometry": {"type": "Polygon", "coordinates": [[[-76.75172, 39.95729], [-76.751616, 39.95745], [-76.75127, 39.95798], [-76.75113, 39.95835], [-76.751564, 39.958489], [-76.75194, 39.95861], [-76.7531, 39.95907], [-76.752996, 39.959183], [-76.75107, 39.96128], [-76.74952, 39.96298], [-76.74842, 39.96415], [-76.74738, 39.96523], [-76.746994, 39.965684], [-76.74698, 39.9657], [-76.74684, 39.96587], [-76.74609, 39.96677], [-76.74429, 39.965759], [-76.74415, 39.96568], [-76.7438, 39.96553], [-76.74322, 39.96524], [-76.74271, 39.96569], [-76.74188, 39.96557], [-76.74129, 39.96512], [-76.74079, 39.96459], [-76.74016, 39.96444], [-76.73907, 39.96513], [-76.7382, 39.96562], [-76.7378, 39.9652], [-76.73697, 39.96441], [-76.73659, 39.96386], [-76.73632, 39.96323], [-76.73837, 39.96254], [-76.7386, 39.96247], [-76.73877, 39.96292], [-76.7391, 39.9629], [-76.73967, 39.96264], [-76.74017, 39.9621], [-76.740747, 39.962327], [-76.74101, 39.96243], [-76.7414, 39.96213], [-76.74213, 39.9624], [-76.74242, 39.96213], [-76.74358, 39.96259], [-76.74399, 39.96216], [-76.74511, 39.96271], [-76.74636, 39.96132], [-76.74538, 39.96079], [-76.74663, 39.95943], [-76.74757, 39.9599], [-76.74869, 39.95874], [-76.75041, 39.95689], [-76.75069, 39.95692], [-76.751624, 39.957255], [-76.75172, 39.95729]]]}}, {"type": "Feature", "properties": {"area_id": 9536, "city": "York", "state": "PA", "city_survey": true, "cat": "Definitely Declining", "grade": "C", "label": "C18", "res": true, "com": false, "ind": false, "holc_grade": "C"}, "geometry": {"type": "Polygon", "coordinates": [[[-76.75156, 39.96808], [-76.751544, 39.969608], [-76.75153, 39.97092], [-76.75153, 39.971182], [-76.75153, 39.9726], [-76.75126, 39.97275], [-76.7508, 39.9727], [-76.7505, 39.97278], [-76.75009, 39.97269], [-76.75005, 39.97296], [-76.74917, 39.9732], [-76.74772, 39.9734], [-76.7478, 39.97061], [-76.74782, 39.96865], [-76.7478, 39.96762], [-76.74609, 39.96677], [-76.74684, 39.96587], [-76.74698, 39.9657], [-76.747949, 39.966183], [-76.75021, 39.96731], [-76.75156, 39.96808]]]}}, {"type": "Feature", "properties": {"area_id": 9529, "city": "York", "state": "PA", "city_survey": true, "cat": "Definitely Declining", "grade": "C", "label": "C19", "res": true, "com": false, "ind": false, "holc_grade": "C"}, "geometry": {"type": "Polygon", "coordinates": [[[-76.731745, 39.971089], [-76.73171, 39.97109], [-76.731768, 39.971478], [-76.73182, 39.971823], [-76.7319, 39.97236], [-76.7322, 39.97442], [-76.73255, 39.97581], [-76.73399, 39.9757], [-76.73504, 39.97927], [-76.73652, 39.97906], [-76.73671, 39.98011], [-76.73562, 39.98037], [-76.73596, 39.98153], [-76.73595, 39.98208], [-76.73583, 39.9827], [-76.73455, 39.9824], [-76.73227, 39.98307], [-76.7322, 39.98295], [-76.73173, 39.98195], [-76.73147, 39.98141], [-76.7287, 39.98195], [-76.728368, 39.981935], [-76.72825, 39.98193], [-76.728049, 39.981779], [-76.72789, 39.98166], [-76.72733, 39.97994], [-76.72681, 39.97835], [-76.72621, 39.97646], [-76.72634, 39.97626], [-76.72765, 39.97599], [-76.72865, 39.97577], [-76.72914, 39.97559], [-76.72895, 39.975], [-76.72901, 39.97432], [-76.72946, 39.97317], [-76.729828, 39.972738], [-76.73009, 39.97243], [-76.72988, 39.97144], [-76.72977, 39.96937], [-76.730329, 39.968942], [-76.73071, 39.96865], [-76.73094, 39.96891], [-76.731358, 39.969588], [-76.73165, 39.97006], [-76.73208, 39.97108], [-76.731745, 39.971089]]]}}, {"type": "Feature", "properties": {"area_id": 9521, "city": "York", "state": "PA", "city_survey": true, "cat": "Definitely Declining", "grade": "C", "label": "C21", "res": true, "com": false, "ind": false, "holc_grade": "C"}, "geometry": {"type": "Polygon", "coordinates": [[[-76.71329, 39.9639], [-76.713191, 39.963923], [-76.71109, 39.96441], [-76.70738, 39.9653], [-76.707458, 39.965468], [-76.70814, 39.96695], [-76.70895, 39.96842], [-76.709094, 39.968516], [-76.70913, 39.96854], [-76.71014, 39.968047], [-76.711549, 39.96736], [-76.711594, 39.967338], [-76.71161, 39.96733], [-76.711634, 39.967321], [-76.71204, 39.96718], [-76.71335, 39.966615], [-76.71408, 39.9663], [-76.71446, 39.96613], [-76.714596, 39.966099], [-76.71477, 39.96606], [-76.71503, 39.96609], [-76.71519, 39.96597], [-76.715146, 39.965653], [-76.71514, 39.96561], [-76.71579, 39.96535], [-76.71627, 39.96595], [-76.71627, 39.966175], [-76.71627, 39.96619], [-76.71598, 39.96635], [-76.71618, 39.96671], [-76.71603, 39.96687], [-76.71652, 39.9677], [-76.71681, 39.96764], [-76.71757, 39.96726], [-76.7183, 39.967], [-76.71861, 39.96749], [-76.71872, 39.96771], [-76.71696, 39.96835], [-76.71724, 39.9689], [-76.71764, 39.9697], [-76.71793, 39.97016], [-76.71486, 39.97124], [-76.713204, 39.971838], [-76.713182, 39.971846], [-76.71306, 39.97189], [-76.71304, 39.97215], [-76.712809, 39.972921], [-76.71277, 39.97305], [-76.7126, 39.97313], [-76.71194, 39.97238], [-76.71178, 39.97237], [-76.71064, 39.97256], [-76.71007, 39.97278], [-76.70962, 39.97295], [-76.70903, 39.97304], [-76.70841, 39.97315], [-76.70755, 39.97341], [-76.70716, 39.97347], [-76.70701, 39.97455], [-76.70668, 39.97451], [-76.70647, 39.97447], [-76.70623, 39.97421], [-76.70603, 39.97396], [-76.70594, 39.97394], [-76.70561, 39.97411], [-76.70371, 39.9749], [-76.70362, 39.97461], [-76.70364, 39.97432], [-76.70362, 39.974], [-76.7036, 39.9736], [-76.70343, 39.97316], [-76.70335, 39.97254], [-76.70322, 39.97196], [-76.702763, 39.97137], [-76.70131, 39.96949], [-76.701081, 39.969186], [-76.69979, 39.96747], [-76.699953, 39.967419], [-76.70394, 39.96616], [-76.70259, 39.96321], [-76.70458, 39.96283], [-76.71176, 39.9622], [-76.71252, 39.96237], [-76.71295, 39.96268], [-76.71372, 39.96372], [-76.713307, 39.963893], [-76.71329, 39.9639]]]}}, {"type": "Feature", "properties": {"area_id": 9537, "city": "York", "state": "PA", "city_survey": true, "cat": "Definitely Declining", "grade": "C", "label": "C25", "res": true, "com": false, "ind": false, "holc_grade": "C"}, "geometry": {"type": "Polygon", "coordinates": [[[-76.731273, 39.948294], [-76.73129, 39.94832], [-76.73185, 39.94922], [-76.73251, 39.95029], [-76.73293, 39.95171], [-76.732843, 39.951842], [-76.73281, 39.951893], [-76.73184, 39.953371], [-76.73169, 39.9536], [-76.73057, 39.95426], [-76.729175, 39.954612], [-76.72839, 39.95481], [-76.725937, 39.95557], [-76.725887, 39.955585], [-76.725441, 39.955723], [-76.72529, 39.95577], [-76.726548, 39.957986], [-76.72655, 39.95799], [-76.726419, 39.958029], [-76.72272, 39.95914], [-76.71968, 39.96005], [-76.718854, 39.960325], [-76.71796, 39.960623], [-76.71779, 39.96068], [-76.71601, 39.96084], [-76.71563, 39.95807], [-76.7152, 39.95736], [-76.71503, 39.95702], [-76.71401, 39.95567], [-76.71332, 39.95461], [-76.71266, 39.95377], [-76.713115, 39.953537], [-76.71635, 39.95188], [-76.71689, 39.95243], [-76.71776, 39.95191], [-76.71831, 39.95178], [-76.72063, 39.95136], [-76.7217, 39.9511], [-76.72199, 39.95112], [-76.72302, 39.95095], [-76.723335, 39.950898], [-76.72435, 39.95073], [-76.72553, 39.95039], [-76.72624, 39.95029], [-76.72903, 39.94942], [-76.72888, 39.94898], [-76.731192, 39.948219], [-76.73122, 39.94821], [-76.731273, 39.948294]], [[-76.71865, 39.95568], [-76.7167, 39.95669], [-76.71682, 39.95702], [-76.71714, 39.95742], [-76.71792, 39.95738], [-76.71815, 39.95756], [-76.71845, 39.95817], [-76.71875, 39.95834], [-76.71876, 39.95848], [-76.71914, 39.95909], [-76.72031, 39.95878], [-76.72061, 39.95871], [-76.72082, 39.95898], [-76.72124, 39.95883], [-76.72091, 39.95827], [-76.72052, 39.9575], [-76.7204, 39.95739], [-76.71994, 39.95754], [-76.71972, 39.9572], [-76.71942, 39.95722], [-76.71921, 39.95699], [-76.71865, 39.95568]], [[-76.72343, 39.95669], [-76.72294, 39.95575], [-76.72238, 39.95488], [-76.72224, 39.95433], [-76.72122, 39.95447], [-76.72028, 39.95469], [-76.72053, 39.95514], [-76.71999, 39.95534], [-76.72097, 39.95726], [-76.72248, 39.95686], [-76.72261, 39.95701], [-76.72273, 39.95734], [-76.72298, 39.95751], [-76.72361, 39.95726], [-76.72343, 39.95669]], [[-76.72879, 39.95256], [-76.72818, 39.95134], [-76.723838, 39.952632], [-76.72307, 39.95286], [-76.723262, 39.953604], [-76.72337, 39.95402], [-76.724628, 39.953681], [-76.72879, 39.95256]]]}}, {"type": "Feature", "properties": {"area_id": 9516, "city": "York", "state": "PA", "city_survey": true, "cat": "Definitely Declining", "grade": "C", "label": "C4", "res": true, "com": false, "ind": false, "holc_grade": "C"}, "geometry": {"type": "Polygon", "coordinates": [[[-76.69944, 39.96316], [-76.69943, 39.9637], [-76.69924, 39.9638], [-76.69881, 39.96387], [-76.69829, 39.96391], [-76.69789, 39.96389], [-76.69709, 39.96388], [-76.69646, 39.96395], [-76.69629, 39.96383], [-76.69627, 39.96338], [-76.69628, 39.96304], [-76.69627, 39.96284], [-76.69626, 39.96249], [-76.69623, 39.9622], [-76.69612, 39.96211], [-76.6956, 39.96214], [-76.69495, 39.96214], [-76.69394, 39.9622], [-76.69391, 39.96186], [-76.69374, 39.96133], [-76.69369, 39.96097], [-76.69356, 39.96054], [-76.69324, 39.96007], [-76.69289, 39.95934], [-76.69272, 39.95896], [-76.69318, 39.95897], [-76.69403, 39.95903], [-76.69462, 39.95903], [-76.69536, 39.95907], [-76.69612, 39.95908], [-76.69669, 39.95904], [-76.69721, 39.95909], [-76.69759, 39.959], [-76.69759, 39.95868], [-76.69768, 39.95819], [-76.69764, 39.95782], [-76.69764, 39.95761], [-76.69745, 39.95738], [-76.69707, 39.95742], [-76.69695, 39.95722], [-76.69686, 39.95676], [-76.69676, 39.9563], [-76.69673, 39.95523], [-76.69837, 39.95516], [-76.69818, 39.95406], [-76.69851, 39.95391], [-76.69913, 39.9537], [-76.69938, 39.95366], [-76.69936, 39.95429], [-76.69948, 39.95483], [-76.69955, 39.95574], [-76.69995, 39.95908], [-76.70205, 39.95936], [-76.70297, 39.95976], [-76.70285, 39.95929], [-76.70378, 39.95904], [-76.706946, 39.958473], [-76.71205, 39.95756], [-76.71503, 39.95702], [-76.7152, 39.95736], [-76.71563, 39.95807], [-76.71601, 39.96084], [-76.71554, 39.96085], [-76.7145, 39.96092], [-76.71431, 39.96095], [-76.71049, 39.96104], [-76.70999, 39.96115], [-76.70986, 39.96134], [-76.70972, 39.96168], [-76.70817, 39.96175], [-76.70823, 39.96216], [-76.70727, 39.96214], [-76.70457, 39.96221], [-76.70098, 39.96262], [-76.70032, 39.96263], [-76.69981, 39.96272], [-76.699543, 39.962749], [-76.69944, 39.96276], [-76.69944, 39.96316]]]}}, {"type": "Feature", "properties": {"area_id": 9518, "city": "York", "state": "PA", "city_survey": true, "cat": "Definitely Declining", "grade": "C", "label": "C6", "res": true, "com": false, "ind": false, "holc_grade": "C"}, "geometry": {"type": "Polygon", "coordinates": [[[-76.71045, 39.94901], [-76.71169, 39.9485], [-76.71291, 39.94919], [-76.71495, 39.95068], [-76.71635, 39.95188], [-76.713115, 39.953537], [-76.71266, 39.95377], [-76.7122, 39.95326], [-76.71259, 39.953], [-76.712371, 39.952796], [-76.71102, 39.95154], [-76.711084, 39.951498], [-76.7125, 39.95057], [-76.71045, 39.94901]]]}}, {"type": "Feature", "properties": {"area_id": 9526, "city": "York", "state": "PA", "city_survey": true, "cat": "Hazardous", "grade": "D", "label": "D12", "res": true, "com": false, "ind": false, "holc_grade": "D"}, "geometry": {"type": "Polygon", "coordinates": [[[-76.75389, 39.94868], [-76.75382, 39.94829], [-76.75781, 39.94651], [-76.75931, 39.94829], [-76.75821, 39.94886], [-76.75701, 39.94957], [-76.756893, 39.949772], [-76.75679, 39.94995], [-76.75639, 39.95015], [-76.75586, 39.95057], [-76.75539, 39.95066], [-76.75507, 39.95055], [-76.754978, 39.950366], [-76.75466, 39.94973], [-76.75075, 39.95089], [-76.748055, 39.951726], [-76.74585, 39.95241], [-76.74455, 39.95276], [-76.7435, 39.95342], [-76.74313, 39.95357], [-76.73947, 39.95567], [-76.73898, 39.95605], [-76.73917, 39.95643], [-76.73797, 39.9573], [-76.73737, 39.95723], [-76.736501, 39.958138], [-76.73648, 39.95816], [-76.73633, 39.958209], [-76.73391, 39.959], [-76.73388, 39.958938], [-76.73254, 39.95613], [-76.73324, 39.95593], [-76.73357, 39.95574], [-76.73324, 39.95526], [-76.7341, 39.95499], [-76.73396, 39.95452], [-76.73414, 39.95448], [-76.73474, 39.95445], [-76.73711, 39.95386], [-76.73722, 39.95419], [-76.73688, 39.95443], [-76.73709, 39.95481], [-76.738096, 39.954466], [-76.74066, 39.95359], [-76.74043, 39.95314], [-76.74138, 39.95277], [-76.74209, 39.95244], [-76.74369, 39.95206], [-76.74458, 39.95164], [-76.74533, 39.95142], [-76.74704, 39.950812], [-76.74817, 39.95041], [-76.75271, 39.94896], [-76.75389, 39.94868]]]}}, {"type": "Feature", "properties": {"area_id": 9525, "city": "York", "state": "PA", "city_survey": true, "cat": "Hazardous", "grade": "D", "label": "D20", "res": true, "com": false, "ind": false, "holc_grade": "D"}, "geometry": {"type": "Polygon", "coordinates": [[[-76.71406, 39.97337], [-76.71371, 39.97338], [-76.71354, 39.97318], [-76.712617, 39.973491], [-76.71256, 39.97351], [-76.71238, 39.97371], [-76.70959, 39.97444], [-76.70702, 39.97497], [-76.70701, 39.97455], [-76.70716, 39.97347], [-76.70755, 39.97341], [-76.70841, 39.97315], [-76.70903, 39.97304], [-76.70962, 39.97295], [-76.71007, 39.97278], [-76.71064, 39.97256], [-76.71178, 39.97237], [-76.71194, 39.97238], [-76.7126, 39.97313], [-76.71277, 39.97305], [-76.712809, 39.972921], [-76.71304, 39.97215], [-76.71306, 39.97189], [-76.713182, 39.971846], [-76.713204, 39.971838], [-76.71486, 39.97124], [-76.71793, 39.97016], [-76.71764, 39.9697], [-76.71724, 39.9689], [-76.71696, 39.96835], [-76.71872, 39.96771], [-76.71946, 39.96739], [-76.71976, 39.96769], [-76.72031, 39.96751], [-76.72063, 39.96767], [-76.72079, 39.96802], [-76.72065, 39.96811], [-76.71899, 39.96877], [-76.71873, 39.96876], [-76.71972, 39.97045], [-76.71847, 39.97091], [-76.718839, 39.971775], [-76.71885, 39.9718], [-76.71939, 39.97199], [-76.72026, 39.97194], [-76.72081, 39.97196], [-76.722, 39.97211], [-76.72202, 39.97247], [-76.72179, 39.97435], [-76.7216, 39.97563], [-76.72025, 39.97525], [-76.71989, 39.97528], [-76.71853, 39.97505], [-76.71774, 39.97732], [-76.71745, 39.97803], [-76.717269, 39.978586], [-76.71718, 39.97886], [-76.715926, 39.978467], [-76.71479, 39.97811], [-76.71465, 39.97679], [-76.71332, 39.97651], [-76.71165, 39.976], [-76.71181, 39.97532], [-76.71206, 39.97488], [-76.71476, 39.97542], [-76.7154, 39.97385], [-76.71557, 39.9736], [-76.71538, 39.97334], [-76.715013, 39.973333], [-76.71484, 39.97333], [-76.71422, 39.97342], [-76.71406, 39.97337]]]}}, {"type": "Feature", "properties": {"area_id": 9524, "city": "York", "state": "PA", "city_survey": true, "cat": "Hazardous", "grade": "D", "label": "D22", "res": true, "com": false, "ind": false, "holc_grade": "D"}, "geometry": {"type": "Polygon", "coordinates": [[[-76.714388, 39.963607], [-76.71455, 39.96367], [-76.71509, 39.96444], [-76.71533, 39.96479], [-76.71579, 39.96535], [-76.71514, 39.96561], [-76.715146, 39.965653], [-76.71519, 39.96597], [-76.71503, 39.96609], [-76.71477, 39.96606], [-76.714596, 39.966099], [-76.71446, 39.96613], [-76.71408, 39.9663], [-76.71335, 39.966615], [-76.71204, 39.96718], [-76.711634, 39.967321], [-76.71161, 39.96733], [-76.711594, 39.967338], [-76.711549, 39.96736], [-76.71014, 39.968047], [-76.70913, 39.96854], [-76.709094, 39.968516], [-76.70895, 39.96842], [-76.70814, 39.96695], [-76.707458, 39.965468], [-76.70738, 39.9653], [-76.71109, 39.96441], [-76.713191, 39.963923], [-76.71329, 39.9639], [-76.713307, 39.963893], [-76.71372, 39.96372], [-76.71437, 39.9636], [-76.714388, 39.963607]]]}}, {"type": "Feature", "properties": {"area_id": 9530, "city": "York", "state": "PA", "city_survey": true, "cat": "Hazardous", "grade": "D", "label": "D23", "res": true, "com": false, "ind": false, "holc_grade": "D"}, "geometry": {"type": "MultiPolygon", "coordinates": [[[[-76.72966, 39.95524], [-76.73114, 39.95823], [-76.73021, 39.9586], [-76.730839, 39.959878], [-76.73084, 39.95988], [-76.72904, 39.96045], [-76.729027, 39.960444], [-76.728951, 39.960408], [-76.72885, 39.96036], [-76.72856, 39.95968], [-76.72829, 39.95916], [-76.72657, 39.95951], [-76.72579, 39.95904], [-76.72385, 39.95963], [-76.72426, 39.96019], [-76.72261, 39.96072], [-76.72247, 39.96084], [-76.72373, 39.96327], [-76.723652, 39.963295], [-76.719319, 39.964654], [-76.7186, 39.96488], [-76.71718, 39.96527], [-76.71659, 39.96431], [-76.7168, 39.96419], [-76.716295, 39.963032], [-76.71629, 39.96302], [-76.718004, 39.962302], [-76.718352, 39.962156], [-76.71851, 39.96209], [-76.718371, 39.961817], [-76.71779, 39.96068], [-76.71796, 39.960623], [-76.718854, 39.960325], [-76.71968, 39.96005], [-76.72272, 39.95914], [-76.726419, 39.958029], [-76.72655, 39.95799], [-76.726941, 39.957871], [-76.72773, 39.95763], [-76.72955, 39.95708], [-76.728409, 39.954846], [-76.72839, 39.95481], [-76.729175, 39.954612], [-76.73057, 39.95426], [-76.72966, 39.95524]]], [[[-76.72498, 39.96582], [-76.72583, 39.9674], [-76.725777, 39.967434], [-76.72504, 39.96791], [-76.72454, 39.9674], [-76.72439, 39.9674], [-76.7235, 39.96793], [-76.72313, 39.96737], [-76.72246, 39.96752], [-76.72185, 39.96679], [-76.72162, 39.96672], [-76.71783, 39.96611], [-76.71925, 39.96558], [-76.72401, 39.96412], [-76.72423, 39.96442], [-76.72032, 39.9656], [-76.72077, 39.96628], [-76.72198, 39.96588], [-76.72228, 39.96655], [-76.724936, 39.965832], [-76.72498, 39.96582]]], [[[-76.72864, 39.96853], [-76.72865, 39.96881], [-76.72778, 39.96905], [-76.72794, 39.96939], [-76.72578, 39.97012], [-76.72544, 39.96982], [-76.72511, 39.96994], [-76.72455, 39.96906], [-76.72839, 39.96797], [-76.72864, 39.96853]]]]}}, {"type": "Feature", "properties": {"area_id": 9540, "city": "York", "state": "PA", "city_survey": true, "cat": "Hazardous", "grade": "D", "label": "D24", "res": true, "com": false, "ind": false, "holc_grade": "D"}, "geometry": {"type": "MultiPolygon", "coordinates": [[[[-76.71994, 39.95754], [-76.7204, 39.95739], [-76.72052, 39.9575], [-76.72091, 39.95827], [-76.72124, 39.95883], [-76.72082, 39.95898], [-76.72061, 39.95871], [-76.72031, 39.95878], [-76.71914, 39.95909], [-76.71876, 39.95848], [-76.71875, 39.95834], [-76.7201, 39.95798], [-76.71994, 39.95754]]], [[[-76.72097, 39.95726], [-76.71999, 39.95534], [-76.72053, 39.95514], [-76.72028, 39.95469], [-76.72122, 39.95447], [-76.72224, 39.95433], [-76.72238, 39.95488], [-76.72294, 39.95575], [-76.72343, 39.95669], [-76.72361, 39.95726], [-76.72298, 39.95751], [-76.72273, 39.95734], [-76.72261, 39.95701], [-76.72248, 39.95686], [-76.72097, 39.95726]]]]}}, {"type": "Feature", "properties": {"area_id": 9528, "city": "York", "state": "PA", "city_survey": true, "cat": "Hazardous", "grade": "D", "label": "D26", "res": true, "com": false, "ind": false, "holc_grade": "D"}, "geometry": {"type": "Polygon", "coordinates": [[[-76.7387, 39.96137], [-76.73819, 39.96158], [-76.73835, 39.96212], [-76.738522, 39.962378], [-76.73855, 39.96242], [-76.7386, 39.96247], [-76.73837, 39.96254], [-76.73632, 39.96323], [-76.73659, 39.96386], [-76.73697, 39.96441], [-76.7378, 39.9652], [-76.7382, 39.96562], [-76.73856, 39.96601], [-76.73731, 39.96666], [-76.73831, 39.9678], [-76.73989, 39.96951], [-76.740171, 39.96967], [-76.74033, 39.96976], [-76.74101, 39.96963], [-76.74169, 39.96955], [-76.74207, 39.9696], [-76.73839, 39.97134], [-76.7375, 39.97164], [-76.73684, 39.97176], [-76.735982, 39.971731], [-76.73594, 39.97173], [-76.73523, 39.971604], [-76.73431, 39.97144], [-76.73364, 39.97141], [-76.73255, 39.97126], [-76.73208, 39.97108], [-76.73165, 39.97006], [-76.731358, 39.969588], [-76.73094, 39.96891], [-76.73071, 39.96865], [-76.730845, 39.968548], [-76.73183, 39.9678], [-76.73216, 39.96749], [-76.73239, 39.96721], [-76.73308, 39.967], [-76.73433, 39.96649], [-76.73482, 39.96522], [-76.73498, 39.96481], [-76.73529, 39.96425], [-76.73571, 39.96358], [-76.735594, 39.963513], [-76.73505, 39.9632], [-76.73485, 39.96291], [-76.73439, 39.96198], [-76.73645, 39.96145], [-76.73675, 39.96136], [-76.7378, 39.96101], [-76.737807, 39.961008], [-76.73898, 39.96065], [-76.73893, 39.96101], [-76.7387, 39.96137]]]}}, {"type": "Feature", "properties": {"area_id": 9517, "city": "York", "state": "PA", "city_survey": true, "cat": "Hazardous", "grade": "D", "label": "D5", "res": true, "com": false, "ind": false, "holc_grade": "D"}, "geometry": {"type": "Polygon", "coordinates": [[[-76.702104, 39.951362], [-76.7027, 39.95876], [-76.70285, 39.95929], [-76.70297, 39.95976], [-76.70205, 39.95936], [-76.69995, 39.95908], [-76.69955, 39.95574], [-76.69948, 39.95483], [-76.69936, 39.95429], [-76.69938, 39.95366], [-76.69984, 39.95354], [-76.69965, 39.95178], [-76.69963, 39.94995], [-76.701799, 39.949243], [-76.70193, 39.9492], [-76.702104, 39.951362]]]}}, {"type": "Feature", "properties": {"area_id": 11364, "city": "York", "state": "PA", "city_survey": true, "cat": "Industrial and Commercial", "grade": null, "label": "Industrial and Commercial", "res": false, "com": true, "ind": true, "holc_grade": null}, "geometry": {"type": "MultiPolygon", "coordinates": [[[[-76.73648, 39.95816], [-76.737742, 39.960885], [-76.7378, 39.96101], [-76.73675, 39.96136], [-76.73645, 39.96145], [-76.73439, 39.96198], [-76.73485, 39.96291], [-76.73505, 39.9632], [-76.735594, 39.963513], [-76.73571, 39.96358], [-76.73529, 39.96425], [-76.73498, 39.96481], [-76.73319, 39.96624], [-76.730726, 39.968306], [-76.730354, 39.968618], [-76.73034, 39.96863], [-76.730308, 39.968652], [-76.72868, 39.96977], [-76.72575, 39.971223], [-76.72511, 39.97154], [-76.72433, 39.972], [-76.72353, 39.97376], [-76.72285, 39.97734], [-76.72299, 39.98024], [-76.72173, 39.97959], [-76.72251, 39.97313], [-76.72261, 39.97206], [-76.7216, 39.97128], [-76.72042, 39.97137], [-76.71952, 39.97148], [-76.719898, 39.97117], [-76.72064, 39.97056], [-76.72191, 39.96963], [-76.724006, 39.968543], [-76.72407, 39.96851], [-76.723965, 39.968484], [-76.72063, 39.96767], [-76.72031, 39.96751], [-76.71976, 39.96769], [-76.71946, 39.96739], [-76.71872, 39.96771], [-76.71861, 39.96749], [-76.7183, 39.967], [-76.71757, 39.96726], [-76.71681, 39.96764], [-76.71652, 39.9677], [-76.71603, 39.96687], [-76.71618, 39.96671], [-76.71598, 39.96635], [-76.71627, 39.96619], [-76.71627, 39.966175], [-76.71627, 39.96595], [-76.71579, 39.96535], [-76.71533, 39.96479], [-76.71509, 39.96444], [-76.71455, 39.96367], [-76.714388, 39.963607], [-76.71437, 39.9636], [-76.71372, 39.96372], [-76.71295, 39.96268], [-76.71252, 39.96237], [-76.71176, 39.9622], [-76.70458, 39.96283], [-76.70259, 39.96321], [-76.70394, 39.96616], [-76.699953, 39.967419], [-76.69979, 39.96747], [-76.69954, 39.964853], [-76.69943, 39.9637], [-76.69944, 39.96316], [-76.69944, 39.96276], [-76.699543, 39.962749], [-76.69981, 39.96272], [-76.70032, 39.96263], [-76.70098, 39.96262], [-76.70457, 39.96221], [-76.70727, 39.96214], [-76.70823, 39.96216], [-76.70817, 39.96175], [-76.70972, 39.96168], [-76.70986, 39.96134], [-76.70999, 39.96115], [-76.71049, 39.96104], [-76.71431, 39.96095], [-76.7145, 39.96092], [-76.71554, 39.96085], [-76.71601, 39.96084], [-76.71779, 39.96068], [-76.718371, 39.961817], [-76.71851, 39.96209], [-76.718352, 39.962156], [-76.718004, 39.962302], [-76.71629, 39.96302], [-76.716295, 39.963032], [-76.7168, 39.96419], [-76.71659, 39.96431], [-76.71669, 39.96447], [-76.71609, 39.96472], [-76.71681, 39.96582], [-76.71741, 39.96556], [-76.717493, 39.965669], [-76.71783, 39.96611], [-76.72162, 39.96672], [-76.72185, 39.96679], [-76.72246, 39.96752], [-76.72313, 39.96737], [-76.7235, 39.96793], [-76.72439, 39.9674], [-76.72454, 39.9674], [-76.72504, 39.96791], [-76.725777, 39.967434], [-76.72583, 39.9674], [-76.72498, 39.96582], [-76.724936, 39.965832], [-76.72292, 39.96638], [-76.72214, 39.96505], [-76.72423, 39.96442], [-76.72401, 39.96412], [-76.723888, 39.963751], [-76.72373, 39.96327], [-76.72247, 39.96084], [-76.72261, 39.96072], [-76.72426, 39.96019], [-76.72385, 39.95963], [-76.72579, 39.95904], [-76.72657, 39.95951], [-76.72829, 39.95916], [-76.72856, 39.95968], [-76.72885, 39.96036], [-76.728951, 39.960408], [-76.729027, 39.960444], [-76.72904, 39.96045], [-76.73084, 39.95988], [-76.730839, 39.959878], [-76.73021, 39.9586], [-76.73114, 39.95823], [-76.72966, 39.95524], [-76.73057, 39.95426], [-76.73169, 39.9536], [-76.731838, 39.953373], [-76.7324, 39.95251], [-76.732206, 39.953115], [-76.73167, 39.95479], [-76.73169, 39.95627], [-76.73254, 39.95613], [-76.73388, 39.958938], [-76.73391, 39.959], [-76.73633, 39.958209], [-76.73648, 39.95816]], [[-76.72794, 39.96939], [-76.72778, 39.96905], [-76.72865, 39.96881], [-76.72864, 39.96853], [-76.72839, 39.96797], [-76.72455, 39.96906], [-76.72511, 39.96994], [-76.72544, 39.96982], [-76.72578, 39.97012], [-76.72794, 39.96939]]], [[[-76.73365, 39.95144], [-76.73431, 39.95202], [-76.73539, 39.95233], [-76.73557, 39.95304], [-76.73369, 39.95309], [-76.73283, 39.95186], [-76.732838, 39.951848], [-76.73293, 39.95171], [-76.73259, 39.95054], [-76.733528, 39.950476], [-76.73361, 39.95047], [-76.733881, 39.950828], [-76.73389, 39.95084], [-76.73365, 39.95144]]], [[[-76.73519, 39.94725], [-76.73848, 39.94633], [-76.739, 39.94712], [-76.73876, 39.94821], [-76.74024, 39.95099], [-76.7378, 39.95176], [-76.73519, 39.94725]]], [[[-76.73921, 39.95409], [-76.738097, 39.954468], [-76.73709, 39.95481], [-76.73688, 39.95443], [-76.73722, 39.95419], [-76.73711, 39.95386], [-76.738478, 39.953077], [-76.73856, 39.95303], [-76.73921, 39.95409]]], [[[-76.75069, 39.95692], [-76.75041, 39.95689], [-76.74869, 39.95874], [-76.74757, 39.9599], [-76.74663, 39.95943], [-76.74538, 39.96079], [-76.74636, 39.96132], [-76.74511, 39.96271], [-76.74399, 39.96216], [-76.74358, 39.96259], [-76.74242, 39.96213], [-76.74213, 39.9624], [-76.7414, 39.96213], [-76.74101, 39.96243], [-76.740747, 39.962327], [-76.74017, 39.9621], [-76.73967, 39.96264], [-76.7391, 39.9629], [-76.73877, 39.96292], [-76.7386, 39.96247], [-76.73855, 39.96242], [-76.738522, 39.962378], [-76.73835, 39.96212], [-76.73819, 39.96158], [-76.7387, 39.96137], [-76.73893, 39.96101], [-76.73898, 39.96065], [-76.74218, 39.95967], [-76.74226, 39.9598], [-76.74268, 39.96048], [-76.74494, 39.9598], [-76.74641, 39.95935], [-76.7461, 39.95842], [-76.74874, 39.95762], [-76.74927, 39.95726], [-76.75084, 39.95611], [-76.75107, 39.95596], [-76.751128, 39.95604], [-76.751546, 39.956623], [-76.75158, 39.95667], [-76.75158, 39.956674], [-76.75159, 39.95724], [-76.75069, 39.95692]]], [[[-76.73908, 39.94461], [-76.7403, 39.94389], [-76.744734, 39.94572], [-76.74483, 39.94576], [-76.744464, 39.946065], [-76.74387, 39.94656], [-76.7439, 39.94726], [-76.74185, 39.94826], [-76.73908, 39.94461]]], [[[-76.77144, 39.9476], [-76.77199, 39.94911], [-76.7702, 39.94919], [-76.76748, 39.94962], [-76.766708, 39.949762], [-76.76601, 39.94989], [-76.76644, 39.95055], [-76.76578, 39.95062], [-76.7654, 39.95059], [-76.76467, 39.9507], [-76.76463, 39.95128], [-76.76364, 39.95129], [-76.76296, 39.95136], [-76.76124, 39.95145], [-76.76058, 39.95157], [-76.76025, 39.9517], [-76.76, 39.952], [-76.75909, 39.95201], [-76.75894, 39.95211], [-76.75889, 39.95258], [-76.75902, 39.95282], [-76.75907, 39.9537], [-76.75776, 39.95374], [-76.75656, 39.95374], [-76.75637, 39.95389], [-76.75553, 39.954081], [-76.753447, 39.954556], [-76.7522, 39.95484], [-76.75178, 39.95493], [-76.75065, 39.9552], [-76.750613, 39.955217], [-76.7498, 39.9556], [-76.749105, 39.954276], [-76.74907, 39.95421], [-76.749937, 39.954008], [-76.751, 39.95376], [-76.75086, 39.95348], [-76.75026, 39.95307], [-76.74933, 39.95258], [-76.751, 39.95212], [-76.75158, 39.95227], [-76.7537, 39.95285], [-76.75564, 39.95227], [-76.758, 39.95147], [-76.75905, 39.95109], [-76.75996, 39.95062], [-76.76138, 39.94981], [-76.76357, 39.94858], [-76.76522, 39.94732], [-76.765488, 39.946872], [-76.76583, 39.9463], [-76.76666, 39.94533], [-76.76597, 39.94402], [-76.76962, 39.94599], [-76.77134, 39.94558], [-76.77144, 39.9476]]]]}}]}