{"type": "FeatureCollection", "features": [{"type": "Feature", "geometry": {"type": "Point", "coordinates": [-76.726389, 40.015278]}, "properties": {"facility_name": "ABERDEEN ROAD CO", "industry": null, "tri_facility_id": "17310HRCLTABERD"}}, {"type": "Feature", "geometry": {"type": "Point", "coordinates": [-76.62694444444443, 39.915]}, "properties": {"facility_name": "COLUMBIA PRODUCTS INC", "industry": null, "tri_facility_id": "17313CLMBP465LO"}}, {"type": "Feature", "geometry": {"type": "Point", "coordinates": [-76.6317, 39.9031]}, "properties": {"facility_name": "GICHNER SYSTEMS GROUP INC", "industry": null, "tri_facility_id": "17313GCHNREASTL"}}, {"type": "Feature", "geometry": {"type": "Point", "coordinates": [-76.721944, 40.02]}, "properties": {"facility_name": "SHARRETTS PLATING CO INC", "industry": null, "tri_facility_id": "17318CHSDSCONNE"}}, {"type": "Feature", "geometry": {"type": "Point", "coordinates": [-76.726389, 40.015556]}, "properties": {"facility_name": "HERCON LABORATORIES CORP", "industry": null, "tri_facility_id": "17318HRCNLSINKI"}}, {"type": "Feature", "geometry": {"type": "Point", "coordinates": [-76.7238888888889, 40.019999999999996]}, "properties": {"facility_name": "TRENWYTH INDUSTRIES", "industry": null, "tri_facility_id": "17318TRNWYCHURC"}}, {"type": "Feature", "geometry": {"type": "Point", "coordinates": [-76.71944444444445, 40.0225]}, "properties": {"facility_name": "TRENWYTH INDUSTRIES", "industry": null, "tri_facility_id": "17318TRNWYONECO"}}, {"type": "Feature", "geometry": {"type": "Point", "coordinates": [-76.625, 39.91861111111111]}, "properties": {"facility_name": "MAS -FAB INC", "industry": null, "tri_facility_id": "17356FRMTS775LO"}}, {"type": "Feature", "geometry": {"type": "Point", "coordinates": [-76.621389, 39.898056]}, "properties": {"facility_name": "MASTERCRAFT SPECIALTIES INC", "industry": null, "tri_facility_id": "17356MSTRC800MA"}}, {"type": "Feature", "geometry": {"type": "Point", "coordinates": [-76.608889, 39.891389]}, "properties": {"facility_name": "SPECIALTY WOODCRAFTS CO", "industry": null, "tri_facility_id": "17356SPCLT214NF"}}, {"type": "Feature", "geometry": {"type": "Point", "coordinates": [-76.83277777777778, 39.93277777777777]}, "properties": {"facility_name": "PFALTZGRAFF CO THOMASVILLE FACILITY", "industry": null, "tri_facility_id": "17364PFLTZBOWMA"}}, {"type": "Feature", "geometry": {"type": "Point", "coordinates": [-76.6878, 39.9292]}, "properties": {"facility_name": "ACCO CHAIN & LIFTING PRODUCTS", "industry": null, "tri_facility_id": "17402BBCCK76ACC"}}, {"type": "Feature", "geometry": {"type": "Point", "coordinates": [-76.637222, 39.99]}, "properties": {"facility_name": "APEX TOOL GROUP CAMPBELL OPERATIONS", "industry": null, "tri_facility_id": "17402CMPBL3990E"}}, {"type": "Feature", "geometry": {"type": "Point", "coordinates": [-76.6776, 39.9809]}, "properties": {"facility_name": "CATERPILLAR INC", "industry": null, "tri_facility_id": "17402CTRPLMEMOR"}}, {"type": "Feature", "geometry": {"type": "Point", "coordinates": [-76.645833, 39.986111]}, "properties": {"facility_name": "FINCOR AUTOMATION", "industry": null, "tri_facility_id": "17402FNCRL3750E"}}, {"type": "Feature", "geometry": {"type": "Point", "coordinates": [-76.740688, 40.020976]}, "properties": {"facility_name": "FES", "industry": null, "tri_facility_id": "17402FSNCX3475B"}}, {"type": "Feature", "geometry": {"type": "Point", "coordinates": [-76.71555555555555, 39.98111111111111]}, "properties": {"facility_name": "GRAHAM MACHINERY GROUP", "industry": null, "tri_facility_id": "17402GRHMM1203E"}}, {"type": "Feature", "geometry": {"type": "Point", "coordinates": [-76.74069, 40.020979]}, "properties": {"facility_name": "GARROD HYDRAULICS INC", "industry": null, "tri_facility_id": "17402GRRDH3466B"}}, {"type": "Feature", "geometry": {"type": "Point", "coordinates": [-76.725556, 39.978333]}, "properties": {"facility_name": "AGWAY INC SPRING GARDEN PLANT", "industry": null, "tri_facility_id": "17402GWYNC980LO"}}, {"type": "Feature", "geometry": {"type": "Point", "coordinates": [-76.723333, 39.989167]}, "properties": {"facility_name": "HARLEY-DAVIDSON MOTOR CO OPERATIONS INC", "industry": null, "tri_facility_id": "17402HRLYD1425E"}}, {"type": "Feature", "geometry": {"type": "Point", "coordinates": [-76.63, 39.98916666666667]}, "properties": {"facility_name": "AMERICAN HYDRO CORP", "industry": null, "tri_facility_id": "17402MRCNH135ST"}}, {"type": "Feature", "geometry": {"type": "Point", "coordinates": [-76.744444, 40.031389]}, "properties": {"facility_name": "QUAKER PLASTIC CORP THERMOFORMING DIV", "industry": null, "tri_facility_id": "17402QKRPLBOARD"}}, {"type": "Feature", "geometry": {"type": "Point", "coordinates": [-76.717222, 39.965278]}, "properties": {"facility_name": "USG INTERIORS INC FLOOR DIV", "industry": null, "tri_facility_id": "17402SGNTR480EA"}}, {"type": "Feature", "geometry": {"type": "Point", "coordinates": [-76.745833, 40.022222]}, "properties": {"facility_name": "SURTECH IND", "industry": null, "tri_facility_id": "17402SRTCH125DE"}}, {"type": "Feature", "geometry": {"type": "Point", "coordinates": [-76.754444, 40.025556]}, "properties": {"facility_name": "TRUE TEMPER FARMBROOK PLANT", "industry": null, "tri_facility_id": "17402TRTMP3350F"}}, {"type": "Feature", "geometry": {"type": "Point", "coordinates": [-76.717778, 40.006389]}, "properties": {"facility_name": "YORK CASKET CO", "industry": null, "tri_facility_id": "17402YRKCS2880B"}}, {"type": "Feature", "geometry": {"type": "Point", "coordinates": [-76.72194444444445, 39.981944444444444]}, "properties": {"facility_name": "YORKTOWNE PAPERBOARD", "industry": null, "tri_facility_id": "17402YRKTW11LUC"}}, {"type": "Feature", "geometry": {"type": "Point", "coordinates": [-76.698056, 39.963056]}, "properties": {"facility_name": "COCHRANE FOUNDRY INC", "industry": null, "tri_facility_id": "17403CCHRN465OG"}}, {"type": "Feature", "geometry": {"type": "Point", "coordinates": [-76.716667, 39.966667]}, "properties": {"facility_name": "DANSKIN INC", "industry": null, "tri_facility_id": "17403DNSKN305ST"}}, {"type": "Feature", "geometry": {"type": "Point", "coordinates": [-76.703238, 39.959217]}, "properties": {"facility_name": "GLEN-GERY CORP", "industry": null, "tri_facility_id": "17403GLNGR1090E"}}, {"type": "Feature", "geometry": {"type": "Point", "coordinates": [-76.7375, 39.975]}, "properties": {"facility_name": "AGWAY INC", "industry": null, "tri_facility_id": "17403GWYCR729LO"}}, {"type": "Feature", "geometry": {"type": "Point", "coordinates": [-76.71694444444445, 39.96666666666667]}, "properties": {"facility_name": "HONEYWELL INTERNATIONAL INC - HPS YORK (PA83)", "industry": null, "tri_facility_id": "17403HNYWL525EM"}}, {"type": "Feature", "geometry": {"type": "Point", "coordinates": [-76.725, 39.958333]}, "properties": {"facility_name": "KRB KLEARKAST", "industry": null, "tri_facility_id": "17403KRBKL301KI"}}, {"type": "Feature", "geometry": {"type": "Point", "coordinates": [-76.712303, 39.974356]}, "properties": {"facility_name": "MOLYCORP INC", "industry": null, "tri_facility_id": "17403MLYCR350NS"}}, {"type": "Feature", "geometry": {"type": "Point", "coordinates": [-76.725278, 39.981944]}, "properties": {"facility_name": "METSO", "industry": null, "tri_facility_id": "17403MNRLP240AR"}}, {"type": "Feature", "geometry": {"type": "Point", "coordinates": [-76.72916666666667, 39.958333333333336]}, "properties": {"facility_name": "NORTH METAL & CHEMICAL CO", "industry": null, "tri_facility_id": "17403NRTHM609EA"}}, {"type": "Feature", "geometry": {"type": "Point", "coordinates": [-76.72916666666667, 39.958333333333336]}, "properties": {"facility_name": "NORTH INDUSTRIAL CHEMICALS INC", "industry": null, "tri_facility_id": "17403NRTHN609EK"}}, {"type": "Feature", "geometry": {"type": "Point", "coordinates": [-76.720278, 39.970833]}, "properties": {"facility_name": "UNITED GLAZED PRODUCTS YORK", "industry": null, "tri_facility_id": "17403NTDGL500ST"}}, {"type": "Feature", "geometry": {"type": "Point", "coordinates": [-76.7, 39.961667]}, "properties": {"facility_name": "NEW YORK WIRE CO WEAVING FACILITY", "industry": null, "tri_facility_id": "17403NWYRK441EM"}}, {"type": "Feature", "geometry": {"type": "Point", "coordinates": [-76.703889, 39.968889]}, "properties": {"facility_name": "COLEMAN CABLE LLC", "industry": null, "tri_facility_id": "17403SDMND160SH"}}, {"type": "Feature", "geometry": {"type": "Point", "coordinates": [-76.733985, 39.951895]}, "properties": {"facility_name": "STONE CONTAINER CORP", "industry": null, "tri_facility_id": "17403STNCN423KI"}}, {"type": "Feature", "geometry": {"type": "Point", "coordinates": [-76.69944444444445, 39.974722222222226]}, "properties": {"facility_name": "JOHNSON CONTROLS INC-EAST YORK", "industry": null, "tri_facility_id": "17403YRKNT1499E"}}, {"type": "Feature", "geometry": {"type": "Point", "coordinates": [-76.743889, 39.950556]}, "properties": {"facility_name": "JOHNSON CONTROLS NAVY SYSTEMS LLC", "industry": null, "tri_facility_id": "17403YRKNT631SR"}}, {"type": "Feature", "geometry": {"type": "Point", "coordinates": [-76.7275, 39.96527777777778]}, "properties": {"facility_name": "YORK SHEET METAL INC", "industry": null, "tri_facility_id": "17403YRKSH1760S"}}, {"type": "Feature", "geometry": {"type": "Point", "coordinates": [-76.736944, 39.983611]}, "properties": {"facility_name": "CHR CORP", "industry": null, "tri_facility_id": "17404CHRCR2100N"}}, {"type": "Feature", "geometry": {"type": "Point", "coordinates": [-76.82027777777778, 39.92638888888889]}, "properties": {"facility_name": "CARLOS R LEFFLER YORK", "industry": null, "tri_facility_id": "17404CRLSR25HAN"}}, {"type": "Feature", "geometry": {"type": "Point", "coordinates": [-76.756389, 39.974722]}, "properties": {"facility_name": "OSRAM SYLVANIA INC", "industry": null, "tri_facility_id": "17404GTPRD1128R"}}, {"type": "Feature", "geometry": {"type": "Point", "coordinates": [-76.718611, 40.008611]}, "properties": {"facility_name": "DRESHER INC HARRIS HUB DIV", "industry": null, "tri_facility_id": "17404HRRSH915WO"}}, {"type": "Feature", "geometry": {"type": "Point", "coordinates": [-76.815, 39.939167]}, "properties": {"facility_name": "MAGNESITA REFRACTORIES CO", "industry": null, "tri_facility_id": "17404JBKRC320NO"}}, {"type": "Feature", "geometry": {"type": "Point", "coordinates": [-76.836389, 39.931389]}, "properties": {"facility_name": "JLG INDUSTRIES INC MATERIAL HANDLING DIV", "industry": null, "tri_facility_id": "17404JLGNDRD6BO"}}, {"type": "Feature", "geometry": {"type": "Point", "coordinates": [-76.74916666666667, 39.94611111111111]}, "properties": {"facility_name": "KOCH MATERIALS CO", "industry": null, "tri_facility_id": "17404KCHMT1194Z"}}, {"type": "Feature", "geometry": {"type": "Point", "coordinates": [-76.736111, 39.984722]}, "properties": {"facility_name": "MARQUIS CORP", "industry": null, "tri_facility_id": "17404LCTRC1600P"}}, {"type": "Feature", "geometry": {"type": "Point", "coordinates": [-76.77055555555556, 39.94583333333333]}, "properties": {"facility_name": "LEHIGH WHITE CEMENT CO LLC", "industry": null, "tri_facility_id": "17404LHGHP200HO"}}, {"type": "Feature", "geometry": {"type": "Point", "coordinates": [-76.74527777777777, 39.96083333333333]}, "properties": {"facility_name": "AMERICAN COLLOID CO", "industry": null, "tri_facility_id": "17404MRCNC600LI"}}, {"type": "Feature", "geometry": {"type": "Point", "coordinates": [-76.74555555555555, 39.999722222222225]}, "properties": {"facility_name": "AMZ MANUFACTURING CORP", "industry": null, "tri_facility_id": "17404MZCRP1600P"}}, {"type": "Feature", "geometry": {"type": "Point", "coordinates": [-76.74666666666667, 39.98722222222222]}, "properties": {"facility_name": "ENVIRITE OF PENNSYLVANIA INC", "industry": null, "tri_facility_id": "17404NVRTF730VO"}}, {"type": "Feature", "geometry": {"type": "Point", "coordinates": [-76.79277777777777, 39.94555555555555]}, "properties": {"facility_name": "PFALTZGRAFF CO DISTRIBUTION CENTER", "industry": null, "tri_facility_id": "17404PFLTZ515ZA"}}, {"type": "Feature", "geometry": {"type": "Point", "coordinates": [-76.718056, 39.981389]}, "properties": {"facility_name": "KEMPS FOODS INC", "industry": null, "tri_facility_id": "17404PNNDR2WEST"}}, {"type": "Feature", "geometry": {"type": "Point", "coordinates": [-76.744722, 39.964167]}, "properties": {"facility_name": "PRECISION CUSTOM COMPONENTS LLC", "industry": null, "tri_facility_id": "17404PRCSN500LI"}}, {"type": "Feature", "geometry": {"type": "Point", "coordinates": [-76.736944, 39.983611]}, "properties": {"facility_name": "RUTTER BROS DAIRY INC", "industry": null, "tri_facility_id": "17404RTTRB2100N"}}, {"type": "Feature", "geometry": {"type": "Point", "coordinates": [-76.793889, 39.941111]}, "properties": {"facility_name": "AMERICAN COLOR GRAPHICS INC.", "industry": null, "tri_facility_id": "17404SLLVN215NZ"}}, {"type": "Feature", "geometry": {"type": "Point", "coordinates": [-76.754652, 39.977903]}, "properties": {"facility_name": "STANLEY TOOLS", "industry": null, "tri_facility_id": "17404STNLY1721S"}}, {"type": "Feature", "geometry": {"type": "Point", "coordinates": [-76.797778, 39.939722]}, "properties": {"facility_name": "YORK GRAPHIC SERVICES INC", "industry": null, "tri_facility_id": "17404YRKGR3600W"}}, {"type": "Feature", "geometry": {"type": "Point", "coordinates": [-76.785556, 39.955]}, "properties": {"facility_name": "YORK TAPE & LABEL CO", "industry": null, "tri_facility_id": "17404YRKTP1953S"}}, {"type": "Feature", "geometry": {"type": "Point", "coordinates": [-76.747778, 39.958611]}, "properties": {"facility_name": "YORK WALLCOVERINGS INC", "industry": null, "tri_facility_id": "17404YRKWL750LI"}}, {"type": "Feature", "geometry": {"type": "Point", "coordinates": [-76.824167, 39.908333]}, "properties": {"facility_name": "BAE SYSTEMS LAND & ARMAMENTS", "industry": null, "tri_facility_id": "17405BMYXX1WOLF"}}, {"type": "Feature", "geometry": {"type": "Point", "coordinates": [-76.708889, 39.971944]}, "properties": {"facility_name": "COLE OFFICE ENVIRONMENTS INC", "industry": null, "tri_facility_id": "17405CLFFC601LO"}}, {"type": "Feature", "geometry": {"type": "Point", "coordinates": [-76.713889, 39.978611]}, "properties": {"facility_name": "COLE OFFICE ENVIRONMENTS", "industry": null, "tri_facility_id": "17405CLFFC640WH"}}, {"type": "Feature", "geometry": {"type": "Point", "coordinates": [-76.79, 39.949167]}, "properties": {"facility_name": "BICC BRAND-REX", "industry": null, "tri_facility_id": "17405CNTNNGULTO"}}, {"type": "Feature", "geometry": {"type": "Point", "coordinates": [-76.738611, 39.953611]}, "properties": {"facility_name": "DENTSPLY SIRONA", "industry": null, "tri_facility_id": "17405DNTSP570WC"}}, {"type": "Feature", "geometry": {"type": "Point", "coordinates": [-76.70611111111111, 39.975277777777784]}, "properties": {"facility_name": "GRAHAM ENG CORP", "industry": null, "tri_facility_id": "17405GRHMN1420S"}}, {"type": "Feature", "geometry": {"type": "Point", "coordinates": [-76.695833, 39.959167]}, "properties": {"facility_name": "GRAHAM ARCHITECTURAL PRODUCTS CORP", "industry": null, "tri_facility_id": "17405GRHMR1551M"}}, {"type": "Feature", "geometry": {"type": "Point", "coordinates": [-76.75, 39.958333]}, "properties": {"facility_name": "KEMPS FOODS INC", "industry": null, "tri_facility_id": "17405GRNSD201NH"}}, {"type": "Feature", "geometry": {"type": "Point", "coordinates": [-76.731389, 39.946389]}, "properties": {"facility_name": "MCKAY WELDING PRODS", "industry": null, "tri_facility_id": "17405TLDYN850GR"}}, {"type": "Feature", "geometry": {"type": "Point", "coordinates": [-76.77277777777778, 39.95055555555556]}, "properties": {"facility_name": "WR MEADOWS OF PENNSYLVANIA", "industry": null, "tri_facility_id": "17405WRMDW2100M"}}, {"type": "Feature", "geometry": {"type": "Point", "coordinates": [-76.789167, 39.948889]}, "properties": {"facility_name": "VOITH HYDRO INC", "industry": null, "tri_facility_id": "17405YTHHYEBERL"}}, {"type": "Feature", "geometry": {"type": "Point", "coordinates": [-76.622778, 40.001389]}, "properties": {"facility_name": "FLINCHBAUGH ENGINEERING INC.", "industry": null, "tri_facility_id": "17406FLNCHRD24H"}}, {"type": "Feature", "geometry": {"type": "Point", "coordinates": [-76.625, 40.001389]}, "properties": {"facility_name": "NEW STANDARD CORP", "industry": null, "tri_facility_id": "17406NWSTNRD24X"}}, {"type": "Feature", "geometry": {"type": "Point", "coordinates": [-76.71138888888889, 39.88722222222222]}, "properties": {"facility_name": "TYCO ELECTRONICS", "industry": null, "tri_facility_id": "17407TYCLC250NM"}}]}