{"type": "FeatureCollection", "features": [{"type": "Feature", "properties": {"area_id": 5150, "city": "Chelsea", "state": "MA", "city_survey": true, "cat": "Definitely Declining", "grade": "C", "label": "C1", "res": true, "com": false, "ind": false, "holc_grade": "C"}, "geometry": {"type": "Polygon", "coordinates": [[[-71.03933, 42.402], [-71.04031, 42.401972], [-71.04038, 42.40197], [-71.038838, 42.404495], [-71.037727, 42.406314], [-71.036329, 42.408601], [-71.035984, 42.409167], [-71.03586, 42.40937], [-71.03565, 42.40974], [-71.035593, 42.409703], [-71.03282, 42.4079], [-71.0312, 42.40706], [-71.03154, 42.40678], [-71.03025, 42.40597], [-71.0304, 42.40569], [-71.03486, 42.40509], [-71.0351, 42.40467], [-71.03515, 42.40422], [-71.03021, 42.40474], [-71.030014, 42.403854], [-71.02987, 42.4032], [-71.036067, 42.402677], [-71.03615, 42.40267], [-71.036175, 42.402605], [-71.036233, 42.402455], [-71.036238, 42.402443], [-71.03672, 42.4012], [-71.036829, 42.401276], [-71.03767, 42.40186], [-71.03933, 42.402]]]}}, {"type": "Feature", "properties": {"area_id": 5151, "city": "Chelsea", "state": "MA", "city_survey": true, "cat": "Definitely Declining", "grade": "C", "label": "C2", "res": true, "com": false, "ind": false, "holc_grade": "C"}, "geometry": {"type": "Polygon", "coordinates": [[[-71.02964, 42.3953], [-71.029867, 42.395343], [-71.03251, 42.39584], [-71.03078, 42.39825], [-71.029279, 42.399161], [-71.02778, 42.40007], [-71.02731, 42.3999], [-71.02579, 42.39838], [-71.02531, 42.3979], [-71.02964, 42.3953]]]}}, {"type": "Feature", "properties": {"area_id": 5149, "city": "Chelsea", "state": "MA", "city_survey": true, "cat": "Definitely Declining", "grade": "C", "label": "C3", "res": true, "com": false, "ind": false, "holc_grade": "C"}, "geometry": {"type": "Polygon", "coordinates": [[[-71.03529, 42.39583], [-71.035365, 42.395914], [-71.035412, 42.395965], [-71.035531, 42.396097], [-71.036364, 42.397021], [-71.03639, 42.39705], [-71.03591, 42.39737], [-71.03848, 42.39993], [-71.037651, 42.400528], [-71.03672, 42.4012], [-71.036238, 42.402443], [-71.036233, 42.402455], [-71.036175, 42.402605], [-71.03615, 42.40267], [-71.036067, 42.402677], [-71.02987, 42.4032], [-71.030014, 42.403854], [-71.03021, 42.40474], [-71.03515, 42.40422], [-71.0351, 42.40467], [-71.03486, 42.40509], [-71.0304, 42.40569], [-71.03025, 42.40597], [-71.03154, 42.40678], [-71.0312, 42.40706], [-71.03282, 42.4079], [-71.035593, 42.409703], [-71.03565, 42.40974], [-71.033276, 42.413914], [-71.033134, 42.414163], [-71.03313, 42.41417], [-71.033032, 42.414068], [-71.02916, 42.41004], [-71.02826, 42.40864], [-71.027449, 42.408192], [-71.02712, 42.40801], [-71.027075, 42.4077], [-71.02693, 42.40671], [-71.02826, 42.40495], [-71.02789, 42.404631], [-71.02716, 42.404], [-71.02322, 42.40165], [-71.02422, 42.40095], [-71.023017, 42.400194], [-71.02255, 42.3999], [-71.02531, 42.3979], [-71.02579, 42.39838], [-71.02731, 42.3999], [-71.02778, 42.40007], [-71.029279, 42.399161], [-71.03078, 42.39825], [-71.03251, 42.39584], [-71.03277, 42.39547], [-71.034334, 42.395693], [-71.03529, 42.39583]]]}}, {"type": "Feature", "properties": {"area_id": 5153, "city": "Chelsea", "state": "MA", "city_survey": true, "cat": "Definitely Declining", "grade": "C", "label": "C4", "res": true, "com": false, "ind": false, "holc_grade": "C"}, "geometry": {"type": "Polygon", "coordinates": [[[-71.03325, 42.39126], [-71.03391, 42.39007], [-71.03482, 42.38909], [-71.03543, 42.38944], [-71.03472, 42.39031], [-71.03387, 42.39242], [-71.033068, 42.392853], [-71.02989, 42.39457], [-71.02835, 42.39382], [-71.02712, 42.39277], [-71.02602, 42.3914], [-71.02493, 42.39007], [-71.02892, 42.39081], [-71.03244, 42.39175], [-71.032834, 42.391209], [-71.03287, 42.39116], [-71.03325, 42.39126]]]}}, {"type": "Feature", "properties": {"area_id": 5152, "city": "Chelsea", "state": "MA", "city_survey": true, "cat": "Hazardous", "grade": "D", "label": "D1", "res": true, "com": false, "ind": false, "holc_grade": "D"}, "geometry": {"type": "Polygon", "coordinates": [[[-71.040914, 42.388909], [-71.04109, 42.38916], [-71.042123, 42.388699], [-71.04409, 42.38782], [-71.044716, 42.392117], [-71.04475, 42.39235], [-71.03639, 42.39705], [-71.036364, 42.397021], [-71.035531, 42.396097], [-71.035412, 42.395965], [-71.035365, 42.395914], [-71.03529, 42.39583], [-71.034334, 42.395693], [-71.03277, 42.39547], [-71.03251, 42.39584], [-71.029867, 42.395343], [-71.02964, 42.3953], [-71.02531, 42.3979], [-71.02255, 42.3999], [-71.019905, 42.402078], [-71.01927, 42.4026], [-71.019055, 42.402564], [-71.01267, 42.40148], [-71.02065, 42.39797], [-71.02255, 42.3967], [-71.0245, 42.39583], [-71.02655, 42.39519], [-71.02887, 42.39512], [-71.029691, 42.394677], [-71.02989, 42.39457], [-71.033068, 42.392853], [-71.03387, 42.39242], [-71.03472, 42.39031], [-71.03543, 42.38944], [-71.03482, 42.38909], [-71.03391, 42.39007], [-71.03325, 42.39126], [-71.03287, 42.39116], [-71.032834, 42.391209], [-71.03244, 42.39175], [-71.02892, 42.39081], [-71.02493, 42.39007], [-71.02384, 42.38821], [-71.02412, 42.38761], [-71.02693, 42.38821], [-71.0275, 42.38638], [-71.02645, 42.38621], [-71.02716, 42.38571], [-71.034545, 42.386773], [-71.03501, 42.38684], [-71.03729, 42.38782], [-71.03881, 42.38803], [-71.039711, 42.38823], [-71.04057, 42.38842], [-71.040914, 42.388909]]]}}, {"type": "Feature", "properties": {"area_id": 11585, "city": "Chelsea", "state": "MA", "city_survey": true, "cat": "Industrial", "grade": null, "label": "Industrial", "res": false, "com": false, "ind": true, "holc_grade": null}, "geometry": {"type": "MultiPolygon", "coordinates": [[[[-71.04406, 42.38482], [-71.044564, 42.385237], [-71.04623, 42.386614], [-71.04625, 42.38663], [-71.046059, 42.386906], [-71.04585, 42.38721], [-71.04409, 42.38782], [-71.042123, 42.388699], [-71.04109, 42.38916], [-71.040914, 42.388909], [-71.04057, 42.38842], [-71.039711, 42.38823], [-71.03881, 42.38803], [-71.03729, 42.38782], [-71.03501, 42.38684], [-71.034545, 42.386773], [-71.02716, 42.38571], [-71.02645, 42.38621], [-71.02398, 42.38712], [-71.025328, 42.385337], [-71.02562, 42.38495], [-71.02753, 42.3843], [-71.02886, 42.38421], [-71.03241, 42.38526], [-71.0373, 42.3867], [-71.03942, 42.38661], [-71.040756, 42.386381], [-71.041102, 42.386322], [-71.041424, 42.386266], [-71.04152, 42.38625], [-71.041717, 42.386139], [-71.041884, 42.386045], [-71.042084, 42.385932], [-71.043449, 42.385164], [-71.043505, 42.385133], [-71.04406, 42.38482]]], [[[-71.04039, 42.39918], [-71.03848, 42.39993], [-71.03591, 42.39737], [-71.03639, 42.39705], [-71.04475, 42.39235], [-71.04865, 42.39642], [-71.048249, 42.396641], [-71.047725, 42.396931], [-71.04722, 42.39721], [-71.04092, 42.40159], [-71.04039, 42.39918]]]]}}]}