{"type": "FeatureCollection", "features": [{"type": "Feature", "properties": {"area_id": 10122, "city": "South McAlester", "state": "OK", "city_survey": false, "cat": "Better Residential District", "grade": null, "label": "Better Residential District", "res": true, "com": false, "ind": false, "holc_grade": null}, "geometry": {"type": "MultiPolygon", "coordinates": [[[[-95.75016, 34.92482], [-95.75265, 34.91837], [-95.75325, 34.91665], [-95.75811, 34.91664], [-95.76252, 34.91655], [-95.76344, 34.91667], [-95.767643, 34.91667], [-95.77263, 34.91667], [-95.78182, 34.91674], [-95.78161, 34.92376], [-95.78178, 34.92896], [-95.77131, 34.92624], [-95.77071, 34.92609], [-95.77017, 34.92764], [-95.7699, 34.92827], [-95.76964, 34.92983], [-95.76939, 34.9299], [-95.7681, 34.92953], [-95.76635, 34.9293], [-95.76621, 34.92981], [-95.76573, 34.93035], [-95.76376, 34.92986], [-95.762306, 34.929318], [-95.76223, 34.92929], [-95.76266, 34.92815], [-95.75653, 34.92652], [-95.75016, 34.92482]]], [[[-95.76821, 34.93353], [-95.76798, 34.93386], [-95.76803, 34.93412], [-95.768346, 34.934235], [-95.76894, 34.93445], [-95.769429, 34.934511], [-95.769487, 34.934518], [-95.7695, 34.93452], [-95.769452, 34.934654], [-95.76903, 34.93583], [-95.76675, 34.93524], [-95.76444, 34.94128], [-95.76241, 34.9407], [-95.76015, 34.94025], [-95.75615, 34.93902], [-95.75708, 34.93662], [-95.75936, 34.93075], [-95.761074, 34.931242], [-95.76124, 34.93129], [-95.76305, 34.93182], [-95.76285, 34.93218], [-95.76821, 34.93353]]], [[[-95.7805, 34.9342], [-95.7817, 34.93405], [-95.781705, 34.936428], [-95.781717, 34.942096], [-95.78172, 34.94337], [-95.781714, 34.943369], [-95.76732, 34.9419], [-95.76948, 34.93715], [-95.76974, 34.93594], [-95.77008, 34.93373], [-95.770126, 34.93344], [-95.77028, 34.93246], [-95.77751, 34.93445], [-95.7804, 34.93463], [-95.7805, 34.9342]]]]}}, {"type": "Feature", "properties": {"area_id": 10125, "city": "South McAlester", "state": "OK", "city_survey": false, "cat": "Blighted District", "grade": null, "label": "Blighted District", "res": true, "com": false, "ind": false, "holc_grade": null}, "geometry": {"type": "MultiPolygon", "coordinates": [[[[-95.76974, 34.93594], [-95.76948, 34.93715], [-95.76732, 34.9419], [-95.766915, 34.941824], [-95.76582, 34.94162], [-95.76444, 34.94128], [-95.76675, 34.93524], [-95.76903, 34.93583], [-95.769452, 34.934654], [-95.7695, 34.93452], [-95.77008, 34.93373], [-95.76974, 34.93594]]], [[[-95.78178, 34.92896], [-95.78185, 34.93364], [-95.77988, 34.93387], [-95.77851, 34.93387], [-95.77673, 34.93355], [-95.77045, 34.93187], [-95.77131, 34.92624], [-95.78178, 34.92896]]]]}}, {"type": "Feature", "properties": {"area_id": 10126, "city": "South McAlester", "state": "OK", "city_survey": false, "cat": "Major Business District", "grade": null, "label": "Major Business District", "res": false, "com": true, "ind": false, "holc_grade": null}, "geometry": {"type": "Polygon", "coordinates": [[[-95.76376, 34.92986], [-95.76573, 34.93035], [-95.76621, 34.92981], [-95.76635, 34.9293], [-95.7681, 34.92953], [-95.76939, 34.9299], [-95.76964, 34.92983], [-95.7699, 34.92827], [-95.77017, 34.92764], [-95.77071, 34.92609], [-95.77131, 34.92624], [-95.77045, 34.93187], [-95.77028, 34.93246], [-95.770126, 34.93344], [-95.77008, 34.93373], [-95.7695, 34.93452], [-95.769487, 34.934518], [-95.769429, 34.934511], [-95.76894, 34.93445], [-95.768346, 34.934235], [-95.76803, 34.93412], [-95.76798, 34.93386], [-95.76821, 34.93353], [-95.76285, 34.93218], [-95.76305, 34.93182], [-95.76124, 34.93129], [-95.761714, 34.930333], [-95.76223, 34.92929], [-95.762306, 34.929318], [-95.76376, 34.92986]]]}}, {"type": "Feature", "properties": {"area_id": 10124, "city": "South McAlester", "state": "OK", "city_survey": false, "cat": "Race Areas", "grade": null, "label": "Race Areas", "res": true, "com": false, "ind": false, "holc_grade": null}, "geometry": {"type": "Polygon", "coordinates": [[[-95.75016, 34.92482], [-95.75653, 34.92652], [-95.76266, 34.92815], [-95.76223, 34.92929], [-95.761714, 34.930333], [-95.76124, 34.93129], [-95.761074, 34.931242], [-95.75936, 34.93075], [-95.75708, 34.93662], [-95.75122, 34.93499], [-95.75309, 34.93032], [-95.74846, 34.92911], [-95.748918, 34.927981], [-95.74902, 34.92773], [-95.75016, 34.92482]]]}}, {"type": "Feature", "properties": {"area_id": 10123, "city": "South McAlester", "state": "OK", "city_survey": false, "cat": "Scattered", "grade": null, "label": "Scattered", "res": true, "com": false, "ind": false, "holc_grade": null}, "geometry": {"type": "Polygon", "coordinates": [[[-95.75325, 34.91665], [-95.75265, 34.91837], [-95.75016, 34.92482], [-95.74902, 34.92773], [-95.748918, 34.927981], [-95.74846, 34.92911], [-95.75309, 34.93032], [-95.75122, 34.93499], [-95.75708, 34.93662], [-95.75615, 34.93902], [-95.76015, 34.94025], [-95.76241, 34.9407], [-95.76444, 34.94128], [-95.76582, 34.94162], [-95.766915, 34.941824], [-95.76732, 34.9419], [-95.781714, 34.943369], [-95.78172, 34.94337], [-95.78189, 34.94767], [-95.78145, 34.947663], [-95.77575, 34.94757], [-95.76552, 34.94741], [-95.764274, 34.947412], [-95.75722, 34.94742], [-95.75584, 34.94725], [-95.75542, 34.9476], [-95.74368, 34.94788], [-95.74388, 34.94085], [-95.74382, 34.94058], [-95.74387, 34.93276], [-95.74376, 34.93189], [-95.743828, 34.927514], [-95.74387, 34.92481], [-95.74397, 34.92318], [-95.74391, 34.92276], [-95.74394, 34.921458], [-95.74405, 34.91673], [-95.745147, 34.91672], [-95.75325, 34.91665]]]}}]}