{"type": "FeatureCollection", "features": [{"type": "Feature", "geometry": {"type": "Point", "coordinates": [-73.203056, 42.894167]}, "properties": {"facility_name": "BIJUR LUBRICATING CORP", "industry": null, "tri_facility_id": "05201BJRLB50KOC"}}, {"type": "Feature", "geometry": {"type": "Point", "coordinates": [-73.216111, 42.875278]}, "properties": {"facility_name": "BEN-MONT CORP", "industry": null, "tri_facility_id": "05201BNMNTBENMO"}}, {"type": "Feature", "geometry": {"type": "Point", "coordinates": [-73.2178, 42.9041]}, "properties": {"facility_name": "JOHNSON CONTROLS INC, BATTERY GROUP", "industry": null, "tri_facility_id": "05201JHNSNROUTE"}}, {"type": "Feature", "geometry": {"type": "Point", "coordinates": [-73.191111, 42.889444]}, "properties": {"facility_name": "JARD CO INC", "industry": null, "tri_facility_id": "05201JRDCNBOWEN"}}, {"type": "Feature", "geometry": {"type": "Point", "coordinates": [-73.216889, 42.8823]}, "properties": {"facility_name": "TANSITOR ELECTRONICS INC", "industry": null, "tri_facility_id": "05201TNSTRWESTR"}}, {"type": "Feature", "geometry": {"type": "Point", "coordinates": [-73.190556, 42.880556]}, "properties": {"facility_name": "ENERGIZER MANUFACTURING INC", "industry": null, "tri_facility_id": "05201VRDYB401GA"}}, {"type": "Feature", "geometry": {"type": "Point", "coordinates": [-73.246667, 42.914444]}, "properties": {"facility_name": "CHEMFAB CORP", "industry": null, "tri_facility_id": "05257CHMCL13WAT"}}, {"type": "Feature", "geometry": {"type": "Point", "coordinates": [-73.24333333333334, 42.92833333333333]}, "properties": {"facility_name": "ADC OPTICAL SYSTEMS", "industry": null, "tri_facility_id": "05257KRNPT441WA"}}, {"type": "Feature", "geometry": {"type": "Point", "coordinates": [-73.217222, 42.947778]}, "properties": {"facility_name": "STANLEY TOOLS EAGLE SQUARE PLANT", "industry": null, "tri_facility_id": "05262STNLYROUTE"}}]}