{"type": "FeatureCollection", "features": [{"type": "Feature", "geometry": {"type": "Point", "coordinates": [-71.10416666666666, 42.358333333333334]}, "properties": {"facility_name": "THERMO FISHER SCIENTIFIC", "industry": null, "tri_facility_id": "01730PPLDB2PRES"}}, {"type": "Feature", "geometry": {"type": "Point", "coordinates": [-71.145833, 42.458333]}, "properties": {"facility_name": "SAMUEL BINGHAM CO", "industry": null, "tri_facility_id": "01801SMLBN5CONN"}}, {"type": "Feature", "geometry": {"type": "Point", "coordinates": [-71.052778, 42.352778]}, "properties": {"facility_name": "ELECTRO RENT CORP", "industry": null, "tri_facility_id": "01821LCTRR37MAN"}}, {"type": "Feature", "geometry": {"type": "Point", "coordinates": [-71.132778, 42.466667]}, "properties": {"facility_name": "OLYMPIC SYSTEMS CORP", "industry": null, "tri_facility_id": "01890LYMPC15LOW"}}, {"type": "Feature", "geometry": {"type": "Point", "coordinates": [-71.14166666666668, 42.391666666666666]}, "properties": {"facility_name": "ECKEL INDUSTRIES INC", "industry": null, "tri_facility_id": "02138CKLND115FA"}}, {"type": "Feature", "geometry": {"type": "Point", "coordinates": [-71.153611, 42.395]}, "properties": {"facility_name": "ADVANCED MAGNETICS INC", "industry": null, "tri_facility_id": "02138DVNCD61MOO"}}, {"type": "Feature", "geometry": {"type": "Point", "coordinates": [-71.15166666666667, 42.391666666666666]}, "properties": {"facility_name": "HYPERION CATALYSIS INC", "industry": null, "tri_facility_id": "02138HYPRN38SMI"}}, {"type": "Feature", "geometry": {"type": "Point", "coordinates": [-71.14972222222222, 42.39]}, "properties": {"facility_name": "E INK CORP", "industry": null, "tri_facility_id": "02138NKCRP733CN"}}, {"type": "Feature", "geometry": {"type": "Point", "coordinates": [-71.109722, 42.355556]}, "properties": {"facility_name": "CALIFORNIA PRODUCTS CORP", "industry": null, "tri_facility_id": "02139CLFRN169WA"}}, {"type": "Feature", "geometry": {"type": "Point", "coordinates": [-71.115, 42.36416666666667]}, "properties": {"facility_name": "CAMBRIDGE ELECTRIC LIGHT CO BLACKSTONE STATION", "industry": null, "tri_facility_id": "02139CMBRD46BLA"}}, {"type": "Feature", "geometry": {"type": "Point", "coordinates": [-71.09722222222221, 42.36194444444445]}, "properties": {"facility_name": "ANALOG DEVICES INC. - MICROMACHINED PRODUCTS DIV", "industry": null, "tri_facility_id": "02139NLGDV21OSB"}}, {"type": "Feature", "geometry": {"type": "Point", "coordinates": [-71.094444, 42.3625]}, "properties": {"facility_name": "POLAROID CORP", "industry": null, "tri_facility_id": "02139PLRDC600MA"}}, {"type": "Feature", "geometry": {"type": "Point", "coordinates": [-71.115833, 42.358333]}, "properties": {"facility_name": "POLAROID CORP", "industry": null, "tri_facility_id": "02139PLRDC784ME"}}, {"type": "Feature", "geometry": {"type": "Point", "coordinates": [-71.104167, 42.358333]}, "properties": {"facility_name": "APPLIED BIOSYSTEMS INC", "industry": null, "tri_facility_id": "02139PRSPT230AL"}}, {"type": "Feature", "geometry": {"type": "Point", "coordinates": [-71.101389, 42.363889]}, "properties": {"facility_name": "WARNER-LAMBERT CO", "industry": null, "tri_facility_id": "02139WRNRL810MA"}}, {"type": "Feature", "geometry": {"type": "Point", "coordinates": [-71.150556, 42.400833]}, "properties": {"facility_name": "GENETICS INSTITUTE", "industry": null, "tri_facility_id": "02140GNTCS87CAM"}}, {"type": "Feature", "geometry": {"type": "Point", "coordinates": [-71.148056, 42.395278]}, "properties": {"facility_name": "DODGE CO", "industry": null, "tri_facility_id": "02140THDDG165CA"}}, {"type": "Feature", "geometry": {"type": "Point", "coordinates": [-71.078902, 42.370741]}, "properties": {"facility_name": "HAVILAND CANDY INC", "industry": null, "tri_facility_id": "02141BRDNN134CA"}}, {"type": "Feature", "geometry": {"type": "Point", "coordinates": [-71.08, 42.363055555555555]}, "properties": {"facility_name": "KENDALL GREEN ENERGY LLC", "industry": null, "tri_facility_id": "02142CMBRD265FI"}}, {"type": "Feature", "geometry": {"type": "Point", "coordinates": [-71.072222, 42.365556]}, "properties": {"facility_name": "GENZYME CORP", "industry": null, "tri_facility_id": "02142GNZYM107BI"}}, {"type": "Feature", "geometry": {"type": "Point", "coordinates": [-71.108333, 42.370833]}, "properties": {"facility_name": "PETER GRAY CORP", "industry": null, "tri_facility_id": "02142PTRGR300TH"}}, {"type": "Feature", "geometry": {"type": "Point", "coordinates": [-71.083611, 42.366111]}, "properties": {"facility_name": "AMERICAN ENGINEERED COMPONENTS INC", "industry": null, "tri_facility_id": "02142TRWNC265TH"}}, {"type": "Feature", "geometry": {"type": "Point", "coordinates": [-71.0973, 42.3813]}, "properties": {"facility_name": "BAY STATE SMELTING CO INC", "industry": null, "tri_facility_id": "02143BYSTTBLEAC"}}, {"type": "Feature", "geometry": {"type": "Point", "coordinates": [-71.085556, 42.376667]}, "properties": {"facility_name": "AMERICAN ELECTROPLATING CO", "industry": null, "tri_facility_id": "02143MRCNL26CHE"}}, {"type": "Feature", "geometry": {"type": "Point", "coordinates": [-71.083333, 42.383333]}, "properties": {"facility_name": "UNITED LITHOGRAPH", "industry": null, "tri_facility_id": "02143NTDLT48THI"}}, {"type": "Feature", "geometry": {"type": "Point", "coordinates": [-71.128056, 42.389444]}, "properties": {"facility_name": "M W CARR CO INC", "industry": null, "tri_facility_id": "02144MWCRR63GOR"}}, {"type": "Feature", "geometry": {"type": "Point", "coordinates": [-71.08805555555556, 42.4175]}, "properties": {"facility_name": "JOHN DANAIS CO INC", "industry": null, "tri_facility_id": "02145JHNJD50TUF"}}, {"type": "Feature", "geometry": {"type": "Point", "coordinates": [-71.104167, 42.4]}, "properties": {"facility_name": "ROGERS FOAM CORP", "industry": null, "tri_facility_id": "02145RGRSF20VER"}}, {"type": "Feature", "geometry": {"type": "Point", "coordinates": [-71.094444, 42.388889]}, "properties": {"facility_name": "LINVURE CO INC", "industry": null, "tri_facility_id": "02145THLNV61CLY"}}, {"type": "Feature", "geometry": {"type": "Point", "coordinates": [-71.046667, 42.429167]}, "properties": {"facility_name": "FM CALLAHAN & SON INC", "industry": null, "tri_facility_id": "02148FMCLL22SHA"}}, {"type": "Feature", "geometry": {"type": "Point", "coordinates": [-71.076111, 42.418056]}, "properties": {"facility_name": "HOPWOOD GLOBE LTD", "industry": null, "tri_facility_id": "02148HPWDG303CO"}}, {"type": "Feature", "geometry": {"type": "Point", "coordinates": [-71.070833, 42.420833]}, "properties": {"facility_name": "ROHM TECH INC", "industry": null, "tri_facility_id": "02148RHMTC195CA"}}, {"type": "Feature", "geometry": {"type": "Point", "coordinates": [-71.067222, 42.435556]}, "properties": {"facility_name": "STERLING-CLARK-LURTON CORP", "industry": null, "tri_facility_id": "02148STRLN184CO"}}, {"type": "Feature", "geometry": {"type": "Point", "coordinates": [-71.038611, 42.430556]}, "properties": {"facility_name": "EASTERN CHEM-LAC", "industry": null, "tri_facility_id": "02148STRNC1100E"}}, {"type": "Feature", "geometry": {"type": "Point", "coordinates": [-71.056389, 42.401389]}, "properties": {"facility_name": "DAMPNEY CO INC", "industry": null, "tri_facility_id": "02149DMPNY85PAR"}}, {"type": "Feature", "geometry": {"type": "Point", "coordinates": [-71.068056, 42.407222]}, "properties": {"facility_name": "DUNCAN GALVANIZING CORP.", "industry": null, "tri_facility_id": "02149DNCNG69NOR"}}, {"type": "Feature", "geometry": {"type": "Point", "coordinates": [-71.05777777777777, 42.39]}, "properties": {"facility_name": "HOLCIM - NER INC.", "industry": null, "tri_facility_id": "02149GGRGT201BR"}}, {"type": "Feature", "geometry": {"type": "Point", "coordinates": [-71.067164, 42.410611]}, "properties": {"facility_name": "GE CO", "industry": null, "tri_facility_id": "02149GNRLL62TRE"}}, {"type": "Feature", "geometry": {"type": "Point", "coordinates": [-71.06388888888888, 42.400277777777774]}, "properties": {"facility_name": "HUB FABRIC LEATHER CO INC", "industry": null, "tri_facility_id": "02149HBFBR7CHAR"}}, {"type": "Feature", "geometry": {"type": "Point", "coordinates": [-71.053056, 42.400556]}, "properties": {"facility_name": "BAYSTATE GALVANIZING INC", "industry": null, "tri_facility_id": "02149LDKTG12813"}}, {"type": "Feature", "geometry": {"type": "Point", "coordinates": [-71.051667, 42.400833]}, "properties": {"facility_name": "LEE PRODUCTS CO", "industry": null, "tri_facility_id": "02149LPRDC380SE"}}, {"type": "Feature", "geometry": {"type": "Point", "coordinates": [-71.073611, 42.383611]}, "properties": {"facility_name": "MONSANTO CO", "industry": null, "tri_facility_id": "02149MNSNTMYSTI"}}, {"type": "Feature", "geometry": {"type": "Point", "coordinates": [-71.051111, 42.408333]}, "properties": {"facility_name": "MARKET FORGE INDUSTRIES INC", "industry": null, "tri_facility_id": "02149MRKTF35GAR"}}, {"type": "Feature", "geometry": {"type": "Point", "coordinates": [-71.05916666666667, 42.39833333333333]}, "properties": {"facility_name": "MERRILL COMMUNICATIONS LLC", "industry": null, "tri_facility_id": "02149MRRLL4CMME"}}, {"type": "Feature", "geometry": {"type": "Point", "coordinates": [-71.048889, 42.398889]}, "properties": {"facility_name": "NUBRITE CHEMICAL KYANIZE PAINTS DIV", "industry": null, "tri_facility_id": "02149NBRTCSECON"}}, {"type": "Feature", "geometry": {"type": "Point", "coordinates": [-71.05722222222222, 42.38972222222222]}, "properties": {"facility_name": "OSSIPEE AGGREGATES", "industry": null, "tri_facility_id": "02149SSPGG201RO"}}, {"type": "Feature", "geometry": {"type": "Point", "coordinates": [-71.0525, 42.401389]}, "properties": {"facility_name": "W A WOOD CO", "industry": null, "tri_facility_id": "02149WWDCM108SP"}}, {"type": "Feature", "geometry": {"type": "Point", "coordinates": [-71.0611111111111, 42.39722222222222]}, "properties": {"facility_name": "EXXON MOBIL CORP EVERETT TERMINAL", "industry": null, "tri_facility_id": "02149XXNCS52BEA"}}, {"type": "Feature", "geometry": {"type": "Point", "coordinates": [-71.109, 42.4235]}, "properties": {"facility_name": "BOSTON RETAIL PRODUCTS", "industry": null, "tri_facility_id": "02155BSTNR400RI"}}, {"type": "Feature", "geometry": {"type": "Point", "coordinates": [-71.079893, 42.413668]}, "properties": {"facility_name": "GE CO", "industry": null, "tri_facility_id": "02155GNRLL320MI"}}, {"type": "Feature", "geometry": {"type": "Point", "coordinates": [-71.106111, 42.404444]}, "properties": {"facility_name": "MATERIALS DEVELOPMENT CORP", "industry": null, "tri_facility_id": "02155MTRLS81HIC"}}, {"type": "Feature", "geometry": {"type": "Point", "coordinates": [-71.076849, 42.40745]}, "properties": {"facility_name": "MYSTIC PLATING CORP", "industry": null, "tri_facility_id": "02155MYSTC213CO"}}, {"type": "Feature", "geometry": {"type": "Point", "coordinates": [-71.108333, 42.413889]}, "properties": {"facility_name": "TRA-CON INC", "industry": null, "tri_facility_id": "02155TRCNN55NOR"}}, {"type": "Feature", "geometry": {"type": "Point", "coordinates": [-71.148611, 42.365833]}, "properties": {"facility_name": "BARCLAY WATER MGMT INC", "industry": null, "tri_facility_id": "02172BRCLY150CO"}}, {"type": "Feature", "geometry": {"type": "Point", "coordinates": [-71.151589, 42.369063]}, "properties": {"facility_name": "CPS CORP WATERTOWN", "industry": null, "tri_facility_id": "02172CPSWT149GR"}}, {"type": "Feature", "geometry": {"type": "Point", "coordinates": [-71.155, 42.36362]}, "properties": {"facility_name": "EG & G TORQUE SYS INC", "industry": null, "tri_facility_id": "02172GGTRQ36ARL"}}, {"type": "Feature", "geometry": {"type": "Point", "coordinates": [-71.154444, 42.37]}, "properties": {"facility_name": "GE IONICS", "industry": null, "tri_facility_id": "02172NCSNC65GRO"}}, {"type": "Feature", "geometry": {"type": "Point", "coordinates": [-71.185833, 42.361389]}, "properties": {"facility_name": "ARK-LES CORP", "industry": null, "tri_facility_id": "02172RKLSC51WAT"}}, {"type": "Feature", "geometry": {"type": "Point", "coordinates": [-71.178333, 42.366667]}, "properties": {"facility_name": "SWISSTRONICS", "industry": null, "tri_facility_id": "02172SWSST70PHI"}}, {"type": "Feature", "geometry": {"type": "Point", "coordinates": [-71.06777777777778, 42.4525]}, "properties": {"facility_name": "MICROSEMI CDI", "industry": null, "tri_facility_id": "02176MCRSM22COR"}}, {"type": "Feature", "geometry": {"type": "Point", "coordinates": [-71.07138888888889, 42.441111111111105]}, "properties": {"facility_name": "RWA INC", "industry": null, "tri_facility_id": "02176RWNCX37WAS"}}, {"type": "Feature", "geometry": {"type": "Point", "coordinates": [-71.177778, 42.396111]}, "properties": {"facility_name": "PURECOAT NORTH LLC", "industry": null, "tri_facility_id": "02178CMBRD39HIT"}}, {"type": "Feature", "geometry": {"type": "Point", "coordinates": [-71.177778, 42.369722]}, "properties": {"facility_name": "W C BONNER CO INC", "industry": null, "tri_facility_id": "02272THWCB80OAK"}}, {"type": "Feature", "geometry": {"type": "Point", "coordinates": [-71.16027777777778, 42.36388888888889]}, "properties": {"facility_name": "ACUSPHERE INC", "industry": null, "tri_facility_id": "02472CSPHR5ARSE"}}, {"type": "Feature", "geometry": {"type": "Point", "coordinates": [-71.15777777777778, 42.36833333333333]}, "properties": {"facility_name": "AGGREGATE INDUSTRIES NORTHEAST REGION INC.", "industry": null, "tri_facility_id": "02472GGRGT105CO"}}, {"type": "Feature", "geometry": {"type": "Point", "coordinates": [-71.057778, 42.34]}, "properties": {"facility_name": "COLE HERSEE CO", "industry": null, "tri_facility_id": "01217CLHRS20OLD"}}, {"type": "Feature", "geometry": {"type": "Point", "coordinates": [-71.058333, 42.35]}, "properties": {"facility_name": "THE GILLETTE CO LLC", "industry": null, "tri_facility_id": "02106THGLLGILLE"}}, {"type": "Feature", "geometry": {"type": "Point", "coordinates": [-71.025505, 42.375332]}, "properties": {"facility_name": "USAIR HANGAR", "industry": null, "tri_facility_id": "02108SRHNG180PR"}}, {"type": "Feature", "geometry": {"type": "Point", "coordinates": [-71.06333333333333, 42.34583333333334]}, "properties": {"facility_name": "TERADYNE, INC", "industry": null, "tri_facility_id": "02108TRDYN321HA"}}, {"type": "Feature", "geometry": {"type": "Point", "coordinates": [-71.045556, 42.348056]}, "properties": {"facility_name": "TERADYNE, INC.", "industry": null, "tri_facility_id": "02111TRDYN179LI"}}, {"type": "Feature", "geometry": {"type": "Point", "coordinates": [-71.086111, 42.329444]}, "properties": {"facility_name": "MODERN ELECTROPLATING CO INC", "industry": null, "tri_facility_id": "02119MDRNL2430W"}}, {"type": "Feature", "geometry": {"type": "Point", "coordinates": [-71.075, 42.324722]}, "properties": {"facility_name": "SOLUTEK CORP", "industry": null, "tri_facility_id": "02119SLTKC94SHI"}}, {"type": "Feature", "geometry": {"type": "Point", "coordinates": [-71.02722222222222, 42.33888888888889]}, "properties": {"facility_name": "COASTAL OIL OF NEW ENGLAND", "industry": null, "tri_facility_id": "02127CSTLL900EF"}}, {"type": "Feature", "geometry": {"type": "Point", "coordinates": [-71.048333, 42.346111]}, "properties": {"facility_name": "CONTI CAST CORPORATION METALONICS DIV", "industry": null, "tri_facility_id": "02127MTLNC40WTH"}}, {"type": "Feature", "geometry": {"type": "Point", "coordinates": [-71.03861111111111, 42.340833333333336]}, "properties": {"facility_name": "EXELON NEW BOSTON LLC", "industry": null, "tri_facility_id": "02127NWBST776SU"}}, {"type": "Feature", "geometry": {"type": "Point", "coordinates": [-71.059722, 42.332778]}, "properties": {"facility_name": "PEARL BOOKBINDING CO INC", "industry": null, "tri_facility_id": "02127PRLBK2ALGE"}}, {"type": "Feature", "geometry": {"type": "Point", "coordinates": [-71.034167, 42.383333]}, "properties": {"facility_name": "MOBIL OIL CORP EAST BOSTON LUBE PLANT", "industry": null, "tri_facility_id": "02128MBLST580CH"}}, {"type": "Feature", "geometry": {"type": "Point", "coordinates": [-71.075278, 42.387778]}, "properties": {"facility_name": "FEDERAL METAL FINISHING INC", "industry": null, "tri_facility_id": "02129FDRLM18DOR"}}, {"type": "Feature", "geometry": {"type": "Point", "coordinates": [-71.071278, 42.3826]}, "properties": {"facility_name": "H P HOOD INC", "industry": null, "tri_facility_id": "02129HPHDN500RU"}}, {"type": "Feature", "geometry": {"type": "Point", "coordinates": [-71.05777777777777, 42.39111111111111]}, "properties": {"facility_name": "MYSTIC STATION", "industry": null, "tri_facility_id": "02129MYSTC173AL"}}, {"type": "Feature", "geometry": {"type": "Point", "coordinates": [-71.05, 42.383333]}, "properties": {"facility_name": "UNITED STATES GYPSUM CO", "industry": null, "tri_facility_id": "02129NTDST200TE"}}, {"type": "Feature", "geometry": {"type": "Point", "coordinates": [-71.074167, 42.386944]}, "properties": {"facility_name": "WHITTEMORE-WRIGHT CO INC", "industry": null, "tri_facility_id": "02129WHTTM62ALF"}}, {"type": "Feature", "geometry": {"type": "Point", "coordinates": [-71.1037, 42.32613]}, "properties": {"facility_name": "HAMPDEN AUTOMOTIVE SALES CORP", "industry": null, "tri_facility_id": "02130HMPDN117HE"}}, {"type": "Feature", "geometry": {"type": "Point", "coordinates": [-71.13157, 42.35499]}, "properties": {"facility_name": "CGI INC", "industry": null, "tri_facility_id": "02134CGNCX20LIN"}}, {"type": "Feature", "geometry": {"type": "Point", "coordinates": [-71.126111, 42.355]}, "properties": {"facility_name": "CAPITOL CIRCUITS CORP", "industry": null, "tri_facility_id": "02134CPTLC24DEN"}}, {"type": "Feature", "geometry": {"type": "Point", "coordinates": [-71.119444, 42.3625]}, "properties": {"facility_name": "RESILIENCE BOSTON INC.", "industry": null, "tri_facility_id": "02134GNZYM500SO"}}, {"type": "Feature", "geometry": {"type": "Point", "coordinates": [-71.11916666666666, 42.35916666666667]}, "properties": {"facility_name": "HOUGHTON CHEMICAL CORP", "industry": null, "tri_facility_id": "02134HSTNC52CAM"}}, {"type": "Feature", "geometry": {"type": "Point", "coordinates": [-71.13416666666667, 42.34777777777778]}, "properties": {"facility_name": "STEEL ART CO INC", "industry": null, "tri_facility_id": "02134STLRT75BRA"}}, {"type": "Feature", "geometry": {"type": "Point", "coordinates": [-71.147915, 42.357134]}, "properties": {"facility_name": "BARRY CONTROLS", "industry": null, "tri_facility_id": "02135BRRYC40GUE"}}, {"type": "Feature", "geometry": {"type": "Point", "coordinates": [-71.150556, 42.355556]}, "properties": {"facility_name": "BULL HN INFORMATION SYSTEMS INC", "industry": null, "tri_facility_id": "02135HNYWL38LIF"}}, {"type": "Feature", "geometry": {"type": "Point", "coordinates": [-71.172222, 42.351111]}, "properties": {"facility_name": "NEW BALANCE ATHLETIC SHOE INC", "industry": null, "tri_facility_id": "02135NDRSN145NE"}}, {"type": "Feature", "geometry": {"type": "Point", "coordinates": [-71.05, 42.35]}, "properties": {"facility_name": "NEW BALANCE ATHLETIC SHOE INC", "industry": null, "tri_facility_id": "02135NWBLN65NBE"}}, {"type": "Feature", "geometry": {"type": "Point", "coordinates": [-71.138611, 42.359167]}, "properties": {"facility_name": "SPECTROWAX CORP", "industry": null, "tri_facility_id": "02135SPCTR70HIC"}}, {"type": "Feature", "geometry": {"type": "Point", "coordinates": [-71.139381, 42.360524]}, "properties": {"facility_name": "TRUESDALE CO", "industry": null, "tri_facility_id": "02135THTRS108HO"}}, {"type": "Feature", "geometry": {"type": "Point", "coordinates": [-71.1463, 42.3551]}, "properties": {"facility_name": "FEDERAL-MOGUL CORP", "industry": null, "tri_facility_id": "02135WGNRL145NO"}}, {"type": "Feature", "geometry": {"type": "Point", "coordinates": [-71.042222, 42.399444]}, "properties": {"facility_name": "CHELSEA CLOCK LLC", "industry": null, "tri_facility_id": "02150CHLSC284EV"}}, {"type": "Feature", "geometry": {"type": "Point", "coordinates": [-71.04527777777777, 42.38611111111111]}, "properties": {"facility_name": "CHELSEA SANDWICH LLC", "industry": null, "tri_facility_id": "02150CHLSS11BRO"}}, {"type": "Feature", "geometry": {"type": "Point", "coordinates": [-71.046111, 42.387222]}, "properties": {"facility_name": "MODINE NORTHEAST INC", "industry": null, "tri_facility_id": "02150MDNNR25ARL"}}, {"type": "Feature", "geometry": {"type": "Point", "coordinates": [-71.025556, 42.395833]}, "properties": {"facility_name": "MARSON CORP MARVEL CORP", "industry": null, "tri_facility_id": "02150MRSNC130CR"}}, {"type": "Feature", "geometry": {"type": "Point", "coordinates": [-71.023889, 42.387222]}, "properties": {"facility_name": "BILTRITE CORP", "industry": null, "tri_facility_id": "02150THBLT31HIG"}}, {"type": "Feature", "geometry": {"type": "Point", "coordinates": [-71.03, 42.39944444444444]}, "properties": {"facility_name": "WATER CHEMICALS INC", "industry": null, "tri_facility_id": "02150WTRCH1556T"}}, {"type": "Feature", "geometry": {"type": "Point", "coordinates": [-71.03722222222223, 42.34527777777778]}, "properties": {"facility_name": "ADCOTRON EMS INC", "industry": null, "tri_facility_id": "02210DVNCD12CHA"}}, {"type": "Feature", "geometry": {"type": "Point", "coordinates": [-71.10888888888888, 42.33694444444445]}, "properties": {"facility_name": "MATEP LLC", "industry": null, "tri_facility_id": "02215DVNCD474BR"}}, {"type": "Feature", "geometry": {"type": "Point", "coordinates": [-71.083333, 42.333333]}, "properties": {"facility_name": "NIMROD PRESS INC", "industry": null, "tri_facility_id": "02215NMRDP170BR"}}]}