{"type": "FeatureCollection", "features": [{"type": "Feature", "properties": {"tract_id": "46051953100", "name": "Census Tract 9531", "income_2020": 68594, "poverty_rate_2020": 11.3, "population_2020": 5514}, "geometry": {"type": "Polygon", "coordinates": [[[-97.00272, 45.30667], [-97.00241, 45.30644], [-97.00053, 45.30532], [-96.99903, 45.30442], [-96.9907, 45.29945], [-96.99046, 45.2993], [-96.99036, 45.29919], [-96.9892, 45.29855], [-96.98498, 45.29603], [-96.98261, 45.29461], [-96.97929, 45.29263], [-96.97892, 45.2924], [-96.97777, 45.29175], [-96.9762, 45.29094], [-96.97524, 45.29048], [-96.97384, 45.28985], [-96.96471, 45.28604], [-96.9647, 45.28537], [-96.96467, 45.28042], [-96.96464, 45.27385], [-96.96461, 45.26888], [-96.96468, 45.26256], [-96.96467, 45.26168], [-96.96463, 45.26141], [-96.96451, 45.26104], [-96.96439, 45.26078], [-96.96417, 45.26049], [-96.96388, 45.26023], [-96.96372, 45.26011], [-96.9635, 45.25998], [-96.9633, 45.25986], [-96.96263, 45.25949], [-96.96216, 45.2592], [-96.96177, 45.25894], [-96.96153, 45.25872], [-96.96143, 45.25859], [-96.96142, 45.25858], [-96.96126, 45.25832], [-96.96105, 45.25786], [-96.96098, 45.25759], [-96.96097, 45.25698], [-96.96102, 45.25456], [-96.96102, 45.25442], [-96.96152, 45.25442], [-96.96418, 45.25443], [-96.96449, 45.25443], [-96.96464, 45.25418], [-96.96466, 45.25413], [-96.96471, 45.254], [-96.96473, 45.25386], [-96.96471, 45.25318], [-96.96472, 45.2526], [-96.96478, 45.24835], [-96.96488, 45.24084], [-96.96482, 45.24036], [-96.96478, 45.24023], [-96.96462, 45.2399], [-96.96462, 45.23988], [-96.96446, 45.23943], [-96.96445, 45.2393], [-96.96445, 45.23909], [-96.96451, 45.23889], [-96.96466, 45.23864], [-96.96528, 45.23794], [-96.96553, 45.23757], [-96.96561, 45.23737], [-96.96564, 45.23724], [-96.96565, 45.23703], [-96.96557, 45.23621], [-96.96541, 45.22665], [-96.96546, 45.22308], [-96.95576, 45.22294], [-96.94831, 45.22284], [-96.94494, 45.2228], [-96.92486, 45.2228], [-96.92129, 45.22279], [-96.91292, 45.22277], [-96.90418, 45.22274], [-96.89402, 45.22259], [-96.89253, 45.22256], [-96.88381, 45.22243], [-96.87822, 45.22235], [-96.87751, 45.22233], [-96.87477, 45.22231], [-96.86469, 45.22231], [-96.86462, 45.22792], [-96.86458, 45.22858], [-96.86456, 45.22882], [-96.86448, 45.22913], [-96.86449, 45.22928], [-96.86453, 45.2294], [-96.86454, 45.22943], [-96.86459, 45.22965], [-96.8646, 45.22987], [-96.86458, 45.23524], [-96.86456, 45.23925], [-96.86451, 45.23934], [-96.86446, 45.23937], [-96.86437, 45.23938], [-96.86277, 45.23937], [-96.85885, 45.23938], [-96.85217, 45.23939], [-96.84246, 45.23945], [-96.84208, 45.23939], [-96.84009, 45.23939], [-96.83545, 45.23939], [-96.83285, 45.23939], [-96.82837, 45.23948], [-96.82767, 45.23949], [-96.82352, 45.23951], [-96.82182, 45.23952], [-96.82056, 45.23951], [-96.80302, 45.23957], [-96.80236, 45.23956], [-96.80131, 45.2395], [-96.79798, 45.23953], [-96.78322, 45.2396], [-96.78244, 45.2396], [-96.78085, 45.23961], [-96.76162, 45.23962], [-96.76053, 45.23961], [-96.74229, 45.23955], [-96.73987, 45.23955], [-96.73712, 45.23954], [-96.73605, 45.23954], [-96.72186, 45.2395], [-96.72122, 45.2395], [-96.72062, 45.23949], [-96.72014, 45.2395], [-96.71151, 45.23948], [-96.70288, 45.23948], [-96.69891, 45.23947], [-96.68231, 45.23949], [-96.68226, 45.23493], [-96.68213, 45.22473], [-96.68211, 45.2228], [-96.68197, 45.21743], [-96.6818, 45.21031], [-96.68179, 45.21025], [-96.6818, 45.21009], [-96.68184, 45.20998], [-96.6819, 45.20988], [-96.68221, 45.20956], [-96.68226, 45.2094], [-96.68222, 45.20925], [-96.68213, 45.20915], [-96.68197, 45.20904], [-96.68187, 45.20895], [-96.6818, 45.20879], [-96.68178, 45.20829], [-96.68071, 45.20828], [-96.68046, 45.20829], [-96.68119, 45.20777], [-96.68139, 45.20761], [-96.68162, 45.20746], [-96.68171, 45.20737], [-96.68177, 45.20727], [-96.6818, 45.20716], [-96.68177, 45.20678], [-96.68171, 45.19715], [-96.68169, 45.19373], [-96.6816, 45.18173], [-96.68159, 45.17914], [-96.67537, 45.17919], [-96.67132, 45.17921], [-96.66104, 45.17925], [-96.64042, 45.17931], [-96.63595, 45.17933], [-96.61974, 45.1794], [-96.61534, 45.17941], [-96.5993, 45.17942], [-96.58803, 45.17949], [-96.57894, 45.17944], [-96.57228, 45.1794], [-96.56912, 45.17944], [-96.55846, 45.17957], [-96.55819, 45.19408], [-96.55811, 45.20469], [-96.55808, 45.20864], [-96.558, 45.21489], [-96.5579, 45.22315], [-96.55771, 45.23989], [-96.54106, 45.23991], [-96.53729, 45.23991], [-96.53512, 45.2399], [-96.52857, 45.23994], [-96.52455, 45.23992], [-96.52309, 45.23993], [-96.51459, 45.23992], [-96.51121, 45.23993], [-96.5072, 45.23993], [-96.49682, 45.23994], [-96.49547, 45.23994], [-96.49408, 45.23994], [-96.47669, 45.23998], [-96.47363, 45.24001], [-96.45273, 45.24001], [-96.45284, 45.25443], [-96.45295, 45.26892], [-96.45297, 45.27259], [-96.45299, 45.27609], [-96.453, 45.27744], [-96.453, 45.27746], [-96.45295, 45.27909], [-96.45295, 45.27917], [-96.45296, 45.27976], [-96.45297, 45.28297], [-96.45297, 45.28302], [-96.453, 45.28337], [-96.453, 45.28341], [-96.45301, 45.28342], [-96.45305, 45.28358], [-96.45306, 45.2836], [-96.45298, 45.28642], [-96.453, 45.2866], [-96.453, 45.28674], [-96.45301, 45.28706], [-96.45301, 45.28716], [-96.45302, 45.2873], [-96.45303, 45.2876], [-96.45303, 45.28768], [-96.45306, 45.28881], [-96.45307, 45.28919], [-96.45307, 45.29044], [-96.4531, 45.29151], [-96.45309, 45.29158], [-96.45309, 45.29164], [-96.453, 45.29355], [-96.45299, 45.29381], [-96.45299, 45.29382], [-96.45299, 45.2942], [-96.45299, 45.29457], [-96.45299, 45.29466], [-96.453, 45.29519], [-96.45304, 45.29707], [-96.45306, 45.29769], [-96.45306, 45.29775], [-96.45306, 45.29784], [-96.45306, 45.2979], [-96.45306, 45.29796], [-96.45306, 45.29799], [-96.45306, 45.29808], [-96.45306, 45.29811], [-96.45306, 45.29813], [-96.45306, 45.29818], [-96.45306, 45.2982], [-96.45306, 45.29821], [-96.45306, 45.29824], [-96.45306, 45.29825], [-96.45306, 45.29826], [-96.45305, 45.29829], [-96.45305, 45.2983], [-96.45305, 45.29831], [-96.45305, 45.29836], [-96.45305, 45.29838], [-96.45305, 45.29844], [-96.45305, 45.29863], [-96.45306, 45.29869], [-96.45306, 45.2989], [-96.45308, 45.29954], [-96.45309, 45.29975], [-96.45309, 45.2999], [-96.45311, 45.30035], [-96.45311, 45.3005], [-96.4531, 45.30065], [-96.4531, 45.30075], [-96.45332, 45.30105], [-96.45342, 45.30117], [-96.45348, 45.30122], [-96.45368, 45.30135], [-96.45374, 45.30139], [-96.45379, 45.30143], [-96.45392, 45.30155], [-96.45397, 45.30158], [-96.45403, 45.30162], [-96.45405, 45.30163], [-96.45427, 45.30175], [-96.45448, 45.30185], [-96.45518, 45.3024], [-96.45552, 45.30263], [-96.4555, 45.30264], [-96.45557, 45.30268], [-96.45565, 45.30273], [-96.45572, 45.30277], [-96.4558, 45.30282], [-96.45619, 45.30308], [-96.45651, 45.30333], [-96.45657, 45.3034], [-96.45667, 45.30352], [-96.45673, 45.30357], [-96.45677, 45.30364], [-96.45683, 45.3037], [-96.45694, 45.30381], [-96.45699, 45.30388], [-96.45702, 45.30395], [-96.45705, 45.30402], [-96.45708, 45.30408], [-96.4571, 45.30416], [-96.45714, 45.3043], [-96.45718, 45.30444], [-96.45722, 45.30458], [-96.45726, 45.30472], [-96.45728, 45.30486], [-96.4573, 45.30501], [-96.45732, 45.30522], [-96.45734, 45.30544], [-96.45736, 45.30566], [-96.45738, 45.30587], [-96.4574, 45.30609], [-96.45742, 45.30623], [-96.45742, 45.30637], [-96.45744, 45.30659], [-96.45745, 45.3068], [-96.45746, 45.30702], [-96.45747, 45.30717], [-96.45749, 45.30731], [-96.4575, 45.30738], [-96.45753, 45.30746], [-96.45755, 45.30752], [-96.45758, 45.30759], [-96.45762, 45.30765], [-96.4577, 45.30779], [-96.45782, 45.30798], [-96.4579, 45.30812], [-96.45798, 45.30825], [-96.45806, 45.30838], [-96.45815, 45.30851], [-96.45824, 45.30864], [-96.45837, 45.30883], [-96.45851, 45.30902], [-96.45866, 45.30921], [-96.45875, 45.30933], [-96.45886, 45.30947], [-96.45893, 45.30952], [-96.45907, 45.30971], [-96.45921, 45.30989], [-96.45937, 45.3101], [-96.45951, 45.31028], [-96.45966, 45.31047], [-96.45986, 45.31072], [-96.46005, 45.31097], [-96.46014, 45.31109], [-96.46028, 45.31131], [-96.46074, 45.31206], [-96.46145, 45.31314], [-96.46191, 45.31388], [-96.46266, 45.31464], [-96.46367, 45.3153], [-96.46375, 45.31542], [-96.4645, 45.31579], [-96.4656, 45.31638], [-96.46623, 45.31685], [-96.46664, 45.31716], [-96.46742, 45.31797], [-96.46803, 45.31862], [-96.46846, 45.31936], [-96.4685, 45.31952], [-96.4687, 45.32036], [-96.46876, 45.32056], [-96.46885, 45.32219], [-96.46886, 45.32363], [-96.46925, 45.32494], [-96.46992, 45.32583], [-96.46997, 45.32589], [-96.47003, 45.32597], [-96.47036, 45.3264], [-96.47048, 45.32655], [-96.48087, 45.32652], [-96.48738, 45.32656], [-96.48882, 45.32657], [-96.49391, 45.32665], [-96.50939, 45.32667], [-96.51021, 45.32667], [-96.5113, 45.32665], [-96.51442, 45.32669], [-96.51457, 45.3267], [-96.51597, 45.32668], [-96.52124, 45.32667], [-96.52452, 45.32667], [-96.53502, 45.32665], [-96.54491, 45.32664], [-96.5554, 45.32663], [-96.576, 45.32663], [-96.59645, 45.32664], [-96.61671, 45.32663], [-96.62154, 45.32657], [-96.62362, 45.32655], [-96.62533, 45.32648], [-96.63717, 45.32655], [-96.65768, 45.32652], [-96.67376, 45.32646], [-96.67726, 45.32645], [-96.67777, 45.32645], [-96.68135, 45.32643], [-96.68341, 45.32643], [-96.68551, 45.32642], [-96.69876, 45.32637], [-96.71682, 45.32627], [-96.71778, 45.32628], [-96.71927, 45.32631], [-96.7214, 45.32632], [-96.72793, 45.32629], [-96.73272, 45.32629], [-96.73981, 45.32626], [-96.74053, 45.32626], [-96.75526, 45.32625], [-96.75798, 45.32623], [-96.7603, 45.32623], [-96.76238, 45.3262], [-96.78085, 45.3262], [-96.79044, 45.32617], [-96.80133, 45.32614], [-96.8218, 45.32611], [-96.82294, 45.32612], [-96.82442, 45.32612], [-96.83456, 45.3261], [-96.84212, 45.32609], [-96.84236, 45.32609], [-96.84759, 45.32607], [-96.86234, 45.32602], [-96.86258, 45.32601], [-96.86297, 45.32603], [-96.86551, 45.32606], [-96.86608, 45.32604], [-96.86627, 45.32606], [-96.86632, 45.32606], [-96.87235, 45.3261], [-96.87288, 45.32611], [-96.87346, 45.32613], [-96.88065, 45.32617], [-96.88167, 45.32617], [-96.88245, 45.3261], [-96.88278, 45.32616], [-96.90298, 45.32627], [-96.9031, 45.32627], [-96.90329, 45.32632], [-96.90812, 45.3263], [-96.91319, 45.32635], [-96.91407, 45.32634], [-96.93312, 45.32643], [-96.9342, 45.32643], [-96.94451, 45.32642], [-96.95428, 45.32649], [-96.96218, 45.3266], [-96.96468, 45.3267], [-96.97353, 45.32674], [-96.97696, 45.32676], [-96.99295, 45.32688], [-96.99498, 45.32268], [-96.99689, 45.31872], [-96.99705, 45.31839], [-96.99707, 45.31836], [-96.99719, 45.31811], [-96.99994, 45.3124], [-97.0004, 45.31144], [-97.00272, 45.30667]]]}}, {"type": "Feature", "properties": {"tract_id": "46051953300", "name": "Census Tract 9533", "income_2020": 76034, "poverty_rate_2020": 5.8, "population_2020": 2019}, "geometry": {"type": "Polygon", "coordinates": [[[-97.22642, 45.18161], [-97.22642, 45.18145], [-97.22642, 45.18091], [-97.22641, 45.17799], [-97.22641, 45.17789], [-97.22641, 45.17296], [-97.22641, 45.17294], [-97.22621, 45.16638], [-97.22621, 45.16633], [-97.22619, 45.16631], [-97.22616, 45.16628], [-97.22616, 45.16471], [-97.2262, 45.16134], [-97.2262, 45.16094], [-97.2262, 45.15975], [-97.22619, 45.15859], [-97.22619, 45.15785], [-97.22619, 45.15779], [-97.22619, 45.15712], [-97.22619, 45.15643], [-97.2262, 45.15594], [-97.2262, 45.15575], [-97.22624, 45.15469], [-97.22624, 45.15404], [-97.22627, 45.15266], [-97.22629, 45.15197], [-97.22628, 45.15183], [-97.22068, 45.15182], [-97.22066, 45.15182], [-97.2111, 45.15181], [-97.21108, 45.15181], [-97.20554, 45.1518], [-97.20549, 45.1518], [-97.20445, 45.15179], [-97.20279, 45.15177], [-97.1983, 45.15174], [-97.19626, 45.15172], [-97.19535, 45.15172], [-97.19528, 45.15172], [-97.1952, 45.15171], [-97.19477, 45.15171], [-97.19449, 45.15171], [-97.18639, 45.15169], [-97.18603, 45.15169], [-97.18491, 45.15168], [-97.17981, 45.1517], [-97.17433, 45.15171], [-97.17421, 45.15171], [-97.17418, 45.15171], [-97.1657, 45.15174], [-97.16464, 45.15174], [-97.16323, 45.15174], [-97.15623, 45.15174], [-97.15439, 45.15174], [-97.15031, 45.15174], [-97.1442, 45.15174], [-97.13343, 45.1518], [-97.13295, 45.1518], [-97.12775, 45.15176], [-97.12537, 45.15171], [-97.12379, 45.15168], [-97.12152, 45.15169], [-97.11955, 45.15169], [-97.11321, 45.15171], [-97.11319, 45.15171], [-97.11251, 45.15171], [-97.10776, 45.15163], [-97.10441, 45.15158], [-97.10333, 45.15156], [-97.10315, 45.15156], [-97.09843, 45.15151], [-97.09711, 45.15149], [-97.09597, 45.15148], [-97.08921, 45.1514], [-97.08247, 45.15132], [-97.08228, 45.15131], [-97.08058, 45.15116], [-97.08048, 45.15115], [-97.07957, 45.15106], [-97.0792, 45.15102], [-97.07835, 45.15094], [-97.07809, 45.15092], [-97.07804, 45.15092], [-97.07765, 45.15091], [-97.07756, 45.15091], [-97.07712, 45.1509], [-97.07622, 45.15089], [-97.07489, 45.15088], [-97.07263, 45.15085], [-97.0713, 45.15084], [-97.07096, 45.15083], [-97.06653, 45.15078], [-97.06373, 45.15077], [-97.05931, 45.15076], [-97.059, 45.15075], [-97.05772, 45.15077], [-97.05655, 45.15075], [-97.05611, 45.15074], [-97.05569, 45.15073], [-97.05539, 45.15073], [-97.05063, 45.15069], [-97.04756, 45.15067], [-97.04607, 45.15066], [-97.04236, 45.15063], [-97.0255, 45.1505], [-97.02321, 45.15049], [-97.01568, 45.15045], [-97.00679, 45.15046], [-97.00663, 45.15046], [-97.00508, 45.15047], [-97.00035, 45.15049], [-97.00033, 45.15049], [-96.98609, 45.15055], [-96.97815, 45.1506], [-96.96561, 45.15041], [-96.94775, 45.15026], [-96.94518, 45.15024], [-96.9247, 45.15018], [-96.91877, 45.15016], [-96.9174, 45.15015], [-96.91616, 45.15015], [-96.91591, 45.15015], [-96.91586, 45.15016], [-96.91544, 45.15027], [-96.91537, 45.15028], [-96.88847, 45.15022], [-96.88411, 45.15022], [-96.88395, 45.15022], [-96.88394, 45.14982], [-96.88393, 45.14935], [-96.88392, 45.14907], [-96.88392, 45.14892], [-96.88358, 45.13588], [-96.88334, 45.11687], [-96.88334, 45.11664], [-96.88346, 45.10717], [-96.88348, 45.10022], [-96.88351, 45.09272], [-96.88288, 45.07818], [-96.8828, 45.06377], [-96.8828, 45.04923], [-96.88276, 45.04326], [-96.88274, 45.04298], [-96.88271, 45.04285], [-96.88268, 45.04271], [-96.88256, 45.04238], [-96.88252, 45.04218], [-96.8825, 45.04197], [-96.88252, 45.04177], [-96.88256, 45.04149], [-96.88259, 45.04136], [-96.88263, 45.04116], [-96.88268, 45.04082], [-96.88272, 45.03986], [-96.88272, 45.03984], [-96.88273, 45.03934], [-96.88274, 45.03698], [-96.88275, 45.03477], [-96.88276, 45.03345], [-96.88276, 45.0333], [-96.88278, 45.02383], [-96.88279, 45.02223], [-96.88282, 45.01307], [-96.88283, 45.00815], [-96.88284, 45.00582], [-96.88284, 45.00577], [-96.88283, 45.0055], [-96.88282, 45.00495], [-96.88281, 45.00445], [-96.88267, 44.99796], [-96.88267, 44.99792], [-96.88266, 44.99771], [-96.88265, 44.99704], [-96.88264, 44.99701], [-96.88263, 44.99633], [-96.88252, 44.9913], [-96.88252, 44.99085], [-96.88249, 44.98843], [-96.88247, 44.98631], [-96.88245, 44.98497], [-96.88243, 44.98384], [-96.88242, 44.98274], [-96.8824, 44.98136], [-96.88235, 44.97687], [-96.88194, 44.97686], [-96.87982, 44.97686], [-96.87599, 44.97688], [-96.87574, 44.97688], [-96.87486, 44.97689], [-96.87484, 44.97689], [-96.8723, 44.9769], [-96.87017, 44.97691], [-96.86491, 44.97694], [-96.86216, 44.97695], [-96.86207, 44.97695], [-96.86113, 44.97695], [-96.86023, 44.97695], [-96.86009, 44.97695], [-96.85508, 44.97697], [-96.85191, 44.97697], [-96.84671, 44.97698], [-96.84345, 44.97698], [-96.8428, 44.97698], [-96.83874, 44.97703], [-96.82996, 44.97712], [-96.82832, 44.97713], [-96.82557, 44.97714], [-96.8214, 44.97717], [-96.81993, 44.97718], [-96.81517, 44.9772], [-96.81239, 44.97723], [-96.81117, 44.97723], [-96.80102, 44.97728], [-96.79991, 44.97727], [-96.79438, 44.9772], [-96.79354, 44.97721], [-96.79347, 44.9772], [-96.79201, 44.9772], [-96.79179, 44.9772], [-96.79072, 44.97717], [-96.78786, 44.97717], [-96.78773, 44.97714], [-96.78703, 44.97715], [-96.78458, 44.9771], [-96.78281, 44.97702], [-96.78257, 44.97702], [-96.78139, 44.97696], [-96.78083, 44.97695], [-96.77761, 44.97682], [-96.77751, 44.97682], [-96.77724, 44.97683], [-96.77684, 44.97679], [-96.76971, 44.97641], [-96.768, 44.97635], [-96.76721, 44.97633], [-96.76701, 44.97632], [-96.76049, 44.97604], [-96.75481, 44.97616], [-96.75034, 44.9763], [-96.74045, 44.97649], [-96.74016, 44.97649], [-96.73922, 44.97651], [-96.73686, 44.97654], [-96.73524, 44.97656], [-96.73507, 44.97654], [-96.73499, 44.97653], [-96.73444, 44.97653], [-96.7326, 44.97655], [-96.73048, 44.97658], [-96.7302, 44.97658], [-96.72951, 44.97659], [-96.72255, 44.97662], [-96.71973, 44.97663], [-96.71948, 44.97663], [-96.71757, 44.97665], [-96.71507, 44.97667], [-96.71156, 44.9767], [-96.70832, 44.97673], [-96.70653, 44.97674], [-96.70359, 44.97677], [-96.69968, 44.97683], [-96.69954, 44.97684], [-96.69935, 44.97684], [-96.69671, 44.97683], [-96.69502, 44.97684], [-96.69041, 44.97683], [-96.68953, 44.97683], [-96.68533, 44.97684], [-96.68421, 44.97684], [-96.68406, 44.97684], [-96.68358, 44.97685], [-96.67943, 44.97684], [-96.67364, 44.97726], [-96.67355, 44.97726], [-96.67321, 44.97726], [-96.66343, 44.97702], [-96.66306, 44.977], [-96.66289, 44.97699], [-96.66177, 44.97694], [-96.66152, 44.97693], [-96.66148, 44.97693], [-96.65903, 44.97691], [-96.655, 44.97689], [-96.65496, 44.97689], [-96.65437, 44.97689], [-96.65404, 44.97688], [-96.6515, 44.97688], [-96.65094, 44.97687], [-96.64884, 44.97686], [-96.64621, 44.97684], [-96.64377, 44.97682], [-96.64098, 44.97681], [-96.63891, 44.97679], [-96.63865, 44.97679], [-96.63818, 44.9768], [-96.63777, 44.9768], [-96.63463, 44.9768], [-96.63365, 44.97679], [-96.63108, 44.9768], [-96.6298, 44.9768], [-96.62397, 44.97682], [-96.62231, 44.97681], [-96.62116, 44.97681], [-96.6201, 44.97678], [-96.61947, 44.97676], [-96.61888, 44.97675], [-96.61869, 44.97677], [-96.61856, 44.9768], [-96.61843, 44.97681], [-96.61736, 44.97682], [-96.61634, 44.97682], [-96.59833, 44.97688], [-96.5856, 44.97688], [-96.58531, 44.97688], [-96.58364, 44.97686], [-96.58319, 44.97686], [-96.58286, 44.97686], [-96.58253, 44.97686], [-96.57798, 44.97687], [-96.57371, 44.97688], [-96.57312, 44.97688], [-96.56772, 44.97689], [-96.55763, 44.97691], [-96.55745, 44.97691], [-96.55087, 44.97692], [-96.5484, 44.97692], [-96.54456, 44.9769], [-96.53724, 44.97692], [-96.53233, 44.97694], [-96.53039, 44.97694], [-96.52944, 44.97692], [-96.52905, 44.97694], [-96.5285, 44.97697], [-96.52773, 44.97697], [-96.52534, 44.97697], [-96.51693, 44.97699], [-96.51021, 44.977], [-96.50948, 44.977], [-96.50867, 44.977], [-96.50794, 44.97703], [-96.5073, 44.97703], [-96.50629, 44.97703], [-96.50529, 44.97702], [-96.50032, 44.97702], [-96.49645, 44.9772], [-96.4955, 44.97719], [-96.49547, 44.97719], [-96.49247, 44.97724], [-96.49225, 44.97724], [-96.49075, 44.97724], [-96.49027, 44.97724], [-96.48917, 44.97735], [-96.48886, 44.97733], [-96.47605, 44.97738], [-96.47598, 44.97738], [-96.45569, 44.97734], [-96.45553, 44.97734], [-96.45547, 44.97736], [-96.45534, 44.97738], [-96.4534, 44.97739], [-96.45257, 44.97739], [-96.45224, 44.97741], [-96.45216, 44.97743], [-96.45208, 44.9775], [-96.45205, 44.97756], [-96.45204, 44.97765], [-96.45203, 44.97945], [-96.45203, 44.97947], [-96.45203, 44.99072], [-96.45203, 44.99173], [-96.45203, 44.99189], [-96.45203, 44.99386], [-96.45202, 44.99396], [-96.45202, 44.99488], [-96.45199, 45.00149], [-96.452, 45.0017], [-96.452, 45.00175], [-96.45204, 45.00644], [-96.45204, 45.00672], [-96.45205, 45.00742], [-96.45206, 45.00832], [-96.45209, 45.01212], [-96.45211, 45.0146], [-96.45211, 45.01502], [-96.45211, 45.01572], [-96.45211, 45.01779], [-96.45211, 45.02106], [-96.45215, 45.02188], [-96.45216, 45.02256], [-96.45213, 45.02352], [-96.45213, 45.02571], [-96.45216, 45.02746], [-96.45216, 45.0275], [-96.45216, 45.02756], [-96.45214, 45.02807], [-96.4522, 45.03092], [-96.45219, 45.03558], [-96.45218, 45.03599], [-96.45221, 45.03733], [-96.45217, 45.03811], [-96.45217, 45.03814], [-96.45219, 45.03907], [-96.4522, 45.03973], [-96.45223, 45.04169], [-96.45224, 45.04235], [-96.45223, 45.04382], [-96.45219, 45.04824], [-96.45218, 45.04947], [-96.45221, 45.04972], [-96.45225, 45.05011], [-96.45221, 45.0516], [-96.45223, 45.05433], [-96.45223, 45.05437], [-96.45223, 45.05438], [-96.45223, 45.05439], [-96.45223, 45.05442], [-96.45223, 45.05444], [-96.45223, 45.05485], [-96.45223, 45.05607], [-96.45223, 45.05648], [-96.45223, 45.06418], [-96.45222, 45.06476], [-96.4522, 45.06567], [-96.4522, 45.06612], [-96.45222, 45.06649], [-96.45223, 45.0667], [-96.45223, 45.06676], [-96.45222, 45.06684], [-96.45222, 45.06689], [-96.45217, 45.06729], [-96.45216, 45.06897], [-96.45211, 45.07523], [-96.4521, 45.07684], [-96.45217, 45.07731], [-96.45218, 45.0774], [-96.45222, 45.07766], [-96.45223, 45.07768], [-96.45223, 45.07775], [-96.45223, 45.07816], [-96.45222, 45.07828], [-96.45222, 45.08078], [-96.45222, 45.08825], [-96.45233, 45.09332], [-96.45234, 45.09426], [-96.45235, 45.09428], [-96.4524, 45.09476], [-96.45237, 45.09507], [-96.45233, 45.1081], [-96.45225, 45.10883], [-96.45224, 45.10896], [-96.45232, 45.11509], [-96.45232, 45.11532], [-96.45247, 45.12246], [-96.45244, 45.12278], [-96.45243, 45.12422], [-96.45243, 45.12423], [-96.45263, 45.12527], [-96.45237, 45.13684], [-96.45209, 45.14995], [-96.45209, 45.1503], [-96.45207, 45.15108], [-96.45204, 45.15136], [-96.45201, 45.15171], [-96.45202, 45.15204], [-96.45206, 45.15305], [-96.45207, 45.15339], [-96.45208, 45.15388], [-96.45208, 45.1539], [-96.45209, 45.15395], [-96.45212, 45.15491], [-96.45235, 45.16564], [-96.45238, 45.16768], [-96.45238, 45.17154], [-96.45255, 45.17836], [-96.45255, 45.17847], [-96.45268, 45.18232], [-96.45268, 45.18253], [-96.45255, 45.19093], [-96.45255, 45.19099], [-96.45245, 45.19159], [-96.45244, 45.19204], [-96.45233, 45.19522], [-96.4523, 45.19628], [-96.45232, 45.19761], [-96.45238, 45.20159], [-96.4524, 45.20291], [-96.45245, 45.20493], [-96.45245, 45.20897], [-96.45248, 45.2113], [-96.45255, 45.21969], [-96.45255, 45.21982], [-96.45258, 45.22319], [-96.45262, 45.22463], [-96.45262, 45.22469], [-96.4526, 45.22592], [-96.4526, 45.22601], [-96.45262, 45.22727], [-96.45262, 45.22729], [-96.45273, 45.24001], [-96.47363, 45.24001], [-96.47669, 45.23998], [-96.49408, 45.23994], [-96.49547, 45.23994], [-96.49682, 45.23994], [-96.5072, 45.23993], [-96.51121, 45.23993], [-96.51459, 45.23992], [-96.52309, 45.23993], [-96.52455, 45.23992], [-96.52857, 45.23994], [-96.53512, 45.2399], [-96.53729, 45.23991], [-96.54106, 45.23991], [-96.55771, 45.23989], [-96.5579, 45.22315], [-96.558, 45.21489], [-96.55808, 45.20864], [-96.55811, 45.20469], [-96.55819, 45.19408], [-96.55846, 45.17957], [-96.56912, 45.17944], [-96.57228, 45.1794], [-96.57894, 45.17944], [-96.58803, 45.17949], [-96.5993, 45.17942], [-96.61534, 45.17941], [-96.61974, 45.1794], [-96.63595, 45.17933], [-96.64042, 45.17931], [-96.66104, 45.17925], [-96.67132, 45.17921], [-96.67537, 45.17919], [-96.68159, 45.17914], [-96.6816, 45.18173], [-96.68169, 45.19373], [-96.68171, 45.19715], [-96.68177, 45.20678], [-96.6818, 45.20716], [-96.68177, 45.20727], [-96.68171, 45.20737], [-96.68162, 45.20746], [-96.68139, 45.20761], [-96.68119, 45.20777], [-96.68046, 45.20829], [-96.68071, 45.20828], [-96.68178, 45.20829], [-96.6818, 45.20879], [-96.68187, 45.20895], [-96.68197, 45.20904], [-96.68213, 45.20915], [-96.68222, 45.20925], [-96.68226, 45.2094], [-96.68221, 45.20956], [-96.6819, 45.20988], [-96.68184, 45.20998], [-96.6818, 45.21009], [-96.68179, 45.21025], [-96.6818, 45.21031], [-96.68197, 45.21743], [-96.68211, 45.2228], [-96.68213, 45.22473], [-96.68226, 45.23493], [-96.68231, 45.23949], [-96.69891, 45.23947], [-96.70288, 45.23948], [-96.71151, 45.23948], [-96.72014, 45.2395], [-96.72062, 45.23949], [-96.72122, 45.2395], [-96.72186, 45.2395], [-96.73605, 45.23954], [-96.73712, 45.23954], [-96.73987, 45.23955], [-96.74229, 45.23955], [-96.76053, 45.23961], [-96.76162, 45.23962], [-96.78085, 45.23961], [-96.78244, 45.2396], [-96.78322, 45.2396], [-96.79798, 45.23953], [-96.80131, 45.2395], [-96.80236, 45.23956], [-96.80302, 45.23957], [-96.82056, 45.23951], [-96.82182, 45.23952], [-96.82352, 45.23951], [-96.82767, 45.23949], [-96.82837, 45.23948], [-96.83285, 45.23939], [-96.83545, 45.23939], [-96.84009, 45.23939], [-96.84208, 45.23939], [-96.84246, 45.23945], [-96.85217, 45.23939], [-96.85885, 45.23938], [-96.86277, 45.23937], [-96.86437, 45.23938], [-96.86446, 45.23937], [-96.86451, 45.23934], [-96.86456, 45.23925], [-96.86458, 45.23524], [-96.8646, 45.22987], [-96.86459, 45.22965], [-96.86454, 45.22943], [-96.86453, 45.2294], [-96.86449, 45.22928], [-96.86448, 45.22913], [-96.86456, 45.22882], [-96.86458, 45.22858], [-96.86462, 45.22792], [-96.86469, 45.22231], [-96.87477, 45.22231], [-96.87751, 45.22233], [-96.87822, 45.22235], [-96.88381, 45.22243], [-96.89253, 45.22256], [-96.89402, 45.22259], [-96.90418, 45.22274], [-96.91292, 45.22277], [-96.92129, 45.22279], [-96.92486, 45.2228], [-96.94494, 45.2228], [-96.94831, 45.22284], [-96.95576, 45.22294], [-96.96546, 45.22308], [-96.96541, 45.22665], [-96.96557, 45.23621], [-96.96565, 45.23703], [-96.96564, 45.23724], [-96.96561, 45.23737], [-96.96553, 45.23757], [-96.96528, 45.23794], [-96.96466, 45.23864], [-96.96451, 45.23889], [-96.96445, 45.23909], [-96.96445, 45.2393], [-96.96446, 45.23943], [-96.96462, 45.23988], [-96.96462, 45.2399], [-96.96478, 45.24023], [-96.96482, 45.24036], [-96.96488, 45.24084], [-96.96478, 45.24835], [-96.96472, 45.2526], [-96.96471, 45.25318], [-96.96473, 45.25386], [-96.96471, 45.254], [-96.96466, 45.25413], [-96.96464, 45.25418], [-96.96449, 45.25443], [-96.96418, 45.25443], [-96.96152, 45.25442], [-96.96102, 45.25442], [-96.96102, 45.25456], [-96.96097, 45.25698], [-96.96098, 45.25759], [-96.96105, 45.25786], [-96.96126, 45.25832], [-96.96142, 45.25858], [-96.96143, 45.25859], [-96.96153, 45.25872], [-96.96177, 45.25894], [-96.96216, 45.2592], [-96.96263, 45.25949], [-96.9633, 45.25986], [-96.9635, 45.25998], [-96.96372, 45.26011], [-96.96388, 45.26023], [-96.96417, 45.26049], [-96.96439, 45.26078], [-96.96451, 45.26104], [-96.96463, 45.26141], [-96.96467, 45.26168], [-96.96468, 45.26256], [-96.96461, 45.26888], [-96.96464, 45.27385], [-96.96467, 45.28042], [-96.9647, 45.28537], [-96.96471, 45.28604], [-96.97384, 45.28985], [-96.97524, 45.29048], [-96.9762, 45.29094], [-96.97777, 45.29175], [-96.97892, 45.2924], [-96.97929, 45.29263], [-96.98261, 45.29461], [-96.98498, 45.29603], [-96.9892, 45.29855], [-96.99036, 45.29919], [-96.99046, 45.2993], [-96.9907, 45.29945], [-96.99903, 45.30442], [-97.00053, 45.30532], [-97.00241, 45.30644], [-97.00272, 45.30667], [-97.00305, 45.30606], [-97.00308, 45.30598], [-97.00718, 45.29789], [-97.00754, 45.29687], [-97.01236, 45.29686], [-97.01607, 45.29685], [-97.01729, 45.29688], [-97.01993, 45.29693], [-97.02446, 45.29701], [-97.02482, 45.29702], [-97.02978, 45.29698], [-97.03078, 45.29697], [-97.03605, 45.29699], [-97.0361, 45.29699], [-97.03691, 45.29699], [-97.04116, 45.29699], [-97.05026, 45.29702], [-97.05197, 45.29703], [-97.05238, 45.29703], [-97.0542, 45.29704], [-97.05692, 45.29705], [-97.05885, 45.29705], [-97.06075, 45.29706], [-97.06154, 45.29706], [-97.0618, 45.29706], [-97.06388, 45.29706], [-97.07039, 45.29706], [-97.07289, 45.29706], [-97.08243, 45.29706], [-97.10308, 45.29709], [-97.10797, 45.29711], [-97.11014, 45.29711], [-97.11105, 45.29711], [-97.12372, 45.29714], [-97.13755, 45.29717], [-97.14426, 45.29719], [-97.16494, 45.29722], [-97.1753, 45.29728], [-97.17532, 45.29728], [-97.18424, 45.29732], [-97.18559, 45.29733], [-97.20378, 45.29743], [-97.20626, 45.29745], [-97.21637, 45.29754], [-97.22624, 45.29765], [-97.22624, 45.29637], [-97.22624, 45.29228], [-97.22625, 45.29189], [-97.22625, 45.29126], [-97.22627, 45.28922], [-97.22626, 45.2882], [-97.22627, 45.28718], [-97.22628, 45.28616], [-97.22628, 45.28413], [-97.22628, 45.28322], [-97.22628, 45.28311], [-97.22628, 45.28108], [-97.22628, 45.27809], [-97.22628, 45.27689], [-97.22626, 45.27494], [-97.22626, 45.27446], [-97.22624, 45.27307], [-97.22625, 45.27204], [-97.22623, 45.27098], [-97.22621, 45.26995], [-97.22619, 45.26873], [-97.22618, 45.268], [-97.22617, 45.26696], [-97.22615, 45.26491], [-97.22614, 45.26389], [-97.22612, 45.26287], [-97.22609, 45.26077], [-97.22607, 45.2588], [-97.22605, 45.25777], [-97.22605, 45.25675], [-97.22601, 45.25372], [-97.22601, 45.25271], [-97.22599, 45.25196], [-97.22599, 45.25168], [-97.22598, 45.25067], [-97.22596, 45.24887], [-97.22593, 45.2429], [-97.22593, 45.2426], [-97.22595, 45.24096], [-97.22598, 45.23923], [-97.22597, 45.23713], [-97.22598, 45.23504], [-97.22597, 45.2328], [-97.22597, 45.23101], [-97.22597, 45.22957], [-97.22597, 45.22903], [-97.22598, 45.22695], [-97.22598, 45.22464], [-97.22604, 45.21455], [-97.22607, 45.20992], [-97.2261, 45.20269], [-97.22611, 45.1991], [-97.22612, 45.19552], [-97.22607, 45.1932], [-97.22607, 45.19123], [-97.22606, 45.18869], [-97.22607, 45.18793], [-97.22608, 45.18758], [-97.2261, 45.18731], [-97.22609, 45.18668], [-97.2261, 45.18636], [-97.2261, 45.18553], [-97.2261, 45.18466], [-97.22609, 45.18341], [-97.22611, 45.18284], [-97.22613, 45.1827], [-97.22617, 45.18264], [-97.22632, 45.18252], [-97.22635, 45.1825], [-97.22642, 45.18161]]]}}]}