{
  "type": "FeatureCollection",
  "features": [
    {
      "type": "Feature",
      "geometry": {
        "type": "Point",
        "coordinates": [
          -96.469444,
          45.2925
        ]
      },
      "properties": {
        "facility_name": "SAPUTO CHEESE USA INC",
        "industry": "",
        "tri_facility_id": "57216BGSTN1051L",
        "year_first_reported": 1987,
        "carcinogen": false,
        "total_releases_lbs": 1000,
        "top_chemical": "Unknown",
        "risk_score": 5,
        "nearby_neighborhoods": []
      }
    },
    {
      "type": "Feature",
      "geometry": {
        "type": "Point",
        "coordinates": [
          -96.51027777777777,
          45.30472222222222
        ]
      },
      "properties": {
        "facility_name": "OTTER TAIL POWER CO BIG STONE PLANT",
        "industry": "",
        "tri_facility_id": "57216BGSTN48450",
        "year_first_reported": 1987,
        "carcinogen": false,
        "total_releases_lbs": 1000,
        "top_chemical": "Unknown",
        "risk_score": 5,
        "nearby_neighborhoods": []
      }
    },
    {
      "type": "Feature",
      "geometry": {
        "type": "Point",
        "coordinates": [
          -96.51333333333334,
          45.29861111111111
        ]
      },
      "properties": {
        "facility_name": "POET BIOREFINING-BIG STONE LLC",
        "industry": "",
        "tri_facility_id": "57216NRTHR48416",
        "year_first_reported": 1987,
        "carcinogen": false,
        "total_releases_lbs": 1000,
        "top_chemical": "Unknown",
        "risk_score": 5,
        "nearby_neighborhoods": []
      }
    },
    {
      "type": "Feature",
      "geometry": {
        "type": "Point",
        "coordinates": [
          -96.636791,
          45.22144
        ]
      },
      "properties": {
        "facility_name": "VALLEY QUEEN CHEESE FACTORY INC.",
        "industry": "",
        "tri_facility_id": "57252VLLYQ200ER",
        "year_first_reported": 1987,
        "carcinogen": false,
        "total_releases_lbs": 1000,
        "top_chemical": "Unknown",
        "risk_score": 5,
        "nearby_neighborhoods": []
      }
    }
  ]
}