{"type": "FeatureCollection", "features": [{"type": "Feature", "geometry": {"type": "Point", "coordinates": [-106.5225, 31.785833]}, "properties": {"facility_name": "PARKER BROTHERS & CO INC EL PASO SLAG PLANT", "industry": null, "tri_facility_id": "77912PRKRBSLAGP"}}, {"type": "Feature", "geometry": {"type": "Point", "coordinates": [-106.4795, 31.7606]}, "properties": {"facility_name": "INTERNATIONAL PAPER CO", "industry": null, "tri_facility_id": "79901NTRNT9301B"}}, {"type": "Feature", "geometry": {"type": "Point", "coordinates": [-106.466708, 31.778561]}, "properties": {"facility_name": "FLOWERS BAKING CO OF EL PASO INC", "industry": null, "tri_facility_id": "79903FLWRS2400E"}}, {"type": "Feature", "geometry": {"type": "Point", "coordinates": [-106.460278, 31.779722]}, "properties": {"facility_name": "CREAMLAND DAIRIES, LLC D/B/A PRICE'S CREAMERIES", "industry": null, "tri_facility_id": "79903PRCSC600NP"}}, {"type": "Feature", "geometry": {"type": "Point", "coordinates": [-106.399444, 31.780556]}, "properties": {"facility_name": "CHEVRON CORP EL PASO ASPHALT REFY", "industry": null, "tri_facility_id": "79905CHVRN6550G"}}, {"type": "Feature", "geometry": {"type": "Point", "coordinates": [-106.413056, 31.771389]}, "properties": {"facility_name": "ROBERTSHAW CONTROLS CO GRAYSON CONTROLS DIV PLANT", "industry": null, "tri_facility_id": "79905GRYSN320NC"}}, {"type": "Feature", "geometry": {"type": "Point", "coordinates": [-106.436389, 31.774444]}, "properties": {"facility_name": "HENRY CO", "industry": null, "tri_facility_id": "79905HNRYC4700R"}}, {"type": "Feature", "geometry": {"type": "Point", "coordinates": [-106.44194444444445, 31.782777777777778]}, "properties": {"facility_name": "LAUN-DRY SUPPLY CO INC.", "industry": null, "tri_facility_id": "79905LNDRY3800D"}}, {"type": "Feature", "geometry": {"type": "Point", "coordinates": [-106.408333, 31.7625]}, "properties": {"facility_name": "WESTERN EL PASO REFINERY", "industry": null, "tri_facility_id": "79905LPSRF6500T"}}, {"type": "Feature", "geometry": {"type": "Point", "coordinates": [-106.418889, 31.771944]}, "properties": {"facility_name": "A O SMITH WATER PRODUCTS CO", "industry": null, "tri_facility_id": "79905SMTHW401FR"}}, {"type": "Feature", "geometry": {"type": "Point", "coordinates": [-106.4312, 31.773892]}, "properties": {"facility_name": "SWIFT-ECKRICH INC", "industry": null, "tri_facility_id": "79905SWFTC300NO"}}, {"type": "Feature", "geometry": {"type": "Point", "coordinates": [-106.401667, 31.810278]}, "properties": {"facility_name": "ALLEGIANCE HEALTHCARE CORP CONVERTERS/CUSTOM STERILE DIV", "industry": null, "tri_facility_id": "79906BXTRHONEBU"}}, {"type": "Feature", "geometry": {"type": "Point", "coordinates": [-106.421389, 31.809722]}, "properties": {"facility_name": "DIESEL RECON CO", "industry": null, "tri_facility_id": "79906DSLRC20ZAN"}}, {"type": "Feature", "geometry": {"type": "Point", "coordinates": [-106.402025, 31.814424]}, "properties": {"facility_name": "ROCKWELL INTL CORP", "industry": null, "tri_facility_id": "79906RCKWL4BUTT"}}, {"type": "Feature", "geometry": {"type": "Point", "coordinates": [-106.402025, 31.814424]}, "properties": {"facility_name": "CONEXANT SYSTEMS INC", "industry": null, "tri_facility_id": "79906RCKWL6BUTT"}}, {"type": "Feature", "geometry": {"type": "Point", "coordinates": [-106.397756, 31.758834]}, "properties": {"facility_name": "BORDEN INC", "industry": null, "tri_facility_id": "79915BRDNN6982A"}}, {"type": "Feature", "geometry": {"type": "Point", "coordinates": [-106.391667, 31.766667]}, "properties": {"facility_name": "PHELPS DODGE COPPER PRODUCTS CO", "industry": null, "tri_facility_id": "79915PHLPS897HA"}}, {"type": "Feature", "geometry": {"type": "Point", "coordinates": [-106.387222, 31.774444]}, "properties": {"facility_name": "PLAINFIELD STAMPING TEXAS INC", "industry": null, "tri_facility_id": "79915PLNFL6841C"}}, {"type": "Feature", "geometry": {"type": "Point", "coordinates": [-106.38527777777779, 31.76888888888889]}, "properties": {"facility_name": "VAN WATERS & ROGERS INC", "industry": null, "tri_facility_id": "79915VNWTR6980M"}}, {"type": "Feature", "geometry": {"type": "Point", "coordinates": [-106.41666666666667, 31.8]}, "properties": {"facility_name": "US ARMY 1ST ARMORED DIV & FORT BLISS RANGES", "industry": null, "tri_facility_id": "79916SRMYRTAYLO"}}, {"type": "Feature", "geometry": {"type": "Point", "coordinates": [-106.4418, 31.786]}, "properties": {"facility_name": "EAGLE FAMILY FOODS GROUP LLC", "industry": null, "tri_facility_id": "79923SSCTD255MO"}}, {"type": "Feature", "geometry": {"type": "Point", "coordinates": [-106.4, 31.884722]}, "properties": {"facility_name": "BOEING CO", "industry": null, "tri_facility_id": "79924RCKWL9566R"}}, {"type": "Feature", "geometry": {"type": "Point", "coordinates": [-106.39, 31.779999999999998]}, "properties": {"facility_name": "EPSON E1 PASO INC", "industry": null, "tri_facility_id": "79925PSNPS7500V"}}, {"type": "Feature", "geometry": {"type": "Point", "coordinates": [-106.38944444444445, 31.779444444444444]}, "properties": {"facility_name": "EQUILON ENTERPRISES LLC EL PASO TERMINAL", "industry": null, "tri_facility_id": "79926QLNNT6767G"}}, {"type": "Feature", "geometry": {"type": "Point", "coordinates": [-106.388333, 31.762778]}, "properties": {"facility_name": "PHELPS DODGE REFINING CORP", "industry": null, "tri_facility_id": "79998PHLPSNORTH"}}, {"type": "Feature", "geometry": {"type": "Point", "coordinates": [-106.523333, 31.783333]}, "properties": {"facility_name": "ASARCO INC EL PASO", "industry": null, "tri_facility_id": "79999SRCNCPOBOX"}}]}