{"type": "FeatureCollection", "features": [{"type": "Feature", "properties": {"area_id": 2328, "city": "Utica", "state": "NY", "city_survey": true, "cat": "Best", "grade": "A", "label": "A1", "res": true, "com": false, "ind": false, "holc_grade": "A"}, "geometry": {"type": "Polygon", "coordinates": [[[-75.27453, 43.06449], [-75.27493, 43.06482], [-75.274942, 43.064829], [-75.275141, 43.064987], [-75.2755, 43.06527], [-75.27557, 43.06544], [-75.27579, 43.0657], [-75.2759, 43.06603], [-75.27598, 43.06641], [-75.27598, 43.06666], [-75.27595, 43.06702], [-75.2759, 43.06742], [-75.27586, 43.06792], [-75.27586, 43.06806], [-75.27595, 43.06834], [-75.27638, 43.06891], [-75.27709, 43.06935], [-75.27762, 43.06957], [-75.277626, 43.069599], [-75.27828, 43.07278], [-75.28227, 43.07563], [-75.27911, 43.07728], [-75.27585, 43.079], [-75.26533, 43.08422], [-75.26317, 43.08261], [-75.258788, 43.080751], [-75.25862, 43.08068], [-75.261882, 43.07792], [-75.26206, 43.07777], [-75.263517, 43.07656], [-75.264302, 43.075908], [-75.26702, 43.07365], [-75.27082, 43.0705], [-75.271334, 43.069697], [-75.27153, 43.06939], [-75.271611, 43.068563], [-75.27169, 43.06775], [-75.27201, 43.06449], [-75.272027, 43.064488], [-75.27323, 43.06438], [-75.27415, 43.06436], [-75.27453, 43.06449]]]}}, {"type": "Feature", "properties": {"area_id": 2329, "city": "Utica", "state": "NY", "city_survey": true, "cat": "Best", "grade": "A", "label": "A2", "res": true, "com": false, "ind": false, "holc_grade": "A"}, "geometry": {"type": "Polygon", "coordinates": [[[-75.27169, 43.06775], [-75.271611, 43.068563], [-75.27153, 43.06939], [-75.271334, 43.069697], [-75.27082, 43.0705], [-75.26702, 43.07365], [-75.2668, 43.073571], [-75.26093, 43.07145], [-75.26518, 43.06614], [-75.27162, 43.0644], [-75.271964, 43.064479], [-75.27201, 43.06449], [-75.27169, 43.06775]]]}}, {"type": "Feature", "properties": {"area_id": 2326, "city": "Utica", "state": "NY", "city_survey": true, "cat": "Best", "grade": "A", "label": "A3", "res": true, "com": false, "ind": false, "holc_grade": "A"}, "geometry": {"type": "Polygon", "coordinates": [[[-75.21589, 43.06884], [-75.21595, 43.068873], [-75.21873, 43.070396], [-75.21903, 43.07056], [-75.21942, 43.07006], [-75.22125, 43.07095], [-75.22533, 43.07449], [-75.22806, 43.07675], [-75.22982, 43.07808], [-75.23077, 43.07864], [-75.230674, 43.078775], [-75.23042, 43.07913], [-75.23029, 43.07932], [-75.2304, 43.07953], [-75.22846, 43.07923], [-75.22547, 43.0779], [-75.22041, 43.07534], [-75.21777, 43.07423], [-75.217732, 43.074215], [-75.21513, 43.07319], [-75.2109, 43.07197], [-75.20762, 43.07099], [-75.20985, 43.0685], [-75.21005, 43.06828], [-75.212754, 43.069428], [-75.214281, 43.070077], [-75.21443, 43.07014], [-75.214487, 43.070102], [-75.21505, 43.06973], [-75.215456, 43.0693], [-75.215726, 43.069014], [-75.21589, 43.06884]]]}}, {"type": "Feature", "properties": {"area_id": 2325, "city": "Utica", "state": "NY", "city_survey": true, "cat": "Best", "grade": "A", "label": "A4", "res": true, "com": false, "ind": false, "holc_grade": "A"}, "geometry": {"type": "Polygon", "coordinates": [[[-75.21662, 43.05417], [-75.217279, 43.054468], [-75.22102, 43.05616], [-75.22659, 43.05845], [-75.22532, 43.06119], [-75.22445, 43.06334], [-75.22374, 43.06533], [-75.22273, 43.06786], [-75.22125, 43.07095], [-75.21942, 43.07006], [-75.21903, 43.07056], [-75.21873, 43.070396], [-75.21595, 43.068873], [-75.21589, 43.06884], [-75.215726, 43.069014], [-75.215456, 43.0693], [-75.21505, 43.06973], [-75.214487, 43.070102], [-75.21443, 43.07014], [-75.214281, 43.070077], [-75.212754, 43.069428], [-75.21005, 43.06828], [-75.20959, 43.06796], [-75.20986, 43.06753], [-75.206575, 43.066003], [-75.20631, 43.06588], [-75.2112, 43.06042], [-75.21662, 43.05417]]]}}, {"type": "Feature", "properties": {"area_id": 2322, "city": "Utica", "state": "NY", "city_survey": true, "cat": "Still Desirable", "grade": "B", "label": "B1", "res": true, "com": false, "ind": false, "holc_grade": "B"}, "geometry": {"type": "Polygon", "coordinates": [[[-75.233098, 43.079447], [-75.23875, 43.08126], [-75.24117, 43.08224], [-75.24512, 43.08355], [-75.25077, 43.08594], [-75.25326, 43.0829], [-75.25587, 43.08167], [-75.25862, 43.08068], [-75.258788, 43.080751], [-75.26317, 43.08261], [-75.26533, 43.08422], [-75.26534, 43.08422], [-75.264884, 43.084442], [-75.26417, 43.08479], [-75.26129, 43.08619], [-75.26131, 43.08618], [-75.26066, 43.08542], [-75.25967, 43.08457], [-75.25916, 43.08476], [-75.25845, 43.08487], [-75.25718, 43.08569], [-75.25716, 43.08676], [-75.25438, 43.08692], [-75.25355, 43.08685], [-75.251139, 43.087095], [-75.2503, 43.08718], [-75.24699, 43.08587], [-75.243836, 43.084615], [-75.239937, 43.083063], [-75.23664, 43.08175], [-75.23596, 43.08261], [-75.231939, 43.080831], [-75.23092, 43.08038], [-75.2304, 43.07953], [-75.23029, 43.07932], [-75.23042, 43.07913], [-75.230674, 43.078775], [-75.23077, 43.07864], [-75.23263, 43.07981], [-75.23292, 43.07939], [-75.233098, 43.079447]]]}}, {"type": "Feature", "properties": {"area_id": 2317, "city": "Utica", "state": "NY", "city_survey": true, "cat": "Still Desirable", "grade": "B", "label": "B2", "res": true, "com": false, "ind": false, "holc_grade": "B"}, "geometry": {"type": "Polygon", "coordinates": [[[-75.22035, 43.08232], [-75.22067, 43.08182], [-75.22126, 43.08134], [-75.22297, 43.07991], [-75.22547, 43.0779], [-75.22846, 43.07923], [-75.2304, 43.07953], [-75.23092, 43.08038], [-75.22936, 43.08207], [-75.22692, 43.08472], [-75.226578, 43.085075], [-75.22435, 43.08739], [-75.224162, 43.087298], [-75.21844, 43.08449], [-75.22035, 43.08232]]]}}, {"type": "Feature", "properties": {"area_id": 2330, "city": "Utica", "state": "NY", "city_survey": true, "cat": "Still Desirable", "grade": "B", "label": "B3", "res": true, "com": false, "ind": false, "holc_grade": "B"}, "geometry": {"type": "Polygon", "coordinates": [[[-75.27762, 43.06957], [-75.27772, 43.06961], [-75.27814, 43.06978], [-75.278715, 43.06997], [-75.279237, 43.070143], [-75.27935, 43.07018], [-75.27976, 43.07032], [-75.28006, 43.07034], [-75.281018, 43.070409], [-75.28103, 43.07041], [-75.28116, 43.07042], [-75.28175, 43.07065], [-75.281831, 43.07078], [-75.28185, 43.07081], [-75.28205, 43.07097], [-75.28223, 43.07112], [-75.28265, 43.07134], [-75.283231, 43.071381], [-75.28349, 43.0714], [-75.28384, 43.07143], [-75.28399, 43.07166], [-75.28422, 43.0719], [-75.28425, 43.07221], [-75.28426, 43.07232], [-75.28427, 43.07247], [-75.28451, 43.07298], [-75.284501, 43.073082], [-75.28448, 43.07331], [-75.28468, 43.07372], [-75.284711, 43.073747], [-75.28491, 43.07392], [-75.28501, 43.074], [-75.28513, 43.07421], [-75.28515, 43.07424], [-75.28517, 43.07427], [-75.285261, 43.074356], [-75.28534, 43.07443], [-75.28541, 43.074521], [-75.28598, 43.07526], [-75.28652, 43.07617], [-75.28736, 43.07705], [-75.28562, 43.07773], [-75.284, 43.07849], [-75.282619, 43.075886], [-75.2826, 43.07585], [-75.28227, 43.07563], [-75.27828, 43.07278], [-75.277626, 43.069599], [-75.27762, 43.06957]]]}}, {"type": "Feature", "properties": {"area_id": 2320, "city": "Utica", "state": "NY", "city_survey": true, "cat": "Still Desirable", "grade": "B", "label": "B4", "res": true, "com": false, "ind": false, "holc_grade": "B"}, "geometry": {"type": "MultiPolygon", "coordinates": [[[[-75.29579, 43.08182], [-75.2958, 43.08183], [-75.29577, 43.08183], [-75.29579, 43.08182]]], [[[-75.29579, 43.08182], [-75.2949, 43.080998], [-75.293363, 43.07958], [-75.29202, 43.07834], [-75.29002, 43.07584], [-75.28902, 43.07634], [-75.28853, 43.07579], [-75.28812, 43.07539], [-75.28746, 43.07511], [-75.28679, 43.07485], [-75.28593, 43.07461], [-75.285343, 43.074431], [-75.28534, 43.07443], [-75.285261, 43.074356], [-75.28517, 43.07427], [-75.28515, 43.07424], [-75.28513, 43.07421], [-75.28501, 43.074], [-75.28491, 43.07392], [-75.284711, 43.073747], [-75.28468, 43.07372], [-75.28448, 43.07331], [-75.284501, 43.073082], [-75.28451, 43.07298], [-75.28427, 43.07247], [-75.28426, 43.07232], [-75.28425, 43.07221], [-75.28422, 43.0719], [-75.28399, 43.07166], [-75.28384, 43.07143], [-75.28349, 43.0714], [-75.283231, 43.071381], [-75.28265, 43.07134], [-75.28223, 43.07112], [-75.28205, 43.07097], [-75.28185, 43.07081], [-75.281831, 43.07078], [-75.28175, 43.07065], [-75.28116, 43.07042], [-75.28103, 43.07041], [-75.281018, 43.070409], [-75.28006, 43.07034], [-75.27976, 43.07032], [-75.27935, 43.07018], [-75.279237, 43.070143], [-75.278715, 43.06997], [-75.27814, 43.06978], [-75.27772, 43.06961], [-75.27762, 43.06957], [-75.27709, 43.06935], [-75.27638, 43.06891], [-75.27595, 43.06834], [-75.27586, 43.06806], [-75.27586, 43.06792], [-75.2759, 43.06742], [-75.27595, 43.06702], [-75.27598, 43.06666], [-75.27598, 43.06641], [-75.2759, 43.06603], [-75.27579, 43.0657], [-75.27557, 43.06544], [-75.2755, 43.06527], [-75.275141, 43.064987], [-75.274942, 43.064829], [-75.27493, 43.06482], [-75.277214, 43.063901], [-75.28211, 43.06193], [-75.28446, 43.06098], [-75.28674, 43.06014], [-75.28867, 43.0595], [-75.29228, 43.05822], [-75.29613, 43.06508], [-75.2967, 43.06598], [-75.29779, 43.06746], [-75.2995, 43.07082], [-75.30201, 43.07656], [-75.303886, 43.078516], [-75.30412, 43.07876], [-75.298017, 43.081002], [-75.29579, 43.08182]]]]}}, {"type": "Feature", "properties": {"area_id": 2312, "city": "Utica", "state": "NY", "city_survey": true, "cat": "Definitely Declining", "grade": "C", "label": "C1", "res": true, "com": false, "ind": false, "holc_grade": "C"}, "geometry": {"type": "Polygon", "coordinates": [[[-75.24995, 43.09258], [-75.256452, 43.095282], [-75.25652, 43.09531], [-75.25212, 43.10062], [-75.251807, 43.100505], [-75.25171, 43.10047], [-75.24918, 43.09933], [-75.248057, 43.098685], [-75.24749, 43.09836], [-75.24704, 43.0983], [-75.2466, 43.09822], [-75.24508, 43.09765], [-75.24399, 43.09908], [-75.24203, 43.09844], [-75.241082, 43.100047], [-75.24068, 43.10073], [-75.24007, 43.10023], [-75.23717, 43.09937], [-75.237566, 43.099171], [-75.24349, 43.09619], [-75.24326, 43.09595], [-75.245493, 43.094823], [-75.24849, 43.09331], [-75.24853, 43.0933], [-75.24995, 43.09258]]]}}, {"type": "Feature", "properties": {"area_id": 2321, "city": "Utica", "state": "NY", "city_survey": true, "cat": "Definitely Declining", "grade": "C", "label": "C10", "res": true, "com": false, "ind": false, "holc_grade": "C"}, "geometry": {"type": "Polygon", "coordinates": [[[-75.168225, 43.107112], [-75.16938, 43.10748], [-75.17415, 43.10834], [-75.18464, 43.11022], [-75.19494, 43.11199], [-75.20153, 43.11321], [-75.20588, 43.11399], [-75.2066, 43.11438], [-75.20881, 43.11516], [-75.21095, 43.11594], [-75.2111, 43.115991], [-75.21704, 43.118], [-75.22214, 43.11979], [-75.22474, 43.12083], [-75.2256, 43.1212], [-75.232969, 43.12421], [-75.23319, 43.1243], [-75.230976, 43.126993], [-75.226747, 43.132136], [-75.22667, 43.13223], [-75.22663, 43.13221], [-75.217483, 43.128815], [-75.204562, 43.12402], [-75.19893, 43.12193], [-75.19284, 43.12055], [-75.162004, 43.11384], [-75.1615, 43.11373], [-75.16784, 43.10699], [-75.168225, 43.107112]]]}}, {"type": "Feature", "properties": {"area_id": 2319, "city": "Utica", "state": "NY", "city_survey": true, "cat": "Definitely Declining", "grade": "C", "label": "C11", "res": true, "com": false, "ind": false, "holc_grade": "C"}, "geometry": {"type": "Polygon", "coordinates": [[[-75.20986, 43.06753], [-75.20959, 43.06796], [-75.21005, 43.06828], [-75.20985, 43.0685], [-75.20762, 43.07099], [-75.2109, 43.07197], [-75.21513, 43.07319], [-75.217732, 43.074215], [-75.21777, 43.07423], [-75.22041, 43.07534], [-75.22547, 43.0779], [-75.22297, 43.07991], [-75.22126, 43.08134], [-75.22067, 43.08182], [-75.22035, 43.08232], [-75.21844, 43.08449], [-75.21616, 43.08337], [-75.21514, 43.08458], [-75.21513, 43.08459], [-75.21043, 43.0825], [-75.210416, 43.082494], [-75.20705, 43.08116], [-75.20551, 43.08046], [-75.20384, 43.07974], [-75.2032, 43.07939], [-75.196494, 43.076745], [-75.19638, 43.0767], [-75.198025, 43.074907], [-75.198381, 43.07452], [-75.20631, 43.06588], [-75.206575, 43.066003], [-75.20986, 43.06753]]]}}, {"type": "Feature", "properties": {"area_id": 2313, "city": "Utica", "state": "NY", "city_survey": true, "cat": "Definitely Declining", "grade": "C", "label": "C2", "res": true, "com": false, "ind": false, "holc_grade": "C"}, "geometry": {"type": "Polygon", "coordinates": [[[-75.2364, 43.08892], [-75.239274, 43.090068], [-75.23948, 43.09015], [-75.2432, 43.0917], [-75.24491, 43.08959], [-75.24786, 43.09273], [-75.24824, 43.093079], [-75.24849, 43.09331], [-75.245493, 43.094823], [-75.24326, 43.09595], [-75.243054, 43.095646], [-75.24282, 43.0953], [-75.24202, 43.09577], [-75.23993, 43.09678], [-75.236718, 43.097996], [-75.23668, 43.09801], [-75.23527, 43.09712], [-75.234589, 43.096543], [-75.23455, 43.09651], [-75.23476, 43.09616], [-75.234298, 43.096007], [-75.230256, 43.094665], [-75.22765, 43.0938], [-75.23006, 43.09101], [-75.232818, 43.087876], [-75.23314, 43.08751], [-75.235415, 43.088494], [-75.2364, 43.08892]]]}}, {"type": "Feature", "properties": {"area_id": 2307, "city": "Utica", "state": "NY", "city_survey": true, "cat": "Definitely Declining", "grade": "C", "label": "C3", "res": true, "com": false, "ind": false, "holc_grade": "C"}, "geometry": {"type": "Polygon", "coordinates": [[[-75.25631, 43.0896], [-75.262801, 43.092614], [-75.26445, 43.09338], [-75.26568, 43.09335], [-75.26568, 43.09337], [-75.26908, 43.09325], [-75.270357, 43.093214], [-75.2705, 43.09321], [-75.27063, 43.09321], [-75.26556, 43.09877], [-75.265477, 43.098735], [-75.26199, 43.09724], [-75.261916, 43.097325], [-75.26065, 43.09878], [-75.25946, 43.09954], [-75.2575, 43.10115], [-75.25088, 43.10529], [-75.250442, 43.105075], [-75.248782, 43.104259], [-75.24862, 43.10418], [-75.25171, 43.10047], [-75.251807, 43.100505], [-75.25212, 43.10062], [-75.25652, 43.09531], [-75.256452, 43.095282], [-75.24995, 43.09258], [-75.25405, 43.09066], [-75.25631, 43.0896]]]}}, {"type": "Feature", "properties": {"area_id": 2323, "city": "Utica", "state": "NY", "city_survey": true, "cat": "Definitely Declining", "grade": "C", "label": "C4", "res": true, "com": false, "ind": false, "holc_grade": "C"}, "geometry": {"type": "Polygon", "coordinates": [[[-75.23092, 43.08038], [-75.231939, 43.080831], [-75.23596, 43.08261], [-75.23664, 43.08175], [-75.239937, 43.083063], [-75.243836, 43.084615], [-75.24699, 43.08587], [-75.2503, 43.08718], [-75.251139, 43.087095], [-75.25355, 43.08685], [-75.25438, 43.08692], [-75.25716, 43.08676], [-75.25718, 43.08569], [-75.25845, 43.08487], [-75.25916, 43.08476], [-75.25967, 43.08457], [-75.26066, 43.08542], [-75.26131, 43.08618], [-75.25805, 43.08781], [-75.258304, 43.088089], [-75.25868, 43.0885], [-75.256564, 43.089482], [-75.25631, 43.0896], [-75.25405, 43.09066], [-75.24995, 43.09258], [-75.24853, 43.0933], [-75.24849, 43.09331], [-75.24824, 43.093079], [-75.24786, 43.09273], [-75.24491, 43.08959], [-75.2432, 43.0917], [-75.23948, 43.09015], [-75.239274, 43.090068], [-75.2364, 43.08892], [-75.235415, 43.088494], [-75.23314, 43.08751], [-75.23069, 43.08647], [-75.229691, 43.085962], [-75.22884, 43.08553], [-75.22692, 43.08472], [-75.22936, 43.08207], [-75.23092, 43.08038]], [[-75.23917, 43.08588], [-75.238031, 43.085345], [-75.23523, 43.08403], [-75.23438, 43.08506], [-75.23704, 43.08624], [-75.237222, 43.086315], [-75.23962, 43.08731], [-75.241134, 43.087836], [-75.24149, 43.08796], [-75.24219, 43.08702], [-75.241909, 43.086914], [-75.23917, 43.08588]]]}}, {"type": "Feature", "properties": {"area_id": 2316, "city": "Utica", "state": "NY", "city_survey": true, "cat": "Definitely Declining", "grade": "C", "label": "C5", "res": true, "com": false, "ind": false, "holc_grade": "C"}, "geometry": {"type": "Polygon", "coordinates": [[[-75.229691, 43.085962], [-75.23069, 43.08647], [-75.23314, 43.08751], [-75.232818, 43.087876], [-75.23006, 43.09101], [-75.22765, 43.0938], [-75.22719, 43.09361], [-75.226928, 43.09397], [-75.22692, 43.09398], [-75.223811, 43.093028], [-75.21787, 43.09121], [-75.21213, 43.08944], [-75.21125, 43.08916], [-75.214793, 43.084987], [-75.21513, 43.08459], [-75.21514, 43.08458], [-75.21616, 43.08337], [-75.21844, 43.08449], [-75.224162, 43.087298], [-75.22435, 43.08739], [-75.226578, 43.085075], [-75.22692, 43.08472], [-75.22884, 43.08553], [-75.229691, 43.085962]]]}}, {"type": "Feature", "properties": {"area_id": 2324, "city": "Utica", "state": "NY", "city_survey": true, "cat": "Definitely Declining", "grade": "C", "label": "C6", "res": true, "com": false, "ind": false, "holc_grade": "C"}, "geometry": {"type": "Polygon", "coordinates": [[[-75.288926, 43.077347], [-75.29002, 43.07835], [-75.29182, 43.08007], [-75.29166, 43.08297], [-75.28598, 43.08476], [-75.27623, 43.08573], [-75.27573, 43.0863], [-75.27547, 43.086312], [-75.26739, 43.08669], [-75.26411, 43.08832], [-75.26606, 43.08922], [-75.2657, 43.09068], [-75.265685, 43.092611], [-75.26568, 43.09334], [-75.26568, 43.09335], [-75.26445, 43.09338], [-75.262801, 43.092614], [-75.25631, 43.0896], [-75.256564, 43.089482], [-75.25868, 43.0885], [-75.25886, 43.08874], [-75.26492, 43.0857], [-75.264379, 43.085044], [-75.26417, 43.08479], [-75.264884, 43.084442], [-75.26534, 43.08422], [-75.26533, 43.08422], [-75.27585, 43.079], [-75.27911, 43.07728], [-75.28227, 43.07563], [-75.2826, 43.07585], [-75.282619, 43.075886], [-75.284, 43.07849], [-75.28562, 43.07773], [-75.28736, 43.07705], [-75.28652, 43.07617], [-75.28598, 43.07526], [-75.28657, 43.07559], [-75.286726, 43.075709], [-75.28724, 43.0761], [-75.28845, 43.07691], [-75.288926, 43.077347]]]}}, {"type": "Feature", "properties": {"area_id": 2309, "city": "Utica", "state": "NY", "city_survey": true, "cat": "Definitely Declining", "grade": "C", "label": "C7", "res": true, "com": false, "ind": false, "holc_grade": "C"}, "geometry": {"type": "Polygon", "coordinates": [[[-75.27002, 43.10584], [-75.269728, 43.10619], [-75.26532, 43.11147], [-75.26519, 43.11162], [-75.265147, 43.111705], [-75.26494, 43.11212], [-75.26164, 43.11114], [-75.25614, 43.11044], [-75.25428, 43.10988], [-75.254539, 43.109526], [-75.25546, 43.10827], [-75.25386, 43.10774], [-75.25371, 43.10756], [-75.254031, 43.107359], [-75.25422, 43.10724], [-75.25421, 43.10723], [-75.26076, 43.10291], [-75.26354, 43.10081], [-75.2674, 43.10226], [-75.26816, 43.10098], [-75.268348, 43.101073], [-75.27061, 43.1022], [-75.2723, 43.10317], [-75.27002, 43.10584]]]}}, {"type": "Feature", "properties": {"area_id": 2311, "city": "Utica", "state": "NY", "city_survey": true, "cat": "Definitely Declining", "grade": "C", "label": "C8", "res": true, "com": false, "ind": false, "holc_grade": "C"}, "geometry": {"type": "Polygon", "coordinates": [[[-75.26728, 43.11362], [-75.26749, 43.11275], [-75.267655, 43.112647], [-75.26845, 43.11215], [-75.26848, 43.11216], [-75.26852, 43.11216], [-75.2688, 43.11222], [-75.27129, 43.11292], [-75.27733, 43.11375], [-75.2786, 43.11392], [-75.28424, 43.11502], [-75.28344, 43.1159], [-75.28384, 43.11586], [-75.28361, 43.11651], [-75.28331, 43.11697], [-75.28199, 43.11679], [-75.28144, 43.11709], [-75.27964, 43.11812], [-75.27844, 43.1189], [-75.277893, 43.11937], [-75.27773, 43.11951], [-75.27292, 43.11744], [-75.270972, 43.116612], [-75.266685, 43.11479], [-75.26652, 43.11472], [-75.26728, 43.11362]]]}}, {"type": "Feature", "properties": {"area_id": 2314, "city": "Utica", "state": "NY", "city_survey": true, "cat": "Definitely Declining", "grade": "C", "label": "C9", "res": true, "com": false, "ind": false, "holc_grade": "C"}, "geometry": {"type": "Polygon", "coordinates": [[[-75.302929, 43.120815], [-75.30144, 43.12794], [-75.29335, 43.12894], [-75.29332, 43.12891], [-75.28815, 43.12438], [-75.28753, 43.12373], [-75.28275, 43.12148], [-75.28316, 43.12083], [-75.28937, 43.11558], [-75.29395, 43.11729], [-75.29665, 43.11848], [-75.301684, 43.120142], [-75.30298, 43.12057], [-75.302929, 43.120815]]]}}, {"type": "Feature", "properties": {"area_id": 2308, "city": "Utica", "state": "NY", "city_survey": true, "cat": "Hazardous", "grade": "D", "label": "D1", "res": true, "com": false, "ind": false, "holc_grade": "D"}, "geometry": {"type": "Polygon", "coordinates": [[[-75.2466, 43.09822], [-75.24704, 43.0983], [-75.24749, 43.09836], [-75.248057, 43.098685], [-75.24918, 43.09933], [-75.25171, 43.10047], [-75.24862, 43.10418], [-75.248782, 43.104259], [-75.250442, 43.105075], [-75.25088, 43.10529], [-75.25421, 43.10723], [-75.25422, 43.10724], [-75.254031, 43.107359], [-75.25371, 43.10756], [-75.25386, 43.10774], [-75.25546, 43.10827], [-75.254539, 43.109526], [-75.25428, 43.10988], [-75.25105, 43.10889], [-75.250205, 43.110402], [-75.25015, 43.1105], [-75.247126, 43.109809], [-75.24525, 43.10938], [-75.23876, 43.10787], [-75.23249, 43.10649], [-75.23334, 43.10545], [-75.23218, 43.10483], [-75.232665, 43.104066], [-75.23272, 43.10398], [-75.23361, 43.10327], [-75.23736, 43.10445], [-75.236832, 43.105397], [-75.23673, 43.10558], [-75.24414, 43.10789], [-75.24454, 43.10816], [-75.246892, 43.106248], [-75.24705, 43.10612], [-75.2454, 43.10549], [-75.24213, 43.10441], [-75.239235, 43.103531], [-75.23469, 43.10215], [-75.23717, 43.09937], [-75.24007, 43.10023], [-75.24068, 43.10073], [-75.241082, 43.100047], [-75.24203, 43.09844], [-75.24399, 43.09908], [-75.24508, 43.09765], [-75.2466, 43.09822]]]}}, {"type": "Feature", "properties": {"area_id": 2327, "city": "Utica", "state": "NY", "city_survey": true, "cat": "Hazardous", "grade": "D", "label": "D2", "res": true, "com": false, "ind": false, "holc_grade": "D"}, "geometry": {"type": "Polygon", "coordinates": [[[-75.21787, 43.09121], [-75.223811, 43.093028], [-75.22692, 43.09398], [-75.22642, 43.09497], [-75.22847, 43.095603], [-75.23406, 43.09733], [-75.234548, 43.096513], [-75.23455, 43.09651], [-75.234589, 43.096543], [-75.23527, 43.09712], [-75.23668, 43.09801], [-75.2356, 43.09844], [-75.23495, 43.09905], [-75.23358, 43.09777], [-75.23019, 43.10046], [-75.227544, 43.099685], [-75.221642, 43.097955], [-75.22101, 43.09777], [-75.22078, 43.09844], [-75.21789, 43.09762], [-75.21639, 43.10039], [-75.21177, 43.09877], [-75.209734, 43.098096], [-75.20842, 43.09766], [-75.2036, 43.09614], [-75.19631, 43.0957], [-75.20056, 43.09049], [-75.20088, 43.0901], [-75.2048, 43.08999], [-75.206259, 43.08992], [-75.20836, 43.08982], [-75.21213, 43.08944], [-75.21787, 43.09121]]]}}, {"type": "Feature", "properties": {"area_id": 2318, "city": "Utica", "state": "NY", "city_survey": true, "cat": "Hazardous", "grade": "D", "label": "D3", "res": true, "com": false, "ind": false, "holc_grade": "D"}, "geometry": {"type": "Polygon", "coordinates": [[[-75.214793, 43.084987], [-75.21125, 43.08916], [-75.21213, 43.08944], [-75.20836, 43.08982], [-75.206259, 43.08992], [-75.2048, 43.08999], [-75.20088, 43.0901], [-75.20056, 43.09049], [-75.19631, 43.0957], [-75.19505, 43.09551], [-75.19434, 43.09551], [-75.19367, 43.09531], [-75.19047, 43.09411], [-75.18265, 43.09164], [-75.18485, 43.08921], [-75.18859, 43.08975], [-75.18947, 43.08998], [-75.19277, 43.0902], [-75.19534, 43.0906], [-75.196485, 43.090643], [-75.19721, 43.09067], [-75.19999, 43.08746], [-75.19436, 43.08513], [-75.19595, 43.08317], [-75.19923, 43.08453], [-75.20128, 43.08559], [-75.20201, 43.08463], [-75.20551, 43.08046], [-75.20705, 43.08116], [-75.210416, 43.082494], [-75.21043, 43.0825], [-75.21513, 43.08459], [-75.214793, 43.084987]]]}}, {"type": "Feature", "properties": {"area_id": 2306, "city": "Utica", "state": "NY", "city_survey": true, "cat": "Hazardous", "grade": "D", "label": "D4", "res": true, "com": false, "ind": false, "holc_grade": "D"}, "geometry": {"type": "Polygon", "coordinates": [[[-75.27046, 43.09089], [-75.27217, 43.0913], [-75.272003, 43.093163], [-75.272, 43.0932], [-75.271532, 43.093203], [-75.271356, 43.093205], [-75.27063, 43.09321], [-75.2706, 43.09321], [-75.27036, 43.09321], [-75.27019, 43.09321], [-75.26913, 43.09325], [-75.26908, 43.09325], [-75.26568, 43.09337], [-75.26568, 43.09335], [-75.26568, 43.09334], [-75.265685, 43.092611], [-75.2657, 43.09068], [-75.26606, 43.08922], [-75.26411, 43.08832], [-75.26739, 43.08669], [-75.27547, 43.086312], [-75.27573, 43.0863], [-75.274766, 43.08714], [-75.27046, 43.09089]]]}}, {"type": "Feature", "properties": {"area_id": 2310, "city": "Utica", "state": "NY", "city_survey": true, "cat": "Hazardous", "grade": "D", "label": "D5", "res": true, "com": false, "ind": false, "holc_grade": "D"}, "geometry": {"type": "Polygon", "coordinates": [[[-75.2723, 43.10317], [-75.27798, 43.10665], [-75.28106, 43.10886], [-75.28154, 43.10918], [-75.28359, 43.11053], [-75.28525, 43.11164], [-75.28635, 43.11227], [-75.28722, 43.11257], [-75.28631, 43.11313], [-75.28542, 43.11387], [-75.28438, 43.114884], [-75.28424, 43.11502], [-75.2786, 43.11392], [-75.27733, 43.11375], [-75.27129, 43.11292], [-75.2688, 43.11222], [-75.26852, 43.11216], [-75.26848, 43.11216], [-75.26845, 43.11215], [-75.26705, 43.1119], [-75.26532, 43.11147], [-75.269728, 43.10619], [-75.27002, 43.10584], [-75.2723, 43.10317]]]}}, {"type": "Feature", "properties": {"area_id": 2315, "city": "Utica", "state": "NY", "city_survey": true, "cat": "Hazardous", "grade": "D", "label": "D6", "res": true, "com": false, "ind": false, "holc_grade": "D"}, "geometry": {"type": "Polygon", "coordinates": [[[-75.28635, 43.11227], [-75.28525, 43.11164], [-75.28359, 43.11053], [-75.28154, 43.10918], [-75.28402, 43.10695], [-75.28694, 43.10393], [-75.29119, 43.09927], [-75.2913, 43.09877], [-75.29151, 43.09788], [-75.29306, 43.0956], [-75.29267, 43.09508], [-75.29757, 43.09593], [-75.29956, 43.10181], [-75.29597, 43.10532], [-75.29312, 43.10836], [-75.29062, 43.11068], [-75.28792, 43.11321], [-75.28722, 43.11257], [-75.28635, 43.11227]]]}}, {"type": "Feature", "properties": {"area_id": 11407, "city": "Utica", "state": "NY", "city_survey": true, "cat": "Commercial", "grade": null, "label": "Commercial", "res": false, "com": true, "ind": false, "holc_grade": null}, "geometry": {"type": "MultiPolygon", "coordinates": [[[[-75.24326, 43.09595], [-75.24349, 43.09619], [-75.237566, 43.099171], [-75.23717, 43.09937], [-75.23469, 43.10215], [-75.239235, 43.103531], [-75.24213, 43.10441], [-75.2454, 43.10549], [-75.24705, 43.10612], [-75.246892, 43.106248], [-75.24454, 43.10816], [-75.24414, 43.10789], [-75.23673, 43.10558], [-75.236832, 43.105397], [-75.23736, 43.10445], [-75.23361, 43.10327], [-75.23272, 43.10398], [-75.232665, 43.104066], [-75.23218, 43.10483], [-75.23334, 43.10545], [-75.23249, 43.10649], [-75.230387, 43.106738], [-75.23003, 43.10678], [-75.22462, 43.10555], [-75.22219, 43.10533], [-75.220811, 43.104156], [-75.220631, 43.104002], [-75.216956, 43.100872], [-75.216564, 43.100538], [-75.21639, 43.10039], [-75.21789, 43.09762], [-75.22078, 43.09844], [-75.22101, 43.09777], [-75.221642, 43.097955], [-75.227544, 43.099685], [-75.23019, 43.10046], [-75.23358, 43.09777], [-75.23495, 43.09905], [-75.2356, 43.09844], [-75.23668, 43.09801], [-75.236718, 43.097996], [-75.23993, 43.09678], [-75.24202, 43.09577], [-75.24282, 43.0953], [-75.243054, 43.095646], [-75.24326, 43.09595]]], [[[-75.23476, 43.09616], [-75.23455, 43.09651], [-75.234548, 43.096513], [-75.23406, 43.09733], [-75.22924, 43.09584], [-75.22847, 43.095603], [-75.22642, 43.09497], [-75.22692, 43.09398], [-75.226928, 43.09397], [-75.22719, 43.09361], [-75.22765, 43.0938], [-75.230258, 43.094663], [-75.23043, 43.09472], [-75.234298, 43.096006], [-75.23476, 43.09616]]], [[[-75.23872, 43.08567], [-75.23917, 43.08588], [-75.241909, 43.086914], [-75.24219, 43.08702], [-75.24149, 43.08796], [-75.241134, 43.087836], [-75.23962, 43.08731], [-75.23805, 43.08666], [-75.237221, 43.086315], [-75.23704, 43.08624], [-75.23438, 43.08506], [-75.23523, 43.08403], [-75.238031, 43.085346], [-75.23872, 43.08567]]], [[[-75.264379, 43.085044], [-75.26492, 43.0857], [-75.26179, 43.08727], [-75.25886, 43.08874], [-75.25868, 43.0885], [-75.258304, 43.088089], [-75.25805, 43.08781], [-75.26129, 43.08619], [-75.26131, 43.08618], [-75.26417, 43.08479], [-75.264379, 43.085044]]]]}}, {"type": "Feature", "properties": {"area_id": 11408, "city": "Utica", "state": "NY", "city_survey": true, "cat": "Industrial", "grade": null, "label": "Industrial", "res": false, "com": false, "ind": true, "holc_grade": null}, "geometry": {"type": "Polygon", "coordinates": [[[-75.220811, 43.104156], [-75.22219, 43.10533], [-75.22462, 43.10555], [-75.23003, 43.10678], [-75.230387, 43.106738], [-75.23249, 43.10649], [-75.23876, 43.10787], [-75.24525, 43.10938], [-75.245182, 43.109464], [-75.244151, 43.110739], [-75.23319, 43.1243], [-75.232969, 43.12421], [-75.2256, 43.1212], [-75.22474, 43.12083], [-75.22214, 43.11979], [-75.21704, 43.118], [-75.2111, 43.115991], [-75.21095, 43.11594], [-75.20881, 43.11516], [-75.2066, 43.11438], [-75.20588, 43.11399], [-75.20153, 43.11321], [-75.19494, 43.11199], [-75.18464, 43.11022], [-75.17415, 43.10834], [-75.16938, 43.10748], [-75.168225, 43.107112], [-75.16784, 43.10699], [-75.179433, 43.094975], [-75.180319, 43.094056], [-75.182411, 43.091888], [-75.18265, 43.09164], [-75.19047, 43.09411], [-75.19367, 43.09531], [-75.19434, 43.09551], [-75.19505, 43.09551], [-75.19631, 43.0957], [-75.2036, 43.09614], [-75.20842, 43.09766], [-75.209734, 43.098096], [-75.21177, 43.09877], [-75.21639, 43.10039], [-75.216564, 43.100538], [-75.216956, 43.100872], [-75.220631, 43.104002], [-75.220811, 43.104156]]]}}]}