{"type": "FeatureCollection", "features": [{"type": "Feature", "geometry": {"type": "Point", "coordinates": [-86.94916666666667, 33.407222222222224]}, "properties": {"facility_name": "BERMCO ALUMINUM", "industry": null, "tri_facility_id": "35020BRMCL22015"}}, {"type": "Feature", "geometry": {"type": "Point", "coordinates": [-86.953688, 33.427717]}, "properties": {"facility_name": "AMSTED RAIL CO", "industry": null, "tri_facility_id": "35020GRFFN2100G"}}, {"type": "Feature", "geometry": {"type": "Point", "coordinates": [-86.943333, 33.413889]}, "properties": {"facility_name": "BPI INC-BESSEMER AL PLANT", "industry": null, "tri_facility_id": "35020HRBSN300NO"}}, {"type": "Feature", "geometry": {"type": "Point", "coordinates": [-86.955021, 33.408226]}, "properties": {"facility_name": "PAULO PRODS CO", "industry": null, "tri_facility_id": "35020MTRMT705NO"}}, {"type": "Feature", "geometry": {"type": "Point", "coordinates": [-86.941667, 33.4125]}, "properties": {"facility_name": "A P GREEN INDUSTRIES INC BESSEMER PLANT", "industry": null, "tri_facility_id": "35020PGRNN2800A"}}, {"type": "Feature", "geometry": {"type": "Point", "coordinates": [-86.95444444444445, 33.414722222222224]}, "properties": {"facility_name": "WILLIAMS BRIDGE CO", "industry": null, "tri_facility_id": "35020RKNSS21011"}}, {"type": "Feature", "geometry": {"type": "Point", "coordinates": [-86.948889, 33.404722]}, "properties": {"facility_name": "GREDE II-BESSEMER", "industry": null, "tri_facility_id": "35020STHRN2217C"}}, {"type": "Feature", "geometry": {"type": "Point", "coordinates": [-86.973763, 33.40135]}, "properties": {"facility_name": "SOUTHEASTERN WIRE", "industry": null, "tri_facility_id": "35020STHST14181"}}, {"type": "Feature", "geometry": {"type": "Point", "coordinates": [-86.9504, 33.4088]}, "properties": {"facility_name": "TRINITY INDUSTRIES INC", "industry": null, "tri_facility_id": "35020TRNTY5THAV"}}, {"type": "Feature", "geometry": {"type": "Point", "coordinates": [-86.964254, 33.419672]}, "properties": {"facility_name": "AIRGAS USA LLC-BESSEMER", "industry": null, "tri_facility_id": "35021RCNCX26101"}}, {"type": "Feature", "geometry": {"type": "Point", "coordinates": [-86.96222222222222, 33.43722222222222]}, "properties": {"facility_name": "VULCAN PIPE & STEEL COATINGS I NC.", "industry": null, "tri_facility_id": "35021VLCNP2400W"}}, {"type": "Feature", "geometry": {"type": "Point", "coordinates": [-86.974722, 33.416667]}, "properties": {"facility_name": "US PIPE & FOUNDRY CO LLC", "industry": null, "tri_facility_id": "35023NTDST2023S"}}, {"type": "Feature", "geometry": {"type": "Point", "coordinates": [-86.960118, 33.456693]}, "properties": {"facility_name": "KOPPERS INC WOODWARD TAR PLANT", "industry": null, "tri_facility_id": "35061KPPRS1835K"}}, {"type": "Feature", "geometry": {"type": "Point", "coordinates": [-86.97, 33.441944]}, "properties": {"facility_name": "KOPPERS INDUSTRIES INC WOODWARD COKE PLANT", "industry": null, "tri_facility_id": "35061KPPRS2134K"}}, {"type": "Feature", "geometry": {"type": "Point", "coordinates": [-86.9193, 33.4744]}, "properties": {"facility_name": "AIR LIQUIDE AMERICA CORP", "industry": null, "tri_facility_id": "35064BGTHRUSSTE"}}, {"type": "Feature", "geometry": {"type": "Point", "coordinates": [-86.938889, 33.488889]}, "properties": {"facility_name": "HARSCO CO, HECKETT MULTISERV PLANT 9", "industry": null, "tri_facility_id": "35064HCKTTWESTF"}}, {"type": "Feature", "geometry": {"type": "Point", "coordinates": [-86.915556, 33.504167]}, "properties": {"facility_name": "HANNA STEEL CORP", "industry": null, "tri_facility_id": "35064HNNST3812C"}}, {"type": "Feature", "geometry": {"type": "Point", "coordinates": [-86.922222, 33.488889]}, "properties": {"facility_name": "HARBISONWALKER INTERNATIONAL - FAIRFIELD PLANT", "industry": null, "tri_facility_id": "35064HRBSNPLEAS"}}, {"type": "Feature", "geometry": {"type": "Point", "coordinates": [-86.934722, 33.470833]}, "properties": {"facility_name": "STEELSCAPE INC", "industry": null, "tri_facility_id": "35064PLYMR7001V"}}, {"type": "Feature", "geometry": {"type": "Point", "coordinates": [-86.9365, 33.4769]}, "properties": {"facility_name": "US STEEL CORP-FAIRFIELD WORKS", "industry": null, "tri_facility_id": "35064SSFRFVALLE"}}, {"type": "Feature", "geometry": {"type": "Point", "coordinates": [-86.72527777777778, 33.651111111111106]}, "properties": {"facility_name": "VULCAN PAINTERS INC.", "industry": null, "tri_facility_id": "35126VLCNP1549R"}}, {"type": "Feature", "geometry": {"type": "Point", "coordinates": [-86.6433, 33.6015]}, "properties": {"facility_name": "GOLD KIST TRUSSVILLE PROCESSING PLANT", "industry": null, "tri_facility_id": "35173GLDKSCAMPC"}}, {"type": "Feature", "geometry": {"type": "Point", "coordinates": [-86.833333, 33.541667]}, "properties": {"facility_name": "DIXIE VAULT CO INC", "industry": null, "tri_facility_id": "35201DXVLT13152"}}, {"type": "Feature", "geometry": {"type": "Point", "coordinates": [-86.788611, 33.526389]}, "properties": {"facility_name": "GREEN BAY PACKAGING INC GOSLIN-BIRMINGHAM DIV", "industry": null, "tri_facility_id": "35201GRNBY34018"}}, {"type": "Feature", "geometry": {"type": "Point", "coordinates": [-86.791667, 33.541667]}, "properties": {"facility_name": "MCWANE CAST IRON PIPE CO", "industry": null, "tri_facility_id": "35201MCWNC36001"}}, {"type": "Feature", "geometry": {"type": "Point", "coordinates": [-86.783, 33.5399]}, "properties": {"facility_name": "METALPLATE GALVANIZING LP", "industry": null, "tri_facility_id": "35201MTLPL11203"}}, {"type": "Feature", "geometry": {"type": "Point", "coordinates": [-86.796667, 33.523611]}, "properties": {"facility_name": "SIRCO SYSTMES LLC", "industry": null, "tri_facility_id": "35201SRCSY2828A"}}, {"type": "Feature", "geometry": {"type": "Point", "coordinates": [-86.8083, 33.5188]}, "properties": {"facility_name": "FTS INTERNATIONAL, LLC", "industry": null, "tri_facility_id": "35202BRDNN4400P"}}, {"type": "Feature", "geometry": {"type": "Point", "coordinates": [-86.82058, 33.500098]}, "properties": {"facility_name": "TRINITY INDUSTRIES INC", "industry": null, "tri_facility_id": "35202TRNTY6204T"}}, {"type": "Feature", "geometry": {"type": "Point", "coordinates": [-86.8, 33.5]}, "properties": {"facility_name": "WILSON BRANDS CORP", "industry": null, "tri_facility_id": "35203WLSNF12212"}}, {"type": "Feature", "geometry": {"type": "Point", "coordinates": [-86.831111, 33.534167]}, "properties": {"facility_name": "MARS PETCARE US INC.", "industry": null, "tri_facility_id": "35204DNPRD19041"}}, {"type": "Feature", "geometry": {"type": "Point", "coordinates": [-86.820833, 33.554167]}, "properties": {"facility_name": "STANDARD CASKET CO", "industry": null, "tri_facility_id": "35204STNDR13402"}}, {"type": "Feature", "geometry": {"type": "Point", "coordinates": [-86.791667, 33.55]}, "properties": {"facility_name": "BROWN MINNEAPOLIS TANK", "industry": null, "tri_facility_id": "35207BRWNM3013N"}}, {"type": "Feature", "geometry": {"type": "Point", "coordinates": [-86.833333, 33.533333]}, "properties": {"facility_name": "AMERICAN CAST IRON PIPE CO.", "industry": null, "tri_facility_id": "35207MRCNC2930N"}}, {"type": "Feature", "geometry": {"type": "Point", "coordinates": [-86.8089, 33.5536]}, "properties": {"facility_name": "UNITED STATES PIPE & FOUNDRY CO", "industry": null, "tri_facility_id": "35207NTDST30003"}}, {"type": "Feature", "geometry": {"type": "Point", "coordinates": [-86.810556, 33.561111]}, "properties": {"facility_name": "BLUESTONE COKE", "industry": null, "tri_facility_id": "35207SLSSN35003"}}, {"type": "Feature", "geometry": {"type": "Point", "coordinates": [-86.810556, 33.561111]}, "properties": {"facility_name": "SLOSS INDUSTRIES BIRMINGHAM CHEMICAL PLANT", "industry": null, "tri_facility_id": "35207SLSSN4200F"}}, {"type": "Feature", "geometry": {"type": "Point", "coordinates": [-86.791667, 33.575]}, "properties": {"facility_name": "WALTER COKE INC FIBER DIV", "industry": null, "tri_facility_id": "35207SLSSN4200H"}}, {"type": "Feature", "geometry": {"type": "Point", "coordinates": [-86.82, 33.546111]}, "properties": {"facility_name": "STABLER PAINT MANUFACTURING CO", "industry": null, "tri_facility_id": "35207STBLR2700N"}}, {"type": "Feature", "geometry": {"type": "Point", "coordinates": [-86.866667, 33.499722]}, "properties": {"facility_name": "ALABAMA METAL INDUSTRIES CORP", "industry": null, "tri_facility_id": "35208LBMMT3245F"}}, {"type": "Feature", "geometry": {"type": "Point", "coordinates": [-86.8711111111111, 33.521388888888886]}, "properties": {"facility_name": "INDUSTRIAL CHEMICALS INC", "industry": null, "tri_facility_id": "35208NDLCH1125R"}}, {"type": "Feature", "geometry": {"type": "Point", "coordinates": [-86.836111, 33.441667]}, "properties": {"facility_name": "BUFFALO ROCK CO", "industry": null, "tri_facility_id": "35209BFFLR111WO"}}, {"type": "Feature", "geometry": {"type": "Point", "coordinates": [-86.834333, 33.4601]}, "properties": {"facility_name": "DFA DAIRY BRANDS ICE CREAM LLC DBA MAYFIELD ICE CREAM OF BI", "industry": null, "tri_facility_id": "35209BRBRC128BA"}}, {"type": "Feature", "geometry": {"type": "Point", "coordinates": [-86.837222, 33.459444]}, "properties": {"facility_name": "DEAN DAIRY HOLDINGS LLC DBA BARBER DAIRY", "industry": null, "tri_facility_id": "35209BRBRP36BAR"}}, {"type": "Feature", "geometry": {"type": "Point", "coordinates": [-86.84333333333333, 33.447222222222216]}, "properties": {"facility_name": "DEWBERRY ENGRAVING", "industry": null, "tri_facility_id": "35209DWBRR248OX"}}, {"type": "Feature", "geometry": {"type": "Point", "coordinates": [-86.84388888888888, 33.44972222222222]}, "properties": {"facility_name": "SOUTHERN SWAGELOK CO", "industry": null, "tri_facility_id": "35209STHRN109CI"}}, {"type": "Feature", "geometry": {"type": "Point", "coordinates": [-86.841944, 33.451944]}, "properties": {"facility_name": "STEVENS GRAPHICS INC", "industry": null, "tri_facility_id": "35209STVNS100WE"}}, {"type": "Feature", "geometry": {"type": "Point", "coordinates": [-86.7082, 33.5382]}, "properties": {"facility_name": "BARRON INDUSTRIES INC", "industry": null, "tri_facility_id": "35210BRRNN10519"}}, {"type": "Feature", "geometry": {"type": "Point", "coordinates": [-86.698333, 33.538889]}, "properties": {"facility_name": "AMEX INTERNATIONAL CO INC", "industry": null, "tri_facility_id": "35210MXNTR511VU"}}, {"type": "Feature", "geometry": {"type": "Point", "coordinates": [-86.7, 33.541667]}, "properties": {"facility_name": "UNITED CHAIR IRONDALE PLANT", "industry": null, "tri_facility_id": "35210NTDCH2501F"}}, {"type": "Feature", "geometry": {"type": "Point", "coordinates": [-86.7, 33.541666666666664]}, "properties": {"facility_name": "SCF INDUSTRIES INC", "industry": null, "tri_facility_id": "35210SCFND2451F"}}, {"type": "Feature", "geometry": {"type": "Point", "coordinates": [-86.708333, 33.541667]}, "properties": {"facility_name": "SOUTHERN PRECISION CORP", "industry": null, "tri_facility_id": "35210STHRN1500G"}}, {"type": "Feature", "geometry": {"type": "Point", "coordinates": [-86.87805555555555, 33.459722222222226]}, "properties": {"facility_name": "CHEVRON BIRMINGHAM TERMINAL", "industry": null, "tri_facility_id": "35211BRMNG24002"}}, {"type": "Feature", "geometry": {"type": "Point", "coordinates": [-86.875, 33.458333333333336]}, "properties": {"facility_name": "CROWN CENTRAL PETROLEUM CORP", "industry": null, "tri_facility_id": "35211CRWNC2500N"}}, {"type": "Feature", "geometry": {"type": "Point", "coordinates": [-86.84277777777777, 33.46055555555556]}, "properties": {"facility_name": "DIXIE CULTURED MARBLE CO INC", "industry": null, "tri_facility_id": "35211DXCLT37WPA"}}, {"type": "Feature", "geometry": {"type": "Point", "coordinates": [-86.87722222222222, 33.44611111111111]}, "properties": {"facility_name": "SUNOCO LLC", "industry": null, "tri_facility_id": "35211LLDNR2700I"}}, {"type": "Feature", "geometry": {"type": "Point", "coordinates": [-86.875, 33.48888888888889]}, "properties": {"facility_name": "MORRIS MATERIAL HANDLING", "industry": null, "tri_facility_id": "35211SPHCR25WPA"}}, {"type": "Feature", "geometry": {"type": "Point", "coordinates": [-86.7497, 33.5429]}, "properties": {"facility_name": "G & R PLASTICS", "industry": null, "tri_facility_id": "35212GRPLS10019"}}, {"type": "Feature", "geometry": {"type": "Point", "coordinates": [-86.75888888888889, 33.532777777777774]}, "properties": {"facility_name": "HARSCO CO HECKETT MULTISERV PLANT 61", "industry": null, "tri_facility_id": "35212HRSCH11S5T"}}, {"type": "Feature", "geometry": {"type": "Point", "coordinates": [-86.763889, 33.556944]}, "properties": {"facility_name": "KAISER AIRCRAFT INDUSTRIES INC.", "industry": null, "tri_facility_id": "35212HYSNT19435"}}, {"type": "Feature", "geometry": {"type": "Point", "coordinates": [-86.758333, 33.533333]}, "properties": {"facility_name": "SMI STEEL LLC DBA CMC STEEL ALABAMA", "industry": null, "tri_facility_id": "35212SMSTLPOBOX"}}, {"type": "Feature", "geometry": {"type": "Point", "coordinates": [-86.775, 33.541667]}, "properties": {"facility_name": "STOCKHAM VALVES & FITTINGS, INC", "industry": null, "tri_facility_id": "35212STCKH40001"}}, {"type": "Feature", "geometry": {"type": "Point", "coordinates": [-86.858333, 33.558889]}, "properties": {"facility_name": "LB FOSTER CO", "industry": null, "tri_facility_id": "35214LBFST3135B"}}, {"type": "Feature", "geometry": {"type": "Point", "coordinates": [-86.71666666666667, 33.65333333333333]}, "properties": {"facility_name": "SOUTHEASTERN PLATEWORKS LLC", "industry": null, "tri_facility_id": "35215BLZRF4466P"}}, {"type": "Feature", "geometry": {"type": "Point", "coordinates": [-86.723611, 33.651111]}, "properties": {"facility_name": "MACLEAN DIXIE LLC", "industry": null, "tri_facility_id": "35215DXLCT1500R"}}, {"type": "Feature", "geometry": {"type": "Point", "coordinates": [-86.72500000000001, 33.640277777777776]}, "properties": {"facility_name": "DAYTON SUPERIOR CORP", "industry": null, "tri_facility_id": "35215DYTNS1401M"}}, {"type": "Feature", "geometry": {"type": "Point", "coordinates": [-86.724722, 33.649722]}, "properties": {"facility_name": "ALABAMA COPPER & BRONZE CO INC", "industry": null, "tri_facility_id": "35215LBMCP1501R"}}, {"type": "Feature", "geometry": {"type": "Point", "coordinates": [-86.714444, 33.658333]}, "properties": {"facility_name": "SHERWIN-WILLIAMS CO", "industry": null, "tri_facility_id": "35215MDLND90CAR"}}, {"type": "Feature", "geometry": {"type": "Point", "coordinates": [-86.7125, 33.65888888888889]}, "properties": {"facility_name": "MEADOWCRAFT INC", "industry": null, "tri_facility_id": "35215MDWCR95NOR"}}, {"type": "Feature", "geometry": {"type": "Point", "coordinates": [-86.716385, 33.659061]}, "properties": {"facility_name": "REXAM BEVERAGE CAN CO RE: BIRMINGHAM AL FACILITY", "industry": null, "tri_facility_id": "35215MRCNN124CA"}}, {"type": "Feature", "geometry": {"type": "Point", "coordinates": [-86.714444, 33.658333]}, "properties": {"facility_name": "EVODEX", "industry": null, "tri_facility_id": "35215VDXXX90CAR"}}, {"type": "Feature", "geometry": {"type": "Point", "coordinates": [-86.781667, 33.583333]}, "properties": {"facility_name": "DRUMMOND CO INC ABC COKE DIV", "industry": null, "tri_facility_id": "35217BCCKDRAILR"}}, {"type": "Feature", "geometry": {"type": "Point", "coordinates": [-86.7425, 33.62027777777778]}, "properties": {"facility_name": "BLAZER FABRICATING PAWNEE PLANT", "industry": null, "tri_facility_id": "35217BLZRF302FL"}}, {"type": "Feature", "geometry": {"type": "Point", "coordinates": [-86.767222, 33.561389]}, "properties": {"facility_name": "BIRMINGHAM COCA-COLA BOTTLING", "industry": null, "tri_facility_id": "35217BRMNG4600E"}}, {"type": "Feature", "geometry": {"type": "Point", "coordinates": [-86.741111, 33.621111]}, "properties": {"facility_name": "CONAGRA FOOD SERVICES CO", "industry": null, "tri_facility_id": "35217CNGRF155CL"}}, {"type": "Feature", "geometry": {"type": "Point", "coordinates": [-86.76583333333333, 33.57666666666667]}, "properties": {"facility_name": "DTE RED MOUNTAIN LLC", "industry": null, "tri_facility_id": "35217DTRDM9HUNT"}}, {"type": "Feature", "geometry": {"type": "Point", "coordinates": [-86.740096, 33.625648]}, "properties": {"facility_name": "GLAMOURTOP CORP", "industry": null, "tri_facility_id": "35217GLMRT120CL"}}, {"type": "Feature", "geometry": {"type": "Point", "coordinates": [-86.73055555555555, 33.62583333333333]}, "properties": {"facility_name": "GLASFORMS INC", "industry": null, "tri_facility_id": "35217GLSFR3943V"}}, {"type": "Feature", "geometry": {"type": "Point", "coordinates": [-86.715833, 33.654167]}, "properties": {"facility_name": "KENT CORP", "industry": null, "tri_facility_id": "35217KNTCRHWY79"}}, {"type": "Feature", "geometry": {"type": "Point", "coordinates": [-86.7713888888889, 33.594166666666666]}, "properties": {"facility_name": "ALLWORTH LLC", "industry": null, "tri_facility_id": "35217LLWRT500ME"}}, {"type": "Feature", "geometry": {"type": "Point", "coordinates": [-86.7722, 33.5459]}, "properties": {"facility_name": "METALPLATE GALVANIZING LP", "industry": null, "tri_facility_id": "35217MTLPL75744"}}, {"type": "Feature", "geometry": {"type": "Point", "coordinates": [-86.737778, 33.631667]}, "properties": {"facility_name": "SILGAN CONTAINERS MANUFACTURING CORP", "industry": null, "tri_facility_id": "35217MXWLL140GO"}}, {"type": "Feature", "geometry": {"type": "Point", "coordinates": [-86.754167, 33.606944]}, "properties": {"facility_name": "NUTEC METAL FINISHING", "industry": null, "tri_facility_id": "35217NTCMTPOBOX"}}, {"type": "Feature", "geometry": {"type": "Point", "coordinates": [-86.733886, 33.629219]}, "properties": {"facility_name": "CARPENTER CO", "industry": null, "tri_facility_id": "35217RCRPN165GO"}}, {"type": "Feature", "geometry": {"type": "Point", "coordinates": [-86.78472222222221, 33.56166666666666]}, "properties": {"facility_name": "VENTURA FOODS SUNNYLAND DIV", "industry": null, "tri_facility_id": "35217SNNYL3900V"}}, {"type": "Feature", "geometry": {"type": "Point", "coordinates": [-86.723889, 33.651667]}, "properties": {"facility_name": "ASTRALLOY STEEL PRODUCTS INC", "industry": null, "tri_facility_id": "35217STRLLPOBOX"}}, {"type": "Feature", "geometry": {"type": "Point", "coordinates": [-86.783333, 33.552778]}, "properties": {"facility_name": "STAYBRIGHT INC", "industry": null, "tri_facility_id": "35217STYBR3833E"}}, {"type": "Feature", "geometry": {"type": "Point", "coordinates": [-86.877222, 33.520833]}, "properties": {"facility_name": "BUTLER MANUFACTURING CO", "industry": null, "tri_facility_id": "35218BTLRM931AV"}}, {"type": "Feature", "geometry": {"type": "Point", "coordinates": [-86.721667, 33.645833]}, "properties": {"facility_name": "ELECTRICAL EQUIPMENT INC", "industry": null, "tri_facility_id": "35220LCTRCPOBOX"}}, {"type": "Feature", "geometry": {"type": "Point", "coordinates": [-86.87916666666666, 33.456944444444446]}, "properties": {"facility_name": "SHELL BIRMINGHAM TERMINAL", "industry": null, "tri_facility_id": "35221BRMNG2601W"}}, {"type": "Feature", "geometry": {"type": "Point", "coordinates": [-86.90305555555557, 33.45777777777778]}, "properties": {"facility_name": "HOLCIM (US) INC.", "industry": null, "tri_facility_id": "35221HLCMS1555H"}}, {"type": "Feature", "geometry": {"type": "Point", "coordinates": [-86.905376, 33.446524]}, "properties": {"facility_name": "UNITED GLAZED PRODUCTS ALABAMA", "industry": null, "tri_facility_id": "35221NTDGL4800J"}}, {"type": "Feature", "geometry": {"type": "Point", "coordinates": [-86.78986, 33.527943]}, "properties": {"facility_name": "BERMCO ALUMN", "industry": null, "tri_facility_id": "35222BRMCL616NO"}}, {"type": "Feature", "geometry": {"type": "Point", "coordinates": [-86.78111111111112, 33.527499999999996]}, "properties": {"facility_name": "CHEMSTATION OF ALABAMA", "industry": null, "tri_facility_id": "35222CHMST10738"}}, {"type": "Feature", "geometry": {"type": "Point", "coordinates": [-86.7825, 33.532778]}, "properties": {"facility_name": "GUZZLER MFG", "industry": null, "tri_facility_id": "35222GZZLR575NO"}}, {"type": "Feature", "geometry": {"type": "Point", "coordinates": [-86.785077, 33.534596]}, "properties": {"facility_name": "EAST BIRMINGHAM BRONZE FOUNDRY INC", "industry": null, "tri_facility_id": "35222STBRM831NO"}}, {"type": "Feature", "geometry": {"type": "Point", "coordinates": [-86.789167, 33.541667]}, "properties": {"facility_name": "METSO MINERALS INDUSTRIES INC", "industry": null, "tri_facility_id": "35222THMSF900NO"}}, {"type": "Feature", "geometry": {"type": "Point", "coordinates": [-86.763889, 33.525]}, "properties": {"facility_name": "AVONDALE CHEMICAL COATINGS CO INC", "industry": null, "tri_facility_id": "35222VNDLC4341P"}}, {"type": "Feature", "geometry": {"type": "Point", "coordinates": [-86.938889, 33.491667]}, "properties": {"facility_name": "BIRMINGHAM WOOD PRESERVING, CORP", "industry": null, "tri_facility_id": "35224BRMNG54001"}}, {"type": "Feature", "geometry": {"type": "Point", "coordinates": [-86.914444, 33.497222]}, "properties": {"facility_name": "HONEYWELL INC", "industry": null, "tri_facility_id": "35224LLDSG1327E"}}, {"type": "Feature", "geometry": {"type": "Point", "coordinates": [-86.917667, 33.4986]}, "properties": {"facility_name": "CERTAINTEED CORP", "industry": null, "tri_facility_id": "35224THCLT1327E"}}, {"type": "Feature", "geometry": {"type": "Point", "coordinates": [-86.918056, 33.4975]}, "properties": {"facility_name": "W J BULLOCK INC", "industry": null, "tri_facility_id": "35224WJBLL1501E"}}, {"type": "Feature", "geometry": {"type": "Point", "coordinates": [-86.778611, 33.523889]}, "properties": {"facility_name": "AMEX INTERNATIONAL CO INC", "industry": null, "tri_facility_id": "35232MXNTR38161"}}, {"type": "Feature", "geometry": {"type": "Point", "coordinates": [-86.81444444444445, 33.49027777777778]}, "properties": {"facility_name": "EBSCO MEDIA", "industry": null, "tri_facility_id": "35233BSCMD801FI"}}, {"type": "Feature", "geometry": {"type": "Point", "coordinates": [-86.79528, 33.513128]}, "properties": {"facility_name": "AMERICAN MARBLE CO INC", "industry": null, "tri_facility_id": "35233MRCNM25163"}}, {"type": "Feature", "geometry": {"type": "Point", "coordinates": [-86.79527777777777, 33.51305555555555]}, "properties": {"facility_name": "AMERICAN MARBLE CO INC", "industry": null, "tri_facility_id": "35233MRCNM25252"}}, {"type": "Feature", "geometry": {"type": "Point", "coordinates": [-86.805, 33.546944]}, "properties": {"facility_name": "A & B FOUNDRY INC", "industry": null, "tri_facility_id": "35234BFNDR2631H"}}, {"type": "Feature", "geometry": {"type": "Point", "coordinates": [-86.8086, 33.5435]}, "properties": {"facility_name": "NUCOR STEEL BIRMINGHAM INC", "industry": null, "tri_facility_id": "35234BRMNG4301F"}}, {"type": "Feature", "geometry": {"type": "Point", "coordinates": [-86.791111, 33.544722]}, "properties": {"facility_name": "AKZO NOBEL COATINGS INC", "industry": null, "tri_facility_id": "35234HNNCH1629V"}}, {"type": "Feature", "geometry": {"type": "Point", "coordinates": [-86.785035, 33.550895]}, "properties": {"facility_name": "JOSLYN MANUFACTURING CO", "industry": null, "tri_facility_id": "35234JSLYN2222V"}}, {"type": "Feature", "geometry": {"type": "Point", "coordinates": [-86.794444, 33.547222]}, "properties": {"facility_name": "ALTEC INDUSTRIES, INC.", "industry": null, "tri_facility_id": "35234LTCND1730V"}}, {"type": "Feature", "geometry": {"type": "Point", "coordinates": [-86.796667, 33.530556]}, "properties": {"facility_name": "INDURON COATINGS INC", "industry": null, "tri_facility_id": "35234NDRLL33331"}}, {"type": "Feature", "geometry": {"type": "Point", "coordinates": [-86.78555555555555, 33.55277777777778]}, "properties": {"facility_name": "UNIVAR SOLUTIONS BIRMINGHAM", "industry": null, "tri_facility_id": "35234SHLND3300B"}}, {"type": "Feature", "geometry": {"type": "Point", "coordinates": [-86.794034, 33.532733]}, "properties": {"facility_name": "SUNNYLAND REFINING CO, KANE MILLER DIV", "industry": null, "tri_facility_id": "35234SNNYL33301"}}, {"type": "Feature", "geometry": {"type": "Point", "coordinates": [-86.788889, 33.544167]}, "properties": {"facility_name": "THERMAFIBER LLC", "industry": null, "tri_facility_id": "35234SNTRR2015V"}}, {"type": "Feature", "geometry": {"type": "Point", "coordinates": [-86.93333333333334, 33.483333333333334]}, "properties": {"facility_name": "SRA MILL SERVICES INC PLANT 59", "industry": null, "tri_facility_id": "35234SRMLL2301S"}}, {"type": "Feature", "geometry": {"type": "Point", "coordinates": [-86.816944, 33.508333]}, "properties": {"facility_name": "SOUTHERN FILTERS INC BONDED FIBERGLASS DIV", "industry": null, "tri_facility_id": "35235BNDDF3143R"}}, {"type": "Feature", "geometry": {"type": "Point", "coordinates": [-86.679337, 33.408147]}, "properties": {"facility_name": "GUARDIAN-IPCO INC", "industry": null, "tri_facility_id": "35242GRDNP6606C"}}, {"type": "Feature", "geometry": {"type": "Point", "coordinates": [-86.833333, 33.458333]}, "properties": {"facility_name": "MAYCO MANUFACTURING LLC", "industry": null, "tri_facility_id": "35259MYFLD18WES"}}]}