{"type": "FeatureCollection", "features": [{"type": "Feature", "geometry": {"type": "Point", "coordinates": [-81.070833, 29.194444]}, "properties": {"facility_name": "GE CO, SAS", "industry": null, "tri_facility_id": "32015GNRLL1800V"}}, {"type": "Feature", "geometry": {"type": "Point", "coordinates": [-81.082222, 29.215556]}, "properties": {"facility_name": "CRANE CAMS INC", "industry": null, "tri_facility_id": "32114CRNCM530FE"}}, {"type": "Feature", "geometry": {"type": "Point", "coordinates": [-81.08277777777778, 29.1975]}, "properties": {"facility_name": "FLORIDA PRODUCTION ENG INC", "industry": null, "tri_facility_id": "32114FPNCX440FE"}}, {"type": "Feature", "geometry": {"type": "Point", "coordinates": [-81.051111, 29.169167]}, "properties": {"facility_name": "ALUMA SHIELD INDUSTRIES INC", "industry": null, "tri_facility_id": "32114LMSHL405FE"}}, {"type": "Feature", "geometry": {"type": "Point", "coordinates": [-81.0255, 29.1486]}, "properties": {"facility_name": "R & J COATINGS, & WATERPROOFING INC", "industry": null, "tri_facility_id": "32114RJCTN2541B"}}, {"type": "Feature", "geometry": {"type": "Point", "coordinates": [-81.04722222222222, 29.252222222222223]}, "properties": {"facility_name": "DECORATIVE ELECTRO COATING", "industry": null, "tri_facility_id": "32117DCRTV1518S"}}, {"type": "Feature", "geometry": {"type": "Point", "coordinates": [-81.077222, 29.215]}, "properties": {"facility_name": "APOGEE PLASTIC TECHS INC", "industry": null, "tri_facility_id": "32117FMPLS1845H"}}, {"type": "Feature", "geometry": {"type": "Point", "coordinates": [-81.07722222222222, 29.215]}, "properties": {"facility_name": "FIRST COAST ANODIZING INC", "industry": null, "tri_facility_id": "32117FRSTC1844H"}}, {"type": "Feature", "geometry": {"type": "Point", "coordinates": [-81.04055555555556, 29.23777777777778]}, "properties": {"facility_name": "SHOWCASE MARBLE INC. DBA MARBLE CRAFTERS", "industry": null, "tri_facility_id": "32117SHWCS711CO"}}, {"type": "Feature", "geometry": {"type": "Point", "coordinates": [-80.9875, 29.15]}, "properties": {"facility_name": "RR DONNELLEY & SONS", "industry": null, "tri_facility_id": "32119RRDNN3100S"}}, {"type": "Feature", "geometry": {"type": "Point", "coordinates": [-81.0075, 29.17666666666667]}, "properties": {"facility_name": "SUPREME MARBLE", "industry": null, "tri_facility_id": "32119SPRMM1838S"}}]}