{"type": "FeatureCollection", "features": [{"type": "Feature", "properties": {"area_id": 852, "city": "Stockton", "state": "CA", "city_survey": true, "cat": "Best", "grade": "A", "label": "A1", "res": true, "com": false, "ind": false, "holc_grade": "A"}, "geometry": {"type": "Polygon", "coordinates": [[[-121.31737, 37.97567], [-121.30614, 37.9784], [-121.3042, 37.97555], [-121.31621, 37.9726], [-121.31737, 37.97567]]]}}, {"type": "Feature", "properties": {"area_id": 853, "city": "Stockton", "state": "CA", "city_survey": true, "cat": "Best", "grade": "A", "label": "A2", "res": true, "com": false, "ind": false, "holc_grade": "A"}, "geometry": {"type": "Polygon", "coordinates": [[[-121.30593, 37.97259], [-121.30441, 37.96908], [-121.30531, 37.96882], [-121.30515, 37.96856], [-121.30611, 37.96834], [-121.31391, 37.96654], [-121.31473, 37.96869], [-121.31377, 37.96897], [-121.31446, 37.97043], [-121.31525, 37.97006], [-121.31621, 37.9726], [-121.3042, 37.97555], [-121.30258, 37.97345], [-121.30593, 37.97259]]]}}, {"type": "Feature", "properties": {"area_id": 855, "city": "Stockton", "state": "CA", "city_survey": true, "cat": "Best", "grade": "A", "label": "A3", "res": true, "com": false, "ind": false, "holc_grade": "A"}, "geometry": {"type": "Polygon", "coordinates": [[[-121.31068, 37.96144], [-121.30971, 37.96166], [-121.30881, 37.9587], [-121.31166, 37.95822], [-121.311699, 37.958221], [-121.31285, 37.95825], [-121.31351, 37.95816], [-121.31511, 37.95775], [-121.31625, 37.95763], [-121.31696, 37.95775], [-121.31701, 37.95794], [-121.31753, 37.95983], [-121.31805, 37.95974], [-121.31881, 37.95962], [-121.32007, 37.96451], [-121.316799, 37.965453], [-121.3157, 37.96577], [-121.315559, 37.965737], [-121.31544, 37.96571], [-121.313844, 37.966081], [-121.31028, 37.96691], [-121.31007, 37.96622], [-121.31011, 37.96581], [-121.30591, 37.96657], [-121.30572, 37.96714], [-121.30611, 37.96834], [-121.30515, 37.96856], [-121.30458, 37.967], [-121.30431, 37.96642], [-121.30852, 37.96567], [-121.308353, 37.965012], [-121.30816, 37.96425], [-121.31135, 37.96365], [-121.31068, 37.96144]], [[-121.31627, 37.95981], [-121.31663, 37.95919], [-121.31636, 37.95893], [-121.31565, 37.95887], [-121.31361, 37.95936], [-121.31225, 37.95932], [-121.31308, 37.96223], [-121.31442, 37.96165], [-121.31587, 37.96071], [-121.31627, 37.95981]]]}}, {"type": "Feature", "properties": {"area_id": 850, "city": "Stockton", "state": "CA", "city_survey": true, "cat": "Still Desirable", "grade": "B", "label": "B1", "res": true, "com": false, "ind": false, "holc_grade": "B"}, "geometry": {"type": "Polygon", "coordinates": [[[-121.32321, 37.9673], [-121.32977, 37.9656], [-121.33475, 37.9643], [-121.33612, 37.96764], [-121.32485, 37.97038], [-121.325385, 37.971749], [-121.32721, 37.97642], [-121.31863, 37.97857], [-121.318618, 37.978547], [-121.31812, 37.97756], [-121.31737, 37.97567], [-121.31621, 37.9726], [-121.31525, 37.97006], [-121.31473, 37.96869], [-121.314821, 37.968666], [-121.32285, 37.96659], [-121.32321, 37.9673]]]}}, {"type": "Feature", "properties": {"area_id": 856, "city": "Stockton", "state": "CA", "city_survey": true, "cat": "Still Desirable", "grade": "B", "label": "B10", "res": true, "com": false, "ind": false, "holc_grade": "B"}, "geometry": {"type": "Polygon", "coordinates": [[[-121.31919, 37.95951], [-121.31879, 37.95812], [-121.3177, 37.95831], [-121.31805, 37.95974], [-121.31753, 37.95983], [-121.31701, 37.95794], [-121.32139, 37.95717], [-121.32269, 37.95694], [-121.32285, 37.95788], [-121.32658, 37.95715], [-121.3267, 37.95756], [-121.32803, 37.96247], [-121.32544, 37.96328], [-121.32007, 37.96451], [-121.31881, 37.95962], [-121.31919, 37.95951]]]}}, {"type": "Feature", "properties": {"area_id": 860, "city": "Stockton", "state": "CA", "city_survey": true, "cat": "Still Desirable", "grade": "B", "label": "B11", "res": true, "com": false, "ind": false, "holc_grade": "B"}, "geometry": {"type": "Polygon", "coordinates": [[[-121.30517, 37.9593], [-121.30592, 37.95918], [-121.30643, 37.96063], [-121.30769, 37.96045], [-121.30726, 37.95896], [-121.30881, 37.9587], [-121.30971, 37.96166], [-121.31068, 37.96144], [-121.31135, 37.96365], [-121.30816, 37.96425], [-121.308353, 37.965012], [-121.30852, 37.96567], [-121.30431, 37.96642], [-121.30422, 37.96586], [-121.30367, 37.96597], [-121.303632, 37.965842], [-121.30187, 37.95981], [-121.30517, 37.9593]]]}}, {"type": "Feature", "properties": {"area_id": 873, "city": "Stockton", "state": "CA", "city_survey": true, "cat": "Still Desirable", "grade": "B", "label": "B12", "res": true, "com": false, "ind": false, "holc_grade": "B"}, "geometry": {"type": "Polygon", "coordinates": [[[-121.27826, 37.96454], [-121.27841, 37.96489], [-121.2788, 37.96482], [-121.2799, 37.96924], [-121.27615, 37.96997], [-121.27482, 37.96519], [-121.27826, 37.96454]]]}}, {"type": "Feature", "properties": {"area_id": 885, "city": "Stockton", "state": "CA", "city_survey": true, "cat": "Still Desirable", "grade": "B", "label": "B13", "res": true, "com": false, "ind": false, "holc_grade": "B"}, "geometry": {"type": "Polygon", "coordinates": [[[-121.26584, 37.96931], [-121.265648, 37.969355], [-121.26009, 37.97065], [-121.25854, 37.97117], [-121.25727, 37.96765], [-121.2633, 37.96616], [-121.263669, 37.966071], [-121.2643, 37.96592], [-121.26584, 37.96931]]]}}, {"type": "Feature", "properties": {"area_id": 858, "city": "Stockton", "state": "CA", "city_survey": true, "cat": "Still Desirable", "grade": "B", "label": "B14", "res": true, "com": false, "ind": false, "holc_grade": "B"}, "geometry": {"type": "Polygon", "coordinates": [[[-121.31741, 37.95432], [-121.31924, 37.95411], [-121.32055, 37.95406], [-121.32139, 37.95717], [-121.31701, 37.95794], [-121.31696, 37.95775], [-121.31625, 37.95763], [-121.31511, 37.95775], [-121.31351, 37.95816], [-121.31285, 37.95825], [-121.311699, 37.958221], [-121.31166, 37.95822], [-121.30881, 37.9587], [-121.30726, 37.95896], [-121.3071, 37.95861], [-121.30581, 37.9588], [-121.30592, 37.95918], [-121.30517, 37.9593], [-121.304662, 37.957471], [-121.30427, 37.95606], [-121.30945, 37.95516], [-121.3098, 37.95608], [-121.31104, 37.95587], [-121.311186, 37.956366], [-121.31152, 37.9575], [-121.311702, 37.957458], [-121.31784, 37.95604], [-121.31741, 37.95432]]]}}, {"type": "Feature", "properties": {"area_id": 859, "city": "Stockton", "state": "CA", "city_survey": true, "cat": "Still Desirable", "grade": "B", "label": "B15", "res": true, "com": false, "ind": false, "holc_grade": "B"}, "geometry": {"type": "Polygon", "coordinates": [[[-121.31171, 37.95576], [-121.31142, 37.95501], [-121.312253, 37.954908], [-121.31525, 37.95454], [-121.31741, 37.95432], [-121.31784, 37.95604], [-121.311702, 37.957458], [-121.31152, 37.9575], [-121.311186, 37.956366], [-121.31104, 37.95587], [-121.31171, 37.95576]]]}}, {"type": "Feature", "properties": {"area_id": 863, "city": "Stockton", "state": "CA", "city_survey": true, "cat": "Still Desirable", "grade": "B", "label": "B2", "res": true, "com": false, "ind": false, "holc_grade": "B"}, "geometry": {"type": "Polygon", "coordinates": [[[-121.30436, 37.98237], [-121.3037, 37.98252], [-121.30233, 37.97941], [-121.30538, 37.9786], [-121.308244, 37.981844], [-121.30862, 37.98227], [-121.308581, 37.98228], [-121.30481, 37.98325], [-121.30436, 37.98237]]]}}, {"type": "Feature", "properties": {"area_id": 862, "city": "Stockton", "state": "CA", "city_survey": true, "cat": "Still Desirable", "grade": "B", "label": "B3", "res": true, "com": false, "ind": false, "holc_grade": "B"}, "geometry": {"type": "Polygon", "coordinates": [[[-121.3042, 37.97555], [-121.30614, 37.9784], [-121.305645, 37.97853], [-121.30538, 37.9786], [-121.30233, 37.97941], [-121.29942, 37.98018], [-121.299354, 37.980003], [-121.29825, 37.97707], [-121.30151, 37.97628], [-121.30035, 37.97345], [-121.30087, 37.97332], [-121.30125, 37.97379], [-121.301908, 37.973622], [-121.30258, 37.97345], [-121.3042, 37.97555]]]}}, {"type": "Feature", "properties": {"area_id": 864, "city": "Stockton", "state": "CA", "city_survey": true, "cat": "Still Desirable", "grade": "B", "label": "B4", "res": true, "com": false, "ind": false, "holc_grade": "B"}, "geometry": {"type": "Polygon", "coordinates": [[[-121.29462, 37.98108], [-121.29329, 37.97832], [-121.29444, 37.97803], [-121.29825, 37.97707], [-121.299354, 37.980003], [-121.29942, 37.98018], [-121.29535, 37.98119], [-121.29362, 37.98162], [-121.293536, 37.98151], [-121.29343, 37.98137], [-121.29462, 37.98108]], [[-121.29844, 37.97864], [-121.29832, 37.97821], [-121.29609, 37.97873], [-121.2963, 37.97915], [-121.29844, 37.97864]]]}}, {"type": "Feature", "properties": {"area_id": 851, "city": "Stockton", "state": "CA", "city_survey": true, "cat": "Still Desirable", "grade": "B", "label": "B5", "res": true, "com": false, "ind": false, "holc_grade": "B"}, "geometry": {"type": "Polygon", "coordinates": [[[-121.32977, 37.9656], [-121.32321, 37.9673], [-121.32285, 37.96659], [-121.314821, 37.968666], [-121.31473, 37.96869], [-121.31391, 37.96654], [-121.313964, 37.966526], [-121.32886, 37.96277], [-121.32977, 37.9656]]]}}, {"type": "Feature", "properties": {"area_id": 854, "city": "Stockton", "state": "CA", "city_survey": true, "cat": "Still Desirable", "grade": "B", "label": "B6", "res": true, "com": false, "ind": false, "holc_grade": "B"}, "geometry": {"type": "Polygon", "coordinates": [[[-121.30531, 37.96882], [-121.30441, 37.96908], [-121.30593, 37.97259], [-121.30258, 37.97345], [-121.29939, 37.96916], [-121.29909, 37.96833], [-121.30458, 37.967], [-121.30515, 37.96856], [-121.30531, 37.96882]]]}}, {"type": "Feature", "properties": {"area_id": 867, "city": "Stockton", "state": "CA", "city_survey": true, "cat": "Still Desirable", "grade": "B", "label": "B7", "res": true, "com": false, "ind": false, "holc_grade": "B"}, "geometry": {"type": "Polygon", "coordinates": [[[-121.30087, 37.97332], [-121.30035, 37.97345], [-121.29805, 37.97398], [-121.2968, 37.97427], [-121.2963, 37.97367], [-121.29578, 37.9721], [-121.29933, 37.97118], [-121.30087, 37.97332]]]}}, {"type": "Feature", "properties": {"area_id": 866, "city": "Stockton", "state": "CA", "city_survey": true, "cat": "Still Desirable", "grade": "B", "label": "B8", "res": true, "com": false, "ind": false, "holc_grade": "B"}, "geometry": {"type": "Polygon", "coordinates": [[[-121.29099, 37.96796], [-121.291798, 37.967858], [-121.29321, 37.96768], [-121.29343, 37.96803], [-121.29742, 37.96738], [-121.29828, 37.96972], [-121.29933, 37.97118], [-121.29578, 37.9721], [-121.2963, 37.97367], [-121.2968, 37.97427], [-121.29611, 37.97439], [-121.29649, 37.97542], [-121.29847, 37.97502], [-121.29805, 37.97398], [-121.30035, 37.97345], [-121.30151, 37.97628], [-121.29825, 37.97707], [-121.29444, 37.97803], [-121.290434, 37.96809], [-121.29041, 37.96803], [-121.29099, 37.96796]]]}}, {"type": "Feature", "properties": {"area_id": 872, "city": "Stockton", "state": "CA", "city_survey": true, "cat": "Still Desirable", "grade": "B", "label": "B9", "res": true, "com": false, "ind": false, "holc_grade": "B"}, "geometry": {"type": "Polygon", "coordinates": [[[-121.28076, 37.97704], [-121.27802, 37.97037], [-121.27853, 37.97028], [-121.27984, 37.97051], [-121.28079, 37.97037], [-121.28257, 37.9765], [-121.28076, 37.97704]]]}}, {"type": "Feature", "properties": {"area_id": 869, "city": "Stockton", "state": "CA", "city_survey": true, "cat": "Definitely Declining", "grade": "C", "label": "C1", "res": true, "com": false, "ind": false, "holc_grade": "C"}, "geometry": {"type": "Polygon", "coordinates": [[[-121.29942, 37.98018], [-121.30086, 37.98366], [-121.29679, 37.98466], [-121.29535, 37.98119], [-121.29942, 37.98018]]]}}, {"type": "Feature", "properties": {"area_id": 875, "city": "Stockton", "state": "CA", "city_survey": true, "cat": "Definitely Declining", "grade": "C", "label": "C10", "res": true, "com": false, "ind": false, "holc_grade": "C"}, "geometry": {"type": "Polygon", "coordinates": [[[-121.27482, 37.96519], [-121.27369, 37.96077], [-121.27538, 37.96048], [-121.2752, 37.95971], [-121.27583, 37.95962], [-121.27556, 37.95845], [-121.2769, 37.95821], [-121.27713, 37.95913], [-121.27663, 37.95924], [-121.27684, 37.95995], [-121.2774, 37.95985], [-121.27856, 37.96409], [-121.27799, 37.96416], [-121.27826, 37.96454], [-121.27482, 37.96519]]]}}, {"type": "Feature", "properties": {"area_id": 886, "city": "Stockton", "state": "CA", "city_survey": true, "cat": "Definitely Declining", "grade": "C", "label": "C11", "res": true, "com": false, "ind": false, "holc_grade": "C"}, "geometry": {"type": "Polygon", "coordinates": [[[-121.26569, 37.96224], [-121.2639, 37.96265], [-121.26517, 37.96571], [-121.2643, 37.96592], [-121.263669, 37.966071], [-121.2633, 37.96616], [-121.26189, 37.96287], [-121.25614, 37.9654], [-121.25513, 37.96305], [-121.261725, 37.961541], [-121.26514, 37.96076], [-121.26569, 37.96224]]]}}, {"type": "Feature", "properties": {"area_id": 887, "city": "Stockton", "state": "CA", "city_survey": true, "cat": "Definitely Declining", "grade": "C", "label": "C12", "res": true, "com": false, "ind": false, "holc_grade": "C"}, "geometry": {"type": "Polygon", "coordinates": [[[-121.254439, 37.961628], [-121.25451, 37.96161], [-121.25455, 37.961702], [-121.25513, 37.96305], [-121.25614, 37.9654], [-121.245665, 37.969939], [-121.23867, 37.97297], [-121.23897, 37.96555], [-121.24179, 37.96483], [-121.243001, 37.964524], [-121.254439, 37.961628]]]}}, {"type": "Feature", "properties": {"area_id": 888, "city": "Stockton", "state": "CA", "city_survey": true, "cat": "Definitely Declining", "grade": "C", "label": "C13", "res": true, "com": false, "ind": false, "holc_grade": "C"}, "geometry": {"type": "Polygon", "coordinates": [[[-121.24363, 37.95793], [-121.240686, 37.958635], [-121.23912, 37.95901], [-121.24179, 37.96483], [-121.23897, 37.96555], [-121.23315, 37.96709], [-121.23223, 37.95376], [-121.23543, 37.95405], [-121.238967, 37.954145], [-121.24215, 37.95423], [-121.24363, 37.95793]]]}}, {"type": "Feature", "properties": {"area_id": 891, "city": "Stockton", "state": "CA", "city_survey": true, "cat": "Definitely Declining", "grade": "C", "label": "C14", "res": true, "com": false, "ind": false, "holc_grade": "C"}, "geometry": {"type": "Polygon", "coordinates": [[[-121.25123, 37.95461], [-121.2486, 37.95444], [-121.24215, 37.95423], [-121.238967, 37.954145], [-121.23543, 37.95405], [-121.23536, 37.95176], [-121.237777, 37.951191], [-121.24229, 37.95013], [-121.24237, 37.95166], [-121.24583, 37.9508], [-121.24894, 37.94989], [-121.250614, 37.950492], [-121.25108, 37.95066], [-121.25246, 37.95404], [-121.251744, 37.954234], [-121.25113, 37.9544], [-121.25123, 37.95461]]]}}, {"type": "Feature", "properties": {"area_id": 870, "city": "Stockton", "state": "CA", "city_survey": true, "cat": "Definitely Declining", "grade": "C", "label": "C2", "res": true, "com": false, "ind": false, "holc_grade": "C"}, "geometry": {"type": "Polygon", "coordinates": [[[-121.28215, 37.98784], [-121.28242, 37.98412], [-121.28349, 37.98386], [-121.28483, 37.98725], [-121.28215, 37.98784]]]}}, {"type": "Feature", "properties": {"area_id": 865, "city": "Stockton", "state": "CA", "city_survey": true, "cat": "Definitely Declining", "grade": "C", "label": "C3", "res": true, "com": false, "ind": false, "holc_grade": "C"}, "geometry": {"type": "Polygon", "coordinates": [[[-121.29041, 37.96803], [-121.290434, 37.96809], [-121.29444, 37.97803], [-121.29329, 37.97832], [-121.29462, 37.98108], [-121.29343, 37.98137], [-121.29081, 37.97544], [-121.292, 37.97517], [-121.29153, 37.9739], [-121.28974, 37.97427], [-121.28998, 37.97469], [-121.28922, 37.97484], [-121.28913, 37.97463], [-121.28825, 37.97482], [-121.28851, 37.97373], [-121.28651, 37.9691], [-121.28794, 37.96892], [-121.28799, 37.96923], [-121.28946, 37.96903], [-121.289241, 37.968292], [-121.28922, 37.96822], [-121.29041, 37.96803]]]}}, {"type": "Feature", "properties": {"area_id": 871, "city": "Stockton", "state": "CA", "city_survey": true, "cat": "Definitely Declining", "grade": "C", "label": "C4", "res": true, "com": false, "ind": false, "holc_grade": "C"}, "geometry": {"type": "Polygon", "coordinates": [[[-121.285102, 37.968995], [-121.28667, 37.97287], [-121.28299, 37.97374], [-121.282942, 37.973483], [-121.28272, 37.97229], [-121.28183, 37.96957], [-121.282108, 37.969521], [-121.283695, 37.969239], [-121.2851, 37.96899], [-121.285102, 37.968995]]]}}, {"type": "Feature", "properties": {"area_id": 874, "city": "Stockton", "state": "CA", "city_survey": true, "cat": "Definitely Declining", "grade": "C", "label": "C5", "res": true, "com": false, "ind": false, "holc_grade": "C"}, "geometry": {"type": "Polygon", "coordinates": [[[-121.270639, 37.971508], [-121.27348, 37.97107], [-121.27383, 37.97194], [-121.27446, 37.9718], [-121.27416, 37.97093], [-121.27499, 37.97081], [-121.27556, 37.97238], [-121.27672, 37.97203], [-121.27618, 37.97065], [-121.27669, 37.97046], [-121.27755, 37.97252], [-121.27547, 37.97302], [-121.2758, 37.97391], [-121.27113, 37.97512], [-121.269876, 37.971702], [-121.26985, 37.97163], [-121.270639, 37.971508]]]}}, {"type": "Feature", "properties": {"area_id": 884, "city": "Stockton", "state": "CA", "city_survey": true, "cat": "Definitely Declining", "grade": "C", "label": "C6", "res": true, "com": false, "ind": false, "holc_grade": "C"}, "geometry": {"type": "Polygon", "coordinates": [[[-121.26009, 37.97065], [-121.265648, 37.969355], [-121.26584, 37.96931], [-121.26688, 37.97179], [-121.26533, 37.97221], [-121.264722, 37.972377], [-121.25971, 37.97375], [-121.258569, 37.971234], [-121.25854, 37.97117], [-121.26009, 37.97065]]]}}, {"type": "Feature", "properties": {"area_id": 857, "city": "Stockton", "state": "CA", "city_survey": true, "cat": "Definitely Declining", "grade": "C", "label": "C7", "res": true, "com": false, "ind": false, "holc_grade": "C"}, "geometry": {"type": "Polygon", "coordinates": [[[-121.32055, 37.95406], [-121.32297, 37.95411], [-121.32485, 37.95421], [-121.32571, 37.95437], [-121.32637, 37.95475], [-121.32689, 37.95542], [-121.33303, 37.95434], [-121.33353, 37.95638], [-121.3267, 37.95756], [-121.32658, 37.95715], [-121.32285, 37.95788], [-121.32269, 37.95694], [-121.32139, 37.95717], [-121.32055, 37.95406]]]}}, {"type": "Feature", "properties": {"area_id": 861, "city": "Stockton", "state": "CA", "city_survey": true, "cat": "Definitely Declining", "grade": "C", "label": "C8", "res": true, "com": false, "ind": false, "holc_grade": "C"}, "geometry": {"type": "Polygon", "coordinates": [[[-121.29198, 37.9581], [-121.29355, 37.95674], [-121.29381, 37.95786], [-121.295206, 37.95762], [-121.30427, 37.95606], [-121.304662, 37.957471], [-121.30517, 37.9593], [-121.30187, 37.95981], [-121.303632, 37.965842], [-121.30367, 37.96597], [-121.30303, 37.96612], [-121.302981, 37.965952], [-121.30279, 37.9653], [-121.300147, 37.965741], [-121.2944, 37.9667], [-121.292389, 37.959552], [-121.29198, 37.9581]], [[-121.29469, 37.96112], [-121.29443, 37.96028], [-121.29331, 37.96043], [-121.29362, 37.96129], [-121.29469, 37.96112]], [[-121.29704, 37.95966], [-121.29685, 37.95887], [-121.29566, 37.95906], [-121.2959, 37.95986], [-121.29704, 37.95966]], [[-121.29818, 37.9585], [-121.29951, 37.95829], [-121.2993, 37.95747], [-121.29787, 37.95767], [-121.29818, 37.9585]]]}}, {"type": "Feature", "properties": {"area_id": 868, "city": "Stockton", "state": "CA", "city_survey": true, "cat": "Definitely Declining", "grade": "C", "label": "C9", "res": true, "com": false, "ind": false, "holc_grade": "C"}, "geometry": {"type": "Polygon", "coordinates": [[[-121.28944, 37.95867], [-121.28965, 37.9594], [-121.2902, 37.95928], [-121.290356, 37.959894], [-121.29058, 37.96078], [-121.29119, 37.96071], [-121.29153, 37.96191], [-121.29119, 37.96196], [-121.29138, 37.96268], [-121.29179, 37.9626], [-121.293195, 37.967626], [-121.29321, 37.96768], [-121.291798, 37.967858], [-121.29099, 37.96796], [-121.29048, 37.96601], [-121.28787, 37.96646], [-121.28677, 37.96271], [-121.2878, 37.96251], [-121.287201, 37.960432], [-121.2868, 37.95904], [-121.28944, 37.95867]]]}}, {"type": "Feature", "properties": {"area_id": 883, "city": "Stockton", "state": "CA", "city_survey": true, "cat": "Hazardous", "grade": "D", "label": "D1", "res": true, "com": false, "ind": false, "holc_grade": "D"}, "geometry": {"type": "Polygon", "coordinates": [[[-121.266, 37.97415], [-121.265567, 37.974421], [-121.26536, 37.97455], [-121.265928, 37.975996], [-121.2672, 37.97923], [-121.2687, 37.9826], [-121.27081, 37.98197], [-121.27271, 37.98661], [-121.26786, 37.98799], [-121.26702, 37.98813], [-121.26659, 37.98692], [-121.26428, 37.98746], [-121.26057, 37.98556], [-121.259271, 37.984956], [-121.25829, 37.9845], [-121.25347, 37.98251], [-121.25509, 37.98161], [-121.25471, 37.98061], [-121.25404, 37.97874], [-121.25247, 37.97555], [-121.25971, 37.97375], [-121.264722, 37.972377], [-121.26533, 37.97221], [-121.266, 37.97415]], [[-121.25509, 37.98161], [-121.25687, 37.98256], [-121.25634, 37.98066], [-121.25606, 37.98077], [-121.25606, 37.98116], [-121.25548, 37.98152], [-121.25509, 37.98161]]]}}, {"type": "Feature", "properties": {"area_id": 878, "city": "Stockton", "state": "CA", "city_survey": true, "cat": "Hazardous", "grade": "D", "label": "D10", "res": true, "com": false, "ind": false, "holc_grade": "D"}, "geometry": {"type": "Polygon", "coordinates": [[[-121.293545, 37.9246], [-121.29401, 37.92647], [-121.29477, 37.93013], [-121.29501, 37.93108], [-121.29502, 37.93211], [-121.29445, 37.93367], [-121.2915, 37.93701], [-121.29073, 37.93665], [-121.28948, 37.93765], [-121.28725, 37.93802], [-121.28608, 37.93574], [-121.28692, 37.93558], [-121.28506, 37.93091], [-121.28404, 37.93103], [-121.282393, 37.926893], [-121.28236, 37.92681], [-121.285643, 37.926081], [-121.293453, 37.924346], [-121.29348, 37.92434], [-121.293545, 37.9246]]]}}, {"type": "Feature", "properties": {"area_id": 879, "city": "Stockton", "state": "CA", "city_survey": true, "cat": "Hazardous", "grade": "D", "label": "D11", "res": true, "com": false, "ind": false, "holc_grade": "D"}, "geometry": {"type": "Polygon", "coordinates": [[[-121.27419, 37.93351], [-121.27431, 37.93182], [-121.27525, 37.93154], [-121.27434, 37.92953], [-121.27442, 37.92863], [-121.27946, 37.9274], [-121.28034, 37.93009], [-121.28152, 37.92985], [-121.28218, 37.93016], [-121.28229, 37.93047], [-121.28306, 37.93037], [-121.28499, 37.93737], [-121.28526, 37.93837], [-121.2786, 37.93953], [-121.27672, 37.93976], [-121.27447, 37.94019], [-121.27414, 37.93838], [-121.27502, 37.93816], [-121.27462, 37.93689], [-121.27518, 37.9368], [-121.27419, 37.93351]], [[-121.28039, 37.93347], [-121.27935, 37.93362], [-121.27957, 37.93461], [-121.28061, 37.93446], [-121.28039, 37.93347]]]}}, {"type": "Feature", "properties": {"area_id": 876, "city": "Stockton", "state": "CA", "city_survey": true, "cat": "Hazardous", "grade": "D", "label": "D2", "res": true, "com": false, "ind": false, "holc_grade": "D"}, "geometry": {"type": "Polygon", "coordinates": [[[-121.30831, 37.94567], [-121.30879, 37.94756], [-121.30384, 37.94842], [-121.30308, 37.94835], [-121.30187, 37.94781], [-121.30123, 37.94548], [-121.30563, 37.94471], [-121.30534, 37.94378], [-121.30636, 37.94361], [-121.30589, 37.94181], [-121.31178, 37.94074], [-121.31273, 37.94477], [-121.30831, 37.94567]]]}}, {"type": "Feature", "properties": {"area_id": 881, "city": "Stockton", "state": "CA", "city_survey": true, "cat": "Hazardous", "grade": "D", "label": "D3", "res": true, "com": false, "ind": false, "holc_grade": "D"}, "geometry": {"type": "Polygon", "coordinates": [[[-121.27011, 37.94768], [-121.27192, 37.94734], [-121.27166, 37.94665], [-121.27258, 37.94655], [-121.27338, 37.9498], [-121.27463, 37.94958], [-121.276, 37.9546], [-121.27218, 37.95522], [-121.27011, 37.94768]], [[-121.27452, 37.95349], [-121.27385, 37.95364], [-121.27402, 37.95427], [-121.27469, 37.95414], [-121.27452, 37.95349]]]}}, {"type": "Feature", "properties": {"area_id": 889, "city": "Stockton", "state": "CA", "city_survey": true, "cat": "Hazardous", "grade": "D", "label": "D4", "res": true, "com": false, "ind": false, "holc_grade": "D"}, "geometry": {"type": "Polygon", "coordinates": [[[-121.25451, 37.96161], [-121.254439, 37.961628], [-121.243001, 37.964524], [-121.24179, 37.96483], [-121.23912, 37.95901], [-121.240686, 37.958635], [-121.24363, 37.95793], [-121.25178, 37.95586], [-121.25201, 37.9558], [-121.252981, 37.958061], [-121.25387, 37.96013], [-121.25451, 37.96161]]]}}, {"type": "Feature", "properties": {"area_id": 892, "city": "Stockton", "state": "CA", "city_survey": true, "cat": "Hazardous", "grade": "D", "label": "D5", "res": true, "com": false, "ind": false, "holc_grade": "D"}, "geometry": {"type": "Polygon", "coordinates": [[[-121.25246, 37.95404], [-121.25108, 37.95066], [-121.25206, 37.95097], [-121.25225, 37.95151], [-121.25313, 37.95131], [-121.25363, 37.95247], [-121.2605, 37.95071], [-121.26081, 37.95144], [-121.26154, 37.95127], [-121.26188, 37.95215], [-121.26276, 37.95196], [-121.26316, 37.9529], [-121.26694, 37.95198], [-121.26665, 37.95125], [-121.26658, 37.95058], [-121.26604, 37.95065], [-121.26539, 37.94895], [-121.26791, 37.94825], [-121.26822, 37.94936], [-121.26915, 37.94925], [-121.26972, 37.95127], [-121.26841, 37.95163], [-121.26889, 37.95313], [-121.27003, 37.95294], [-121.27046, 37.95442], [-121.26744, 37.95494], [-121.26708, 37.9541], [-121.2653, 37.95455], [-121.26556, 37.95528], [-121.25646, 37.95489], [-121.25667, 37.95536], [-121.26601, 37.95603], [-121.26646, 37.95712], [-121.25387, 37.96013], [-121.252981, 37.958061], [-121.25201, 37.9558], [-121.252098, 37.955776], [-121.25313, 37.95549], [-121.25246, 37.95404]]]}}, {"type": "Feature", "properties": {"area_id": 890, "city": "Stockton", "state": "CA", "city_survey": true, "cat": "Hazardous", "grade": "D", "label": "D6", "res": true, "com": false, "ind": false, "holc_grade": "D"}, "geometry": {"type": "Polygon", "coordinates": [[[-121.2486, 37.95444], [-121.25123, 37.95461], [-121.25178, 37.95586], [-121.24363, 37.95793], [-121.24215, 37.95423], [-121.2486, 37.95444]]]}}, {"type": "Feature", "properties": {"area_id": 877, "city": "Stockton", "state": "CA", "city_survey": true, "cat": "Hazardous", "grade": "D", "label": "D7", "res": true, "com": false, "ind": false, "holc_grade": "D"}, "geometry": {"type": "Polygon", "coordinates": [[[-121.28866, 37.94098], [-121.29056, 37.9387], [-121.29588, 37.93791], [-121.29698, 37.94168], [-121.2892, 37.94295], [-121.28866, 37.94098]], [[-121.29584, 37.94044], [-121.29493, 37.94058], [-121.2951, 37.94128], [-121.29602, 37.94113], [-121.29584, 37.94044]]]}}, {"type": "Feature", "properties": {"area_id": 880, "city": "Stockton", "state": "CA", "city_survey": true, "cat": "Hazardous", "grade": "D", "label": "D8", "res": true, "com": false, "ind": false, "holc_grade": "D"}, "geometry": {"type": "Polygon", "coordinates": [[[-121.27639, 37.94099], [-121.28561, 37.93944], [-121.28684, 37.944], [-121.28624, 37.94408], [-121.28631, 37.9443], [-121.28303, 37.94483], [-121.28279, 37.94408], [-121.28132, 37.9443], [-121.28152, 37.94517], [-121.2776, 37.94576], [-121.27639, 37.94099]], [[-121.27901, 37.94401], [-121.27885, 37.94331], [-121.27796, 37.94346], [-121.27817, 37.94417], [-121.27901, 37.94401]], [[-121.28355, 37.94047], [-121.28262, 37.94063], [-121.28285, 37.94132], [-121.28373, 37.94116], [-121.28355, 37.94047]]]}}, {"type": "Feature", "properties": {"area_id": 882, "city": "Stockton", "state": "CA", "city_survey": true, "cat": "Hazardous", "grade": "D", "label": "D9", "res": true, "com": false, "ind": false, "holc_grade": "D"}, "geometry": {"type": "Polygon", "coordinates": [[[-121.26849, 37.94241], [-121.27241, 37.94172], [-121.27312, 37.94465], [-121.27173, 37.94448], [-121.27199, 37.94561], [-121.26954, 37.94604], [-121.26849, 37.94241]], [[-121.27198, 37.94349], [-121.27006, 37.94383], [-121.27025, 37.94447], [-121.27216, 37.94413], [-121.27198, 37.94349]]]}}, {"type": "Feature", "properties": {"area_id": 11146, "city": "Stockton", "state": "CA", "city_survey": true, "cat": "Commercial", "grade": null, "label": "Commercial", "res": false, "com": true, "ind": false, "holc_grade": null}, "geometry": {"type": "MultiPolygon", "coordinates": [[[[-121.25276, 37.95469], [-121.25313, 37.95549], [-121.252098, 37.955776], [-121.25201, 37.9558], [-121.25178, 37.95586], [-121.25154, 37.95532], [-121.25123, 37.95461], [-121.25113, 37.9544], [-121.251744, 37.954234], [-121.25246, 37.95404], [-121.25276, 37.95469]]], [[[-121.26556, 37.95528], [-121.26601, 37.95603], [-121.25667, 37.95536], [-121.25646, 37.95489], [-121.26556, 37.95528]]], [[[-121.26954, 37.94604], [-121.27017, 37.94593], [-121.27034, 37.94662], [-121.26928, 37.94683], [-121.26938, 37.9472], [-121.269218, 37.947221], [-121.26853, 37.94731], [-121.266942, 37.942202], [-121.26686, 37.94194], [-121.26963, 37.94142], [-121.269684, 37.941711], [-121.26977, 37.94218], [-121.26849, 37.94241], [-121.26954, 37.94604]]], [[[-121.27258, 37.94655], [-121.27166, 37.94665], [-121.27151, 37.94639], [-121.27303, 37.9462], [-121.27328, 37.94704], [-121.27439, 37.94687], [-121.27465, 37.94819], [-121.27372, 37.94834], [-121.27394, 37.949], [-121.27483, 37.94881], [-121.27531, 37.94888], [-121.27566, 37.95002], [-121.27579, 37.95111], [-121.27635, 37.95107], [-121.27703, 37.95372], [-121.277142, 37.954841], [-121.27718, 37.95522], [-121.27218, 37.95612], [-121.27202, 37.955706], [-121.27201, 37.95568], [-121.27218, 37.95522], [-121.276, 37.9546], [-121.27463, 37.94958], [-121.27338, 37.9498], [-121.27258, 37.94655]]], [[[-121.27672, 37.97203], [-121.27556, 37.97238], [-121.27499, 37.97081], [-121.27532, 37.970658], [-121.27538, 37.97063], [-121.27264, 37.96093], [-121.272937, 37.960885], [-121.27369, 37.96077], [-121.27482, 37.96519], [-121.27615, 37.96997], [-121.276174, 37.970511], [-121.27618, 37.97065], [-121.27672, 37.97203]]], [[[-121.28725, 37.93802], [-121.28948, 37.93765], [-121.29073, 37.93665], [-121.2915, 37.93701], [-121.29227, 37.93743], [-121.29374, 37.93719], [-121.29384, 37.93743], [-121.296239, 37.937087], [-121.29657, 37.93704], [-121.29779, 37.94078], [-121.298024, 37.940733], [-121.29883, 37.94057], [-121.29913, 37.94205], [-121.298353, 37.942593], [-121.29754, 37.94316], [-121.2875, 37.94473], [-121.28725, 37.94388], [-121.28684, 37.944], [-121.28561, 37.93944], [-121.27639, 37.94099], [-121.276288, 37.940599], [-121.2761, 37.93988], [-121.2786, 37.93953], [-121.28526, 37.93837], [-121.28499, 37.93737], [-121.28327, 37.93115], [-121.28306, 37.93037], [-121.28229, 37.93047], [-121.28218, 37.93016], [-121.28183, 37.92868], [-121.28148, 37.92722], [-121.282051, 37.927101], [-121.28244, 37.92702], [-121.28404, 37.93103], [-121.28506, 37.93091], [-121.28692, 37.93558], [-121.28608, 37.93574], [-121.28725, 37.93802]], [[-121.29588, 37.93791], [-121.29056, 37.9387], [-121.28866, 37.94098], [-121.2892, 37.94295], [-121.29698, 37.94168], [-121.29588, 37.93791]]], [[[-121.27856, 37.96409], [-121.2774, 37.95985], [-121.27789, 37.9598], [-121.27778, 37.95914], [-121.27713, 37.95913], [-121.2769, 37.95821], [-121.27822, 37.95802], [-121.27937, 37.96182], [-121.28017, 37.96447], [-121.281285, 37.969645], [-121.28129, 37.96967], [-121.280598, 37.969762], [-121.28001, 37.96984], [-121.2799, 37.96924], [-121.2788, 37.96482], [-121.27915, 37.96474], [-121.27896, 37.96408], [-121.27856, 37.96409]]], [[[-121.28973, 37.9502], [-121.290682, 37.953633], [-121.2912, 37.9555], [-121.28077, 37.9572], [-121.28001, 37.95462], [-121.27964, 37.95335], [-121.2802, 37.9532], [-121.27995, 37.95243], [-121.27947, 37.95251], [-121.27927, 37.95194], [-121.2866, 37.95069], [-121.28678, 37.95106], [-121.28776, 37.95085], [-121.28772, 37.95052], [-121.289119, 37.950297], [-121.28973, 37.9502]]], [[[-121.28946, 37.96903], [-121.28799, 37.96923], [-121.28794, 37.96892], [-121.28651, 37.9691], [-121.28636, 37.9688], [-121.286351, 37.968782], [-121.28617, 37.96842], [-121.28836, 37.96813], [-121.28844, 37.96836], [-121.28922, 37.96822], [-121.289241, 37.968292], [-121.28946, 37.96903]]], [[[-121.29081, 37.97544], [-121.29043, 37.97455], [-121.28998, 37.97469], [-121.28974, 37.97427], [-121.29153, 37.9739], [-121.292, 37.97517], [-121.29081, 37.97544]]], [[[-121.300147, 37.965741], [-121.30279, 37.9653], [-121.30297, 37.96592], [-121.301394, 37.966221], [-121.301327, 37.966234], [-121.300746, 37.966345], [-121.29826, 37.96682], [-121.2986, 37.96797], [-121.29892, 37.96789], [-121.29909, 37.96833], [-121.29939, 37.96916], [-121.30258, 37.97345], [-121.301908, 37.973622], [-121.30125, 37.97379], [-121.30087, 37.97332], [-121.29933, 37.97118], [-121.29828, 37.96972], [-121.29742, 37.96738], [-121.29343, 37.96803], [-121.29321, 37.96768], [-121.293195, 37.967626], [-121.29178, 37.9626], [-121.29179, 37.9626], [-121.29224, 37.96253], [-121.2921, 37.96183], [-121.29153, 37.96191], [-121.29119, 37.96071], [-121.29058, 37.96078], [-121.290356, 37.959894], [-121.2902, 37.95928], [-121.29151, 37.95802], [-121.29198, 37.9581], [-121.292389, 37.959552], [-121.2944, 37.9667], [-121.300147, 37.965741]]], [[[-121.2968, 37.97427], [-121.29703, 37.97422], [-121.29805, 37.97398], [-121.29847, 37.97502], [-121.29711, 37.9753], [-121.29649, 37.97542], [-121.29611, 37.97439], [-121.2968, 37.97427]]], [[[-121.30592, 37.95918], [-121.30581, 37.9588], [-121.3071, 37.95861], [-121.30726, 37.95896], [-121.30769, 37.96045], [-121.30643, 37.96063], [-121.30624, 37.9601], [-121.30592, 37.95918]]], [[[-121.31377, 37.96897], [-121.31473, 37.96869], [-121.31488, 37.96907], [-121.31525, 37.97006], [-121.31446, 37.97043], [-121.31412, 37.9697], [-121.31377, 37.96897]]], [[[-121.31789, 37.9591], [-121.3177, 37.95831], [-121.31879, 37.95812], [-121.31892, 37.95856], [-121.31919, 37.95951], [-121.31881, 37.95962], [-121.31805, 37.95974], [-121.31789, 37.9591]]]]}}, {"type": "Feature", "properties": {"area_id": 11147, "city": "Stockton", "state": "CA", "city_survey": true, "cat": "Industrial", "grade": null, "label": "Industrial", "res": false, "com": false, "ind": true, "holc_grade": null}, "geometry": {"type": "MultiPolygon", "coordinates": [[[[-121.3431, 37.93944], [-121.34464, 37.94096], [-121.344617, 37.941165], [-121.34456, 37.94168], [-121.3425, 37.94243], [-121.34171, 37.94296], [-121.34023, 37.94539], [-121.33738, 37.94646], [-121.33652, 37.94743], [-121.33584, 37.94973], [-121.33461, 37.95111], [-121.33232, 37.94947], [-121.33132, 37.94955], [-121.3338, 37.95122], [-121.32704, 37.95181], [-121.32122, 37.95212], [-121.31947, 37.95082], [-121.31626, 37.95089], [-121.31551, 37.95107], [-121.31433, 37.95222], [-121.31394, 37.95216], [-121.31386, 37.95054], [-121.3129, 37.9494], [-121.31117, 37.94893], [-121.30974, 37.94889], [-121.30715, 37.94932], [-121.3058, 37.94938], [-121.30504, 37.94975], [-121.30343, 37.95059], [-121.30351, 37.95114], [-121.30488, 37.95033], [-121.3059, 37.94986], [-121.30731, 37.94973], [-121.30799, 37.94986], [-121.30963, 37.94936], [-121.31172, 37.94953], [-121.3129, 37.95043], [-121.31342, 37.95152], [-121.31313, 37.95272], [-121.31271, 37.95317], [-121.3065, 37.9528], [-121.305879, 37.952841], [-121.30379, 37.95298], [-121.30395, 37.954], [-121.3058, 37.95364], [-121.309913, 37.953778], [-121.31146, 37.95383], [-121.32107, 37.95323], [-121.33297, 37.95229], [-121.33626, 37.952], [-121.338478, 37.952142], [-121.33939, 37.9522], [-121.34406, 37.95377], [-121.34401, 37.953814], [-121.34333, 37.95441], [-121.33353, 37.95638], [-121.33303, 37.95434], [-121.32689, 37.95542], [-121.32637, 37.95475], [-121.32571, 37.95437], [-121.32485, 37.95421], [-121.32297, 37.95411], [-121.32055, 37.95406], [-121.31924, 37.95411], [-121.31741, 37.95432], [-121.31525, 37.95454], [-121.312253, 37.954908], [-121.31142, 37.95501], [-121.31171, 37.95576], [-121.31104, 37.95587], [-121.3098, 37.95608], [-121.30945, 37.95516], [-121.30427, 37.95606], [-121.295206, 37.95762], [-121.29381, 37.95786], [-121.29355, 37.95674], [-121.29198, 37.9581], [-121.29151, 37.95802], [-121.2902, 37.95928], [-121.28965, 37.9594], [-121.28944, 37.95867], [-121.2868, 37.95904], [-121.287201, 37.960432], [-121.2878, 37.96251], [-121.28677, 37.96271], [-121.28556, 37.96282], [-121.28503, 37.96095], [-121.28192, 37.96141], [-121.28132, 37.96323], [-121.282917, 37.969367], [-121.28292, 37.96938], [-121.282108, 37.969522], [-121.28183, 37.96957], [-121.28129, 37.96967], [-121.281285, 37.969645], [-121.28017, 37.96447], [-121.27937, 37.96182], [-121.27822, 37.95802], [-121.2769, 37.95821], [-121.27556, 37.95845], [-121.27583, 37.95962], [-121.2752, 37.95971], [-121.27538, 37.96048], [-121.27369, 37.96077], [-121.272937, 37.960885], [-121.27264, 37.96093], [-121.27538, 37.97063], [-121.27532, 37.970658], [-121.27499, 37.97081], [-121.27416, 37.97093], [-121.27348, 37.97107], [-121.270611, 37.971515], [-121.27026, 37.97157], [-121.26779, 37.96533], [-121.26659, 37.96186], [-121.26789, 37.96165], [-121.26711, 37.9598], [-121.26385, 37.96023], [-121.26406, 37.96101], [-121.261726, 37.961543], [-121.25513, 37.96305], [-121.25455, 37.961702], [-121.25451, 37.96161], [-121.25387, 37.96013], [-121.26646, 37.95712], [-121.26601, 37.95603], [-121.26556, 37.95528], [-121.2653, 37.95455], [-121.26708, 37.9541], [-121.26744, 37.95494], [-121.27046, 37.95442], [-121.27003, 37.95294], [-121.26889, 37.95313], [-121.26841, 37.95163], [-121.26972, 37.95127], [-121.26915, 37.94925], [-121.26822, 37.94936], [-121.26791, 37.94825], [-121.26539, 37.94895], [-121.26604, 37.95065], [-121.26266, 37.95163], [-121.26276, 37.95196], [-121.26188, 37.95215], [-121.26154, 37.95127], [-121.26081, 37.95144], [-121.2605, 37.95071], [-121.25363, 37.95247], [-121.25313, 37.95131], [-121.25225, 37.95151], [-121.25206, 37.95097], [-121.25108, 37.95066], [-121.250614, 37.950492], [-121.24894, 37.94989], [-121.249167, 37.94983], [-121.25672, 37.94784], [-121.25662, 37.94732], [-121.26072, 37.94635], [-121.26135, 37.94814], [-121.26505, 37.94728], [-121.26541, 37.9472], [-121.26828, 37.94767], [-121.26853, 37.94731], [-121.269218, 37.947221], [-121.26938, 37.9472], [-121.26954, 37.94774], [-121.27011, 37.94768], [-121.27218, 37.95522], [-121.27201, 37.95568], [-121.27202, 37.955706], [-121.27218, 37.95612], [-121.27718, 37.95522], [-121.277142, 37.954841], [-121.27703, 37.95372], [-121.27635, 37.95107], [-121.27579, 37.95111], [-121.27566, 37.95002], [-121.27531, 37.94888], [-121.27483, 37.94881], [-121.27465, 37.94819], [-121.27439, 37.94687], [-121.27328, 37.94704], [-121.27303, 37.9462], [-121.27151, 37.94639], [-121.27034, 37.94662], [-121.27017, 37.94593], [-121.27199, 37.94561], [-121.27173, 37.94448], [-121.27312, 37.94465], [-121.27241, 37.94172], [-121.26977, 37.94218], [-121.269684, 37.941711], [-121.26963, 37.94142], [-121.27073, 37.94131], [-121.26988, 37.93889], [-121.27121, 37.93855], [-121.26917, 37.93337], [-121.27128, 37.93299], [-121.26986, 37.92819], [-121.27009, 37.92772], [-121.26869, 37.92441], [-121.274124, 37.923513], [-121.27929, 37.92266], [-121.28133, 37.927], [-121.27946, 37.9274], [-121.27442, 37.92863], [-121.27434, 37.92953], [-121.27525, 37.93154], [-121.27431, 37.93182], [-121.27419, 37.93351], [-121.27518, 37.9368], [-121.27462, 37.93689], [-121.27502, 37.93816], [-121.27414, 37.93838], [-121.27447, 37.94019], [-121.2761, 37.93988], [-121.276288, 37.940599], [-121.27639, 37.94099], [-121.2776, 37.94576], [-121.28152, 37.94517], [-121.28132, 37.9443], [-121.28279, 37.94408], [-121.28303, 37.94483], [-121.28622, 37.94432], [-121.2864, 37.94496], [-121.2875, 37.94473], [-121.29754, 37.94316], [-121.298353, 37.942593], [-121.29913, 37.94205], [-121.29883, 37.94057], [-121.30653, 37.93919], [-121.3072, 37.94157], [-121.30589, 37.94181], [-121.30636, 37.94361], [-121.30534, 37.94378], [-121.30563, 37.94471], [-121.30123, 37.94548], [-121.30187, 37.94781], [-121.30308, 37.94835], [-121.30384, 37.94842], [-121.30879, 37.94756], [-121.30872, 37.9473], [-121.31107, 37.947], [-121.31647, 37.94909], [-121.33159, 37.94805], [-121.33514, 37.94397], [-121.33454, 37.9401], [-121.335478, 37.938555], [-121.33553, 37.93847], [-121.33655, 37.93874], [-121.34023, 37.93839], [-121.34216, 37.93868], [-121.3431, 37.93944]], [[-121.27375, 37.95963], [-121.27278, 37.9598], [-121.27299, 37.9606], [-121.27399, 37.96046], [-121.27375, 37.95963]], [[-121.289119, 37.950297], [-121.28772, 37.95052], [-121.28763, 37.95008], [-121.28653, 37.95027], [-121.2866, 37.95069], [-121.27927, 37.95194], [-121.27947, 37.95251], [-121.27898, 37.95263], [-121.2792, 37.95342], [-121.27964, 37.95335], [-121.28001, 37.95462], [-121.28077, 37.9572], [-121.2912, 37.9555], [-121.290682, 37.953633], [-121.28973, 37.9502], [-121.289119, 37.950297]], [[-121.28189, 37.9491], [-121.28082, 37.94926], [-121.28104, 37.94996], [-121.28204, 37.94979], [-121.28189, 37.9491]], [[-121.29154, 37.95017], [-121.29143, 37.94951], [-121.29049, 37.94964], [-121.29057, 37.9503], [-121.29154, 37.95017]], [[-121.29577, 37.95036], [-121.29565, 37.94977], [-121.29465, 37.94995], [-121.2948, 37.95046], [-121.29577, 37.95036]]], [[[-121.28218, 37.93016], [-121.28152, 37.92985], [-121.28034, 37.93009], [-121.28003, 37.92915], [-121.28183, 37.92868], [-121.28218, 37.93016]]]]}}]}