{"type": "FeatureCollection", "features": [{"type": "Feature", "geometry": {"type": "Point", "coordinates": [-121.31, 37.946111]}, "properties": {"facility_name": "DURAFLAME WEST", "industry": null, "tri_facility_id": "95201CLFRN1340W"}}, {"type": "Feature", "geometry": {"type": "Point", "coordinates": [-121.289475, 37.948582]}, "properties": {"facility_name": "MORTON PAINT CO", "industry": null, "tri_facility_id": "95201MRTNP38WES"}}, {"type": "Feature", "geometry": {"type": "Point", "coordinates": [-121.324722, 37.954444]}, "properties": {"facility_name": "ASCO POWER TECHNOLOGIES LP", "industry": null, "tri_facility_id": "95201TMTCS705NO"}}, {"type": "Feature", "geometry": {"type": "Point", "coordinates": [-121.3131, 37.9525]}, "properties": {"facility_name": "WESTWAY FEED PRODUCTS LLC", "industry": null, "tri_facility_id": "95203CRGLLPORTO"}}, {"type": "Feature", "geometry": {"type": "Point", "coordinates": [-121.321389, 37.955556]}, "properties": {"facility_name": "TYCO PRINTED CIRCUIT GROUP STOCKTON MAIN SITE", "industry": null, "tri_facility_id": "95203CTTNC1950W"}}, {"type": "Feature", "geometry": {"type": "Point", "coordinates": [-121.3175, 37.955]}, "properties": {"facility_name": "TYCO PRINTED CIRCUIT GROUP STOCKTON CORE BUILDING", "industry": null, "tri_facility_id": "95203CTTNN1848F"}}, {"type": "Feature", "geometry": {"type": "Point", "coordinates": [-121.294444, 37.95]}, "properties": {"facility_name": "NEWARK SIERRA PAPERBOARD", "industry": null, "tri_facility_id": "95203GLDBN800WC"}}, {"type": "Feature", "geometry": {"type": "Point", "coordinates": [-121.29, 37.949722]}, "properties": {"facility_name": "MCCORMICK & BAXTER CREOSOTING, CO", "industry": null, "tri_facility_id": "95203MCCRM1214W"}}, {"type": "Feature", "geometry": {"type": "Point", "coordinates": [-121.28583333333333, 37.94583333333333]}, "properties": {"facility_name": "MARBLE PALACE", "industry": null, "tri_facility_id": "95203MRBLP711SS"}}, {"type": "Feature", "geometry": {"type": "Point", "coordinates": [-121.3261111111111, 37.94499999999999]}, "properties": {"facility_name": "POSDEF POWER CO LP", "industry": null, "tri_facility_id": "95203PSDFP2526W"}}, {"type": "Feature", "geometry": {"type": "Point", "coordinates": [-121.34555555555555, 37.95055555555556]}, "properties": {"facility_name": "EQUILON STOCKTON TERMINAL", "industry": null, "tri_facility_id": "95203QLNST3515N"}}, {"type": "Feature", "geometry": {"type": "Point", "coordinates": [-121.33, 37.94]}, "properties": {"facility_name": "BP STOCKTON TERMINAL", "industry": null, "tri_facility_id": "95203RCPRD2700W"}}, {"type": "Feature", "geometry": {"type": "Point", "coordinates": [-121.33527777777778, 37.94416666666666]}, "properties": {"facility_name": "LESCO INC STOCKTON PLANT", "industry": null, "tri_facility_id": "95203TRDLT2829W"}}, {"type": "Feature", "geometry": {"type": "Point", "coordinates": [-121.22888888888889, 37.9325]}, "properties": {"facility_name": "CALIFORNIA SPRAY DRY COMPANY", "industry": null, "tri_facility_id": "95205CLFRN4221E"}}, {"type": "Feature", "geometry": {"type": "Point", "coordinates": [-121.23333333333333, 37.9]}, "properties": {"facility_name": "FMC/FRANRICA", "industry": null, "tri_facility_id": "95205FMCFR2807S"}}, {"type": "Feature", "geometry": {"type": "Point", "coordinates": [-121.261389, 37.944444]}, "properties": {"facility_name": "ELDORADO CHEMICAL CO INC", "industry": null, "tri_facility_id": "95205LDRDC1805E"}}, {"type": "Feature", "geometry": {"type": "Point", "coordinates": [-121.226111, 37.971944]}, "properties": {"facility_name": "MARLEY COOLING TOWER CO", "industry": null, "tri_facility_id": "95205MRLYC150NO"}}, {"type": "Feature", "geometry": {"type": "Point", "coordinates": [-121.286944, 37.953611]}, "properties": {"facility_name": "QUALITY ASSURED PACKING INC", "industry": null, "tri_facility_id": "95205QLTYS2851N"}}, {"type": "Feature", "geometry": {"type": "Point", "coordinates": [-121.267778, 37.971667]}, "properties": {"facility_name": "LIPTON", "industry": null, "tri_facility_id": "95205RGFDS1400E"}}, {"type": "Feature", "geometry": {"type": "Point", "coordinates": [-121.280094, 37.977989]}, "properties": {"facility_name": "SUMIDEN WIRE PRODS CORP", "industry": null, "tri_facility_id": "95205SMDNW1412E"}}, {"type": "Feature", "geometry": {"type": "Point", "coordinates": [-121.215278, 38.002778]}, "properties": {"facility_name": "GAF MATERIALS MFG LLC", "industry": null, "tri_facility_id": "95205SNTCN6828E"}}, {"type": "Feature", "geometry": {"type": "Point", "coordinates": [-121.27833333333334, 37.919444444444444]}, "properties": {"facility_name": "BULK TRANSPORTATION STOCKTON TERMINAL", "industry": null, "tri_facility_id": "95206BLKTR332SE"}}, {"type": "Feature", "geometry": {"type": "Point", "coordinates": [-121.27801, 37.898297]}, "properties": {"facility_name": "CIRCUIT WORKS INC", "industry": null, "tri_facility_id": "95206CRCTW152FR"}}, {"type": "Feature", "geometry": {"type": "Point", "coordinates": [-121.270556, 37.908333]}, "properties": {"facility_name": "CARGILL INC", "industry": null, "tri_facility_id": "95206CRGLL3939P"}}, {"type": "Feature", "geometry": {"type": "Point", "coordinates": [-121.27555555555556, 37.90833333333333]}, "properties": {"facility_name": "CARGILL FEED & NUTRITION STOCKTON", "industry": null, "tri_facility_id": "95206CRGLL4344S"}}, {"type": "Feature", "geometry": {"type": "Point", "coordinates": [-121.261389, 37.912778]}, "properties": {"facility_name": "INGREDION INC", "industry": null, "tri_facility_id": "95206CRNPR1021I"}}, {"type": "Feature", "geometry": {"type": "Point", "coordinates": [-121.220556, 37.909444]}, "properties": {"facility_name": "DOPACO INC", "industry": null, "tri_facility_id": "95206DPCNC4545Q"}}, {"type": "Feature", "geometry": {"type": "Point", "coordinates": [-121.283333, 37.95]}, "properties": {"facility_name": "HUBBARD MILLING CO", "industry": null, "tri_facility_id": "95206HBBRD2422S"}}, {"type": "Feature", "geometry": {"type": "Point", "coordinates": [-121.278105, 37.924148]}, "properties": {"facility_name": "HEINZ USA", "industry": null, "tri_facility_id": "95206HJHNZ2800S"}}, {"type": "Feature", "geometry": {"type": "Point", "coordinates": [-121.3057, 37.9375]}, "properties": {"facility_name": "VIKTRON CALIFORNIA", "industry": null, "tri_facility_id": "95206LKCRP1443N"}}, {"type": "Feature", "geometry": {"type": "Point", "coordinates": [-121.27111111111111, 37.906388888888884]}, "properties": {"facility_name": "GAF LEATHERBACK CORP", "industry": null, "tri_facility_id": "95206LTHRB248IN"}}, {"type": "Feature", "geometry": {"type": "Point", "coordinates": [-121.2628, 37.9097]}, "properties": {"facility_name": "UNIVERSAL-RUNDLE CORP", "industry": null, "tri_facility_id": "95206NVRSL950IN"}}, {"type": "Feature", "geometry": {"type": "Point", "coordinates": [-121.32233, 37.9376]}, "properties": {"facility_name": "SCHUFF STEEL CO", "industry": null, "tri_facility_id": "95206PDMST2324N"}}, {"type": "Feature", "geometry": {"type": "Point", "coordinates": [-121.261667, 37.918889]}, "properties": {"facility_name": "APPLIED AEROSPACE STRUCTURES CORP.", "industry": null, "tri_facility_id": "95206PRSNS3437S"}}, {"type": "Feature", "geometry": {"type": "Point", "coordinates": [-121.311974, 37.9376]}, "properties": {"facility_name": "SILGAN CONTAINER MANUFACTURING CORP.", "industry": null, "tri_facility_id": "95206SLGNC1815N"}}, {"type": "Feature", "geometry": {"type": "Point", "coordinates": [-121.27833333333334, 37.8975]}, "properties": {"facility_name": "AISIN ELECTRONICS INC.", "industry": null, "tri_facility_id": "95206SNLCT199FR"}}, {"type": "Feature", "geometry": {"type": "Point", "coordinates": [-121.25861111111111, 37.911944444444444]}, "properties": {"facility_name": "AIR PRODUCTS MANUFACTURING CORPORATION - STOCKTON COGEN", "industry": null, "tri_facility_id": "95206STCKT1010Z"}}, {"type": "Feature", "geometry": {"type": "Point", "coordinates": [-121.286943, 37.946072]}, "properties": {"facility_name": "STOCKTON PLATING", "industry": null, "tri_facility_id": "95206STCKT632SE"}}, {"type": "Feature", "geometry": {"type": "Point", "coordinates": [-121.342636, 37.949932]}, "properties": {"facility_name": "VALLEY TOMATO PRODUCTS INC", "industry": null, "tri_facility_id": "95206VLLYT760IN"}}, {"type": "Feature", "geometry": {"type": "Point", "coordinates": [-121.268414, 37.898113]}, "properties": {"facility_name": "VALIMET INC", "industry": null, "tri_facility_id": "95206VLMTN431SP"}}, {"type": "Feature", "geometry": {"type": "Point", "coordinates": [-121.238611, 37.978056]}, "properties": {"facility_name": "CHEMSTATION OF NORTHERN CALIFORNIA", "industry": null, "tri_facility_id": "95208SCXXX1448S"}}, {"type": "Feature", "geometry": {"type": "Point", "coordinates": [-121.27701, 38.0212]}, "properties": {"facility_name": "STOCKTON STEEL", "industry": null, "tri_facility_id": "95208STCKT3003E"}}, {"type": "Feature", "geometry": {"type": "Point", "coordinates": [-121.2517, 37.9632]}, "properties": {"facility_name": "DEL MONTE FOODS PLANT #33 & PLANT #233", "industry": null, "tri_facility_id": "95213DLMNT2716E"}}, {"type": "Feature", "geometry": {"type": "Point", "coordinates": [-121.22222222222223, 37.931666666666665]}, "properties": {"facility_name": "A&A CONCRETE SUPPLY INC STOCKTON PLANT", "industry": null, "tri_facility_id": "95215CNCRT435EM"}}]}