{"type": "FeatureCollection", "features": [{"type": "Feature", "geometry": {"type": "Point", "coordinates": [-122.251944, 37.7925]}, "properties": {"facility_name": "PENNZOIL-QUAKER STATE CO", "industry": null, "tri_facility_id": "94501PNNZL2015G"}}, {"type": "Feature", "geometry": {"type": "Point", "coordinates": [-122.26888888888888, 37.781666666666666]}, "properties": {"facility_name": "BIONEER INC", "industry": null, "tri_facility_id": "94501QGNPR1000A"}}, {"type": "Feature", "geometry": {"type": "Point", "coordinates": [-122.315556, 37.786111]}, "properties": {"facility_name": "US NAVY NAVAL AIR STATION ALAMEDA", "industry": null, "tri_facility_id": "94501SDDNV250MA"}}, {"type": "Feature", "geometry": {"type": "Point", "coordinates": [-122.255556, 37.775]}, "properties": {"facility_name": "SKS DIE CASTING INC.", "industry": null, "tri_facility_id": "94501SKSDC1849O"}}, {"type": "Feature", "geometry": {"type": "Point", "coordinates": [-122.0825, 37.6746]}, "properties": {"facility_name": "ANCHOR GLASS CONTAINER CORP", "industry": null, "tri_facility_id": "94541NCHRG22302"}}, {"type": "Feature", "geometry": {"type": "Point", "coordinates": [-122.10972222222222, 37.6725]}, "properties": {"facility_name": "OWENS-BROCKWAY GLASS CONTAINER INC PLANT 52", "industry": null, "tri_facility_id": "94541WNSBR22302"}}, {"type": "Feature", "geometry": {"type": "Point", "coordinates": [-122.07944444444443, 37.66861111111111]}, "properties": {"facility_name": "GEMS IMATRON - HAYWARD", "industry": null, "tri_facility_id": "94544GMSMT31047"}}, {"type": "Feature", "geometry": {"type": "Point", "coordinates": [-122.133333, 37.666667]}, "properties": {"facility_name": "PHOTO MILLING INC", "industry": null, "tri_facility_id": "94545PHTML2437R"}}, {"type": "Feature", "geometry": {"type": "Point", "coordinates": [-122.133333, 37.666667]}, "properties": {"facility_name": "QMECT INC", "industry": null, "tri_facility_id": "94545QMCTN25020"}}, {"type": "Feature", "geometry": {"type": "Point", "coordinates": [-122.179722, 37.721389]}, "properties": {"facility_name": "BENKISER ELECTRIC", "industry": null, "tri_facility_id": "94577BNKSR527WH"}}, {"type": "Feature", "geometry": {"type": "Point", "coordinates": [-122.1624, 37.695262]}, "properties": {"facility_name": "COCA-COLA BOTTLING CO OF CALIFORNIA", "industry": null, "tri_facility_id": "94577CCCLB14655"}}, {"type": "Feature", "geometry": {"type": "Point", "coordinates": [-122.16083333333334, 37.70472222222222]}, "properties": {"facility_name": "PEGGY S. LANE INC (DBA CULTURED MARBLE) PRODUCTS", "industry": null, "tri_facility_id": "94577CLTRD2701M"}}, {"type": "Feature", "geometry": {"type": "Point", "coordinates": [-122.18, 37.718889]}, "properties": {"facility_name": "INX INTERNATIONAL INK CO", "industry": null, "tri_facility_id": "94577CMPRN1000B"}}, {"type": "Feature", "geometry": {"type": "Point", "coordinates": [-122.170278, 37.702778]}, "properties": {"facility_name": "CROWN BEVERAGE PACKAGING INC PLANT #481", "industry": null, "tri_facility_id": "94577CNTNN1951F"}}, {"type": "Feature", "geometry": {"type": "Point", "coordinates": [-122.177778, 37.71]}, "properties": {"facility_name": "FXI INC", "industry": null, "tri_facility_id": "94577CRNND2451P"}}, {"type": "Feature", "geometry": {"type": "Point", "coordinates": [-122.18916666666667, 37.722500000000004]}, "properties": {"facility_name": "CAST ALUMINUM & BRASS", "industry": null, "tri_facility_id": "94577CSTLM667WH"}}, {"type": "Feature", "geometry": {"type": "Point", "coordinates": [-122.164444, 37.719722]}, "properties": {"facility_name": "GEORGIA PACIFIC GYPSUM LLC", "industry": null, "tri_facility_id": "94577DMTRG1988M"}}, {"type": "Feature", "geometry": {"type": "Point", "coordinates": [-122.153763, 37.709564]}, "properties": {"facility_name": "THOMAS OUTDOOR LIGHTING", "industry": null, "tri_facility_id": "94577GRDCL2661A"}}, {"type": "Feature", "geometry": {"type": "Point", "coordinates": [-122.171389, 37.709444]}, "properties": {"facility_name": "HARBOR UNIVERSAL INC", "industry": null, "tri_facility_id": "94577HRBRN1900M"}}, {"type": "Feature", "geometry": {"type": "Point", "coordinates": [-122.193056, 37.7]}, "properties": {"facility_name": "JAMES RIVER II INC", "industry": null, "tri_facility_id": "94577JMSRV2101W"}}, {"type": "Feature", "geometry": {"type": "Point", "coordinates": [-122.15555555555557, 37.711111111111116]}, "properties": {"facility_name": "JPS PACKAGING CO", "industry": null, "tri_facility_id": "94577JPSPC2450A"}}, {"type": "Feature", "geometry": {"type": "Point", "coordinates": [-122.162222, 37.717778]}, "properties": {"facility_name": "KELLOGG CO", "industry": null, "tri_facility_id": "94577KLLGG2040W"}}, {"type": "Feature", "geometry": {"type": "Point", "coordinates": [-122.171111, 37.699444]}, "properties": {"facility_name": "LATCHFORD GLASS CO PLANT 1", "industry": null, "tri_facility_id": "94577LTCHF1940F"}}, {"type": "Feature", "geometry": {"type": "Point", "coordinates": [-122.171667, 37.745]}, "properties": {"facility_name": "MODERN MODE INC", "industry": null, "tri_facility_id": "94577MDRNM111SA"}}, {"type": "Feature", "geometry": {"type": "Point", "coordinates": [-122.1771, 37.7092]}, "properties": {"facility_name": "AMERICAN NATIONAL CAN CO", "industry": null, "tri_facility_id": "94577MRCNN2050W"}}, {"type": "Feature", "geometry": {"type": "Point", "coordinates": [-122.147222, 37.7125]}, "properties": {"facility_name": "MAR'S ENGINEERING CO", "industry": null, "tri_facility_id": "94577MRSNG699MO"}}, {"type": "Feature", "geometry": {"type": "Point", "coordinates": [-122.17, 37.704167]}, "properties": {"facility_name": "SUN CHEMICAL CORP US INK DIV", "industry": null, "tri_facility_id": "94577NTDST14465"}}, {"type": "Feature", "geometry": {"type": "Point", "coordinates": [-122.190278, 37.723056]}, "properties": {"facility_name": "PCC STRUCTURALS-SAN LEANDRO", "industry": null, "tri_facility_id": "94577PRCSN414HE"}}, {"type": "Feature", "geometry": {"type": "Point", "coordinates": [-122.162222, 37.717778]}, "properties": {"facility_name": "AERVOE-PACIFIC CO INC", "industry": null, "tri_facility_id": "94577RVPCF2424M"}}, {"type": "Feature", "geometry": {"type": "Point", "coordinates": [-122.151667, 37.708889]}, "properties": {"facility_name": "US CAN CO SAN LEANDRO PLANT #3", "industry": null, "tri_facility_id": "94577SCNCM2756A"}}, {"type": "Feature", "geometry": {"type": "Point", "coordinates": [-122.191542, 37.723671]}, "properties": {"facility_name": "SAFEWAY MILK PLANT", "industry": null, "tri_facility_id": "94577SFWYS2000A"}}, {"type": "Feature", "geometry": {"type": "Point", "coordinates": [-122.148333, 37.704444]}, "properties": {"facility_name": "BINGHAM CO", "industry": null, "tri_facility_id": "94577SMLBN835FR"}}, {"type": "Feature", "geometry": {"type": "Point", "coordinates": [-122.171816, 37.703321]}, "properties": {"facility_name": "SQUARE D CO", "industry": null, "tri_facility_id": "94577SQRDX1998R"}}, {"type": "Feature", "geometry": {"type": "Point", "coordinates": [-122.168333, 37.7025]}, "properties": {"facility_name": "TRIANGLE COATINGS INC", "industry": null, "tri_facility_id": "94577TRNGL1930F"}}, {"type": "Feature", "geometry": {"type": "Point", "coordinates": [-122.185556, 37.716667]}, "properties": {"facility_name": "W.R. GRACE & CO. - CONN., DAREX", "industry": null, "tri_facility_id": "94577WRGRC2140D"}}, {"type": "Feature", "geometry": {"type": "Point", "coordinates": [-122.16083333333334, 37.70472222222222]}, "properties": {"facility_name": "CULTURED MARBLE PRODS", "industry": null, "tri_facility_id": "94578CLTRD751B1"}}, {"type": "Feature", "geometry": {"type": "Point", "coordinates": [-122.21666666666667, 37.76972222222222]}, "properties": {"facility_name": "B & P MARBLE INC", "industry": null, "tri_facility_id": "94601BPMRB10444"}}, {"type": "Feature", "geometry": {"type": "Point", "coordinates": [-122.226389, 37.775278]}, "properties": {"facility_name": "CLEVELAND STEEL CONTAINER CORP", "industry": null, "tri_facility_id": "94601BWNRT3100E"}}, {"type": "Feature", "geometry": {"type": "Point", "coordinates": [-122.25, 37.783333]}, "properties": {"facility_name": "CALIFORNIA / WASHINGTON CAN CORP", "industry": null, "tri_facility_id": "94601DLMNT3100E"}}, {"type": "Feature", "geometry": {"type": "Point", "coordinates": [-122.230556, 37.769444]}, "properties": {"facility_name": "GOLD SEAL PLATING", "industry": null, "tri_facility_id": "94601GLDSL3125E"}}, {"type": "Feature", "geometry": {"type": "Point", "coordinates": [-122.232778, 37.772222]}, "properties": {"facility_name": "GILRO STAMPING CO", "industry": null, "tri_facility_id": "94601GLRST2915F"}}, {"type": "Feature", "geometry": {"type": "Point", "coordinates": [-122.210241, 37.768049]}, "properties": {"facility_name": "GAROCO LIGHTING INC", "industry": null, "tri_facility_id": "94601GRCLG4901E"}}, {"type": "Feature", "geometry": {"type": "Point", "coordinates": [-122.2172, 37.7774]}, "properties": {"facility_name": "AN-FO MANUFACTURING CO INC", "industry": null, "tri_facility_id": "94601NFMNF3129E"}}, {"type": "Feature", "geometry": {"type": "Point", "coordinates": [-122.215278, 37.766111]}, "properties": {"facility_name": "PACIFIC GALVANIZING INC.", "industry": null, "tri_facility_id": "94601PCFCG71546"}}, {"type": "Feature", "geometry": {"type": "Point", "coordinates": [-122.216389, 37.772222]}, "properties": {"facility_name": "PRESSURE CAST PRODUCTS CORP", "industry": null, "tri_facility_id": "94601PRSSR4210E"}}, {"type": "Feature", "geometry": {"type": "Point", "coordinates": [-122.232778, 37.772222]}, "properties": {"facility_name": "ESPOSITO PLATING & POLISHING CO", "industry": null, "tri_facility_id": "94601SPSTP2904C"}}, {"type": "Feature", "geometry": {"type": "Point", "coordinates": [-122.177222, 37.736111]}, "properties": {"facility_name": "CORNNUTS INC", "industry": null, "tri_facility_id": "94603CRNNT10229"}}, {"type": "Feature", "geometry": {"type": "Point", "coordinates": [-122.178333, 37.740556]}, "properties": {"facility_name": "FLEISCHMANN'S YEAST", "industry": null, "tri_facility_id": "94603FLSCH92198"}}, {"type": "Feature", "geometry": {"type": "Point", "coordinates": [-122.178333, 37.740278]}, "properties": {"facility_name": "NABISCO INC FLEISCHMANN'S CO", "industry": null, "tri_facility_id": "94603NBSCB92198"}}, {"type": "Feature", "geometry": {"type": "Point", "coordinates": [-122.1585, 37.7089]}, "properties": {"facility_name": "NATIONAL AIRMOTIVE CORP", "industry": null, "tri_facility_id": "94603NTNLR7200L"}}, {"type": "Feature", "geometry": {"type": "Point", "coordinates": [-122.269, 37.8095]}, "properties": {"facility_name": "AMERICAN NATIONAL CAN CO", "industry": null, "tri_facility_id": "94604MRCNN3801E"}}, {"type": "Feature", "geometry": {"type": "Point", "coordinates": [-122.241944, 37.779444]}, "properties": {"facility_name": "ROCHESTER MIDLAND BYTECH CHEMICAL DIV", "industry": null, "tri_facility_id": "94606RCHST1905D"}}, {"type": "Feature", "geometry": {"type": "Point", "coordinates": [-122.233056, 37.778611]}, "properties": {"facility_name": "E T HORN CO", "industry": null, "tri_facility_id": "94606THRNX2135F"}}, {"type": "Feature", "geometry": {"type": "Point", "coordinates": [-122.3, 37.833333]}, "properties": {"facility_name": "ACME GALVANIZING CO INC", "industry": null, "tri_facility_id": "94607CMGLV16551"}}, {"type": "Feature", "geometry": {"type": "Point", "coordinates": [-122.285861, 37.821008]}, "properties": {"facility_name": "CUSTOM ALLOY SCRAP & SALES", "industry": null, "tri_facility_id": "94607CSTML2730P"}}, {"type": "Feature", "geometry": {"type": "Point", "coordinates": [-122.276944, 37.796667]}, "properties": {"facility_name": "E-D COAT INC.", "industry": null, "tri_facility_id": "94607DCTCM7154T"}}, {"type": "Feature", "geometry": {"type": "Point", "coordinates": [-122.2825, 37.813889]}, "properties": {"facility_name": "FRANCIS PLATING OF OAKLAND INC", "industry": null, "tri_facility_id": "94607FRNCS785SE"}}, {"type": "Feature", "geometry": {"type": "Point", "coordinates": [-122.300833, 37.812778]}, "properties": {"facility_name": "GLOBE METALS CO", "industry": null, "tri_facility_id": "94607GLBMT18201"}}, {"type": "Feature", "geometry": {"type": "Point", "coordinates": [-122.292778, 37.804444]}, "properties": {"facility_name": "LESAFFRE YEAST CORP", "industry": null, "tri_facility_id": "94607RDSTR13845"}}, {"type": "Feature", "geometry": {"type": "Point", "coordinates": [-122.2801, 37.8154]}, "properties": {"facility_name": "SAFEWAY STORES INC, ICE CREAM PLANT", "industry": null, "tri_facility_id": "94607SFWYS2240F"}}, {"type": "Feature", "geometry": {"type": "Point", "coordinates": [-122.30222222222221, 37.830000000000005]}, "properties": {"facility_name": "US ARMY RESERVE CENTER OAKLAND", "industry": null, "tri_facility_id": "94607SRMYR24ENG"}}, {"type": "Feature", "geometry": {"type": "Point", "coordinates": [-122.3, 37.85]}, "properties": {"facility_name": "BARBARY COAST STEEL CORP", "industry": null, "tri_facility_id": "94608BRBRY4300E"}}, {"type": "Feature", "geometry": {"type": "Point", "coordinates": [-122.286944, 37.831667]}, "properties": {"facility_name": "CHARLES LOWE CO CHROMEX DIV", "industry": null, "tri_facility_id": "94608CHRLS1400P"}}, {"type": "Feature", "geometry": {"type": "Point", "coordinates": [-122.286111, 37.8375]}, "properties": {"facility_name": "NOVARTIS VACCINES & DIAGNOSTICS INC", "industry": null, "tri_facility_id": "94608CHRNC4560H"}}, {"type": "Feature", "geometry": {"type": "Point", "coordinates": [-122.2924, 37.8488]}, "properties": {"facility_name": "CLEARPRINT PAPER CO", "industry": null, "tri_facility_id": "94608CLRPR14826"}}, {"type": "Feature", "geometry": {"type": "Point", "coordinates": [-122.295833, 37.85]}, "properties": {"facility_name": "COULTER STEEL & FORGE CO", "industry": null, "tri_facility_id": "94608CLTRS14946"}}, {"type": "Feature", "geometry": {"type": "Point", "coordinates": [-122.283333, 37.833333]}, "properties": {"facility_name": "DEL MONTE FOODS, PLANT #35", "industry": null, "tri_facility_id": "94608DLMNT1250P"}}, {"type": "Feature", "geometry": {"type": "Point", "coordinates": [-122.274167, 37.835833]}, "properties": {"facility_name": "FLECTO CO INC", "industry": null, "tri_facility_id": "94608FLCTC10004"}}, {"type": "Feature", "geometry": {"type": "Point", "coordinates": [-122.276667, 37.832222]}, "properties": {"facility_name": "FRANK W DUNNE CO", "industry": null, "tri_facility_id": "94608FRNKW10074"}}, {"type": "Feature", "geometry": {"type": "Point", "coordinates": [-122.29, 37.846667]}, "properties": {"facility_name": "GEO M MARTIN CO", "industry": null, "tri_facility_id": "94608GMMRT12506"}}, {"type": "Feature", "geometry": {"type": "Point", "coordinates": [-122.285833, 37.830833]}, "properties": {"facility_name": "ELECTRO-COATINGS INC", "industry": null, "tri_facility_id": "94608LCTRC1421P"}}, {"type": "Feature", "geometry": {"type": "Point", "coordinates": [-122.304167, 37.833333]}, "properties": {"facility_name": "ELEMENTIS PIGMENTS INC", "industry": null, "tri_facility_id": "94608PFZRP4650S"}}, {"type": "Feature", "geometry": {"type": "Point", "coordinates": [-122.279444, 37.8325]}, "properties": {"facility_name": "PEPSI COLA CO", "industry": null, "tri_facility_id": "94608PPSCL1150P"}}, {"type": "Feature", "geometry": {"type": "Point", "coordinates": [-122.288889, 37.822222]}, "properties": {"facility_name": "PRECISION CAST PRODUCTS INC", "industry": null, "tri_facility_id": "94608PRCSN15493"}}, {"type": "Feature", "geometry": {"type": "Point", "coordinates": [-122.287778, 37.831389]}, "properties": {"facility_name": "SHERWIN-WILLIAMS CO.", "industry": null, "tri_facility_id": "94608SHRWN1450S"}}, {"type": "Feature", "geometry": {"type": "Point", "coordinates": [-122.289444, 37.838056]}, "properties": {"facility_name": "WHITNEY RESEARCH TOOL CO", "industry": null, "tri_facility_id": "94608WHTNY5679L"}}, {"type": "Feature", "geometry": {"type": "Point", "coordinates": [-122.284722, 37.855833]}, "properties": {"facility_name": "WR GRACE & CO CONN", "industry": null, "tri_facility_id": "94608WRGRC11755"}}, {"type": "Feature", "geometry": {"type": "Point", "coordinates": [-122.27399, 37.821412]}, "properties": {"facility_name": "CAL-TECH METAL FINISHING INC", "industry": null, "tri_facility_id": "94609CLTCH84131"}}, {"type": "Feature", "geometry": {"type": "Point", "coordinates": [-122.203222, 37.7406]}, "properties": {"facility_name": "BTS GROUP", "industry": null, "tri_facility_id": "94621BTSGR8001E"}}, {"type": "Feature", "geometry": {"type": "Point", "coordinates": [-122.188454, 37.753764]}, "properties": {"facility_name": "CASPER'S INDUSTRIES INC", "industry": null, "tri_facility_id": "94621CSPRS10477"}}, {"type": "Feature", "geometry": {"type": "Point", "coordinates": [-122.19083333333333, 37.750277777777775]}, "properties": {"facility_name": "HIGH TECHNOLOGY PACKAGING OAKLAND", "industry": null, "tri_facility_id": "94621HGHTC86081"}}, {"type": "Feature", "geometry": {"type": "Point", "coordinates": [-122.186111, 37.747222]}, "properties": {"facility_name": "K&L PLATING CO", "industry": null, "tri_facility_id": "94621KLPLT98989"}}, {"type": "Feature", "geometry": {"type": "Point", "coordinates": [-122.192224, 37.750153]}, "properties": {"facility_name": "AB&I FOUNDRY", "industry": null, "tri_facility_id": "94621MRCNB7825S"}}, {"type": "Feature", "geometry": {"type": "Point", "coordinates": [-122.191667, 37.75]}, "properties": {"facility_name": "PEPSI-COLA CO", "industry": null, "tri_facility_id": "94621PPSCL94081"}}, {"type": "Feature", "geometry": {"type": "Point", "coordinates": [-122.1875, 37.754722]}, "properties": {"facility_name": "SAFEWAY STORES INC 72 GROCERY MFG DIV", "industry": null, "tri_facility_id": "94621SFWYS11007"}}, {"type": "Feature", "geometry": {"type": "Point", "coordinates": [-122.20131, 37.766155]}, "properties": {"facility_name": "QUAKER OATS CO", "industry": null, "tri_facility_id": "94621THQKR5625E"}}, {"type": "Feature", "geometry": {"type": "Point", "coordinates": [-122.183611, 37.746944]}, "properties": {"facility_name": "OWENS-BROCKWAY GLASS CONTAINER INC PLANT 27", "industry": null, "tri_facility_id": "94621WNSBR8717G"}}, {"type": "Feature", "geometry": {"type": "Point", "coordinates": [-122.226667, 37.769722]}, "properties": {"facility_name": "OWENS-BROCKWAY GLASS CONTAINER INC - PLANT #20", "industry": null, "tri_facility_id": "94621WNSLL3600A"}}, {"type": "Feature", "geometry": {"type": "Point", "coordinates": [-122.2875, 37.847778]}, "properties": {"facility_name": "OLIVER RUBBER CO", "industry": null, "tri_facility_id": "94662LVRRB12006"}}, {"type": "Feature", "geometry": {"type": "Point", "coordinates": [-122.301982, 37.8766]}, "properties": {"facility_name": "A & B DIE CASTING", "industry": null, "tri_facility_id": "94710BDCST1417F"}}, {"type": "Feature", "geometry": {"type": "Point", "coordinates": [-122.291667, 37.866667]}, "properties": {"facility_name": "BAYER HEALTHCARE PHARMACEUTICALS", "industry": null, "tri_facility_id": "94710CTTRB4THAN"}}, {"type": "Feature", "geometry": {"type": "Point", "coordinates": [-122.2882, 37.8557]}, "properties": {"facility_name": "COURTAULDS AEROSPACE", "industry": null, "tri_facility_id": "94710DSTNC1608F"}}, {"type": "Feature", "geometry": {"type": "Point", "coordinates": [-122.298611, 37.864444]}, "properties": {"facility_name": "DAVLIN PAINT CO INC", "industry": null, "tri_facility_id": "94710DVLNP700AL"}}, {"type": "Feature", "geometry": {"type": "Point", "coordinates": [-122.300278, 37.879722]}, "properties": {"facility_name": "FLINT INK CORP", "industry": null, "tri_facility_id": "94710FLNTN750GI"}}, {"type": "Feature", "geometry": {"type": "Point", "coordinates": [-122.30888888888889, 37.88666666666666]}, "properties": {"facility_name": "CARAL MANUFACTURING", "industry": null, "tri_facility_id": "94710GMSMT578CL"}}, {"type": "Feature", "geometry": {"type": "Point", "coordinates": [-122.292778, 37.875]}, "properties": {"facility_name": "MACAULAY FOUNDRY", "industry": null, "tri_facility_id": "94710MCLYF811CA"}}, {"type": "Feature", "geometry": {"type": "Point", "coordinates": [-122.285556, 37.853333]}, "properties": {"facility_name": "EMERALD PACKAGING INC", "industry": null, "tri_facility_id": "94710MRLDP2821T"}}, {"type": "Feature", "geometry": {"type": "Point", "coordinates": [-122.291667, 37.857778]}, "properties": {"facility_name": "NATIONAL STARCH & CHEMICAL CO", "industry": null, "tri_facility_id": "94710NTNLS742GR"}}, {"type": "Feature", "geometry": {"type": "Point", "coordinates": [-122.301667, 37.8775]}, "properties": {"facility_name": "PACIFIC STEEL CASTING CO", "industry": null, "tri_facility_id": "94710PCFCS1333S"}}, {"type": "Feature", "geometry": {"type": "Point", "coordinates": [-122.2875, 37.851944]}, "properties": {"facility_name": "ASPHALT PRODUCTS OIL CORP", "industry": null, "tri_facility_id": "94710SPHLT1001A"}}, {"type": "Feature", "geometry": {"type": "Point", "coordinates": [-122.292778, 37.853611]}, "properties": {"facility_name": "PQ CORP", "industry": null, "tri_facility_id": "94710THPQC801GR"}}, {"type": "Feature", "geometry": {"type": "Point", "coordinates": [-122.294444, 37.860278]}, "properties": {"facility_name": "THORATEC LABORATORIES CORP", "industry": null, "tri_facility_id": "94710THRTC2448S"}}, {"type": "Feature", "geometry": {"type": "Point", "coordinates": [-122.301031, 37.880793]}, "properties": {"facility_name": "WESTERN ROTO ENGRAVERS INC", "industry": null, "tri_facility_id": "94710WSTRN12256"}}]}