{"type": "FeatureCollection", "features": [{"type": "Feature", "geometry": {"type": "Point", "coordinates": [-82.323611, 36.345833]}, "properties": {"facility_name": "CANTECH INDUSTRIES INC", "industry": null, "tri_facility_id": "37601CNTCH2222E"}}, {"type": "Feature", "geometry": {"type": "Point", "coordinates": [-82.319167, 36.375]}, "properties": {"facility_name": "DOUGLAS DYNAMICS L.L.C.", "industry": null, "tri_facility_id": "37601FLRCT915RI"}}, {"type": "Feature", "geometry": {"type": "Point", "coordinates": [-82.339444, 36.329444]}, "properties": {"facility_name": "GENERAL SHALE BRICK INC. PLANT #10", "industry": null, "tri_facility_id": "37601GNRLS102SO"}}, {"type": "Feature", "geometry": {"type": "Point", "coordinates": [-82.366069, 36.309418]}, "properties": {"facility_name": "THOMASVILLE FURNITURE INDUSTRIES INC JOHNSON CITY PLANT", "industry": null, "tri_facility_id": "37601GRDNS815LO"}}, {"type": "Feature", "geometry": {"type": "Point", "coordinates": [-82.365278, 36.352778]}, "properties": {"facility_name": "KAWNEER ARCHITECTURAL WINDOWS", "industry": null, "tri_facility_id": "37601KWNRC2304S"}}, {"type": "Feature", "geometry": {"type": "Point", "coordinates": [-82.341667, 36.331389]}, "properties": {"facility_name": "EMPIRE FURNITURE CO", "industry": null, "tri_facility_id": "37601MPRFR1200E"}}, {"type": "Feature", "geometry": {"type": "Point", "coordinates": [-82.341944, 36.329722]}, "properties": {"facility_name": "AMERICAN WATER HEATER CO", "industry": null, "tri_facility_id": "37601MRFLNOAKLA"}}, {"type": "Feature", "geometry": {"type": "Point", "coordinates": [-82.333333, 36.354167]}, "properties": {"facility_name": "SNAP-ON TOOLS INC", "industry": null, "tri_facility_id": "37601SNPNT2416W"}}, {"type": "Feature", "geometry": {"type": "Point", "coordinates": [-82.303333, 36.361389]}, "properties": {"facility_name": "SUPERIOR INDUSTRIES INTERNATIONAL INC JOHNSON CITY", "industry": null, "tri_facility_id": "37601SPRRN655WO"}}, {"type": "Feature", "geometry": {"type": "Point", "coordinates": [-82.337222, 36.304444]}, "properties": {"facility_name": "THOMAS INDUSTRIES INC PAINT APPLICATOR DIV", "industry": null, "tri_facility_id": "37601THMSN2003S"}}, {"type": "Feature", "geometry": {"type": "Point", "coordinates": [-82.35805555555555, 36.31361111111111]}, "properties": {"facility_name": "AWHC ENGINEERED SPECIALITY PRODUCTS", "industry": null, "tri_facility_id": "37601WHCNG176DA"}}, {"type": "Feature", "geometry": {"type": "Point", "coordinates": [-82.365278, 36.352778]}, "properties": {"facility_name": "WIDING INC", "industry": null, "tri_facility_id": "37602WDNGN2304S"}}, {"type": "Feature", "geometry": {"type": "Point", "coordinates": [-82.342164, 36.296892]}, "properties": {"facility_name": "ALLEGIANCE HEALTHCARE CORP", "industry": null, "tri_facility_id": "37604BXTRH2301B"}}, {"type": "Feature", "geometry": {"type": "Point", "coordinates": [-82.358056, 36.313611]}, "properties": {"facility_name": "GENERAL MILLS OPERATIONS INC", "industry": null, "tri_facility_id": "37604GNRLM500WW"}}, {"type": "Feature", "geometry": {"type": "Point", "coordinates": [-82.333889, 36.333611]}, "properties": {"facility_name": "TARKETT WOOD INC.", "industry": null, "tri_facility_id": "37605HRRST2225E"}}, {"type": "Feature", "geometry": {"type": "Point", "coordinates": [-82.315, 36.36]}, "properties": {"facility_name": "KENNAMETAL INC", "industry": null, "tri_facility_id": "37605KNNMTROWEL"}}, {"type": "Feature", "geometry": {"type": "Point", "coordinates": [-82.335252, 36.301191]}, "properties": {"facility_name": "SUN SPORTSWEAR INC", "industry": null, "tri_facility_id": "37605SNSPR2615S"}}]}