{"type": "FeatureCollection", "features": [{"type": "Feature", "properties": {"area_id": 8173, "city": "Jackson", "state": "MI", "city_survey": true, "cat": "Best", "grade": "A", "label": "A", "res": true, "com": false, "ind": false, "holc_grade": "A"}, "geometry": {"type": "Polygon", "coordinates": [[[-84.417556, 42.227392], [-84.41756, 42.22669], [-84.41757, 42.2256], [-84.41775, 42.2255], [-84.42431, 42.22214], [-84.42396, 42.22215], [-84.42562, 42.22161], [-84.42619, 42.22153], [-84.42731, 42.22184], [-84.42835, 42.22245], [-84.42926, 42.2233], [-84.43025, 42.22448], [-84.43077, 42.22613], [-84.43206, 42.22617], [-84.43204, 42.22673], [-84.43222, 42.22937], [-84.43233, 42.23106], [-84.43228, 42.23383], [-84.43215, 42.24121], [-84.433153, 42.241196], [-84.43363, 42.24119], [-84.43358, 42.24708], [-84.433182, 42.247082], [-84.42702, 42.24712], [-84.42711, 42.24011], [-84.42819, 42.24007], [-84.42806, 42.23052], [-84.418366, 42.230474], [-84.41754, 42.23047], [-84.417556, 42.227392]]]}}, {"type": "Feature", "properties": {"area_id": 8170, "city": "Jackson", "state": "MI", "city_survey": true, "cat": "Still Desirable", "grade": "B", "label": "B", "res": true, "com": false, "ind": false, "holc_grade": "B"}, "geometry": {"type": "Polygon", "coordinates": [[[-84.41892, 42.22071], [-84.41887, 42.22226], [-84.42396, 42.22215], [-84.42431, 42.22214], [-84.41775, 42.2255], [-84.41757, 42.2256], [-84.41756, 42.22669], [-84.417556, 42.227392], [-84.41754, 42.23047], [-84.418366, 42.230474], [-84.42806, 42.23052], [-84.42819, 42.24007], [-84.42711, 42.24011], [-84.42702, 42.24712], [-84.433182, 42.247082], [-84.43358, 42.24708], [-84.43363, 42.24119], [-84.433153, 42.241196], [-84.43215, 42.24121], [-84.43228, 42.23383], [-84.43233, 42.23106], [-84.43222, 42.22937], [-84.43204, 42.22673], [-84.43206, 42.22617], [-84.432363, 42.218431], [-84.43238, 42.21799], [-84.4341, 42.21802], [-84.4341, 42.21806], [-84.43409, 42.21817], [-84.43373, 42.22752], [-84.43416, 42.23066], [-84.43414, 42.232847], [-84.43408, 42.23958], [-84.44339, 42.23393], [-84.44355, 42.24274], [-84.43502, 42.24259], [-84.43486, 42.24731], [-84.43403, 42.24729], [-84.43369, 42.24729], [-84.433685, 42.247402], [-84.43368, 42.24752], [-84.43331, 42.24768], [-84.43325, 42.24888], [-84.433208, 42.249745], [-84.43316, 42.25075], [-84.43231, 42.25124], [-84.43148, 42.2517], [-84.43083, 42.25184], [-84.42937, 42.25184], [-84.42845, 42.25163], [-84.42769, 42.25112], [-84.4275, 42.25073], [-84.4276, 42.25311], [-84.42662, 42.2533], [-84.42559, 42.25331], [-84.42436, 42.25325], [-84.42251, 42.25315], [-84.42181, 42.253], [-84.42178, 42.25299], [-84.42174, 42.253], [-84.420693, 42.253255], [-84.42063, 42.25327], [-84.42041, 42.25323], [-84.419953, 42.253135], [-84.41839, 42.25281], [-84.417932, 42.252721], [-84.41762, 42.25266], [-84.417553, 42.252621], [-84.41726, 42.25245], [-84.416268, 42.251886], [-84.41624, 42.25187], [-84.41514, 42.25167], [-84.41294, 42.25102], [-84.41206, 42.25067], [-84.412036, 42.250205], [-84.41201, 42.24971], [-84.41397, 42.24961], [-84.41412, 42.24511], [-84.40868, 42.24502], [-84.40823, 42.24502], [-84.40816, 42.24479], [-84.40834, 42.24478], [-84.40832, 42.24414], [-84.40594, 42.24407], [-84.40592, 42.243809], [-84.405768, 42.241859], [-84.40567, 42.24059], [-84.40423, 42.24061], [-84.403978, 42.232796], [-84.40396, 42.23225], [-84.41419, 42.23215], [-84.414019, 42.227392], [-84.41395, 42.22546], [-84.41385, 42.22545], [-84.41401, 42.22081], [-84.41892, 42.22071]]]}}, {"type": "Feature", "properties": {"area_id": 8179, "city": "Jackson", "state": "MI", "city_survey": true, "cat": "Still Desirable", "grade": "B", "label": "BA", "res": true, "com": false, "ind": false, "holc_grade": "B"}, "geometry": {"type": "Polygon", "coordinates": [[[-84.41725, 42.26654], [-84.42236, 42.26643], [-84.42365, 42.26915], [-84.423689, 42.269235], [-84.42371, 42.26928], [-84.419779, 42.269215], [-84.41645, 42.26916], [-84.41725, 42.26654]]]}}, {"type": "Feature", "properties": {"area_id": 8163, "city": "Jackson", "state": "MI", "city_survey": true, "cat": "Still Desirable", "grade": "B", "label": "BB", "res": true, "com": false, "ind": false, "holc_grade": "B"}, "geometry": {"type": "Polygon", "coordinates": [[[-84.40912, 42.22518], [-84.40912, 42.22528], [-84.408921, 42.225277], [-84.40175, 42.22517], [-84.40174, 42.22517], [-84.4016, 42.22321], [-84.39779, 42.21854], [-84.39797, 42.21783], [-84.4047, 42.21757], [-84.40478, 42.21759], [-84.406947, 42.217469], [-84.40907, 42.21735], [-84.40912, 42.22518]]]}}, {"type": "Feature", "properties": {"area_id": 8165, "city": "Jackson", "state": "MI", "city_survey": true, "cat": "Still Desirable", "grade": "B", "label": "BC", "res": true, "com": false, "ind": false, "holc_grade": "B"}, "geometry": {"type": "Polygon", "coordinates": [[[-84.38687, 42.25219], [-84.3874, 42.25158], [-84.38735, 42.25116], [-84.39332, 42.25003], [-84.39332, 42.25004], [-84.3934, 42.25017], [-84.39384, 42.25094], [-84.3939, 42.25103], [-84.39411, 42.25141], [-84.39411, 42.252363], [-84.39411, 42.25349], [-84.39411, 42.2548], [-84.391681, 42.254779], [-84.3872, 42.25474], [-84.38687, 42.25219]]]}}, {"type": "Feature", "properties": {"area_id": 8161, "city": "Jackson", "state": "MI", "city_survey": true, "cat": "Still Desirable", "grade": "B", "label": "BD", "res": true, "com": false, "ind": false, "holc_grade": "B"}, "geometry": {"type": "Polygon", "coordinates": [[[-84.40626, 42.20569], [-84.406715, 42.205676], [-84.40824, 42.20563], [-84.40878, 42.20561], [-84.41041, 42.2083], [-84.41957, 42.20838], [-84.41966, 42.21099], [-84.418365, 42.211044], [-84.41726, 42.21109], [-84.417261, 42.211041], [-84.41728, 42.20987], [-84.40896, 42.20986], [-84.408618, 42.209333], [-84.40629, 42.20574], [-84.40626, 42.20569]]]}}, {"type": "Feature", "properties": {"area_id": 8178, "city": "Jackson", "state": "MI", "city_survey": true, "cat": "Definitely Declining", "grade": "C", "label": "C", "res": true, "com": false, "ind": false, "holc_grade": "C"}, "geometry": {"type": "Polygon", "coordinates": [[[-84.41306, 42.25462], [-84.40862, 42.25465], [-84.40868, 42.25224], [-84.41023, 42.25223], [-84.41026, 42.25067], [-84.41028, 42.25067], [-84.41628, 42.252377], [-84.41868, 42.25306], [-84.42058, 42.25356], [-84.42302, 42.2537], [-84.42552, 42.25391], [-84.42871, 42.2537], [-84.43112, 42.25321], [-84.43349, 42.25253], [-84.4349, 42.25206], [-84.435564, 42.251888], [-84.43726, 42.25145], [-84.44048, 42.25101], [-84.44477, 42.2511], [-84.44737, 42.25127], [-84.45003, 42.25183], [-84.45258, 42.25254], [-84.45368, 42.25301], [-84.4537, 42.26381], [-84.43953, 42.26361], [-84.43945, 42.26534], [-84.43404, 42.26526], [-84.43409, 42.27042], [-84.431893, 42.270426], [-84.429671, 42.270432], [-84.42641, 42.27044], [-84.42986, 42.27519], [-84.432997, 42.277601], [-84.43388, 42.27828], [-84.43295, 42.27891], [-84.43219, 42.27834], [-84.431217, 42.277611], [-84.43067, 42.2772], [-84.432872, 42.284305], [-84.43327, 42.28559], [-84.432866, 42.285573], [-84.43185, 42.28553], [-84.42844, 42.27585], [-84.42478, 42.27113], [-84.41657, 42.27101], [-84.41558, 42.27441], [-84.42013, 42.27458], [-84.42016, 42.27379], [-84.42165, 42.27372], [-84.4217, 42.2764], [-84.42339, 42.27642], [-84.42359, 42.28558], [-84.42203, 42.28562], [-84.4219, 42.27775], [-84.42027, 42.27773], [-84.42012, 42.27584], [-84.41521, 42.27582], [-84.41473, 42.27781], [-84.4154, 42.2857], [-84.41337, 42.28568], [-84.41317, 42.27771], [-84.41424, 42.27401], [-84.41293, 42.27389], [-84.41284, 42.27321], [-84.41358, 42.27304], [-84.41359, 42.27302], [-84.41466, 42.27303], [-84.41492, 42.27237], [-84.41266, 42.27229], [-84.41284, 42.27149], [-84.41509, 42.2715], [-84.41526, 42.27076], [-84.41284, 42.27075], [-84.412954, 42.269233], [-84.41307, 42.2677], [-84.41313, 42.2632], [-84.41306, 42.25462]], [[-84.42365, 42.26915], [-84.42236, 42.26643], [-84.41725, 42.26654], [-84.41645, 42.26916], [-84.419779, 42.269215], [-84.42371, 42.26928], [-84.423689, 42.269235], [-84.42365, 42.26915]]]}}, {"type": "Feature", "properties": {"area_id": 8177, "city": "Jackson", "state": "MI", "city_survey": true, "cat": "Definitely Declining", "grade": "C", "label": "CA", "res": true, "com": false, "ind": false, "holc_grade": "C"}, "geometry": {"type": "Polygon", "coordinates": [[[-84.39327, 42.24931], [-84.393275, 42.249378], [-84.393295, 42.249674], [-84.39332, 42.25003], [-84.38735, 42.25116], [-84.3874, 42.25158], [-84.38687, 42.25219], [-84.3872, 42.25474], [-84.391681, 42.254779], [-84.39411, 42.2548], [-84.39411, 42.25349], [-84.39411, 42.252363], [-84.39411, 42.25141], [-84.39396, 42.25114], [-84.39398, 42.25113], [-84.395295, 42.250819], [-84.39715, 42.25038], [-84.39847, 42.25483], [-84.4037, 42.25481], [-84.403679, 42.256382], [-84.403675, 42.256717], [-84.40367, 42.25707], [-84.39624, 42.25716], [-84.39611, 42.26732], [-84.39465, 42.26748], [-84.394614, 42.267925], [-84.394502, 42.269317], [-84.39442, 42.27034], [-84.38978, 42.27034], [-84.389749, 42.269338], [-84.38956, 42.26326], [-84.374626, 42.26326], [-84.37402, 42.26326], [-84.37394, 42.25965], [-84.36585, 42.25962], [-84.36585, 42.26361], [-84.364931, 42.263625], [-84.36397, 42.26364], [-84.36383, 42.26314], [-84.36212, 42.26313], [-84.3618, 42.26295], [-84.3618, 42.26188], [-84.36378, 42.26178], [-84.36347, 42.25709], [-84.35919, 42.25824], [-84.35918, 42.24558], [-84.36442, 42.2457], [-84.36422, 42.24122], [-84.36402, 42.24119], [-84.36135, 42.2411], [-84.358677, 42.239792], [-84.35011, 42.2356], [-84.35005, 42.23433], [-84.36241, 42.24017], [-84.36397, 42.24017], [-84.36412, 42.23612], [-84.361306, 42.234588], [-84.36028, 42.23403], [-84.36051, 42.23314], [-84.37176, 42.23779], [-84.371757, 42.238317], [-84.37171, 42.24732], [-84.37074, 42.2473], [-84.37102, 42.25406], [-84.37468, 42.253264], [-84.37585, 42.25301], [-84.37601, 42.24952], [-84.37726, 42.24952], [-84.3772, 42.24536], [-84.37895, 42.24536], [-84.37908, 42.24255], [-84.38589, 42.24456], [-84.38748, 42.24563], [-84.3875, 42.24677], [-84.38199, 42.24696], [-84.38175, 42.24891], [-84.38425, 42.24894], [-84.38428, 42.25002], [-84.38792, 42.24933], [-84.388, 42.25041], [-84.393254, 42.249313], [-84.39327, 42.24931]]]}}, {"type": "Feature", "properties": {"area_id": 8160, "city": "Jackson", "state": "MI", "city_survey": true, "cat": "Definitely Declining", "grade": "C", "label": "CB", "res": true, "com": false, "ind": false, "holc_grade": "C"}, "geometry": {"type": "MultiPolygon", "coordinates": [[[[-84.4341, 42.21806], [-84.43495, 42.21795], [-84.43462, 42.22594], [-84.44484, 42.22588], [-84.444906, 42.233524], [-84.44499, 42.24316], [-84.45371, 42.24312], [-84.453736, 42.247448], [-84.45377, 42.25305], [-84.45372, 42.25303], [-84.45368, 42.25301], [-84.45258, 42.25254], [-84.45003, 42.25183], [-84.44737, 42.25127], [-84.44477, 42.2511], [-84.44048, 42.25101], [-84.43726, 42.25145], [-84.435564, 42.251888], [-84.4349, 42.25206], [-84.43349, 42.25253], [-84.43112, 42.25321], [-84.42871, 42.2537], [-84.42552, 42.25391], [-84.42302, 42.2537], [-84.42058, 42.25356], [-84.41868, 42.25306], [-84.41628, 42.252377], [-84.41028, 42.25067], [-84.41026, 42.25067], [-84.41002, 42.2506], [-84.410062, 42.250213], [-84.41015, 42.24939], [-84.41187, 42.24937], [-84.41166, 42.24594], [-84.40872, 42.24604], [-84.40868, 42.24502], [-84.41412, 42.24511], [-84.41397, 42.24961], [-84.41201, 42.24971], [-84.412036, 42.250205], [-84.41206, 42.25067], [-84.41294, 42.25102], [-84.41514, 42.25167], [-84.41624, 42.25187], [-84.416268, 42.251886], [-84.41726, 42.25245], [-84.417553, 42.252621], [-84.41762, 42.25266], [-84.417932, 42.252721], [-84.41839, 42.25281], [-84.419953, 42.253135], [-84.42041, 42.25323], [-84.42063, 42.25327], [-84.420693, 42.253255], [-84.42174, 42.253], [-84.42178, 42.25299], [-84.42181, 42.253], [-84.42251, 42.25315], [-84.42436, 42.25325], [-84.42559, 42.25331], [-84.42662, 42.2533], [-84.4276, 42.25311], [-84.4275, 42.25073], [-84.42769, 42.25112], [-84.42845, 42.25163], [-84.42937, 42.25184], [-84.43083, 42.25184], [-84.43148, 42.2517], [-84.43231, 42.25124], [-84.43316, 42.25075], [-84.433208, 42.249745], [-84.43325, 42.24888], [-84.43331, 42.24768], [-84.43368, 42.24752], [-84.433685, 42.247402], [-84.43369, 42.24729], [-84.43403, 42.24729], [-84.43486, 42.24731], [-84.43502, 42.24259], [-84.44355, 42.24274], [-84.44339, 42.23393], [-84.43408, 42.23958], [-84.43414, 42.232847], [-84.43416, 42.23066], [-84.43373, 42.22752], [-84.43409, 42.21817], [-84.4341, 42.21806]]], [[[-84.43366, 42.21193], [-84.43196, 42.21161], [-84.428192, 42.211551], [-84.42435, 42.21149], [-84.423864, 42.211061], [-84.42333, 42.21059], [-84.4335, 42.2034], [-84.43374, 42.21], [-84.43366, 42.21193]]]]}}, {"type": "Feature", "properties": {"area_id": 8164, "city": "Jackson", "state": "MI", "city_survey": true, "cat": "Definitely Declining", "grade": "C", "label": "CC", "res": true, "com": false, "ind": false, "holc_grade": "C"}, "geometry": {"type": "MultiPolygon", "coordinates": [[[[-84.38554, 42.22288], [-84.38551, 42.22557], [-84.38551, 42.2257], [-84.38034, 42.22573], [-84.380343, 42.225897], [-84.38043, 42.23052], [-84.38035, 42.23051], [-84.38009, 42.23037], [-84.37986, 42.23043], [-84.37945, 42.23049], [-84.37921, 42.23036], [-84.37895, 42.23043], [-84.37887, 42.23043], [-84.37886, 42.23161], [-84.37894, 42.23175], [-84.37903, 42.23185], [-84.37914, 42.2319], [-84.37923, 42.232], [-84.37924, 42.2321], [-84.37933, 42.23625], [-84.37431, 42.23632], [-84.37421, 42.23632], [-84.37397, 42.23365], [-84.374044, 42.229283], [-84.3741, 42.22599], [-84.37465, 42.225967], [-84.374698, 42.225965], [-84.37921, 42.22578], [-84.37205, 42.22211], [-84.372, 42.22121], [-84.38124, 42.22108], [-84.38554, 42.22288]]], [[[-84.40933, 42.22531], [-84.41385, 42.22545], [-84.41395, 42.22546], [-84.414019, 42.227392], [-84.41419, 42.23215], [-84.40396, 42.23225], [-84.403978, 42.232796], [-84.40423, 42.24061], [-84.40567, 42.24059], [-84.405768, 42.241859], [-84.40592, 42.243809], [-84.40594, 42.24407], [-84.40832, 42.24414], [-84.40834, 42.24478], [-84.40816, 42.24479], [-84.40412, 42.2448], [-84.40405, 42.2448], [-84.403996, 42.24381], [-84.40385, 42.24113], [-84.40089, 42.24113], [-84.40088, 42.23933], [-84.398045, 42.239396], [-84.39743, 42.23941], [-84.397432, 42.238701], [-84.39744, 42.23644], [-84.39845, 42.23641], [-84.39843, 42.23416], [-84.39843, 42.2337], [-84.39839, 42.2337], [-84.3974, 42.23374], [-84.39734, 42.23341], [-84.39733, 42.23331], [-84.39724, 42.23331], [-84.39575, 42.2333], [-84.395735, 42.232947], [-84.39559, 42.22942], [-84.39294, 42.2294], [-84.39296, 42.22842], [-84.39056, 42.22854], [-84.39043, 42.22581], [-84.39043, 42.225756], [-84.39043, 42.22573], [-84.39043, 42.2257], [-84.400442, 42.225567], [-84.40172, 42.22555], [-84.40172, 42.225545], [-84.40175, 42.22517], [-84.408921, 42.225277], [-84.40912, 42.22528], [-84.40933, 42.22531]]]]}}, {"type": "Feature", "properties": {"area_id": 8162, "city": "Jackson", "state": "MI", "city_survey": true, "cat": "Definitely Declining", "grade": "C", "label": "CD", "res": true, "com": false, "ind": false, "holc_grade": "C"}, "geometry": {"type": "Polygon", "coordinates": [[[-84.40594, 42.19473], [-84.40558, 42.19492], [-84.405037, 42.194823], [-84.40502, 42.19482], [-84.40477, 42.19507], [-84.4046, 42.19509], [-84.40384, 42.19551], [-84.40383, 42.19586], [-84.40415, 42.19623], [-84.40426, 42.1967], [-84.40469, 42.19712], [-84.40491, 42.19711], [-84.405129, 42.197283], [-84.40539, 42.19749], [-84.40539, 42.19763], [-84.40566, 42.19779], [-84.40583, 42.19808], [-84.40575, 42.19848], [-84.4058, 42.19882], [-84.40582, 42.19912], [-84.40568, 42.19939], [-84.404767, 42.199158], [-84.40202, 42.19846], [-84.401698, 42.203053], [-84.40165, 42.20374], [-84.40247, 42.20379], [-84.403478, 42.204456], [-84.40353, 42.20449], [-84.405794, 42.204506], [-84.40778, 42.20452], [-84.40824, 42.20563], [-84.406715, 42.205676], [-84.40626, 42.20569], [-84.40629, 42.20574], [-84.403491, 42.205707], [-84.40207, 42.20569], [-84.40157, 42.20529], [-84.399848, 42.209967], [-84.39925, 42.21159], [-84.39953, 42.21457], [-84.403693, 42.214423], [-84.40464, 42.21439], [-84.404681, 42.214842], [-84.40493, 42.21756], [-84.4047, 42.21757], [-84.39797, 42.21783], [-84.39071, 42.21812], [-84.39049, 42.21162], [-84.39719, 42.21145], [-84.39778, 42.21012], [-84.395347, 42.209949], [-84.394544, 42.209893], [-84.394143, 42.209865], [-84.39365, 42.20983], [-84.39041, 42.20832], [-84.38852, 42.20491], [-84.38296, 42.20488], [-84.38293, 42.18876], [-84.39915, 42.18857], [-84.39883, 42.18941], [-84.39851, 42.18985], [-84.3983, 42.18988], [-84.39785, 42.19033], [-84.39759, 42.19042], [-84.39718, 42.19061], [-84.39684, 42.19091], [-84.39669, 42.19112], [-84.39678, 42.19159], [-84.39684, 42.19206], [-84.39716, 42.19238], [-84.39718, 42.19261], [-84.39751, 42.19277], [-84.39787, 42.19316], [-84.39813, 42.19349], [-84.39849, 42.19392], [-84.3988, 42.19406], [-84.39926, 42.19418], [-84.39985, 42.19409], [-84.40037, 42.19388], [-84.40088, 42.19358], [-84.40116, 42.19355], [-84.40181, 42.19326], [-84.40217, 42.19327], [-84.40249, 42.19319], [-84.40298, 42.19312], [-84.40364, 42.19281], [-84.40428, 42.19265], [-84.40489, 42.1923], [-84.40518, 42.1919], [-84.405316, 42.191812], [-84.40552, 42.19168], [-84.40605, 42.1909], [-84.40633, 42.19366], [-84.40594, 42.19473]]]}}, {"type": "Feature", "properties": {"area_id": 11610, "city": "Jackson", "state": "MI", "city_survey": true, "cat": "Definitely Declining", "grade": "C", "label": "CE", "res": true, "com": false, "ind": false, "holc_grade": "C"}, "geometry": {"type": "MultiPolygon", "coordinates": [[[[-84.3046, 42.21713], [-84.30481, 42.21711], [-84.3051, 42.2172], [-84.30526, 42.21732], [-84.30559, 42.21751], [-84.30598, 42.2176], [-84.30629, 42.21772], [-84.30659, 42.21767], [-84.307, 42.21788], [-84.30723, 42.21782], [-84.30701, 42.21766], [-84.30673, 42.21747], [-84.30656, 42.2173], [-84.30679, 42.217], [-84.30709, 42.2169], [-84.30736, 42.21697], [-84.30778, 42.21718], [-84.30807, 42.21725], [-84.30835, 42.21724], [-84.30875, 42.21714], [-84.30896, 42.21702], [-84.30898, 42.21678], [-84.30881, 42.21654], [-84.30857, 42.21637], [-84.30822, 42.21614], [-84.30814, 42.21598], [-84.30818, 42.21583], [-84.30826, 42.21573], [-84.30845, 42.21564], [-84.30879, 42.21567], [-84.30903, 42.21575], [-84.30948, 42.21566], [-84.30971, 42.21565], [-84.30993, 42.21573], [-84.31033, 42.21574], [-84.31078, 42.21591], [-84.31104, 42.21591], [-84.31131, 42.21593], [-84.31144, 42.21607], [-84.31176, 42.21623], [-84.31216, 42.21632], [-84.31231, 42.21652], [-84.31237, 42.21681], [-84.31233, 42.21708], [-84.31223, 42.21728], [-84.312, 42.21732], [-84.31165, 42.2173], [-84.3112, 42.21704], [-84.31086, 42.21687], [-84.31041, 42.21682], [-84.30987, 42.21677], [-84.30963, 42.21684], [-84.30948, 42.21705], [-84.30953, 42.21721], [-84.30967, 42.21736], [-84.31036, 42.21745], [-84.31068, 42.21749], [-84.31116, 42.21768], [-84.31112, 42.21794], [-84.31117, 42.2182], [-84.31136, 42.21835], [-84.31188, 42.2184], [-84.31216, 42.21864], [-84.31222, 42.21899], [-84.31248, 42.22079], [-84.3127, 42.22094], [-84.31298, 42.22114], [-84.31338, 42.22123], [-84.31379, 42.2213], [-84.31399, 42.2215], [-84.31404, 42.22166], [-84.3139, 42.22197], [-84.31418, 42.22203], [-84.31443, 42.22205], [-84.31463, 42.22221], [-84.3149, 42.22266], [-84.31513, 42.22281], [-84.31529, 42.22296], [-84.31533, 42.22313], [-84.31553, 42.22327], [-84.31619, 42.22355], [-84.3166, 42.22354], [-84.31666, 42.22309], [-84.31627, 42.22272], [-84.31588, 42.22211], [-84.31561, 42.22153], [-84.31561, 42.22113], [-84.31594, 42.22059], [-84.31621, 42.22006], [-84.31655, 42.22047], [-84.31655, 42.22104], [-84.31644, 42.22153], [-84.31682, 42.22202], [-84.31704, 42.22235], [-84.31726, 42.22268], [-84.31726, 42.22366], [-84.31737, 42.22435], [-84.31809, 42.22468], [-84.31925, 42.22497], [-84.31975, 42.22525], [-84.31997, 42.22566], [-84.32019, 42.22603], [-84.32069, 42.22648], [-84.32096, 42.22668], [-84.32146, 42.22713], [-84.32229, 42.22742], [-84.32317, 42.22779], [-84.32405, 42.22816], [-84.32521, 42.22816], [-84.32565, 42.22795], [-84.32576, 42.22734], [-84.3261, 42.22673], [-84.32764, 42.22579], [-84.33029, 42.22574], [-84.33007, 42.23094], [-84.35193, 42.23609], [-84.35193, 42.239641], [-84.35193, 42.24111], [-84.3479, 42.24512], [-84.337149, 42.245086], [-84.3352, 42.24508], [-84.31379, 42.236103], [-84.306648, 42.233108], [-84.30391, 42.23196], [-84.3042, 42.22528], [-84.3046, 42.21713]]], [[[-84.31726, 42.21895], [-84.31712, 42.21854], [-84.31702, 42.2182], [-84.31719, 42.21776], [-84.31758, 42.21756], [-84.31792, 42.21727], [-84.31845, 42.21709], [-84.31897, 42.21704], [-84.31928, 42.21722], [-84.31967, 42.21745], [-84.31991, 42.21768], [-84.31988, 42.2183], [-84.32026, 42.21861], [-84.32002, 42.21882], [-84.31873, 42.21949], [-84.31792, 42.21941], [-84.31747, 42.21926], [-84.31726, 42.21895]]]]}}, {"type": "Feature", "properties": {"area_id": 8176, "city": "Jackson", "state": "MI", "city_survey": true, "cat": "Hazardous", "grade": "D", "label": "D", "res": true, "com": false, "ind": false, "holc_grade": "D"}, "geometry": {"type": "Polygon", "coordinates": [[[-84.40612, 42.25466], [-84.40862, 42.25465], [-84.41306, 42.25462], [-84.41313, 42.2632], [-84.41307, 42.2677], [-84.412954, 42.269233], [-84.41284, 42.27075], [-84.41526, 42.27076], [-84.41509, 42.2715], [-84.41284, 42.27149], [-84.41266, 42.27229], [-84.41492, 42.27237], [-84.41466, 42.27303], [-84.41359, 42.27302], [-84.41292, 42.27302], [-84.41186, 42.27395], [-84.41206, 42.2751], [-84.41093, 42.27708], [-84.41125, 42.28586], [-84.407586, 42.28586], [-84.40187, 42.28586], [-84.40456, 42.28145], [-84.40452, 42.27836], [-84.40429, 42.27044], [-84.40399, 42.2705], [-84.39442, 42.27036], [-84.39442, 42.27034], [-84.394502, 42.269317], [-84.394614, 42.267925], [-84.39465, 42.26748], [-84.39611, 42.26732], [-84.39624, 42.25716], [-84.40367, 42.25707], [-84.403675, 42.256717], [-84.403679, 42.256382], [-84.4037, 42.25481], [-84.39847, 42.25483], [-84.39715, 42.25038], [-84.395295, 42.250819], [-84.39398, 42.25113], [-84.39396, 42.25114], [-84.3939, 42.25103], [-84.39384, 42.25094], [-84.3934, 42.25017], [-84.39332, 42.25004], [-84.39332, 42.25003], [-84.393295, 42.249674], [-84.393275, 42.249378], [-84.39327, 42.24931], [-84.393254, 42.249313], [-84.388, 42.25041], [-84.38792, 42.24933], [-84.38428, 42.25002], [-84.38425, 42.24894], [-84.38175, 42.24891], [-84.38199, 42.24696], [-84.3875, 42.24677], [-84.38748, 42.24563], [-84.38589, 42.24456], [-84.37908, 42.24255], [-84.37895, 42.24536], [-84.3772, 42.24536], [-84.37726, 42.24952], [-84.37601, 42.24952], [-84.37585, 42.25301], [-84.37468, 42.253264], [-84.37102, 42.25406], [-84.37074, 42.2473], [-84.37171, 42.24732], [-84.371748, 42.238314], [-84.37175, 42.23792], [-84.37176, 42.23779], [-84.37443, 42.23899], [-84.37455, 42.23898], [-84.399223, 42.247603], [-84.40076, 42.24814], [-84.40076, 42.248028], [-84.40076, 42.24798], [-84.405882, 42.249591], [-84.40591, 42.2496], [-84.40612, 42.25466]]]}}, {"type": "Feature", "properties": {"area_id": 8167, "city": "Jackson", "state": "MI", "city_survey": true, "cat": "Hazardous", "grade": "D", "label": "DA", "res": true, "com": false, "ind": false, "holc_grade": "D"}, "geometry": {"type": "Polygon", "coordinates": [[[-84.38777, 42.22576], [-84.39043, 42.22573], [-84.39043, 42.225756], [-84.39043, 42.22581], [-84.39056, 42.22854], [-84.39296, 42.22842], [-84.39294, 42.2294], [-84.39559, 42.22942], [-84.395735, 42.232947], [-84.39575, 42.2333], [-84.39724, 42.23331], [-84.39733, 42.23331], [-84.39734, 42.23341], [-84.3974, 42.23374], [-84.39839, 42.2337], [-84.39843, 42.2337], [-84.39843, 42.23416], [-84.39845, 42.23641], [-84.39744, 42.23644], [-84.397432, 42.238701], [-84.39743, 42.23941], [-84.398045, 42.239396], [-84.40088, 42.23933], [-84.40089, 42.24113], [-84.40385, 42.24113], [-84.403996, 42.24381], [-84.40405, 42.2448], [-84.40412, 42.2448], [-84.40412, 42.24484], [-84.40061, 42.24486], [-84.40076, 42.24798], [-84.40076, 42.248028], [-84.40076, 42.24814], [-84.399223, 42.247603], [-84.37455, 42.23898], [-84.37453, 42.23897], [-84.37431, 42.23632], [-84.37933, 42.23625], [-84.37924, 42.2321], [-84.37923, 42.232], [-84.37914, 42.2319], [-84.37903, 42.23185], [-84.37894, 42.23175], [-84.37886, 42.23161], [-84.37887, 42.23043], [-84.37895, 42.23043], [-84.37921, 42.23036], [-84.37945, 42.23049], [-84.37986, 42.23043], [-84.38009, 42.23037], [-84.38035, 42.23051], [-84.38043, 42.23052], [-84.380343, 42.225897], [-84.38034, 42.22573], [-84.38551, 42.2257], [-84.38777, 42.22576]]]}}]}