{"type": "FeatureCollection", "features": [{"type": "Feature", "geometry": {"type": "Point", "coordinates": [-78.916667, 40.316667]}, "properties": {"facility_name": "PENN TRAFFIC CO SANI-DAIRY DIV", "industry": null, "tri_facility_id": "15901SNDRY400FR"}}, {"type": "Feature", "geometry": {"type": "Point", "coordinates": [-78.918056, 40.291667]}, "properties": {"facility_name": "V&S KORNS GALVANIZING LLC", "industry": null, "tri_facility_id": "15902CCKRN75BRI"}}, {"type": "Feature", "geometry": {"type": "Point", "coordinates": [-78.911111, 40.294444]}, "properties": {"facility_name": "JOHNSTOWN SPECIALTY CASTINGS INC", "industry": null, "tri_facility_id": "15902JHNST545CE"}}, {"type": "Feature", "geometry": {"type": "Point", "coordinates": [-78.919167, 40.295278]}, "properties": {"facility_name": "NORTH AMERICAN HOGANAS HIGH ALLOYS LLC", "industry": null, "tri_facility_id": "15902SCMMT101BR"}}, {"type": "Feature", "geometry": {"type": "Point", "coordinates": [-78.843333, 40.284444]}, "properties": {"facility_name": "GALLIKER DAIRY CO", "industry": null, "tri_facility_id": "15904GLLKR143DO"}}, {"type": "Feature", "geometry": {"type": "Point", "coordinates": [-78.839933, 40.286896]}, "properties": {"facility_name": "PEPSI BOTTLING GROUP LLC", "industry": null, "tri_facility_id": "15904LRLPCINDUS"}}, {"type": "Feature", "geometry": {"type": "Point", "coordinates": [-78.841111, 40.285833]}, "properties": {"facility_name": "EMGLO AIR COMPRESSORS", "industry": null, "tri_facility_id": "15904MGLPR303IN"}}, {"type": "Feature", "geometry": {"type": "Point", "coordinates": [-78.855, 40.269167]}, "properties": {"facility_name": "UNITED METAL FABRICATORS INC", "industry": null, "tri_facility_id": "15904NTDMT409EI"}}, {"type": "Feature", "geometry": {"type": "Point", "coordinates": [-78.916667, 40.325]}, "properties": {"facility_name": "PEPSI-COLA BOTTLING GROUP LLC", "industry": null, "tri_facility_id": "15904PPSCLALLEN"}}, {"type": "Feature", "geometry": {"type": "Point", "coordinates": [-78.940833, 40.351389]}, "properties": {"facility_name": "JOHNSTOWN WIRE TECHNOLOGIES INC.", "industry": null, "tri_facility_id": "15906JHNST124LA"}}, {"type": "Feature", "geometry": {"type": "Point", "coordinates": [-78.893056, 40.336667]}, "properties": {"facility_name": "JOHNSTOWN AMERICA CORP.", "industry": null, "tri_facility_id": "15907BTHLH17JOH"}}, {"type": "Feature", "geometry": {"type": "Point", "coordinates": [-78.920889, 40.3277]}, "properties": {"facility_name": "JOHNSTOWN AMERICA CORP FREIGHT CAR DIV NO 5 SHOP", "industry": null, "tri_facility_id": "15907FRGHT17JOH"}}, {"type": "Feature", "geometry": {"type": "Point", "coordinates": [-78.9209, 40.3278]}, "properties": {"facility_name": "REPUBLIC TECHNOLOGIES INTERNATIONAL LLC PRIMARY OPERATIONS", "industry": null, "tri_facility_id": "15907FRNKL119WA"}}, {"type": "Feature", "geometry": {"type": "Point", "coordinates": [-78.911944, 40.3275]}, "properties": {"facility_name": "GAUTIER STEEL HOLDINGS INC.", "industry": null, "tri_facility_id": "15907GTRXX119WA"}}, {"type": "Feature", "geometry": {"type": "Point", "coordinates": [-78.9209, 40.3278]}, "properties": {"facility_name": "BETHLEHEM STEEL CORP", "industry": null, "tri_facility_id": "15907RDWRB119WA"}}]}