{"type": "FeatureCollection", "features": [{"type": "Feature", "properties": {"area_id": 9543, "city": "Boston", "state": "MA", "city_survey": true, "cat": "Best", "grade": "A", "label": "A1", "res": true, "com": false, "ind": false, "holc_grade": "A"}, "geometry": {"type": "Polygon", "coordinates": [[[-71.13251, 42.29739], [-71.13519, 42.29912], [-71.13656, 42.29794], [-71.13844, 42.29782], [-71.13941, 42.2987], [-71.14107, 42.29739], [-71.14249, 42.29728], [-71.14302, 42.2986], [-71.14284, 42.29879], [-71.1417, 42.29921], [-71.14095, 42.2999], [-71.14095, 42.30095], [-71.14113, 42.30142], [-71.140008, 42.302085], [-71.13978, 42.30222], [-71.13565, 42.30663], [-71.13268, 42.31115], [-71.13097, 42.3141], [-71.130282, 42.315053], [-71.12829, 42.31781], [-71.12455, 42.32292], [-71.12394, 42.32282], [-71.12245, 42.32375], [-71.121821, 42.324082], [-71.12156, 42.32422], [-71.11985, 42.32301], [-71.119853, 42.322945], [-71.119859, 42.322781], [-71.1199, 42.32178], [-71.1211, 42.32161], [-71.12184, 42.32102], [-71.12293, 42.32026], [-71.12452, 42.31958], [-71.12629, 42.3187], [-71.12418, 42.3168], [-71.12355, 42.31553], [-71.123494, 42.315101], [-71.12344, 42.31469], [-71.122768, 42.313889], [-71.12224, 42.31326], [-71.12293, 42.31271], [-71.12304, 42.31127], [-71.12241, 42.30921], [-71.12258, 42.30807], [-71.12452, 42.30571], [-71.12452, 42.305197], [-71.12452, 42.30423], [-71.12532, 42.3025], [-71.12709, 42.30077], [-71.12823, 42.29967], [-71.12937, 42.29824], [-71.129938, 42.298086], [-71.130487, 42.297938], [-71.13251, 42.29739]]]}}, {"type": "Feature", "properties": {"area_id": 5015, "city": "Boston", "state": "MA", "city_survey": true, "cat": "Still Desirable", "grade": "B", "label": "B1", "res": true, "com": false, "ind": false, "holc_grade": "B"}, "geometry": {"type": "Polygon", "coordinates": [[[-71.16646, 42.34667], [-71.16789, 42.34671], [-71.16944, 42.34706], [-71.17193, 42.34689], [-71.172066, 42.346862], [-71.17222, 42.34683], [-71.17492, 42.35025], [-71.17491, 42.350277], [-71.174798, 42.350589], [-71.17378, 42.35342], [-71.17104, 42.35624], [-71.17134, 42.35584], [-71.17003, 42.35492], [-71.16955, 42.35444], [-71.16932, 42.35325], [-71.16908, 42.35058], [-71.1686, 42.35009], [-71.168549, 42.350094], [-71.16736, 42.35018], [-71.1648, 42.34948], [-71.16646, 42.34667]]]}}, {"type": "Feature", "properties": {"area_id": 9545, "city": "Boston", "state": "MA", "city_survey": true, "cat": "Still Desirable", "grade": "B", "label": "B2", "res": true, "com": false, "ind": false, "holc_grade": "B"}, "geometry": {"type": "Polygon", "coordinates": [[[-71.157448, 42.339803], [-71.15993, 42.34039], [-71.1629, 42.34056], [-71.166132, 42.34037], [-71.16664, 42.34034], [-71.16843, 42.34254], [-71.1667, 42.34254], [-71.16409, 42.34531], [-71.16361, 42.34491], [-71.16551, 42.34271], [-71.165697, 42.342093], [-71.16599, 42.34113], [-71.1613, 42.34118], [-71.16023, 42.34329], [-71.15922, 42.34307], [-71.15821, 42.34236], [-71.1572, 42.34214], [-71.15624, 42.34381], [-71.15375, 42.34298], [-71.153452, 42.343974], [-71.15333, 42.34438], [-71.15274, 42.34561], [-71.14971, 42.34495], [-71.14781, 42.3446], [-71.1468, 42.34403], [-71.14608, 42.34329], [-71.14567, 42.34219], [-71.14698, 42.34184], [-71.1487, 42.34192], [-71.149572, 42.341607], [-71.149989, 42.341458], [-71.15054, 42.34126], [-71.15161, 42.34061], [-71.15393, 42.34096], [-71.15446, 42.34153], [-71.154682, 42.341219], [-71.15506, 42.34069], [-71.155116, 42.340649], [-71.155667, 42.340242], [-71.15613, 42.3399], [-71.15731, 42.33977], [-71.157448, 42.339803]]]}}, {"type": "Feature", "properties": {"area_id": 4949, "city": "Boston", "state": "MA", "city_survey": true, "cat": "Still Desirable", "grade": "B", "label": "B3", "res": true, "com": false, "ind": false, "holc_grade": "B"}, "geometry": {"type": "Polygon", "coordinates": [[[-71.081543, 42.353611], [-71.075155, 42.355438], [-71.07347, 42.35592], [-71.073367, 42.356207], [-71.07219, 42.3595], [-71.072066, 42.359489], [-71.071759, 42.359462], [-71.07162, 42.35945], [-71.07215, 42.35745], [-71.06969, 42.35808], [-71.07019, 42.35892], [-71.06859, 42.35903], [-71.06823, 42.35818], [-71.06609, 42.35837], [-71.06598, 42.35771], [-71.07033, 42.35666], [-71.07008, 42.35608], [-71.070505, 42.355956], [-71.072477, 42.355381], [-71.07272, 42.35531], [-71.072333, 42.354586], [-71.07147, 42.35297], [-71.0756, 42.35174], [-71.076316, 42.353498], [-71.0765, 42.35395], [-71.081072, 42.352679], [-71.089273, 42.350399], [-71.09114, 42.34988], [-71.09162, 42.34995], [-71.09176, 42.35025], [-71.09315, 42.34975], [-71.09397, 42.34965], [-71.097623, 42.350035], [-71.10317, 42.35062], [-71.103094, 42.350967], [-71.10306, 42.35112], [-71.098864, 42.350672], [-71.097787, 42.350557], [-71.09472, 42.35023], [-71.09301, 42.35033], [-71.089712, 42.351274], [-71.081543, 42.353611]]]}}, {"type": "Feature", "properties": {"area_id": 4946, "city": "Boston", "state": "MA", "city_survey": true, "cat": "Still Desirable", "grade": "B", "label": "B4", "res": true, "com": false, "ind": false, "holc_grade": "B"}, "geometry": {"type": "Polygon", "coordinates": [[[-71.116904, 42.302351], [-71.117372, 42.302463], [-71.11761, 42.30252], [-71.117681, 42.302559], [-71.11866, 42.30309], [-71.11932, 42.30393], [-71.11946, 42.30512], [-71.11908, 42.306], [-71.11913, 42.30653], [-71.11937, 42.30734], [-71.11989, 42.30794], [-71.119977, 42.30803], [-71.120368, 42.308432], [-71.12061, 42.30868], [-71.120666, 42.309009], [-71.1208, 42.3098], [-71.12089, 42.31082], [-71.12122, 42.31282], [-71.12042, 42.31324], [-71.11932, 42.31391], [-71.11842, 42.31448], [-71.11728, 42.31528], [-71.11724, 42.315369], [-71.11695, 42.31602], [-71.1168, 42.31694], [-71.116742, 42.31715], [-71.11642, 42.31831], [-71.116467, 42.318394], [-71.11671, 42.31883], [-71.11723, 42.31957], [-71.117164, 42.319722], [-71.116954, 42.320206], [-71.11671, 42.32077], [-71.116618, 42.32122], [-71.11661, 42.32126], [-71.116826, 42.321959], [-71.11699, 42.32249], [-71.11661, 42.32281], [-71.116442, 42.322859], [-71.11542, 42.32316], [-71.115047, 42.323562], [-71.1149, 42.32372], [-71.11466, 42.32432], [-71.11395, 42.32474], [-71.1129, 42.32544], [-71.11276, 42.32586], [-71.112711, 42.326896], [-71.11271, 42.32692], [-71.112664, 42.326983], [-71.1121, 42.32776], [-71.111982, 42.328318], [-71.111956, 42.328439], [-71.11188, 42.3288], [-71.11088, 42.32901], [-71.11105, 42.32858], [-71.11112, 42.32781], [-71.1118, 42.32615], [-71.11244, 42.32491], [-71.112559, 42.32316], [-71.11258, 42.32286], [-71.11383, 42.32286], [-71.11437, 42.32307], [-71.11487, 42.32291], [-71.11522, 42.32252], [-71.11519, 42.32212], [-71.114874, 42.321183], [-71.11487, 42.32117], [-71.114319, 42.32126], [-71.11212, 42.32162], [-71.112116, 42.321598], [-71.111702, 42.319486], [-71.11166, 42.31927], [-71.11037, 42.31846], [-71.1108, 42.31751], [-71.112569, 42.3182], [-71.11262, 42.31822], [-71.11312, 42.31735], [-71.11376, 42.31743], [-71.11469, 42.31603], [-71.114825, 42.313502], [-71.11494, 42.31134], [-71.11533, 42.31039], [-71.11598, 42.30976], [-71.11676, 42.30949], [-71.11762, 42.30932], [-71.117967, 42.308812], [-71.11803, 42.30872], [-71.11907, 42.30875], [-71.11904, 42.30789], [-71.11854, 42.30677], [-71.11854, 42.30569], [-71.11833, 42.30497], [-71.11753, 42.30433], [-71.11676, 42.30409], [-71.11596, 42.30402], [-71.11545, 42.30376], [-71.11521, 42.30288], [-71.115266, 42.302027], [-71.11527, 42.30196], [-71.116788, 42.302323], [-71.116904, 42.302351]]]}}, {"type": "Feature", "properties": {"area_id": 4943, "city": "Boston", "state": "MA", "city_survey": true, "cat": "Still Desirable", "grade": "B", "label": "B5", "res": true, "com": false, "ind": false, "holc_grade": "B"}, "geometry": {"type": "Polygon", "coordinates": [[[-71.160052, 42.278007], [-71.16011, 42.27802], [-71.16201, 42.27958], [-71.161543, 42.28001], [-71.16088, 42.28062], [-71.160829, 42.280655], [-71.15953, 42.28154], [-71.159638, 42.281642], [-71.16067, 42.28262], [-71.16152, 42.2841], [-71.16352, 42.28555], [-71.16498, 42.28713], [-71.165296, 42.287492], [-71.1673, 42.28979], [-71.16363, 42.2923], [-71.16188, 42.29096], [-71.16063, 42.29164], [-71.16299, 42.29375], [-71.16381, 42.29407], [-71.16338, 42.29499], [-71.16224, 42.2957], [-71.16113, 42.29473], [-71.15846, 42.29589], [-71.15885, 42.29647], [-71.156813, 42.297946], [-71.15678, 42.29797], [-71.155982, 42.297353], [-71.15272, 42.29483], [-71.15206, 42.29437], [-71.150235, 42.29532], [-71.14664, 42.29719], [-71.14113, 42.30142], [-71.14095, 42.30095], [-71.14095, 42.2999], [-71.1417, 42.29921], [-71.14284, 42.29879], [-71.14302, 42.2986], [-71.14249, 42.29728], [-71.14541, 42.29699], [-71.14566, 42.29586], [-71.14602, 42.29517], [-71.14602, 42.29399], [-71.14548, 42.29367], [-71.14441, 42.29415], [-71.14298, 42.2952], [-71.14188, 42.29523], [-71.14067, 42.29541], [-71.13856, 42.29552], [-71.13696, 42.29591], [-71.13564, 42.29673], [-71.13471, 42.29689], [-71.13372, 42.29655], [-71.13421, 42.29626], [-71.135616, 42.294772], [-71.13593, 42.29444], [-71.136017, 42.294422], [-71.13892, 42.29383], [-71.14334, 42.29006], [-71.14306, 42.28969], [-71.14441, 42.289], [-71.145442, 42.288709], [-71.14611, 42.28852], [-71.14714, 42.28808], [-71.14878, 42.28771], [-71.15024, 42.28787], [-71.15203, 42.28802], [-71.1532, 42.28771], [-71.15438, 42.28678], [-71.15591, 42.28618], [-71.1567, 42.28565], [-71.15745, 42.28446], [-71.15748, 42.28386], [-71.156488, 42.283499], [-71.15638, 42.28346], [-71.15502, 42.28433], [-71.15245, 42.28552], [-71.14971, 42.28626], [-71.14785, 42.28652], [-71.147758, 42.286477], [-71.14677, 42.286018], [-71.14671, 42.28599], [-71.14675, 42.28512], [-71.14646, 42.28417], [-71.14579, 42.28325], [-71.14482, 42.28235], [-71.14336, 42.28151], [-71.14258, 42.28085], [-71.1414, 42.27982], [-71.14072, 42.27892], [-71.14123, 42.27856], [-71.141743, 42.278192], [-71.1419, 42.27808], [-71.14226, 42.27718], [-71.14372, 42.27679], [-71.14486, 42.27642], [-71.14554, 42.27573], [-71.14539, 42.274802], [-71.14539, 42.2748], [-71.14597, 42.27478], [-71.14689, 42.2752], [-71.14853, 42.27538], [-71.15081, 42.27528], [-71.151844, 42.274442], [-71.15229, 42.27408], [-71.15824, 42.27697], [-71.15963, 42.27791], [-71.160052, 42.278007]]]}}, {"type": "Feature", "properties": {"area_id": 5027, "city": "Boston", "state": "MA", "city_survey": true, "cat": "Still Desirable", "grade": "B", "label": "B6", "res": true, "com": false, "ind": false, "holc_grade": "B"}, "geometry": {"type": "Polygon", "coordinates": [[[-71.11751, 42.28968], [-71.117492, 42.289825], [-71.11699, 42.29397], [-71.11675, 42.29432], [-71.11632, 42.29446], [-71.11584, 42.29421], [-71.115362, 42.294568], [-71.11532, 42.2946], [-71.11346, 42.29377], [-71.113168, 42.292828], [-71.1131, 42.29261], [-71.11224, 42.29171], [-71.11346, 42.29097], [-71.11124, 42.28939], [-71.1128, 42.28883], [-71.1158, 42.28873], [-71.11599, 42.28915], [-71.116283, 42.289164], [-71.1168, 42.28919], [-71.117232, 42.289488], [-71.11751, 42.28968]]]}}, {"type": "Feature", "properties": {"area_id": 4928, "city": "Boston", "state": "MA", "city_survey": true, "cat": "Still Desirable", "grade": "B", "label": "B7", "res": true, "com": false, "ind": false, "holc_grade": "B"}, "geometry": {"type": "Polygon", "coordinates": [[[-71.11444, 42.267817], [-71.11661, 42.27113], [-71.11246, 42.27185], [-71.11042, 42.27059], [-71.11124, 42.26905], [-71.111966, 42.268721], [-71.11433, 42.26765], [-71.11444, 42.267817]]]}}, {"type": "Feature", "properties": {"area_id": 5650, "city": "Boston", "state": "MA", "city_survey": true, "cat": "Still Desirable", "grade": "B", "label": "B8", "res": true, "com": false, "ind": false, "holc_grade": "B"}, "geometry": {"type": "Polygon", "coordinates": [[[-71.07266, 42.27494], [-71.07401, 42.27552], [-71.07544, 42.27586], [-71.077591, 42.276783], [-71.07882, 42.27731], [-71.07942, 42.27825], [-71.08049, 42.27888], [-71.080463, 42.278976], [-71.08044, 42.27906], [-71.075527, 42.280502], [-71.0755, 42.28051], [-71.07115, 42.28141], [-71.07148, 42.28209], [-71.06499, 42.28402], [-71.06541, 42.28215], [-71.065291, 42.282183], [-71.06235, 42.28299], [-71.06331, 42.28465], [-71.06164, 42.28518], [-71.0616, 42.28571], [-71.05757, 42.28679], [-71.05672, 42.28614], [-71.05639, 42.28566], [-71.06111, 42.28455], [-71.0598, 42.2819], [-71.06583, 42.28005], [-71.06604, 42.27934], [-71.066099, 42.279322], [-71.07109, 42.2778], [-71.07216, 42.27606], [-71.07266, 42.27494]]]}}, {"type": "Feature", "properties": {"area_id": 4985, "city": "Boston", "state": "MA", "city_survey": true, "cat": "Definitely Declining", "grade": "C", "label": "C1", "res": true, "com": false, "ind": false, "holc_grade": "C"}, "geometry": {"type": "Polygon", "coordinates": [[[-71.15292, 42.33793], [-71.153178, 42.338025], [-71.15422, 42.33841], [-71.15731, 42.33977], [-71.15613, 42.3399], [-71.155667, 42.340242], [-71.155116, 42.340649], [-71.15506, 42.34069], [-71.154682, 42.341219], [-71.15446, 42.34153], [-71.15393, 42.34096], [-71.15161, 42.34061], [-71.15054, 42.34126], [-71.149989, 42.341458], [-71.149572, 42.341607], [-71.1487, 42.34192], [-71.14698, 42.34184], [-71.14567, 42.34219], [-71.14608, 42.34329], [-71.1468, 42.34403], [-71.14781, 42.3446], [-71.14971, 42.34495], [-71.15274, 42.34561], [-71.15333, 42.34438], [-71.153452, 42.343974], [-71.15375, 42.34298], [-71.15624, 42.34381], [-71.1572, 42.34214], [-71.15821, 42.34236], [-71.15922, 42.34307], [-71.16023, 42.34329], [-71.1613, 42.34118], [-71.16599, 42.34113], [-71.165697, 42.342093], [-71.16551, 42.34271], [-71.16361, 42.34491], [-71.16409, 42.34531], [-71.1667, 42.34254], [-71.16843, 42.34254], [-71.17193, 42.34689], [-71.16944, 42.34706], [-71.16789, 42.34671], [-71.16646, 42.34667], [-71.1648, 42.34948], [-71.16736, 42.35018], [-71.168549, 42.350094], [-71.1686, 42.35009], [-71.16908, 42.35058], [-71.16932, 42.35325], [-71.16955, 42.35444], [-71.17003, 42.35492], [-71.17134, 42.35584], [-71.17104, 42.35624], [-71.1692, 42.35628], [-71.16504, 42.35751], [-71.16207, 42.35756], [-71.162016, 42.357562], [-71.15416, 42.357802], [-71.15357, 42.35782], [-71.14442, 42.35519], [-71.138967, 42.354102], [-71.13735, 42.35378], [-71.13153, 42.35615], [-71.131346, 42.356127], [-71.12089, 42.35483], [-71.120932, 42.354644], [-71.121544, 42.351907], [-71.121588, 42.351709], [-71.12163, 42.35152], [-71.122924, 42.351631], [-71.12407, 42.35173], [-71.124934, 42.351128], [-71.12615, 42.35028], [-71.12667, 42.350181], [-71.128207, 42.34989], [-71.12847, 42.34984], [-71.128582, 42.349776], [-71.129882, 42.349037], [-71.132599, 42.347492], [-71.134802, 42.34624], [-71.13489, 42.34619], [-71.134934, 42.346159], [-71.135137, 42.346015], [-71.135517, 42.345747], [-71.138008, 42.343985], [-71.13868, 42.34351], [-71.14033, 42.34204], [-71.140666, 42.341589], [-71.14113, 42.340965], [-71.14135, 42.34067], [-71.14178, 42.33983], [-71.143552, 42.340036], [-71.1441, 42.3401], [-71.14467, 42.34001], [-71.14655, 42.33854], [-71.146548, 42.338528], [-71.146424, 42.337851], [-71.14638, 42.33761], [-71.147309, 42.337371], [-71.14883, 42.33698], [-71.15024, 42.33635], [-71.15137, 42.33648], [-71.15213, 42.337191], [-71.15292, 42.33793]]]}}, {"type": "Feature", "properties": {"area_id": 4926, "city": "Boston", "state": "MA", "city_survey": true, "cat": "Definitely Declining", "grade": "C", "label": "C10", "res": true, "com": false, "ind": false, "holc_grade": "C"}, "geometry": {"type": "Polygon", "coordinates": [[[-71.08809, 42.28224], [-71.08812, 42.282279], [-71.08923, 42.28372], [-71.089512, 42.283785], [-71.091552, 42.284259], [-71.09173, 42.2843], [-71.091985, 42.284449], [-71.092864, 42.284963], [-71.09308, 42.28509], [-71.094018, 42.287614], [-71.09408, 42.28778], [-71.093955, 42.287828], [-71.09337, 42.28805], [-71.09223, 42.28905], [-71.09166, 42.29079], [-71.0908, 42.29137], [-71.0903, 42.29248], [-71.09337, 42.29401], [-71.093025, 42.294538], [-71.091642, 42.296654], [-71.09137, 42.29707], [-71.090379, 42.297291], [-71.08688, 42.29807], [-71.086009, 42.301073], [-71.08503, 42.30445], [-71.085878, 42.305712], [-71.08595, 42.30582], [-71.086338, 42.305976], [-71.08767, 42.30651], [-71.08931, 42.30761], [-71.09159, 42.30909], [-71.09344, 42.31099], [-71.09387, 42.31236], [-71.095245, 42.313211], [-71.09526, 42.31322], [-71.095097, 42.313327], [-71.09433, 42.31383], [-71.09397, 42.31409], [-71.09376, 42.31462], [-71.08998, 42.31283], [-71.08713, 42.31618], [-71.087073, 42.316163], [-71.08338, 42.31504], [-71.08278, 42.31475], [-71.08164, 42.31449], [-71.07957, 42.31357], [-71.07943, 42.31388], [-71.07931, 42.313822], [-71.07547, 42.31196], [-71.07469, 42.31283], [-71.074316, 42.312702], [-71.073116, 42.312293], [-71.072588, 42.312113], [-71.07176, 42.31183], [-71.07268, 42.31009], [-71.075151, 42.308228], [-71.07674, 42.30703], [-71.07789, 42.30624], [-71.0786, 42.30585], [-71.07955, 42.30596], [-71.08032, 42.30561], [-71.080578, 42.305452], [-71.08068, 42.30539], [-71.07931, 42.30434], [-71.078445, 42.303256], [-71.078423, 42.303229], [-71.07836, 42.30315], [-71.07884, 42.30218], [-71.07919, 42.29933], [-71.079036, 42.297927], [-71.078901, 42.296698], [-71.0789, 42.29669], [-71.078851, 42.2967], [-71.07676, 42.29713], [-71.07468, 42.2912], [-71.07289, 42.29058], [-71.07177, 42.29036], [-71.071707, 42.290218], [-71.07117, 42.289], [-71.07147, 42.28711], [-71.07135, 42.28583], [-71.07182, 42.28482], [-71.07272, 42.28474], [-71.076781, 42.28397], [-71.07694, 42.28394], [-71.076296, 42.283257], [-71.07628, 42.28324], [-71.076278, 42.283211], [-71.07616, 42.28183], [-71.08252, 42.28047], [-71.085431, 42.281087], [-71.08667, 42.28135], [-71.087623, 42.281947], [-71.08809, 42.28224]]]}}, {"type": "Feature", "properties": {"area_id": 4927, "city": "Boston", "state": "MA", "city_survey": true, "cat": "Definitely Declining", "grade": "C", "label": "C11", "res": true, "com": false, "ind": false, "holc_grade": "C"}, "geometry": {"type": "Polygon", "coordinates": [[[-71.108136, 42.261268], [-71.10964, 42.26369], [-71.11204, 42.26756], [-71.111285, 42.268967], [-71.11124, 42.26905], [-71.11042, 42.27059], [-71.11246, 42.27185], [-71.1108, 42.2752], [-71.109477, 42.274573], [-71.109155, 42.274421], [-71.10871, 42.27421], [-71.107249, 42.278063], [-71.10719, 42.27822], [-71.10476, 42.27688], [-71.104, 42.27745], [-71.103416, 42.277105], [-71.10334, 42.27706], [-71.102301, 42.278014], [-71.102, 42.27829], [-71.100922, 42.277909], [-71.10064, 42.27781], [-71.0995, 42.27887], [-71.09967, 42.278976], [-71.100237, 42.27933], [-71.10043, 42.27945], [-71.100188, 42.279681], [-71.099516, 42.280322], [-71.098226, 42.281554], [-71.09822, 42.28156], [-71.098273, 42.281592], [-71.098327, 42.281624], [-71.098453, 42.2817], [-71.099584, 42.282378], [-71.09972, 42.28246], [-71.09515, 42.28731], [-71.09408, 42.28778], [-71.094018, 42.287614], [-71.09308, 42.28509], [-71.092864, 42.284963], [-71.091985, 42.284449], [-71.09173, 42.2843], [-71.091552, 42.284259], [-71.089512, 42.283785], [-71.08923, 42.28372], [-71.08812, 42.282279], [-71.08809, 42.28224], [-71.087623, 42.281947], [-71.08667, 42.28135], [-71.085431, 42.281087], [-71.08252, 42.28047], [-71.08044, 42.27906], [-71.080463, 42.278976], [-71.08049, 42.27888], [-71.08062, 42.27845], [-71.08139, 42.27744], [-71.08282, 42.27643], [-71.08282, 42.27585], [-71.0821, 42.27546], [-71.08113, 42.27441], [-71.07957, 42.27341], [-71.078796, 42.271651], [-71.0785, 42.27098], [-71.07814, 42.26993], [-71.079071, 42.26964], [-71.08014, 42.269306], [-71.081612, 42.268847], [-71.08378, 42.26817], [-71.08773, 42.26926], [-71.08966, 42.26941], [-71.089969, 42.267961], [-71.08998, 42.26791], [-71.09055, 42.26664], [-71.09099, 42.26654], [-71.091162, 42.266496], [-71.09162, 42.26638], [-71.092325, 42.266656], [-71.093903, 42.267275], [-71.09412, 42.26736], [-71.09647, 42.26482], [-71.09722, 42.2635], [-71.098276, 42.263409], [-71.09872, 42.26337], [-71.10185, 42.26044], [-71.10331, 42.26026], [-71.1056, 42.261], [-71.107542, 42.260664], [-71.10774, 42.26063], [-71.107814, 42.260749], [-71.108136, 42.261268]]]}}, {"type": "Feature", "properties": {"area_id": 4922, "city": "Boston", "state": "MA", "city_survey": true, "cat": "Definitely Declining", "grade": "C", "label": "C12", "res": true, "com": false, "ind": false, "holc_grade": "C"}, "geometry": {"type": "Polygon", "coordinates": [[[-71.11545, 42.30376], [-71.11596, 42.30402], [-71.11676, 42.30409], [-71.11753, 42.30433], [-71.11833, 42.30497], [-71.11854, 42.30569], [-71.11854, 42.30677], [-71.11904, 42.30789], [-71.11907, 42.30875], [-71.11803, 42.30872], [-71.117967, 42.308812], [-71.11762, 42.30932], [-71.11676, 42.30949], [-71.11598, 42.30976], [-71.11533, 42.31039], [-71.11494, 42.31134], [-71.114825, 42.313502], [-71.11469, 42.31603], [-71.11376, 42.31743], [-71.11312, 42.31735], [-71.11262, 42.31822], [-71.112569, 42.3182], [-71.1108, 42.31751], [-71.11037, 42.31846], [-71.11166, 42.31927], [-71.111702, 42.319486], [-71.112116, 42.321598], [-71.11212, 42.32162], [-71.114319, 42.32126], [-71.11487, 42.32117], [-71.114874, 42.321183], [-71.11519, 42.32212], [-71.11522, 42.32252], [-71.11487, 42.32291], [-71.11437, 42.32307], [-71.11383, 42.32286], [-71.11258, 42.32286], [-71.112559, 42.32316], [-71.11244, 42.32491], [-71.1118, 42.32615], [-71.11112, 42.32781], [-71.11105, 42.32858], [-71.11088, 42.32901], [-71.110808, 42.329004], [-71.110743, 42.328999], [-71.11063, 42.32899], [-71.10796, 42.32727], [-71.107269, 42.326927], [-71.106983, 42.326785], [-71.10649, 42.32654], [-71.106516, 42.326495], [-71.106612, 42.326329], [-71.10692, 42.3258], [-71.10749, 42.32551], [-71.107493, 42.325503], [-71.10774, 42.32493], [-71.10806, 42.32456], [-71.10774, 42.32403], [-71.108295, 42.323189], [-71.10838, 42.32306], [-71.108413, 42.322599], [-71.10842, 42.3225], [-71.108296, 42.322406], [-71.10671, 42.32121], [-71.10514, 42.31944], [-71.10407, 42.31997], [-71.102938, 42.319306], [-71.10286, 42.31926], [-71.102867, 42.31925], [-71.10382, 42.31794], [-71.10432, 42.31691], [-71.10582, 42.31295], [-71.107223, 42.310566], [-71.10771, 42.30974], [-71.11341, 42.30143], [-71.113646, 42.301421], [-71.11468, 42.30138], [-71.11527, 42.30196], [-71.115266, 42.302027], [-71.11521, 42.30288], [-71.11545, 42.30376]]]}}, {"type": "Feature", "properties": {"area_id": 4923, "city": "Boston", "state": "MA", "city_survey": true, "cat": "Definitely Declining", "grade": "C", "label": "C13", "res": true, "com": false, "ind": false, "holc_grade": "C"}, "geometry": {"type": "Polygon", "coordinates": [[[-71.10963, 42.30412], [-71.10927, 42.30386], [-71.104015, 42.309286], [-71.10036, 42.31306], [-71.09783, 42.31216], [-71.09694, 42.31293], [-71.096935, 42.312934], [-71.09587, 42.31365], [-71.09526, 42.31322], [-71.096366, 42.312568], [-71.09705, 42.312165], [-71.097269, 42.312036], [-71.09733, 42.312], [-71.097336, 42.311986], [-71.09774, 42.31107], [-71.09798, 42.30965], [-71.09887, 42.30916], [-71.099052, 42.309072], [-71.09982, 42.3087], [-71.099971, 42.308256], [-71.1, 42.30817], [-71.100033, 42.308124], [-71.100149, 42.307964], [-71.100396, 42.307622], [-71.1006, 42.30734], [-71.10104, 42.30701], [-71.10161, 42.30714], [-71.10187, 42.3067], [-71.1025, 42.30668], [-71.10265, 42.30648], [-71.10271, 42.306246], [-71.10288, 42.30558], [-71.10333, 42.30477], [-71.10339, 42.30413], [-71.1041, 42.30308], [-71.10538, 42.30191], [-71.10686, 42.30117], [-71.10778, 42.30125], [-71.108344, 42.301269], [-71.11108, 42.30136], [-71.11168, 42.301381], [-71.11252, 42.30141], [-71.10963, 42.30412]]]}}, {"type": "Feature", "properties": {"area_id": 4945, "city": "Boston", "state": "MA", "city_survey": true, "cat": "Definitely Declining", "grade": "C", "label": "C14", "res": true, "com": false, "ind": false, "holc_grade": "C"}, "geometry": {"type": "Polygon", "coordinates": [[[-71.14014, 42.27164], [-71.140099, 42.274184], [-71.14008, 42.27533], [-71.14014, 42.275593], [-71.14055, 42.2774], [-71.14123, 42.27856], [-71.14072, 42.27892], [-71.1414, 42.27982], [-71.14258, 42.28085], [-71.14336, 42.28151], [-71.14482, 42.28235], [-71.14579, 42.28325], [-71.14646, 42.28417], [-71.14675, 42.28512], [-71.14671, 42.28599], [-71.14677, 42.286018], [-71.147758, 42.286477], [-71.14785, 42.28652], [-71.14971, 42.28626], [-71.15245, 42.28552], [-71.15502, 42.28433], [-71.15638, 42.28346], [-71.156488, 42.283499], [-71.15748, 42.28386], [-71.15745, 42.28446], [-71.1567, 42.28565], [-71.15591, 42.28618], [-71.15438, 42.28678], [-71.1532, 42.28771], [-71.15203, 42.28802], [-71.15024, 42.28787], [-71.14878, 42.28771], [-71.14714, 42.28808], [-71.14611, 42.28852], [-71.145442, 42.288709], [-71.14441, 42.289], [-71.14306, 42.28969], [-71.14334, 42.29006], [-71.13892, 42.29383], [-71.136017, 42.294422], [-71.13593, 42.29444], [-71.135616, 42.294772], [-71.13421, 42.29626], [-71.13372, 42.29655], [-71.133534, 42.296456], [-71.13303, 42.2962], [-71.13212, 42.29595], [-71.13051, 42.29606], [-71.12933, 42.296406], [-71.12918, 42.29645], [-71.12946, 42.29581], [-71.13041, 42.29476], [-71.13041, 42.293611], [-71.13041, 42.29349], [-71.12937, 42.29272], [-71.12924, 42.292622], [-71.12746, 42.29128], [-71.127693, 42.291172], [-71.12785, 42.2911], [-71.126752, 42.290626], [-71.12623, 42.2904], [-71.12214, 42.29553], [-71.12086, 42.29581], [-71.12019, 42.29655], [-71.12033, 42.2981], [-71.11967, 42.29982], [-71.118472, 42.300035], [-71.11772, 42.30017], [-71.11468, 42.30138], [-71.113646, 42.301421], [-71.11341, 42.30143], [-71.11252, 42.30141], [-71.11168, 42.301381], [-71.11108, 42.30136], [-71.11067, 42.30096], [-71.10948, 42.3004], [-71.10734, 42.30012], [-71.10539, 42.30002], [-71.105313, 42.299365], [-71.10529, 42.29917], [-71.105477, 42.298944], [-71.105751, 42.298611], [-71.10581, 42.29854], [-71.10705, 42.29815], [-71.10776, 42.29808], [-71.10805, 42.29829], [-71.107652, 42.29866], [-71.10748, 42.29882], [-71.10986, 42.29924], [-71.110063, 42.298525], [-71.110069, 42.298503], [-71.11009, 42.29843], [-71.111892, 42.296313], [-71.11209, 42.29608], [-71.1129, 42.2965], [-71.11532, 42.2946], [-71.115362, 42.294568], [-71.11584, 42.29421], [-71.11632, 42.29446], [-71.11675, 42.29432], [-71.11699, 42.29397], [-71.117492, 42.289825], [-71.11751, 42.28968], [-71.117232, 42.289488], [-71.1168, 42.28919], [-71.116283, 42.289164], [-71.11599, 42.28915], [-71.1158, 42.28873], [-71.1128, 42.28883], [-71.11109, 42.28778], [-71.11028, 42.2881], [-71.10976, 42.28778], [-71.10791, 42.28855], [-71.10562, 42.28658], [-71.106684, 42.285798], [-71.10762, 42.28511], [-71.10909, 42.28465], [-71.109467, 42.284607], [-71.10971, 42.28458], [-71.11014, 42.28391], [-71.11104, 42.28342], [-71.11228, 42.28286], [-71.11318, 42.28212], [-71.113494, 42.281509], [-71.11356, 42.28138], [-71.11352, 42.28043], [-71.113495, 42.27998], [-71.11347, 42.27952], [-71.11375, 42.27885], [-71.11518, 42.27807], [-71.11498, 42.27774], [-71.11472, 42.27731], [-71.117235, 42.276056], [-71.117432, 42.275957], [-71.121241, 42.274058], [-71.121794, 42.273783], [-71.124594, 42.272386], [-71.132091, 42.268648], [-71.13744, 42.26598], [-71.13788, 42.26706], [-71.13954, 42.26807], [-71.14031, 42.26931], [-71.14014, 42.27164]]]}}, {"type": "Feature", "properties": {"area_id": 4944, "city": "Boston", "state": "MA", "city_survey": true, "cat": "Definitely Declining", "grade": "C", "label": "C15", "res": true, "com": false, "ind": false, "holc_grade": "C"}, "geometry": {"type": "Polygon", "coordinates": [[[-71.166693, 42.279222], [-71.1678, 42.2794], [-71.16843, 42.28061], [-71.16959, 42.28035], [-71.17054, 42.28038], [-71.17273, 42.2849], [-71.17095, 42.2861], [-71.17244, 42.28914], [-71.17209, 42.28923], [-71.17168, 42.28912], [-71.16997, 42.29032], [-71.17168, 42.29392], [-71.16973, 42.29533], [-71.16812, 42.29408], [-71.16729, 42.29415], [-71.16527, 42.29543], [-71.16491, 42.29489], [-71.16381, 42.29407], [-71.16299, 42.29375], [-71.16063, 42.29164], [-71.16188, 42.29096], [-71.16363, 42.2923], [-71.1673, 42.28979], [-71.165296, 42.287492], [-71.16498, 42.28713], [-71.16352, 42.28555], [-71.16152, 42.2841], [-71.16067, 42.28262], [-71.159638, 42.281642], [-71.15953, 42.28154], [-71.160829, 42.280655], [-71.16088, 42.28062], [-71.161543, 42.28001], [-71.16201, 42.27958], [-71.162654, 42.279405], [-71.1637, 42.27912], [-71.164956, 42.279039], [-71.1651, 42.27903], [-71.16593, 42.2791], [-71.166693, 42.279222]]]}}, {"type": "Feature", "properties": {"area_id": 4940, "city": "Boston", "state": "MA", "city_survey": true, "cat": "Definitely Declining", "grade": "C", "label": "C16", "res": true, "com": false, "ind": false, "holc_grade": "C"}, "geometry": {"type": "Polygon", "coordinates": [[[-71.166871, 42.261708], [-71.17141, 42.26514], [-71.17156, 42.26609], [-71.17384, 42.26667], [-71.174076, 42.267006], [-71.174503, 42.267614], [-71.17469, 42.26788], [-71.174595, 42.268256], [-71.174563, 42.268384], [-71.17441, 42.26899], [-71.173306, 42.269733], [-71.17291, 42.27], [-71.173068, 42.270438], [-71.173106, 42.270546], [-71.17327, 42.271], [-71.17127, 42.27279], [-71.16985, 42.2739], [-71.17106, 42.27543], [-71.1697, 42.27659], [-71.1722, 42.27685], [-71.17202, 42.27903], [-71.17071, 42.27896], [-71.16747, 42.27855], [-71.167776, 42.279339], [-71.1678, 42.2794], [-71.166693, 42.279222], [-71.16593, 42.2791], [-71.1651, 42.27903], [-71.164956, 42.279039], [-71.1637, 42.27912], [-71.162654, 42.279405], [-71.16201, 42.27958], [-71.16011, 42.27802], [-71.160052, 42.278007], [-71.15963, 42.27791], [-71.16011, 42.27672], [-71.15996, 42.27523], [-71.16052, 42.27323], [-71.15901, 42.27237], [-71.15859, 42.27142], [-71.1588, 42.27057], [-71.15981, 42.26953], [-71.16017, 42.26881], [-71.15969, 42.26775], [-71.1585, 42.26692], [-71.15737, 42.26725], [-71.15595, 42.26835], [-71.15545, 42.269], [-71.15149, 42.27164], [-71.15317, 42.27338], [-71.15229, 42.27408], [-71.151844, 42.274442], [-71.15081, 42.27528], [-71.14853, 42.27538], [-71.14689, 42.2752], [-71.14597, 42.27478], [-71.14539, 42.2748], [-71.144814, 42.274193], [-71.14447, 42.27383], [-71.144438, 42.273762], [-71.14411, 42.27306], [-71.14749, 42.270139], [-71.1511, 42.26702], [-71.150921, 42.266841], [-71.1506, 42.26652], [-71.15028, 42.2656], [-71.14978, 42.26496], [-71.14903, 42.26446], [-71.14925, 42.26396], [-71.15056, 42.26367], [-71.15274, 42.26259], [-71.15295, 42.26203], [-71.15274, 42.26164], [-71.1521, 42.26153], [-71.15031, 42.2619], [-71.14999, 42.26185], [-71.1496, 42.26124], [-71.14946, 42.26069], [-71.1496, 42.25979], [-71.15207, 42.25838], [-71.152227, 42.258297], [-71.15849, 42.25497], [-71.161577, 42.257543], [-71.161583, 42.257549], [-71.163395, 42.259059], [-71.16366, 42.25928], [-71.16617, 42.261178], [-71.16655, 42.261465], [-71.166871, 42.261708]]]}}, {"type": "Feature", "properties": {"area_id": 4930, "city": "Boston", "state": "MA", "city_survey": true, "cat": "Definitely Declining", "grade": "C", "label": "C17", "res": true, "com": false, "ind": false, "holc_grade": "C"}, "geometry": {"type": "Polygon", "coordinates": [[[-71.12745, 42.23621], [-71.12638, 42.23612], [-71.12614, 42.23586], [-71.12989, 42.23203], [-71.13482, 42.23313], [-71.13553, 42.23445], [-71.13619, 42.23498], [-71.13702, 42.23489], [-71.13767, 42.23449], [-71.13779, 42.23357], [-71.13827, 42.23304], [-71.139268, 42.233646], [-71.13957, 42.23383], [-71.13666, 42.23634], [-71.13592, 42.23807], [-71.14335, 42.24018], [-71.14342, 42.24043], [-71.143998, 42.242471], [-71.14436, 42.24375], [-71.144258, 42.243748], [-71.14204, 42.2437], [-71.14121, 42.24392], [-71.14092, 42.24441], [-71.14103, 42.24507], [-71.14193, 42.24586], [-71.1399, 42.24828], [-71.14282, 42.24929], [-71.14056, 42.25263], [-71.1402, 42.25272], [-71.13955, 42.2525], [-71.139443, 42.252336], [-71.13889, 42.25149], [-71.139024, 42.250947], [-71.13913, 42.25052], [-71.139152, 42.250421], [-71.13931, 42.24969], [-71.139141, 42.248985], [-71.13913, 42.24894], [-71.13693, 42.24718], [-71.13646, 42.24625], [-71.136308, 42.246368], [-71.13628, 42.24639], [-71.136232, 42.246471], [-71.136041, 42.246796], [-71.13592, 42.247], [-71.13527, 42.2474], [-71.134539, 42.247464], [-71.13378, 42.24753], [-71.133465, 42.247735], [-71.13258, 42.248309], [-71.13164, 42.24892], [-71.13421, 42.24994], [-71.136014, 42.251245], [-71.13616, 42.25135], [-71.133917, 42.253433], [-71.13321, 42.25409], [-71.133525, 42.254193], [-71.133948, 42.25433], [-71.13407, 42.25437], [-71.1325, 42.25617], [-71.13227, 42.256128], [-71.13212, 42.2561], [-71.13117, 42.25687], [-71.130941, 42.257038], [-71.13026, 42.25754], [-71.13155, 42.25817], [-71.13226, 42.25884], [-71.1334, 42.25944], [-71.13397, 42.26043], [-71.13469, 42.26102], [-71.13568, 42.26176], [-71.13663, 42.26335], [-71.13744, 42.26598], [-71.132091, 42.268648], [-71.124594, 42.272386], [-71.121794, 42.273783], [-71.121241, 42.274058], [-71.117432, 42.275957], [-71.117235, 42.276056], [-71.11472, 42.27731], [-71.11429, 42.27703], [-71.11648, 42.2745], [-71.11661, 42.27113], [-71.11444, 42.267817], [-71.11433, 42.26765], [-71.11553, 42.26714], [-71.11325, 42.26282], [-71.10964, 42.26369], [-71.108136, 42.261268], [-71.107814, 42.260749], [-71.10774, 42.26063], [-71.10891, 42.26115], [-71.11012, 42.261181], [-71.11046, 42.26119], [-71.11224, 42.26058], [-71.11242, 42.25987], [-71.11367, 42.25912], [-71.113376, 42.258829], [-71.11283, 42.25829], [-71.11474, 42.25715], [-71.11497, 42.25671], [-71.11527, 42.25583], [-71.1161, 42.25503], [-71.11575, 42.25468], [-71.11753, 42.25323], [-71.11854, 42.25284], [-71.11248, 42.24743], [-71.11527, 42.24611], [-71.114529, 42.245302], [-71.11438, 42.24514], [-71.11604, 42.24399], [-71.11735, 42.24355], [-71.121623, 42.241622], [-71.12329, 42.24087], [-71.12573, 42.24298], [-71.12531, 42.24342], [-71.126208, 42.244513], [-71.12632, 42.24465], [-71.12739, 42.2458], [-71.12852, 42.24602], [-71.128932, 42.246322], [-71.12912, 42.24646], [-71.12965, 42.24769], [-71.13357, 42.23982], [-71.132796, 42.23941], [-71.13191, 42.23894], [-71.129, 42.23806], [-71.12965, 42.23687], [-71.12828, 42.23616], [-71.12745, 42.23621]]]}}, {"type": "Feature", "properties": {"area_id": 4931, "city": "Boston", "state": "MA", "city_survey": true, "cat": "Definitely Declining", "grade": "C", "label": "C18", "res": true, "com": false, "ind": false, "holc_grade": "C"}, "geometry": {"type": "Polygon", "coordinates": [[[-71.114529, 42.245302], [-71.11527, 42.24611], [-71.11248, 42.24743], [-71.11854, 42.25284], [-71.11753, 42.25323], [-71.11575, 42.25468], [-71.1161, 42.25503], [-71.11527, 42.25583], [-71.11497, 42.25671], [-71.11474, 42.25715], [-71.11283, 42.25829], [-71.110235, 42.256064], [-71.10939, 42.25534], [-71.109414, 42.252357], [-71.109425, 42.250914], [-71.109449, 42.247937], [-71.10945, 42.24782], [-71.11438, 42.24514], [-71.114529, 42.245302]]]}}, {"type": "Feature", "properties": {"area_id": 4994, "city": "Boston", "state": "MA", "city_survey": true, "cat": "Definitely Declining", "grade": "C", "label": "C2", "res": true, "com": false, "ind": false, "holc_grade": "C"}, "geometry": {"type": "Polygon", "coordinates": [[[-71.015563, 42.3799], [-71.01567, 42.37986], [-71.016506, 42.380089], [-71.01662, 42.38012], [-71.02345, 42.37424], [-71.027942, 42.377052], [-71.02821, 42.37722], [-71.028027, 42.377363], [-71.02702, 42.37815], [-71.02675, 42.37905], [-71.02611, 42.37975], [-71.022325, 42.381205], [-71.01555, 42.38381], [-71.010351, 42.385402], [-71.01026, 42.38543], [-71.01026, 42.385266], [-71.01026, 42.38517], [-71.010651, 42.384881], [-71.013381, 42.382868], [-71.01365, 42.38267], [-71.01252, 42.38104], [-71.012691, 42.380976], [-71.013523, 42.380664], [-71.01534, 42.379984], [-71.015563, 42.3799]]]}}, {"type": "Feature", "properties": {"area_id": 4996, "city": "Boston", "state": "MA", "city_survey": true, "cat": "Definitely Declining", "grade": "C", "label": "C3", "res": true, "com": false, "ind": false, "holc_grade": "C"}, "geometry": {"type": "Polygon", "coordinates": [[[-71.0014, 42.38295], [-71.00364, 42.3838], [-71.004691, 42.383946], [-71.005214, 42.384019], [-71.00587, 42.38411], [-71.00596, 42.384235], [-71.00653, 42.38503], [-71.00692, 42.38624], [-71.00052, 42.38829], [-71.00052, 42.38855], [-71.0064, 42.38894], [-71.01032, 42.38991], [-71.01252, 42.39083], [-71.013009, 42.39178], [-71.01323, 42.39221], [-71.01528, 42.39379], [-71.01506, 42.3943], [-71.01454, 42.39453], [-71.010932, 42.394335], [-71.01009, 42.39429], [-71.00926, 42.39383], [-71.0075, 42.39332], [-71.00665, 42.39321], [-71.00394, 42.39353], [-71.00123, 42.39464], [-70.9994, 42.39551], [-70.995067, 42.39354], [-70.995, 42.39351], [-70.994524, 42.393208], [-70.99374, 42.39271], [-70.98961, 42.39306], [-70.98761, 42.39214], [-70.98754, 42.39092], [-70.98806, 42.38974], [-70.98813, 42.38904], [-70.98759, 42.38816], [-70.98723, 42.3877], [-70.98732, 42.38726], [-70.98801, 42.38721], [-70.99037, 42.38777], [-70.99322, 42.38667], [-70.99545, 42.38556], [-70.995741, 42.385168], [-70.996, 42.38482], [-70.996037, 42.384374], [-70.99607, 42.38398], [-70.99609, 42.38301], [-70.996145, 42.382897], [-70.99646, 42.38225], [-70.99784, 42.38183], [-70.999102, 42.381914], [-70.9995, 42.38194], [-71.00088, 42.38253], [-71.0014, 42.38295]]]}}, {"type": "Feature", "properties": {"area_id": 4950, "city": "Boston", "state": "MA", "city_survey": true, "cat": "Definitely Declining", "grade": "C", "label": "C4", "res": true, "com": false, "ind": false, "holc_grade": "C"}, "geometry": {"type": "Polygon", "coordinates": [[[-71.06598, 42.35771], [-71.06609, 42.35837], [-71.06823, 42.35818], [-71.06859, 42.35903], [-71.07019, 42.35892], [-71.06969, 42.35808], [-71.07215, 42.35745], [-71.07162, 42.35945], [-71.071759, 42.359462], [-71.072066, 42.359489], [-71.07219, 42.3595], [-71.072092, 42.360248], [-71.07206, 42.36049], [-71.07159, 42.36102], [-71.0707, 42.36126], [-71.07048, 42.35958], [-71.06657, 42.35968], [-71.06656, 42.359354], [-71.06656, 42.35934], [-71.065217, 42.359367], [-71.065048, 42.35937], [-71.06456, 42.35938], [-71.06453, 42.35844], [-71.065082, 42.358357], [-71.06513, 42.35835], [-71.065103, 42.357917], [-71.0651, 42.35787], [-71.065106, 42.357869], [-71.06598, 42.35771]]]}}, {"type": "Feature", "properties": {"area_id": 4948, "city": "Boston", "state": "MA", "city_survey": true, "cat": "Definitely Declining", "grade": "C", "label": "C5", "res": true, "com": false, "ind": false, "holc_grade": "C"}, "geometry": {"type": "Polygon", "coordinates": [[[-71.09114, 42.34988], [-71.089273, 42.350399], [-71.081072, 42.352679], [-71.0765, 42.35395], [-71.076316, 42.353498], [-71.0756, 42.35174], [-71.08006, 42.350677], [-71.0824, 42.35012], [-71.08206, 42.34939], [-71.08748, 42.34795], [-71.088085, 42.347925], [-71.0916, 42.34778], [-71.09162, 42.34995], [-71.09114, 42.34988]]]}}, {"type": "Feature", "properties": {"area_id": 4947, "city": "Boston", "state": "MA", "city_survey": true, "cat": "Definitely Declining", "grade": "C", "label": "C6", "res": true, "com": false, "ind": false, "holc_grade": "C"}, "geometry": {"type": "Polygon", "coordinates": [[[-71.112569, 42.331971], [-71.113014, 42.331942], [-71.11305, 42.33194], [-71.113268, 42.332325], [-71.11344, 42.33263], [-71.11274, 42.33334], [-71.11245, 42.333633], [-71.11171, 42.33438], [-71.111545, 42.33455], [-71.111498, 42.334598], [-71.11106, 42.33505], [-71.110949, 42.335536], [-71.11078, 42.33628], [-71.11144, 42.33734], [-71.11111, 42.3386], [-71.11063, 42.34022], [-71.110315, 42.340625], [-71.10954, 42.34162], [-71.10764, 42.34278], [-71.106507, 42.343366], [-71.10588, 42.34369], [-71.105934, 42.34381], [-71.105934, 42.343811], [-71.10731, 42.34689], [-71.107052, 42.34783], [-71.1068, 42.348748], [-71.10678, 42.34882], [-71.101975, 42.347878], [-71.09979, 42.34745], [-71.098249, 42.347512], [-71.09508, 42.34764], [-71.0916, 42.34778], [-71.088085, 42.347925], [-71.08748, 42.34795], [-71.086232, 42.34772], [-71.08548, 42.347581], [-71.08515, 42.34752], [-71.0843, 42.34626], [-71.08282, 42.34608], [-71.082276, 42.3457], [-71.08179, 42.34536], [-71.084928, 42.342751], [-71.08505, 42.34265], [-71.085761, 42.342124], [-71.086829, 42.341332], [-71.08713, 42.34111], [-71.09547, 42.33782], [-71.095731, 42.33772], [-71.097067, 42.337211], [-71.100351, 42.335957], [-71.103165, 42.334883], [-71.104088, 42.334531], [-71.10721, 42.33334], [-71.10967, 42.33334], [-71.11095, 42.33283], [-71.11221, 42.332028], [-71.11227, 42.33199], [-71.112569, 42.331971]]]}}, {"type": "Feature", "properties": {"area_id": 4976, "city": "Boston", "state": "MA", "city_survey": true, "cat": "Definitely Declining", "grade": "C", "label": "C7", "res": true, "com": false, "ind": false, "holc_grade": "C"}, "geometry": {"type": "Polygon", "coordinates": [[[-71.040119, 42.333028], [-71.04012, 42.33306], [-71.04148, 42.333036], [-71.04416, 42.33299], [-71.044207, 42.335471], [-71.04422, 42.33615], [-71.0334, 42.3364], [-71.0334, 42.33578], [-71.03141, 42.33578], [-71.03129, 42.33637], [-71.029255, 42.336404], [-71.02713, 42.33644], [-71.02724, 42.338272], [-71.02725, 42.33844], [-71.02541, 42.33844], [-71.025396, 42.338321], [-71.02508, 42.33565], [-71.02514, 42.33332], [-71.03116, 42.330857], [-71.0334, 42.32994], [-71.03462, 42.32963], [-71.035216, 42.329608], [-71.03625, 42.32957], [-71.037247, 42.329841], [-71.03783, 42.33], [-71.04003, 42.3306], [-71.040119, 42.333028]]]}}, {"type": "Feature", "properties": {"area_id": 4921, "city": "Boston", "state": "MA", "city_survey": true, "cat": "Definitely Declining", "grade": "C", "label": "C8", "res": true, "com": false, "ind": false, "holc_grade": "C"}, "geometry": {"type": "Polygon", "coordinates": [[[-71.0622, 42.29564], [-71.06245, 42.2962], [-71.0627, 42.29807], [-71.06637, 42.29709], [-71.066278, 42.297275], [-71.06587, 42.29809], [-71.06459, 42.29912], [-71.06512, 42.29947], [-71.07065, 42.29788], [-71.07104, 42.29875], [-71.07165, 42.29931], [-71.07247, 42.29968], [-71.072479, 42.299798], [-71.07257, 42.30102], [-71.0724, 42.30218], [-71.07204, 42.30271], [-71.07225, 42.30371], [-71.07314, 42.30434], [-71.07432, 42.30461], [-71.07592, 42.30466], [-71.077014, 42.304975], [-71.0771, 42.305], [-71.0786, 42.30585], [-71.07789, 42.30624], [-71.07674, 42.30703], [-71.075151, 42.308228], [-71.07268, 42.31009], [-71.07176, 42.31183], [-71.07172, 42.311914], [-71.068562, 42.318525], [-71.06855, 42.31855], [-71.069551, 42.318893], [-71.0697, 42.318944], [-71.07001, 42.31905], [-71.070034, 42.319075], [-71.07051, 42.31958], [-71.07112, 42.32005], [-71.071323, 42.320202], [-71.07176, 42.32053], [-71.07186, 42.320685], [-71.072179, 42.321181], [-71.07228, 42.321339], [-71.0723, 42.32137], [-71.072045, 42.321373], [-71.06973, 42.3214], [-71.06802, 42.32126], [-71.065935, 42.321496], [-71.06563, 42.32153], [-71.06303, 42.32104], [-71.06256, 42.32088], [-71.06217, 42.32125], [-71.06178, 42.32244], [-71.06135, 42.3232], [-71.06064, 42.32426], [-71.05882, 42.328], [-71.05861, 42.32797], [-71.056854, 42.32641], [-71.05682, 42.32638], [-71.056826, 42.32627], [-71.05697, 42.32353], [-71.05379, 42.32361], [-71.05304, 42.32239], [-71.052183, 42.319767], [-71.052136, 42.319624], [-71.05205, 42.31936], [-71.052069, 42.316348], [-71.05208, 42.31469], [-71.052003, 42.314674], [-71.05141, 42.31455], [-71.05032, 42.31427], [-71.04941, 42.31363], [-71.04899, 42.31297], [-71.04784, 42.31272], [-71.04656, 42.31219], [-71.0459, 42.31124], [-71.04609, 42.31096], [-71.04571, 42.31022], [-71.0459, 42.30991], [-71.0459, 42.30892], [-71.04998, 42.30812], [-71.05046, 42.30836], [-71.05165, 42.30843], [-71.05198, 42.30892], [-71.05364, 42.30963], [-71.05355, 42.31029], [-71.05293, 42.31135], [-71.053105, 42.311443], [-71.05597, 42.31297], [-71.056877, 42.312948], [-71.057398, 42.312936], [-71.05887, 42.3129], [-71.058896, 42.312829], [-71.058918, 42.312771], [-71.05988, 42.310153], [-71.06001, 42.3098], [-71.05911, 42.30899], [-71.059343, 42.307839], [-71.0603, 42.30312], [-71.05982, 42.30217], [-71.059931, 42.301774], [-71.060342, 42.300302], [-71.06039, 42.30013], [-71.061832, 42.300002], [-71.0623, 42.29996], [-71.062727, 42.299773], [-71.06287, 42.29971], [-71.06211, 42.29862], [-71.06063, 42.29904], [-71.060962, 42.297475], [-71.06106, 42.29701], [-71.05697, 42.29813], [-71.05645, 42.29746], [-71.05155, 42.29405], [-71.05079, 42.29331], [-71.050428, 42.292859], [-71.04651, 42.28797], [-71.045188, 42.28689], [-71.04509, 42.28681], [-71.04434, 42.286536], [-71.04238, 42.28582], [-71.04255, 42.285726], [-71.04409, 42.28487], [-71.04637, 42.28414], [-71.04989, 42.28343], [-71.05103, 42.28565], [-71.04932, 42.28607], [-71.04975, 42.28719], [-71.049051, 42.287312], [-71.04889, 42.28734], [-71.04918, 42.28818], [-71.050746, 42.287891], [-71.05455, 42.28719], [-71.055196, 42.288295], [-71.05583, 42.28938], [-71.05811, 42.28867], [-71.058079, 42.288579], [-71.05773, 42.28755], [-71.05854, 42.28734], [-71.0594, 42.28804], [-71.05978, 42.28804], [-71.06391, 42.28698], [-71.064109, 42.286402], [-71.0642, 42.28614], [-71.06556, 42.292037], [-71.06596, 42.29377], [-71.06496, 42.29409], [-71.06263, 42.29443], [-71.0622, 42.29564]]]}}, {"type": "Feature", "properties": {"area_id": 4925, "city": "Boston", "state": "MA", "city_survey": true, "cat": "Definitely Declining", "grade": "C", "label": "C9", "res": true, "com": false, "ind": false, "holc_grade": "C"}, "geometry": {"type": "Polygon", "coordinates": [[[-71.078796, 42.271651], [-71.07957, 42.27341], [-71.08113, 42.27441], [-71.0821, 42.27546], [-71.08282, 42.27585], [-71.08282, 42.27643], [-71.08139, 42.27744], [-71.08062, 42.27845], [-71.08049, 42.27888], [-71.07942, 42.27825], [-71.07882, 42.27731], [-71.077591, 42.276783], [-71.07544, 42.27586], [-71.07401, 42.27552], [-71.07266, 42.27494], [-71.07216, 42.27606], [-71.07109, 42.2778], [-71.066099, 42.279322], [-71.06604, 42.27934], [-71.06583, 42.28005], [-71.0598, 42.2819], [-71.06111, 42.28455], [-71.05639, 42.28566], [-71.05672, 42.28614], [-71.05757, 42.28679], [-71.0616, 42.28571], [-71.06164, 42.28518], [-71.06331, 42.28465], [-71.06235, 42.28299], [-71.065291, 42.282183], [-71.06541, 42.28215], [-71.06499, 42.28402], [-71.07148, 42.28209], [-71.07115, 42.28141], [-71.0755, 42.28051], [-71.075527, 42.280502], [-71.08044, 42.27906], [-71.08252, 42.28047], [-71.07616, 42.28183], [-71.076278, 42.283211], [-71.07628, 42.28324], [-71.076296, 42.283257], [-71.07694, 42.28394], [-71.076781, 42.28397], [-71.07272, 42.28474], [-71.07182, 42.28482], [-71.07135, 42.28583], [-71.07147, 42.28711], [-71.07117, 42.289], [-71.071707, 42.290218], [-71.07177, 42.29036], [-71.07289, 42.29058], [-71.07468, 42.2912], [-71.07676, 42.29713], [-71.078851, 42.2967], [-71.0789, 42.29669], [-71.078901, 42.296698], [-71.079036, 42.297927], [-71.07919, 42.29933], [-71.07884, 42.30218], [-71.07836, 42.30315], [-71.078423, 42.303229], [-71.078445, 42.303256], [-71.07931, 42.30434], [-71.08068, 42.30539], [-71.080578, 42.305452], [-71.08032, 42.30561], [-71.07955, 42.30596], [-71.0786, 42.30585], [-71.0771, 42.305], [-71.077014, 42.304975], [-71.07592, 42.30466], [-71.07432, 42.30461], [-71.07314, 42.30434], [-71.07225, 42.30371], [-71.07204, 42.30271], [-71.0724, 42.30218], [-71.07257, 42.30102], [-71.072479, 42.299798], [-71.07247, 42.29968], [-71.07165, 42.29931], [-71.07104, 42.29875], [-71.07065, 42.29788], [-71.06512, 42.29947], [-71.06459, 42.29912], [-71.06587, 42.29809], [-71.066278, 42.297275], [-71.06637, 42.29709], [-71.0627, 42.29807], [-71.06245, 42.2962], [-71.0622, 42.29564], [-71.06263, 42.29443], [-71.06496, 42.29409], [-71.06596, 42.29377], [-71.06556, 42.292037], [-71.0642, 42.28614], [-71.064109, 42.286402], [-71.06391, 42.28698], [-71.05978, 42.28804], [-71.0594, 42.28804], [-71.05854, 42.28734], [-71.05773, 42.28755], [-71.058079, 42.288579], [-71.05811, 42.28867], [-71.05583, 42.28938], [-71.055196, 42.288295], [-71.05455, 42.28719], [-71.050746, 42.287891], [-71.04918, 42.28818], [-71.04889, 42.28734], [-71.049051, 42.287312], [-71.04975, 42.28719], [-71.04932, 42.28607], [-71.05103, 42.28565], [-71.04989, 42.28343], [-71.04637, 42.28414], [-71.04744, 42.28093], [-71.04994, 42.27956], [-71.05215, 42.27887], [-71.05392, 42.27853], [-71.054338, 42.279399], [-71.05469, 42.28013], [-71.05872, 42.27992], [-71.05897, 42.27903], [-71.05993, 42.27735], [-71.06072, 42.27657], [-71.05844, 42.27525], [-71.06199, 42.27273], [-71.06131, 42.2722], [-71.06167, 42.27119], [-71.06352, 42.27024], [-71.06438, 42.27067], [-71.06481, 42.27082], [-71.065885, 42.271151], [-71.065957, 42.271173], [-71.06637, 42.2713], [-71.06656, 42.271285], [-71.0678, 42.27119], [-71.068073, 42.27106], [-71.068147, 42.271025], [-71.068834, 42.270698], [-71.06923, 42.27051], [-71.072757, 42.270461], [-71.07286, 42.27046], [-71.07337, 42.2704], [-71.074307, 42.270308], [-71.076802, 42.270062], [-71.07814, 42.26993], [-71.0785, 42.27098], [-71.078796, 42.271651]]]}}, {"type": "Feature", "properties": {"area_id": 4986, "city": "Boston", "state": "MA", "city_survey": true, "cat": "Hazardous", "grade": "D", "label": "D1", "res": true, "com": false, "ind": false, "holc_grade": "D"}, "geometry": {"type": "Polygon", "coordinates": [[[-71.13735, 42.35378], [-71.138967, 42.354102], [-71.14442, 42.35519], [-71.15357, 42.35782], [-71.15262, 42.3594], [-71.14763, 42.35901], [-71.14638, 42.36111], [-71.145003, 42.362684], [-71.14484, 42.36287], [-71.144648, 42.36287], [-71.1427, 42.36287], [-71.14097, 42.36318], [-71.13842, 42.36366], [-71.1361, 42.36427], [-71.13402, 42.36542], [-71.133826, 42.365554], [-71.13206, 42.36678], [-71.131976, 42.366759], [-71.12683, 42.36546], [-71.127044, 42.36519], [-71.12725, 42.36493], [-71.12594, 42.36471], [-71.12725, 42.36353], [-71.127219, 42.363402], [-71.12689, 42.36204], [-71.12558, 42.3623], [-71.124869, 42.361751], [-71.12422, 42.36125], [-71.12297, 42.35923], [-71.123274, 42.359137], [-71.12499, 42.35861], [-71.13153, 42.35615], [-71.13735, 42.35378]]]}}, {"type": "Feature", "properties": {"area_id": 4978, "city": "Boston", "state": "MA", "city_survey": true, "cat": "Hazardous", "grade": "D", "label": "D10", "res": true, "com": false, "ind": false, "holc_grade": "D"}, "geometry": {"type": "Polygon", "coordinates": [[[-71.04965, 42.33356], [-71.04846, 42.33411], [-71.04852, 42.33123], [-71.04915, 42.33159], [-71.05045, 42.33031], [-71.05129, 42.33016], [-71.05203, 42.32957], [-71.05218, 42.329059], [-71.05236, 42.32845], [-71.052619, 42.328445], [-71.0569, 42.32836], [-71.056905, 42.328553], [-71.05702, 42.3326], [-71.05375, 42.33145], [-71.05331, 42.33159], [-71.05461, 42.33334], [-71.05717, 42.33787], [-71.05753, 42.34347], [-71.05319, 42.34272], [-71.050736, 42.34119], [-71.04761, 42.33924], [-71.049322, 42.33782], [-71.05236, 42.3353], [-71.04968, 42.333579], [-71.04965, 42.33356]]]}}, {"type": "Feature", "properties": {"area_id": 4977, "city": "Boston", "state": "MA", "city_survey": true, "cat": "Hazardous", "grade": "D", "label": "D11", "res": true, "com": false, "ind": false, "holc_grade": "D"}, "geometry": {"type": "Polygon", "coordinates": [[[-71.04846, 42.33411], [-71.04965, 42.33356], [-71.04968, 42.333579], [-71.05236, 42.3353], [-71.049322, 42.33782], [-71.04761, 42.33924], [-71.04707, 42.33969], [-71.045631, 42.338654], [-71.04475, 42.33802], [-71.044463, 42.338027], [-71.02725, 42.33844], [-71.02724, 42.338272], [-71.02713, 42.33644], [-71.029255, 42.336404], [-71.03129, 42.33637], [-71.03141, 42.33578], [-71.0334, 42.33578], [-71.0334, 42.3364], [-71.04422, 42.33615], [-71.044207, 42.335471], [-71.04416, 42.33299], [-71.04148, 42.333036], [-71.04012, 42.33306], [-71.040119, 42.333028], [-71.04003, 42.3306], [-71.047384, 42.330395], [-71.05045, 42.33031], [-71.04915, 42.33159], [-71.04852, 42.33123], [-71.04846, 42.33411]]]}}, {"type": "Feature", "properties": {"area_id": 4924, "city": "Boston", "state": "MA", "city_survey": true, "cat": "Hazardous", "grade": "D", "label": "D12", "res": true, "com": false, "ind": false, "holc_grade": "D"}, "geometry": {"type": "Polygon", "coordinates": [[[-71.05982, 42.30217], [-71.0603, 42.30312], [-71.059343, 42.307839], [-71.05911, 42.30899], [-71.06001, 42.3098], [-71.05988, 42.310153], [-71.058918, 42.312771], [-71.058896, 42.312829], [-71.05887, 42.3129], [-71.057398, 42.312936], [-71.056877, 42.312948], [-71.05597, 42.31297], [-71.053105, 42.311443], [-71.05293, 42.31135], [-71.05355, 42.31029], [-71.05655, 42.31091], [-71.05722, 42.30782], [-71.05747, 42.30724], [-71.05737, 42.30661], [-71.05705, 42.30582], [-71.05566, 42.30461], [-71.05412, 42.30397], [-71.05234, 42.30292], [-71.05049, 42.30155], [-71.049361, 42.301015], [-71.04842, 42.30057], [-71.04653, 42.30136], [-71.045192, 42.299647], [-71.04503, 42.29944], [-71.046081, 42.298969], [-71.046387, 42.298832], [-71.04639, 42.29883], [-71.046387, 42.29881], [-71.04635, 42.29857], [-71.04735, 42.29815], [-71.0481, 42.29817], [-71.048227, 42.298121], [-71.04906, 42.2978], [-71.04895, 42.29683], [-71.04913, 42.29622], [-71.04956, 42.29601], [-71.05006, 42.29604], [-71.05113, 42.29651], [-71.05163, 42.29662], [-71.05205, 42.29643], [-71.05191, 42.29604], [-71.05109, 42.29591], [-71.05013, 42.29538], [-71.04924, 42.29477], [-71.04863, 42.29435], [-71.048162, 42.294373], [-71.0476, 42.2944], [-71.04678, 42.29385], [-71.04182, 42.28931], [-71.041808, 42.289446], [-71.041675, 42.291024], [-71.04161, 42.29179], [-71.04025, 42.29174], [-71.03933, 42.29129], [-71.03951, 42.28955], [-71.0384, 42.28968], [-71.03819, 42.28944], [-71.0384, 42.28889], [-71.03918, 42.2876], [-71.03947, 42.2866], [-71.03986, 42.28591], [-71.04082, 42.28512], [-71.04238, 42.28582], [-71.04434, 42.286536], [-71.04509, 42.28681], [-71.045188, 42.28689], [-71.04651, 42.28797], [-71.050428, 42.292859], [-71.05079, 42.29331], [-71.05155, 42.29405], [-71.05645, 42.29746], [-71.05697, 42.29813], [-71.06106, 42.29701], [-71.060962, 42.297475], [-71.06063, 42.29904], [-71.06211, 42.29862], [-71.06287, 42.29971], [-71.062727, 42.299773], [-71.0623, 42.29996], [-71.061832, 42.300002], [-71.06039, 42.30013], [-71.060342, 42.300302], [-71.059931, 42.301774], [-71.05982, 42.30217]]]}}, {"type": "Feature", "properties": {"area_id": 4992, "city": "Boston", "state": "MA", "city_survey": true, "cat": "Hazardous", "grade": "D", "label": "D2", "res": true, "com": false, "ind": false, "holc_grade": "D"}, "geometry": {"type": "Polygon", "coordinates": [[[-71.06137, 42.37097], [-71.06205, 42.37161], [-71.06234, 42.37148], [-71.06365, 42.37249], [-71.064085, 42.372468], [-71.06525, 42.37241], [-71.06827, 42.37405], [-71.067912, 42.374623], [-71.067909, 42.374629], [-71.06764, 42.37506], [-71.068433, 42.375485], [-71.0693, 42.37595], [-71.07323, 42.38277], [-71.07238, 42.38336], [-71.0685, 42.38374], [-71.061465, 42.380973], [-71.05726, 42.37932], [-71.0543, 42.3794], [-71.05293, 42.37852], [-71.052997, 42.378455], [-71.05601, 42.37553], [-71.056624, 42.375092], [-71.057142, 42.374723], [-71.058482, 42.373768], [-71.05897, 42.37342], [-71.057916, 42.373148], [-71.05715, 42.37295], [-71.05743, 42.37249], [-71.058831, 42.371949], [-71.06137, 42.37097]]]}}, {"type": "Feature", "properties": {"area_id": 4993, "city": "Boston", "state": "MA", "city_survey": true, "cat": "Hazardous", "grade": "D", "label": "D3", "res": true, "com": false, "ind": false, "holc_grade": "D"}, "geometry": {"type": "Polygon", "coordinates": [[[-71.039087, 42.37476], [-71.039788, 42.37449], [-71.03997, 42.37442], [-71.040276, 42.378912], [-71.04051, 42.38236], [-71.03932, 42.38276], [-71.039315, 42.38276], [-71.02999, 42.38262], [-71.02987, 42.38144], [-71.02577, 42.38131], [-71.022631, 42.383903], [-71.02232, 42.38416], [-71.02215, 42.38491], [-71.022175, 42.384967], [-71.02244, 42.38556], [-71.022298, 42.385635], [-71.02102, 42.38631], [-71.01983, 42.3864], [-71.01501, 42.38539], [-71.01115, 42.38688], [-71.01056, 42.38631], [-71.00842, 42.38719], [-71.01157, 42.38947], [-71.01238, 42.390629], [-71.01252, 42.39083], [-71.01032, 42.38991], [-71.0064, 42.38894], [-71.00052, 42.38855], [-71.00052, 42.38829], [-71.00692, 42.38624], [-71.010207, 42.385187], [-71.01026, 42.38517], [-71.01026, 42.385266], [-71.01026, 42.38543], [-71.010351, 42.385402], [-71.01555, 42.38381], [-71.022325, 42.381205], [-71.02611, 42.37975], [-71.029428, 42.378474], [-71.033685, 42.376837], [-71.038755, 42.374887], [-71.039087, 42.37476]]]}}, {"type": "Feature", "properties": {"area_id": 4995, "city": "Boston", "state": "MA", "city_survey": true, "cat": "Hazardous", "grade": "D", "label": "D4", "res": true, "com": false, "ind": false, "holc_grade": "D"}, "geometry": {"type": "Polygon", "coordinates": [[[-71.03339, 42.36541], [-71.036128, 42.366609], [-71.03839, 42.3676], [-71.03711, 42.36905], [-71.03922, 42.37002], [-71.04005, 42.36905], [-71.040872, 42.369369], [-71.04397, 42.37057], [-71.04302, 42.37173], [-71.04225, 42.37151], [-71.03997, 42.37442], [-71.039788, 42.37449], [-71.039087, 42.37476], [-71.038755, 42.374887], [-71.033685, 42.376837], [-71.029428, 42.378474], [-71.02611, 42.37975], [-71.02675, 42.37905], [-71.02702, 42.37815], [-71.028027, 42.377363], [-71.02821, 42.37722], [-71.02861, 42.37741], [-71.034424, 42.372703], [-71.0347, 42.37248], [-71.02944, 42.36932], [-71.03203, 42.36719], [-71.031374, 42.366846], [-71.03123, 42.36677], [-71.03173, 42.36607], [-71.03238, 42.36624], [-71.03339, 42.36541]]]}}, {"type": "Feature", "properties": {"area_id": 4991, "city": "Boston", "state": "MA", "city_survey": true, "cat": "Hazardous", "grade": "D", "label": "D5", "res": true, "com": false, "ind": false, "holc_grade": "D"}, "geometry": {"type": "Polygon", "coordinates": [[[-71.057934, 42.363527], [-71.057931, 42.36375], [-71.05791, 42.36545], [-71.05758, 42.36534], [-71.057608, 42.366032], [-71.05761, 42.36609], [-71.05723, 42.36648], [-71.05672, 42.36598], [-71.05663, 42.36791], [-71.05634, 42.36809], [-71.05461, 42.3673], [-71.054261, 42.367805], [-71.05414, 42.36798], [-71.05221, 42.36714], [-71.05143, 42.36666], [-71.05149, 42.36624], [-71.05182, 42.36541], [-71.05191, 42.36442], [-71.051897, 42.364305], [-71.05185, 42.36387], [-71.052195, 42.363647], [-71.05233, 42.36356], [-71.053163, 42.363479], [-71.05387, 42.36341], [-71.05444, 42.3631], [-71.05485, 42.36255], [-71.055344, 42.361884], [-71.05574, 42.36135], [-71.05794, 42.36306], [-71.057934, 42.363527]]]}}, {"type": "Feature", "properties": {"area_id": 4951, "city": "Boston", "state": "MA", "city_survey": true, "cat": "Hazardous", "grade": "D", "label": "D6", "res": true, "com": false, "ind": false, "holc_grade": "D"}, "geometry": {"type": "Polygon", "coordinates": [[[-71.06656, 42.359354], [-71.06657, 42.35968], [-71.07048, 42.35958], [-71.0707, 42.36126], [-71.070709, 42.361325], [-71.07079, 42.3619], [-71.07055, 42.36257], [-71.06712, 42.36254], [-71.06713, 42.36375], [-71.07004, 42.36442], [-71.070028, 42.364454], [-71.06967, 42.36544], [-71.069421, 42.365678], [-71.069066, 42.366018], [-71.06898, 42.3661], [-71.068959, 42.366112], [-71.06819, 42.36656], [-71.067927, 42.36641], [-71.0661, 42.36537], [-71.0656, 42.36573], [-71.06382, 42.36416], [-71.06382, 42.36401], [-71.06131, 42.36318], [-71.061861, 42.362427], [-71.06235, 42.36176], [-71.062585, 42.361893], [-71.06362, 42.36248], [-71.06356, 42.36137], [-71.063499, 42.361238], [-71.06344, 42.36111], [-71.06321, 42.35946], [-71.06456, 42.35938], [-71.065048, 42.35937], [-71.065217, 42.359367], [-71.06656, 42.35934], [-71.06656, 42.359354]]]}}, {"type": "Feature", "properties": {"area_id": 4918, "city": "Boston", "state": "MA", "city_survey": true, "cat": "Hazardous", "grade": "D", "label": "D7", "res": true, "com": false, "ind": false, "holc_grade": "D"}, "geometry": {"type": "Polygon", "coordinates": [[[-71.08, 42.33877], [-71.080503, 42.339239], [-71.08189, 42.34053], [-71.083403, 42.341545], [-71.08505, 42.34265], [-71.084928, 42.342751], [-71.08179, 42.34536], [-71.081766, 42.34538], [-71.07883, 42.3478], [-71.076175, 42.34773], [-71.07316, 42.34765], [-71.071833, 42.348685], [-71.07007, 42.35006], [-71.06734, 42.35065], [-71.06711, 42.3501], [-71.066568, 42.349602], [-71.06431, 42.34753], [-71.06374, 42.34989], [-71.06226, 42.34925], [-71.06146, 42.35132], [-71.061489, 42.351486], [-71.06163, 42.35229], [-71.05952, 42.35242], [-71.05941, 42.35102], [-71.061272, 42.346375], [-71.0626, 42.34306], [-71.063013, 42.343135], [-71.0642, 42.34335], [-71.06916, 42.33973], [-71.06699, 42.33796], [-71.069019, 42.336687], [-71.0715, 42.33513], [-71.07287, 42.33635], [-71.07521, 42.33496], [-71.077055, 42.336438], [-71.07863, 42.3377], [-71.07906, 42.33773], [-71.07993, 42.33841], [-71.08, 42.33877]]]}}, {"type": "Feature", "properties": {"area_id": 4920, "city": "Boston", "state": "MA", "city_survey": true, "cat": "Hazardous", "grade": "D", "label": "D8", "res": true, "com": false, "ind": false, "holc_grade": "D"}, "geometry": {"type": "Polygon", "coordinates": [[[-71.10771, 42.30974], [-71.107223, 42.310566], [-71.10582, 42.31295], [-71.10432, 42.31691], [-71.10382, 42.31794], [-71.102867, 42.31925], [-71.10286, 42.31926], [-71.102938, 42.319306], [-71.10407, 42.31997], [-71.10514, 42.31944], [-71.10671, 42.32121], [-71.108296, 42.322406], [-71.10842, 42.3225], [-71.108413, 42.322599], [-71.10838, 42.32306], [-71.108295, 42.323189], [-71.10774, 42.32403], [-71.10806, 42.32456], [-71.10774, 42.32493], [-71.107493, 42.325503], [-71.10749, 42.32551], [-71.10692, 42.3258], [-71.106612, 42.326329], [-71.106516, 42.326495], [-71.10649, 42.32654], [-71.106983, 42.326785], [-71.107269, 42.326927], [-71.10796, 42.32727], [-71.11063, 42.32899], [-71.110743, 42.328999], [-71.110808, 42.329004], [-71.11088, 42.32901], [-71.11188, 42.3288], [-71.111969, 42.329138], [-71.112019, 42.329325], [-71.1122, 42.33001], [-71.11259, 42.3311], [-71.113028, 42.3319], [-71.11305, 42.33194], [-71.113014, 42.331942], [-71.112569, 42.331971], [-71.11227, 42.33199], [-71.11221, 42.332028], [-71.11095, 42.33283], [-71.10967, 42.33334], [-71.10721, 42.33334], [-71.104088, 42.334531], [-71.103165, 42.334883], [-71.100351, 42.335957], [-71.097067, 42.337211], [-71.095731, 42.33772], [-71.09547, 42.33782], [-71.090362, 42.335788], [-71.08984, 42.33558], [-71.088454, 42.334823], [-71.08766, 42.33439], [-71.087386, 42.334208], [-71.085525, 42.332972], [-71.085072, 42.332672], [-71.08278, 42.33115], [-71.08292, 42.33083], [-71.083007, 42.330784], [-71.083183, 42.330691], [-71.08338, 42.330587], [-71.08417, 42.33017], [-71.0846, 42.32978], [-71.08502, 42.32899], [-71.08645, 42.32843], [-71.086683, 42.328192], [-71.086879, 42.327992], [-71.08691, 42.32796], [-71.086937, 42.327894], [-71.08781, 42.32577], [-71.088059, 42.325353], [-71.088647, 42.324366], [-71.0888, 42.32411], [-71.08984, 42.32311], [-71.090954, 42.322413], [-71.09262, 42.32137], [-71.0933, 42.32103], [-71.093378, 42.320952], [-71.09601, 42.31834], [-71.09854, 42.31549], [-71.09587, 42.31365], [-71.096935, 42.312934], [-71.09694, 42.31293], [-71.09783, 42.31216], [-71.10036, 42.31306], [-71.104015, 42.309286], [-71.10927, 42.30386], [-71.10963, 42.30412], [-71.11252, 42.30141], [-71.11341, 42.30143], [-71.10771, 42.30974]]]}}, {"type": "Feature", "properties": {"area_id": 4919, "city": "Boston", "state": "MA", "city_survey": true, "cat": "Hazardous", "grade": "D", "label": "D9", "res": true, "com": false, "ind": false, "holc_grade": "D"}, "geometry": {"type": "Polygon", "coordinates": [[[-71.087073, 42.316163], [-71.08713, 42.31618], [-71.08998, 42.31283], [-71.09376, 42.31462], [-71.09397, 42.31409], [-71.09433, 42.31383], [-71.095097, 42.313327], [-71.09526, 42.31322], [-71.09587, 42.31365], [-71.09854, 42.31549], [-71.09601, 42.31834], [-71.093378, 42.320952], [-71.0933, 42.32103], [-71.09262, 42.32137], [-71.090954, 42.322413], [-71.08984, 42.32311], [-71.0888, 42.32411], [-71.088647, 42.324366], [-71.088059, 42.325353], [-71.08781, 42.32577], [-71.086937, 42.327894], [-71.08691, 42.32796], [-71.086879, 42.327992], [-71.086683, 42.328192], [-71.08645, 42.32843], [-71.08502, 42.32899], [-71.0846, 42.32978], [-71.08417, 42.33017], [-71.08338, 42.330587], [-71.083183, 42.330691], [-71.083007, 42.330784], [-71.08292, 42.33083], [-71.08278, 42.33115], [-71.085072, 42.332672], [-71.085525, 42.332972], [-71.087386, 42.334208], [-71.08766, 42.33439], [-71.088454, 42.334823], [-71.08984, 42.33558], [-71.090362, 42.335788], [-71.09547, 42.33782], [-71.08713, 42.34111], [-71.086829, 42.341332], [-71.085761, 42.342124], [-71.08505, 42.34265], [-71.083403, 42.341545], [-71.08189, 42.34053], [-71.080503, 42.339239], [-71.08, 42.33877], [-71.07993, 42.33841], [-71.07906, 42.33773], [-71.07863, 42.3377], [-71.077055, 42.336438], [-71.07521, 42.33496], [-71.07568, 42.33457], [-71.074678, 42.333058], [-71.07458, 42.33291], [-71.074421, 42.332883], [-71.074332, 42.332868], [-71.07165, 42.33241], [-71.06663, 42.32635], [-71.06759, 42.32353], [-71.067476, 42.323413], [-71.06563, 42.32153], [-71.065935, 42.321496], [-71.06802, 42.32126], [-71.06973, 42.3214], [-71.072045, 42.321373], [-71.0723, 42.32137], [-71.07228, 42.321339], [-71.072179, 42.321181], [-71.07186, 42.320685], [-71.07176, 42.32053], [-71.071323, 42.320202], [-71.07112, 42.32005], [-71.07051, 42.31958], [-71.070034, 42.319075], [-71.07001, 42.31905], [-71.0697, 42.318944], [-71.069551, 42.318893], [-71.06855, 42.31855], [-71.068562, 42.318525], [-71.07172, 42.311914], [-71.07176, 42.31183], [-71.072588, 42.312113], [-71.073116, 42.312293], [-71.074316, 42.312702], [-71.07469, 42.31283], [-71.07547, 42.31196], [-71.07931, 42.313822], [-71.07943, 42.31388], [-71.07957, 42.31357], [-71.08164, 42.31449], [-71.08278, 42.31475], [-71.08338, 42.31504], [-71.087073, 42.316163]]]}}, {"type": "Feature", "properties": {"area_id": 11582, "city": "Boston", "state": "MA", "city_survey": true, "cat": "Commercial", "grade": null, "label": "Commercial", "res": false, "com": true, "ind": false, "holc_grade": null}, "geometry": {"type": "MultiPolygon", "coordinates": [[[[-71.07883, 42.3478], [-71.07867, 42.34804], [-71.0793, 42.34944], [-71.085577, 42.347821], [-71.08562, 42.34781], [-71.085826, 42.347826], [-71.08748, 42.34795], [-71.08206, 42.34939], [-71.0824, 42.35012], [-71.08006, 42.350677], [-71.0756, 42.35174], [-71.07147, 42.35297], [-71.07069, 42.35173], [-71.070609, 42.351754], [-71.069209, 42.352162], [-71.06798, 42.35252], [-71.06454, 42.352461], [-71.06448, 42.35246], [-71.06357, 42.35465], [-71.063354, 42.355147], [-71.06324, 42.35541], [-71.06288, 42.35567], [-71.06205, 42.35627], [-71.06214, 42.356371], [-71.063312, 42.357694], [-71.06345, 42.35785], [-71.06321, 42.35946], [-71.06344, 42.36111], [-71.063499, 42.361238], [-71.06356, 42.36137], [-71.06362, 42.36248], [-71.062585, 42.361893], [-71.06235, 42.36176], [-71.061861, 42.362427], [-71.06131, 42.36318], [-71.059457, 42.363114], [-71.05794, 42.36306], [-71.05574, 42.36135], [-71.05578, 42.35893], [-71.054752, 42.357409], [-71.0543, 42.35674], [-71.05952, 42.35242], [-71.06163, 42.35229], [-71.061489, 42.351486], [-71.06146, 42.35132], [-71.06226, 42.34925], [-71.06374, 42.34989], [-71.06431, 42.34753], [-71.066568, 42.349602], [-71.06711, 42.3501], [-71.06734, 42.35065], [-71.07007, 42.35006], [-71.071833, 42.348685], [-71.07316, 42.34765], [-71.076175, 42.34773], [-71.07883, 42.3478]]], [[[-71.101975, 42.347878], [-71.10678, 42.34882], [-71.10654, 42.34998], [-71.110343, 42.35037], [-71.11551, 42.3509], [-71.115506, 42.350981], [-71.11542, 42.35289], [-71.114809, 42.352747], [-71.11135, 42.35194], [-71.109907, 42.351746], [-71.108288, 42.351528], [-71.10756, 42.35143], [-71.10306, 42.35112], [-71.103094, 42.350967], [-71.10317, 42.35062], [-71.097623, 42.350035], [-71.09397, 42.34965], [-71.09315, 42.34975], [-71.09176, 42.35025], [-71.09162, 42.34995], [-71.0916, 42.34778], [-71.09508, 42.34764], [-71.098249, 42.347512], [-71.09979, 42.34745], [-71.101975, 42.347878]]]]}}, {"type": "Feature", "properties": {"area_id": 11583, "city": "Boston", "state": "MA", "city_survey": true, "cat": "Industrial", "grade": null, "label": "Industrial", "res": false, "com": false, "ind": true, "holc_grade": null}, "geometry": {"type": "MultiPolygon", "coordinates": [[[[-71.06663, 42.32635], [-71.07165, 42.33241], [-71.074332, 42.332868], [-71.074421, 42.332883], [-71.07458, 42.33291], [-71.074533, 42.332946], [-71.07347, 42.33377], [-71.0715, 42.33513], [-71.069019, 42.336687], [-71.06699, 42.33796], [-71.06916, 42.33973], [-71.0642, 42.34335], [-71.063013, 42.343135], [-71.0626, 42.34306], [-71.061272, 42.346375], [-71.05941, 42.35102], [-71.05952, 42.35242], [-71.0543, 42.35674], [-71.054752, 42.357409], [-71.05578, 42.35893], [-71.05574, 42.36135], [-71.055344, 42.361884], [-71.05485, 42.36255], [-71.05444, 42.3631], [-71.05387, 42.36341], [-71.053163, 42.363479], [-71.05233, 42.36356], [-71.052195, 42.363647], [-71.05185, 42.36387], [-71.051897, 42.364305], [-71.05191, 42.36442], [-71.05182, 42.36541], [-71.05149, 42.36624], [-71.05143, 42.36666], [-71.05221, 42.36714], [-71.05414, 42.36798], [-71.054261, 42.367805], [-71.05461, 42.3673], [-71.05634, 42.36809], [-71.05663, 42.36791], [-71.05672, 42.36598], [-71.05723, 42.36648], [-71.05761, 42.36609], [-71.057608, 42.366032], [-71.05758, 42.36534], [-71.05791, 42.36545], [-71.057931, 42.36375], [-71.057934, 42.363527], [-71.05794, 42.36306], [-71.059457, 42.363114], [-71.06131, 42.36318], [-71.06382, 42.36401], [-71.06382, 42.36416], [-71.0656, 42.36573], [-71.0661, 42.36537], [-71.06752, 42.36618], [-71.06479, 42.36707], [-71.065971, 42.368169], [-71.06681, 42.36895], [-71.066074, 42.368945], [-71.065821, 42.368944], [-71.065693, 42.368943], [-71.06376, 42.36893], [-71.06458, 42.36951], [-71.064971, 42.369883], [-71.065661, 42.370539], [-71.066557, 42.371392], [-71.06708, 42.37189], [-71.069738, 42.372285], [-71.069877, 42.372306], [-71.070508, 42.3724], [-71.07239, 42.37268], [-71.07568, 42.38031], [-71.080611, 42.381088], [-71.08069, 42.3811], [-71.0809, 42.38204], [-71.08086, 42.382066], [-71.07989, 42.3827], [-71.078963, 42.38398], [-71.077547, 42.385936], [-71.077391, 42.386151], [-71.07708, 42.38658], [-71.07429, 42.39068], [-71.074248, 42.390623], [-71.074021, 42.390317], [-71.073546, 42.389675], [-71.07204, 42.38764], [-71.072043, 42.387634], [-71.07395, 42.3845], [-71.07291, 42.38418], [-71.0709, 42.38551], [-71.06976, 42.38482], [-71.06783, 42.3851], [-71.06628, 42.38408], [-71.06454, 42.385088], [-71.064272, 42.385243], [-71.064129, 42.385326], [-71.06376, 42.38554], [-71.05002, 42.38454], [-71.04829, 42.38421], [-71.04732, 42.38332], [-71.047358, 42.382977], [-71.0475, 42.381687], [-71.0475, 42.381686], [-71.04750010632782, 42.38168602326767], [-71.047543, 42.381292], [-71.04764, 42.38041], [-71.050106, 42.380207], [-71.05105, 42.38013], [-71.051526, 42.379722], [-71.05293, 42.37852], [-71.0543, 42.3794], [-71.05726, 42.37932], [-71.061465, 42.380973], [-71.0685, 42.38374], [-71.07238, 42.38336], [-71.07323, 42.38277], [-71.0693, 42.37595], [-71.068433, 42.375485], [-71.06764, 42.37506], [-71.067909, 42.374629], [-71.067912, 42.374623], [-71.06827, 42.37405], [-71.06525, 42.37241], [-71.064085, 42.372468], [-71.06365, 42.37249], [-71.06234, 42.37148], [-71.06205, 42.37161], [-71.06137, 42.37097], [-71.058831, 42.371949], [-71.05743, 42.37249], [-71.05715, 42.37295], [-71.055733, 42.373386], [-71.055481, 42.373464], [-71.0552, 42.37355], [-71.054672, 42.372804], [-71.05399, 42.37184], [-71.059663, 42.369738], [-71.059991, 42.369616], [-71.06017, 42.36955], [-71.061203, 42.369214], [-71.061853, 42.369003], [-71.063, 42.36863], [-71.062493, 42.368061], [-71.06234, 42.36789], [-71.060997, 42.367534], [-71.0603, 42.36735], [-71.05716, 42.36886], [-71.05219, 42.36962], [-71.052173, 42.369614], [-71.051832, 42.369489], [-71.051236, 42.369271], [-71.051015, 42.369191], [-71.04981, 42.36875], [-71.04846, 42.36508], [-71.04743, 42.36054], [-71.050172, 42.354737], [-71.05019, 42.3547], [-71.05281, 42.35123], [-71.05533, 42.35215], [-71.05554, 42.35128], [-71.0563, 42.3503], [-71.05394, 42.34969], [-71.05571, 42.34731], [-71.0587, 42.346], [-71.06002, 42.345084], [-71.06105, 42.34437], [-71.061945, 42.342864], [-71.06196, 42.34284], [-71.0627, 42.34054], [-71.06423, 42.33865], [-71.064852, 42.338205], [-71.068057, 42.335911], [-71.06824, 42.33578], [-71.0678, 42.335704], [-71.065903, 42.335377], [-71.06557, 42.33532], [-71.065573, 42.335393], [-71.06565, 42.33703], [-71.065237, 42.33734], [-71.06294, 42.33906], [-71.06137, 42.34118], [-71.05999, 42.34426], [-71.05815, 42.34536], [-71.05579, 42.34591], [-71.0554, 42.34548], [-71.0532, 42.34829], [-71.051772, 42.350931], [-71.05174, 42.35099], [-71.048594, 42.354104], [-71.04778, 42.35491], [-71.04514, 42.35549], [-71.04338, 42.35477], [-71.043949, 42.354174], [-71.04507, 42.353], [-71.04283, 42.35221], [-71.042354, 42.353002], [-71.04173, 42.35404], [-71.041592, 42.353987], [-71.041178, 42.353826], [-71.03611, 42.35186], [-71.03584, 42.35111], [-71.03694, 42.34957], [-71.036721, 42.349369], [-71.03543, 42.348186], [-71.03466, 42.34748], [-71.03348, 42.34696], [-71.031047, 42.347017], [-71.030503, 42.34703], [-71.030124, 42.347039], [-71.028483, 42.347078], [-71.02499, 42.34716], [-71.024888, 42.345672], [-71.024807, 42.344472], [-71.02476, 42.34379], [-71.037313, 42.343274], [-71.03741, 42.34327], [-71.037548, 42.343282], [-71.04141, 42.34362], [-71.04405, 42.34188], [-71.04558, 42.34025], [-71.04385, 42.33897], [-71.04133, 42.33903], [-71.03953, 42.33996], [-71.03925, 42.3417], [-71.03749, 42.34199], [-71.03749, 42.34051], [-71.03568, 42.34057], [-71.03584, 42.34188], [-71.03485, 42.34199], [-71.03493, 42.34028], [-71.03395, 42.34019], [-71.03379, 42.34144], [-71.03222, 42.34188], [-71.030573, 42.341835], [-71.02782, 42.34176], [-71.02683, 42.341281], [-71.02511, 42.34045], [-71.02541, 42.33844], [-71.02725, 42.33844], [-71.044463, 42.338027], [-71.04475, 42.33802], [-71.045631, 42.338654], [-71.04707, 42.33969], [-71.04761, 42.33924], [-71.050736, 42.34119], [-71.05319, 42.34272], [-71.05753, 42.34347], [-71.05717, 42.33787], [-71.05461, 42.33334], [-71.05331, 42.33159], [-71.05375, 42.33145], [-71.05702, 42.3326], [-71.056905, 42.328553], [-71.0569, 42.32836], [-71.05682, 42.32638], [-71.056854, 42.32641], [-71.05861, 42.32797], [-71.05882, 42.328], [-71.06064, 42.32426], [-71.06135, 42.3232], [-71.06178, 42.32244], [-71.06217, 42.32125], [-71.06256, 42.32088], [-71.06303, 42.32104], [-71.06563, 42.32153], [-71.067476, 42.323413], [-71.06759, 42.32353], [-71.06663, 42.32635]]], [[[-71.05682, 42.32638], [-71.055664, 42.325384], [-71.05472, 42.32457], [-71.05379, 42.32361], [-71.05697, 42.32353], [-71.056826, 42.32627], [-71.05682, 42.32638]]], [[[-71.041634, 42.3643], [-71.041781, 42.364524], [-71.04549, 42.37022], [-71.04567, 42.37101], [-71.045423, 42.371383], [-71.045283, 42.371595], [-71.045152, 42.371795], [-71.045046, 42.371955], [-71.044791, 42.372341], [-71.044742, 42.372414], [-71.04455, 42.372706], [-71.044403, 42.372928], [-71.04382, 42.37381], [-71.043706, 42.37427], [-71.043687, 42.374343], [-71.04334, 42.37574], [-71.043206, 42.376986], [-71.043192, 42.377123], [-71.043101, 42.377966], [-71.04309, 42.37807], [-71.042796, 42.378666], [-71.042655, 42.378951], [-71.042508, 42.379248], [-71.04244, 42.379386], [-71.04227, 42.37973], [-71.042276, 42.379887], [-71.042282, 42.380074], [-71.042294, 42.380411], [-71.042299, 42.380558], [-71.04236, 42.38228], [-71.040667, 42.382353], [-71.04051, 42.38236], [-71.040276, 42.378912], [-71.03997, 42.37442], [-71.04225, 42.37151], [-71.04302, 42.37173], [-71.04397, 42.37057], [-71.040872, 42.369369], [-71.04005, 42.36905], [-71.03922, 42.37002], [-71.03711, 42.36905], [-71.03839, 42.3676], [-71.036128, 42.366609], [-71.03339, 42.36541], [-71.03238, 42.36624], [-71.03173, 42.36607], [-71.027818, 42.365065], [-71.02773, 42.365042], [-71.027645, 42.36502], [-71.02741, 42.36496], [-71.027453, 42.364916], [-71.028417, 42.363942], [-71.028847, 42.363507], [-71.03014, 42.3622], [-71.032541, 42.362276], [-71.03299, 42.36229], [-71.033072, 42.362293], [-71.033687, 42.362318], [-71.033937, 42.362328], [-71.034876, 42.362366], [-71.035112, 42.362375], [-71.037366, 42.362465], [-71.03748, 42.36247], [-71.037614, 42.362526], [-71.040651, 42.363794], [-71.040672, 42.363803], [-71.04155, 42.36417], [-71.041634, 42.3643]]], [[[-71.04051, 42.38236], [-71.039708, 42.383225], [-71.039536, 42.38341], [-71.039312, 42.383653], [-71.038867, 42.384132], [-71.038468, 42.384562], [-71.03829, 42.384754], [-71.03809, 42.38497], [-71.037482, 42.385177], [-71.037334, 42.385228], [-71.03636, 42.38556], [-71.0339, 42.38493], [-71.03217, 42.38365], [-71.03056, 42.38421], [-71.02996, 42.383645], [-71.02904, 42.38278], [-71.02999, 42.38262], [-71.039315, 42.38276], [-71.03932, 42.38276], [-71.04051, 42.38236]]], [[[-71.08562, 42.34781], [-71.085577, 42.347821], [-71.0793, 42.34944], [-71.07867, 42.34804], [-71.07883, 42.3478], [-71.08479, 42.34775], [-71.085571, 42.347806], [-71.08562, 42.34781]]], [[[-71.12297, 42.35923], [-71.12311, 42.35511], [-71.131346, 42.356127], [-71.13153, 42.35615], [-71.12499, 42.35861], [-71.123274, 42.359137], [-71.12297, 42.35923]]]]}}]}