{"type": "FeatureCollection", "features": [{"type": "Feature", "properties": {"area_id": 10284, "city": "Sumter", "state": "SC", "city_survey": false, "cat": "Undeveloped", "grade": "", "label": "Undeveloped", "res": false, "com": false, "ind": false, "fill": "#eeeeee", "GEOID10": "45085002000", "GISJOIN": "G4500850002000", "calc_area": 30653.06811, "pct_tract": 0.00732}, "geometry": {"type": "MultiPolygon", "coordinates": [[[[-80.34168, 33.925], [-80.34375, 33.92508], [-80.34365, 33.9265], [-80.34163, 33.9265], [-80.34168, 33.925]]]]}}, {"type": "Feature", "properties": {"area_id": 10284, "city": "Sumter", "state": "SC", "city_survey": false, "cat": "Undeveloped", "grade": "", "label": "Undeveloped", "res": false, "com": false, "ind": false, "fill": "#eeeeee", "GEOID10": "45085001100", "GISJOIN": "G4500850001100", "calc_area": 199169.01873, "pct_tract": 0.00766}, "geometry": {"type": "MultiPolygon", "coordinates": [[[[-80.32871, 33.92125], [-80.32836, 33.91937], [-80.3284, 33.91882], [-80.32894, 33.91775], [-80.32937, 33.91615], [-80.3326, 33.91606], [-80.3326, 33.91607], [-80.3323, 33.91658], [-80.33184, 33.91999], [-80.32893, 33.9217], [-80.32956, 33.92301], [-80.330377, 33.924714], [-80.33032, 33.92472], [-80.329362, 33.924815], [-80.329236, 33.924817], [-80.329033, 33.924832], [-80.328412, 33.924889], [-80.32871, 33.92125]]]]}}, {"type": "Feature", "properties": {"area_id": 10284, "city": "Sumter", "state": "SC", "city_survey": false, "cat": "Undeveloped", "grade": "", "label": "Undeveloped", "res": false, "com": false, "ind": false, "fill": "#eeeeee", "GEOID10": "45085000700", "GISJOIN": "G4500850000700", "calc_area": 161217.20096, "pct_tract": 0.00657}, "geometry": {"type": "MultiPolygon", "coordinates": [[[[-80.3305, 33.92497], [-80.33133, 33.92672], [-80.3337, 33.928], [-80.32783, 33.92984], [-80.32839, 33.92516], [-80.328412, 33.924889], [-80.329033, 33.924832], [-80.329236, 33.924817], [-80.329362, 33.924815], [-80.33032, 33.92472], [-80.330377, 33.924714], [-80.3305, 33.92497]]]]}}, {"type": "Feature", "properties": {"area_id": 10288, "city": "Sumter", "state": "SC", "city_survey": false, "cat": "Wholesale", "grade": "", "label": "Wholesale", "res": false, "com": true, "ind": false, "fill": "#567B80", "GEOID10": "45085001300", "GISJOIN": "G4500850001300", "calc_area": 47655.87235, "pct_tract": 0.0148}, "geometry": {"type": "MultiPolygon", "coordinates": [[[[-80.34043, 33.91704], [-80.34013, 33.92019], [-80.33967, 33.92023], [-80.33981, 33.9186], [-80.33985, 33.91821], [-80.33769, 33.91808], [-80.33774, 33.91704], [-80.33803, 33.91689], [-80.33873, 33.91654], [-80.33975, 33.9166], [-80.33972, 33.91698], [-80.33993, 33.917], [-80.34043, 33.91704]]]]}}, {"type": "Feature", "properties": {"area_id": 10289, "city": "Sumter", "state": "SC", "city_survey": false, "cat": "Commercial", "grade": "", "label": "Commercial", "res": false, "com": true, "ind": false, "fill": "#317531", "GEOID10": "45085001300", "GISJOIN": "G4500850001300", "calc_area": 352285.93057, "pct_tract": 0.10939}, "geometry": {"type": "MultiPolygon", "coordinates": [[[[-80.34142, 33.92293], [-80.34153, 33.92169], [-80.33996, 33.92162], [-80.33985, 33.92275], [-80.33984, 33.92285], [-80.3373, 33.92271], [-80.33737, 33.92149], [-80.33742, 33.92072], [-80.33745, 33.92021], [-80.33756, 33.91842], [-80.33981, 33.9186], [-80.33985, 33.91821], [-80.33993, 33.917], [-80.34043, 33.91704], [-80.34045, 33.91645], [-80.34132, 33.91594], [-80.34359, 33.916], [-80.34319, 33.92179], [-80.34332, 33.92178], [-80.34302, 33.92433], [-80.34131, 33.92426], [-80.34142, 33.92293]]]]}}, {"type": "Feature", "properties": {"area_id": 10290, "city": "Sumter", "state": "SC", "city_survey": false, "cat": "Best Negro Res", "grade": "", "label": "Best Negro Res", "res": true, "com": false, "ind": false, "fill": "#A3871B", "GEOID10": "45085001300", "GISJOIN": "G4500850001300", "calc_area": 90008.72415, "pct_tract": 0.02795}, "geometry": {"type": "MultiPolygon", "coordinates": [[[[-80.34406, 33.91442], [-80.34622, 33.91459], [-80.34616, 33.91619], [-80.34594, 33.91746], [-80.34587, 33.9186], [-80.34565, 33.91897], [-80.34486, 33.91891], [-80.34487, 33.91866], [-80.34437, 33.91862], [-80.34438, 33.91771], [-80.34412, 33.91767], [-80.34409, 33.91729], [-80.34369, 33.91726], [-80.34406, 33.91442]]]]}}, {"type": "Feature", "properties": {"area_id": 10291, "city": "Sumter", "state": "SC", "city_survey": false, "cat": "Best Res", "grade": "", "label": "Best Res", "res": true, "com": false, "ind": false, "fill": "#626866", "GEOID10": "45085002000", "GISJOIN": "G4500850002000", "calc_area": 1358355.02297, "pct_tract": 0.32434}, "geometry": {"type": "MultiPolygon", "coordinates": [[[[-80.35885, 33.92508], [-80.35801, 33.92678], [-80.35517, 33.92704], [-80.35027, 33.92678], [-80.35062, 33.92865], [-80.35549, 33.92859], [-80.355, 33.92944], [-80.35355, 33.93101], [-80.35176, 33.93218], [-80.35047, 33.93396], [-80.349, 33.93439], [-80.34738, 33.93386], [-80.34646, 33.93234], [-80.34598, 33.93156], [-80.34606, 33.93017], [-80.34544, 33.93022], [-80.34545, 33.92973], [-80.34338, 33.9299], [-80.3417, 33.92953], [-80.34104, 33.92673], [-80.33838, 33.92716], [-80.33829, 33.92635], [-80.34058, 33.92629], [-80.34071, 33.92467], [-80.33987, 33.92466], [-80.33988, 33.92425], [-80.34011, 33.92425], [-80.34053, 33.924253], [-80.341304, 33.924315], [-80.342011, 33.924361], [-80.342993, 33.924409], [-80.344244, 33.924469], [-80.344356, 33.923308], [-80.344414, 33.923121], [-80.344531, 33.921875], [-80.344602, 33.921132], [-80.34465, 33.92114], [-80.34462, 33.92186], [-80.34623, 33.92195], [-80.34673, 33.92198], [-80.34722, 33.92201], [-80.354584, 33.922438], [-80.354587, 33.92246], [-80.354874, 33.922441], [-80.356877, 33.922269], [-80.357199, 33.922242], [-80.357704, 33.9222], [-80.358206, 33.922158], [-80.358305, 33.92215], [-80.358405, 33.922142], [-80.35885, 33.92508]], [[-80.34365, 33.9265], [-80.34375, 33.92508], [-80.34168, 33.925], [-80.34163, 33.9265], [-80.34365, 33.9265]]]]}}, {"type": "Feature", "properties": {"area_id": 10291, "city": "Sumter", "state": "SC", "city_survey": false, "cat": "Best Res", "grade": "", "label": "Best Res", "res": true, "com": false, "ind": false, "fill": "#626866", "GEOID10": "45085001300", "GISJOIN": "G4500850001300", "calc_area": 25660.59953, "pct_tract": 0.00797}, "geometry": {"type": "MultiPolygon", "coordinates": [[[[-80.35461, 33.92244], [-80.3584, 33.92211], [-80.358405, 33.922142], [-80.358305, 33.92215], [-80.358206, 33.922158], [-80.357704, 33.9222], [-80.357199, 33.922242], [-80.356877, 33.922269], [-80.354874, 33.922441], [-80.354587, 33.92246], [-80.354584, 33.922438], [-80.35461, 33.92244]]], [[[-80.34131, 33.92426], [-80.34302, 33.92433], [-80.34365, 33.92436], [-80.34392, 33.92102], [-80.344602, 33.921132], [-80.344531, 33.921875], [-80.344414, 33.923121], [-80.344356, 33.923308], [-80.344244, 33.924469], [-80.342993, 33.924409], [-80.342011, 33.924361], [-80.341304, 33.924315], [-80.34053, 33.924253], [-80.34131, 33.92426]]]]}}, {"type": "Feature", "properties": {"area_id": 10292, "city": "Sumter", "state": "SC", "city_survey": false, "cat": "Industrial", "grade": "", "label": "Industrial", "res": false, "com": false, "ind": true, "fill": "#1A1C18", "GEOID10": "45085002000", "GISJOIN": "G4500850002000", "calc_area": 381.93421, "pct_tract": 9e-05}, "geometry": {"type": "MultiPolygon", "coordinates": [[[[-80.33713, 33.92413], [-80.336324, 33.924186], [-80.336326, 33.924148], [-80.337137, 33.924075], [-80.33713, 33.92413]]]]}}, {"type": "Feature", "properties": {"area_id": 10292, "city": "Sumter", "state": "SC", "city_survey": false, "cat": "Industrial", "grade": "", "label": "Industrial", "res": false, "com": false, "ind": true, "fill": "#1A1C18", "GEOID10": "45085001500", "GISJOIN": "G4500850001500", "calc_area": 135420.72548, "pct_tract": 0.03909}, "geometry": {"type": "MultiPolygon", "coordinates": [[[[-80.34131, 33.91157], [-80.34171, 33.91441], [-80.34058, 33.91496], [-80.340564, 33.915138], [-80.340228, 33.915138], [-80.339723, 33.915031], [-80.339107, 33.914802], [-80.339067, 33.914781], [-80.338605, 33.914533], [-80.338008, 33.914289], [-80.337305, 33.913908], [-80.336934, 33.91357], [-80.336977, 33.913464], [-80.337312, 33.912567], [-80.337562, 33.911902], [-80.33763, 33.911584], [-80.337637, 33.911531], [-80.34131, 33.91157]]]]}}, {"type": "Feature", "properties": {"area_id": 10292, "city": "Sumter", "state": "SC", "city_survey": false, "cat": "Industrial", "grade": "", "label": "Industrial", "res": false, "com": false, "ind": true, "fill": "#1A1C18", "GEOID10": "45085001300", "GISJOIN": "G4500850001300", "calc_area": 127445.20355, "pct_tract": 0.03957}, "geometry": {"type": "MultiPolygon", "coordinates": [[[[-80.3364, 33.92024], [-80.33637, 33.92055], [-80.33574, 33.92055], [-80.33575, 33.92021], [-80.3364, 33.92024]]], [[[-80.33745, 33.92021], [-80.33742, 33.92072], [-80.33681, 33.9207], [-80.33686, 33.92021], [-80.33745, 33.92021]]], [[[-80.33737, 33.92149], [-80.3373, 33.92271], [-80.337137, 33.924075], [-80.336326, 33.924148], [-80.335389, 33.924236], [-80.335158, 33.92288], [-80.335003, 33.921934], [-80.334911, 33.921403], [-80.334904, 33.921362], [-80.33737, 33.92149]]], [[[-80.34045, 33.91645], [-80.34043, 33.91704], [-80.33993, 33.917], [-80.33972, 33.91698], [-80.33975, 33.9166], [-80.33873, 33.91654], [-80.33803, 33.91689], [-80.33774, 33.91704], [-80.33769, 33.91808], [-80.33756, 33.91811], [-80.33493, 33.91869], [-80.3349, 33.92025], [-80.33547, 33.92023], [-80.33531, 33.92066], [-80.334799, 33.920716], [-80.334741, 33.920246], [-80.334334, 33.920255], [-80.334041, 33.920266], [-80.333887, 33.920277], [-80.333829, 33.919935], [-80.333763, 33.919589], [-80.333746, 33.919502], [-80.333728, 33.919458], [-80.333668, 33.919373], [-80.333539, 33.919216], [-80.335589, 33.917984], [-80.336208, 33.917635], [-80.337707, 33.91681], [-80.339578, 33.915862], [-80.340544, 33.915373], [-80.34045, 33.91645]]]]}}, {"type": "Feature", "properties": {"area_id": 10292, "city": "Sumter", "state": "SC", "city_survey": false, "cat": "Industrial", "grade": "", "label": "Industrial", "res": false, "com": false, "ind": true, "fill": "#1A1C18", "GEOID10": "45085001100", "GISJOIN": "G4500850001100", "calc_area": 685554.26345, "pct_tract": 0.02636}, "geometry": {"type": "MultiPolygon", "coordinates": [[[[-80.33452, 33.9243], [-80.332288, 33.924527], [-80.33188, 33.924565], [-80.331869, 33.924566], [-80.33167, 33.92328], [-80.33156, 33.92253], [-80.32956, 33.92301], [-80.32893, 33.9217], [-80.33184, 33.91999], [-80.3323, 33.91658], [-80.3326, 33.91607], [-80.3326, 33.91606], [-80.33342, 33.91605], [-80.3332, 33.90894], [-80.33318, 33.90878], [-80.33716, 33.90885], [-80.33753, 33.91153], [-80.337637, 33.911531], [-80.33763, 33.911584], [-80.337562, 33.911902], [-80.337312, 33.912567], [-80.336977, 33.913464], [-80.336934, 33.91357], [-80.337305, 33.913908], [-80.338008, 33.914289], [-80.338605, 33.914533], [-80.339067, 33.914781], [-80.339107, 33.914802], [-80.339723, 33.915031], [-80.340228, 33.915138], [-80.340564, 33.915138], [-80.340544, 33.915373], [-80.339578, 33.915862], [-80.337707, 33.91681], [-80.336208, 33.917635], [-80.335589, 33.917984], [-80.333539, 33.919216], [-80.333668, 33.919373], [-80.333728, 33.919458], [-80.333746, 33.919502], [-80.333763, 33.919589], [-80.333829, 33.919935], [-80.333887, 33.920277], [-80.334041, 33.920266], [-80.334334, 33.920255], [-80.334741, 33.920246], [-80.334799, 33.920716], [-80.33476, 33.92072], [-80.33487, 33.92136], [-80.334904, 33.921362], [-80.334911, 33.921403], [-80.335003, 33.921934], [-80.335158, 33.92288], [-80.335389, 33.924236], [-80.33452, 33.924318], [-80.33452, 33.9243]]]]}}, {"type": "Feature", "properties": {"area_id": 10292, "city": "Sumter", "state": "SC", "city_survey": false, "cat": "Industrial", "grade": "", "label": "Industrial", "res": false, "com": false, "ind": true, "fill": "#1A1C18", "GEOID10": "45085000700", "GISJOIN": "G4500850000700", "calc_area": 36594.3734, "pct_tract": 0.00149}, "geometry": {"type": "MultiPolygon", "coordinates": [[[[-80.33541, 33.92425], [-80.33612, 33.92733], [-80.33453, 33.92701], [-80.33452, 33.9247], [-80.33452, 33.924318], [-80.335389, 33.924236], [-80.336326, 33.924148], [-80.336324, 33.924186], [-80.33541, 33.92425]]], [[[-80.33187, 33.92457], [-80.331869, 33.924566], [-80.33188, 33.924565], [-80.332288, 33.924527], [-80.33187, 33.92457]]]]}}, {"type": "Feature", "properties": {"area_id": 10293, "city": "Sumter", "state": "SC", "city_survey": false, "cat": "Med Res", "grade": "", "label": "Med Res", "res": true, "com": false, "ind": false, "fill": "#5F5D46", "GEOID10": "45085002000", "GISJOIN": "G4500850002000", "calc_area": 338560.2545, "pct_tract": 0.08084}, "geometry": {"type": "MultiPolygon", "coordinates": [[[[-80.34011, 33.92427], [-80.34011, 33.92425], [-80.340112, 33.92422], [-80.340678, 33.924265], [-80.34011, 33.92427]]], [[[-80.34722, 33.92201], [-80.34673, 33.92198], [-80.34685, 33.92078], [-80.344644, 33.92062], [-80.344646, 33.920601], [-80.346452, 33.920721], [-80.346803, 33.920745], [-80.347206, 33.920773], [-80.347419, 33.920782], [-80.347688, 33.920779], [-80.347991, 33.920769], [-80.349016, 33.920707], [-80.350578, 33.920598], [-80.351824, 33.920511], [-80.353353, 33.920404], [-80.354272, 33.92034], [-80.35443, 33.921427], [-80.354502, 33.921913], [-80.354506, 33.921934], [-80.354584, 33.922438], [-80.34722, 33.92201]]], [[[-80.35549, 33.92859], [-80.35062, 33.92865], [-80.35027, 33.92678], [-80.35517, 33.92704], [-80.35549, 33.92859]]], [[[-80.34434, 33.9333], [-80.34279, 33.93338], [-80.342, 33.9303], [-80.34338, 33.9299], [-80.34545, 33.92973], [-80.34544, 33.93022], [-80.34606, 33.93017], [-80.34598, 33.93156], [-80.34588, 33.93343], [-80.34434, 33.9333]]]]}}, {"type": "Feature", "properties": {"area_id": 10293, "city": "Sumter", "state": "SC", "city_survey": false, "cat": "Med Res", "grade": "", "label": "Med Res", "res": true, "com": false, "ind": false, "fill": "#5F5D46", "GEOID10": "45085001300", "GISJOIN": "G4500850001300", "calc_area": 643527.91205, "pct_tract": 0.19982}, "geometry": {"type": "MultiPolygon", "coordinates": [[[[-80.33756, 33.91842], [-80.33745, 33.92021], [-80.33686, 33.92021], [-80.3364, 33.92024], [-80.33575, 33.92021], [-80.33547, 33.92023], [-80.3349, 33.92025], [-80.33493, 33.91869], [-80.33756, 33.91811], [-80.33756, 33.91842]]], [[[-80.34021, 33.92288], [-80.34142, 33.92293], [-80.34131, 33.92426], [-80.340678, 33.924265], [-80.340112, 33.92422], [-80.34021, 33.92288]]], [[[-80.34396, 33.92057], [-80.34392, 33.92102], [-80.34365, 33.92436], [-80.34302, 33.92433], [-80.34332, 33.92178], [-80.34348, 33.92039], [-80.34369, 33.91726], [-80.34409, 33.91729], [-80.34412, 33.91767], [-80.34438, 33.91771], [-80.34437, 33.91862], [-80.34487, 33.91866], [-80.34486, 33.91891], [-80.34565, 33.91897], [-80.34587, 33.9186], [-80.34594, 33.91746], [-80.34685, 33.91749], [-80.34697, 33.91625], [-80.34791, 33.91471], [-80.35095, 33.91572], [-80.35401, 33.91738], [-80.35436, 33.9189], [-80.35491, 33.92028], [-80.3595, 33.91998], [-80.35959, 33.92099], [-80.35951, 33.92202], [-80.3584, 33.92211], [-80.35461, 33.92244], [-80.354584, 33.922438], [-80.354506, 33.921934], [-80.354502, 33.921913], [-80.35443, 33.921427], [-80.354272, 33.92034], [-80.353353, 33.920404], [-80.351824, 33.920511], [-80.350578, 33.920598], [-80.349016, 33.920707], [-80.347991, 33.920769], [-80.347688, 33.920779], [-80.347419, 33.920782], [-80.347206, 33.920773], [-80.346803, 33.920745], [-80.346452, 33.920721], [-80.344646, 33.920601], [-80.344644, 33.92062], [-80.34396, 33.92057]]]]}}, {"type": "Feature", "properties": {"area_id": 10294, "city": "Sumter", "state": "SC", "city_survey": false, "cat": "Poor - Blighted", "grade": "", "label": "Poor - Blighted", "res": true, "com": false, "ind": false, "fill": "#7F3A34", "GEOID10": "45085002000", "GISJOIN": "G4500850002000", "calc_area": 123729.20248, "pct_tract": 0.02954}, "geometry": {"type": "MultiPolygon", "coordinates": [[[[-80.34011, 33.92425], [-80.33713, 33.92413], [-80.337137, 33.924075], [-80.337152, 33.924074], [-80.337322, 33.924065], [-80.337496, 33.924064], [-80.337696, 33.924071], [-80.338199, 33.924099], [-80.339693, 33.924187], [-80.340112, 33.92422], [-80.34011, 33.92425]]], [[[-80.33708, 33.92519], [-80.33719, 33.92738], [-80.3367, 33.92747], [-80.33676, 33.92779], [-80.33721, 33.92779], [-80.33729, 33.92858], [-80.336663, 33.92934], [-80.33632, 33.928014], [-80.336293, 33.927892], [-80.33627, 33.927789], [-80.336177, 33.927311], [-80.336119, 33.926845], [-80.336115, 33.926466], [-80.336125, 33.926178], [-80.336149, 33.925954], [-80.336241, 33.925241], [-80.336294, 33.924788], [-80.336307, 33.924631], [-80.336324, 33.924186], [-80.33713, 33.92413], [-80.33708, 33.92519]]], [[[-80.34434, 33.9333], [-80.34588, 33.93343], [-80.34646, 33.93359], [-80.34636, 33.93542], [-80.34355, 33.936], [-80.34279, 33.93338], [-80.34434, 33.9333]]]]}}, {"type": "Feature", "properties": {"area_id": 10294, "city": "Sumter", "state": "SC", "city_survey": false, "cat": "Poor - Blighted", "grade": "", "label": "Poor - Blighted", "res": true, "com": false, "ind": false, "fill": "#7F3A34", "GEOID10": "45085001500", "GISJOIN": "G4500850001500", "calc_area": 328864.4377, "pct_tract": 0.09492}, "geometry": {"type": "MultiPolygon", "coordinates": [[[[-80.34098, 33.90899], [-80.34131, 33.91157], [-80.3416, 33.91361], [-80.33768, 33.91358], [-80.337558, 33.911913], [-80.337562, 33.911902], [-80.33763, 33.911584], [-80.33765, 33.911428], [-80.337656, 33.911312], [-80.337657, 33.911166], [-80.337633, 33.910911], [-80.337575, 33.910475], [-80.337497, 33.909801], [-80.337388, 33.908918], [-80.337381, 33.908858], [-80.34098, 33.90899]]], [[[-80.34241, 33.91348], [-80.34313, 33.91192], [-80.34439, 33.91083], [-80.34542, 33.9103], [-80.34764, 33.91018], [-80.34812, 33.91072], [-80.34936, 33.91071], [-80.35093, 33.91094], [-80.35169, 33.91159], [-80.352024, 33.91164], [-80.349585, 33.911827], [-80.349304, 33.911929], [-80.347271, 33.912137], [-80.346667, 33.912183], [-80.346063, 33.912367], [-80.344332, 33.913147], [-80.344184, 33.913243], [-80.342959, 33.913939], [-80.342743, 33.914077], [-80.342436, 33.914272], [-80.34241, 33.91348]]]]}}, {"type": "Feature", "properties": {"area_id": 10294, "city": "Sumter", "state": "SC", "city_survey": false, "cat": "Poor - Blighted", "grade": "", "label": "Poor - Blighted", "res": true, "com": false, "ind": false, "fill": "#7F3A34", "GEOID10": "45085001300", "GISJOIN": "G4500850001300", "calc_area": 635551.00259, "pct_tract": 0.19735}, "geometry": {"type": "MultiPolygon", "coordinates": [[[[-80.35282, 33.91176], [-80.35383, 33.91222], [-80.35424, 33.91255], [-80.35612, 33.91501], [-80.35946, 33.91958], [-80.3595, 33.91998], [-80.35491, 33.92028], [-80.35436, 33.9189], [-80.35401, 33.91738], [-80.35095, 33.91572], [-80.34937, 33.91516], [-80.34791, 33.91471], [-80.34622, 33.91459], [-80.34406, 33.91442], [-80.34244, 33.91441], [-80.342436, 33.914272], [-80.342743, 33.914077], [-80.342959, 33.913939], [-80.344184, 33.913243], [-80.344332, 33.913147], [-80.346063, 33.912367], [-80.346667, 33.912183], [-80.347271, 33.912137], [-80.349304, 33.911929], [-80.349585, 33.911827], [-80.352024, 33.91164], [-80.35282, 33.91176]]], [[[-80.33531, 33.92066], [-80.33547, 33.92023], [-80.33575, 33.92021], [-80.33574, 33.92055], [-80.33637, 33.92055], [-80.3364, 33.92024], [-80.33686, 33.92021], [-80.33681, 33.9207], [-80.33742, 33.92072], [-80.33737, 33.92149], [-80.334904, 33.921362], [-80.334809, 33.920793], [-80.334799, 33.920716], [-80.33531, 33.92066]]], [[[-80.3373, 33.92271], [-80.33984, 33.92285], [-80.33985, 33.92275], [-80.34021, 33.92288], [-80.340112, 33.92422], [-80.339693, 33.924187], [-80.338199, 33.924099], [-80.337696, 33.924071], [-80.337496, 33.924064], [-80.337322, 33.924065], [-80.337152, 33.924074], [-80.337137, 33.924075], [-80.3373, 33.92271]]]]}}, {"type": "Feature", "properties": {"area_id": 10294, "city": "Sumter", "state": "SC", "city_survey": false, "cat": "Poor - Blighted", "grade": "", "label": "Poor - Blighted", "res": true, "com": false, "ind": false, "fill": "#7F3A34", "GEOID10": "45085001100", "GISJOIN": "G4500850001100", "calc_area": 225102.7014, "pct_tract": 0.00866}, "geometry": {"type": "MultiPolygon", "coordinates": [[[[-80.33753, 33.91153], [-80.33716, 33.90885], [-80.337381, 33.908858], [-80.337388, 33.908918], [-80.337497, 33.909801], [-80.337575, 33.910475], [-80.337633, 33.910911], [-80.337657, 33.911166], [-80.337656, 33.911312], [-80.33765, 33.911428], [-80.33763, 33.911584], [-80.337562, 33.911902], [-80.337558, 33.911913], [-80.33753, 33.91153]]], [[[-80.33342, 33.91605], [-80.3326, 33.91607], [-80.32937, 33.91615], [-80.33082, 33.91434], [-80.3305, 33.91069], [-80.3332, 33.90894], [-80.33342, 33.91605]]], [[[-80.33487, 33.92136], [-80.33476, 33.92072], [-80.334799, 33.920716], [-80.334809, 33.920793], [-80.334904, 33.921362], [-80.33487, 33.92136]]], [[[-80.33167, 33.92328], [-80.33425, 33.92296], [-80.33452, 33.9243], [-80.33452, 33.924318], [-80.334443, 33.924325], [-80.334371, 33.924332], [-80.333515, 33.924413], [-80.332694, 33.92449], [-80.33188, 33.924565], [-80.331869, 33.924566], [-80.33167, 33.92328]]]]}}, {"type": "Feature", "properties": {"area_id": 10294, "city": "Sumter", "state": "SC", "city_survey": false, "cat": "Poor - Blighted", "grade": "", "label": "Poor - Blighted", "res": true, "com": false, "ind": false, "fill": "#7F3A34", "GEOID10": "45085000700", "GISJOIN": "G4500850000700", "calc_area": 169751.37336, "pct_tract": 0.00692}, "geometry": {"type": "MultiPolygon", "coordinates": [[[[-80.33452, 33.9247], [-80.33453, 33.92701], [-80.3337, 33.928], [-80.33133, 33.92672], [-80.3305, 33.92497], [-80.33187, 33.92457], [-80.331869, 33.924566], [-80.33188, 33.924565], [-80.332694, 33.92449], [-80.333515, 33.924413], [-80.334371, 33.924332], [-80.334443, 33.924325], [-80.33452, 33.924318], [-80.33452, 33.9247]]], [[[-80.33625, 33.92984], [-80.3344, 33.92967], [-80.33453, 33.92701], [-80.33612, 33.92733], [-80.33541, 33.92425], [-80.336324, 33.924186], [-80.336307, 33.924631], [-80.336294, 33.924788], [-80.336241, 33.925241], [-80.336149, 33.925954], [-80.336125, 33.926178], [-80.336115, 33.926466], [-80.336119, 33.926845], [-80.336177, 33.927311], [-80.33627, 33.927789], [-80.336293, 33.927892], [-80.33632, 33.928014], [-80.336663, 33.92934], [-80.33625, 33.92984]]]]}}]}