{"type": "FeatureCollection", "features": [{"type": "Feature", "geometry": {"type": "Point", "coordinates": [-80.333333, 33.920833]}, "properties": {"facility_name": "B L MONTAGUE CO INC", "industry": null, "tri_facility_id": "29150BLMNT303EL"}}, {"type": "Feature", "geometry": {"type": "Point", "coordinates": [-80.366051, 33.862366]}, "properties": {"facility_name": "PILGRIM'S PRIDE SUMTER PROCESSING PLANT", "industry": null, "tri_facility_id": "29150CMPBL2050H"}}, {"type": "Feature", "geometry": {"type": "Point", "coordinates": [-80.325, 33.920556]}, "properties": {"facility_name": "CAROLINA COCA-COLA BOTTLING", "industry": null, "tri_facility_id": "29150CRLNC712EL"}}, {"type": "Feature", "geometry": {"type": "Point", "coordinates": [-80.366667, 33.958333]}, "properties": {"facility_name": "MAYSTEEL PORTER'S FABRICATION OF SUMTER", "industry": null, "tri_facility_id": "29150DBLDN1485D"}}, {"type": "Feature", "geometry": {"type": "Point", "coordinates": [-80.3, 33.925]}, "properties": {"facility_name": "SUMTER WOOD PRESERVING CO", "industry": null, "tri_facility_id": "29150SMTRWEASTF"}}, {"type": "Feature", "geometry": {"type": "Point", "coordinates": [-80.348056, 33.967222]}, "properties": {"facility_name": "BD LIFE SCIENCES", "industry": null, "tri_facility_id": "29151BCTNDAIRPO"}}, {"type": "Feature", "geometry": {"type": "Point", "coordinates": [-80.332778, 33.929444]}, "properties": {"facility_name": "CAROLINA FURNITURE WORKS INC 130130", "industry": null, "tri_facility_id": "29151CRLNF406BR"}}, {"type": "Feature", "geometry": {"type": "Point", "coordinates": [-80.333056, 33.909444]}, "properties": {"facility_name": "KORN INDUSTRIES INC", "industry": null, "tri_facility_id": "29151KRNNDPOSTO"}}, {"type": "Feature", "geometry": {"type": "Point", "coordinates": [-80.3525, 33.8739]}, "properties": {"facility_name": "KAYDON CORP PLANT 12", "industry": null, "tri_facility_id": "29151KYDNC3CORP"}}, {"type": "Feature", "geometry": {"type": "Point", "coordinates": [-80.340347, 33.895443]}, "properties": {"facility_name": "INTERLAKE MATERIAL HANDLING", "industry": null, "tri_facility_id": "29151NTRLK1925C"}}, {"type": "Feature", "geometry": {"type": "Point", "coordinates": [-80.314167, 33.921111]}, "properties": {"facility_name": "SANTEE PRINT WORKS", "industry": null, "tri_facility_id": "29151SNTPRPROGR"}}, {"type": "Feature", "geometry": {"type": "Point", "coordinates": [-80.331389, 33.907778]}, "properties": {"facility_name": "SOUTHERN COATINGS INC", "industry": null, "tri_facility_id": "29151STHRN730FU"}}, {"type": "Feature", "geometry": {"type": "Point", "coordinates": [-80.34194444444444, 33.906666666666666]}, "properties": {"facility_name": "GIANT RESOURCE RECOVERY-SUMTER INC", "industry": null, "tri_facility_id": "29151STHST755IN"}}, {"type": "Feature", "geometry": {"type": "Point", "coordinates": [-80.334946, 33.908318]}, "properties": {"facility_name": "VAUGHAN-BASSETT FURNITURE CO", "industry": null, "tri_facility_id": "29151VBWLL602FU"}}, {"type": "Feature", "geometry": {"type": "Point", "coordinates": [-80.36638888888888, 33.97916666666667]}, "properties": {"facility_name": "CATERPILLAR PRECISION PIN PRODUCTS GROUP", "industry": null, "tri_facility_id": "29153CTRPL1355N"}}, {"type": "Feature", "geometry": {"type": "Point", "coordinates": [-80.37194444444444, 33.96027777777778]}, "properties": {"facility_name": "FEDERAL-MOGUL POWERTRAIN SYSTEMS", "industry": null, "tri_facility_id": "29153FDRLM990JE"}}]}