{"type": "FeatureCollection", "features": [{"type": "Feature", "properties": {"area_id": 8035, "city": "San Antonio", "state": "TX", "city_survey": true, "cat": "Best", "grade": "A", "label": null, "res": true, "com": false, "ind": false, "holc_grade": "A"}, "geometry": {"type": "Polygon", "coordinates": [[[-98.55976, 29.45974], [-98.56058, 29.45914], [-98.56324, 29.45926], [-98.56662, 29.46109], [-98.56777, 29.46109], [-98.56827, 29.46134], [-98.57083, 29.46097], [-98.57116, 29.46134], [-98.57211, 29.4612], [-98.57349, 29.46223], [-98.574339, 29.471275], [-98.57457, 29.47373], [-98.57493, 29.47992], [-98.57254, 29.48215], [-98.56478, 29.47723], [-98.56903, 29.47309], [-98.56732, 29.473066], [-98.56614, 29.47305], [-98.56579, 29.47282], [-98.56089, 29.47263], [-98.55256, 29.47234], [-98.55105, 29.47234], [-98.550305, 29.472685], [-98.5501, 29.47278], [-98.549807, 29.472736], [-98.54936, 29.47267], [-98.54907, 29.46941], [-98.548654, 29.469385], [-98.54198, 29.46899], [-98.53729, 29.46859], [-98.53346, 29.46851], [-98.529988, 29.468387], [-98.52979, 29.46838], [-98.52973, 29.46838], [-98.52972, 29.46838], [-98.52966, 29.46838], [-98.52965, 29.46836], [-98.52924, 29.4679], [-98.528569, 29.467117], [-98.5272, 29.46552], [-98.5244, 29.46288], [-98.523947, 29.462451], [-98.523835, 29.462345], [-98.52365, 29.46217], [-98.52163, 29.46009], [-98.51869, 29.45705], [-98.51826, 29.45662], [-98.515555, 29.453899], [-98.51494, 29.45328], [-98.51485, 29.453], [-98.51485, 29.45299], [-98.51484, 29.45296], [-98.5149, 29.45297], [-98.51525, 29.45301], [-98.51558, 29.45305], [-98.515585, 29.453051], [-98.52197, 29.45382], [-98.523849, 29.453985], [-98.5314, 29.45465], [-98.53341, 29.45486], [-98.53486, 29.45501], [-98.53502, 29.45503], [-98.53801, 29.45534], [-98.53833, 29.45542], [-98.53814, 29.45628], [-98.5381, 29.45722], [-98.53679, 29.45825], [-98.53636, 29.45937], [-98.53679, 29.45986], [-98.53774, 29.46029], [-98.53847, 29.46023], [-98.53833, 29.46103], [-98.53738, 29.46189], [-98.53646, 29.46295], [-98.53649, 29.4636], [-98.536832, 29.463683], [-98.53768, 29.46389], [-98.53919, 29.46403], [-98.54129, 29.46418], [-98.54366, 29.46455], [-98.54714, 29.46492], [-98.54911, 29.46492], [-98.549112, 29.464848], [-98.54918, 29.46249], [-98.54967, 29.45908], [-98.55033, 29.45642], [-98.55034, 29.45642], [-98.551025, 29.456415], [-98.5544, 29.45639], [-98.554958, 29.45679], [-98.55716, 29.45837], [-98.55976, 29.45974]]]}}, {"type": "Feature", "properties": {"area_id": 8048, "city": "San Antonio", "state": "TX", "city_survey": true, "cat": "Best", "grade": "A", "label": null, "res": true, "com": false, "ind": false, "holc_grade": "A"}, "geometry": {"type": "Polygon", "coordinates": [[[-98.49215, 29.45338], [-98.4924, 29.45287], [-98.49434, 29.45291], [-98.49424, 29.44708], [-98.49895, 29.44708], [-98.4991, 29.44771], [-98.49903, 29.45258], [-98.499111, 29.458665], [-98.49921, 29.46618], [-98.49544, 29.46638], [-98.48717, 29.46662], [-98.487042, 29.468033], [-98.48675, 29.47124], [-98.49199, 29.47108], [-98.49212, 29.47644], [-98.492311, 29.478339], [-98.49248, 29.48001], [-98.49255, 29.47992], [-98.49245, 29.48069], [-98.492577, 29.485608], [-98.4926, 29.48651], [-98.49231, 29.48705], [-98.49218, 29.48823], [-98.49289, 29.4883], [-98.49288, 29.48839], [-98.491706, 29.488379], [-98.48346, 29.4883], [-98.48336, 29.48361], [-98.48234, 29.48369], [-98.4822, 29.48272], [-98.482371, 29.482205], [-98.482385, 29.482162], [-98.48258, 29.481573], [-98.48283, 29.48082], [-98.48273, 29.480647], [-98.48234, 29.47997], [-98.48264, 29.47921], [-98.482654, 29.478517], [-98.482663, 29.478075], [-98.48268, 29.47727], [-98.483382, 29.476598], [-98.484691, 29.475345], [-98.48502, 29.47503], [-98.48584, 29.47224], [-98.4856, 29.47126], [-98.484599, 29.47124], [-98.47967, 29.47114], [-98.479842, 29.468174], [-98.47992, 29.46682], [-98.48196, 29.46636], [-98.4821, 29.46234], [-98.48662, 29.46243], [-98.48647, 29.45887], [-98.482226, 29.45887], [-98.48201, 29.45887], [-98.48186, 29.45887], [-98.481775, 29.456817], [-98.48176, 29.45646], [-98.48492, 29.45659], [-98.48526, 29.45325], [-98.49215, 29.45338]]]}}, {"type": "Feature", "properties": {"area_id": 8036, "city": "San Antonio", "state": "TX", "city_survey": true, "cat": "Still Desirable", "grade": "B", "label": null, "res": true, "com": false, "ind": false, "holc_grade": "B"}, "geometry": {"type": "Polygon", "coordinates": [[[-98.51485, 29.44948], [-98.51466, 29.44842], [-98.51493, 29.44843], [-98.51503, 29.44844], [-98.515312, 29.448468], [-98.51674, 29.44861], [-98.51792, 29.44866], [-98.5196, 29.4489], [-98.52122, 29.44911], [-98.52337, 29.44929], [-98.52702, 29.44956], [-98.52912, 29.4496], [-98.52906, 29.44978], [-98.52892, 29.45018], [-98.528, 29.45072], [-98.52789, 29.45117], [-98.52866, 29.4509], [-98.52974, 29.45121], [-98.5302, 29.4517], [-98.53097, 29.45215], [-98.5321, 29.45237], [-98.53282, 29.453], [-98.53287, 29.45367], [-98.53339, 29.45434], [-98.533405, 29.454732], [-98.53341, 29.45486], [-98.5314, 29.45465], [-98.523849, 29.453985], [-98.52197, 29.45382], [-98.515585, 29.453051], [-98.51558, 29.45305], [-98.51525, 29.45301], [-98.51524, 29.452958], [-98.5152, 29.45276], [-98.51505, 29.45095], [-98.51485, 29.44948]]]}}, {"type": "Feature", "properties": {"area_id": 8038, "city": "San Antonio", "state": "TX", "city_survey": true, "cat": "Still Desirable", "grade": "B", "label": null, "res": true, "com": false, "ind": false, "holc_grade": "B"}, "geometry": {"type": "Polygon", "coordinates": [[[-98.533498, 29.382879], [-98.533315, 29.383758], [-98.53316, 29.3845], [-98.53266, 29.38992], [-98.532659, 29.389947], [-98.53254, 29.39533], [-98.531604, 29.395987], [-98.528547, 29.39813], [-98.52343, 29.40172], [-98.52336, 29.40171], [-98.51803, 29.40121], [-98.51179, 29.400946], [-98.51166, 29.40094], [-98.511771, 29.40081], [-98.5134, 29.39889], [-98.515649, 29.396267], [-98.51899, 29.39237], [-98.52272, 29.38816], [-98.52444, 29.38622], [-98.527306, 29.382711], [-98.52903, 29.3806], [-98.533804, 29.380437], [-98.53401, 29.38043], [-98.533764, 29.381608], [-98.533498, 29.382879]]]}}, {"type": "Feature", "properties": {"area_id": 8039, "city": "San Antonio", "state": "TX", "city_survey": true, "cat": "Still Desirable", "grade": "B", "label": null, "res": true, "com": false, "ind": false, "holc_grade": "B"}, "geometry": {"type": "Polygon", "coordinates": [[[-98.46809, 29.38665], [-98.4682, 29.38753], [-98.46959, 29.38746], [-98.46975, 29.38679], [-98.473487, 29.387122], [-98.47955, 29.38766], [-98.480306, 29.390342], [-98.4814, 29.39422], [-98.4859, 29.39524], [-98.4863, 29.39533], [-98.48588, 29.39978], [-98.48232, 29.39912], [-98.48252, 29.40041], [-98.47928, 29.40028], [-98.47573, 29.40022], [-98.4757, 29.40203], [-98.475725, 29.402493], [-98.47573, 29.40258], [-98.47569, 29.40258], [-98.47569, 29.40263], [-98.47538, 29.40266], [-98.473497, 29.402633], [-98.47183, 29.40261], [-98.467829, 29.402648], [-98.46448, 29.40268], [-98.461239, 29.402699], [-98.45425, 29.40274], [-98.452374, 29.402749], [-98.45225, 29.40275], [-98.451568, 29.40279], [-98.449249, 29.402926], [-98.44798, 29.403], [-98.448009, 29.39844], [-98.44806, 29.39049], [-98.448326, 29.390469], [-98.44907, 29.39041], [-98.44931, 29.3904], [-98.44945, 29.39039], [-98.449575, 29.390681], [-98.4496, 29.39074], [-98.44964, 29.39082], [-98.452731, 29.390778], [-98.45554, 29.39074], [-98.45674, 29.39072], [-98.456918, 29.384117], [-98.45693, 29.38366], [-98.45708, 29.38367], [-98.461197, 29.383816], [-98.46639, 29.384], [-98.466392, 29.384139], [-98.46643, 29.38645], [-98.46809, 29.38665]]]}}, {"type": "Feature", "properties": {"area_id": 8041, "city": "San Antonio", "state": "TX", "city_survey": true, "cat": "Still Desirable", "grade": "B", "label": null, "res": true, "com": false, "ind": false, "holc_grade": "B"}, "geometry": {"type": "Polygon", "coordinates": [[[-98.47429, 29.47606], [-98.475, 29.47664], [-98.47587, 29.47732], [-98.47613, 29.47814], [-98.47714, 29.47925], [-98.47823, 29.47995], [-98.47971, 29.47967], [-98.48071, 29.47988], [-98.48095, 29.48065], [-98.48098, 29.48335], [-98.48156, 29.48413], [-98.4815, 29.48511], [-98.481204, 29.486133], [-98.48117, 29.48625], [-98.481246, 29.486242], [-98.48171, 29.48619], [-98.48193, 29.48702], [-98.48218, 29.48783], [-98.48259, 29.48881], [-98.48292, 29.48968], [-98.48379, 29.49093], [-98.48359, 29.49104], [-98.48307, 29.49112], [-98.481878, 29.491132], [-98.478426, 29.491165], [-98.47285, 29.49122], [-98.470883, 29.491245], [-98.46741, 29.49129], [-98.4664, 29.49135], [-98.46626, 29.49064], [-98.46485, 29.49058], [-98.4593, 29.490668], [-98.45918, 29.49067], [-98.45921, 29.4899], [-98.45923, 29.48569], [-98.459239, 29.485313], [-98.459262, 29.484389], [-98.45927, 29.48406], [-98.45927, 29.48392], [-98.459281, 29.483904], [-98.45945, 29.48366], [-98.45994, 29.48313], [-98.46019, 29.48249], [-98.46047, 29.48116], [-98.46108, 29.48], [-98.46172, 29.4794], [-98.46242, 29.47836], [-98.4628, 29.47787], [-98.46294, 29.47788], [-98.46327, 29.47858], [-98.46364, 29.4788], [-98.46433, 29.47926], [-98.46482, 29.47982], [-98.46545, 29.48051], [-98.4662, 29.48081], [-98.46692, 29.48091], [-98.46774, 29.48071], [-98.46861, 29.48046], [-98.46925, 29.48029], [-98.47025, 29.4799], [-98.47094, 29.47965], [-98.47157, 29.47958], [-98.47232, 29.47909], [-98.47314, 29.47865], [-98.4736, 29.47834], [-98.47386, 29.47752], [-98.473997, 29.476134], [-98.47401, 29.476], [-98.47417, 29.47596], [-98.47429, 29.47606]]]}}, {"type": "Feature", "properties": {"area_id": 8044, "city": "San Antonio", "state": "TX", "city_survey": true, "cat": "Still Desirable", "grade": "B", "label": null, "res": true, "com": false, "ind": false, "holc_grade": "B"}, "geometry": {"type": "MultiPolygon", "coordinates": [[[[-98.515555, 29.453899], [-98.51826, 29.45662], [-98.51869, 29.45705], [-98.52163, 29.46009], [-98.52365, 29.46217], [-98.523835, 29.462345], [-98.523947, 29.462451], [-98.5244, 29.46288], [-98.5272, 29.46552], [-98.528569, 29.467117], [-98.52924, 29.4679], [-98.52965, 29.46836], [-98.52966, 29.46838], [-98.52972, 29.46838], [-98.53528, 29.47395], [-98.53574, 29.47977], [-98.525998, 29.479858], [-98.52579, 29.47986], [-98.525967, 29.481205], [-98.52599, 29.481376], [-98.52617, 29.48274], [-98.525992, 29.48274], [-98.52541, 29.48274], [-98.52583, 29.48827], [-98.51663, 29.4882], [-98.51655, 29.48403], [-98.51371, 29.48392], [-98.51375, 29.48115], [-98.507849, 29.48115], [-98.50765, 29.48115], [-98.507667, 29.480618], [-98.507859, 29.474562], [-98.50787, 29.47422], [-98.50787, 29.47192], [-98.507865, 29.471723], [-98.50779, 29.46891], [-98.50776, 29.46654], [-98.50771, 29.466436], [-98.50765, 29.46631], [-98.50058, 29.46611], [-98.499287, 29.466176], [-98.49921, 29.46618], [-98.499111, 29.458665], [-98.49903, 29.45258], [-98.49908, 29.44885], [-98.499356, 29.448853], [-98.50347, 29.4489], [-98.50345, 29.44498], [-98.499343, 29.445009], [-98.49918, 29.44501], [-98.49918, 29.44703], [-98.49918, 29.44707], [-98.49895, 29.44708], [-98.49424, 29.44708], [-98.49434, 29.45291], [-98.4924, 29.45287], [-98.49215, 29.45338], [-98.48526, 29.45325], [-98.48502, 29.45304], [-98.48526, 29.45268], [-98.48584, 29.45181], [-98.48749, 29.45008], [-98.48816, 29.4492], [-98.48822, 29.44849], [-98.48782, 29.44785], [-98.487108, 29.447038], [-98.48683, 29.44672], [-98.48658, 29.44488], [-98.48647, 29.44411], [-98.4865, 29.44284], [-98.48653, 29.44158], [-98.486165, 29.440644], [-98.48605, 29.44035], [-98.48542, 29.43936], [-98.48498, 29.43835], [-98.48446, 29.43712], [-98.48445, 29.43557], [-98.48444, 29.43498], [-98.48394, 29.43414], [-98.48512, 29.43383], [-98.485454, 29.433676], [-98.48627, 29.4333], [-98.48725, 29.43314], [-98.48784, 29.4322], [-98.48838, 29.43141], [-98.49086, 29.43096], [-98.49179, 29.43192], [-98.49302, 29.43291], [-98.49574, 29.43291], [-98.49717, 29.43296], [-98.498591, 29.43408], [-98.49972, 29.43497], [-98.50077, 29.43574], [-98.50196, 29.43733], [-98.50253, 29.43896], [-98.50258, 29.4407], [-98.50268, 29.44126], [-98.5031, 29.44135], [-98.503853, 29.442091], [-98.50434, 29.44257], [-98.50764, 29.44584], [-98.51155, 29.44971], [-98.5145, 29.45262], [-98.5148, 29.45292], [-98.51484, 29.45296], [-98.51485, 29.45299], [-98.51485, 29.453], [-98.51494, 29.45328], [-98.515555, 29.453899]]], [[[-98.485305, 29.40286], [-98.48565, 29.40286], [-98.48654, 29.40303], [-98.48704, 29.4033], [-98.48847, 29.4036], [-98.4892, 29.4038], [-98.49032, 29.40437], [-98.49113, 29.40478], [-98.49144, 29.40555], [-98.49163, 29.40629], [-98.49202, 29.40669], [-98.49256, 29.4068], [-98.49391, 29.40696], [-98.49452, 29.40811], [-98.49437, 29.40918], [-98.49487, 29.40992], [-98.49442, 29.41052], [-98.49422, 29.4108], [-98.49314, 29.4114], [-98.49275, 29.41184], [-98.49205, 29.41197], [-98.49097, 29.41224], [-98.49059, 29.41232], [-98.48926, 29.41268], [-98.48873, 29.41283], [-98.48854, 29.41273], [-98.488539, 29.41273], [-98.48831, 29.41278], [-98.48805, 29.41147], [-98.48776, 29.4107], [-98.48743, 29.40968], [-98.48738, 29.40955], [-98.48737, 29.40948], [-98.48704, 29.40845], [-98.486804, 29.407679], [-98.4865, 29.40669], [-98.48646, 29.40659], [-98.48588, 29.40488], [-98.4853, 29.40286], [-98.485305, 29.40286]]]]}}, {"type": "Feature", "properties": {"area_id": 8045, "city": "San Antonio", "state": "TX", "city_survey": true, "cat": "Still Desirable", "grade": "B", "label": null, "res": true, "com": false, "ind": false, "holc_grade": "B"}, "geometry": {"type": "Polygon", "coordinates": [[[-98.47582, 29.43658], [-98.47591, 29.43666], [-98.4755, 29.43907], [-98.478138, 29.439196], [-98.47844, 29.43921], [-98.4789, 29.43923], [-98.47894, 29.43923], [-98.47909, 29.43924], [-98.478354, 29.441291], [-98.4782, 29.44172], [-98.47663, 29.44539], [-98.47654, 29.44559], [-98.4755, 29.44781], [-98.475306, 29.448398], [-98.47457, 29.45063], [-98.47299, 29.45295], [-98.4704, 29.45623], [-98.46785, 29.4595], [-98.46538, 29.46228], [-98.46415, 29.46363], [-98.46249, 29.46565], [-98.462441, 29.468205], [-98.46244, 29.46828], [-98.46254, 29.46886], [-98.4624, 29.46885], [-98.460554, 29.46879], [-98.46026, 29.46878], [-98.45992, 29.46877], [-98.45999, 29.468212], [-98.46037, 29.4652], [-98.46076, 29.46013], [-98.46089, 29.4561], [-98.461137, 29.454336], [-98.46116, 29.45417], [-98.4639, 29.45406], [-98.46496, 29.45432], [-98.46563, 29.45365], [-98.46573, 29.45161], [-98.4661, 29.45056], [-98.46684, 29.44993], [-98.46728, 29.44916], [-98.46807, 29.44883], [-98.46869, 29.44849], [-98.46877, 29.44763], [-98.46904, 29.44737], [-98.46978, 29.44707], [-98.47099, 29.44705], [-98.4724, 29.4464], [-98.472476, 29.446301], [-98.472836, 29.445837], [-98.47343, 29.44507], [-98.47358, 29.444795], [-98.47398, 29.44406], [-98.47403, 29.44344], [-98.47104, 29.44356], [-98.470283, 29.443542], [-98.4677, 29.44348], [-98.46546, 29.44359], [-98.46197, 29.44333], [-98.46101, 29.44335], [-98.46099, 29.44318], [-98.460935, 29.442717], [-98.46082, 29.44175], [-98.460934, 29.441757], [-98.46099, 29.44176], [-98.46102, 29.43974], [-98.46164, 29.43816], [-98.46214, 29.43766], [-98.46213, 29.43738], [-98.46218, 29.43665], [-98.46219, 29.436554], [-98.46226, 29.43591], [-98.46542, 29.43631], [-98.46995, 29.43647], [-98.469977, 29.436594], [-98.46998, 29.43661], [-98.471685, 29.436601], [-98.471949, 29.4366], [-98.474263, 29.436588], [-98.474585, 29.436586], [-98.47582, 29.43658]]]}}, {"type": "Feature", "properties": {"area_id": 8047, "city": "San Antonio", "state": "TX", "city_survey": true, "cat": "Still Desirable", "grade": "B", "label": null, "res": true, "com": false, "ind": false, "holc_grade": "B"}, "geometry": {"type": "Polygon", "coordinates": [[[-98.49314, 29.47912], [-98.49433, 29.47752], [-98.49491, 29.47575], [-98.49562, 29.47445], [-98.49606, 29.47443], [-98.49742, 29.47438], [-98.49907, 29.47428], [-98.49917, 29.47441], [-98.4992, 29.47778], [-98.49927, 29.48198], [-98.49917, 29.48359], [-98.499281, 29.483588], [-98.50251, 29.48354], [-98.50765, 29.48357], [-98.50767, 29.48514], [-98.5073, 29.48537], [-98.50713, 29.4883], [-98.504372, 29.488307], [-98.499255, 29.48832], [-98.49907, 29.48832], [-98.49327, 29.48834], [-98.49289, 29.4883], [-98.49218, 29.48823], [-98.49231, 29.48705], [-98.4926, 29.48651], [-98.492577, 29.485608], [-98.49245, 29.48069], [-98.49255, 29.47992], [-98.49314, 29.47912]]]}}, {"type": "Feature", "properties": {"area_id": 8053, "city": "San Antonio", "state": "TX", "city_survey": true, "cat": "Still Desirable", "grade": "B", "label": null, "res": true, "com": false, "ind": false, "holc_grade": "B"}, "geometry": {"type": "Polygon", "coordinates": [[[-98.438265, 29.469898], [-98.44416, 29.46879], [-98.44834, 29.46873], [-98.45161, 29.46886], [-98.45813, 29.4687], [-98.45992, 29.46877], [-98.46026, 29.46878], [-98.460554, 29.46879], [-98.4624, 29.46885], [-98.46246, 29.46893], [-98.46339, 29.47102], [-98.46475, 29.47102], [-98.470528, 29.47093], [-98.47117, 29.47092], [-98.47173, 29.47127], [-98.47334, 29.47253], [-98.47417, 29.473504], [-98.474207, 29.473548], [-98.47426, 29.47361], [-98.474268, 29.473925], [-98.4743, 29.47529], [-98.47429, 29.47606], [-98.47417, 29.47596], [-98.47401, 29.476], [-98.473997, 29.476134], [-98.47386, 29.47752], [-98.4736, 29.47834], [-98.47314, 29.47865], [-98.47232, 29.47909], [-98.47157, 29.47958], [-98.47094, 29.47965], [-98.47025, 29.4799], [-98.46925, 29.48029], [-98.46861, 29.48046], [-98.46774, 29.48071], [-98.46692, 29.48091], [-98.4662, 29.48081], [-98.46545, 29.48051], [-98.46482, 29.47982], [-98.46433, 29.47926], [-98.46364, 29.4788], [-98.46327, 29.47858], [-98.46294, 29.47788], [-98.4628, 29.47787], [-98.46242, 29.47836], [-98.46172, 29.4794], [-98.46108, 29.48], [-98.46047, 29.48116], [-98.46019, 29.48249], [-98.45994, 29.48313], [-98.45945, 29.48366], [-98.459281, 29.483904], [-98.45927, 29.48392], [-98.45927, 29.48406], [-98.45915, 29.4841], [-98.458477, 29.484551], [-98.45782, 29.48499], [-98.45576, 29.48508], [-98.4552, 29.48533], [-98.45476, 29.4854], [-98.45451, 29.4852], [-98.45135, 29.48526], [-98.4514, 29.484619], [-98.45155, 29.48271], [-98.4533, 29.48184], [-98.45461, 29.48081], [-98.45504, 29.48001], [-98.44089, 29.48025], [-98.43958, 29.47547], [-98.44074, 29.47543], [-98.44118, 29.47158], [-98.437393, 29.471521], [-98.43542, 29.47149], [-98.43607, 29.47031], [-98.438265, 29.469898]]]}}, {"type": "Feature", "properties": {"area_id": 8037, "city": "San Antonio", "state": "TX", "city_survey": true, "cat": "Definitely Declining", "grade": "C", "label": null, "res": true, "com": false, "ind": false, "holc_grade": "C"}, "geometry": {"type": "Polygon", "coordinates": [[[-98.5454, 29.42564], [-98.54516, 29.42966], [-98.545148, 29.429822], [-98.54514, 29.42993], [-98.54417, 29.42984], [-98.544412, 29.438117], [-98.54447, 29.44008], [-98.544527, 29.44706], [-98.54453, 29.44741], [-98.54417, 29.45573], [-98.539177, 29.455244], [-98.53811, 29.45514], [-98.5365, 29.45494], [-98.53671, 29.45471], [-98.53626, 29.45445], [-98.53586, 29.45411], [-98.53555, 29.45323], [-98.53553, 29.45227], [-98.53475, 29.45123], [-98.53408, 29.45017], [-98.5333, 29.44944], [-98.53261, 29.44911], [-98.53181, 29.44914], [-98.52962, 29.44951], [-98.52906, 29.44978], [-98.52912, 29.4496], [-98.52702, 29.44956], [-98.52337, 29.44929], [-98.52122, 29.44911], [-98.5196, 29.4489], [-98.51792, 29.44866], [-98.51674, 29.44861], [-98.515312, 29.448468], [-98.51503, 29.44844], [-98.51444, 29.4477], [-98.51387, 29.44563], [-98.513532, 29.44397], [-98.51353, 29.44396], [-98.51353, 29.44295], [-98.51444, 29.44295], [-98.514767, 29.442988], [-98.51721, 29.44327], [-98.51955, 29.4435], [-98.52136, 29.4436], [-98.52331, 29.44387], [-98.52489, 29.44398], [-98.52489, 29.445167], [-98.52489, 29.44524], [-98.52815, 29.44568], [-98.532305, 29.445893], [-98.53244, 29.4459], [-98.532665, 29.445928], [-98.53721, 29.44649], [-98.54024, 29.44675], [-98.540258, 29.446607], [-98.54041, 29.44541], [-98.54106, 29.44142], [-98.541098, 29.441047], [-98.54127, 29.43935], [-98.541611, 29.437359], [-98.54179, 29.43631], [-98.54205, 29.43391], [-98.54226, 29.4323], [-98.542227, 29.432296], [-98.53963, 29.432], [-98.53509, 29.43162], [-98.53204, 29.43136], [-98.52787, 29.43089], [-98.526604, 29.430789], [-98.5226, 29.43047], [-98.51793, 29.42999], [-98.512928, 29.429709], [-98.51277, 29.4297], [-98.51248, 29.42944], [-98.512629, 29.429279], [-98.5133, 29.42855], [-98.51336, 29.42787], [-98.513251, 29.426879], [-98.51323, 29.42669], [-98.5134, 29.42521], [-98.513622, 29.424284], [-98.51369, 29.424], [-98.51373, 29.423693], [-98.513786, 29.423264], [-98.51392, 29.42223], [-98.51448, 29.42223], [-98.51823, 29.42269], [-98.52066, 29.42292], [-98.52391, 29.42332], [-98.52601, 29.42349], [-98.527487, 29.423723], [-98.52785, 29.42378], [-98.53176, 29.42426], [-98.53341, 29.42429], [-98.53559, 29.42456], [-98.53693, 29.42492], [-98.53862, 29.42479], [-98.538847, 29.424829], [-98.542259, 29.425419], [-98.54273, 29.4255], [-98.543036, 29.425516], [-98.5454, 29.42564]]]}}, {"type": "Feature", "properties": {"area_id": 8042, "city": "San Antonio", "state": "TX", "city_survey": true, "cat": "Definitely Declining", "grade": "C", "label": null, "res": true, "com": false, "ind": false, "holc_grade": "C"}, "geometry": {"type": "Polygon", "coordinates": [[[-98.460962, 29.436229], [-98.46226, 29.43591], [-98.462202, 29.436553], [-98.46216, 29.43701], [-98.46213, 29.43738], [-98.46214, 29.43766], [-98.46164, 29.43816], [-98.46102, 29.43974], [-98.46099, 29.44176], [-98.460934, 29.441757], [-98.46082, 29.44175], [-98.45813, 29.44172], [-98.455659, 29.441582], [-98.45562, 29.44158], [-98.45535, 29.44157], [-98.45512, 29.44155], [-98.4552, 29.43776], [-98.4557, 29.43755], [-98.45605, 29.43744], [-98.45622, 29.43739], [-98.45825, 29.43675], [-98.45994, 29.43648], [-98.460959, 29.43623], [-98.460962, 29.436229]]]}}, {"type": "Feature", "properties": {"area_id": 8043, "city": "San Antonio", "state": "TX", "city_survey": true, "cat": "Definitely Declining", "grade": "C", "label": null, "res": true, "com": false, "ind": false, "holc_grade": "C"}, "geometry": {"type": "Polygon", "coordinates": [[[-98.49828, 29.43253], [-98.49956, 29.43243], [-98.49994, 29.4324], [-98.50083, 29.43294], [-98.500957, 29.433055], [-98.50221, 29.43419], [-98.50345, 29.43571], [-98.50448, 29.43743], [-98.5049, 29.43918], [-98.50431, 29.44051], [-98.50327, 29.44137], [-98.5031, 29.44135], [-98.50268, 29.44126], [-98.50258, 29.4407], [-98.50253, 29.43896], [-98.50196, 29.43733], [-98.50077, 29.43574], [-98.50014, 29.4353], [-98.49972, 29.43497], [-98.498591, 29.43408], [-98.49717, 29.43296], [-98.49828, 29.43253]]]}}, {"type": "Feature", "properties": {"area_id": 8046, "city": "San Antonio", "state": "TX", "city_survey": true, "cat": "Definitely Declining", "grade": "C", "label": null, "res": true, "com": false, "ind": false, "holc_grade": "C"}, "geometry": {"type": "Polygon", "coordinates": [[[-98.50771, 29.466436], [-98.50776, 29.46654], [-98.50779, 29.46891], [-98.507865, 29.471723], [-98.50787, 29.47192], [-98.50787, 29.47422], [-98.50786, 29.47422], [-98.50585, 29.47421], [-98.50229, 29.47417], [-98.49933, 29.47403], [-98.499291, 29.474032], [-98.49913, 29.47404], [-98.49922, 29.46877], [-98.49565, 29.4744], [-98.49562, 29.47445], [-98.49491, 29.47575], [-98.49433, 29.47752], [-98.49314, 29.47912], [-98.49255, 29.47992], [-98.49248, 29.48001], [-98.492311, 29.478339], [-98.49212, 29.47644], [-98.49199, 29.47108], [-98.48675, 29.47124], [-98.487042, 29.468033], [-98.48717, 29.46662], [-98.49544, 29.46638], [-98.49921, 29.46618], [-98.499287, 29.466176], [-98.50058, 29.46611], [-98.50765, 29.46631], [-98.50771, 29.466436]]]}}, {"type": "Feature", "properties": {"area_id": 8049, "city": "San Antonio", "state": "TX", "city_survey": true, "cat": "Definitely Declining", "grade": "C", "label": null, "res": true, "com": false, "ind": false, "holc_grade": "C"}, "geometry": {"type": "Polygon", "coordinates": [[[-98.4849, 29.42829], [-98.48719, 29.4304], [-98.48838, 29.43141], [-98.48784, 29.4322], [-98.48725, 29.43314], [-98.48627, 29.4333], [-98.485454, 29.433676], [-98.48512, 29.43383], [-98.48394, 29.43414], [-98.48444, 29.43498], [-98.48445, 29.43557], [-98.48446, 29.43712], [-98.48498, 29.43835], [-98.48542, 29.43936], [-98.48605, 29.44035], [-98.486165, 29.440644], [-98.48653, 29.44158], [-98.4865, 29.44284], [-98.48647, 29.44411], [-98.48658, 29.44488], [-98.48683, 29.44672], [-98.487108, 29.447038], [-98.48782, 29.44785], [-98.48822, 29.44849], [-98.48816, 29.4492], [-98.48749, 29.45008], [-98.48584, 29.45181], [-98.48526, 29.45268], [-98.48502, 29.45304], [-98.48526, 29.45325], [-98.48492, 29.45659], [-98.48176, 29.45646], [-98.481775, 29.456817], [-98.48186, 29.45887], [-98.48184, 29.45902], [-98.47748, 29.45895], [-98.47861, 29.45684], [-98.47499, 29.45661], [-98.47575, 29.45607], [-98.4779, 29.45467], [-98.47818, 29.45377], [-98.47784, 29.45308], [-98.477857, 29.452864], [-98.477879, 29.452575], [-98.47792, 29.45204], [-98.47913, 29.45159], [-98.47911, 29.45051], [-98.47979, 29.44987], [-98.482898, 29.451452], [-98.48313, 29.45157], [-98.483872, 29.450678], [-98.484008, 29.450516], [-98.48482, 29.44954], [-98.48392, 29.44887], [-98.483288, 29.448655], [-98.48078, 29.4478], [-98.480876, 29.447407], [-98.48098, 29.44698], [-98.48235, 29.44601], [-98.48211, 29.44573], [-98.481421, 29.44573], [-98.48126, 29.44573], [-98.48048, 29.44662], [-98.47825, 29.44636], [-98.476651, 29.446118], [-98.4764, 29.44608], [-98.47663, 29.44539], [-98.4782, 29.44172], [-98.478354, 29.441291], [-98.47909, 29.43924], [-98.47894, 29.43923], [-98.4789, 29.43923], [-98.479135, 29.437953], [-98.47915, 29.43787], [-98.47915, 29.43785], [-98.47934, 29.43681], [-98.47959, 29.4364], [-98.47959, 29.43567], [-98.47959, 29.435227], [-98.47959, 29.43503], [-98.48023, 29.43448], [-98.4804, 29.43434], [-98.478894, 29.432965], [-98.47867, 29.43276], [-98.48066, 29.43013], [-98.481437, 29.429234], [-98.48209, 29.42848], [-98.48283, 29.42752], [-98.48334, 29.42705], [-98.4849, 29.42829]]]}}, {"type": "Feature", "properties": {"area_id": 8050, "city": "San Antonio", "state": "TX", "city_survey": true, "cat": "Definitely Declining", "grade": "C", "label": null, "res": true, "com": false, "ind": false, "holc_grade": "C"}, "geometry": {"type": "Polygon", "coordinates": [[[-98.56123, 29.36748], [-98.55328, 29.37623], [-98.55306, 29.37647], [-98.551912, 29.376509], [-98.55157, 29.37652], [-98.55156, 29.37623], [-98.5515, 29.37455], [-98.539571, 29.373848], [-98.53484, 29.37357], [-98.53422, 29.37482], [-98.53447, 29.37669], [-98.540555, 29.377345], [-98.54274, 29.37758], [-98.54237, 29.38164], [-98.548571, 29.382149], [-98.55004, 29.38227], [-98.549987, 29.383202], [-98.549945, 29.383941], [-98.54936, 29.39418], [-98.549655, 29.394202], [-98.55564, 29.39464], [-98.562959, 29.395031], [-98.56987, 29.3954], [-98.570146, 29.398954], [-98.5704, 29.40222], [-98.570552, 29.412785], [-98.57056, 29.41335], [-98.57027, 29.41342], [-98.56636, 29.41441], [-98.56524, 29.41484], [-98.564865, 29.414924], [-98.55611, 29.41688], [-98.555736, 29.416955], [-98.54437, 29.41922], [-98.54217, 29.41966], [-98.539438, 29.420202], [-98.53703, 29.42068], [-98.53704, 29.42052], [-98.537548, 29.414077], [-98.53756, 29.41392], [-98.530768, 29.413291], [-98.528874, 29.413115], [-98.52882, 29.41311], [-98.53003, 29.40237], [-98.52348, 29.40182], [-98.523464, 29.401806], [-98.52336, 29.40171], [-98.52343, 29.40172], [-98.528547, 29.39813], [-98.531604, 29.395987], [-98.53254, 29.39533], [-98.532659, 29.389947], [-98.53266, 29.38992], [-98.53316, 29.3845], [-98.533315, 29.383758], [-98.533498, 29.382879], [-98.533764, 29.381608], [-98.53401, 29.38043], [-98.533804, 29.380437], [-98.52903, 29.3806], [-98.527306, 29.382711], [-98.52444, 29.38622], [-98.52272, 29.38816], [-98.522442, 29.388123], [-98.52219, 29.38809], [-98.51989, 29.3879], [-98.51968, 29.38749], [-98.519943, 29.382316], [-98.52002, 29.3808], [-98.51846, 29.3808], [-98.516917, 29.380791], [-98.50998, 29.38075], [-98.504258, 29.380863], [-98.50034, 29.38094], [-98.49202, 29.38065], [-98.491913, 29.380644], [-98.49001, 29.38053], [-98.489638, 29.380402], [-98.48931, 29.38029], [-98.48848, 29.38018], [-98.488455, 29.380425], [-98.48818, 29.38315], [-98.48912, 29.38557], [-98.49011, 29.386818], [-98.49154, 29.38862], [-98.49288, 29.39077], [-98.492447, 29.392704], [-98.49239, 29.39296], [-98.491952, 29.392855], [-98.48654, 29.39156], [-98.4863, 29.39533], [-98.4859, 29.39524], [-98.4814, 29.39422], [-98.480306, 29.390342], [-98.47955, 29.38766], [-98.473487, 29.387122], [-98.46975, 29.38679], [-98.46964, 29.38644], [-98.469673, 29.384164], [-98.46973, 29.38021], [-98.46926, 29.38024], [-98.46933, 29.37579], [-98.46655, 29.375457], [-98.46616, 29.37541], [-98.45991, 29.37493], [-98.45975, 29.37157], [-98.448265, 29.371499], [-98.44689, 29.37149], [-98.445407, 29.368702], [-98.4449, 29.36775], [-98.448284, 29.367862], [-98.44884, 29.36788], [-98.44903, 29.36702], [-98.45192, 29.36702], [-98.4642, 29.36707], [-98.464218, 29.366627], [-98.46445, 29.36081], [-98.46258, 29.35732], [-98.46513, 29.35718], [-98.46473, 29.35643], [-98.46502, 29.356373], [-98.4656, 29.35626], [-98.47548, 29.35672], [-98.48125, 29.356906], [-98.49164, 29.35724], [-98.50388, 29.35759], [-98.50389, 29.35759], [-98.50395, 29.36014], [-98.51582, 29.35992], [-98.516423, 29.359923], [-98.52257, 29.35995], [-98.53488, 29.35979], [-98.54578, 29.35957], [-98.54759, 29.35727], [-98.54907, 29.357457], [-98.55337, 29.358], [-98.559947, 29.358306], [-98.56776, 29.35867], [-98.567792, 29.359064], [-98.56795, 29.36103], [-98.56179, 29.3678], [-98.56157, 29.36786], [-98.56123, 29.36748]]]}}, {"type": "Feature", "properties": {"area_id": 8052, "city": "San Antonio", "state": "TX", "city_survey": true, "cat": "Definitely Declining", "grade": "C", "label": null, "res": true, "com": false, "ind": false, "holc_grade": "C"}, "geometry": {"type": "Polygon", "coordinates": [[[-98.48232, 29.39912], [-98.48588, 29.39978], [-98.48612, 29.39728], [-98.4862, 29.3973], [-98.488921, 29.397832], [-98.48922, 29.39789], [-98.48928, 29.39903], [-98.48829, 29.40017], [-98.48829, 29.40179], [-98.48686, 29.40274], [-98.48654, 29.40303], [-98.48565, 29.40286], [-98.485305, 29.40286], [-98.4853, 29.40286], [-98.48588, 29.40488], [-98.48646, 29.40659], [-98.4865, 29.40669], [-98.486804, 29.407679], [-98.48704, 29.40845], [-98.48737, 29.40948], [-98.48738, 29.40955], [-98.48743, 29.40968], [-98.48776, 29.4107], [-98.48805, 29.41147], [-98.48831, 29.41278], [-98.488539, 29.41273], [-98.48854, 29.41273], [-98.48873, 29.41283], [-98.48926, 29.41268], [-98.49059, 29.41232], [-98.49097, 29.41224], [-98.49205, 29.41197], [-98.49275, 29.41184], [-98.49314, 29.4114], [-98.49422, 29.4108], [-98.49442, 29.41052], [-98.49531, 29.40994], [-98.49587, 29.40948], [-98.50044, 29.41116], [-98.50035, 29.41154], [-98.50006, 29.41273], [-98.49876, 29.41549], [-98.49741, 29.41758], [-98.49599, 29.419791], [-98.4959, 29.41993], [-98.49267, 29.41888], [-98.4913, 29.41879], [-98.49062, 29.41823], [-98.490597, 29.418167], [-98.48975, 29.41584], [-98.489073, 29.415949], [-98.48888, 29.41598], [-98.48898, 29.41581], [-98.48766, 29.41529], [-98.48552, 29.4141], [-98.48404, 29.41299], [-98.48363, 29.41195], [-98.48361, 29.41117], [-98.48211, 29.41051], [-98.47991, 29.40951], [-98.479207, 29.409512], [-98.47658, 29.40952], [-98.47376, 29.40942], [-98.47325, 29.409293], [-98.47243, 29.40909], [-98.47048, 29.4089], [-98.46819, 29.40885], [-98.46515, 29.4089], [-98.46145, 29.40902], [-98.461243, 29.411316], [-98.46109, 29.41302], [-98.45675, 29.41299], [-98.453156, 29.413369], [-98.45277, 29.41341], [-98.452372, 29.413367], [-98.45212, 29.41334], [-98.45226, 29.40935], [-98.44864, 29.40706], [-98.44882, 29.40479], [-98.44651, 29.40462], [-98.446478, 29.404613], [-98.44565, 29.40443], [-98.44361, 29.40279], [-98.44328, 29.40244], [-98.44344, 29.39849], [-98.443447, 29.398096], [-98.44356, 29.39131], [-98.443428, 29.386558], [-98.4434, 29.38557], [-98.44356, 29.38002], [-98.448304, 29.379802], [-98.44835, 29.3798], [-98.4568, 29.3801], [-98.45708, 29.38367], [-98.45693, 29.38366], [-98.456918, 29.384117], [-98.45674, 29.39072], [-98.45554, 29.39074], [-98.452731, 29.390778], [-98.44964, 29.39082], [-98.4496, 29.39074], [-98.449575, 29.390681], [-98.44945, 29.39039], [-98.44931, 29.3904], [-98.44907, 29.39041], [-98.448326, 29.390469], [-98.44806, 29.39049], [-98.448009, 29.39844], [-98.44798, 29.403], [-98.449249, 29.402926], [-98.451568, 29.40279], [-98.45225, 29.40275], [-98.452374, 29.402749], [-98.45425, 29.40274], [-98.461239, 29.402699], [-98.46448, 29.40268], [-98.467829, 29.402648], [-98.47183, 29.40261], [-98.473497, 29.402633], [-98.47538, 29.40266], [-98.47569, 29.40263], [-98.47569, 29.40258], [-98.47573, 29.40258], [-98.475725, 29.402493], [-98.4757, 29.40203], [-98.47573, 29.40022], [-98.47928, 29.40028], [-98.48252, 29.40041], [-98.48232, 29.39912]]]}}, {"type": "Feature", "properties": {"area_id": 8040, "city": "San Antonio", "state": "TX", "city_survey": true, "cat": "Hazardous", "grade": "D", "label": null, "res": true, "com": false, "ind": false, "holc_grade": "D"}, "geometry": {"type": "Polygon", "coordinates": [[[-98.49912, 29.47428], [-98.49907, 29.47428], [-98.49742, 29.47438], [-98.49606, 29.47443], [-98.49562, 29.47445], [-98.49565, 29.4744], [-98.49922, 29.46877], [-98.49913, 29.47404], [-98.49912, 29.47428]]]}}, {"type": "Feature", "properties": {"area_id": 8051, "city": "San Antonio", "state": "TX", "city_survey": true, "cat": "Hazardous", "grade": "D", "label": null, "res": true, "com": false, "ind": false, "holc_grade": "D"}, "geometry": {"type": "Polygon", "coordinates": [[[-98.47243, 29.40909], [-98.47325, 29.409293], [-98.47376, 29.40942], [-98.47658, 29.40952], [-98.479207, 29.409512], [-98.47991, 29.40951], [-98.48211, 29.41051], [-98.48361, 29.41117], [-98.48363, 29.41195], [-98.48404, 29.41299], [-98.48552, 29.4141], [-98.48766, 29.41529], [-98.48898, 29.41581], [-98.48888, 29.41598], [-98.48806, 29.41734], [-98.487047, 29.4183], [-98.48651, 29.41881], [-98.4846, 29.42025], [-98.48116, 29.41784], [-98.48054, 29.41803], [-98.480487, 29.418094], [-98.47983, 29.4189], [-98.47943, 29.41966], [-98.478755, 29.421724], [-98.47874, 29.42177], [-98.480871, 29.422255], [-98.48515, 29.42323], [-98.48527, 29.42529], [-98.48334, 29.42705], [-98.48283, 29.42752], [-98.48209, 29.42848], [-98.481437, 29.429234], [-98.48066, 29.43013], [-98.47867, 29.43276], [-98.478894, 29.432965], [-98.4804, 29.43434], [-98.48023, 29.43448], [-98.47959, 29.43503], [-98.47959, 29.435227], [-98.47959, 29.43567], [-98.47959, 29.4364], [-98.47934, 29.43681], [-98.47915, 29.43785], [-98.47915, 29.43787], [-98.479135, 29.437953], [-98.4789, 29.43923], [-98.47844, 29.43921], [-98.478138, 29.439196], [-98.4755, 29.43907], [-98.47591, 29.43666], [-98.47582, 29.43658], [-98.474585, 29.436586], [-98.474263, 29.436588], [-98.471949, 29.4366], [-98.471685, 29.436601], [-98.46998, 29.43661], [-98.469977, 29.436594], [-98.46995, 29.43647], [-98.46992, 29.43625], [-98.46989, 29.43422], [-98.46557, 29.43409], [-98.46101, 29.434015], [-98.46072, 29.43401], [-98.45394, 29.43436], [-98.45652, 29.43561], [-98.456476, 29.435872], [-98.45622, 29.43739], [-98.45605, 29.43744], [-98.4557, 29.43755], [-98.4552, 29.43776], [-98.45512, 29.44155], [-98.45535, 29.44157], [-98.45562, 29.44158], [-98.455618, 29.441582], [-98.455031, 29.442326], [-98.45502, 29.44234], [-98.45498, 29.44457], [-98.454792, 29.444928], [-98.45478, 29.44495], [-98.4516, 29.44497], [-98.45149, 29.444932], [-98.4512, 29.44483], [-98.44903, 29.44426], [-98.44862, 29.44468], [-98.447015, 29.44468], [-98.44665, 29.44468], [-98.446627, 29.444652], [-98.445485, 29.44323], [-98.443063, 29.440215], [-98.44293, 29.44005], [-98.44313, 29.43662], [-98.443135, 29.43524], [-98.44315, 29.43092], [-98.44659, 29.43191], [-98.44647, 29.42704], [-98.443089, 29.427055], [-98.44197, 29.42706], [-98.44177, 29.42344], [-98.443081, 29.42344], [-98.44323, 29.42344], [-98.44331, 29.41633], [-98.443336, 29.413375], [-98.44338, 29.40838], [-98.44334, 29.40258], [-98.44361, 29.40279], [-98.44565, 29.40443], [-98.446478, 29.404613], [-98.44651, 29.40462], [-98.44882, 29.40479], [-98.44864, 29.40706], [-98.45226, 29.40935], [-98.45212, 29.41334], [-98.452372, 29.413367], [-98.45277, 29.41341], [-98.453156, 29.413369], [-98.45675, 29.41299], [-98.46109, 29.41302], [-98.461243, 29.411316], [-98.46145, 29.40902], [-98.46515, 29.4089], [-98.46819, 29.40885], [-98.47048, 29.4089], [-98.47243, 29.40909]]]}}, {"type": "Feature", "properties": {"area_id": 8054, "city": "San Antonio", "state": "TX", "city_survey": true, "cat": "Hazardous", "grade": "D", "label": null, "res": true, "com": false, "ind": false, "holc_grade": "D"}, "geometry": {"type": "Polygon", "coordinates": [[[-98.51846, 29.3808], [-98.52002, 29.3808], [-98.519943, 29.382316], [-98.51968, 29.38749], [-98.51989, 29.3879], [-98.52219, 29.38809], [-98.522442, 29.388123], [-98.52272, 29.38816], [-98.51899, 29.39237], [-98.515649, 29.396267], [-98.5134, 29.39889], [-98.511771, 29.40081], [-98.51166, 29.40094], [-98.51179, 29.400946], [-98.51803, 29.40121], [-98.52336, 29.40171], [-98.523464, 29.401806], [-98.52348, 29.40182], [-98.53003, 29.40237], [-98.52882, 29.41311], [-98.528874, 29.413115], [-98.530768, 29.413291], [-98.53756, 29.41392], [-98.537548, 29.414077], [-98.53704, 29.42052], [-98.53703, 29.42068], [-98.539438, 29.420202], [-98.54217, 29.41966], [-98.54437, 29.41922], [-98.555736, 29.416955], [-98.55611, 29.41688], [-98.564865, 29.414924], [-98.56524, 29.41484], [-98.56636, 29.41441], [-98.57027, 29.41342], [-98.571917, 29.430953], [-98.57198, 29.43162], [-98.571839, 29.43161], [-98.56783, 29.43134], [-98.562932, 29.431637], [-98.562723, 29.43165], [-98.56189, 29.4317], [-98.554214, 29.430764], [-98.554092, 29.430749], [-98.54516, 29.42966], [-98.5454, 29.42564], [-98.543036, 29.425516], [-98.54273, 29.4255], [-98.542259, 29.425419], [-98.538847, 29.424829], [-98.53862, 29.42479], [-98.53693, 29.42492], [-98.53559, 29.42456], [-98.53341, 29.42429], [-98.53176, 29.42426], [-98.52785, 29.42378], [-98.527487, 29.423723], [-98.52601, 29.42349], [-98.52391, 29.42332], [-98.52066, 29.42292], [-98.51823, 29.42269], [-98.51448, 29.42223], [-98.51392, 29.42223], [-98.513786, 29.423264], [-98.51373, 29.423693], [-98.51369, 29.424], [-98.513622, 29.424284], [-98.5134, 29.42521], [-98.51323, 29.42669], [-98.513251, 29.426879], [-98.51336, 29.42787], [-98.5133, 29.42855], [-98.512629, 29.429279], [-98.51248, 29.42944], [-98.51277, 29.4297], [-98.512928, 29.429709], [-98.51793, 29.42999], [-98.5226, 29.43047], [-98.526604, 29.430789], [-98.52787, 29.43089], [-98.53204, 29.43136], [-98.53509, 29.43162], [-98.53963, 29.432], [-98.542227, 29.432296], [-98.54226, 29.4323], [-98.54205, 29.43391], [-98.54179, 29.43631], [-98.541611, 29.437359], [-98.54127, 29.43935], [-98.541098, 29.441047], [-98.54106, 29.44142], [-98.54041, 29.44541], [-98.540258, 29.446607], [-98.54024, 29.44675], [-98.53721, 29.44649], [-98.532665, 29.445928], [-98.53244, 29.4459], [-98.532305, 29.445893], [-98.52815, 29.44568], [-98.52489, 29.44524], [-98.52489, 29.445167], [-98.52489, 29.44398], [-98.52331, 29.44387], [-98.52136, 29.4436], [-98.51955, 29.4435], [-98.51721, 29.44327], [-98.514767, 29.442988], [-98.51444, 29.44295], [-98.51353, 29.44295], [-98.51353, 29.44396], [-98.513532, 29.44397], [-98.51387, 29.44563], [-98.51444, 29.4477], [-98.51503, 29.44844], [-98.51493, 29.44843], [-98.51466, 29.44842], [-98.51485, 29.44948], [-98.51505, 29.45095], [-98.5152, 29.45276], [-98.51524, 29.452958], [-98.51525, 29.45301], [-98.5149, 29.45297], [-98.51484, 29.45296], [-98.5148, 29.45292], [-98.5145, 29.45262], [-98.51155, 29.44971], [-98.50764, 29.44584], [-98.50434, 29.44257], [-98.503853, 29.442091], [-98.5031, 29.44135], [-98.50327, 29.44137], [-98.50431, 29.44051], [-98.5049, 29.43918], [-98.50448, 29.43743], [-98.50345, 29.43571], [-98.50221, 29.43419], [-98.500957, 29.433055], [-98.50083, 29.43294], [-98.49994, 29.4324], [-98.49956, 29.43243], [-98.49671, 29.42893], [-98.4976, 29.42158], [-98.49817, 29.420739], [-98.50017, 29.41779], [-98.50391, 29.41411], [-98.50287, 29.41261], [-98.50035, 29.41154], [-98.50044, 29.41116], [-98.49587, 29.40948], [-98.49531, 29.40994], [-98.49442, 29.41052], [-98.49487, 29.40992], [-98.49437, 29.40918], [-98.49452, 29.40811], [-98.49391, 29.40696], [-98.49256, 29.4068], [-98.49202, 29.40669], [-98.49163, 29.40629], [-98.49144, 29.40555], [-98.49113, 29.40478], [-98.49032, 29.40437], [-98.4892, 29.4038], [-98.48847, 29.4036], [-98.48704, 29.4033], [-98.48654, 29.40303], [-98.48686, 29.40274], [-98.48829, 29.40179], [-98.48829, 29.40017], [-98.48928, 29.39903], [-98.48922, 29.39789], [-98.488921, 29.397832], [-98.4862, 29.3973], [-98.48612, 29.39728], [-98.4863, 29.39533], [-98.48654, 29.39156], [-98.491952, 29.392855], [-98.49239, 29.39296], [-98.492447, 29.392704], [-98.49288, 29.39077], [-98.49154, 29.38862], [-98.49011, 29.386818], [-98.48912, 29.38557], [-98.48818, 29.38315], [-98.488455, 29.380425], [-98.48848, 29.38018], [-98.48931, 29.38029], [-98.489638, 29.380402], [-98.49001, 29.38053], [-98.491913, 29.380644], [-98.49202, 29.38065], [-98.50034, 29.38094], [-98.504258, 29.380863], [-98.50998, 29.38075], [-98.516917, 29.380791], [-98.51846, 29.3808]]]}}, {"type": "Feature", "properties": {"area_id": 11190, "city": "San Antonio", "state": "TX", "city_survey": true, "cat": "Industrial and Commercial", "grade": null, "label": "Industrial and Commercial", "res": false, "com": true, "ind": true, "holc_grade": null}, "geometry": {"type": "Polygon", "coordinates": [[[-98.50006, 29.41273], [-98.50035, 29.41154], [-98.50287, 29.41261], [-98.50391, 29.41411], [-98.50017, 29.41779], [-98.49817, 29.420739], [-98.4976, 29.42158], [-98.49671, 29.42893], [-98.49956, 29.43243], [-98.49828, 29.43253], [-98.49717, 29.43296], [-98.49574, 29.43291], [-98.49302, 29.43291], [-98.49179, 29.43192], [-98.49086, 29.43096], [-98.48838, 29.43141], [-98.48719, 29.4304], [-98.4849, 29.42829], [-98.48334, 29.42705], [-98.48527, 29.42529], [-98.48515, 29.42323], [-98.480871, 29.422255], [-98.47874, 29.42177], [-98.478755, 29.421724], [-98.47943, 29.41966], [-98.47983, 29.4189], [-98.480487, 29.418094], [-98.48054, 29.41803], [-98.48116, 29.41784], [-98.4846, 29.42025], [-98.48651, 29.41881], [-98.487047, 29.4183], [-98.48806, 29.41734], [-98.48888, 29.41598], [-98.489073, 29.415949], [-98.48975, 29.41584], [-98.490597, 29.418167], [-98.49062, 29.41823], [-98.4913, 29.41879], [-98.49267, 29.41888], [-98.4959, 29.41993], [-98.49599, 29.419791], [-98.49741, 29.41758], [-98.49876, 29.41549], [-98.50006, 29.41273]]]}}]}