{"type": "FeatureCollection", "features": [{"type": "Feature", "geometry": {"type": "Point", "coordinates": [-79.208333, 42.1125]}, "properties": {"facility_name": "TITANX ENGINE COOLING INC", "industry": null, "tri_facility_id": "14701BLCKS1111A"}}, {"type": "Feature", "geometry": {"type": "Point", "coordinates": [-79.2077, 42.1117]}, "properties": {"facility_name": "CHAUTAUQUA HARDWARE CORP", "industry": null, "tri_facility_id": "14701CHTQH243HO"}}, {"type": "Feature", "geometry": {"type": "Point", "coordinates": [-79.238889, 42.089722]}, "properties": {"facility_name": "CHAUTAUQUA HARDWARE CORP", "industry": null, "tri_facility_id": "14701CHTQH3135W"}}, {"type": "Feature", "geometry": {"type": "Point", "coordinates": [-79.21694444444445, 42.1025]}, "properties": {"facility_name": "CLASSIC BRASS INC", "industry": null, "tri_facility_id": "14701CLSSC68BLA"}}, {"type": "Feature", "geometry": {"type": "Point", "coordinates": [-79.19361111111111, 42.10944444444445]}, "properties": {"facility_name": "HEIDENHAIN CORP INC", "industry": null, "tri_facility_id": "14701CRTCSONEPR"}}, {"type": "Feature", "geometry": {"type": "Point", "coordinates": [-79.228333, 42.096667]}, "properties": {"facility_name": "CRAWFORD FURNITURE MANUFACTURING CORP ATLAS DIV", "industry": null, "tri_facility_id": "14701CRWFR40WIN"}}, {"type": "Feature", "geometry": {"type": "Point", "coordinates": [-79.220278, 42.106389]}, "properties": {"facility_name": "DAHLSTROM MANUFACTURING CO INC", "industry": null, "tri_facility_id": "14701DHLST443BU"}}, {"type": "Feature", "geometry": {"type": "Point", "coordinates": [-79.255, 42.099722]}, "properties": {"facility_name": "ADANLOCK OFFICE ENVIRONMENTS", "industry": null, "tri_facility_id": "14701DNLCK55JON"}}, {"type": "Feature", "geometry": {"type": "Point", "coordinates": [-79.214722, 42.104167]}, "properties": {"facility_name": "HOPE'S WINDOWS INC.", "industry": null, "tri_facility_id": "14701HPSRC84HOP"}}, {"type": "Feature", "geometry": {"type": "Point", "coordinates": [-79.216667, 42.1]}, "properties": {"facility_name": "JAMESTOWN METAL CORP", "industry": null, "tri_facility_id": "14701JMSTW104BL"}}, {"type": "Feature", "geometry": {"type": "Point", "coordinates": [-79.208333, 42.1125]}, "properties": {"facility_name": "JAMESTOWN LAMINATING CO", "industry": null, "tri_facility_id": "14701JMSTW1300E"}}, {"type": "Feature", "geometry": {"type": "Point", "coordinates": [-79.210556, 42.107778]}, "properties": {"facility_name": "JAMESTOWN METAL PRODUCTS LLC", "industry": null, "tri_facility_id": "14701JMSTW178BL"}}, {"type": "Feature", "geometry": {"type": "Point", "coordinates": [-79.227778, 42.0975]}, "properties": {"facility_name": "SKF AEROENGINE JAMESTOWN", "industry": null, "tri_facility_id": "14701MRCBR402CH"}}, {"type": "Feature", "geometry": {"type": "Point", "coordinates": [-79.236111, 42.098889]}, "properties": {"facility_name": "METALTECH MANUFACTURING CORP", "industry": null, "tri_facility_id": "14701MTLTC200HA"}}, {"type": "Feature", "geometry": {"type": "Point", "coordinates": [-79.25, 42.083333]}, "properties": {"facility_name": "ANDERSON PRECISION INC", "industry": null, "tri_facility_id": "14701NDRSN17ROS"}}, {"type": "Feature", "geometry": {"type": "Point", "coordinates": [-79.250278, 42.114444]}, "properties": {"facility_name": "UPSTATE MILK CO-OP INC", "industry": null, "tri_facility_id": "14701PSTTM223FL"}}, {"type": "Feature", "geometry": {"type": "Point", "coordinates": [-79.24166666666667, 42.09166666666667]}, "properties": {"facility_name": "SAMUEL A CARLSON GENERATING STATION", "industry": null, "tri_facility_id": "14701SMLCR136ST"}}, {"type": "Feature", "geometry": {"type": "Point", "coordinates": [-79.211111, 42.111389]}, "properties": {"facility_name": "LILLY IND INC", "industry": null, "tri_facility_id": "14701SSXSP125BL"}}, {"type": "Feature", "geometry": {"type": "Point", "coordinates": [-79.26138888888889, 42.10277777777778]}, "properties": {"facility_name": "SUIT-KOTE JAMESTOWN", "industry": null, "tri_facility_id": "14701STKTC57LIS"}}, {"type": "Feature", "geometry": {"type": "Point", "coordinates": [-79.225, 42.1]}, "properties": {"facility_name": "WEBER KNAPP CO", "industry": null, "tri_facility_id": "14701WBRKN441CH"}}, {"type": "Feature", "geometry": {"type": "Point", "coordinates": [-79.188611, 42.105833]}, "properties": {"facility_name": "BUSH INDUSTRIES INC", "industry": null, "tri_facility_id": "14702BSHNDONEMA"}}, {"type": "Feature", "geometry": {"type": "Point", "coordinates": [-79.204444, 42.107778]}, "properties": {"facility_name": "CRAWFORD FURNITURE MANUFACTURING CORP JAMESTOWN DIV", "industry": null, "tri_facility_id": "14702CRWFR1061A"}}, {"type": "Feature", "geometry": {"type": "Point", "coordinates": [-79.229167, 42.094444]}, "properties": {"facility_name": "JAMESTOWN ELECTRO PLATING WORKS INC", "industry": null, "tri_facility_id": "14702JMSTW105WA"}}, {"type": "Feature", "geometry": {"type": "Point", "coordinates": [-79.193333, 42.1125]}, "properties": {"facility_name": "JAMESTOWN STERLING CORP", "industry": null, "tri_facility_id": "14702JMSTWPOBOX"}}, {"type": "Feature", "geometry": {"type": "Point", "coordinates": [-79.2277, 42.1015]}, "properties": {"facility_name": "UNION-NATL INC", "industry": null, "tri_facility_id": "14702NNNTN226CR"}}, {"type": "Feature", "geometry": {"type": "Point", "coordinates": [-79.22305555555556, 42.105000000000004]}, "properties": {"facility_name": "DAWSON METAL CO INC", "industry": null, "tri_facility_id": "1470WDWSNM825AL"}}, {"type": "Feature", "geometry": {"type": "Point", "coordinates": [-79.1955, 42.1146]}, "properties": {"facility_name": "CHASE INTERIORS INC", "industry": null, "tri_facility_id": "14733CHSNT235WL"}}, {"type": "Feature", "geometry": {"type": "Point", "coordinates": [-79.19638888888889, 42.114444444444445]}, "properties": {"facility_name": "INSCAPE (NEW YORK) INC.", "industry": null, "tri_facility_id": "14733DWCRF221LI"}}, {"type": "Feature", "geometry": {"type": "Point", "coordinates": [-79.2, 42.1125]}, "properties": {"facility_name": "DOWCRAFT CORP", "industry": null, "tri_facility_id": "14733DWCRF65SOU"}}, {"type": "Feature", "geometry": {"type": "Point", "coordinates": [-79.1875, 42.119444]}, "properties": {"facility_name": "GUARDIAN JAMESTOWN", "industry": null, "tri_facility_id": "14733FLCNR500SW"}}, {"type": "Feature", "geometry": {"type": "Point", "coordinates": [-79.196389, 42.118333]}, "properties": {"facility_name": "FANCHER CHAIR CO", "industry": null, "tri_facility_id": "14733FNCHR121SO"}}, {"type": "Feature", "geometry": {"type": "Point", "coordinates": [-79.2, 42.116667]}, "properties": {"facility_name": "ELLISON BRONZE INC", "industry": null, "tri_facility_id": "14733LLSNB125WM"}}, {"type": "Feature", "geometry": {"type": "Point", "coordinates": [-79.181111, 42.116944]}, "properties": {"facility_name": "MONOFRAX LLC", "industry": null, "tri_facility_id": "14733MNFRX501NE"}}, {"type": "Feature", "geometry": {"type": "Point", "coordinates": [-79.181389, 42.122222]}, "properties": {"facility_name": "SKF AEROENGINE FALCONER", "industry": null, "tri_facility_id": "14733MRCBRMAROC"}}, {"type": "Feature", "geometry": {"type": "Point", "coordinates": [-79.1875, 42.118056]}, "properties": {"facility_name": "TRUCK-LITE CO LLC", "industry": null, "tri_facility_id": "14733TRCKL310EE"}}, {"type": "Feature", "geometry": {"type": "Point", "coordinates": [-79.167222, 42.054722]}, "properties": {"facility_name": "ETHAN ALLEN INC FREWSBURG DIV", "industry": null, "tri_facility_id": "14738FRWSB36RAI"}}]}