{"type": "FeatureCollection", "features": [{"type": "Feature", "properties": {"area_id": 10084, "city": "Phoebus", "state": "VA", "city_survey": false, "cat": "Best Residential", "grade": null, "label": "Best Residential", "res": true, "com": false, "ind": false, "holc_grade": null}, "geometry": {"type": "Polygon", "coordinates": [[[-76.3245, 37.01694], [-76.32229, 37.01829], [-76.31922, 37.01572], [-76.32311, 37.01319], [-76.32431, 37.01399], [-76.32733, 37.01556], [-76.3245, 37.01694]]]}}, {"type": "Feature", "properties": {"area_id": 10085, "city": "Phoebus", "state": "VA", "city_survey": false, "cat": "Business", "grade": null, "label": "Business", "res": false, "com": true, "ind": false, "holc_grade": null}, "geometry": {"type": "Polygon", "coordinates": [[[-76.319041, 37.015633], [-76.31922, 37.01572], [-76.32229, 37.01829], [-76.3245, 37.01694], [-76.32733, 37.01556], [-76.32778, 37.01538], [-76.328353, 37.015758], [-76.32881, 37.01606], [-76.32855, 37.01646], [-76.327576, 37.016843], [-76.32639, 37.01731], [-76.32604, 37.01704], [-76.32629, 37.01694], [-76.32586, 37.01663], [-76.32449, 37.01747], [-76.32528, 37.01793], [-76.328071, 37.019238], [-76.32816, 37.01928], [-76.32807, 37.019356], [-76.32784, 37.01955], [-76.32698, 37.01908], [-76.32531, 37.02074], [-76.324647, 37.021579], [-76.32456, 37.02169], [-76.32302, 37.0207], [-76.32304, 37.020604], [-76.32308, 37.02041], [-76.32434, 37.0198], [-76.32372, 37.01931], [-76.32469, 37.01874], [-76.32392, 37.01789], [-76.32167, 37.01937], [-76.321607, 37.019414], [-76.31936, 37.02098], [-76.31902, 37.02085], [-76.318971, 37.020774], [-76.31882, 37.02054], [-76.32117, 37.01887], [-76.31828, 37.01634], [-76.318164, 37.016205], [-76.31804, 37.01606], [-76.31881, 37.01552], [-76.319041, 37.015633]]]}}, {"type": "Feature", "properties": {"area_id": 10086, "city": "Phoebus", "state": "VA", "city_survey": false, "cat": "Colored", "grade": null, "label": "Colored", "res": true, "com": false, "ind": false, "holc_grade": null}, "geometry": {"type": "Polygon", "coordinates": [[[-76.32711, 37.023435], [-76.32727, 37.02358], [-76.3236, 37.02704], [-76.32451, 37.02772], [-76.32428, 37.02806], [-76.323568, 37.027543], [-76.3226, 37.02684], [-76.32148, 37.02579], [-76.32001, 37.02619], [-76.319695, 37.02591], [-76.31841, 37.02477], [-76.319336, 37.02429], [-76.32188, 37.02297], [-76.32253, 37.02328], [-76.32302, 37.0207], [-76.32456, 37.02169], [-76.325586, 37.02213], [-76.32575, 37.0222], [-76.325829, 37.022271], [-76.32711, 37.023435]]]}}, {"type": "Feature", "properties": {"area_id": 10087, "city": "Phoebus", "state": "VA", "city_survey": false, "cat": "Fair Residential", "grade": null, "label": "Fair Residential", "res": true, "com": false, "ind": false, "holc_grade": null}, "geometry": {"type": "Polygon", "coordinates": [[[-76.32469, 37.01874], [-76.32372, 37.01931], [-76.32434, 37.0198], [-76.32308, 37.02041], [-76.32304, 37.020604], [-76.32302, 37.0207], [-76.32253, 37.02328], [-76.32188, 37.02297], [-76.319336, 37.02429], [-76.31841, 37.02477], [-76.319695, 37.02591], [-76.32001, 37.02619], [-76.31819, 37.02627], [-76.31952, 37.02759], [-76.31766, 37.02876], [-76.31693, 37.02817], [-76.316553, 37.02787], [-76.31552, 37.02705], [-76.31401, 37.02585], [-76.31285, 37.02759], [-76.31147, 37.02927], [-76.30955, 37.03068], [-76.31015, 37.02727], [-76.31252, 37.02481], [-76.31268, 37.02348], [-76.31321, 37.0234], [-76.31423, 37.02245], [-76.312622, 37.02132], [-76.31248, 37.02122], [-76.312741, 37.021048], [-76.31433, 37.02], [-76.31585, 37.01772], [-76.31763, 37.01625], [-76.3177, 37.01586], [-76.31804, 37.01606], [-76.318164, 37.016205], [-76.31828, 37.01634], [-76.32117, 37.01887], [-76.31882, 37.02054], [-76.318971, 37.020774], [-76.31902, 37.02085], [-76.31936, 37.02098], [-76.321607, 37.019414], [-76.32167, 37.01937], [-76.32392, 37.01789], [-76.32469, 37.01874]]]}}, {"type": "Feature", "properties": {"area_id": 10088, "city": "Phoebus", "state": "VA", "city_survey": false, "cat": "Mixed Residential", "grade": null, "label": "Mixed Residential", "res": true, "com": false, "ind": false, "holc_grade": null}, "geometry": {"type": "Polygon", "coordinates": [[[-76.30934, 37.03263], [-76.30995, 37.0312], [-76.31153, 37.03009], [-76.31552, 37.02705], [-76.316553, 37.02787], [-76.31693, 37.02817], [-76.31447, 37.03087], [-76.31248, 37.03228], [-76.31147, 37.0333], [-76.310843, 37.033352], [-76.30989, 37.03343], [-76.30934, 37.03263]]]}}]}