{"type": "FeatureCollection", "features": [{"type": "Feature", "properties": {"area_id": 11107, "city": "Pittsfield", "state": "MA", "city_survey": true, "cat": "Best", "grade": "A", "label": "A1", "res": true, "com": false, "ind": false, "fill": "#76a865", "GEOID10": "25003900900", "GISJOIN": "G2500030900900", "calc_area": 556394.16176, "pct_tract": 0.13278}, "geometry": {"type": "MultiPolygon", "coordinates": [[[[-73.24691, 42.43724], [-73.24824, 42.43879], [-73.24829, 42.44023], [-73.24714, 42.44011], [-73.24712, 42.44061], [-73.24637, 42.44249], [-73.235297, 42.441134], [-73.23532, 42.441048], [-73.235355, 42.440938], [-73.235431, 42.440674], [-73.235613, 42.439997], [-73.235783, 42.439348], [-73.235922, 42.438811], [-73.236001, 42.438525], [-73.236464, 42.436935], [-73.236583, 42.436563], [-73.236741, 42.435963], [-73.237035, 42.43601], [-73.237413, 42.43604], [-73.237926, 42.436091], [-73.238393, 42.436152], [-73.239082, 42.436259], [-73.240342, 42.436449], [-73.241526, 42.436624], [-73.241807, 42.436666], [-73.242604, 42.436796], [-73.242963, 42.436853], [-73.24358, 42.436947], [-73.244981, 42.437157], [-73.245352, 42.437217], [-73.245981, 42.437307], [-73.246285, 42.437336], [-73.246346, 42.437343], [-73.246471, 42.437324], [-73.246567, 42.437291], [-73.2466, 42.437262], [-73.246625, 42.437239], [-73.246698, 42.437074], [-73.246842, 42.436839], [-73.247294, 42.436258], [-73.247625, 42.436448], [-73.247723, 42.436504], [-73.247726, 42.436482], [-73.247726, 42.436443], [-73.247741, 42.43635], [-73.247763, 42.436306], [-73.247823, 42.436224], [-73.247845, 42.43618], [-73.247948, 42.436065], [-73.248037, 42.43601], [-73.248407, 42.435856], [-73.248511, 42.435817], [-73.248622, 42.435784], [-73.248682, 42.435762], [-73.248741, 42.435746], [-73.248793, 42.435724], [-73.248904, 42.435691], [-73.249091, 42.435625], [-73.24691, 42.43724]]]]}}, {"type": "Feature", "properties": {"area_id": 11107, "city": "Pittsfield", "state": "MA", "city_survey": true, "cat": "Best", "grade": "A", "label": "A1", "res": true, "com": false, "ind": false, "fill": "#76a865", "GEOID10": "25003900800", "GISJOIN": "G2500030900800", "calc_area": 1201575.64883, "pct_tract": 0.04563}, "geometry": {"type": "MultiPolygon", "coordinates": [[[[-73.2351, 42.44111], [-73.23561, 42.43905], [-73.22866, 42.43819], [-73.22939, 42.43411], [-73.23037, 42.43099], [-73.23841, 42.43041], [-73.24572, 42.43037], [-73.24994, 42.43342], [-73.25018, 42.43427], [-73.24953, 42.4353], [-73.249091, 42.435625], [-73.248904, 42.435691], [-73.248793, 42.435724], [-73.248741, 42.435746], [-73.248682, 42.435762], [-73.248622, 42.435784], [-73.248511, 42.435817], [-73.248407, 42.435856], [-73.248037, 42.43601], [-73.247948, 42.436065], [-73.247845, 42.43618], [-73.247823, 42.436224], [-73.247763, 42.436306], [-73.247741, 42.43635], [-73.247726, 42.436443], [-73.247726, 42.436482], [-73.247723, 42.436504], [-73.247625, 42.436448], [-73.247294, 42.436258], [-73.246842, 42.436839], [-73.246698, 42.437074], [-73.246625, 42.437239], [-73.2466, 42.437262], [-73.246567, 42.437291], [-73.246471, 42.437324], [-73.246346, 42.437343], [-73.246285, 42.437336], [-73.245981, 42.437307], [-73.245352, 42.437217], [-73.244981, 42.437157], [-73.24358, 42.436947], [-73.242963, 42.436853], [-73.242604, 42.436796], [-73.241807, 42.436666], [-73.241526, 42.436624], [-73.240342, 42.436449], [-73.239082, 42.436259], [-73.238393, 42.436152], [-73.237926, 42.436091], [-73.237413, 42.43604], [-73.237035, 42.43601], [-73.236741, 42.435963], [-73.236583, 42.436563], [-73.236464, 42.436935], [-73.236001, 42.438525], [-73.235922, 42.438811], [-73.235783, 42.439348], [-73.235613, 42.439997], [-73.235431, 42.440674], [-73.235355, 42.440938], [-73.23532, 42.441048], [-73.235297, 42.441134], [-73.2351, 42.44111]]]]}}, {"type": "Feature", "properties": {"area_id": 11108, "city": "Pittsfield", "state": "MA", "city_survey": true, "cat": "Best", "grade": "A", "label": "A2", "res": true, "com": false, "ind": false, "fill": "#76a865", "GEOID10": "25003900900", "GISJOIN": "G2500030900900", "calc_area": 141476.81057, "pct_tract": 0.03376}, "geometry": {"type": "MultiPolygon", "coordinates": [[[[-73.26451, 42.43034], [-73.26386, 42.43293], [-73.25844, 42.43224], [-73.25863, 42.43122], [-73.258962, 42.429501], [-73.259331, 42.429545], [-73.259837, 42.429612], [-73.260377, 42.429685], [-73.260805, 42.429752], [-73.261026, 42.429781], [-73.261274, 42.429814], [-73.26145, 42.429846], [-73.262011, 42.429926], [-73.262264, 42.429957], [-73.262713, 42.430001], [-73.26298, 42.430021], [-73.263993, 42.430055], [-73.264574, 42.43008], [-73.26451, 42.43034]]]]}}, {"type": "Feature", "properties": {"area_id": 11108, "city": "Pittsfield", "state": "MA", "city_survey": true, "cat": "Best", "grade": "A", "label": "A2", "res": true, "com": false, "ind": false, "fill": "#76a865", "GEOID10": "25003900800", "GISJOIN": "G2500030900800", "calc_area": 59252.87887, "pct_tract": 0.00225}, "geometry": {"type": "MultiPolygon", "coordinates": [[[[-73.25919, 42.42832], [-73.26481, 42.42913], [-73.264574, 42.43008], [-73.263993, 42.430055], [-73.26298, 42.430021], [-73.262713, 42.430001], [-73.262264, 42.429957], [-73.262011, 42.429926], [-73.26145, 42.429846], [-73.261274, 42.429814], [-73.261026, 42.429781], [-73.260805, 42.429752], [-73.260377, 42.429685], [-73.259837, 42.429612], [-73.259331, 42.429545], [-73.258962, 42.429501], [-73.25919, 42.42832]]]]}}, {"type": "Feature", "properties": {"area_id": 11109, "city": "Pittsfield", "state": "MA", "city_survey": true, "cat": "Still Desirable", "grade": "B", "label": "B3", "res": true, "com": false, "ind": false, "fill": "#7cb5bd", "GEOID10": "25003935200", "GISJOIN": "G2500030935200", "calc_area": 3616.13725, "pct_tract": 0.00031}, "geometry": {"type": "MultiPolygon", "coordinates": [[[[-73.24376, 42.44524], [-73.243973, 42.445123], [-73.243973, 42.445124], [-73.243988, 42.445145], [-73.244104, 42.445331], [-73.244403, 42.44583], [-73.244815, 42.446452], [-73.244882, 42.446656], [-73.244877, 42.446779], [-73.244847, 42.446854], [-73.244839, 42.446862], [-73.24376, 42.44524]]]]}}, {"type": "Feature", "properties": {"area_id": 11109, "city": "Pittsfield", "state": "MA", "city_survey": true, "cat": "Still Desirable", "grade": "B", "label": "B3", "res": true, "com": false, "ind": false, "fill": "#7cb5bd", "GEOID10": "25003900900", "GISJOIN": "G2500030900900", "calc_area": 1658476.92099, "pct_tract": 0.39578}, "geometry": {"type": "MultiPolygon", "coordinates": [[[[-73.25616, 42.44384], [-73.2555, 42.44374], [-73.255373, 42.444255], [-73.255123, 42.444212], [-73.254965, 42.44425], [-73.254473, 42.444187], [-73.253678, 42.444057], [-73.253078, 42.443969], [-73.252499, 42.443884], [-73.251909, 42.443798], [-73.251748, 42.444294], [-73.251572, 42.444874], [-73.251409, 42.445383], [-73.251246, 42.44593], [-73.251034, 42.44658], [-73.250793, 42.447342], [-73.250616, 42.44788], [-73.250039, 42.447789], [-73.249717, 42.447738], [-73.248949, 42.447636], [-73.248424, 42.447561], [-73.247652, 42.447421], [-73.246889, 42.447291], [-73.246198, 42.447155], [-73.245829, 42.447087], [-73.245541, 42.44702], [-73.245312, 42.446979], [-73.245102, 42.446933], [-73.244882, 42.446656], [-73.244815, 42.446452], [-73.244403, 42.44583], [-73.244104, 42.445331], [-73.243988, 42.445145], [-73.243973, 42.445124], [-73.243973, 42.445123], [-73.24551, 42.44428], [-73.24637, 42.44249], [-73.24712, 42.44061], [-73.24714, 42.44011], [-73.24829, 42.44023], [-73.24824, 42.43879], [-73.24691, 42.43724], [-73.249091, 42.435625], [-73.249185, 42.435592], [-73.249393, 42.435509], [-73.249548, 42.435433], [-73.249874, 42.435251], [-73.25, 42.43512], [-73.250037, 42.435084], [-73.250223, 42.434865], [-73.250312, 42.434601], [-73.250409, 42.434289], [-73.250505, 42.43402], [-73.250624, 42.433811], [-73.250891, 42.43368], [-73.251017, 42.433619], [-73.251017, 42.433543], [-73.251061, 42.433389], [-73.251603, 42.433098], [-73.251742, 42.432964], [-73.25863, 42.43122], [-73.25844, 42.43224], [-73.26386, 42.43293], [-73.26347, 42.43463], [-73.262898, 42.437059], [-73.262825, 42.436995], [-73.262751, 42.436875], [-73.26258, 42.436825], [-73.262561, 42.43683], [-73.262402, 42.43688], [-73.262343, 42.437045], [-73.262224, 42.437182], [-73.262106, 42.437248], [-73.261817, 42.437269], [-73.261565, 42.43733], [-73.261405, 42.437408], [-73.261371, 42.437425], [-73.261224, 42.437472], [-73.261261, 42.437483], [-73.26166, 42.437977], [-73.261705, 42.4384], [-73.261707, 42.438474], [-73.261719, 42.438899], [-73.261748, 42.439339], [-73.261747, 42.439349], [-73.261711, 42.439701], [-73.261577, 42.44003], [-73.261503, 42.440156], [-73.261346, 42.440205], [-73.261292, 42.440225], [-73.261237, 42.440238], [-73.261184, 42.440255], [-73.260873, 42.440304], [-73.260667, 42.440367], [-73.26002, 42.44023], [-73.25854, 42.44503], [-73.257872, 42.445191], [-73.257787, 42.444938], [-73.257713, 42.444728], [-73.257703, 42.444639], [-73.256421, 42.444435], [-73.256037, 42.444369], [-73.25616, 42.44384]]], [[[-73.26862, 42.43969], [-73.268559, 42.439881], [-73.268491, 42.439863], [-73.268461, 42.439841], [-73.268358, 42.439841], [-73.268321, 42.439863], [-73.268232, 42.439896], [-73.268046, 42.43989], [-73.267476, 42.439637], [-73.267348, 42.43963], [-73.267172, 42.439621], [-73.266965, 42.439615], [-73.266817, 42.439566], [-73.266782, 42.439512], [-73.26862, 42.43969]]]]}}, {"type": "Feature", "properties": {"area_id": 11109, "city": "Pittsfield", "state": "MA", "city_survey": true, "cat": "Still Desirable", "grade": "B", "label": "B3", "res": true, "com": false, "ind": false, "fill": "#7cb5bd", "GEOID10": "25003900800", "GISJOIN": "G2500030900800", "calc_area": 11061.24314, "pct_tract": 0.00042}, "geometry": {"type": "MultiPolygon", "coordinates": [[[[-73.24953, 42.4353], [-73.25018, 42.43427], [-73.24994, 42.43342], [-73.251742, 42.432964], [-73.251603, 42.433098], [-73.251061, 42.433389], [-73.251017, 42.433543], [-73.251017, 42.433619], [-73.250891, 42.43368], [-73.250624, 42.433811], [-73.250505, 42.43402], [-73.250409, 42.434289], [-73.250312, 42.434601], [-73.250223, 42.434865], [-73.250037, 42.435084], [-73.25, 42.43512], [-73.249874, 42.435251], [-73.249548, 42.435433], [-73.249393, 42.435509], [-73.249185, 42.435592], [-73.249091, 42.435625], [-73.24953, 42.4353]]]]}}, {"type": "Feature", "properties": {"area_id": 11109, "city": "Pittsfield", "state": "MA", "city_survey": true, "cat": "Still Desirable", "grade": "B", "label": "B3", "res": true, "com": false, "ind": false, "fill": "#7cb5bd", "GEOID10": "25003900700", "GISJOIN": "G2500030900700", "calc_area": 180928.30483, "pct_tract": 0.02404}, "geometry": {"type": "MultiPolygon", "coordinates": [[[[-73.26767, 42.44269], [-73.26475, 42.44245], [-73.26354, 42.44261], [-73.26338, 42.44094], [-73.260667, 42.440367], [-73.260873, 42.440304], [-73.261184, 42.440255], [-73.261237, 42.440238], [-73.261292, 42.440225], [-73.261346, 42.440205], [-73.261503, 42.440156], [-73.261577, 42.44003], [-73.261711, 42.439701], [-73.261747, 42.439349], [-73.261748, 42.439339], [-73.261719, 42.438899], [-73.261707, 42.438474], [-73.261705, 42.4384], [-73.26166, 42.437977], [-73.261261, 42.437483], [-73.261224, 42.437472], [-73.261371, 42.437425], [-73.261405, 42.437408], [-73.261565, 42.43733], [-73.261817, 42.437269], [-73.262106, 42.437248], [-73.262224, 42.437182], [-73.262343, 42.437045], [-73.262402, 42.43688], [-73.262561, 42.43683], [-73.26258, 42.436825], [-73.262751, 42.436875], [-73.262825, 42.436995], [-73.262898, 42.437059], [-73.26242, 42.43909], [-73.266782, 42.439512], [-73.266817, 42.439566], [-73.266965, 42.439615], [-73.267172, 42.439621], [-73.267348, 42.43963], [-73.267476, 42.439637], [-73.268046, 42.43989], [-73.268232, 42.439896], [-73.268321, 42.439863], [-73.268358, 42.439841], [-73.268461, 42.439841], [-73.268491, 42.439863], [-73.268559, 42.439881], [-73.26767, 42.44269]]]]}}, {"type": "Feature", "properties": {"area_id": 11109, "city": "Pittsfield", "state": "MA", "city_survey": true, "cat": "Still Desirable", "grade": "B", "label": "B3", "res": true, "com": false, "ind": false, "fill": "#7cb5bd", "GEOID10": "25003900200", "GISJOIN": "G2500030900200", "calc_area": 19916.63194, "pct_tract": 0.01373}, "geometry": {"type": "MultiPolygon", "coordinates": [[[[-73.24758, 42.44776], [-73.24728, 42.44816], [-73.24549, 42.44784], [-73.244839, 42.446862], [-73.244847, 42.446854], [-73.244877, 42.446779], [-73.244882, 42.446656], [-73.245102, 42.446933], [-73.245312, 42.446979], [-73.245541, 42.44702], [-73.245829, 42.447087], [-73.246198, 42.447155], [-73.246889, 42.447291], [-73.247652, 42.447421], [-73.248424, 42.447561], [-73.248387, 42.447675], [-73.248333, 42.447863], [-73.24758, 42.44776]]]]}}, {"type": "Feature", "properties": {"area_id": 11109, "city": "Pittsfield", "state": "MA", "city_survey": true, "cat": "Still Desirable", "grade": "B", "label": "B3", "res": true, "com": false, "ind": false, "fill": "#7cb5bd", "GEOID10": "25003900100", "GISJOIN": "G2500030900100", "calc_area": 107504.70884, "pct_tract": 0.08503}, "geometry": {"type": "MultiPolygon", "coordinates": [[[[-73.25534, 42.44439], [-73.25403, 42.44429], [-73.25321, 42.44733], [-73.2514, 42.44828], [-73.248333, 42.447863], [-73.248387, 42.447675], [-73.248424, 42.447561], [-73.248949, 42.447636], [-73.249717, 42.447738], [-73.250039, 42.447789], [-73.250616, 42.44788], [-73.250793, 42.447342], [-73.251034, 42.44658], [-73.251246, 42.44593], [-73.251409, 42.445383], [-73.251572, 42.444874], [-73.251748, 42.444294], [-73.251909, 42.443798], [-73.252499, 42.443884], [-73.253078, 42.443969], [-73.253678, 42.444057], [-73.254473, 42.444187], [-73.254965, 42.44425], [-73.255123, 42.444212], [-73.255373, 42.444255], [-73.25534, 42.44439]]], [[[-73.25709, 42.44538], [-73.25583, 42.44526], [-73.256037, 42.444369], [-73.256421, 42.444435], [-73.257703, 42.444639], [-73.257713, 42.444728], [-73.257787, 42.444938], [-73.257872, 42.445191], [-73.25709, 42.44538]]]]}}, {"type": "Feature", "properties": {"area_id": 11110, "city": "Pittsfield", "state": "MA", "city_survey": true, "cat": "Still Desirable", "grade": "B", "label": "B4", "res": true, "com": false, "ind": false, "fill": "#7cb5bd", "GEOID10": "25003900700", "GISJOIN": "G2500030900700", "calc_area": 871.29825, "pct_tract": 0.00012}, "geometry": {"type": "MultiPolygon", "coordinates": [[[[-73.26967, 42.44531], [-73.2717, 42.44506], [-73.271679, 42.445156], [-73.271132, 42.445177], [-73.270361, 42.445241], [-73.26994, 42.445312], [-73.269592, 42.445372], [-73.269495, 42.445389], [-73.269214, 42.445454], [-73.26967, 42.44531]]]]}}, {"type": "Feature", "properties": {"area_id": 11110, "city": "Pittsfield", "state": "MA", "city_survey": true, "cat": "Still Desirable", "grade": "B", "label": "B4", "res": true, "com": false, "ind": false, "fill": "#7cb5bd", "GEOID10": "25003900600", "GISJOIN": "G2500030900600", "calc_area": 70898.88981, "pct_tract": 0.0324}, "geometry": {"type": "MultiPolygon", "coordinates": [[[[-73.26383, 42.45442], [-73.26428, 42.45178], [-73.26481, 42.45027], [-73.2653, 42.45036], [-73.26654, 42.4463], [-73.267182, 42.446097], [-73.266854, 42.447316], [-73.266807, 42.447538], [-73.266652, 42.448056], [-73.266322, 42.449358], [-73.266024, 42.450374], [-73.266299, 42.450415], [-73.266123, 42.451112], [-73.265973, 42.451757], [-73.265932, 42.451935], [-73.26577, 42.452537], [-73.265574, 42.453341], [-73.265181, 42.453283], [-73.265103, 42.453271], [-73.264678, 42.453201], [-73.264365, 42.45315], [-73.264353, 42.453198], [-73.264184, 42.453871], [-73.264108, 42.454202], [-73.264046, 42.454446], [-73.26383, 42.45442]]]]}}, {"type": "Feature", "properties": {"area_id": 11110, "city": "Pittsfield", "state": "MA", "city_survey": true, "cat": "Still Desirable", "grade": "B", "label": "B4", "res": true, "com": false, "ind": false, "fill": "#7cb5bd", "GEOID10": "25003900500", "GISJOIN": "G2500030900500", "calc_area": 1526687.68439, "pct_tract": 0.04936}, "geometry": {"type": "MultiPolygon", "coordinates": [[[[-73.2709, 42.44863], [-73.2752, 42.44945], [-73.27943, 42.4498], [-73.2914, 42.45111], [-73.29, 42.45685], [-73.28925, 42.45676], [-73.28911, 42.45644], [-73.28685, 42.45548], [-73.28596, 42.45529], [-73.28456, 42.45556], [-73.28409, 42.45615], [-73.28391, 42.45679], [-73.27427, 42.45569], [-73.264046, 42.454446], [-73.264108, 42.454202], [-73.264184, 42.453871], [-73.264353, 42.453198], [-73.264365, 42.45315], [-73.264678, 42.453201], [-73.265103, 42.453271], [-73.265181, 42.453283], [-73.265574, 42.453341], [-73.26577, 42.452537], [-73.265932, 42.451935], [-73.265973, 42.451757], [-73.266123, 42.451112], [-73.266299, 42.450415], [-73.266024, 42.450374], [-73.266322, 42.449358], [-73.266652, 42.448056], [-73.266807, 42.447538], [-73.266854, 42.447316], [-73.267182, 42.446097], [-73.269214, 42.445454], [-73.269495, 42.445389], [-73.269592, 42.445372], [-73.26994, 42.445312], [-73.270361, 42.445241], [-73.271132, 42.445177], [-73.271679, 42.445156], [-73.2709, 42.44863]]]]}}, {"type": "Feature", "properties": {"area_id": 11111, "city": "Pittsfield", "state": "MA", "city_survey": true, "cat": "Still Desirable", "grade": "B", "label": "B5", "res": true, "com": false, "ind": false, "fill": "#7cb5bd", "GEOID10": "25003935200", "GISJOIN": "G2500030935200", "calc_area": 342797.43567, "pct_tract": 0.02936}, "geometry": {"type": "MultiPolygon", "coordinates": [[[[-73.23226, 42.44309], [-73.2317, 42.4455], [-73.22841, 42.4447], [-73.22502, 42.44322], [-73.22161, 42.44251], [-73.223236, 42.43778], [-73.223315, 42.437835], [-73.224144, 42.438364], [-73.224343, 42.438485], [-73.225112, 42.438985], [-73.225405, 42.439182], [-73.225894, 42.439509], [-73.226389, 42.439833], [-73.227571, 42.440605], [-73.228155, 42.440985], [-73.228485, 42.441208], [-73.229233, 42.441712], [-73.229564, 42.441917], [-73.229728, 42.442022], [-73.230084, 42.442253], [-73.230352, 42.442401], [-73.230386, 42.44242], [-73.23055, 42.442485], [-73.230737, 42.44253], [-73.231242, 42.442635], [-73.231791, 42.442749], [-73.232139, 42.442811], [-73.233029, 42.442979], [-73.233821, 42.443128], [-73.234294, 42.443214], [-73.234768, 42.443299], [-73.235156, 42.443377], [-73.23603, 42.443546], [-73.236387, 42.443606], [-73.237182, 42.443753], [-73.238164, 42.443941], [-73.23226, 42.44309]]], [[[-73.24376, 42.44524], [-73.24329, 42.44468], [-73.240524, 42.444281], [-73.240621, 42.444288], [-73.241583, 42.444363], [-73.24176, 42.444377], [-73.241938, 42.44439], [-73.24241, 42.444444], [-73.242712, 42.444489], [-73.242879, 42.444518], [-73.24315, 42.44458], [-73.243276, 42.444622], [-73.24344, 42.444677], [-73.243673, 42.444798], [-73.243728, 42.44484], [-73.243761, 42.444867], [-73.243866, 42.444981], [-73.243928, 42.445064], [-73.243973, 42.445123], [-73.24376, 42.44524]]]]}}, {"type": "Feature", "properties": {"area_id": 11111, "city": "Pittsfield", "state": "MA", "city_survey": true, "cat": "Still Desirable", "grade": "B", "label": "B5", "res": true, "com": false, "ind": false, "fill": "#7cb5bd", "GEOID10": "25003900900", "GISJOIN": "G2500030900900", "calc_area": 240715.59142, "pct_tract": 0.05744}, "geometry": {"type": "MultiPolygon", "coordinates": [[[[-73.238164, 42.443941], [-73.237182, 42.443753], [-73.236387, 42.443606], [-73.23603, 42.443546], [-73.235156, 42.443377], [-73.235034, 42.443251], [-73.234925, 42.443032], [-73.234872, 42.442846], [-73.234891, 42.442628], [-73.235132, 42.441763], [-73.235297, 42.441134], [-73.24637, 42.44249], [-73.24551, 42.44428], [-73.243973, 42.445123], [-73.243928, 42.445064], [-73.243866, 42.444981], [-73.243761, 42.444867], [-73.243728, 42.44484], [-73.243673, 42.444798], [-73.24344, 42.444677], [-73.243276, 42.444622], [-73.24315, 42.44458], [-73.242879, 42.444518], [-73.242712, 42.444489], [-73.24241, 42.444444], [-73.241938, 42.44439], [-73.24176, 42.444377], [-73.241583, 42.444363], [-73.240621, 42.444288], [-73.240524, 42.444281], [-73.238164, 42.443941]]]]}}, {"type": "Feature", "properties": {"area_id": 11111, "city": "Pittsfield", "state": "MA", "city_survey": true, "cat": "Still Desirable", "grade": "B", "label": "B5", "res": true, "com": false, "ind": false, "fill": "#7cb5bd", "GEOID10": "25003900800", "GISJOIN": "G2500030900800", "calc_area": 530436.2392, "pct_tract": 0.02014}, "geometry": {"type": "MultiPolygon", "coordinates": [[[[-73.22325, 42.43774], [-73.22455, 42.43315], [-73.22939, 42.43411], [-73.22866, 42.43819], [-73.23561, 42.43905], [-73.2351, 42.44111], [-73.235297, 42.441134], [-73.235132, 42.441763], [-73.234891, 42.442628], [-73.234872, 42.442846], [-73.234925, 42.443032], [-73.235034, 42.443251], [-73.235156, 42.443377], [-73.234768, 42.443299], [-73.234294, 42.443214], [-73.233821, 42.443128], [-73.233029, 42.442979], [-73.232139, 42.442811], [-73.231791, 42.442749], [-73.231242, 42.442635], [-73.230737, 42.44253], [-73.23055, 42.442485], [-73.230386, 42.44242], [-73.230352, 42.442401], [-73.230084, 42.442253], [-73.229728, 42.442022], [-73.229564, 42.441917], [-73.229233, 42.441712], [-73.228485, 42.441208], [-73.228155, 42.440985], [-73.227571, 42.440605], [-73.226389, 42.439833], [-73.225894, 42.439509], [-73.225405, 42.439182], [-73.225112, 42.438985], [-73.224343, 42.438485], [-73.224144, 42.438364], [-73.223315, 42.437835], [-73.223236, 42.43778], [-73.22325, 42.43774]]]]}}, {"type": "Feature", "properties": {"area_id": 11112, "city": "Pittsfield", "state": "MA", "city_survey": true, "cat": "Still Desirable", "grade": "B", "label": "B6", "res": true, "com": false, "ind": false, "fill": "#7cb5bd", "GEOID10": "25003900600", "GISJOIN": "G2500030900600", "calc_area": 18676.32642, "pct_tract": 0.00854}, "geometry": {"type": "MultiPolygon", "coordinates": [[[[-73.25104, 42.46092], [-73.25181, 42.46281], [-73.251813, 42.462962], [-73.251753, 42.462901], [-73.251332, 42.462457], [-73.251127, 42.462197], [-73.250886, 42.461436], [-73.250774, 42.461092], [-73.251122, 42.460556], [-73.251526, 42.459875], [-73.251662, 42.459627], [-73.25104, 42.46092]]], [[[-73.25727, 42.45298], [-73.25632, 42.45631], [-73.255965, 42.456251], [-73.256002, 42.456118], [-73.256167, 42.455555], [-73.256339, 42.454886], [-73.256449, 42.454527], [-73.256567, 42.454037], [-73.256679, 42.453675], [-73.256811, 42.453075], [-73.256859, 42.45291], [-73.25727, 42.45298]]]]}}, {"type": "Feature", "properties": {"area_id": 11112, "city": "Pittsfield", "state": "MA", "city_survey": true, "cat": "Still Desirable", "grade": "B", "label": "B6", "res": true, "com": false, "ind": false, "fill": "#7cb5bd", "GEOID10": "25003900400", "GISJOIN": "G2500030900400", "calc_area": 11150.76469, "pct_tract": 0.00081}, "geometry": {"type": "MultiPolygon", "coordinates": [[[[-73.24404, 42.47489], [-73.23841, 42.47413], [-73.238465, 42.473913], [-73.238932, 42.473984], [-73.239715, 42.474094], [-73.240378, 42.474176], [-73.24061, 42.4742], [-73.240935, 42.474253], [-73.241646, 42.474349], [-73.242348, 42.474449], [-73.244311, 42.474738], [-73.244315, 42.474752], [-73.24404, 42.47489]]]]}}, {"type": "Feature", "properties": {"area_id": 11112, "city": "Pittsfield", "state": "MA", "city_survey": true, "cat": "Still Desirable", "grade": "B", "label": "B6", "res": true, "com": false, "ind": false, "fill": "#7cb5bd", "GEOID10": "25003900300", "GISJOIN": "G2500030900300", "calc_area": 803691.01021, "pct_tract": 0.2902}, "geometry": {"type": "MultiPolygon", "coordinates": [[[[-73.23883, 42.47248], [-73.24278, 42.47302], [-73.24539, 42.46334], [-73.24199, 42.46276], [-73.24028, 42.46234], [-73.24033, 42.46176], [-73.23816, 42.46086], [-73.238395, 42.460057], [-73.238423, 42.460065], [-73.23874, 42.460121], [-73.239089, 42.460161], [-73.239188, 42.460158], [-73.239399, 42.460165], [-73.239691, 42.460141], [-73.24016, 42.460106], [-73.240408, 42.460089], [-73.240708, 42.460083], [-73.24097, 42.460101], [-73.241023, 42.460105], [-73.24178, 42.460231], [-73.242142, 42.460301], [-73.242283, 42.460353], [-73.24251, 42.460436], [-73.24301, 42.460643], [-73.243555, 42.460833], [-73.244696, 42.46101], [-73.245809, 42.461178], [-73.245865, 42.461185], [-73.246225, 42.461232], [-73.246908, 42.461338], [-73.247033, 42.461369], [-73.247106, 42.461422], [-73.247276, 42.460941], [-73.248354, 42.461138], [-73.248604, 42.461152], [-73.248846, 42.461114], [-73.249197, 42.461045], [-73.249458, 42.460994], [-73.250034, 42.460909], [-73.250675, 42.460794], [-73.250774, 42.461092], [-73.250886, 42.461436], [-73.251127, 42.462197], [-73.251332, 42.462457], [-73.251753, 42.462901], [-73.251813, 42.462962], [-73.25184, 42.46419], [-73.25116, 42.46663], [-73.24929, 42.46635], [-73.24731, 42.47185], [-73.24593, 42.47394], [-73.244315, 42.474752], [-73.244311, 42.474738], [-73.242348, 42.474449], [-73.241646, 42.474349], [-73.240935, 42.474253], [-73.24061, 42.4742], [-73.240378, 42.474176], [-73.239715, 42.474094], [-73.238932, 42.473984], [-73.238465, 42.473913], [-73.23883, 42.47248]]]]}}, {"type": "Feature", "properties": {"area_id": 11112, "city": "Pittsfield", "state": "MA", "city_survey": true, "cat": "Still Desirable", "grade": "B", "label": "B6", "res": true, "com": false, "ind": false, "fill": "#7cb5bd", "GEOID10": "25003900200", "GISJOIN": "G2500030900200", "calc_area": 346934.74498, "pct_tract": 0.23925}, "geometry": {"type": "MultiPolygon", "coordinates": [[[[-73.23918, 42.45737], [-73.24505, 42.45818], [-73.24586, 42.455], [-73.24588, 42.45448], [-73.24705, 42.45068], [-73.24728, 42.44816], [-73.24758, 42.44776], [-73.248333, 42.447863], [-73.248048, 42.448854], [-73.247888, 42.449345], [-73.247683, 42.450093], [-73.247636, 42.450278], [-73.247577, 42.450514], [-73.247483, 42.45092], [-73.247375, 42.451317], [-73.247287, 42.451596], [-73.247209, 42.451868], [-73.247146, 42.452091], [-73.247083, 42.452317], [-73.247014, 42.452407], [-73.246949, 42.452516], [-73.246869, 42.45265], [-73.246869, 42.452745], [-73.24681, 42.452782], [-73.246745, 42.452855], [-73.246709, 42.452962], [-73.246534, 42.453596], [-73.246172, 42.454897], [-73.246012, 42.45537], [-73.245866, 42.455916], [-73.245646, 42.456703], [-73.246754, 42.456868], [-73.248612, 42.457159], [-73.249409, 42.457284], [-73.24866, 42.45797], [-73.24766, 42.45935], [-73.24911, 42.45988], [-73.250299, 42.459717], [-73.250314, 42.459768], [-73.250452, 42.460146], [-73.250546, 42.460404], [-73.250675, 42.460794], [-73.250034, 42.460909], [-73.249458, 42.460994], [-73.249197, 42.461045], [-73.248846, 42.461114], [-73.248604, 42.461152], [-73.248354, 42.461138], [-73.247276, 42.460941], [-73.247106, 42.461422], [-73.247033, 42.461369], [-73.246908, 42.461338], [-73.246225, 42.461232], [-73.245865, 42.461185], [-73.245809, 42.461178], [-73.244696, 42.46101], [-73.243555, 42.460833], [-73.24301, 42.460643], [-73.24251, 42.460436], [-73.242283, 42.460353], [-73.242142, 42.460301], [-73.24178, 42.460231], [-73.241023, 42.460105], [-73.24097, 42.460101], [-73.240708, 42.460083], [-73.240408, 42.460089], [-73.24016, 42.460106], [-73.239691, 42.460141], [-73.239399, 42.460165], [-73.239188, 42.460158], [-73.239089, 42.460161], [-73.23874, 42.460121], [-73.238423, 42.460065], [-73.238395, 42.460057], [-73.23918, 42.45737]]]]}}, {"type": "Feature", "properties": {"area_id": 11112, "city": "Pittsfield", "state": "MA", "city_survey": true, "cat": "Still Desirable", "grade": "B", "label": "B6", "res": true, "com": false, "ind": false, "fill": "#7cb5bd", "GEOID10": "25003900100", "GISJOIN": "G2500030900100", "calc_area": 505054.29356, "pct_tract": 0.39949}, "geometry": {"type": "MultiPolygon", "coordinates": [[[[-73.25391, 42.45591], [-73.25233, 42.45824], [-73.251662, 42.459627], [-73.251526, 42.459875], [-73.251122, 42.460556], [-73.250774, 42.461092], [-73.250675, 42.460794], [-73.250546, 42.460404], [-73.250452, 42.460146], [-73.250314, 42.459768], [-73.250299, 42.459717], [-73.2505, 42.45969], [-73.25092, 42.45897], [-73.25065, 42.4579], [-73.2526, 42.4558], [-73.25368, 42.45237], [-73.256859, 42.45291], [-73.256811, 42.453075], [-73.256679, 42.453675], [-73.256567, 42.454037], [-73.256449, 42.454527], [-73.256339, 42.454886], [-73.256167, 42.455555], [-73.256002, 42.456118], [-73.255965, 42.456251], [-73.25391, 42.45591]]], [[[-73.2514, 42.44828], [-73.25048, 42.45125], [-73.25202, 42.45144], [-73.25114, 42.45481], [-73.24974, 42.45698], [-73.249409, 42.457284], [-73.248612, 42.457159], [-73.246754, 42.456868], [-73.245646, 42.456703], [-73.245866, 42.455916], [-73.246012, 42.45537], [-73.246172, 42.454897], [-73.246534, 42.453596], [-73.246709, 42.452962], [-73.246745, 42.452855], [-73.24681, 42.452782], [-73.246869, 42.452745], [-73.246869, 42.45265], [-73.246949, 42.452516], [-73.247014, 42.452407], [-73.247083, 42.452317], [-73.247146, 42.452091], [-73.247209, 42.451868], [-73.247287, 42.451596], [-73.247375, 42.451317], [-73.247483, 42.45092], [-73.247577, 42.450514], [-73.247636, 42.450278], [-73.247683, 42.450093], [-73.247888, 42.449345], [-73.248048, 42.448854], [-73.248333, 42.447863], [-73.2514, 42.44828]]]]}}, {"type": "Feature", "properties": {"area_id": 11113, "city": "Pittsfield", "state": "MA", "city_survey": true, "cat": "Still Desirable", "grade": "B", "label": "B7", "res": true, "com": false, "ind": false, "fill": "#7cb5bd", "GEOID10": "25003935200", "GISJOIN": "G2500030935200", "calc_area": 56610.32387, "pct_tract": 0.00485}, "geometry": {"type": "MultiPolygon", "coordinates": [[[[-73.23445, 42.45437], [-73.23554, 42.45426], [-73.239805, 42.454414], [-73.239764, 42.454526], [-73.239706, 42.454708], [-73.23904, 42.454602], [-73.238701, 42.454553], [-73.238428, 42.454545], [-73.238348, 42.454559], [-73.238293, 42.454568], [-73.238094, 42.454587], [-73.237918, 42.454589], [-73.237788, 42.454579], [-73.237181, 42.454488], [-73.23692, 42.454455], [-73.236794, 42.454439], [-73.236622, 42.454428], [-73.235438, 42.454396], [-73.234611, 42.454382], [-73.234508, 42.454394], [-73.234431, 42.45443], [-73.23445, 42.45437]]], [[[-73.22268, 42.45593], [-73.22618, 42.45533], [-73.2313, 42.45562], [-73.23391, 42.45605], [-73.234288, 42.454873], [-73.234282, 42.455093], [-73.234272, 42.455234], [-73.234189, 42.45562], [-73.234013, 42.456265], [-73.233744, 42.456256], [-73.233715, 42.456251], [-73.233187, 42.456163], [-73.232387, 42.456043], [-73.231428, 42.45589], [-73.230168, 42.45574], [-73.229307, 42.455645], [-73.228744, 42.455594], [-73.228428, 42.455566], [-73.227107, 42.45541], [-73.226769, 42.455399], [-73.226378, 42.455405], [-73.225932, 42.455434], [-73.225395, 42.455491], [-73.225307, 42.4555], [-73.225122, 42.455544], [-73.224624, 42.455747], [-73.224167, 42.455939], [-73.223517, 42.456196], [-73.222992, 42.456421], [-73.22268, 42.45593]]], [[[-73.21941, 42.457851], [-73.21931, 42.457891], [-73.218853, 42.45808], [-73.218636, 42.458164], [-73.218568, 42.458178], [-73.21941, 42.457851]]], [[[-73.21274, 42.46066], [-73.21751, 42.45859], [-73.217944, 42.458421], [-73.217982, 42.458475], [-73.218209, 42.458763], [-73.218345, 42.458955], [-73.218156, 42.459004], [-73.217326, 42.459273], [-73.217013, 42.459401], [-73.216512, 42.459596], [-73.215844, 42.459877], [-73.215202, 42.460138], [-73.214711, 42.460397], [-73.214381, 42.460561], [-73.213782, 42.460868], [-73.213085, 42.461139], [-73.21274, 42.46066]]]]}}, {"type": "Feature", "properties": {"area_id": 11113, "city": "Pittsfield", "state": "MA", "city_survey": true, "cat": "Still Desirable", "grade": "B", "label": "B7", "res": true, "com": false, "ind": false, "fill": "#7cb5bd", "GEOID10": "25003901100", "GISJOIN": "G2500030901100", "calc_area": 836873.60004, "pct_tract": 0.10588}, "geometry": {"type": "MultiPolygon", "coordinates": [[[[-73.2288, 42.46117], [-73.22803, 42.46149], [-73.21673, 42.46618], [-73.21455, 42.46317], [-73.213085, 42.461139], [-73.213782, 42.460868], [-73.214381, 42.460561], [-73.214711, 42.460397], [-73.215202, 42.460138], [-73.215844, 42.459877], [-73.216512, 42.459596], [-73.217013, 42.459401], [-73.217326, 42.459273], [-73.218156, 42.459004], [-73.218345, 42.458955], [-73.218209, 42.458763], [-73.217982, 42.458475], [-73.217944, 42.458421], [-73.218568, 42.458178], [-73.218636, 42.458164], [-73.218853, 42.45808], [-73.21931, 42.457891], [-73.21941, 42.457851], [-73.22301, 42.45645], [-73.222992, 42.456421], [-73.223517, 42.456196], [-73.224167, 42.455939], [-73.224624, 42.455747], [-73.225122, 42.455544], [-73.225307, 42.4555], [-73.225395, 42.455491], [-73.225932, 42.455434], [-73.226378, 42.455405], [-73.226769, 42.455399], [-73.227149, 42.455932], [-73.227517, 42.456371], [-73.227574, 42.456444], [-73.227622, 42.456535], [-73.227736, 42.456881], [-73.227887, 42.457405], [-73.228021, 42.457735], [-73.22805, 42.457839], [-73.228094, 42.458098], [-73.228164, 42.458513], [-73.228373, 42.459242], [-73.228549, 42.459673], [-73.228988, 42.46084], [-73.22914, 42.461221], [-73.2288, 42.46117]]]]}}, {"type": "Feature", "properties": {"area_id": 11113, "city": "Pittsfield", "state": "MA", "city_survey": true, "cat": "Still Desirable", "grade": "B", "label": "B7", "res": true, "com": false, "ind": false, "fill": "#7cb5bd", "GEOID10": "25003900300", "GISJOIN": "G2500030900300", "calc_area": 189406.87321, "pct_tract": 0.06839}, "geometry": {"type": "MultiPolygon", "coordinates": [[[[-73.23816, 42.46086], [-73.23688, 42.46017], [-73.23617, 42.46228], [-73.22914, 42.461221], [-73.228988, 42.46084], [-73.228549, 42.459673], [-73.228853, 42.459603], [-73.229457, 42.459504], [-73.229892, 42.45943], [-73.23087, 42.45926], [-73.23125, 42.459195], [-73.231857, 42.459099], [-73.232096, 42.459059], [-73.232427, 42.459021], [-73.23264, 42.459013], [-73.232734, 42.459014], [-73.233003, 42.459048], [-73.233132, 42.459065], [-73.233342, 42.459087], [-73.233908, 42.459148], [-73.234418, 42.459196], [-73.234844, 42.45924], [-73.23556, 42.459316], [-73.235783, 42.459346], [-73.236376, 42.459391], [-73.236757, 42.459407], [-73.236892, 42.459412], [-73.237005, 42.459423], [-73.23718, 42.459452], [-73.237372, 42.459515], [-73.237524, 42.459606], [-73.237607, 42.459669], [-73.237671, 42.459717], [-73.237792, 42.459823], [-73.237994, 42.459929], [-73.238139, 42.459986], [-73.238219, 42.460008], [-73.238395, 42.460057], [-73.23816, 42.46086]]]]}}, {"type": "Feature", "properties": {"area_id": 11113, "city": "Pittsfield", "state": "MA", "city_survey": true, "cat": "Still Desirable", "grade": "B", "label": "B7", "res": true, "com": false, "ind": false, "fill": "#7cb5bd", "GEOID10": "25003900200", "GISJOIN": "G2500030900200", "calc_area": 429176.72049, "pct_tract": 0.29597}, "geometry": {"type": "MultiPolygon", "coordinates": [[[[-73.23998, 42.45442], [-73.23918, 42.45737], [-73.238395, 42.460057], [-73.238219, 42.460008], [-73.238139, 42.459986], [-73.237994, 42.459929], [-73.237792, 42.459823], [-73.237671, 42.459717], [-73.237607, 42.459669], [-73.237524, 42.459606], [-73.237372, 42.459515], [-73.23718, 42.459452], [-73.237005, 42.459423], [-73.236892, 42.459412], [-73.236757, 42.459407], [-73.236376, 42.459391], [-73.235783, 42.459346], [-73.23556, 42.459316], [-73.234844, 42.45924], [-73.234418, 42.459196], [-73.233908, 42.459148], [-73.233342, 42.459087], [-73.233132, 42.459065], [-73.233003, 42.459048], [-73.232734, 42.459014], [-73.23264, 42.459013], [-73.232427, 42.459021], [-73.232096, 42.459059], [-73.231857, 42.459099], [-73.23125, 42.459195], [-73.23087, 42.45926], [-73.229892, 42.45943], [-73.229457, 42.459504], [-73.228853, 42.459603], [-73.228549, 42.459673], [-73.228373, 42.459242], [-73.228164, 42.458513], [-73.228094, 42.458098], [-73.22805, 42.457839], [-73.228021, 42.457735], [-73.227887, 42.457405], [-73.227736, 42.456881], [-73.227622, 42.456535], [-73.227574, 42.456444], [-73.227517, 42.456371], [-73.227149, 42.455932], [-73.226769, 42.455399], [-73.227107, 42.45541], [-73.228428, 42.455566], [-73.228744, 42.455594], [-73.229307, 42.455645], [-73.230168, 42.45574], [-73.231428, 42.45589], [-73.232387, 42.456043], [-73.233187, 42.456163], [-73.233715, 42.456251], [-73.233744, 42.456256], [-73.234013, 42.456265], [-73.234189, 42.45562], [-73.234272, 42.455234], [-73.234282, 42.455093], [-73.234288, 42.454873], [-73.234431, 42.45443], [-73.234508, 42.454394], [-73.234611, 42.454382], [-73.235438, 42.454396], [-73.236622, 42.454428], [-73.236794, 42.454439], [-73.23692, 42.454455], [-73.237181, 42.454488], [-73.237788, 42.454579], [-73.237918, 42.454589], [-73.238094, 42.454587], [-73.238293, 42.454568], [-73.238348, 42.454559], [-73.238428, 42.454545], [-73.238701, 42.454553], [-73.23904, 42.454602], [-73.239706, 42.454708], [-73.239764, 42.454526], [-73.239805, 42.454414], [-73.23998, 42.45442]]]]}}, {"type": "Feature", "properties": {"area_id": 11116, "city": "Pittsfield", "state": "MA", "city_survey": true, "cat": "Definitely Declining", "grade": "C", "label": "C10", "res": true, "com": false, "ind": false, "fill": "#ffff00", "GEOID10": "25003900600", "GISJOIN": "G2500030900600", "calc_area": 1065006.01407, "pct_tract": 0.48675}, "geometry": {"type": "MultiPolygon", "coordinates": [[[[-73.26264, 42.46466], [-73.26113, 42.46398], [-73.26187, 42.45959], [-73.2614, 42.45734], [-73.2593, 42.45703], [-73.25907, 42.45823], [-73.25588, 42.45788], [-73.25476, 42.46143], [-73.25468, 42.46336], [-73.25387, 42.4632], [-73.25181, 42.46281], [-73.25104, 42.46092], [-73.251662, 42.459627], [-73.251906, 42.459184], [-73.252841, 42.459335], [-73.2535, 42.459437], [-73.253643, 42.459434], [-73.253734, 42.459409], [-73.253817, 42.459227], [-73.25388, 42.459028], [-73.253915, 42.458835], [-73.253942, 42.458772], [-73.25452, 42.458861], [-73.254947, 42.458931], [-73.255123, 42.458987], [-73.255183, 42.459], [-73.255377, 42.458347], [-73.255443, 42.458153], [-73.255607, 42.457544], [-73.255659, 42.457296], [-73.255802, 42.456866], [-73.255907, 42.456457], [-73.255965, 42.456251], [-73.25632, 42.45631], [-73.25727, 42.45298], [-73.25749, 42.45213], [-73.26071, 42.45259], [-73.2629, 42.45281], [-73.26357, 42.45006], [-73.26481, 42.45027], [-73.26428, 42.45178], [-73.26383, 42.45442], [-73.264046, 42.454446], [-73.263976, 42.454725], [-73.26387, 42.455018], [-73.263812, 42.45516], [-73.264484, 42.455244], [-73.264662, 42.455272], [-73.265238, 42.455364], [-73.265696, 42.455425], [-73.266359, 42.45553], [-73.266806, 42.455593], [-73.266558, 42.456504], [-73.266467, 42.456815], [-73.266427, 42.456899], [-73.266357, 42.456952], [-73.266317, 42.456974], [-73.266195, 42.457554], [-73.266151, 42.457624], [-73.266099, 42.457672], [-73.26546, 42.457565], [-73.26491, 42.457482], [-73.264657, 42.458452], [-73.264535, 42.458924], [-73.26433, 42.459657], [-73.263883, 42.459588], [-73.263573, 42.459533], [-73.263553, 42.459814], [-73.263478, 42.460471], [-73.264283, 42.460599], [-73.264902, 42.460689], [-73.26552, 42.460773], [-73.265774, 42.460813], [-73.26687, 42.460968], [-73.266686, 42.4617], [-73.266523, 42.462312], [-73.266404, 42.462711], [-73.266924, 42.462788], [-73.267246, 42.462837], [-73.268464, 42.46301], [-73.268939, 42.463082], [-73.269708, 42.463184], [-73.270092, 42.463245], [-73.27065, 42.463331], [-73.271111, 42.463396], [-73.271782, 42.463485], [-73.271942, 42.463507], [-73.272341, 42.463563], [-73.27233, 42.46361], [-73.272073, 42.465163], [-73.271758, 42.465392], [-73.271474, 42.465641], [-73.271243, 42.465883], [-73.270988, 42.466222], [-73.270771, 42.466602], [-73.27073, 42.466718], [-73.26864, 42.46644], [-73.268384, 42.467247], [-73.267924, 42.467207], [-73.26704, 42.467065], [-73.266388, 42.466949], [-73.264587, 42.466671], [-73.263674, 42.466518], [-73.262832, 42.466402], [-73.262301, 42.466305], [-73.262135, 42.466249], [-73.26264, 42.46466]]]]}}, {"type": "Feature", "properties": {"area_id": 11116, "city": "Pittsfield", "state": "MA", "city_survey": true, "cat": "Definitely Declining", "grade": "C", "label": "C10", "res": true, "com": false, "ind": false, "fill": "#ffff00", "GEOID10": "25003900500", "GISJOIN": "G2500030900500", "calc_area": 579814.21159, "pct_tract": 0.01875}, "geometry": {"type": "MultiPolygon", "coordinates": [[[[-73.27427, 42.45569], [-73.27329, 42.45954], [-73.272341, 42.463563], [-73.271942, 42.463507], [-73.271782, 42.463485], [-73.271111, 42.463396], [-73.27065, 42.463331], [-73.270092, 42.463245], [-73.269708, 42.463184], [-73.268939, 42.463082], [-73.268464, 42.46301], [-73.267246, 42.462837], [-73.266924, 42.462788], [-73.266404, 42.462711], [-73.266523, 42.462312], [-73.266686, 42.4617], [-73.26687, 42.460968], [-73.265774, 42.460813], [-73.26552, 42.460773], [-73.264902, 42.460689], [-73.264283, 42.460599], [-73.263478, 42.460471], [-73.263553, 42.459814], [-73.263573, 42.459533], [-73.263883, 42.459588], [-73.26433, 42.459657], [-73.264535, 42.458924], [-73.264657, 42.458452], [-73.26491, 42.457482], [-73.26546, 42.457565], [-73.266099, 42.457672], [-73.266151, 42.457624], [-73.266195, 42.457554], [-73.266317, 42.456974], [-73.266357, 42.456952], [-73.266427, 42.456899], [-73.266467, 42.456815], [-73.266558, 42.456504], [-73.266806, 42.455593], [-73.266359, 42.45553], [-73.265696, 42.455425], [-73.265238, 42.455364], [-73.264662, 42.455272], [-73.264484, 42.455244], [-73.263812, 42.45516], [-73.26387, 42.455018], [-73.263976, 42.454725], [-73.264046, 42.454446], [-73.27427, 42.45569]]]]}}, {"type": "Feature", "properties": {"area_id": 11116, "city": "Pittsfield", "state": "MA", "city_survey": true, "cat": "Definitely Declining", "grade": "C", "label": "C10", "res": true, "com": false, "ind": false, "fill": "#ffff00", "GEOID10": "25003900400", "GISJOIN": "G2500030900400", "calc_area": 127093.35405, "pct_tract": 0.00924}, "geometry": {"type": "MultiPolygon", "coordinates": [[[[-73.26778, 42.46915], [-73.26148, 42.46831], [-73.262135, 42.466249], [-73.262301, 42.466305], [-73.262832, 42.466402], [-73.263674, 42.466518], [-73.264587, 42.466671], [-73.266388, 42.466949], [-73.26704, 42.467065], [-73.267924, 42.467207], [-73.268384, 42.467247], [-73.26778, 42.46915]]], [[[-73.27193, 42.46603], [-73.27165, 42.46684], [-73.27073, 42.466718], [-73.270771, 42.466602], [-73.270988, 42.466222], [-73.271243, 42.465883], [-73.271474, 42.465641], [-73.271758, 42.465392], [-73.272073, 42.465163], [-73.27193, 42.46603]]]]}}, {"type": "Feature", "properties": {"area_id": 11116, "city": "Pittsfield", "state": "MA", "city_survey": true, "cat": "Definitely Declining", "grade": "C", "label": "C10", "res": true, "com": false, "ind": false, "fill": "#ffff00", "GEOID10": "25003900100", "GISJOIN": "G2500030900100", "calc_area": 78515.36089, "pct_tract": 0.0621}, "geometry": {"type": "MultiPolygon", "coordinates": [[[[-73.25233, 42.45824], [-73.25391, 42.45591], [-73.255965, 42.456251], [-73.255907, 42.456457], [-73.255802, 42.456866], [-73.255659, 42.457296], [-73.255607, 42.457544], [-73.255443, 42.458153], [-73.255377, 42.458347], [-73.255183, 42.459], [-73.255123, 42.458987], [-73.254947, 42.458931], [-73.25452, 42.458861], [-73.253942, 42.458772], [-73.253915, 42.458835], [-73.25388, 42.459028], [-73.253817, 42.459227], [-73.253734, 42.459409], [-73.253643, 42.459434], [-73.2535, 42.459437], [-73.252841, 42.459335], [-73.251906, 42.459184], [-73.251662, 42.459627], [-73.25233, 42.45824]]]]}}, {"type": "Feature", "properties": {"area_id": 11118, "city": "Pittsfield", "state": "MA", "city_survey": true, "cat": "Definitely Declining", "grade": "C", "label": "C11", "res": true, "com": false, "ind": false, "fill": "#ffff00", "GEOID10": "25003900500", "GISJOIN": "G2500030900500", "calc_area": 125560.51978, "pct_tract": 0.00406}, "geometry": {"type": "MultiPolygon", "coordinates": [[[[-73.27018, 42.47657], [-73.27093, 42.47871], [-73.27177, 42.47908], [-73.27279, 42.48051], [-73.27338, 42.48047], [-73.27398, 42.47976], [-73.27476, 42.48135], [-73.27482, 42.48181], [-73.273884, 42.483779], [-73.273854, 42.483684], [-73.273714, 42.483389], [-73.273557, 42.483137], [-73.27352, 42.483079], [-73.273229, 42.482709], [-73.272628, 42.481939], [-73.272339, 42.481542], [-73.272134, 42.481297], [-73.271573, 42.480582], [-73.271171, 42.480052], [-73.270801, 42.479647], [-73.270602, 42.479485], [-73.270517, 42.479417], [-73.270366, 42.479309], [-73.270118, 42.479133], [-73.269906, 42.478983], [-73.269687, 42.478849], [-73.269519, 42.478744], [-73.269224, 42.478561], [-73.268965, 42.478393], [-73.268561, 42.478132], [-73.26812, 42.47785], [-73.267866, 42.477691], [-73.267695, 42.477567], [-73.267601, 42.4775], [-73.267842, 42.477195], [-73.267912, 42.477092], [-73.267939, 42.477052], [-73.268106, 42.476874], [-73.268222, 42.476761], [-73.268679, 42.47646], [-73.269047, 42.476179], [-73.26914, 42.476102], [-73.269172, 42.476075], [-73.27018, 42.47657]]]]}}, {"type": "Feature", "properties": {"area_id": 11118, "city": "Pittsfield", "state": "MA", "city_survey": true, "cat": "Definitely Declining", "grade": "C", "label": "C11", "res": true, "com": false, "ind": false, "fill": "#ffff00", "GEOID10": "25003900400", "GISJOIN": "G2500030900400", "calc_area": 3130323.75004, "pct_tract": 0.22764}, "geometry": {"type": "MultiPolygon", "coordinates": [[[[-73.27385, 42.48385], [-73.2737, 42.4866], [-73.27363, 42.48977], [-73.27188, 42.49643], [-73.25552, 42.49395], [-73.25585, 42.4928], [-73.25665, 42.49225], [-73.25739, 42.49093], [-73.25758, 42.4896], [-73.25674, 42.48926], [-73.25604, 42.48887], [-73.2544, 42.48883], [-73.25333, 42.48768], [-73.25265, 42.4875], [-73.25202, 42.48687], [-73.2495, 42.48639], [-73.24841, 42.48567], [-73.24682, 42.48443], [-73.24663, 42.48399], [-73.25436, 42.48319], [-73.25714, 42.4836], [-73.26004, 42.47236], [-73.26125, 42.47216], [-73.26215, 42.47295], [-73.263, 42.47347], [-73.26327, 42.47406], [-73.26409, 42.47384], [-73.26592, 42.47482], [-73.26611, 42.47583], [-73.2667, 42.47617], [-73.26853, 42.47576], [-73.269172, 42.476075], [-73.26914, 42.476102], [-73.269047, 42.476179], [-73.268679, 42.47646], [-73.268222, 42.476761], [-73.268106, 42.476874], [-73.267939, 42.477052], [-73.267912, 42.477092], [-73.267842, 42.477195], [-73.267601, 42.4775], [-73.267695, 42.477567], [-73.267866, 42.477691], [-73.26812, 42.47785], [-73.268561, 42.478132], [-73.268965, 42.478393], [-73.269224, 42.478561], [-73.269519, 42.478744], [-73.269687, 42.478849], [-73.269906, 42.478983], [-73.270118, 42.479133], [-73.270366, 42.479309], [-73.270517, 42.479417], [-73.270602, 42.479485], [-73.270801, 42.479647], [-73.271171, 42.480052], [-73.271573, 42.480582], [-73.272134, 42.481297], [-73.272339, 42.481542], [-73.272628, 42.481939], [-73.273229, 42.482709], [-73.27352, 42.483079], [-73.273557, 42.483137], [-73.273714, 42.483389], [-73.273854, 42.483684], [-73.273884, 42.483779], [-73.27385, 42.48385]]]]}}, {"type": "Feature", "properties": {"area_id": 11117, "city": "Pittsfield", "state": "MA", "city_survey": true, "cat": "Definitely Declining", "grade": "C", "label": "C12", "res": true, "com": false, "ind": false, "fill": "#ffff00", "GEOID10": "25003901100", "GISJOIN": "G2500030901100", "calc_area": 118530.736, "pct_tract": 0.015}, "geometry": {"type": "MultiPolygon", "coordinates": [[[[-73.22843, 42.46933], [-73.22854, 42.46672], [-73.22803, 42.46149], [-73.2288, 42.46117], [-73.22914, 42.461221], [-73.229202, 42.461378], [-73.229301, 42.461704], [-73.229325, 42.461817], [-73.229339, 42.46196], [-73.22934, 42.462093], [-73.229334, 42.462208], [-73.229258, 42.462881], [-73.229245, 42.463397], [-73.229312, 42.463971], [-73.229363, 42.464492], [-73.229372, 42.464961], [-73.229369, 42.465291], [-73.229364, 42.465888], [-73.229326, 42.467185], [-73.229314, 42.467607], [-73.229302, 42.469627], [-73.229307, 42.472017], [-73.229308, 42.472322], [-73.229357, 42.472914], [-73.229659, 42.474195], [-73.2298, 42.474769], [-73.229926, 42.475356], [-73.229493, 42.475453], [-73.229108, 42.47551], [-73.228807, 42.475537], [-73.22843, 42.46933]]]]}}, {"type": "Feature", "properties": {"area_id": 11117, "city": "Pittsfield", "state": "MA", "city_survey": true, "cat": "Definitely Declining", "grade": "C", "label": "C12", "res": true, "com": false, "ind": false, "fill": "#ffff00", "GEOID10": "25003900600", "GISJOIN": "G2500030900600", "calc_area": 14917.3997, "pct_tract": 0.00682}, "geometry": {"type": "MultiPolygon", "coordinates": [[[[-73.25181, 42.46281], [-73.25387, 42.4632], [-73.25319, 42.46431], [-73.253209, 42.464448], [-73.253176, 42.464445], [-73.252956, 42.464477], [-73.252915, 42.464416], [-73.252881, 42.464367], [-73.252817, 42.464273], [-73.252755, 42.464183], [-73.252645, 42.464036], [-73.252404, 42.463715], [-73.251987, 42.463139], [-73.251813, 42.462962], [-73.25181, 42.46281]]]]}}, {"type": "Feature", "properties": {"area_id": 11117, "city": "Pittsfield", "state": "MA", "city_survey": true, "cat": "Definitely Declining", "grade": "C", "label": "C12", "res": true, "com": false, "ind": false, "fill": "#ffff00", "GEOID10": "25003900400", "GISJOIN": "G2500030900400", "calc_area": 3621811.94828, "pct_tract": 0.26338}, "geometry": {"type": "MultiPolygon", "coordinates": [[[[-73.25324, 42.46468], [-73.25576, 42.46544], [-73.25584, 42.46686], [-73.25712, 42.46755], [-73.25819, 42.46966], [-73.25807, 42.47039], [-73.25895, 42.47133], [-73.25941, 42.47162], [-73.26004, 42.47236], [-73.25714, 42.4836], [-73.25436, 42.48319], [-73.24663, 42.48399], [-73.24682, 42.48443], [-73.24841, 42.48567], [-73.24855, 42.48706], [-73.2482, 42.48777], [-73.24593, 42.49026], [-73.24343, 42.4924], [-73.23618, 42.49128], [-73.2358, 42.48042], [-73.22882, 42.47575], [-73.228807, 42.475537], [-73.229108, 42.47551], [-73.229493, 42.475453], [-73.229926, 42.475356], [-73.230078, 42.475322], [-73.231542, 42.475033], [-73.232413, 42.474874], [-73.234438, 42.474485], [-73.234852, 42.474407], [-73.236999, 42.473982], [-73.23734, 42.473914], [-73.237687, 42.47386], [-73.237946, 42.473862], [-73.238071, 42.473866], [-73.238422, 42.473906], [-73.238465, 42.473913], [-73.23841, 42.47413], [-73.24404, 42.47489], [-73.244315, 42.474752], [-73.244503, 42.475358], [-73.244575, 42.475594], [-73.244615, 42.47576], [-73.244658, 42.475913], [-73.244712, 42.476109], [-73.244894, 42.475768], [-73.244913, 42.475719], [-73.244963, 42.475566], [-73.24507, 42.475222], [-73.245231, 42.474914], [-73.245541, 42.474593], [-73.245881, 42.474347], [-73.246113, 42.474187], [-73.246178, 42.474142], [-73.246385, 42.474023], [-73.246393, 42.474018], [-73.246697, 42.473781], [-73.247108, 42.473461], [-73.247585, 42.472987], [-73.247764, 42.472809], [-73.248139, 42.47236], [-73.248409, 42.471936], [-73.248672, 42.471382], [-73.249096, 42.470411], [-73.249285, 42.469936], [-73.249463, 42.469526], [-73.249598, 42.469231], [-73.249735, 42.468971], [-73.249865, 42.468763], [-73.250088, 42.468537], [-73.250499, 42.468179], [-73.250781, 42.467942], [-73.251722, 42.467128], [-73.251797, 42.467062], [-73.252093, 42.466818], [-73.252278, 42.466666], [-73.252559, 42.466441], [-73.252611, 42.466378], [-73.252731, 42.466235], [-73.252736, 42.46622], [-73.252824, 42.465958], [-73.252938, 42.465398], [-73.253027, 42.464925], [-73.253046, 42.464682], [-73.252992, 42.46453], [-73.252956, 42.464477], [-73.253176, 42.464445], [-73.253209, 42.464448], [-73.25324, 42.46468]]]]}}, {"type": "Feature", "properties": {"area_id": 11117, "city": "Pittsfield", "state": "MA", "city_survey": true, "cat": "Definitely Declining", "grade": "C", "label": "C12", "res": true, "com": false, "ind": false, "fill": "#ffff00", "GEOID10": "25003900300", "GISJOIN": "G2500030900300", "calc_area": 1776382.94046, "pct_tract": 0.64141}, "geometry": {"type": "MultiPolygon", "coordinates": [[[[-73.24593, 42.47394], [-73.24731, 42.47185], [-73.24929, 42.46635], [-73.25116, 42.46663], [-73.25184, 42.46419], [-73.251813, 42.462962], [-73.251987, 42.463139], [-73.252404, 42.463715], [-73.252645, 42.464036], [-73.252755, 42.464183], [-73.252817, 42.464273], [-73.252881, 42.464367], [-73.252915, 42.464416], [-73.252956, 42.464477], [-73.252992, 42.46453], [-73.253046, 42.464682], [-73.253027, 42.464925], [-73.252938, 42.465398], [-73.252824, 42.465958], [-73.252736, 42.46622], [-73.252731, 42.466235], [-73.252611, 42.466378], [-73.252559, 42.466441], [-73.252278, 42.466666], [-73.252093, 42.466818], [-73.251797, 42.467062], [-73.251722, 42.467128], [-73.250781, 42.467942], [-73.250499, 42.468179], [-73.250088, 42.468537], [-73.249865, 42.468763], [-73.249735, 42.468971], [-73.249598, 42.469231], [-73.249463, 42.469526], [-73.249285, 42.469936], [-73.249096, 42.470411], [-73.248672, 42.471382], [-73.248409, 42.471936], [-73.248139, 42.47236], [-73.247764, 42.472809], [-73.247585, 42.472987], [-73.247108, 42.473461], [-73.246697, 42.473781], [-73.246393, 42.474018], [-73.246385, 42.474023], [-73.246178, 42.474142], [-73.246113, 42.474187], [-73.245881, 42.474347], [-73.245541, 42.474593], [-73.245231, 42.474914], [-73.24507, 42.475222], [-73.244963, 42.475566], [-73.244913, 42.475719], [-73.244894, 42.475768], [-73.244712, 42.476109], [-73.244658, 42.475913], [-73.244615, 42.47576], [-73.244575, 42.475594], [-73.244503, 42.475358], [-73.244315, 42.474752], [-73.24593, 42.47394]]], [[[-73.23617, 42.46228], [-73.23688, 42.46017], [-73.23816, 42.46086], [-73.24033, 42.46176], [-73.24028, 42.46234], [-73.24199, 42.46276], [-73.24539, 42.46334], [-73.24278, 42.47302], [-73.23883, 42.47248], [-73.238465, 42.473913], [-73.238422, 42.473906], [-73.238071, 42.473866], [-73.237946, 42.473862], [-73.237687, 42.47386], [-73.23734, 42.473914], [-73.236999, 42.473982], [-73.234852, 42.474407], [-73.234438, 42.474485], [-73.232413, 42.474874], [-73.231542, 42.475033], [-73.230078, 42.475322], [-73.229926, 42.475356], [-73.2298, 42.474769], [-73.229659, 42.474195], [-73.229357, 42.472914], [-73.229308, 42.472322], [-73.229307, 42.472017], [-73.229302, 42.469627], [-73.229314, 42.467607], [-73.229326, 42.467185], [-73.229364, 42.465888], [-73.229369, 42.465291], [-73.229372, 42.464961], [-73.229363, 42.464492], [-73.229312, 42.463971], [-73.229245, 42.463397], [-73.229258, 42.462881], [-73.229334, 42.462208], [-73.22934, 42.462093], [-73.229339, 42.46196], [-73.229325, 42.461817], [-73.229301, 42.461704], [-73.229202, 42.461378], [-73.22914, 42.461221], [-73.23617, 42.46228]]]]}}, {"type": "Feature", "properties": {"area_id": 11119, "city": "Pittsfield", "state": "MA", "city_survey": true, "cat": "Definitely Declining", "grade": "C", "label": "C13", "res": true, "com": false, "ind": false, "fill": "#ffff00", "GEOID10": "25003935200", "GISJOIN": "G2500030935200", "calc_area": 1187738.71728, "pct_tract": 0.10173}, "geometry": {"type": "MultiPolygon", "coordinates": [[[[-73.24033, 42.45222], [-73.240492, 42.452071], [-73.240658, 42.451963], [-73.240932, 42.451826], [-73.241075, 42.451771], [-73.241234, 42.451733], [-73.24141, 42.451705], [-73.241569, 42.451692], [-73.241805, 42.45169], [-73.242303, 42.451705], [-73.242396, 42.451746], [-73.242344, 42.451915], [-73.24215, 42.452649], [-73.241985, 42.453229], [-73.241955, 42.453336], [-73.241726, 42.454186], [-73.241664, 42.454436], [-73.24161, 42.454575], [-73.241081, 42.45451], [-73.240066, 42.454346], [-73.239993, 42.454338], [-73.24033, 42.45222]]], [[[-73.24329, 42.44468], [-73.24376, 42.44524], [-73.244839, 42.446862], [-73.244803, 42.446897], [-73.244623, 42.446996], [-73.244226, 42.447178], [-73.243481, 42.447565], [-73.242628, 42.447931], [-73.242114, 42.448165], [-73.241802, 42.448311], [-73.241489, 42.448456], [-73.241241, 42.44857], [-73.241055, 42.448654], [-73.240639, 42.44884], [-73.239869, 42.449188], [-73.239288, 42.449452], [-73.239087, 42.449542], [-73.23846, 42.44874], [-73.23755, 42.44823], [-73.2376, 42.44882], [-73.23641, 42.4487], [-73.23382, 42.44949], [-73.23188, 42.44943], [-73.23235, 42.4501], [-73.23247, 42.45127], [-73.23067, 42.4516], [-73.22959, 42.45125], [-73.2291, 42.45082], [-73.22861, 42.45125], [-73.22724, 42.45134], [-73.22712, 42.45045], [-73.22408, 42.44985], [-73.22381, 42.44865], [-73.22093, 42.4463], [-73.22161, 42.44251], [-73.22502, 42.44322], [-73.22841, 42.4447], [-73.2317, 42.4455], [-73.23226, 42.44309], [-73.238164, 42.443941], [-73.238383, 42.443983], [-73.239167, 42.444136], [-73.239561, 42.444202], [-73.239983, 42.444244], [-73.240524, 42.444281], [-73.24329, 42.44468]]]]}}, {"type": "Feature", "properties": {"area_id": 11119, "city": "Pittsfield", "state": "MA", "city_survey": true, "cat": "Definitely Declining", "grade": "C", "label": "C13", "res": true, "com": false, "ind": false, "fill": "#ffff00", "GEOID10": "25003900900", "GISJOIN": "G2500030900900", "calc_area": 719.58183, "pct_tract": 0.00017}, "geometry": {"type": "MultiPolygon", "coordinates": [[[[-73.240524, 42.444281], [-73.239983, 42.444244], [-73.239561, 42.444202], [-73.239167, 42.444136], [-73.238383, 42.443983], [-73.238164, 42.443941], [-73.240524, 42.444281]]]]}}, {"type": "Feature", "properties": {"area_id": 11119, "city": "Pittsfield", "state": "MA", "city_survey": true, "cat": "Definitely Declining", "grade": "C", "label": "C13", "res": true, "com": false, "ind": false, "fill": "#ffff00", "GEOID10": "25003900200", "GISJOIN": "G2500030900200", "calc_area": 473238.06198, "pct_tract": 0.32635}, "geometry": {"type": "MultiPolygon", "coordinates": [[[[-73.24084, 42.45175], [-73.24255, 42.45147], [-73.24365, 42.45086], [-73.24397, 42.45031], [-73.24364, 42.44987], [-73.24253, 42.44978], [-73.24208, 42.44935], [-73.24138, 42.44925], [-73.23946, 42.45002], [-73.239087, 42.449542], [-73.239288, 42.449452], [-73.239869, 42.449188], [-73.240639, 42.44884], [-73.241055, 42.448654], [-73.241241, 42.44857], [-73.241489, 42.448456], [-73.241802, 42.448311], [-73.242114, 42.448165], [-73.242628, 42.447931], [-73.243481, 42.447565], [-73.244226, 42.447178], [-73.244623, 42.446996], [-73.244803, 42.446897], [-73.244839, 42.446862], [-73.24549, 42.44784], [-73.24728, 42.44816], [-73.24705, 42.45068], [-73.24588, 42.45448], [-73.24586, 42.455], [-73.24505, 42.45818], [-73.23918, 42.45737], [-73.23998, 42.45442], [-73.239993, 42.454338], [-73.240066, 42.454346], [-73.241081, 42.45451], [-73.24161, 42.454575], [-73.241664, 42.454436], [-73.241726, 42.454186], [-73.241955, 42.453336], [-73.241985, 42.453229], [-73.24215, 42.452649], [-73.242344, 42.451915], [-73.242396, 42.451746], [-73.242303, 42.451705], [-73.241805, 42.45169], [-73.241569, 42.451692], [-73.24141, 42.451705], [-73.241234, 42.451733], [-73.241075, 42.451771], [-73.240932, 42.451826], [-73.240658, 42.451963], [-73.240492, 42.452071], [-73.24084, 42.45175]]]]}}, {"type": "Feature", "properties": {"area_id": 11120, "city": "Pittsfield", "state": "MA", "city_survey": true, "cat": "Definitely Declining", "grade": "C", "label": "C14", "res": true, "com": false, "ind": false, "fill": "#ffff00", "GEOID10": "25003935200", "GISJOIN": "G2500030935200", "calc_area": 392244.47899, "pct_tract": 0.0336}, "geometry": {"type": "MultiPolygon", "coordinates": [[[[-73.21375, 42.45435], [-73.21347, 42.45542], [-73.21365, 42.45641], [-73.2109, 42.45863], [-73.20838, 42.46117], [-73.20733, 42.45955], [-73.20843, 42.45631], [-73.2095, 42.4526], [-73.21052, 42.45011], [-73.21171, 42.45052], [-73.21505, 42.45296], [-73.21767, 42.45389], [-73.21375, 42.45435]]]]}}, {"type": "Feature", "properties": {"area_id": 11114, "city": "Pittsfield", "state": "MA", "city_survey": true, "cat": "Definitely Declining", "grade": "C", "label": "C8", "res": true, "com": false, "ind": false, "fill": "#ffff00", "GEOID10": "25003900900", "GISJOIN": "G2500030900900", "calc_area": 175720.5582, "pct_tract": 0.04193}, "geometry": {"type": "MultiPolygon", "coordinates": [[[[-73.26386, 42.43293], [-73.26451, 42.43034], [-73.26619, 42.43021], [-73.26866, 42.43083], [-73.26832, 42.43272], [-73.26752, 42.43513], [-73.26347, 42.43463], [-73.26386, 42.43293]]]]}}, {"type": "Feature", "properties": {"area_id": 11115, "city": "Pittsfield", "state": "MA", "city_survey": true, "cat": "Definitely Declining", "grade": "C", "label": "C9", "res": true, "com": false, "ind": false, "fill": "#ffff00", "GEOID10": "25003900900", "GISJOIN": "G2500030900900", "calc_area": 57255.55795, "pct_tract": 0.01366}, "geometry": {"type": "MultiPolygon", "coordinates": [[[[-73.28174, 42.43513], [-73.281946, 42.435034], [-73.281704, 42.435216], [-73.281207, 42.435582], [-73.28174, 42.43513]]], [[[-73.26862, 42.43969], [-73.272838, 42.440084], [-73.272748, 42.440129], [-73.27255, 42.440238], [-73.27251, 42.440262], [-73.272463, 42.440205], [-73.272322, 42.4401], [-73.272077, 42.4401], [-73.270395, 42.440286], [-73.269943, 42.440297], [-73.269173, 42.440066], [-73.269084, 42.440022], [-73.268559, 42.439881], [-73.26862, 42.43969]]], [[[-73.25854, 42.44503], [-73.26002, 42.44023], [-73.260667, 42.440367], [-73.260547, 42.440403], [-73.26028, 42.440578], [-73.260154, 42.44077], [-73.260131, 42.440941], [-73.260168, 42.441155], [-73.260412, 42.441671], [-73.260531, 42.442071], [-73.260618, 42.443273], [-73.260803, 42.443817], [-73.260833, 42.443873], [-73.260747, 42.443919], [-73.260462, 42.444072], [-73.260325, 42.444149], [-73.258413, 42.445239], [-73.258253, 42.445312], [-73.258083, 42.445371], [-73.258002, 42.445386], [-73.257941, 42.445398], [-73.257872, 42.445191], [-73.25854, 42.44503]]]]}}, {"type": "Feature", "properties": {"area_id": 11115, "city": "Pittsfield", "state": "MA", "city_survey": true, "cat": "Definitely Declining", "grade": "C", "label": "C9", "res": true, "com": false, "ind": false, "fill": "#ffff00", "GEOID10": "25003900700", "GISJOIN": "G2500030900700", "calc_area": 2178315.2456, "pct_tract": 0.28944}, "geometry": {"type": "MultiPolygon", "coordinates": [[[[-73.2717, 42.44506], [-73.26967, 42.44531], [-73.269214, 42.445454], [-73.268965, 42.445512], [-73.268566, 42.445597], [-73.268327, 42.445645], [-73.268143, 42.445705], [-73.267206, 42.446007], [-73.267415, 42.445231], [-73.267473, 42.445077], [-73.267672, 42.444611], [-73.267765, 42.444255], [-73.267852, 42.443877], [-73.26799, 42.443357], [-73.268049, 42.443176], [-73.267702, 42.443071], [-73.267434, 42.442977], [-73.267224, 42.442925], [-73.267222, 42.442934], [-73.26701, 42.442897], [-73.266551, 42.442847], [-73.266526, 42.442844], [-73.266235, 42.442813], [-73.265607, 42.442744], [-73.264939, 42.442667], [-73.264578, 42.442628], [-73.264245, 42.442625], [-73.263994, 42.442647], [-73.263642, 42.442699], [-73.263373, 42.442745], [-73.26315, 42.442779], [-73.262854, 42.442842], [-73.262714, 42.44289], [-73.262511, 42.442974], [-73.261652, 42.443429], [-73.261136, 42.443711], [-73.260953, 42.443809], [-73.260833, 42.443873], [-73.260803, 42.443817], [-73.260618, 42.443273], [-73.260531, 42.442071], [-73.260412, 42.441671], [-73.260168, 42.441155], [-73.260131, 42.440941], [-73.260154, 42.44077], [-73.26028, 42.440578], [-73.260547, 42.440403], [-73.260667, 42.440367], [-73.26338, 42.44094], [-73.26354, 42.44261], [-73.26475, 42.44245], [-73.26767, 42.44269], [-73.268559, 42.439881], [-73.269084, 42.440022], [-73.269173, 42.440066], [-73.269943, 42.440297], [-73.270395, 42.440286], [-73.272077, 42.4401], [-73.272322, 42.4401], [-73.272463, 42.440205], [-73.27251, 42.440262], [-73.27255, 42.440238], [-73.272748, 42.440129], [-73.272838, 42.440084], [-73.27322, 42.44012], [-73.27847, 42.43721], [-73.27989, 42.4367], [-73.281207, 42.435582], [-73.281704, 42.435216], [-73.281946, 42.435034], [-73.28626, 42.43303], [-73.29116, 42.43371], [-73.29592, 42.43473], [-73.29436, 42.44026], [-73.29369, 42.44291], [-73.29357, 42.443338], [-73.293092, 42.443453], [-73.292226, 42.443661], [-73.29127, 42.443878], [-73.289888, 42.444203], [-73.288742, 42.444473], [-73.287768, 42.444683], [-73.286951, 42.44483], [-73.286411, 42.444921], [-73.285602, 42.445041], [-73.284902, 42.44513], [-73.283957, 42.445232], [-73.283256, 42.445288], [-73.282977, 42.445303], [-73.282329, 42.445338], [-73.281288, 42.445371], [-73.281268, 42.44537], [-73.280063, 42.445344], [-73.278932, 42.445334], [-73.27743, 42.445246], [-73.275685, 42.445148], [-73.273076, 42.445102], [-73.272714, 42.445115], [-73.271679, 42.445156], [-73.2717, 42.44506]]]]}}, {"type": "Feature", "properties": {"area_id": 11115, "city": "Pittsfield", "state": "MA", "city_survey": true, "cat": "Definitely Declining", "grade": "C", "label": "C9", "res": true, "com": false, "ind": false, "fill": "#ffff00", "GEOID10": "25003900600", "GISJOIN": "G2500030900600", "calc_area": 340632.94785, "pct_tract": 0.15568}, "geometry": {"type": "MultiPolygon", "coordinates": [[[[-73.26654, 42.4463], [-73.2653, 42.45036], [-73.26481, 42.45027], [-73.26357, 42.45006], [-73.264, 42.44899], [-73.26451, 42.44873], [-73.26497, 42.44705], [-73.26089, 42.44624], [-73.2584, 42.44772], [-73.257712, 42.447635], [-73.257707, 42.447602], [-73.257686, 42.447381], [-73.257692, 42.447191], [-73.25775, 42.446874], [-73.257818, 42.446579], [-73.257892, 42.446136], [-73.257928, 42.445967], [-73.25795, 42.445803], [-73.257957, 42.445655], [-73.257941, 42.445398], [-73.258002, 42.445386], [-73.258083, 42.445371], [-73.258253, 42.445312], [-73.258413, 42.445239], [-73.260325, 42.444149], [-73.260462, 42.444072], [-73.260747, 42.443919], [-73.260833, 42.443873], [-73.260953, 42.443809], [-73.261136, 42.443711], [-73.261652, 42.443429], [-73.262511, 42.442974], [-73.262714, 42.44289], [-73.262854, 42.442842], [-73.26315, 42.442779], [-73.263373, 42.442745], [-73.263642, 42.442699], [-73.263994, 42.442647], [-73.264245, 42.442625], [-73.264578, 42.442628], [-73.264939, 42.442667], [-73.265607, 42.442744], [-73.266235, 42.442813], [-73.266526, 42.442844], [-73.266551, 42.442847], [-73.26701, 42.442897], [-73.267222, 42.442934], [-73.267224, 42.442925], [-73.267434, 42.442977], [-73.267702, 42.443071], [-73.268049, 42.443176], [-73.26799, 42.443357], [-73.267852, 42.443877], [-73.267765, 42.444255], [-73.267672, 42.444611], [-73.267473, 42.445077], [-73.267415, 42.445231], [-73.267206, 42.446007], [-73.267182, 42.446097], [-73.26654, 42.4463]]]]}}, {"type": "Feature", "properties": {"area_id": 11115, "city": "Pittsfield", "state": "MA", "city_survey": true, "cat": "Definitely Declining", "grade": "C", "label": "C9", "res": true, "com": false, "ind": false, "fill": "#ffff00", "GEOID10": "25003900500", "GISJOIN": "G2500030900500", "calc_area": 991657.17003, "pct_tract": 0.03206}, "geometry": {"type": "MultiPolygon", "coordinates": [[[[-73.267182, 42.446097], [-73.267206, 42.446007], [-73.268143, 42.445705], [-73.268327, 42.445645], [-73.268566, 42.445597], [-73.268965, 42.445512], [-73.269214, 42.445454], [-73.267182, 42.446097]]], [[[-73.2914, 42.45111], [-73.27943, 42.4498], [-73.2752, 42.44945], [-73.2709, 42.44863], [-73.271679, 42.445156], [-73.272714, 42.445115], [-73.273076, 42.445102], [-73.275685, 42.445148], [-73.27743, 42.445246], [-73.278932, 42.445334], [-73.280063, 42.445344], [-73.281268, 42.44537], [-73.281288, 42.445371], [-73.282329, 42.445338], [-73.282977, 42.445303], [-73.283256, 42.445288], [-73.283957, 42.445232], [-73.284902, 42.44513], [-73.285602, 42.445041], [-73.286411, 42.444921], [-73.286951, 42.44483], [-73.287768, 42.444683], [-73.288742, 42.444473], [-73.289888, 42.444203], [-73.29127, 42.443878], [-73.292226, 42.443661], [-73.293092, 42.443453], [-73.29357, 42.443338], [-73.2914, 42.45111]]]]}}, {"type": "Feature", "properties": {"area_id": 11115, "city": "Pittsfield", "state": "MA", "city_survey": true, "cat": "Definitely Declining", "grade": "C", "label": "C9", "res": true, "com": false, "ind": false, "fill": "#ffff00", "GEOID10": "25003900100", "GISJOIN": "G2500030900100", "calc_area": 60729.37076, "pct_tract": 0.04804}, "geometry": {"type": "MultiPolygon", "coordinates": [[[[-73.25678, 42.44752], [-73.25653, 42.44832], [-73.25478, 42.44801], [-73.25583, 42.44526], [-73.25709, 42.44538], [-73.257872, 42.445191], [-73.257941, 42.445398], [-73.257957, 42.445655], [-73.25795, 42.445803], [-73.257928, 42.445967], [-73.257892, 42.446136], [-73.257818, 42.446579], [-73.25775, 42.446874], [-73.257692, 42.447191], [-73.257686, 42.447381], [-73.257707, 42.447602], [-73.257712, 42.447635], [-73.25678, 42.44752]]]]}}, {"type": "Feature", "properties": {"area_id": 11122, "city": "Pittsfield", "state": "MA", "city_survey": true, "cat": "Hazardous", "grade": "D", "label": "D15", "res": true, "com": false, "ind": false, "fill": "#d9838d", "GEOID10": "25003935200", "GISJOIN": "G2500030935200", "calc_area": 1011549.34087, "pct_tract": 0.08664}, "geometry": {"type": "MultiPolygon", "coordinates": [[[[-73.21245, 42.44304], [-73.21682, 42.44362], [-73.22093, 42.4463], [-73.22381, 42.44865], [-73.22408, 42.44985], [-73.22712, 42.45045], [-73.22724, 42.45134], [-73.22702, 42.45278], [-73.22215, 42.4533], [-73.22125, 42.45377], [-73.21767, 42.45389], [-73.21505, 42.45296], [-73.21171, 42.45052], [-73.21052, 42.45011], [-73.21245, 42.44304]]]]}}, {"type": "Feature", "properties": {"area_id": 11121, "city": "Pittsfield", "state": "MA", "city_survey": true, "cat": "Hazardous", "grade": "D", "label": "D16", "res": true, "com": false, "ind": false, "fill": "#d9838d", "GEOID10": "25003900600", "GISJOIN": "G2500030900600", "calc_area": 352308.073, "pct_tract": 0.16102}, "geometry": {"type": "MultiPolygon", "coordinates": [[[[-73.25468, 42.46336], [-73.25476, 42.46143], [-73.25588, 42.45788], [-73.25907, 42.45823], [-73.2593, 42.45703], [-73.2614, 42.45734], [-73.26187, 42.45959], [-73.26113, 42.46398], [-73.260494, 42.463919], [-73.260465, 42.4639], [-73.260406, 42.463825], [-73.260405, 42.463781], [-73.260308, 42.463901], [-73.25468, 42.46336]]]]}}, {"type": "Feature", "properties": {"area_id": 11121, "city": "Pittsfield", "state": "MA", "city_survey": true, "cat": "Hazardous", "grade": "D", "label": "D16", "res": true, "com": false, "ind": false, "fill": "#d9838d", "GEOID10": "25003900400", "GISJOIN": "G2500030900400", "calc_area": 88.05852, "pct_tract": 1e-05}, "geometry": {"type": "MultiPolygon", "coordinates": [[[[-73.260308, 42.463901], [-73.260405, 42.463781], [-73.260406, 42.463825], [-73.260465, 42.4639], [-73.260494, 42.463919], [-73.260308, 42.463901]]]]}}, {"type": "Feature", "properties": {"area_id": 11123, "city": "Pittsfield", "state": "MA", "city_survey": true, "cat": "Hazardous", "grade": "D", "label": "D17", "res": true, "com": false, "ind": false, "fill": "#d9838d", "GEOID10": "25003900600", "GISJOIN": "G2500030900600", "calc_area": 185466.45323, "pct_tract": 0.08477}, "geometry": {"type": "MultiPolygon", "coordinates": [[[[-73.26497, 42.44705], [-73.26451, 42.44873], [-73.264, 42.44899], [-73.26357, 42.45006], [-73.2629, 42.45281], [-73.26071, 42.45259], [-73.25749, 42.45213], [-73.25735, 42.45183], [-73.257171, 42.451791], [-73.257254, 42.451524], [-73.257383, 42.451305], [-73.257583, 42.451103], [-73.257636, 42.451057], [-73.25856, 42.450446], [-73.258903, 42.450212], [-73.259278, 42.449986], [-73.25936, 42.449956], [-73.259423, 42.449905], [-73.259441, 42.449681], [-73.259521, 42.4496], [-73.259596, 42.449505], [-73.259687, 42.449447], [-73.25979, 42.449436], [-73.260291, 42.449484], [-73.260552, 42.449528], [-73.261172, 42.449622], [-73.261881, 42.449703], [-73.262096, 42.449737], [-73.262042, 42.449424], [-73.261968, 42.44907], [-73.261839, 42.448751], [-73.261724, 42.448535], [-73.261595, 42.448344], [-73.261557, 42.448298], [-73.26497, 42.44705]]]]}}, {"type": "Feature", "properties": {"area_id": 11123, "city": "Pittsfield", "state": "MA", "city_survey": true, "cat": "Hazardous", "grade": "D", "label": "D17", "res": true, "com": false, "ind": false, "fill": "#d9838d", "GEOID10": "25003900100", "GISJOIN": "G2500030900100", "calc_area": 32857.52447, "pct_tract": 0.02599}, "geometry": {"type": "MultiPolygon", "coordinates": [[[[-73.25653, 42.45165], [-73.25667, 42.45112], [-73.25737, 42.45073], [-73.25788, 42.45073], [-73.25884, 42.4501], [-73.25917, 42.44917], [-73.261557, 42.448298], [-73.261595, 42.448344], [-73.261724, 42.448535], [-73.261839, 42.448751], [-73.261968, 42.44907], [-73.262042, 42.449424], [-73.262096, 42.449737], [-73.261881, 42.449703], [-73.261172, 42.449622], [-73.260552, 42.449528], [-73.260291, 42.449484], [-73.25979, 42.449436], [-73.259687, 42.449447], [-73.259596, 42.449505], [-73.259521, 42.4496], [-73.259441, 42.449681], [-73.259423, 42.449905], [-73.25936, 42.449956], [-73.259278, 42.449986], [-73.258903, 42.450212], [-73.25856, 42.450446], [-73.257636, 42.451057], [-73.257583, 42.451103], [-73.257383, 42.451305], [-73.257254, 42.451524], [-73.257171, 42.451791], [-73.25653, 42.45165]]]]}}, {"type": "Feature", "properties": {"area_id": 11124, "city": "Pittsfield", "state": "MA", "city_survey": true, "cat": "Business District \"A\" ", "grade": null, "label": "Business District \"A\" ", "res": false, "com": true, "ind": false, "fill": "#000000", "GEOID10": "25003900900", "GISJOIN": "G2500030900900", "calc_area": 3279.87487, "pct_tract": 0.00078}, "geometry": {"type": "MultiPolygon", "coordinates": [[[[-73.2555, 42.44374], [-73.25616, 42.44384], [-73.256037, 42.444369], [-73.255373, 42.444255], [-73.2555, 42.44374]]]]}}, {"type": "Feature", "properties": {"area_id": 11124, "city": "Pittsfield", "state": "MA", "city_survey": true, "cat": "Business District \"A\" ", "grade": null, "label": "Business District \"A\" ", "res": false, "com": true, "ind": false, "fill": "#000000", "GEOID10": "25003900600", "GISJOIN": "G2500030900600", "calc_area": 62809.9745, "pct_tract": 0.02871}, "geometry": {"type": "MultiPolygon", "coordinates": [[[[-73.25735, 42.45183], [-73.25749, 42.45213], [-73.25727, 42.45298], [-73.256859, 42.45291], [-73.257025, 42.452333], [-73.257086, 42.452064], [-73.257171, 42.451791], [-73.25735, 42.45183]]], [[[-73.2584, 42.44772], [-73.26089, 42.44624], [-73.26497, 42.44705], [-73.261557, 42.448298], [-73.261556, 42.448297], [-73.261511, 42.448245], [-73.261372, 42.44808], [-73.261273, 42.447994], [-73.261153, 42.447912], [-73.261043, 42.447856], [-73.260919, 42.447806], [-73.260752, 42.447747], [-73.260319, 42.447671], [-73.260026, 42.447638], [-73.259765, 42.447627], [-73.25963, 42.447628], [-73.25937, 42.44765], [-73.259018, 42.447719], [-73.258818, 42.447778], [-73.258386, 42.447922], [-73.257833, 42.448088], [-73.257738, 42.447794], [-73.257712, 42.447635], [-73.2584, 42.44772]]]]}}, {"type": "Feature", "properties": {"area_id": 11124, "city": "Pittsfield", "state": "MA", "city_survey": true, "cat": "Business District \"A\" ", "grade": null, "label": "Business District \"A\" ", "res": false, "com": true, "ind": false, "fill": "#000000", "GEOID10": "25003900200", "GISJOIN": "G2500030900200", "calc_area": 37601.48514, "pct_tract": 0.02593}, "geometry": {"type": "MultiPolygon", "coordinates": [[[[-73.24911, 42.45988], [-73.24766, 42.45935], [-73.24866, 42.45797], [-73.249409, 42.457284], [-73.250365, 42.457433], [-73.250207, 42.457628], [-73.250118, 42.457721], [-73.249829, 42.458024], [-73.249777, 42.45807], [-73.249912, 42.458504], [-73.25005, 42.458908], [-73.250109, 42.45908], [-73.250299, 42.459717], [-73.24911, 42.45988]]]]}}, {"type": "Feature", "properties": {"area_id": 11124, "city": "Pittsfield", "state": "MA", "city_survey": true, "cat": "Business District \"A\" ", "grade": null, "label": "Business District \"A\" ", "res": false, "com": true, "ind": false, "fill": "#000000", "GEOID10": "25003900100", "GISJOIN": "G2500030900100", "calc_area": 479593.49737, "pct_tract": 0.37935}, "geometry": {"type": "MultiPolygon", "coordinates": [[[[-73.24974, 42.45698], [-73.25114, 42.45481], [-73.25202, 42.45144], [-73.25048, 42.45125], [-73.2514, 42.44828], [-73.25321, 42.44733], [-73.25403, 42.44429], [-73.25534, 42.44439], [-73.255373, 42.444255], [-73.256037, 42.444369], [-73.25583, 42.44526], [-73.25478, 42.44801], [-73.25653, 42.44832], [-73.25678, 42.44752], [-73.257712, 42.447635], [-73.257738, 42.447794], [-73.257833, 42.448088], [-73.258386, 42.447922], [-73.258818, 42.447778], [-73.259018, 42.447719], [-73.25937, 42.44765], [-73.25963, 42.447628], [-73.259765, 42.447627], [-73.260026, 42.447638], [-73.260319, 42.447671], [-73.260752, 42.447747], [-73.260919, 42.447806], [-73.261043, 42.447856], [-73.261153, 42.447912], [-73.261273, 42.447994], [-73.261372, 42.44808], [-73.261511, 42.448245], [-73.261556, 42.448297], [-73.261557, 42.448298], [-73.25917, 42.44917], [-73.25884, 42.4501], [-73.25788, 42.45073], [-73.25737, 42.45073], [-73.25667, 42.45112], [-73.25653, 42.45165], [-73.257171, 42.451791], [-73.257086, 42.452064], [-73.257025, 42.452333], [-73.256859, 42.45291], [-73.25368, 42.45237], [-73.2526, 42.4558], [-73.25065, 42.4579], [-73.25092, 42.45897], [-73.2505, 42.45969], [-73.250299, 42.459717], [-73.250109, 42.45908], [-73.25005, 42.458908], [-73.249912, 42.458504], [-73.249777, 42.45807], [-73.249829, 42.458024], [-73.250118, 42.457721], [-73.250207, 42.457628], [-73.250365, 42.457433], [-73.249409, 42.457284], [-73.24974, 42.45698]]]]}}, {"type": "Feature", "properties": {"area_id": 11125, "city": "Pittsfield", "state": "MA", "city_survey": true, "cat": "Business District \"A\" ", "grade": null, "label": "Business District \"A\" ", "res": false, "com": true, "ind": false, "fill": "#000000", "GEOID10": "25003935200", "GISJOIN": "G2500030935200", "calc_area": 1230796.2262, "pct_tract": 0.10542}, "geometry": {"type": "MultiPolygon", "coordinates": [[[[-73.21037, 42.46482], [-73.20838, 42.46117], [-73.2109, 42.45863], [-73.21365, 42.45641], [-73.21347, 42.45542], [-73.21375, 42.45435], [-73.21767, 42.45389], [-73.22125, 42.45377], [-73.22215, 42.4533], [-73.22702, 42.45278], [-73.22724, 42.45134], [-73.22861, 42.45125], [-73.2291, 42.45082], [-73.22959, 42.45125], [-73.23067, 42.4516], [-73.23247, 42.45127], [-73.23235, 42.4501], [-73.23188, 42.44943], [-73.23382, 42.44949], [-73.23641, 42.4487], [-73.2376, 42.44882], [-73.23755, 42.44823], [-73.23846, 42.44874], [-73.239087, 42.449542], [-73.238748, 42.449693], [-73.237297, 42.450374], [-73.237063, 42.450486], [-73.23692, 42.450549], [-73.236778, 42.450613], [-73.236862, 42.450607], [-73.236951, 42.450607], [-73.237034, 42.450623], [-73.237095, 42.45064], [-73.237112, 42.450693], [-73.237137, 42.450814], [-73.237152, 42.450945], [-73.23707, 42.451514], [-73.236989, 42.452006], [-73.236992, 42.452152], [-73.237018, 42.452272], [-73.237061, 42.452382], [-73.237153, 42.452504], [-73.23725, 42.452589], [-73.237376, 42.452675], [-73.237518, 42.452762], [-73.237676, 42.452821], [-73.237833, 42.45287], [-73.237972, 42.452903], [-73.238112, 42.452925], [-73.238234, 42.452931], [-73.238398, 42.452923], [-73.238541, 42.452898], [-73.238823, 42.452838], [-73.239055, 42.452771], [-73.239293, 42.452688], [-73.239574, 42.452579], [-73.239817, 42.452466], [-73.240094, 42.452317], [-73.240413, 42.452122], [-73.240492, 42.452071], [-73.24033, 42.45222], [-73.239993, 42.454338], [-73.239966, 42.454335], [-73.23989, 42.454338], [-73.239835, 42.454361], [-73.239828, 42.454372], [-73.239808, 42.454405], [-73.239805, 42.454414], [-73.23554, 42.45426], [-73.23445, 42.45437], [-73.234431, 42.45443], [-73.234414, 42.454438], [-73.234346, 42.4545], [-73.234316, 42.454573], [-73.234294, 42.454674], [-73.234288, 42.454873], [-73.23391, 42.45605], [-73.2313, 42.45562], [-73.22618, 42.45533], [-73.22268, 42.45593], [-73.222992, 42.456421], [-73.222904, 42.456459], [-73.222386, 42.456652], [-73.21941, 42.457851], [-73.218568, 42.458178], [-73.218485, 42.458196], [-73.218346, 42.458203], [-73.218204, 42.458193], [-73.218003, 42.458154], [-73.21776, 42.458052], [-73.217606, 42.457982], [-73.217809, 42.458231], [-73.217944, 42.458421], [-73.21751, 42.45859], [-73.21274, 42.46066], [-73.213085, 42.461139], [-73.212805, 42.461248], [-73.213291, 42.461933], [-73.213633, 42.46243], [-73.213929, 42.462853], [-73.214224, 42.463277], [-73.214236, 42.463294], [-73.21037, 42.46482]]]]}}, {"type": "Feature", "properties": {"area_id": 11125, "city": "Pittsfield", "state": "MA", "city_survey": true, "cat": "Business District \"A\" ", "grade": null, "label": "Business District \"A\" ", "res": false, "com": true, "ind": false, "fill": "#000000", "GEOID10": "25003901100", "GISJOIN": "G2500030901100", "calc_area": 8871.54849, "pct_tract": 0.00112}, "geometry": {"type": "MultiPolygon", "coordinates": [[[[-73.21455, 42.46317], [-73.214236, 42.463294], [-73.214224, 42.463277], [-73.213929, 42.462853], [-73.213633, 42.46243], [-73.213291, 42.461933], [-73.212805, 42.461248], [-73.213085, 42.461139], [-73.21455, 42.46317]]], [[[-73.217944, 42.458421], [-73.217809, 42.458231], [-73.217606, 42.457982], [-73.21776, 42.458052], [-73.218003, 42.458154], [-73.218204, 42.458193], [-73.218346, 42.458203], [-73.218485, 42.458196], [-73.218568, 42.458178], [-73.217944, 42.458421]]], [[[-73.22301, 42.45645], [-73.21941, 42.457851], [-73.222386, 42.456652], [-73.222904, 42.456459], [-73.222992, 42.456421], [-73.22301, 42.45645]]]]}}, {"type": "Feature", "properties": {"area_id": 11125, "city": "Pittsfield", "state": "MA", "city_survey": true, "cat": "Business District \"A\" ", "grade": null, "label": "Business District \"A\" ", "res": false, "com": true, "ind": false, "fill": "#000000", "GEOID10": "25003900200", "GISJOIN": "G2500030900200", "calc_area": 143207.29705, "pct_tract": 0.09876}, "geometry": {"type": "MultiPolygon", "coordinates": [[[[-73.234288, 42.454873], [-73.234294, 42.454674], [-73.234316, 42.454573], [-73.234346, 42.4545], [-73.234414, 42.454438], [-73.234431, 42.45443], [-73.234288, 42.454873]]], [[[-73.23998, 42.45442], [-73.239805, 42.454414], [-73.239808, 42.454405], [-73.239828, 42.454372], [-73.239835, 42.454361], [-73.23989, 42.454338], [-73.239966, 42.454335], [-73.239993, 42.454338], [-73.23998, 42.45442]]], [[[-73.23946, 42.45002], [-73.24138, 42.44925], [-73.24208, 42.44935], [-73.24253, 42.44978], [-73.24364, 42.44987], [-73.24397, 42.45031], [-73.24365, 42.45086], [-73.24255, 42.45147], [-73.24084, 42.45175], [-73.240492, 42.452071], [-73.240413, 42.452122], [-73.240094, 42.452317], [-73.239817, 42.452466], [-73.239574, 42.452579], [-73.239293, 42.452688], [-73.239055, 42.452771], [-73.238823, 42.452838], [-73.238541, 42.452898], [-73.238398, 42.452923], [-73.238234, 42.452931], [-73.238112, 42.452925], [-73.237972, 42.452903], [-73.237833, 42.45287], [-73.237676, 42.452821], [-73.237518, 42.452762], [-73.237376, 42.452675], [-73.23725, 42.452589], [-73.237153, 42.452504], [-73.237061, 42.452382], [-73.237018, 42.452272], [-73.236992, 42.452152], [-73.236989, 42.452006], [-73.23707, 42.451514], [-73.237152, 42.450945], [-73.237137, 42.450814], [-73.237112, 42.450693], [-73.237095, 42.45064], [-73.237034, 42.450623], [-73.236951, 42.450607], [-73.236862, 42.450607], [-73.236778, 42.450613], [-73.23692, 42.450549], [-73.237063, 42.450486], [-73.237297, 42.450374], [-73.238748, 42.449693], [-73.239087, 42.449542], [-73.23946, 42.45002]]]]}}]}