{"type": "FeatureCollection", "features": [{"type": "Feature", "geometry": {"type": "Point", "coordinates": [-79.88, 40.29]}, "properties": {"facility_name": "KOPPERS INC CLAIRTON TAR PLANT", "industry": null, "tri_facility_id": "15025RSTCH400ST"}}, {"type": "Feature", "geometry": {"type": "Point", "coordinates": [-79.875, 40.306944]}, "properties": {"facility_name": "USS-CLAIRTON PLANT", "industry": null, "tri_facility_id": "15025SSCLR400ST"}}, {"type": "Feature", "geometry": {"type": "Point", "coordinates": [-79.921667, 40.288333]}, "properties": {"facility_name": "LARGE PLANT OF TYK AMERICA INC", "industry": null, "tri_facility_id": "15025TYKRF301BR"}}, {"type": "Feature", "geometry": {"type": "Point", "coordinates": [-79.88055555555555, 40.35416666666667]}, "properties": {"facility_name": "KINDER MORGAN LIQUIDS TERMINALS LLC", "industry": null, "tri_facility_id": "15034BSWLL702WA"}}, {"type": "Feature", "geometry": {"type": "Point", "coordinates": [-79.89, 40.3542]}, "properties": {"facility_name": "USS MON VALLEY WORKS - IRVIN PLANT", "industry": null, "tri_facility_id": "15034SSRVNPOBOX"}}, {"type": "Feature", "geometry": {"type": "Point", "coordinates": [-79.89444444444445, 40.35277777777778]}, "properties": {"facility_name": "TECH MET INC.", "industry": null, "tri_facility_id": "15045TCHMT15ALL"}}, {"type": "Feature", "geometry": {"type": "Point", "coordinates": [-79.85972222222222, 40.39722222222222]}, "properties": {"facility_name": "HARSCO METALS - BRI", "industry": null, "tri_facility_id": "15104HRSCH13THB"}}, {"type": "Feature", "geometry": {"type": "Point", "coordinates": [-79.875583, 40.405187]}, "properties": {"facility_name": "MOTOR COILS MFG CO", "industry": null, "tri_facility_id": "15104MTRCL100TA"}}, {"type": "Feature", "geometry": {"type": "Point", "coordinates": [-79.87583333333333, 40.406666666666666]}, "properties": {"facility_name": "EPIC METALS CORP", "industry": null, "tri_facility_id": "15104PCMTL11TAL"}}, {"type": "Feature", "geometry": {"type": "Point", "coordinates": [-79.862778, 40.398611]}, "properties": {"facility_name": "PESTCO INC", "industry": null, "tri_facility_id": "15104PSTCN2158T"}}, {"type": "Feature", "geometry": {"type": "Point", "coordinates": [-79.858889, 40.391944]}, "properties": {"facility_name": "USS MON VALLEY WORKS - EDGAR THOMSON PLANT", "industry": null, "tri_facility_id": "15104SSDGRBRADD"}}, {"type": "Feature", "geometry": {"type": "Point", "coordinates": [-79.831667, 40.398889]}, "properties": {"facility_name": "INTERVALA - PITTSBURGH", "industry": null, "tri_facility_id": "15112WSTNG700BR"}}, {"type": "Feature", "geometry": {"type": "Point", "coordinates": [-79.899444, 40.407778]}, "properties": {"facility_name": "PITTSBURGH ELECTRICAL INSULATION", "industry": null, "tri_facility_id": "15120MGNTK800MA"}}, {"type": "Feature", "geometry": {"type": "Point", "coordinates": [-79.92500000000001, 40.40138888888889]}, "properties": {"facility_name": "WHEMCO-STEEL CASTINGS INC", "industry": null, "tri_facility_id": "15120WSTHMWESTS"}}, {"type": "Feature", "geometry": {"type": "Point", "coordinates": [-79.9, 40.34722222222222]}, "properties": {"facility_name": "GENERAL MOTORS MFD PITTSBURG", "industry": null, "tri_facility_id": "15122GNRLM1451L"}}, {"type": "Feature", "geometry": {"type": "Point", "coordinates": [-79.889444, 40.346111]}, "properties": {"facility_name": "LIBERTY PULTRUSIONS", "industry": null, "tri_facility_id": "15122LBRTY1575L"}}, {"type": "Feature", "geometry": {"type": "Point", "coordinates": [-79.88944444444445, 40.38666666666666]}, "properties": {"facility_name": "SAFETY-KLEEN SYSTEMS WEST MIFFLIN (WMP)", "industry": null, "tri_facility_id": "15122SFTYK650NO"}}, {"type": "Feature", "geometry": {"type": "Point", "coordinates": [-79.923611, 40.36]}, "properties": {"facility_name": "KEYWELL CORP VAC AIR ALLOYS DIV", "industry": null, "tri_facility_id": "15122SGKYW890NO"}}, {"type": "Feature", "geometry": {"type": "Point", "coordinates": [-79.812197, 40.334182]}, "properties": {"facility_name": "APTER INDUSTRIES INC", "industry": null, "tri_facility_id": "15131PTRND1224L"}}, {"type": "Feature", "geometry": {"type": "Point", "coordinates": [-79.852222, 40.344444]}, "properties": {"facility_name": "CP INDUSTRY INC", "industry": null, "tri_facility_id": "15132CPNDS2214W"}}, {"type": "Feature", "geometry": {"type": "Point", "coordinates": [-79.8375, 40.325]}, "properties": {"facility_name": "SEQUA COATINGS CORP PRECOAT METALS DIV", "industry": null, "tri_facility_id": "15132NMLPR3500W"}}, {"type": "Feature", "geometry": {"type": "Point", "coordinates": [-79.846667, 40.326111]}, "properties": {"facility_name": "DURA-BOND COATING", "industry": null, "tri_facility_id": "15134DRBND3200Y"}}, {"type": "Feature", "geometry": {"type": "Point", "coordinates": [-79.798333, 40.315278]}, "properties": {"facility_name": "AMI DODUCO INC  PLANT #1", "industry": null, "tri_facility_id": "15135DVNCD1001E"}}, {"type": "Feature", "geometry": {"type": "Point", "coordinates": [-79.800278, 40.316667]}, "properties": {"facility_name": "ADVANCED METALLURGY INC PLANT 1", "industry": null, "tri_facility_id": "15135DVNCD1028E"}}, {"type": "Feature", "geometry": {"type": "Point", "coordinates": [-79.799167, 40.316667]}, "properties": {"facility_name": "VISTA METALS INC", "industry": null, "tri_facility_id": "15135VSTMT1024E"}}, {"type": "Feature", "geometry": {"type": "Point", "coordinates": [-79.815556, 40.408333]}, "properties": {"facility_name": "LAUREL MOUNTAIN WHIRLPOOLS IN C", "industry": null, "tri_facility_id": "15145LRLMN1210A"}}, {"type": "Feature", "geometry": {"type": "Point", "coordinates": [-79.83222222222221, 40.40361111111111]}, "properties": {"facility_name": "STEEL DYNAMICS INC. - TECHS DIV - NEXTECH PLANT", "industry": null, "tri_facility_id": "15145NXTCH300BR"}}, {"type": "Feature", "geometry": {"type": "Point", "coordinates": [-79.83444444444444, 40.396388888888886]}, "properties": {"facility_name": "HOLTEC MANUFACTURING", "industry": null, "tri_facility_id": "15145STLDN200BR"}}, {"type": "Feature", "geometry": {"type": "Point", "coordinates": [-79.816667, 40.405556]}, "properties": {"facility_name": "GRAPHIC CONTROLS CORP", "industry": null, "tri_facility_id": "15148GRPHC212FI"}}, {"type": "Feature", "geometry": {"type": "Point", "coordinates": [-79.81361111111111, 40.39666666666667]}, "properties": {"facility_name": "ALLEGHENY PETROLEUM PRODUCTS CO", "industry": null, "tri_facility_id": "15148LLGHN999AI"}}, {"type": "Feature", "geometry": {"type": "Point", "coordinates": [-79.813333, 40.397222]}, "properties": {"facility_name": "WESTINGHOUSE AIR BRAKE DIV", "industry": null, "tri_facility_id": "15148WSTNG1000A"}}, {"type": "Feature", "geometry": {"type": "Point", "coordinates": [-79.93166666666667, 40.388333333333335]}, "properties": {"facility_name": "STEEL DYNAMICS INC. - TECHS DIV - GALVTECH PLANT", "industry": null, "tri_facility_id": "15207GLVTC300MI"}}]}