{"type": "FeatureCollection", "features": [{"type": "Feature", "geometry": {"type": "Point", "coordinates": [-71.199149, 42.692603]}, "properties": {"facility_name": "DIGITAL EQUIPMENT CORP, HIGH TECHNOLOGY CENTER", "industry": null, "tri_facility_id": "01810DGTLQ100MI"}}, {"type": "Feature", "geometry": {"type": "Point", "coordinates": [-71.116667, 42.7]}, "properties": {"facility_name": "GERMANIUM POWER DEVICES CORP", "industry": null, "tri_facility_id": "01810GRMNMHAVER"}}, {"type": "Feature", "geometry": {"type": "Point", "coordinates": [-71.219167, 42.693889]}, "properties": {"facility_name": "HEWLETT-PACKARD CO", "industry": null, "tri_facility_id": "01810HWLTT3000M"}}, {"type": "Feature", "geometry": {"type": "Point", "coordinates": [-71.217636, 42.693421]}, "properties": {"facility_name": "MKS INSTRUMENTS INC", "industry": null, "tri_facility_id": "01810MKSNS6SHAT"}}, {"type": "Feature", "geometry": {"type": "Point", "coordinates": [-71.158333, 42.670833]}, "properties": {"facility_name": "MULTI CORE INC", "industry": null, "tri_facility_id": "01810MLTCR7TANT"}}, {"type": "Feature", "geometry": {"type": "Point", "coordinates": [-71.14583333333334, 42.67527777777777]}, "properties": {"facility_name": "ANDOVER CONTROLS CORP", "industry": null, "tri_facility_id": "01810NDVRC3BRIC"}}, {"type": "Feature", "geometry": {"type": "Point", "coordinates": [-71.188889, 42.643056]}, "properties": {"facility_name": "RAYTHEON CO", "industry": null, "tri_facility_id": "01810RYTHN350LO"}}, {"type": "Feature", "geometry": {"type": "Point", "coordinates": [-71.1465, 42.6659]}, "properties": {"facility_name": "SHAWSHEEN RUBBER CO INC", "industry": null, "tri_facility_id": "01810SHWSHANDOV"}}, {"type": "Feature", "geometry": {"type": "Point", "coordinates": [-71.1657, 42.6464]}, "properties": {"facility_name": "SMITH & NEPHEW ENDOSCOPY", "industry": null, "tri_facility_id": "01810SMTHN160DA"}}, {"type": "Feature", "geometry": {"type": "Point", "coordinates": [-71.182355, 42.631744]}, "properties": {"facility_name": "VICOR CORP", "industry": null, "tri_facility_id": "01810VCRCR23FRO"}}, {"type": "Feature", "geometry": {"type": "Point", "coordinates": [-71.2025, 42.68416666666666]}, "properties": {"facility_name": "VICOR CORP", "industry": null, "tri_facility_id": "01810VCRCR400FE"}}, {"type": "Feature", "geometry": {"type": "Point", "coordinates": [-71.117222, 42.756667]}, "properties": {"facility_name": "VERNON PLASTICS INC", "industry": null, "tri_facility_id": "01830BRDNNSHELL"}}, {"type": "Feature", "geometry": {"type": "Point", "coordinates": [-71.120833, 42.75]}, "properties": {"facility_name": "MULTI CORE INC", "industry": null, "tri_facility_id": "01830MLTCR12ROG"}}, {"type": "Feature", "geometry": {"type": "Point", "coordinates": [-71.125, 42.770833]}, "properties": {"facility_name": "HAVERHILL SHOE CO", "industry": null, "tri_facility_id": "01831HVRHL266RI"}}, {"type": "Feature", "geometry": {"type": "Point", "coordinates": [-71.112984, 42.761647]}, "properties": {"facility_name": "JOHNSON & JOHNSTON ASSOC", "industry": null, "tri_facility_id": "01835JHNSN12ROG"}}, {"type": "Feature", "geometry": {"type": "Point", "coordinates": [-71.114225, 42.761118]}, "properties": {"facility_name": "SANMINA CORP - TECH CENTER EAST DIV", "industry": null, "tri_facility_id": "01835LTRNT46ROG"}}, {"type": "Feature", "geometry": {"type": "Point", "coordinates": [-71.11888888888888, 42.76305555555555]}, "properties": {"facility_name": "SPEEDLINE TECHS", "industry": null, "tri_facility_id": "01835SPDLN145WA"}}, {"type": "Feature", "geometry": {"type": "Point", "coordinates": [-71.131389, 42.704167]}, "properties": {"facility_name": "CHEMCO CORP", "industry": null, "tri_facility_id": "01840CHMCC300CA"}}, {"type": "Feature", "geometry": {"type": "Point", "coordinates": [-71.18305555555555, 42.70027777777778]}, "properties": {"facility_name": "CIL ELECTROPLATING INC", "industry": null, "tri_facility_id": "01840DTCLC125GL"}}, {"type": "Feature", "geometry": {"type": "Point", "coordinates": [-71.154167, 42.7075]}, "properties": {"facility_name": "ADTEC ELECTROPLATING INC", "industry": null, "tri_facility_id": "01840DVNCD9MILL"}}, {"type": "Feature", "geometry": {"type": "Point", "coordinates": [-71.17305555555556, 42.708333333333336]}, "properties": {"facility_name": "SAFETY-KLEEN (NE) INC", "industry": null, "tri_facility_id": "01840SFTYK300CA"}}, {"type": "Feature", "geometry": {"type": "Point", "coordinates": [-71.157222, 42.704167]}, "properties": {"facility_name": "TURCO PUREX INDL CORP", "industry": null, "tri_facility_id": "01840TRCPR250CA"}}, {"type": "Feature", "geometry": {"type": "Point", "coordinates": [-71.1815, 42.7156]}, "properties": {"facility_name": "POLARTEC, LLC", "industry": null, "tri_facility_id": "01841MLDNM46STA"}}, {"type": "Feature", "geometry": {"type": "Point", "coordinates": [-71.177222, 42.714722]}, "properties": {"facility_name": "ITT SEMICONDUCTORS", "industry": null, "tri_facility_id": "01841TTSMC470BR"}}, {"type": "Feature", "geometry": {"type": "Point", "coordinates": [-71.178056, 42.713611]}, "properties": {"facility_name": "MICROSEMI LAWRENCE", "industry": null, "tri_facility_id": "01841TTSMC6LAKE"}}, {"type": "Feature", "geometry": {"type": "Point", "coordinates": [-71.179444, 42.688889]}, "properties": {"facility_name": "KEY POLYMER", "industry": null, "tri_facility_id": "01842KYPLYLAWRE"}}, {"type": "Feature", "geometry": {"type": "Point", "coordinates": [-71.164167, 42.701944]}, "properties": {"facility_name": "MERRIMAC PAPER CO INC", "industry": null, "tri_facility_id": "01842MRRMC9SOUT"}}, {"type": "Feature", "geometry": {"type": "Point", "coordinates": [-71.179291, 42.712328]}, "properties": {"facility_name": "NATIONAL NORTHEAST CORP", "industry": null, "tri_facility_id": "01842NTNLN65MAN"}}, {"type": "Feature", "geometry": {"type": "Point", "coordinates": [-71.164167, 42.701944]}, "properties": {"facility_name": "NEWARK ATLANTIC PAPERBOARD CORP", "industry": null, "tri_facility_id": "01842TLNTC250CA"}}, {"type": "Feature", "geometry": {"type": "Point", "coordinates": [-71.17944444444444, 42.68888888888888]}, "properties": {"facility_name": "LUBRIZOL ADVANCED MATERIALS", "industry": null, "tri_facility_id": "01843BFGDRONEJA"}}, {"type": "Feature", "geometry": {"type": "Point", "coordinates": [-71.1616, 42.6896]}, "properties": {"facility_name": "CHEMCO CORP", "industry": null, "tri_facility_id": "01843CHMCC19SCA"}}, {"type": "Feature", "geometry": {"type": "Point", "coordinates": [-71.180583, 42.683467]}, "properties": {"facility_name": "CROWN BEVERAGE PACKAGING", "industry": null, "tri_facility_id": "01843CRWNC155SH"}}, {"type": "Feature", "geometry": {"type": "Point", "coordinates": [-71.18611111111112, 42.683611111111105]}, "properties": {"facility_name": "ADTEC II BARREL ELECTROPLATING", "industry": null, "tri_facility_id": "01843DTCBR22BAL"}}, {"type": "Feature", "geometry": {"type": "Point", "coordinates": [-71.155556, 42.689722]}, "properties": {"facility_name": "FRANK C MEYER CO", "industry": null, "tri_facility_id": "01843FCMYR585SU"}}, {"type": "Feature", "geometry": {"type": "Point", "coordinates": [-71.179444, 42.688611]}, "properties": {"facility_name": "FRICTION MATERIALS CO INC", "industry": null, "tri_facility_id": "01843FRCTN17SHE"}}, {"type": "Feature", "geometry": {"type": "Point", "coordinates": [-71.146434, 42.702961]}, "properties": {"facility_name": "JAYBIRD & MAIS INC", "industry": null, "tri_facility_id": "01843JYBRD360ME"}}, {"type": "Feature", "geometry": {"type": "Point", "coordinates": [-71.158611, 42.700278]}, "properties": {"facility_name": "FLOWSERVE-LAWRENCE PUMPS", "industry": null, "tri_facility_id": "01843LWRNC371MA"}}, {"type": "Feature", "geometry": {"type": "Point", "coordinates": [-71.19, 42.683889]}, "properties": {"facility_name": "MKS INSTRUMENTS", "industry": null, "tri_facility_id": "01843MKSNS17BAL"}}, {"type": "Feature", "geometry": {"type": "Point", "coordinates": [-71.184167, 42.686944]}, "properties": {"facility_name": "ARAMARK SERVICES INC", "industry": null, "tri_facility_id": "01843RTXSR110GL"}}, {"type": "Feature", "geometry": {"type": "Point", "coordinates": [-71.1616, 42.6896]}, "properties": {"facility_name": "SEKISUI VOLTEK LLC", "industry": null, "tri_facility_id": "01843VLTKD100SH"}}, {"type": "Feature", "geometry": {"type": "Point", "coordinates": [-71.2325, 42.69]}, "properties": {"facility_name": "EIT, LLC", "industry": null, "tri_facility_id": "018443MTCH300GR"}}, {"type": "Feature", "geometry": {"type": "Point", "coordinates": [-71.23805555555556, 42.691111111111105]}, "properties": {"facility_name": "3M TOUCH SYSTEMS INC. METHUEN 501", "industry": null, "tri_facility_id": "018443MTCH501GR"}}, {"type": "Feature", "geometry": {"type": "Point", "coordinates": [-71.18472222222222, 42.73111111111111]}, "properties": {"facility_name": "GRAPHIC CONTROLS CORP", "industry": null, "tri_facility_id": "01844GRPHC55CHA"}}, {"type": "Feature", "geometry": {"type": "Point", "coordinates": [-71.13861111111112, 42.73083333333334]}, "properties": {"facility_name": "METAL TRONICS INC", "industry": null, "tri_facility_id": "01844MTLTR126ME"}}, {"type": "Feature", "geometry": {"type": "Point", "coordinates": [-71.15, 42.741667]}, "properties": {"facility_name": "PARLEX CORP", "industry": null, "tri_facility_id": "01844PRLXC145MI"}}, {"type": "Feature", "geometry": {"type": "Point", "coordinates": [-71.14, 42.731667]}, "properties": {"facility_name": "TRI-STAR TECHNOLOGY CO INC", "industry": null, "tri_facility_id": "01844WNGLB126ME"}}, {"type": "Feature", "geometry": {"type": "Point", "coordinates": [-71.123889, 42.717222]}, "properties": {"facility_name": "BORDEN PACKAGING & INDUSTRIAL PRODUCTS", "industry": null, "tri_facility_id": "01845BRDNN1CLAR"}}, {"type": "Feature", "geometry": {"type": "Point", "coordinates": [-71.105556, 42.647778]}, "properties": {"facility_name": "VERANOVA L.P.", "industry": null, "tri_facility_id": "01845PHRMC70FLA"}}, {"type": "Feature", "geometry": {"type": "Point", "coordinates": [-71.131621, 42.707243]}, "properties": {"facility_name": "SERVICE CHEMICAL LLC", "industry": null, "tri_facility_id": "01845SRVCC221SU"}}, {"type": "Feature", "geometry": {"type": "Point", "coordinates": [-71.12638888888888, 42.702222222222225]}, "properties": {"facility_name": "TOUR ANDOVER CONTROLS", "industry": null, "tri_facility_id": "01845TRNDV1HIGH"}}, {"type": "Feature", "geometry": {"type": "Point", "coordinates": [-71.115833, 42.729167]}, "properties": {"facility_name": "LUCENT TECHNOLOGIES INC", "industry": null, "tri_facility_id": "01845TTNTW1600O"}}]}