{"type": "FeatureCollection", "features": [{"type": "Feature", "geometry": {"type": "Point", "coordinates": [-88.927222, 39.836944]}, "properties": {"facility_name": "CRANE PUMPS & SYSTEMS INC", "industry": null, "tri_facility_id": "62521BRKSP2750N"}}, {"type": "Feature", "geometry": {"type": "Point", "coordinates": [-88.963712, 39.823834]}, "properties": {"facility_name": "VALEO CLIMATE CONTROL DECATUR", "industry": null, "tri_facility_id": "62521KDMNF625SO"}}, {"type": "Feature", "geometry": {"type": "Point", "coordinates": [-88.948056, 39.848733]}, "properties": {"facility_name": "TILLAMOOK ILLINOIS LLC", "industry": null, "tri_facility_id": "62521PRRFR757NO"}}, {"type": "Feature", "geometry": {"type": "Point", "coordinates": [-88.9375, 39.85]}, "properties": {"facility_name": "INTERMET DECATUR FOUNDRY", "industry": null, "tri_facility_id": "62521WGNRC1275E"}}, {"type": "Feature", "geometry": {"type": "Point", "coordinates": [-88.994444, 39.843611]}, "properties": {"facility_name": "KELLY FOOD PRODUCTS INC", "industry": null, "tri_facility_id": "62522KLLYF305WC"}}, {"type": "Feature", "geometry": {"type": "Point", "coordinates": [-88.949444, 39.848611]}, "properties": {"facility_name": "IMI CASH VALVE INC CORP", "industry": null, "tri_facility_id": "62523WCSHV666EA"}}, {"type": "Feature", "geometry": {"type": "Point", "coordinates": [-88.911111, 39.877778]}, "properties": {"facility_name": "CATERPILLAR INC. DECATUR FAC.", "industry": null, "tri_facility_id": "62525CTRPL27THP"}}, {"type": "Feature", "geometry": {"type": "Point", "coordinates": [-88.943889, 39.858611]}, "properties": {"facility_name": "DECATUR FOUNDRY INC", "industry": null, "tri_facility_id": "62525DCTRF1745N"}}, {"type": "Feature", "geometry": {"type": "Point", "coordinates": [-88.963333, 39.846389]}, "properties": {"facility_name": "MUELLER CO-PLANT #1", "industry": null, "tri_facility_id": "62525MLLRC500WE"}}, {"type": "Feature", "geometry": {"type": "Point", "coordinates": [-88.925816, 39.8466]}, "properties": {"facility_name": "PRIMARY PRODUCTS INGREDIENTS AMERICAS LLC - DECATUR", "industry": null, "tri_facility_id": "62525STLYM2200E"}}, {"type": "Feature", "geometry": {"type": "Point", "coordinates": [-88.925, 39.866667]}, "properties": {"facility_name": "T/CCI MANUFACTURING", "industry": null, "tri_facility_id": "62526CLMTC2120N"}}, {"type": "Feature", "geometry": {"type": "Point", "coordinates": [-88.8925, 39.873056]}, "properties": {"facility_name": "ADM DECATUR COMPLEX", "industry": null, "tri_facility_id": "62526DMCRN4666F"}}, {"type": "Feature", "geometry": {"type": "Point", "coordinates": [-88.9643, 39.9046]}, "properties": {"facility_name": "ADM RAILCAR REPAIR FACILITY", "industry": null, "tri_facility_id": "62526DMRLC2311N"}}, {"type": "Feature", "geometry": {"type": "Point", "coordinates": [-88.927222, 39.872222]}, "properties": {"facility_name": "BRIDGESTONE/FIRESTONE NORTH AMERICAN TIRE LLC", "industry": null, "tri_facility_id": "62526FRSTN2500N"}}, {"type": "Feature", "geometry": {"type": "Point", "coordinates": [-88.94916666666667, 39.867777777777775]}, "properties": {"facility_name": "HOME CITY ICE CO", "industry": null, "tri_facility_id": "62526HMCTY234NM"}}, {"type": "Feature", "geometry": {"type": "Point", "coordinates": [-88.896667, 39.8675]}, "properties": {"facility_name": "HSI SYSTEMS INC", "industry": null, "tri_facility_id": "62526HSSYS2230B"}}, {"type": "Feature", "geometry": {"type": "Point", "coordinates": [-88.946667, 39.856667]}, "properties": {"facility_name": "MUELLER CO.  PLANT #4 (SOUTH FOUNDRY)", "industry": null, "tri_facility_id": "62526MLLRC1226E"}}, {"type": "Feature", "geometry": {"type": "Point", "coordinates": [-88.933056, 39.870833]}, "properties": {"facility_name": "AIRFLOAT SYSTEMS OF DECATUR INC", "industry": null, "tri_facility_id": "62526RFLTS1550M"}}, {"type": "Feature", "geometry": {"type": "Point", "coordinates": [-88.936111, 39.861111]}, "properties": {"facility_name": "GRIGOLEIT CO", "industry": null, "tri_facility_id": "62526THGRG2000N"}}, {"type": "Feature", "geometry": {"type": "Point", "coordinates": [-88.903889, 39.784167]}, "properties": {"facility_name": "FUYAO GLASS ILLINOIS INC", "industry": null, "tri_facility_id": "62549PPGNDELWIN"}}]}