{"type": "FeatureCollection", "features": [{"type": "Feature", "properties": {"area_id": 6471, "city": "Saginaw", "state": "MI", "city_survey": true, "cat": "Best", "grade": "A", "label": "A1", "res": true, "com": false, "ind": false, "holc_grade": "A"}, "geometry": {"type": "Polygon", "coordinates": [[[-83.96497, 43.43651], [-83.965118, 43.443667], [-83.96512, 43.44376], [-83.96093, 43.4437], [-83.96093, 43.443678], [-83.96083, 43.43647], [-83.96497, 43.43651]]]}}, {"type": "Feature", "properties": {"area_id": 6475, "city": "Saginaw", "state": "MI", "city_survey": true, "cat": "Best", "grade": "A", "label": "A2", "res": true, "com": false, "ind": false, "holc_grade": "A"}, "geometry": {"type": "Polygon", "coordinates": [[[-83.9778, 43.42439], [-83.9793, 43.42539], [-83.98065, 43.42439], [-83.98359, 43.42634], [-83.9816, 43.42789], [-83.97687, 43.42494], [-83.9778, 43.42439]]]}}, {"type": "Feature", "properties": {"area_id": 6480, "city": "Saginaw", "state": "MI", "city_survey": true, "cat": "Best", "grade": "A", "label": "A3", "res": true, "com": false, "ind": false, "holc_grade": "A"}, "geometry": {"type": "Polygon", "coordinates": [[[-84.00253, 43.40812], [-84.00103, 43.41018], [-84.00091, 43.41066], [-84.00103, 43.4152], [-83.99749, 43.41517], [-83.995087, 43.415154], [-83.99452, 43.41515], [-83.99452, 43.41431], [-83.99454, 43.40821], [-83.995067, 43.408204], [-84.00022, 43.40815], [-84.00253, 43.40812]]]}}, {"type": "Feature", "properties": {"area_id": 6479, "city": "Saginaw", "state": "MI", "city_survey": true, "cat": "Best", "grade": "A", "label": "A4", "res": true, "com": false, "ind": false, "holc_grade": "A"}, "geometry": {"type": "Polygon", "coordinates": [[[-83.99379, 43.41515], [-83.99452, 43.41515], [-83.995087, 43.415154], [-83.99749, 43.41517], [-83.99747, 43.41895], [-83.995095, 43.418886], [-83.99377, 43.41885], [-83.99379, 43.41515]]]}}, {"type": "Feature", "properties": {"area_id": 6478, "city": "Saginaw", "state": "MI", "city_survey": true, "cat": "Best", "grade": "A", "label": "A5", "res": true, "com": false, "ind": false, "holc_grade": "A"}, "geometry": {"type": "Polygon", "coordinates": [[[-83.982733, 43.417249], [-83.98278, 43.41659], [-83.98537, 43.41664], [-83.9855, 43.41641], [-83.9866, 43.41641], [-83.9866, 43.41851], [-83.986479, 43.41906], [-83.98645, 43.41919], [-83.9827, 43.41771], [-83.982703, 43.417674], [-83.982733, 43.417249]]]}}, {"type": "Feature", "properties": {"area_id": 6474, "city": "Saginaw", "state": "MI", "city_survey": true, "cat": "Still Desirable", "grade": "B", "label": "B1", "res": true, "com": false, "ind": false, "holc_grade": "B"}, "geometry": {"type": "Polygon", "coordinates": [[[-84.00581, 43.42589], [-84.005805, 43.426308], [-84.00569, 43.43672], [-84.00456, 43.43674], [-84.00465, 43.44392], [-83.99504, 43.443801], [-83.99253, 43.44377], [-83.977622, 43.443761], [-83.97555, 43.44376], [-83.975549, 43.44371], [-83.9754, 43.43584], [-83.98039, 43.43593], [-83.980335, 43.433025], [-83.98027, 43.42961], [-83.97556, 43.42604], [-83.97687, 43.42494], [-83.9816, 43.42789], [-83.98359, 43.42634], [-83.98805, 43.42921], [-83.988246, 43.429382], [-83.98879, 43.42986], [-83.98974, 43.43104], [-83.99013, 43.43203], [-83.99503, 43.4321], [-83.994974, 43.422241], [-83.99497, 43.42159], [-83.995135, 43.421656], [-84.00581, 43.42589]]]}}, {"type": "Feature", "properties": {"area_id": 6477, "city": "Saginaw", "state": "MI", "city_survey": true, "cat": "Still Desirable", "grade": "B", "label": "B2", "res": true, "com": false, "ind": false, "holc_grade": "B"}, "geometry": {"type": "Polygon", "coordinates": [[[-83.9827, 43.41771], [-83.98645, 43.41919], [-83.986479, 43.41906], [-83.9866, 43.41851], [-83.98959, 43.41955], [-83.989556, 43.420192], [-83.98951, 43.42105], [-83.988873, 43.420815], [-83.98265, 43.41852], [-83.9827, 43.41771]]]}}, {"type": "Feature", "properties": {"area_id": 6481, "city": "Saginaw", "state": "MI", "city_survey": true, "cat": "Still Desirable", "grade": "B", "label": "B3", "res": true, "com": false, "ind": false, "holc_grade": "B"}, "geometry": {"type": "Polygon", "coordinates": [[[-83.98332, 43.41508], [-83.98335, 43.41284], [-83.99029, 43.41299], [-83.99036, 43.4143], [-83.99452, 43.41431], [-83.99452, 43.41515], [-83.99379, 43.41515], [-83.98332, 43.41508]]]}}, {"type": "Feature", "properties": {"area_id": 6490, "city": "Saginaw", "state": "MI", "city_survey": true, "cat": "Still Desirable", "grade": "B", "label": "B4", "res": true, "com": false, "ind": false, "holc_grade": "B"}, "geometry": {"type": "Polygon", "coordinates": [[[-83.95423, 43.41496], [-83.9534, 43.41626], [-83.95279, 43.41704], [-83.95152, 43.41768], [-83.95077, 43.41831], [-83.94958, 43.4196], [-83.9472, 43.41859], [-83.9515, 43.41454], [-83.95313, 43.41298], [-83.95518, 43.4141], [-83.95423, 43.41496]]]}}, {"type": "Feature", "properties": {"area_id": 6469, "city": "Saginaw", "state": "MI", "city_survey": true, "cat": "Definitely Declining", "grade": "C", "label": "C1", "res": true, "com": false, "ind": false, "holc_grade": "C"}, "geometry": {"type": "Polygon", "coordinates": [[[-83.95884, 43.43467], [-83.960717, 43.434765], [-83.96081, 43.43477], [-83.96083, 43.43647], [-83.96093, 43.443678], [-83.96093, 43.4437], [-83.95993, 43.443707], [-83.959567, 43.443709], [-83.955612, 43.443737], [-83.95225, 43.44376], [-83.95233, 43.44666], [-83.95397, 43.44791], [-83.95501, 43.44913], [-83.95477, 43.44977], [-83.95527, 43.45093], [-83.94597, 43.45097], [-83.94327, 43.45096], [-83.94334, 43.44829], [-83.94346, 43.44737], [-83.9442, 43.44665], [-83.9455, 43.44571], [-83.94591, 43.44558], [-83.94707, 43.44585], [-83.94933, 43.4458], [-83.949433, 43.44367], [-83.94945, 43.44333], [-83.94943, 43.44223], [-83.948463, 43.436274], [-83.94831, 43.43533], [-83.94878, 43.43462], [-83.95884, 43.43467]]]}}, {"type": "Feature", "properties": {"area_id": 6488, "city": "Saginaw", "state": "MI", "city_survey": true, "cat": "Definitely Declining", "grade": "C", "label": "C10", "res": true, "com": false, "ind": false, "holc_grade": "C"}, "geometry": {"type": "Polygon", "coordinates": [[[-83.90393, 43.40719], [-83.89873, 43.39596], [-83.90887, 43.39582], [-83.91024, 43.39789], [-83.911915, 43.400376], [-83.91824, 43.40976], [-83.90984, 43.4098], [-83.90969, 43.41124], [-83.907061, 43.411178], [-83.90547, 43.41114], [-83.90393, 43.40719]]]}}, {"type": "Feature", "properties": {"area_id": 6492, "city": "Saginaw", "state": "MI", "city_survey": true, "cat": "Definitely Declining", "grade": "C", "label": "C11", "res": true, "com": false, "ind": false, "holc_grade": "C"}, "geometry": {"type": "Polygon", "coordinates": [[[-83.93594, 43.412461], [-83.94135, 43.41251], [-83.94099, 43.41357], [-83.94319, 43.41397], [-83.94209, 43.41681], [-83.9403, 43.42117], [-83.93918, 43.42405], [-83.9384, 43.42551], [-83.93749, 43.42711], [-83.937182, 43.427985], [-83.93673, 43.42927], [-83.93559, 43.42908], [-83.934768, 43.427965], [-83.93458, 43.42771], [-83.93157, 43.4286], [-83.92758, 43.42254], [-83.92393, 43.41718], [-83.92241, 43.4148], [-83.93102, 43.41482], [-83.931021, 43.414787], [-83.93107, 43.41254], [-83.93588, 43.41246], [-83.93594, 43.412461]]]}}, {"type": "Feature", "properties": {"area_id": 6495, "city": "Saginaw", "state": "MI", "city_survey": true, "cat": "Definitely Declining", "grade": "C", "label": "C12", "res": true, "com": false, "ind": false, "holc_grade": "C"}, "geometry": {"type": "Polygon", "coordinates": [[[-83.906742, 43.414771], [-83.917384, 43.414815], [-83.921, 43.41483], [-83.93024, 43.42859], [-83.924105, 43.428615], [-83.913, 43.42866], [-83.90724, 43.41604], [-83.90686, 43.41543], [-83.906731, 43.415222], [-83.90645, 43.41477], [-83.906742, 43.414771]]]}}, {"type": "Feature", "properties": {"area_id": 6493, "city": "Saginaw", "state": "MI", "city_survey": true, "cat": "Definitely Declining", "grade": "C", "label": "C13", "res": true, "com": false, "ind": false, "holc_grade": "C"}, "geometry": {"type": "Polygon", "coordinates": [[[-83.93503, 43.43256], [-83.93433, 43.43498], [-83.93834, 43.4357], [-83.937876, 43.437023], [-83.93714, 43.43912], [-83.93517, 43.43885], [-83.93142, 43.4388], [-83.93148, 43.43626], [-83.931605, 43.435915], [-83.9333, 43.43124], [-83.93503, 43.43256]]]}}, {"type": "Feature", "properties": {"area_id": 6494, "city": "Saginaw", "state": "MI", "city_survey": true, "cat": "Definitely Declining", "grade": "C", "label": "C14", "res": true, "com": false, "ind": false, "holc_grade": "C"}, "geometry": {"type": "Polygon", "coordinates": [[[-83.913, 43.42866], [-83.924105, 43.428615], [-83.93024, 43.42859], [-83.930634, 43.429225], [-83.93083, 43.42954], [-83.9333, 43.43124], [-83.931605, 43.435915], [-83.93148, 43.43626], [-83.93142, 43.4388], [-83.92738, 43.43882], [-83.92738, 43.43686], [-83.91749, 43.43677], [-83.91618, 43.43556], [-83.916005, 43.435181], [-83.915429, 43.43393], [-83.913, 43.42866]]]}}, {"type": "Feature", "properties": {"area_id": 6496, "city": "Saginaw", "state": "MI", "city_survey": true, "cat": "Definitely Declining", "grade": "C", "label": "C15", "res": true, "com": false, "ind": false, "holc_grade": "C"}, "geometry": {"type": "Polygon", "coordinates": [[[-83.906726, 43.415429], [-83.90686, 43.41543], [-83.90724, 43.41604], [-83.913, 43.42866], [-83.915429, 43.43393], [-83.916005, 43.435181], [-83.91618, 43.43556], [-83.91749, 43.43677], [-83.91662, 43.43676], [-83.916465, 43.436758], [-83.91148, 43.4367], [-83.9112, 43.44346], [-83.91255, 43.44351], [-83.91219, 43.4542], [-83.912144, 43.454213], [-83.909687, 43.454927], [-83.90916, 43.45508], [-83.90792, 43.45573], [-83.906682, 43.455651], [-83.90635, 43.45563], [-83.90624, 43.45501], [-83.9062, 43.45428], [-83.89622, 43.45446], [-83.89661, 43.4497], [-83.89654, 43.44333], [-83.89611, 43.42915], [-83.896108, 43.429073], [-83.89594, 43.42389], [-83.89611, 43.41537], [-83.906726, 43.415429]]]}}, {"type": "Feature", "properties": {"area_id": 6467, "city": "Saginaw", "state": "MI", "city_survey": true, "cat": "Definitely Declining", "grade": "C", "label": "C16", "res": true, "com": false, "ind": false, "holc_grade": "C"}, "geometry": {"type": "Polygon", "coordinates": [[[-83.91295, 43.48311], [-83.9132, 43.48228], [-83.91328, 43.4813], [-83.91313, 43.47992], [-83.91276, 43.47881], [-83.91214, 43.47758], [-83.91178, 43.4771], [-83.91138, 43.47574], [-83.9113, 43.47243], [-83.92199, 43.47253], [-83.92193, 43.48311], [-83.91295, 43.48311]]]}}, {"type": "Feature", "properties": {"area_id": 6472, "city": "Saginaw", "state": "MI", "city_survey": true, "cat": "Definitely Declining", "grade": "C", "label": "C2", "res": true, "com": false, "ind": false, "holc_grade": "C"}, "geometry": {"type": "Polygon", "coordinates": [[[-83.97556, 43.42604], [-83.98027, 43.42961], [-83.980335, 43.433025], [-83.98039, 43.43593], [-83.9754, 43.43584], [-83.975549, 43.44371], [-83.97555, 43.44376], [-83.96512, 43.44376], [-83.965118, 43.443667], [-83.96497, 43.43651], [-83.9686, 43.43656], [-83.968559, 43.432981], [-83.96853, 43.43041], [-83.975312, 43.43041], [-83.97537, 43.43041], [-83.975399, 43.426006], [-83.9754, 43.42592], [-83.975454, 43.42596], [-83.97556, 43.42604]]]}}, {"type": "Feature", "properties": {"area_id": 6470, "city": "Saginaw", "state": "MI", "city_survey": true, "cat": "Definitely Declining", "grade": "C", "label": "C3", "res": true, "com": false, "ind": false, "holc_grade": "C"}, "geometry": {"type": "Polygon", "coordinates": [[[-83.96853, 43.43041], [-83.968559, 43.432981], [-83.9686, 43.43656], [-83.96497, 43.43651], [-83.96083, 43.43647], [-83.96081, 43.43477], [-83.960717, 43.434765], [-83.95884, 43.43467], [-83.94878, 43.43462], [-83.95128, 43.42926], [-83.95885, 43.42931], [-83.95995, 43.42881], [-83.962068, 43.428805], [-83.96851, 43.42879], [-83.96853, 43.43041]]]}}, {"type": "Feature", "properties": {"area_id": 6473, "city": "Saginaw", "state": "MI", "city_survey": true, "cat": "Definitely Declining", "grade": "C", "label": "C4", "res": true, "com": false, "ind": false, "holc_grade": "C"}, "geometry": {"type": "Polygon", "coordinates": [[[-83.96015, 43.4182], [-83.96176, 43.41943], [-83.96431, 43.41778], [-83.96906, 43.421266], [-83.9754, 43.42592], [-83.975399, 43.426006], [-83.97537, 43.43041], [-83.975312, 43.43041], [-83.96853, 43.43041], [-83.96851, 43.42879], [-83.962068, 43.428805], [-83.95995, 43.42881], [-83.95885, 43.42931], [-83.95128, 43.42926], [-83.95357, 43.42451], [-83.95446, 43.42408], [-83.95404, 43.42364], [-83.95298, 43.42306], [-83.95245, 43.42274], [-83.953122, 43.422391], [-83.9549, 43.42147], [-83.95678, 43.42028], [-83.96015, 43.4182]]]}}, {"type": "Feature", "properties": {"area_id": 6476, "city": "Saginaw", "state": "MI", "city_survey": true, "cat": "Definitely Declining", "grade": "C", "label": "C5", "res": true, "com": false, "ind": false, "holc_grade": "C"}, "geometry": {"type": "Polygon", "coordinates": [[[-83.97568, 43.41503], [-83.982733, 43.415076], [-83.98332, 43.41508], [-83.99379, 43.41515], [-83.99377, 43.41885], [-83.99376, 43.42107], [-83.99497, 43.42159], [-83.994974, 43.422241], [-83.99503, 43.4321], [-83.99013, 43.43203], [-83.98974, 43.43104], [-83.98879, 43.42986], [-83.988246, 43.429382], [-83.98805, 43.42921], [-83.98359, 43.42634], [-83.98065, 43.42439], [-83.9793, 43.42539], [-83.9778, 43.42439], [-83.97687, 43.42494], [-83.97556, 43.42604], [-83.975454, 43.42596], [-83.9754, 43.42592], [-83.96906, 43.421266], [-83.96431, 43.41778], [-83.96678, 43.41575], [-83.96719, 43.41541], [-83.968322, 43.415412], [-83.97202, 43.41542], [-83.97501, 43.41541], [-83.97568, 43.41503]], [[-83.98959, 43.41955], [-83.9866, 43.41851], [-83.9866, 43.41641], [-83.9855, 43.41641], [-83.98537, 43.41664], [-83.98278, 43.41659], [-83.982733, 43.417249], [-83.982703, 43.417674], [-83.9827, 43.41771], [-83.98265, 43.41852], [-83.988873, 43.420815], [-83.98951, 43.42105], [-83.989556, 43.420192], [-83.98959, 43.41955]]]}}, {"type": "Feature", "properties": {"area_id": 6482, "city": "Saginaw", "state": "MI", "city_survey": true, "cat": "Definitely Declining", "grade": "C", "label": "C6", "res": true, "com": false, "ind": false, "holc_grade": "C"}, "geometry": {"type": "Polygon", "coordinates": [[[-83.98026, 43.39688], [-83.98318, 43.39685], [-83.98323, 43.39747], [-83.99157, 43.39752], [-83.99155, 43.40004], [-83.99155, 43.40095], [-83.991589, 43.407914], [-83.99159, 43.40802], [-83.99388, 43.40799], [-83.99445, 43.40799], [-83.99454, 43.40821], [-83.99452, 43.41431], [-83.99036, 43.4143], [-83.99029, 43.41299], [-83.98335, 43.41284], [-83.98332, 43.41508], [-83.982733, 43.415076], [-83.97568, 43.41503], [-83.97555, 43.41456], [-83.96835, 43.41455], [-83.967723, 43.415015], [-83.96719, 43.41541], [-83.96678, 43.41575], [-83.966, 43.41519], [-83.966885, 43.414471], [-83.978935, 43.404678], [-83.98228, 43.40196], [-83.98019, 43.40065], [-83.98026, 43.39688]], [[-83.98518, 43.40526], [-83.98256, 43.40515], [-83.98114, 43.40426], [-83.97672, 43.40778], [-83.977961, 43.407795], [-83.982747, 43.407852], [-83.98511, 43.40788], [-83.98511, 43.407864], [-83.98518, 43.40526]]]}}, {"type": "Feature", "properties": {"area_id": 6486, "city": "Saginaw", "state": "MI", "city_survey": true, "cat": "Definitely Declining", "grade": "C", "label": "C7", "res": true, "com": false, "ind": false, "holc_grade": "C"}, "geometry": {"type": "Polygon", "coordinates": [[[-83.95343, 43.40007], [-83.95346, 43.39855], [-83.95578, 43.39858], [-83.95571, 43.39574], [-83.95813, 43.39958], [-83.95927, 43.40211], [-83.961686, 43.407633], [-83.96172, 43.40771], [-83.95996, 43.40771], [-83.95991, 43.41015], [-83.9515, 43.4101], [-83.95141, 43.40892], [-83.94865, 43.40883], [-83.948612, 43.407601], [-83.94856, 43.40594], [-83.94582, 43.40594], [-83.94591, 43.39758], [-83.947177, 43.398303], [-83.95022, 43.40004], [-83.95343, 43.40007]]]}}, {"type": "Feature", "properties": {"area_id": 6487, "city": "Saginaw", "state": "MI", "city_survey": true, "cat": "Definitely Declining", "grade": "C", "label": "C8", "res": true, "com": false, "ind": false, "holc_grade": "C"}, "geometry": {"type": "Polygon", "coordinates": [[[-83.91654, 43.39305], [-83.928201, 43.393097], [-83.929644, 43.393103], [-83.934614, 43.393124], [-83.93587, 43.393129], [-83.93865, 43.39314], [-83.938832, 43.393251], [-83.94591, 43.39758], [-83.94582, 43.40594], [-83.945899, 43.407608], [-83.9459, 43.40762], [-83.94456, 43.41071], [-83.93595, 43.41062], [-83.93591, 43.41062], [-83.93588, 43.41246], [-83.93107, 43.41254], [-83.93107, 43.41233], [-83.92008, 43.41224], [-83.91824, 43.40976], [-83.911915, 43.400376], [-83.91024, 43.39789], [-83.90887, 43.39582], [-83.90712, 43.39318], [-83.914032, 43.393085], [-83.91654, 43.39305]], [[-83.92727, 43.39864], [-83.9273, 43.40043], [-83.94453, 43.40041], [-83.94453, 43.39856], [-83.92727, 43.39864]]]}}, {"type": "Feature", "properties": {"area_id": 6489, "city": "Saginaw", "state": "MI", "city_survey": true, "cat": "Definitely Declining", "grade": "C", "label": "C9", "res": true, "com": false, "ind": false, "holc_grade": "C"}, "geometry": {"type": "Polygon", "coordinates": [[[-83.91079, 43.39195], [-83.9063, 43.39188], [-83.90434, 43.38972], [-83.90163, 43.38605], [-83.89941, 43.38301], [-83.89807, 43.38124], [-83.91607, 43.38113], [-83.9164, 43.38731], [-83.91679, 43.3908], [-83.91696, 43.39184], [-83.91079, 43.39195]]]}}, {"type": "Feature", "properties": {"area_id": 6483, "city": "Saginaw", "state": "MI", "city_survey": true, "cat": "Hazardous", "grade": "D", "label": "D1", "res": true, "com": false, "ind": false, "holc_grade": "D"}, "geometry": {"type": "Polygon", "coordinates": [[[-83.97595, 43.40153], [-83.97713, 43.40037], [-83.97716, 43.39685], [-83.98026, 43.39688], [-83.98019, 43.40065], [-83.98228, 43.40196], [-83.978935, 43.404678], [-83.966885, 43.414471], [-83.966, 43.41519], [-83.96487, 43.41441], [-83.96574, 43.413704], [-83.97145, 43.40907], [-83.97167, 43.40648], [-83.973067, 43.405312], [-83.97687, 43.40213], [-83.97595, 43.40153]]]}}, {"type": "Feature", "properties": {"area_id": 6484, "city": "Saginaw", "state": "MI", "city_survey": true, "cat": "Hazardous", "grade": "D", "label": "D2", "res": true, "com": false, "ind": false, "holc_grade": "D"}, "geometry": {"type": "Polygon", "coordinates": [[[-83.99155, 43.40004], [-83.99157, 43.39752], [-83.995075, 43.397504], [-84.00015, 43.39748], [-84.000219, 43.408029], [-84.00022, 43.40815], [-83.995067, 43.408204], [-83.99454, 43.40821], [-83.99445, 43.40799], [-83.99388, 43.40799], [-83.993879, 43.407926], [-83.9938, 43.40095], [-83.99155, 43.40095], [-83.99155, 43.40004]]]}}, {"type": "Feature", "properties": {"area_id": 6485, "city": "Saginaw", "state": "MI", "city_survey": true, "cat": "Hazardous", "grade": "D", "label": "D3", "res": true, "com": false, "ind": false, "holc_grade": "D"}, "geometry": {"type": "Polygon", "coordinates": [[[-83.953027, 43.386765], [-83.955421, 43.386733], [-83.96296, 43.38663], [-83.96311, 43.38722], [-83.96364, 43.38732], [-83.96403, 43.38752], [-83.96403, 43.38978], [-83.964, 43.39024], [-83.9637, 43.39048], [-83.96391, 43.39086], [-83.96382, 43.39136], [-83.96355, 43.39175], [-83.96382, 43.39205], [-83.96355, 43.39335], [-83.96248, 43.39324], [-83.96219, 43.40598], [-83.962811, 43.407632], [-83.96284, 43.40771], [-83.96172, 43.40771], [-83.961686, 43.407633], [-83.95927, 43.40211], [-83.95813, 43.39958], [-83.95571, 43.39574], [-83.954081, 43.39321], [-83.95381, 43.39279], [-83.95099, 43.38888], [-83.95001, 43.387258], [-83.949854, 43.386998], [-83.94974, 43.38681], [-83.950408, 43.386801], [-83.953027, 43.386765]]]}}, {"type": "Feature", "properties": {"area_id": 6491, "city": "Saginaw", "state": "MI", "city_survey": true, "cat": "Hazardous", "grade": "D", "label": "D4", "res": true, "com": false, "ind": false, "holc_grade": "D"}, "geometry": {"type": "Polygon", "coordinates": [[[-83.9384, 43.42551], [-83.93918, 43.42405], [-83.9403, 43.42117], [-83.94209, 43.41681], [-83.947, 43.41888], [-83.94504, 43.42153], [-83.94249, 43.42499], [-83.94097, 43.42766], [-83.940571, 43.428642], [-83.9401, 43.4298], [-83.93673, 43.42927], [-83.937182, 43.427985], [-83.93749, 43.42711], [-83.9384, 43.42551]]]}}, {"type": "Feature", "properties": {"area_id": 6497, "city": "Saginaw", "state": "MI", "city_survey": true, "cat": "Hazardous", "grade": "D", "label": "D5", "res": true, "com": false, "ind": false, "holc_grade": "D"}, "geometry": {"type": "Polygon", "coordinates": [[[-83.91662, 43.43676], [-83.916569, 43.439932], [-83.91653, 43.442351], [-83.91651, 43.44357], [-83.91651, 43.44358], [-83.917193, 43.443584], [-83.92446, 43.44363], [-83.9245, 43.439], [-83.91883, 43.43762], [-83.91749, 43.43677], [-83.92738, 43.43686], [-83.92738, 43.43882], [-83.93142, 43.4388], [-83.93517, 43.43885], [-83.93714, 43.43912], [-83.9368, 43.44011], [-83.93644, 43.44081], [-83.93576, 43.4414], [-83.9302, 43.44006], [-83.93042, 43.44239], [-83.93234, 43.44244], [-83.93337, 43.44285], [-83.93394, 43.44353], [-83.92678, 43.44761], [-83.92204, 43.44761], [-83.92161, 43.44746], [-83.916911, 43.449652], [-83.91683, 43.44969], [-83.91676, 43.45176], [-83.916441, 43.452474], [-83.9163, 43.45279], [-83.915731, 43.452985], [-83.91219, 43.4542], [-83.91255, 43.44351], [-83.9112, 43.44346], [-83.91148, 43.4367], [-83.916465, 43.436758], [-83.91662, 43.43676]]]}}, {"type": "Feature", "properties": {"area_id": 6468, "city": "Saginaw", "state": "MI", "city_survey": true, "cat": "Hazardous", "grade": "D", "label": "D6", "res": true, "com": false, "ind": false, "holc_grade": "D"}, "geometry": {"type": "Polygon", "coordinates": [[[-83.9275, 43.4579], [-83.92862, 43.4574], [-83.93178, 43.45573], [-83.93501, 43.45414], [-83.93672, 43.45335], [-83.93844, 43.45262], [-83.93943, 43.45214], [-83.94019, 43.45169], [-83.94074, 43.45095], [-83.94327, 43.45096], [-83.94597, 43.45097], [-83.94595, 43.45675], [-83.93601, 43.45987], [-83.93342, 43.46109], [-83.93739, 43.46536], [-83.93934, 43.46753], [-83.93054, 43.47157], [-83.930286, 43.471298], [-83.925138, 43.465787], [-83.92501, 43.46565], [-83.920574, 43.465537], [-83.91952, 43.46551], [-83.919534, 43.46548], [-83.92189, 43.46054], [-83.9275, 43.4579]]]}}, {"type": "Feature", "properties": {"area_id": 11243, "city": "Saginaw", "state": "MI", "city_survey": true, "cat": "Industrial and Commercial", "grade": null, "label": "Industrial and Commercial", "res": false, "com": true, "ind": true, "holc_grade": null}, "geometry": {"type": "MultiPolygon", "coordinates": [[[[-83.94958, 43.4196], [-83.94882, 43.42062], [-83.94649, 43.42287], [-83.94527, 43.4246], [-83.94394, 43.42645], [-83.943911, 43.426497], [-83.94245, 43.4289], [-83.94174, 43.43193], [-83.94077, 43.43363], [-83.93987, 43.43607], [-83.939516, 43.437324], [-83.93826, 43.44178], [-83.9378, 43.44197], [-83.93778, 43.44303], [-83.93744, 43.44412], [-83.9344, 43.44902], [-83.9341, 43.44919], [-83.9332, 43.44911], [-83.93238, 43.44926], [-83.93238, 43.4498], [-83.93149, 43.45117], [-83.92955, 43.45214], [-83.92679, 43.45364], [-83.92684, 43.45401], [-83.91664, 43.45746], [-83.91503, 43.45843], [-83.9139, 43.4595], [-83.91196, 43.46143], [-83.91099, 43.46331], [-83.910918, 43.464127], [-83.91084, 43.465013], [-83.91081, 43.46535], [-83.908846, 43.465294], [-83.90629, 43.46522], [-83.906506, 43.456955], [-83.90654, 43.45564], [-83.906683, 43.455649], [-83.90792, 43.45573], [-83.90916, 43.45508], [-83.909687, 43.454927], [-83.912144, 43.454213], [-83.91219, 43.4542], [-83.915731, 43.452985], [-83.9163, 43.45279], [-83.916441, 43.452474], [-83.91676, 43.45176], [-83.91683, 43.44969], [-83.916911, 43.449652], [-83.92161, 43.44746], [-83.92204, 43.44761], [-83.92678, 43.44761], [-83.93394, 43.44353], [-83.93337, 43.44285], [-83.93234, 43.44244], [-83.93042, 43.44239], [-83.9302, 43.44006], [-83.93576, 43.4414], [-83.93644, 43.44081], [-83.9368, 43.44011], [-83.93714, 43.43912], [-83.937876, 43.437023], [-83.93834, 43.4357], [-83.93433, 43.43498], [-83.93503, 43.43256], [-83.9333, 43.43124], [-83.93083, 43.42954], [-83.930634, 43.429225], [-83.93024, 43.42859], [-83.92831, 43.42571], [-83.92577, 43.42193], [-83.921, 43.41483], [-83.917384, 43.414815], [-83.906742, 43.414771], [-83.90645, 43.41477], [-83.90544, 43.4146], [-83.90499, 43.41131], [-83.90547, 43.41114], [-83.907061, 43.411178], [-83.90969, 43.41124], [-83.90984, 43.4098], [-83.91824, 43.40976], [-83.92008, 43.41224], [-83.93107, 43.41233], [-83.93107, 43.41254], [-83.931021, 43.414787], [-83.93102, 43.41482], [-83.92241, 43.4148], [-83.92393, 43.41718], [-83.92671, 43.42127], [-83.92758, 43.42254], [-83.92914, 43.42491], [-83.93157, 43.4286], [-83.93458, 43.42771], [-83.934768, 43.427965], [-83.93559, 43.42908], [-83.93673, 43.42927], [-83.9401, 43.4298], [-83.940571, 43.428642], [-83.94097, 43.42766], [-83.94249, 43.42499], [-83.94504, 43.42153], [-83.947, 43.41888], [-83.9472, 43.41859], [-83.94958, 43.4196]]], [[[-83.917193, 43.443584], [-83.91651, 43.44358], [-83.91651, 43.44357], [-83.91653, 43.442351], [-83.916569, 43.439932], [-83.91662, 43.43676], [-83.91749, 43.43677], [-83.91883, 43.43762], [-83.9245, 43.439], [-83.92446, 43.44363], [-83.917193, 43.443584]]], [[[-83.973067, 43.405312], [-83.97167, 43.40648], [-83.97145, 43.40907], [-83.96574, 43.413704], [-83.96487, 43.41441], [-83.965287, 43.41348], [-83.96612, 43.41162], [-83.96716, 43.40689], [-83.96768, 43.40639], [-83.96764, 43.40398], [-83.9676, 43.40201], [-83.967576, 43.40192], [-83.96656, 43.39815], [-83.96988, 43.39815], [-83.97227, 43.39917], [-83.97595, 43.40153], [-83.97687, 43.40213], [-83.973067, 43.405312]]], [[[-83.96487, 43.41441], [-83.966, 43.41519], [-83.96678, 43.41575], [-83.96431, 43.41778], [-83.96176, 43.41943], [-83.96015, 43.4182], [-83.95678, 43.42028], [-83.9549, 43.42147], [-83.953122, 43.422391], [-83.95245, 43.42274], [-83.95298, 43.42306], [-83.95404, 43.42364], [-83.95446, 43.42408], [-83.95357, 43.42451], [-83.94831, 43.43533], [-83.948463, 43.436274], [-83.94943, 43.44223], [-83.94945, 43.44333], [-83.949433, 43.44367], [-83.94933, 43.4458], [-83.94707, 43.44585], [-83.94591, 43.44558], [-83.9455, 43.44571], [-83.9442, 43.44665], [-83.94346, 43.44737], [-83.94334, 43.44829], [-83.94327, 43.45096], [-83.94074, 43.45095], [-83.94019, 43.45169], [-83.93943, 43.45214], [-83.93844, 43.45262], [-83.93672, 43.45335], [-83.93501, 43.45414], [-83.93178, 43.45573], [-83.92862, 43.4574], [-83.9275, 43.4579], [-83.92189, 43.46054], [-83.919534, 43.46548], [-83.91952, 43.46551], [-83.919471, 43.465477], [-83.9168, 43.46367], [-83.9166, 43.46054], [-83.91984, 43.45892], [-83.92068, 43.45784], [-83.92443, 43.45628], [-83.92918, 43.45454], [-83.92994, 43.45355], [-83.93425, 43.4517], [-83.93641, 43.44984], [-83.93697, 43.44842], [-83.93917, 43.44514], [-83.940083, 43.443563], [-83.94056, 43.44274], [-83.94068, 43.44155], [-83.94172, 43.43734], [-83.941964, 43.436288], [-83.94248, 43.43407], [-83.94448, 43.42853], [-83.94656, 43.42551], [-83.95027, 43.4229], [-83.952267, 43.421867], [-83.95346, 43.42125], [-83.95742, 43.41933], [-83.96137, 43.41698], [-83.96487, 43.41441]]], [[[-83.9361, 43.3986], [-83.94453, 43.39856], [-83.94453, 43.40041], [-83.93615, 43.40042], [-83.9273, 43.40043], [-83.92727, 43.39864], [-83.9361, 43.3986]]], [[[-83.94856, 43.40594], [-83.948612, 43.407601], [-83.94865, 43.40883], [-83.95141, 43.40892], [-83.9515, 43.4101], [-83.95224, 43.4101], [-83.95168, 43.41114], [-83.95189, 43.41147], [-83.95028, 43.4124], [-83.94373, 43.41251], [-83.94319, 43.41397], [-83.94099, 43.41357], [-83.94135, 43.41251], [-83.93594, 43.412461], [-83.93588, 43.41246], [-83.93591, 43.41062], [-83.93595, 43.41062], [-83.94456, 43.41071], [-83.9459, 43.40762], [-83.945899, 43.407608], [-83.94582, 43.40594], [-83.94856, 43.40594]]], [[[-83.95343, 43.40007], [-83.95022, 43.40004], [-83.94764, 43.39857], [-83.95346, 43.39855], [-83.95343, 43.40007]]], [[[-83.97202, 43.41542], [-83.97156, 43.41542], [-83.968323, 43.415413], [-83.96719, 43.41541], [-83.967723, 43.415015], [-83.96835, 43.41455], [-83.9714, 43.41455], [-83.97555, 43.41456], [-83.97568, 43.41503], [-83.97501, 43.41541], [-83.97202, 43.41542]]], [[[-83.98511, 43.40788], [-83.982747, 43.407855], [-83.98134, 43.40784], [-83.977894, 43.407795], [-83.97672, 43.40778], [-83.98114, 43.40426], [-83.98256, 43.40515], [-83.98518, 43.40526], [-83.98511, 43.407864], [-83.98511, 43.40788]]], [[[-83.99388, 43.40799], [-83.99159, 43.40802], [-83.991589, 43.407914], [-83.99157, 43.40419], [-83.99155, 43.40095], [-83.9938, 43.40095], [-83.99384, 43.40425], [-83.993879, 43.407926], [-83.99388, 43.40799]]]]}}]}