{"type": "FeatureCollection", "features": [{"type": "Feature", "properties": {"area_id": 5058, "city": "Malden", "state": "MA", "city_survey": true, "cat": "Still Desirable", "grade": "B", "label": "B1", "res": true, "com": false, "ind": false, "holc_grade": "B"}, "geometry": {"type": "Polygon", "coordinates": [[[-71.087953, 42.429542], [-71.08754, 42.43018], [-71.08611, 42.43081], [-71.08451, 42.43089], [-71.08422, 42.43157], [-71.08444, 42.43339], [-71.08504, 42.43518], [-71.08498, 42.435308], [-71.08444, 42.43647], [-71.08447, 42.43742], [-71.0834, 42.43786], [-71.08319, 42.43686], [-71.08322, 42.43636], [-71.0824, 42.43602], [-71.08176, 42.4355], [-71.08119, 42.43331], [-71.080691, 42.4313], [-71.08002, 42.4286], [-71.08216, 42.42844], [-71.08412, 42.4275], [-71.08483, 42.42676], [-71.08529, 42.42623], [-71.08615, 42.42576], [-71.08647, 42.42576], [-71.08626, 42.42621], [-71.08526, 42.42679], [-71.08454, 42.4276], [-71.0833, 42.42836], [-71.08305, 42.42889], [-71.08322, 42.43044], [-71.08597, 42.43026], [-71.08708, 42.42976], [-71.0875, 42.4291], [-71.08768, 42.42834], [-71.08814, 42.42855], [-71.08829, 42.42902], [-71.088273, 42.429047], [-71.087953, 42.429542]]]}}, {"type": "Feature", "properties": {"area_id": 5132, "city": "Malden", "state": "MA", "city_survey": true, "cat": "Definitely Declining", "grade": "C", "label": "C1", "res": true, "com": false, "ind": false, "holc_grade": "C"}, "geometry": {"type": "Polygon", "coordinates": [[[-71.08342, 42.4243], [-71.08244, 42.42369], [-71.08235, 42.42332], [-71.08256, 42.42242], [-71.08523, 42.42251], [-71.08512, 42.42106], [-71.08402, 42.42088], [-71.08408, 42.4186], [-71.08146, 42.41865], [-71.08158, 42.41775], [-71.08393, 42.41775], [-71.08578, 42.41797], [-71.08587, 42.41819], [-71.088597, 42.424591], [-71.08866, 42.42474], [-71.089205, 42.426078], [-71.08943, 42.42663], [-71.089195, 42.428254], [-71.08914, 42.42863], [-71.08918, 42.429], [-71.089079, 42.429002], [-71.08829, 42.42902], [-71.08814, 42.42855], [-71.08768, 42.42834], [-71.0875, 42.4291], [-71.08708, 42.42976], [-71.08597, 42.43026], [-71.08322, 42.43044], [-71.08305, 42.42889], [-71.0833, 42.42836], [-71.08454, 42.4276], [-71.08526, 42.42679], [-71.08626, 42.42621], [-71.08647, 42.42576], [-71.08615, 42.42576], [-71.08529, 42.42623], [-71.08483, 42.42676], [-71.08412, 42.4275], [-71.08216, 42.42844], [-71.08002, 42.4286], [-71.080691, 42.4313], [-71.08119, 42.43331], [-71.08176, 42.4355], [-71.0824, 42.43602], [-71.08322, 42.43636], [-71.08319, 42.43686], [-71.0834, 42.43786], [-71.08232, 42.43815], [-71.08095, 42.43802], [-71.07941, 42.43714], [-71.07735, 42.43692], [-71.0769, 42.43815], [-71.07598, 42.43899], [-71.07439, 42.4397], [-71.07402, 42.43975], [-71.0735, 42.439809], [-71.06777, 42.44046], [-71.067743, 42.440402], [-71.06737, 42.43962], [-71.067087, 42.438579], [-71.06691, 42.43793], [-71.067152, 42.43755], [-71.06731, 42.4373], [-71.067237, 42.4373], [-71.06652, 42.4373], [-71.06646, 42.43671], [-71.066, 42.43667], [-71.06589, 42.436], [-71.06537, 42.43608], [-71.06418, 42.43566], [-71.06452, 42.43465], [-71.06429, 42.43398], [-71.06446, 42.43288], [-71.06361, 42.42855], [-71.067049, 42.427822], [-71.0672, 42.42779], [-71.06783, 42.42749], [-71.07085, 42.428], [-71.07074, 42.42745], [-71.07291, 42.42766], [-71.073873, 42.42757], [-71.0743, 42.42753], [-71.07623, 42.42733], [-71.076268, 42.427145], [-71.07662, 42.42545], [-71.07929, 42.42542], [-71.0833, 42.42457], [-71.08342, 42.4243]]]}}, {"type": "Feature", "properties": {"area_id": 5133, "city": "Malden", "state": "MA", "city_survey": true, "cat": "Definitely Declining", "grade": "C", "label": "C2", "res": true, "com": false, "ind": false, "holc_grade": "C"}, "geometry": {"type": "Polygon", "coordinates": [[[-71.05265, 42.43111], [-71.05745, 42.43107], [-71.057774, 42.430937], [-71.060104, 42.429982], [-71.06328, 42.42868], [-71.06361, 42.42855], [-71.06446, 42.43288], [-71.06429, 42.43398], [-71.06452, 42.43465], [-71.06418, 42.43566], [-71.06537, 42.43608], [-71.06349, 42.43621], [-71.06252, 42.43566], [-71.06184, 42.43579], [-71.06138, 42.43663], [-71.06041, 42.43709], [-71.05767, 42.43928], [-71.05613, 42.44], [-71.05636, 42.44063], [-71.05556, 42.44109], [-71.055404, 42.441661], [-71.05533, 42.44193], [-71.050874, 42.442442], [-71.04872, 42.44269], [-71.04632, 42.44265], [-71.03103, 42.44418], [-71.02894, 42.444395], [-71.0287, 42.44442], [-71.03366, 42.43827], [-71.037149, 42.436914], [-71.03788, 42.43663], [-71.038814, 42.434202], [-71.0401, 42.43086], [-71.04376, 42.43057], [-71.04564, 42.43048], [-71.04929, 42.43019], [-71.04929, 42.43111], [-71.04974, 42.43196], [-71.049788, 42.431946], [-71.050707, 42.431677], [-71.05265, 42.43111]]]}}, {"type": "Feature", "properties": {"area_id": 5129, "city": "Malden", "state": "MA", "city_survey": true, "cat": "Definitely Declining", "grade": "C", "label": "C3", "res": true, "com": false, "ind": false, "holc_grade": "C"}, "geometry": {"type": "Polygon", "coordinates": [[[-71.06453, 42.415272], [-71.06454, 42.41527], [-71.06849, 42.41522], [-71.07118, 42.41518], [-71.07173, 42.41629], [-71.07163, 42.41661], [-71.0708, 42.41669], [-71.07082, 42.41784], [-71.070784, 42.41812], [-71.07059, 42.41964], [-71.069568, 42.419715], [-71.06774, 42.41985], [-71.06698, 42.42093], [-71.06729, 42.42167], [-71.067468, 42.423107], [-71.06747, 42.42312], [-71.06774, 42.42409], [-71.06551, 42.42518], [-71.064794, 42.424401], [-71.06414, 42.42369], [-71.06319, 42.42336], [-71.06315, 42.423346], [-71.05838, 42.42169], [-71.05787, 42.42115], [-71.054781, 42.420007], [-71.0546, 42.41994], [-71.05523, 42.4197], [-71.057922, 42.417849], [-71.0599, 42.41649], [-71.06024, 42.41626], [-71.06152, 42.41575], [-71.063645, 42.415412], [-71.06453, 42.415272]]]}}, {"type": "Feature", "properties": {"area_id": 5128, "city": "Malden", "state": "MA", "city_survey": true, "cat": "Hazardous", "grade": "D", "label": "D1", "res": true, "com": false, "ind": false, "holc_grade": "D"}, "geometry": {"type": "Polygon", "coordinates": [[[-71.07853, 42.4136], [-71.07905, 42.41437], [-71.079424, 42.414982], [-71.07976, 42.41553], [-71.08152, 42.41525], [-71.082852, 42.4157], [-71.0838, 42.41602], [-71.08561, 42.41759], [-71.085721, 42.417839], [-71.08578, 42.41797], [-71.08393, 42.41775], [-71.08158, 42.41775], [-71.08146, 42.41865], [-71.08408, 42.4186], [-71.08402, 42.42088], [-71.08512, 42.42106], [-71.08523, 42.42251], [-71.08256, 42.42242], [-71.08235, 42.42332], [-71.08244, 42.42369], [-71.08342, 42.4243], [-71.0833, 42.42457], [-71.07929, 42.42542], [-71.07662, 42.42545], [-71.076268, 42.427145], [-71.07623, 42.42733], [-71.0743, 42.42753], [-71.073873, 42.42757], [-71.07291, 42.42766], [-71.07288, 42.42698], [-71.07261, 42.42617], [-71.07142, 42.42615], [-71.07023, 42.42645], [-71.06854, 42.42608], [-71.06866, 42.4258], [-71.06839, 42.42455], [-71.06774, 42.42409], [-71.06747, 42.42312], [-71.067468, 42.423107], [-71.06729, 42.42167], [-71.06698, 42.42093], [-71.06774, 42.41985], [-71.069568, 42.419715], [-71.07059, 42.41964], [-71.07087, 42.42392], [-71.07325, 42.42325], [-71.07564, 42.423204], [-71.07691, 42.42318], [-71.07701, 42.42164], [-71.07791, 42.42065], [-71.077775, 42.413773], [-71.07777, 42.41353], [-71.07827, 42.41306], [-71.07853, 42.4136]]]}}, {"type": "Feature", "properties": {"area_id": 5143, "city": "Malden", "state": "MA", "city_survey": true, "cat": "Hazardous", "grade": "D", "label": "D2", "res": true, "com": false, "ind": false, "holc_grade": "D"}, "geometry": {"type": "Polygon", "coordinates": [[[-71.0546, 42.41994], [-71.054781, 42.420007], [-71.05787, 42.42115], [-71.05838, 42.42169], [-71.06315, 42.423346], [-71.06319, 42.42336], [-71.06414, 42.42369], [-71.064794, 42.424401], [-71.06551, 42.42518], [-71.06588, 42.42542], [-71.06531, 42.42588], [-71.063797, 42.426351], [-71.06274, 42.42668], [-71.06321, 42.428421], [-71.06328, 42.42868], [-71.060104, 42.429982], [-71.057774, 42.430937], [-71.05745, 42.43107], [-71.05265, 42.43111], [-71.050707, 42.431677], [-71.049788, 42.431946], [-71.04974, 42.43196], [-71.04929, 42.43111], [-71.04929, 42.43019], [-71.04564, 42.43048], [-71.04376, 42.43057], [-71.0401, 42.43086], [-71.038814, 42.434202], [-71.03788, 42.43663], [-71.037149, 42.436914], [-71.03366, 42.43827], [-71.0287, 42.44442], [-71.025814, 42.444724], [-71.02557, 42.44475], [-71.02248, 42.44124], [-71.01953, 42.43826], [-71.02048, 42.437], [-71.02405, 42.43152], [-71.028083, 42.424154], [-71.02814, 42.42405], [-71.03147, 42.42381], [-71.04078, 42.42338], [-71.041049, 42.423317], [-71.0433, 42.42279], [-71.05053, 42.42237], [-71.05267, 42.42121], [-71.054211, 42.420196], [-71.054443, 42.420043], [-71.054508, 42.42], [-71.0546, 42.41994]]]}}, {"type": "Feature", "properties": {"area_id": 11588, "city": "Malden", "state": "MA", "city_survey": true, "cat": "Commercial", "grade": null, "label": "Commercial", "res": false, "com": true, "ind": false, "holc_grade": null}, "geometry": {"type": "Polygon", "coordinates": [[[-71.06588, 42.42542], [-71.06551, 42.42518], [-71.06774, 42.42409], [-71.06839, 42.42455], [-71.06866, 42.4258], [-71.06854, 42.42608], [-71.07023, 42.42645], [-71.07142, 42.42615], [-71.07261, 42.42617], [-71.07288, 42.42698], [-71.07291, 42.42766], [-71.07074, 42.42745], [-71.07085, 42.428], [-71.06783, 42.42749], [-71.0672, 42.42779], [-71.067049, 42.427822], [-71.06361, 42.42855], [-71.06328, 42.42868], [-71.06321, 42.428421], [-71.06274, 42.42668], [-71.063797, 42.426351], [-71.06531, 42.42588], [-71.06588, 42.42542]]]}}, {"type": "Feature", "properties": {"area_id": 11589, "city": "Malden", "state": "MA", "city_survey": true, "cat": "Industrial", "grade": null, "label": "Industrial", "res": false, "com": false, "ind": true, "holc_grade": null}, "geometry": {"type": "MultiPolygon", "coordinates": [[[[-71.07222, 42.42073], [-71.07186, 42.4217], [-71.07072, 42.42157], [-71.07059, 42.41964], [-71.070784, 42.41812], [-71.07082, 42.41784], [-71.07183, 42.41784], [-71.07186, 42.418065], [-71.07222, 42.42073]]], [[[-71.076797, 42.413333], [-71.077339, 42.413443], [-71.07777, 42.41353], [-71.077775, 42.413773], [-71.07791, 42.42065], [-71.07701, 42.42164], [-71.07691, 42.42318], [-71.075639, 42.423206], [-71.07498, 42.42322], [-71.07565, 42.42165], [-71.075504, 42.417646], [-71.07535, 42.41341], [-71.076112, 42.413264], [-71.07629, 42.41323], [-71.076445, 42.413261], [-71.076797, 42.413333]]]]}}]}