{"type": "FeatureCollection", "features": [{"type": "Feature", "geometry": {"type": "Point", "coordinates": [-80.732222, 41.3025]}, "properties": {"facility_name": "CONTROL TRANSFORMER INC", "industry": null, "tri_facility_id": "44410CNTRL3701W"}}, {"type": "Feature", "geometry": {"type": "Point", "coordinates": [-80.730556, 41.177222]}, "properties": {"facility_name": "HECKETT TECH SERVICES, DELHI AGGLOMERATION", "industry": null, "tri_facility_id": "44437DLHGG200OH"}}, {"type": "Feature", "geometry": {"type": "Point", "coordinates": [-80.73222222222222, 41.2025]}, "properties": {"facility_name": "BP - NILES TERMINAL", "industry": null, "tri_facility_id": "44446BPLCN1001Y"}}, {"type": "Feature", "geometry": {"type": "Point", "coordinates": [-80.756294, 41.180934]}, "properties": {"facility_name": "CLEVELAND STEEL CONTAINER - NI LES", "industry": null, "tri_facility_id": "44446CLVLN115ER"}}, {"type": "Feature", "geometry": {"type": "Point", "coordinates": [-80.74694444444445, 41.166666666666664]}, "properties": {"facility_name": "NILES POWER PLANT", "industry": null, "tri_facility_id": "44446FRSTN1047B"}}, {"type": "Feature", "geometry": {"type": "Point", "coordinates": [-80.7653, 41.1852]}, "properties": {"facility_name": "GE NILES/MAHONING GLASS", "industry": null, "tri_facility_id": "44446GNLSM403NO"}}, {"type": "Feature", "geometry": {"type": "Point", "coordinates": [-80.790944, 41.1649]}, "properties": {"facility_name": "L B FOSTER CO", "industry": null, "tri_facility_id": "44446LBFST1195S"}}, {"type": "Feature", "geometry": {"type": "Point", "coordinates": [-80.77361111111111, 41.18888888888888]}, "properties": {"facility_name": "ARK II MANUFACTURING LLC", "industry": null, "tri_facility_id": "44446MWLDB100PL"}}, {"type": "Feature", "geometry": {"type": "Point", "coordinates": [-80.75, 41.170833333333334]}, "properties": {"facility_name": "OHIO VALLEY ALUMINUM CO LLC NILES FACILITY", "industry": null, "tri_facility_id": "44446NLSCS925CA"}}, {"type": "Feature", "geometry": {"type": "Point", "coordinates": [-80.7594, 41.1863]}, "properties": {"facility_name": "NILES MFG & FINISHING INC", "industry": null, "tri_facility_id": "44446NLSMF465WA"}}, {"type": "Feature", "geometry": {"type": "Point", "coordinates": [-80.773611, 41.1875]}, "properties": {"facility_name": "RMI TITANIUM CO LLC", "industry": null, "tri_facility_id": "44446RMCMP1000W"}}, {"type": "Feature", "geometry": {"type": "Point", "coordinates": [-80.749167, 41.176389]}, "properties": {"facility_name": "INDALEX INC. NILES FACILITY", "industry": null, "tri_facility_id": "44446SCLMN643HE"}}, {"type": "Feature", "geometry": {"type": "Point", "coordinates": [-80.765278, 41.181111]}, "properties": {"facility_name": "BOSTWICK STEEL LATH CO", "industry": null, "tri_facility_id": "44446THBST49WES"}}, {"type": "Feature", "geometry": {"type": "Point", "coordinates": [-80.815278, 41.225]}, "properties": {"facility_name": "RG STEEL, LLC", "industry": null, "tri_facility_id": "44481WRRNW1040P"}}, {"type": "Feature", "geometry": {"type": "Point", "coordinates": [-80.850556, 41.272778]}, "properties": {"facility_name": "WARREN STEEL HOLDINGS LLC", "industry": null, "tri_facility_id": "44482CPPRW4000M"}}, {"type": "Feature", "geometry": {"type": "Point", "coordinates": [-80.8128, 41.2025]}, "properties": {"facility_name": "HARSCO CO HECKETT MULTISERV PLANT 4", "industry": null, "tri_facility_id": "44482HRSCCCOCOP"}}, {"type": "Feature", "geometry": {"type": "Point", "coordinates": [-80.809722, 41.210556]}, "properties": {"facility_name": "HARSCO METALS - WARREN", "industry": null, "tri_facility_id": "44482HRSCCCOLTV"}}, {"type": "Feature", "geometry": {"type": "Point", "coordinates": [-80.8128, 41.2025]}, "properties": {"facility_name": "CLEVELAND-CLIFFS CLEVELAND WORKS LLC DBA CLEVELAND-CLIFFS WA", "industry": null, "tri_facility_id": "44482LTVST2234M"}}, {"type": "Feature", "geometry": {"type": "Point", "coordinates": [-80.806111, 41.212778]}, "properties": {"facility_name": "BOC GASES", "industry": null, "tri_facility_id": "44482RCNDSSPINE"}}, {"type": "Feature", "geometry": {"type": "Point", "coordinates": [-80.8275, 41.244722]}, "properties": {"facility_name": "TAYLOR-WINFIELD CORP", "industry": null, "tri_facility_id": "44482THTYL1052M"}}, {"type": "Feature", "geometry": {"type": "Point", "coordinates": [-80.808333, 41.258333]}, "properties": {"facility_name": "TECNOCAP LLC", "industry": null, "tri_facility_id": "44483BLLNF2100G"}}, {"type": "Feature", "geometry": {"type": "Point", "coordinates": [-80.78916666666666, 41.26611111111111]}, "properties": {"facility_name": "DIETRICH INDUSTRIES", "industry": null, "tri_facility_id": "44483DTRCH1985N"}}, {"type": "Feature", "geometry": {"type": "Point", "coordinates": [-80.796944, 41.265278]}, "properties": {"facility_name": "ATLANTIS PLASTICS INJECTION MOLDING INC", "industry": null, "tri_facility_id": "44483DVNCD1512P"}}, {"type": "Feature", "geometry": {"type": "Point", "coordinates": [-80.812778, 41.248611]}, "properties": {"facility_name": "DELPHI PACKARD ELECTRIC DANA FACILITY", "industry": null, "tri_facility_id": "44483GMCPC408DA"}}, {"type": "Feature", "geometry": {"type": "Point", "coordinates": [-80.797222, 41.270833]}, "properties": {"facility_name": "APTIV NORTH RIVER ROAD FACILITY", "industry": null, "tri_facility_id": "44483GMCPCNORTH"}}, {"type": "Feature", "geometry": {"type": "Point", "coordinates": [-80.8125, 41.248889]}, "properties": {"facility_name": "GENERAL MOTORS CORP PACKARD ELECTRIC PLANT 8", "industry": null, "tri_facility_id": "44483GMSPC1524P"}}, {"type": "Feature", "geometry": {"type": "Point", "coordinates": [-80.819167, 41.2375]}, "properties": {"facility_name": "GE LIGHTING-OHIO LAMP PLANT", "industry": null, "tri_facility_id": "44483GNRLL1210N"}}, {"type": "Feature", "geometry": {"type": "Point", "coordinates": [-80.854167, 41.276944]}, "properties": {"facility_name": "A P GREEN REFRACTORIES CO INC", "industry": null, "tri_facility_id": "44483GNRLR400RE"}}, {"type": "Feature", "geometry": {"type": "Point", "coordinates": [-80.8, 41.258333]}, "properties": {"facility_name": "OAKES FOUNDRY INC", "industry": null, "tri_facility_id": "44483KSFNDBRONZ"}}, {"type": "Feature", "geometry": {"type": "Point", "coordinates": [-80.819444, 41.235556]}, "properties": {"facility_name": "NOVELIS CORP", "industry": null, "tri_facility_id": "44483LCNRL390GR"}}, {"type": "Feature", "geometry": {"type": "Point", "coordinates": [-80.801389, 41.256389]}, "properties": {"facility_name": "AMERICAN WELDING & MFG CO", "industry": null, "tri_facility_id": "44483MRCNW250DI"}}, {"type": "Feature", "geometry": {"type": "Point", "coordinates": [-80.8025, 41.256111]}, "properties": {"facility_name": "RESCO PRODUCTS INC", "industry": null, "tri_facility_id": "44483NTDRF1929L"}}, {"type": "Feature", "geometry": {"type": "Point", "coordinates": [-80.81416666666667, 41.22777777777778]}, "properties": {"facility_name": "RE-GEN,INC.", "industry": null, "tri_facility_id": "44483RGNNC1040P"}}, {"type": "Feature", "geometry": {"type": "Point", "coordinates": [-80.796667, 41.262778]}, "properties": {"facility_name": "SCHAEFER EQUIPMENT INC", "industry": null, "tri_facility_id": "44483SCHFRPHOEN"}}, {"type": "Feature", "geometry": {"type": "Point", "coordinates": [-80.785556, 41.268611]}, "properties": {"facility_name": "HARSCO MINERALS - WARREN", "industry": null, "tri_facility_id": "44483WSTMN101TI"}}, {"type": "Feature", "geometry": {"type": "Point", "coordinates": [-80.8436, 41.3004]}, "properties": {"facility_name": "GAE WARREN LLC", "industry": null, "tri_facility_id": "44483XCLXT1000U"}}, {"type": "Feature", "geometry": {"type": "Point", "coordinates": [-80.837204, 41.234415]}, "properties": {"facility_name": "PEERLESS-WINSMITH INC", "industry": null, "tri_facility_id": "44485PRLSS1401W"}}, {"type": "Feature", "geometry": {"type": "Point", "coordinates": [-80.858611, 41.249722]}, "properties": {"facility_name": "THOMAS STEEL STRIP CORP", "industry": null, "tri_facility_id": "44485THMSSDELAW"}}]}