{"type": "FeatureCollection", "features": [{"type": "Feature", "properties": {"area_id": 4320, "city": "Flint", "state": "MI", "city_survey": true, "cat": "Best", "grade": "A", "label": "A1", "res": true, "com": false, "ind": false, "holc_grade": "A"}, "geometry": {"type": "Polygon", "coordinates": [[[-83.73317, 42.99222], [-83.732877, 42.992353], [-83.72135, 42.99757], [-83.720152, 42.998135], [-83.71766, 42.99931], [-83.71588, 43.00004], [-83.715778, 42.999976], [-83.71505, 42.99952], [-83.71439, 42.99839], [-83.71445, 42.99748], [-83.71517, 42.99735], [-83.71713, 42.99748], [-83.7182, 42.99505], [-83.71802, 42.994], [-83.71814, 42.99296], [-83.71891, 42.99205], [-83.72051, 42.99148], [-83.722, 42.99113], [-83.72378, 42.99044], [-83.72539, 42.98957], [-83.72687, 42.98931], [-83.72895, 42.98883], [-83.73056, 42.98857], [-83.73145, 42.98857], [-83.732755, 42.988178], [-83.73305, 42.98809], [-83.733169, 42.992176], [-83.73317, 42.99222]]]}}, {"type": "Feature", "properties": {"area_id": 4308, "city": "Flint", "state": "MI", "city_survey": true, "cat": "Best", "grade": "A", "label": "A2", "res": true, "com": false, "ind": false, "holc_grade": "A"}, "geometry": {"type": "Polygon", "coordinates": [[[-83.66739, 43.01206], [-83.66768, 43.01208], [-83.66915, 43.01219], [-83.67028, 43.0123], [-83.67063, 43.01289], [-83.67048, 43.01389], [-83.67141, 43.01517], [-83.67167, 43.01626], [-83.67352, 43.0183], [-83.6698, 43.01833], [-83.66906, 43.01834], [-83.6687, 43.01382], [-83.66793, 43.01382], [-83.66659, 43.01343], [-83.66633, 43.01302], [-83.66739, 43.01206]]]}}, {"type": "Feature", "properties": {"area_id": 4336, "city": "Flint", "state": "MI", "city_survey": true, "cat": "Still Desirable", "grade": "B", "label": "B1", "res": true, "com": false, "ind": false, "holc_grade": "B"}, "geometry": {"type": "Polygon", "coordinates": [[[-83.70463, 43.05703], [-83.70468, 43.05941], [-83.6955, 43.05953], [-83.69561, 43.05707], [-83.70463, 43.05703]]]}}, {"type": "Feature", "properties": {"area_id": 4331, "city": "Flint", "state": "MI", "city_survey": true, "cat": "Still Desirable", "grade": "B", "label": "B2", "res": true, "com": false, "ind": false, "holc_grade": "B"}, "geometry": {"type": "Polygon", "coordinates": [[[-83.72006, 43.01303], [-83.72107, 43.01342], [-83.72202, 43.01459], [-83.72155, 43.01533], [-83.72232, 43.0178], [-83.7225, 43.01846], [-83.72333, 43.01859], [-83.7241, 43.01802], [-83.72458, 43.01663], [-83.72505, 43.01589], [-83.72559, 43.01607], [-83.72808, 43.01676], [-83.72945, 43.01772], [-83.7247, 43.02241], [-83.7265, 43.02293], [-83.726464, 43.022985], [-83.72457, 43.0259], [-83.72151, 43.02488], [-83.72177, 43.02441], [-83.72039, 43.02399], [-83.71844, 43.02601], [-83.72022, 43.0266], [-83.72835, 43.02921], [-83.728282, 43.02933], [-83.7265, 43.03246], [-83.72693, 43.03252], [-83.72693, 43.03325], [-83.7285, 43.03392], [-83.72974, 43.03497], [-83.73128, 43.03554], [-83.73167, 43.03637], [-83.73199, 43.03661], [-83.73228, 43.03846], [-83.732141, 43.038462], [-83.727, 43.03853], [-83.72619, 43.03737], [-83.72576, 43.03501], [-83.7232, 43.03546], [-83.72053, 43.03563], [-83.72072, 43.03643], [-83.72358, 43.03654], [-83.72367, 43.03904], [-83.72472, 43.03911], [-83.72615, 43.03892], [-83.72618, 43.04166], [-83.72725, 43.04179], [-83.72736, 43.04359], [-83.713375, 43.043717], [-83.71306, 43.04372], [-83.713186, 43.046313], [-83.7132, 43.04659], [-83.70883, 43.04651], [-83.70889, 43.04999], [-83.70681, 43.04999], [-83.70651, 43.04638], [-83.70628, 43.046369], [-83.704648, 43.046291], [-83.70295, 43.04621], [-83.70283, 43.04417], [-83.69884, 43.04408], [-83.69677, 43.04404], [-83.69701, 43.0436], [-83.69659, 43.04282], [-83.69665, 43.04235], [-83.70247, 43.0423], [-83.702, 43.03492], [-83.70081, 43.03492], [-83.70016, 43.03535], [-83.69909, 43.03574], [-83.69819, 43.03553], [-83.69724, 43.03514], [-83.69516, 43.03501], [-83.695333, 43.030781], [-83.69534, 43.03062], [-83.69938, 43.03066], [-83.70087, 43.03058], [-83.70229, 43.0301], [-83.702861, 43.03071], [-83.7033, 43.03118], [-83.703528, 43.03107], [-83.70473, 43.03049], [-83.70396, 43.02914], [-83.70735, 43.02767], [-83.70818, 43.02836], [-83.70919, 43.02801], [-83.71109, 43.02823], [-83.71287, 43.02892], [-83.71285, 43.028287], [-83.712608, 43.020515], [-83.712605, 43.020393], [-83.71257, 43.01928], [-83.71174, 43.01911], [-83.7137, 43.01654], [-83.71275, 43.01641], [-83.71162, 43.0145], [-83.71127, 43.01376], [-83.712314, 43.013313], [-83.71846, 43.01068], [-83.71923, 43.01068], [-83.71911, 43.0115], [-83.72006, 43.01303]], [[-83.70865, 43.03098], [-83.70784, 43.03122], [-83.70756, 43.03195], [-83.70984, 43.03181], [-83.70993, 43.03077], [-83.70865, 43.03098]], [[-83.72239, 43.04011], [-83.72191, 43.03935], [-83.72106, 43.03956], [-83.72106, 43.04015], [-83.7213, 43.04133], [-83.7221, 43.04126], [-83.72239, 43.04011]]]}}, {"type": "Feature", "properties": {"area_id": 4326, "city": "Flint", "state": "MI", "city_survey": true, "cat": "Still Desirable", "grade": "B", "label": "B3", "res": true, "com": false, "ind": false, "holc_grade": "B"}, "geometry": {"type": "Polygon", "coordinates": [[[-83.725999, 43.006901], [-83.73296, 43.01199], [-83.7305, 43.01517], [-83.729, 43.01454], [-83.728, 43.01384], [-83.723269, 43.012046], [-83.72291, 43.01191], [-83.72362, 43.01048], [-83.72412, 43.00847], [-83.72401, 43.00688], [-83.724309, 43.00688], [-83.72597, 43.00688], [-83.725999, 43.006901]]]}}, {"type": "Feature", "properties": {"area_id": 4321, "city": "Flint", "state": "MI", "city_survey": true, "cat": "Still Desirable", "grade": "B", "label": "B4", "res": true, "com": false, "ind": false, "holc_grade": "B"}, "geometry": {"type": "Polygon", "coordinates": [[[-83.7239, 43.0], [-83.721954, 43.000547], [-83.71618, 43.00217], [-83.71113, 43.00382], [-83.71018, 43.0043], [-83.71095, 43.00578], [-83.71157, 43.00678], [-83.70983, 43.00677], [-83.70439, 43.00675], [-83.70563, 43.00476], [-83.70791, 43.00355], [-83.70924, 43.00303], [-83.70862, 43.00226], [-83.708551, 43.00209], [-83.70824, 43.00132], [-83.70815, 43.00059], [-83.70872, 42.99965], [-83.70791, 42.99861], [-83.70748, 42.99764], [-83.70763, 42.99733], [-83.70939, 42.9968], [-83.71005, 42.9968], [-83.71152, 42.99792], [-83.71252, 42.99799], [-83.71324, 42.9984], [-83.71439, 42.99839], [-83.71505, 42.99952], [-83.715778, 42.999976], [-83.71588, 43.00004], [-83.71766, 42.99931], [-83.720152, 42.998135], [-83.72135, 42.99757], [-83.7239, 43.0]]]}}, {"type": "Feature", "properties": {"area_id": 4313, "city": "Flint", "state": "MI", "city_survey": true, "cat": "Still Desirable", "grade": "B", "label": "B5", "res": true, "com": false, "ind": false, "holc_grade": "B"}, "geometry": {"type": "Polygon", "coordinates": [[[-83.67189, 43.03022], [-83.67299, 43.03095], [-83.67398, 43.03099], [-83.67579, 43.03175], [-83.67398, 43.03228], [-83.67175, 43.03234], [-83.66985, 43.03245], [-83.67004, 43.02932], [-83.67189, 43.03022]]]}}, {"type": "Feature", "properties": {"area_id": 4306, "city": "Flint", "state": "MI", "city_survey": true, "cat": "Still Desirable", "grade": "B", "label": "B6", "res": true, "com": false, "ind": false, "holc_grade": "B"}, "geometry": {"type": "Polygon", "coordinates": [[[-83.67054, 43.00919], [-83.673746, 43.010548], [-83.67375, 43.01055], [-83.6755, 43.01154], [-83.67746, 43.01263], [-83.68195, 43.01519], [-83.67824, 43.01712], [-83.68097, 43.02027], [-83.684776, 43.018447], [-83.68644, 43.01765], [-83.6873, 43.01875], [-83.684893, 43.019652], [-83.68415, 43.01993], [-83.68335, 43.02129], [-83.68065, 43.02247], [-83.67998, 43.0217], [-83.67637, 43.01756], [-83.67533, 43.01602], [-83.67441, 43.01536], [-83.67384, 43.01504], [-83.67393, 43.01378], [-83.672122, 43.01391], [-83.67212, 43.01391], [-83.672117, 43.0139], [-83.67176, 43.01271], [-83.671528, 43.012747], [-83.67063, 43.01289], [-83.67028, 43.0123], [-83.66915, 43.01219], [-83.66768, 43.01208], [-83.66739, 43.01206], [-83.6676, 43.01111], [-83.66855, 43.01056], [-83.66859, 43.010521], [-83.66912, 43.01], [-83.66883, 43.00935], [-83.67054, 43.00919]]]}}, {"type": "Feature", "properties": {"area_id": 4309, "city": "Flint", "state": "MI", "city_survey": true, "cat": "Still Desirable", "grade": "B", "label": "B7", "res": true, "com": false, "ind": false, "holc_grade": "B"}, "geometry": {"type": "Polygon", "coordinates": [[[-83.65744, 43.02551], [-83.65723, 43.02423], [-83.6564, 43.02351], [-83.65599, 43.02268], [-83.65575, 43.01847], [-83.65599, 43.01728], [-83.65691, 43.01623], [-83.66003, 43.01554], [-83.66062, 43.01675], [-83.66113, 43.01673], [-83.66217, 43.01476], [-83.66285, 43.01469], [-83.66395, 43.01454], [-83.66481, 43.01395], [-83.66603, 43.013], [-83.66633, 43.01302], [-83.66659, 43.01343], [-83.66793, 43.01382], [-83.6687, 43.01382], [-83.66906, 43.01834], [-83.6698, 43.01833], [-83.66986, 43.01993], [-83.66998, 43.02043], [-83.66992, 43.02095], [-83.66939, 43.02129], [-83.66912, 43.02192], [-83.66603, 43.02197], [-83.66597, 43.0224], [-83.66582, 43.02301], [-83.66615, 43.02438], [-83.66603, 43.02501], [-83.6656, 43.02523], [-83.66496, 43.02555], [-83.66452, 43.02555], [-83.65744, 43.02551]]]}}, {"type": "Feature", "properties": {"area_id": 4337, "city": "Flint", "state": "MI", "city_survey": true, "cat": "Definitely Declining", "grade": "C", "label": "C1", "res": true, "com": false, "ind": false, "holc_grade": "C"}, "geometry": {"type": "Polygon", "coordinates": [[[-83.713478, 43.053961], [-83.71356, 43.05396], [-83.713577, 43.054039], [-83.71398, 43.05587], [-83.71809, 43.05591], [-83.71809, 43.05874], [-83.7194, 43.05987], [-83.72031, 43.05895], [-83.72031, 43.05741], [-83.72357, 43.05724], [-83.723675, 43.060711], [-83.72368, 43.06087], [-83.713951, 43.061078], [-83.71387, 43.06108], [-83.713984, 43.062269], [-83.71421, 43.06462], [-83.714065, 43.064622], [-83.70662, 43.06474], [-83.70605, 43.06458], [-83.70628, 43.06712], [-83.70959, 43.06691], [-83.70953, 43.06858], [-83.71147, 43.06858], [-83.711513, 43.068697], [-83.711554, 43.068807], [-83.71164, 43.06904], [-83.714078, 43.069182], [-83.71438, 43.0692], [-83.71432, 43.07549], [-83.713908, 43.075487], [-83.70851, 43.07545], [-83.70856, 43.07404], [-83.6959, 43.07395], [-83.695756, 43.068772], [-83.69554, 43.060981], [-83.6955, 43.05953], [-83.70468, 43.05941], [-83.70463, 43.05703], [-83.70468, 43.05703], [-83.704517, 43.054136], [-83.70451, 43.05402], [-83.713478, 43.053961]], [[-83.70337, 43.06483], [-83.70337, 43.06141], [-83.70143, 43.06153], [-83.70138, 43.06483], [-83.70337, 43.06483]]]}}, {"type": "Feature", "properties": {"area_id": 4312, "city": "Flint", "state": "MI", "city_survey": true, "cat": "Definitely Declining", "grade": "C", "label": "C10", "res": true, "com": false, "ind": false, "holc_grade": "C"}, "geometry": {"type": "Polygon", "coordinates": [[[-83.6656, 43.02523], [-83.66828, 43.02529], [-83.668423, 43.025617], [-83.66899, 43.02692], [-83.66809, 43.02713], [-83.6679, 43.02877], [-83.6698, 43.0289], [-83.67004, 43.02932], [-83.66985, 43.03245], [-83.67175, 43.03234], [-83.67398, 43.03228], [-83.67579, 43.03175], [-83.677501, 43.031873], [-83.67774, 43.03189], [-83.67831, 43.03217], [-83.67964, 43.03214], [-83.68211, 43.03436], [-83.682252, 43.034825], [-83.68226, 43.03485], [-83.6805, 43.03578], [-83.68026, 43.035993], [-83.67936, 43.03679], [-83.67532, 43.03658], [-83.67489, 43.03759], [-83.67536, 43.03981], [-83.6746, 43.04117], [-83.67341, 43.04308], [-83.67327, 43.04457], [-83.67294, 43.04572], [-83.67213, 43.04711], [-83.66619, 43.04725], [-83.66576, 43.03356], [-83.66529, 43.03342], [-83.665265, 43.033169], [-83.664539, 43.02574], [-83.66452, 43.02555], [-83.66496, 43.02555], [-83.6656, 43.02523]]]}}, {"type": "Feature", "properties": {"area_id": 4311, "city": "Flint", "state": "MI", "city_survey": true, "cat": "Definitely Declining", "grade": "C", "label": "C11", "res": true, "com": false, "ind": false, "holc_grade": "C"}, "geometry": {"type": "Polygon", "coordinates": [[[-83.65963, 43.01473], [-83.66003, 43.01554], [-83.65691, 43.01623], [-83.65599, 43.01728], [-83.65575, 43.01847], [-83.65599, 43.02268], [-83.6564, 43.02351], [-83.65723, 43.02423], [-83.65744, 43.02551], [-83.66452, 43.02555], [-83.664539, 43.02574], [-83.665265, 43.033169], [-83.66529, 43.03342], [-83.665188, 43.033428], [-83.66443, 43.03349], [-83.66491, 43.04388], [-83.66243, 43.04378], [-83.66243, 43.04218], [-83.66025, 43.04204], [-83.66034, 43.04058], [-83.65801, 43.04044], [-83.65787, 43.03731], [-83.65863, 43.03756], [-83.65868, 43.03453], [-83.65839, 43.03429], [-83.65549, 43.03401], [-83.655423, 43.032905], [-83.65542, 43.03285], [-83.655209, 43.029654], [-83.654937, 43.025541], [-83.6544, 43.0174], [-83.654532, 43.017108], [-83.65473, 43.01667], [-83.6572, 43.01539], [-83.65963, 43.01473]]]}}, {"type": "Feature", "properties": {"area_id": 4310, "city": "Flint", "state": "MI", "city_survey": true, "cat": "Definitely Declining", "grade": "C", "label": "C12", "res": true, "com": false, "ind": false, "holc_grade": "C"}, "geometry": {"type": "Polygon", "coordinates": [[[-83.67259, 43.02536], [-83.67759, 43.02314], [-83.67851, 43.02412], [-83.6799, 43.02331], [-83.67925, 43.02229], [-83.67998, 43.0217], [-83.68065, 43.02247], [-83.68335, 43.02129], [-83.68362, 43.02212], [-83.683424, 43.022421], [-83.681841, 43.024844], [-83.67803, 43.03068], [-83.67732, 43.03024], [-83.67646, 43.02972], [-83.67476, 43.02948], [-83.67396, 43.02933], [-83.67381, 43.02866], [-83.67384, 43.02792], [-83.67322, 43.02727], [-83.67239, 43.02703], [-83.6725, 43.02636], [-83.672551, 43.025632], [-83.67256, 43.02551], [-83.67259, 43.02536]]]}}, {"type": "Feature", "properties": {"area_id": 4307, "city": "Flint", "state": "MI", "city_survey": true, "cat": "Definitely Declining", "grade": "C", "label": "C13", "res": true, "com": false, "ind": false, "holc_grade": "C"}, "geometry": {"type": "Polygon", "coordinates": [[[-83.68801, 43.01682], [-83.68644, 43.01765], [-83.684776, 43.018447], [-83.68097, 43.02027], [-83.67824, 43.01712], [-83.68195, 43.01519], [-83.682525, 43.014862], [-83.68523, 43.01332], [-83.68801, 43.01682]]]}}, {"type": "Feature", "properties": {"area_id": 4301, "city": "Flint", "state": "MI", "city_survey": true, "cat": "Definitely Declining", "grade": "C", "label": "C14", "res": true, "com": false, "ind": false, "holc_grade": "C"}, "geometry": {"type": "Polygon", "coordinates": [[[-83.69345, 42.99875], [-83.69553, 42.99781], [-83.697475, 43.001934], [-83.6977, 43.00241], [-83.69384, 43.00317], [-83.693808, 43.003047], [-83.693481, 43.001809], [-83.6933, 43.00112], [-83.693301, 43.001108], [-83.69345, 42.99875]]]}}, {"type": "Feature", "properties": {"area_id": 4300, "city": "Flint", "state": "MI", "city_survey": true, "cat": "Definitely Declining", "grade": "C", "label": "C15", "res": true, "com": false, "ind": false, "holc_grade": "C"}, "geometry": {"type": "Polygon", "coordinates": [[[-83.69318, 42.98112], [-83.69889, 42.98112], [-83.698891, 42.981171], [-83.69891, 42.98206], [-83.69882, 42.98453], [-83.69891, 42.98812], [-83.69929, 42.98825], [-83.70329, 42.98836], [-83.70329, 42.99076], [-83.70077, 42.99083], [-83.70058, 42.99222], [-83.69658, 42.99236], [-83.69644, 42.99691], [-83.6944, 42.99698], [-83.69411, 42.98276], [-83.692912, 42.982842], [-83.69207, 42.9829], [-83.69207, 42.99215], [-83.68826, 42.99222], [-83.6885, 42.99333], [-83.69221, 42.99354], [-83.6923, 42.99903], [-83.69316, 42.998821], [-83.69345, 42.99875], [-83.693301, 43.001108], [-83.6933, 43.00112], [-83.691505, 43.001706], [-83.6914, 43.00174], [-83.68812, 42.99844], [-83.688115, 42.998392], [-83.68788, 42.99601], [-83.68513, 42.99611], [-83.68477, 42.996017], [-83.68327, 42.99563], [-83.683224, 42.99494], [-83.68294, 42.99065], [-83.68132, 42.99072], [-83.681235, 42.988885], [-83.680896, 42.981566], [-83.68089, 42.98143], [-83.68313, 42.9814], [-83.683124, 42.981531], [-83.68304, 42.98342], [-83.68769, 42.98342], [-83.687937, 42.981445], [-83.68795, 42.98134], [-83.690585, 42.981229], [-83.692898, 42.981132], [-83.69318, 42.98112]]]}}, {"type": "Feature", "properties": {"area_id": 4299, "city": "Flint", "state": "MI", "city_survey": true, "cat": "Definitely Declining", "grade": "C", "label": "C16", "res": true, "com": false, "ind": false, "holc_grade": "C"}, "geometry": {"type": "Polygon", "coordinates": [[[-83.66637, 42.98899], [-83.666389, 42.989041], [-83.66661, 42.98965], [-83.6661, 42.99041], [-83.66426, 42.99132], [-83.66289, 42.99225], [-83.66233, 42.99347], [-83.66283, 42.99517], [-83.66346, 42.9961], [-83.6645, 42.99664], [-83.66625, 42.99706], [-83.66768, 42.99675], [-83.66878, 42.99636], [-83.66955, 42.99714], [-83.67032, 42.99819], [-83.67085, 42.99884], [-83.67085, 43.00008], [-83.67005, 43.000436], [-83.67002, 43.00045], [-83.669995, 43.000421], [-83.6694, 42.99971], [-83.66765, 42.9989], [-83.66592, 42.99906], [-83.66435, 42.99973], [-83.66334, 43.00071], [-83.66254, 43.00086], [-83.66236, 43.0009], [-83.66194, 43.00077], [-83.66138, 42.99977], [-83.66105, 42.99893], [-83.66078, 42.9983], [-83.66144, 42.99636], [-83.66144, 42.99577], [-83.66108, 42.99495], [-83.66078, 42.99399], [-83.66063, 42.99334], [-83.66069, 42.99256], [-83.6615, 42.99125], [-83.66233, 42.99058], [-83.66286, 42.99034], [-83.66408, 42.99008], [-83.665, 42.98982], [-83.665166, 42.989057], [-83.66518, 42.98899], [-83.66637, 42.98899]]]}}, {"type": "Feature", "properties": {"area_id": 4298, "city": "Flint", "state": "MI", "city_survey": true, "cat": "Definitely Declining", "grade": "C", "label": "C17", "res": true, "com": false, "ind": false, "holc_grade": "C"}, "geometry": {"type": "Polygon", "coordinates": [[[-83.66086, 42.98412], [-83.66169, 42.98364], [-83.66584, 42.98358], [-83.67316, 42.98894], [-83.66637, 42.98899], [-83.66518, 42.98899], [-83.653411, 42.989067], [-83.65301, 42.98907], [-83.653288, 42.985482], [-83.65337, 42.98442], [-83.66086, 42.98412]], [[-83.6608, 42.98633], [-83.65581, 42.9862], [-83.65587, 42.9872], [-83.66056, 42.98742], [-83.6608, 42.98633]]]}}, {"type": "Feature", "properties": {"area_id": 4293, "city": "Flint", "state": "MI", "city_survey": true, "cat": "Definitely Declining", "grade": "C", "label": "C18", "res": true, "com": false, "ind": false, "holc_grade": "C"}, "geometry": {"type": "Polygon", "coordinates": [[[-83.63756, 42.92228], [-83.63822, 42.92954], [-83.63667, 42.92967], [-83.636835, 42.933171], [-83.63703, 42.93733], [-83.63162, 42.93733], [-83.63192, 42.9298], [-83.63085, 42.92898], [-83.62621, 42.93211], [-83.62051, 42.92863], [-83.626537, 42.924582], [-83.62913, 42.92284], [-83.63756, 42.92228]]]}}, {"type": "Feature", "properties": {"area_id": 4330, "city": "Flint", "state": "MI", "city_survey": true, "cat": "Definitely Declining", "grade": "C", "label": "C2", "res": true, "com": false, "ind": false, "holc_grade": "C"}, "geometry": {"type": "Polygon", "coordinates": [[[-83.73284, 43.037201], [-83.73334, 43.03747], [-83.733539, 43.046224], [-83.73367, 43.052], [-83.733415, 43.053368], [-83.733327, 43.053837], [-83.73331, 43.05393], [-83.722361, 43.053947], [-83.7141, 43.05396], [-83.71356, 43.05396], [-83.713442, 43.05154], [-83.7132, 43.04659], [-83.713186, 43.046313], [-83.71306, 43.04372], [-83.713375, 43.043717], [-83.72736, 43.04359], [-83.72725, 43.04179], [-83.72618, 43.04166], [-83.72615, 43.03892], [-83.727, 43.03853], [-83.732141, 43.038462], [-83.73228, 43.03846], [-83.73199, 43.03661], [-83.73256, 43.03705], [-83.73284, 43.037201]]]}}, {"type": "Feature", "properties": {"area_id": 4335, "city": "Flint", "state": "MI", "city_survey": true, "cat": "Definitely Declining", "grade": "C", "label": "C3", "res": true, "com": false, "ind": false, "holc_grade": "C"}, "geometry": {"type": "Polygon", "coordinates": [[[-83.70295, 43.04621], [-83.704648, 43.046291], [-83.70628, 43.046369], [-83.70651, 43.04638], [-83.70681, 43.04999], [-83.70428, 43.04999], [-83.70451, 43.05402], [-83.704517, 43.054136], [-83.70468, 43.05703], [-83.70463, 43.05703], [-83.69561, 43.05707], [-83.695518, 43.054236], [-83.69528, 43.04693], [-83.69898, 43.04679], [-83.69948, 43.046717], [-83.70295, 43.04621]]]}}, {"type": "Feature", "properties": {"area_id": 4334, "city": "Flint", "state": "MI", "city_survey": true, "cat": "Definitely Declining", "grade": "C", "label": "C4", "res": true, "com": false, "ind": false, "holc_grade": "C"}, "geometry": {"type": "Polygon", "coordinates": [[[-83.69632, 43.03581], [-83.69819, 43.03553], [-83.69909, 43.03574], [-83.70016, 43.03535], [-83.70081, 43.03492], [-83.702, 43.03492], [-83.70247, 43.0423], [-83.69665, 43.04235], [-83.69659, 43.04282], [-83.69701, 43.0436], [-83.69677, 43.04404], [-83.69884, 43.04408], [-83.698977, 43.046728], [-83.69898, 43.04679], [-83.69528, 43.04693], [-83.69528, 43.046917], [-83.69494, 43.03581], [-83.69632, 43.03581]]]}}, {"type": "Feature", "properties": {"area_id": 4328, "city": "Flint", "state": "MI", "city_survey": true, "cat": "Definitely Declining", "grade": "C", "label": "C5", "res": true, "com": false, "ind": false, "holc_grade": "C"}, "geometry": {"type": "Polygon", "coordinates": [[[-83.72878, 43.02368], [-83.73463, 43.02532], [-83.736923, 43.025944], [-83.74308, 43.02762], [-83.740259, 43.030475], [-83.740079, 43.030657], [-83.738323, 43.032434], [-83.73389, 43.03692], [-83.733581, 43.037229], [-83.73334, 43.03747], [-83.73284, 43.037201], [-83.73256, 43.03705], [-83.73199, 43.03661], [-83.73167, 43.03637], [-83.73128, 43.03554], [-83.72974, 43.03497], [-83.7285, 43.03392], [-83.72693, 43.03325], [-83.72693, 43.03252], [-83.7265, 43.03246], [-83.728282, 43.02933], [-83.72835, 43.02921], [-83.72022, 43.0266], [-83.72151, 43.02488], [-83.72457, 43.0259], [-83.726464, 43.022985], [-83.7265, 43.02293], [-83.727887, 43.023386], [-83.72878, 43.02368]], [[-83.73844, 43.02874], [-83.7368, 43.02832], [-83.73627, 43.02929], [-83.73723, 43.02991], [-83.73844, 43.02874]]]}}, {"type": "Feature", "properties": {"area_id": 4332, "city": "Flint", "state": "MI", "city_survey": true, "cat": "Definitely Declining", "grade": "C", "label": "C6", "res": true, "com": false, "ind": false, "holc_grade": "C"}, "geometry": {"type": "Polygon", "coordinates": [[[-83.712608, 43.020515], [-83.71285, 43.028287], [-83.71287, 43.02892], [-83.71109, 43.02823], [-83.70919, 43.02801], [-83.70818, 43.02836], [-83.70735, 43.02767], [-83.70396, 43.02914], [-83.697474, 43.022498], [-83.69603, 43.02102], [-83.700054, 43.019454], [-83.70379, 43.018], [-83.70581, 43.01717], [-83.7089, 43.0157], [-83.71174, 43.01911], [-83.71257, 43.01928], [-83.712605, 43.020393], [-83.712608, 43.020515]], [[-83.70483, 43.02184], [-83.70414, 43.02087], [-83.70203, 43.021811], [-83.70201, 43.02182], [-83.702255, 43.022065], [-83.70281, 43.02262], [-83.70483, 43.02184]]]}}, {"type": "Feature", "properties": {"area_id": 4333, "city": "Flint", "state": "MI", "city_survey": true, "cat": "Definitely Declining", "grade": "C", "label": "C7", "res": true, "com": false, "ind": false, "holc_grade": "C"}, "geometry": {"type": "Polygon", "coordinates": [[[-83.6949, 43.02361], [-83.69575, 43.0233], [-83.70229, 43.0301], [-83.70087, 43.03058], [-83.69938, 43.03066], [-83.69534, 43.03062], [-83.6949, 43.02361]]]}}, {"type": "Feature", "properties": {"area_id": 4325, "city": "Flint", "state": "MI", "city_survey": true, "cat": "Definitely Declining", "grade": "C", "label": "C8", "res": true, "com": false, "ind": false, "holc_grade": "C"}, "geometry": {"type": "Polygon", "coordinates": [[[-83.72401, 43.00688], [-83.71717, 43.00688], [-83.71695, 43.00897], [-83.715358, 43.008989], [-83.71528, 43.00899], [-83.71325, 43.00876], [-83.713217, 43.008573], [-83.71289, 43.00675], [-83.723448, 43.00356], [-83.72401, 43.00339], [-83.74152, 43.002952], [-83.74202, 43.00294], [-83.74237, 43.00229], [-83.74476, 43.00203], [-83.74473, 43.00714], [-83.73931, 43.00722], [-83.73838, 43.01074], [-83.7381, 43.010606], [-83.73496, 43.0091], [-83.73435, 43.00928], [-83.73335, 43.00795], [-83.73264, 43.00925], [-83.73407, 43.01022], [-83.73296, 43.01199], [-83.725999, 43.006901], [-83.72597, 43.00688], [-83.724309, 43.00688], [-83.72401, 43.00688]]]}}, {"type": "Feature", "properties": {"area_id": 4319, "city": "Flint", "state": "MI", "city_survey": true, "cat": "Definitely Declining", "grade": "C", "label": "C9", "res": true, "com": false, "ind": false, "holc_grade": "C"}, "geometry": {"type": "Polygon", "coordinates": [[[-83.73323, 42.99518], [-83.73857, 42.99492], [-83.738117, 43.000693], [-83.73807, 43.00129], [-83.72485, 43.0017], [-83.722801, 43.002262], [-83.72248, 43.00235], [-83.72004, 43.00313], [-83.71469, 43.00461], [-83.71249, 43.00526], [-83.71095, 43.00578], [-83.71018, 43.0043], [-83.71113, 43.00382], [-83.71618, 43.00217], [-83.721954, 43.000547], [-83.7239, 43.0], [-83.72135, 42.99757], [-83.732877, 42.992353], [-83.73317, 42.99222], [-83.73323, 42.99518]]]}}, {"type": "Feature", "properties": {"area_id": 4338, "city": "Flint", "state": "MI", "city_survey": true, "cat": "Hazardous", "grade": "D", "label": "D1", "res": true, "com": false, "ind": false, "holc_grade": "D"}, "geometry": {"type": "Polygon", "coordinates": [[[-83.713908, 43.075487], [-83.71432, 43.07549], [-83.71432, 43.075505], [-83.71427, 43.07871], [-83.69431, 43.07888], [-83.69431, 43.0814], [-83.71386, 43.0814], [-83.71421, 43.0857], [-83.69936, 43.08561], [-83.69942, 43.08913], [-83.70411, 43.08939], [-83.70417, 43.09017], [-83.697445, 43.0902], [-83.69508, 43.09021], [-83.69514, 43.09728], [-83.70381, 43.09728], [-83.70417, 43.10453], [-83.70025, 43.10492], [-83.699904, 43.112213], [-83.69989, 43.11251], [-83.69342, 43.11273], [-83.693384, 43.112239], [-83.69312, 43.10865], [-83.69128, 43.10874], [-83.691222, 43.104843], [-83.69122, 43.1047], [-83.694327, 43.1047], [-83.69443, 43.1047], [-83.694311, 43.103478], [-83.69413, 43.10162], [-83.68629, 43.10184], [-83.68605, 43.09746], [-83.68118, 43.09763], [-83.68112, 43.090382], [-83.68112, 43.09034], [-83.67618, 43.09034], [-83.67601, 43.0863], [-83.68118, 43.08626], [-83.68094, 43.08296], [-83.67553, 43.08296], [-83.675291, 43.075844], [-83.67529, 43.0758], [-83.68451, 43.07574], [-83.69277, 43.07568], [-83.69377, 43.07567], [-83.694051, 43.075666], [-83.70851, 43.07545], [-83.713908, 43.075487]]]}}, {"type": "Feature", "properties": {"area_id": 4342, "city": "Flint", "state": "MI", "city_survey": true, "cat": "Hazardous", "grade": "D", "label": "D10", "res": true, "com": false, "ind": false, "holc_grade": "D"}, "geometry": {"type": "MultiPolygon", "coordinates": [[[[-83.68766, 43.0541], [-83.69028, 43.05397], [-83.69046, 43.04685], [-83.69224, 43.04676], [-83.692561, 43.061016], [-83.69265, 43.06495], [-83.68459, 43.06526], [-83.684607, 43.061237], [-83.68463, 43.0557], [-83.68713, 43.05579], [-83.68766, 43.0541]], [[-83.68671, 43.06278], [-83.68766, 43.06356], [-83.68879, 43.063], [-83.69057, 43.06235], [-83.69063, 43.06183], [-83.68867, 43.06213], [-83.68671, 43.06278]]], [[[-83.69093, 43.02817], [-83.69182, 43.02808], [-83.692155, 43.043101], [-83.69221, 43.04558], [-83.69048, 43.04572], [-83.690547, 43.043111], [-83.69062, 43.04029], [-83.69066, 43.03886], [-83.69093, 43.02817]]]]}}, {"type": "Feature", "properties": {"area_id": 4341, "city": "Flint", "state": "MI", "city_survey": true, "cat": "Hazardous", "grade": "D", "label": "D11", "res": true, "com": false, "ind": false, "holc_grade": "D"}, "geometry": {"type": "MultiPolygon", "coordinates": [[[[-83.68725, 43.04029], [-83.687258, 43.04029], [-83.69062, 43.04029], [-83.690547, 43.043111], [-83.69048, 43.04572], [-83.69046, 43.04685], [-83.69028, 43.05397], [-83.68766, 43.0541], [-83.68713, 43.05579], [-83.68463, 43.0557], [-83.684607, 43.061237], [-83.68459, 43.06526], [-83.68457, 43.06847], [-83.68451, 43.07574], [-83.67529, 43.0758], [-83.67738, 43.07233], [-83.68071, 43.07207], [-83.68083, 43.06886], [-83.67958, 43.06756], [-83.67922, 43.06656], [-83.67904, 43.06508], [-83.67857, 43.06499], [-83.67768, 43.06495], [-83.677563, 43.061327], [-83.67756, 43.06122], [-83.67893, 43.05887], [-83.68035, 43.05609], [-83.68124, 43.05588], [-83.6816, 43.05397], [-83.68505, 43.05384], [-83.68463, 43.04763], [-83.687293, 43.04754], [-83.6873, 43.04754], [-83.687278, 43.04431], [-83.68727, 43.043153], [-83.68727, 43.043148], [-83.687268, 43.042866], [-83.68725, 43.04029]]], [[[-83.69182, 43.02808], [-83.69093, 43.02817], [-83.69066, 43.03886], [-83.687272, 43.038989], [-83.68724, 43.03899], [-83.68724, 43.03581], [-83.68724, 43.02904], [-83.684234, 43.030799], [-83.68249, 43.03182], [-83.68095, 43.03039], [-83.68208, 43.02978], [-83.68344, 43.029], [-83.68427, 43.02921], [-83.684558, 43.028754], [-83.68695, 43.02496], [-83.68754, 43.02444], [-83.68885, 43.02452], [-83.68962, 43.0237], [-83.68962, 43.023507], [-83.68962, 43.02248], [-83.69194, 43.02235], [-83.691917, 43.023472], [-83.69182, 43.02808]]]]}}, {"type": "Feature", "properties": {"area_id": 4314, "city": "Flint", "state": "MI", "city_survey": true, "cat": "Hazardous", "grade": "D", "label": "D12", "res": true, "com": false, "ind": false, "holc_grade": "D"}, "geometry": {"type": "Polygon", "coordinates": [[[-83.67165, 43.04938], [-83.67217, 43.0482], [-83.67213, 43.04711], [-83.67294, 43.04572], [-83.67327, 43.04457], [-83.67341, 43.04308], [-83.6746, 43.04117], [-83.67536, 43.03981], [-83.67489, 43.03759], [-83.67532, 43.03658], [-83.67936, 43.03679], [-83.679806, 43.03727], [-83.68002, 43.0375], [-83.6804, 43.03809], [-83.68296, 43.03917], [-83.67807, 43.05713], [-83.67503, 43.0572], [-83.67493, 43.0548], [-83.67417, 43.0547], [-83.67241, 43.0548], [-83.67189, 43.05435], [-83.67041, 43.05331], [-83.66951, 43.05293], [-83.670618, 43.050671], [-83.67079, 43.05032], [-83.67165, 43.04938]]]}}, {"type": "Feature", "properties": {"area_id": 4316, "city": "Flint", "state": "MI", "city_survey": true, "cat": "Hazardous", "grade": "D", "label": "D13", "res": true, "com": false, "ind": false, "holc_grade": "D"}, "geometry": {"type": "Polygon", "coordinates": [[[-83.65544, 43.05044], [-83.66048, 43.05041], [-83.660496, 43.050697], [-83.66052, 43.05111], [-83.66091, 43.05145], [-83.66176, 43.05262], [-83.66258, 43.05354], [-83.66287, 43.05429], [-83.66212, 43.05416], [-83.66098, 43.05403], [-83.65991, 43.05408], [-83.6592, 43.05499], [-83.6587, 43.05562], [-83.65791, 43.05588], [-83.65727, 43.05549], [-83.65602, 43.05544], [-83.65567, 43.05656], [-83.65602, 43.0602], [-83.650812, 43.060308], [-83.65071, 43.06031], [-83.65046, 43.05708], [-83.650758, 43.057067], [-83.65157, 43.05703], [-83.65371, 43.05658], [-83.6547, 43.05575], [-83.65542, 43.05468], [-83.65453, 43.05364], [-83.65274, 43.05322], [-83.65103, 43.05406], [-83.650618, 43.054243], [-83.650163, 43.054446], [-83.64975, 43.05463], [-83.649043, 43.054516], [-83.64814, 43.05437], [-83.647, 43.05489], [-83.64597, 43.05565], [-83.64436, 43.05601], [-83.64273, 43.05598], [-83.64112, 43.05596], [-83.63973, 43.05588], [-83.6377, 43.057], [-83.636845, 43.057393], [-83.635951, 43.057804], [-83.6352, 43.05815], [-83.63395, 43.05835], [-83.63221, 43.0583], [-83.63146, 43.05781], [-83.63125, 43.05664], [-83.63078, 43.05583], [-83.630039, 43.055024], [-83.62975, 43.05471], [-83.629768, 43.054387], [-83.62996, 43.05101], [-83.63578, 43.050962], [-83.6456, 43.05088], [-83.65544, 43.0507], [-83.65544, 43.05044]]]}}, {"type": "Feature", "properties": {"area_id": 4315, "city": "Flint", "state": "MI", "city_survey": true, "cat": "Hazardous", "grade": "D", "label": "D14", "res": true, "com": false, "ind": false, "holc_grade": "D"}, "geometry": {"type": "Polygon", "coordinates": [[[-83.65549, 43.03401], [-83.655397, 43.036315], [-83.65535, 43.03747], [-83.65102, 43.03778], [-83.655176, 43.042751], [-83.65535, 43.04296], [-83.65544, 43.05044], [-83.65544, 43.0507], [-83.6456, 43.05088], [-83.6456, 43.04362], [-83.64047, 43.04383], [-83.640476, 43.042882], [-83.64051, 43.03709], [-83.63581, 43.03712], [-83.63581, 43.043126], [-83.63581, 43.04417], [-83.635613, 43.044173], [-83.62549, 43.04431], [-83.62545, 43.04171], [-83.63529, 43.04192], [-83.63529, 43.03893], [-83.62554, 43.03893], [-83.62564, 43.03663], [-83.62991, 43.03643], [-83.62996, 43.03333], [-83.63519, 43.03326], [-83.63505, 43.02927], [-83.635189, 43.029264], [-83.64522, 43.02885], [-83.64517, 43.03288], [-83.655311, 43.03285], [-83.65542, 43.03285], [-83.655423, 43.032905], [-83.65549, 43.03401]], [[-83.64327, 43.03719], [-83.64327, 43.03816], [-83.64513, 43.03816], [-83.64517, 43.03702], [-83.64327, 43.03719]]]}}, {"type": "Feature", "properties": {"area_id": 4303, "city": "Flint", "state": "MI", "city_survey": true, "cat": "Hazardous", "grade": "D", "label": "D15", "res": true, "com": false, "ind": false, "holc_grade": "D"}, "geometry": {"type": "Polygon", "coordinates": [[[-83.67992, 43.004], [-83.67995, 43.00205], [-83.67874, 43.00205], [-83.67931, 42.99725], [-83.68334, 42.99725], [-83.68384, 42.9997], [-83.68352, 43.00048], [-83.68277, 43.0015], [-83.6822, 43.00241], [-83.6822, 43.00322], [-83.68306, 43.00374], [-83.68363, 43.00392], [-83.68452, 43.00372], [-83.68541, 43.00348], [-83.68627, 43.00356], [-83.68737, 43.00309], [-83.68808, 43.00272], [-83.6883, 43.00327], [-83.68965, 43.00374], [-83.69094, 43.00395], [-83.691383, 43.004098], [-83.69297, 43.00463], [-83.69275, 43.00645], [-83.69407, 43.00825], [-83.68851, 43.01091], [-83.684812, 43.007984], [-83.6842, 43.0075], [-83.67992, 43.004]]]}}, {"type": "Feature", "properties": {"area_id": 4304, "city": "Flint", "state": "MI", "city_survey": true, "cat": "Hazardous", "grade": "D", "label": "D16", "res": true, "com": false, "ind": false, "holc_grade": "D"}, "geometry": {"type": "Polygon", "coordinates": [[[-83.68434, 42.9998], [-83.68641, 43.00001], [-83.68737, 43.00095], [-83.68794, 43.00199], [-83.68808, 43.00272], [-83.68737, 43.00309], [-83.68627, 43.00356], [-83.68541, 43.00348], [-83.68452, 43.00372], [-83.68363, 43.00392], [-83.68306, 43.00374], [-83.6822, 43.00322], [-83.6822, 43.00241], [-83.68277, 43.0015], [-83.68352, 43.00048], [-83.68384, 42.9997], [-83.68434, 42.9998]]]}}, {"type": "Feature", "properties": {"area_id": 4305, "city": "Flint", "state": "MI", "city_survey": true, "cat": "Hazardous", "grade": "D", "label": "D17", "res": true, "com": false, "ind": false, "holc_grade": "D"}, "geometry": {"type": "Polygon", "coordinates": [[[-83.68377, 43.01057], [-83.68177, 43.01177], [-83.68299, 43.01323], [-83.68402, 43.01284], [-83.68348, 43.01208], [-83.6843, 43.01133], [-83.68612, 43.01281], [-83.68523, 43.01332], [-83.682525, 43.014862], [-83.68195, 43.01519], [-83.67746, 43.01263], [-83.679999, 43.011264], [-83.68274, 43.00979], [-83.68377, 43.01057]]]}}, {"type": "Feature", "properties": {"area_id": 4302, "city": "Flint", "state": "MI", "city_survey": true, "cat": "Hazardous", "grade": "D", "label": "D18", "res": true, "com": false, "ind": false, "holc_grade": "D"}, "geometry": {"type": "MultiPolygon", "coordinates": [[[[-83.65375, 43.00372], [-83.65402, 43.003721], [-83.65949, 43.00374], [-83.65988, 43.00557], [-83.66156, 43.00564], [-83.66149, 43.00366], [-83.66373, 43.00364], [-83.66373, 43.00275], [-83.66373, 43.00223], [-83.66409, 43.00189], [-83.66477, 43.00168], [-83.66519, 43.00103], [-83.66594, 43.00043], [-83.66676, 43.00051], [-83.66737, 43.00085], [-83.66765, 43.00119], [-83.66915, 43.00132], [-83.67033, 43.00132], [-83.67079, 43.00166], [-83.67097, 43.0021], [-83.67208, 43.00228], [-83.67254, 43.00252], [-83.67268, 43.00288], [-83.67332, 43.00319], [-83.67461, 43.0034], [-83.67593, 43.00505], [-83.67703, 43.0045], [-83.677068, 43.004535], [-83.68006, 43.00724], [-83.67928, 43.00799], [-83.68006, 43.00867], [-83.68113, 43.00815], [-83.682358, 43.009401], [-83.68274, 43.00979], [-83.679999, 43.011264], [-83.67746, 43.01263], [-83.6755, 43.01154], [-83.67375, 43.01055], [-83.673746, 43.010548], [-83.67054, 43.00919], [-83.66883, 43.00935], [-83.66833, 43.00632], [-83.66388, 43.00656], [-83.6638, 43.00942], [-83.654244, 43.009657], [-83.65411, 43.00966], [-83.65396, 43.00718], [-83.653752, 43.003754], [-83.65375, 43.00372]]], [[[-83.67464, 42.99104], [-83.6755, 42.99136], [-83.6757, 42.992569], [-83.676, 42.99438], [-83.67675, 42.99795], [-83.67671, 43.00025], [-83.67621, 43.00236], [-83.676187, 43.002355], [-83.67585, 43.00228], [-83.67503, 43.00194], [-83.67454, 43.00171], [-83.67407, 43.00137], [-83.67397, 43.0009], [-83.67411, 42.99952], [-83.67439, 42.99897], [-83.67386, 42.99858], [-83.67393, 42.99662], [-83.67332, 42.99652], [-83.67332, 42.996196], [-83.67332, 42.99441], [-83.673148, 42.99364], [-83.67311, 42.99347], [-83.673, 42.99172], [-83.67315, 42.99117], [-83.67464, 42.99104]]]]}}, {"type": "Feature", "properties": {"area_id": 4297, "city": "Flint", "state": "MI", "city_survey": true, "cat": "Hazardous", "grade": "D", "label": "D19", "res": true, "com": false, "ind": false, "holc_grade": "D"}, "geometry": {"type": "Polygon", "coordinates": [[[-83.69318, 42.98112], [-83.69294, 42.97764], [-83.69288, 42.97386], [-83.69276, 42.96651], [-83.69835, 42.96629], [-83.69871, 42.97447], [-83.69889, 42.98112], [-83.69318, 42.98112]]]}}, {"type": "Feature", "properties": {"area_id": 4339, "city": "Flint", "state": "MI", "city_survey": true, "cat": "Hazardous", "grade": "D", "label": "D2", "res": true, "com": false, "ind": false, "holc_grade": "D"}, "geometry": {"type": "Polygon", "coordinates": [[[-83.733417, 43.062352], [-83.73365, 43.0607], [-83.75308, 43.06091], [-83.75344, 43.06847], [-83.73817, 43.06829], [-83.73823, 43.06434], [-83.733417, 43.064054], [-83.73318, 43.06404], [-83.733417, 43.062352]]]}}, {"type": "Feature", "properties": {"area_id": 4296, "city": "Flint", "state": "MI", "city_survey": true, "cat": "Hazardous", "grade": "D", "label": "D20", "res": true, "com": false, "ind": false, "holc_grade": "D"}, "geometry": {"type": "Polygon", "coordinates": [[[-83.692831, 42.977642], [-83.690346, 42.977686], [-83.68783, 42.97773], [-83.68795, 42.98134], [-83.68313, 42.9814], [-83.68089, 42.98143], [-83.67482, 42.98151], [-83.67439, 42.981681], [-83.67351, 42.98203], [-83.67464, 42.98829], [-83.6706, 42.98616], [-83.66739, 42.98355], [-83.66584, 42.98358], [-83.66169, 42.98364], [-83.66086, 42.98412], [-83.65337, 42.98442], [-83.653288, 42.985482], [-83.65301, 42.98907], [-83.64986, 42.98907], [-83.64957, 42.98177], [-83.65295, 42.98177], [-83.65289, 42.97903], [-83.653075, 42.979042], [-83.65693, 42.97929], [-83.65682, 42.98164], [-83.66044, 42.98173], [-83.6602, 42.97881], [-83.66311, 42.98155], [-83.67298, 42.98147], [-83.67405, 42.98134], [-83.67333, 42.97755], [-83.67248, 42.97413], [-83.672603, 42.974128], [-83.692757, 42.973862], [-83.69288, 42.97386], [-83.69294, 42.97764], [-83.692831, 42.977642]]]}}, {"type": "Feature", "properties": {"area_id": 4317, "city": "Flint", "state": "MI", "city_survey": true, "cat": "Hazardous", "grade": "D", "label": "D21", "res": true, "com": false, "ind": false, "holc_grade": "D"}, "geometry": {"type": "Polygon", "coordinates": [[[-83.6374, 42.98816], [-83.63705, 42.98751], [-83.638, 42.98673], [-83.63734, 42.9862], [-83.63663, 42.98573], [-83.63711, 42.98525], [-83.63717, 42.98468], [-83.63675, 42.98399], [-83.63669, 42.98321], [-83.63729, 42.98277], [-83.6374, 42.98229], [-83.63824, 42.98229], [-83.64055, 42.98203], [-83.64043, 42.97903], [-83.64697, 42.97886], [-83.64703, 42.98208], [-83.64406, 42.98221], [-83.64442, 42.98894], [-83.64858, 42.98907], [-83.648579, 42.989236], [-83.64852, 42.99611], [-83.64899, 42.99703], [-83.64911, 42.99772], [-83.64804, 42.99729], [-83.64727, 42.9979], [-83.64638, 42.99816], [-83.64566, 42.99794], [-83.64537, 42.99733], [-83.64489, 42.9969], [-83.64382, 42.99646], [-83.643798, 42.99643], [-83.64347, 42.99598], [-83.64347, 42.99533], [-83.643782, 42.995141], [-83.64418, 42.9949], [-83.64507, 42.99498], [-83.64489, 42.99398], [-83.64477, 42.99359], [-83.644, 42.99325], [-83.64418, 42.99233], [-83.643754, 42.992447], [-83.64305, 42.99264], [-83.64293, 42.99129], [-83.64216, 42.99099], [-83.64234, 43.00368], [-83.644079, 43.00368], [-83.64469, 43.00368], [-83.644694, 43.003902], [-83.64476, 43.00738], [-83.65396, 43.00718], [-83.65411, 43.00966], [-83.64501, 43.00985], [-83.64572, 43.01827], [-83.634993, 43.023259], [-83.63497, 43.02327], [-83.63473, 43.01875], [-83.634839, 43.018744], [-83.64275, 43.01832], [-83.64234, 43.01015], [-83.63901, 43.01002], [-83.63895, 43.00819], [-83.634613, 43.00824], [-83.63461, 43.00824], [-83.6336, 42.98964], [-83.636571, 42.989485], [-83.63859, 42.98938], [-83.63841, 42.9886], [-83.6374, 42.98816]]]}}, {"type": "Feature", "properties": {"area_id": 4295, "city": "Flint", "state": "MI", "city_survey": true, "cat": "Hazardous", "grade": "D", "label": "D22", "res": true, "com": false, "ind": false, "holc_grade": "D"}, "geometry": {"type": "Polygon", "coordinates": [[[-83.65759, 42.95507], [-83.66169, 42.95507], [-83.65901, 42.95273], [-83.66888, 42.9522], [-83.66941, 42.9549], [-83.67357, 42.95425], [-83.67369, 42.95968], [-83.6826, 42.95955], [-83.68261, 42.959766], [-83.68296, 42.96755], [-83.67761, 42.96738], [-83.67755, 42.97264], [-83.672468, 42.973011], [-83.67221, 42.97303], [-83.67248, 42.97413], [-83.67333, 42.97755], [-83.65991, 42.97764], [-83.65295, 42.9709], [-83.66145, 42.9706], [-83.66145, 42.97129], [-83.66092, 42.97142], [-83.66092, 42.97416], [-83.66228, 42.97442], [-83.66151, 42.96021], [-83.659621, 42.960138], [-83.65812, 42.96008], [-83.65759, 42.95507]]]}}, {"type": "Feature", "properties": {"area_id": 4294, "city": "Flint", "state": "MI", "city_survey": true, "cat": "Hazardous", "grade": "D", "label": "D23", "res": true, "com": false, "ind": false, "holc_grade": "D"}, "geometry": {"type": "Polygon", "coordinates": [[[-83.6564, 42.93981], [-83.66305, 42.93976], [-83.66305, 42.944373], [-83.66305, 42.94455], [-83.6567, 42.94485], [-83.65765, 42.94986], [-83.6542, 42.94999], [-83.6545, 42.95329], [-83.64671, 42.95338], [-83.64588, 42.94851], [-83.650831, 42.944586], [-83.65099, 42.94446], [-83.654365, 42.944558], [-83.65545, 42.94459], [-83.655582, 42.944534], [-83.65676, 42.94403], [-83.6564, 42.93981]]]}}, {"type": "Feature", "properties": {"area_id": 4329, "city": "Flint", "state": "MI", "city_survey": true, "cat": "Hazardous", "grade": "D", "label": "D3", "res": true, "com": false, "ind": false, "holc_grade": "D"}, "geometry": {"type": "Polygon", "coordinates": [[[-83.741433, 43.034606], [-83.74244, 43.03371], [-83.74675, 43.03515], [-83.73969, 43.04145], [-83.73969, 43.046172], [-83.73969, 43.05195], [-83.73367, 43.052], [-83.733539, 43.046224], [-83.73334, 43.03747], [-83.733581, 43.037229], [-83.73389, 43.03692], [-83.734515, 43.037305], [-83.73681, 43.03872], [-83.737994, 43.037666], [-83.738122, 43.037552], [-83.739425, 43.036393], [-83.741433, 43.034606]]]}}, {"type": "Feature", "properties": {"area_id": 4327, "city": "Flint", "state": "MI", "city_survey": true, "cat": "Hazardous", "grade": "D", "label": "D4", "res": true, "com": false, "ind": false, "holc_grade": "D"}, "geometry": {"type": "Polygon", "coordinates": [[[-83.73687, 43.01946], [-83.736945, 43.01992], [-83.737046, 43.020534], [-83.737054, 43.020582], [-83.73719, 43.02141], [-83.73809, 43.02207], [-83.73933, 43.02225], [-83.74261, 43.02209], [-83.74518, 43.02246], [-83.74614, 43.02311], [-83.74661, 43.02371], [-83.74308, 43.02762], [-83.736923, 43.025944], [-83.73463, 43.02532], [-83.72878, 43.02368], [-83.728817, 43.023636], [-83.73128, 43.02068], [-83.73217, 43.02027], [-83.732384, 43.020043], [-83.73416, 43.01816], [-83.73463, 43.01789], [-83.73573, 43.01782], [-83.73623, 43.01849], [-83.736407, 43.018758], [-83.73687, 43.01946]]]}}, {"type": "Feature", "properties": {"area_id": 4318, "city": "Flint", "state": "MI", "city_survey": true, "cat": "Hazardous", "grade": "D", "label": "D5", "res": true, "com": false, "ind": false, "holc_grade": "D"}, "geometry": {"type": "Polygon", "coordinates": [[[-83.74726, 42.99915], [-83.738116, 43.001279], [-83.73807, 43.00129], [-83.738117, 43.000693], [-83.73857, 42.99492], [-83.74192, 42.99466], [-83.741805, 42.991565], [-83.7417, 42.98872], [-83.74356, 42.98778], [-83.74862, 42.98757], [-83.74862, 42.99487], [-83.75489, 42.99487], [-83.76317, 42.99487], [-83.76331, 43.00207], [-83.75867, 43.00223], [-83.75839, 43.00692], [-83.75347, 43.00707], [-83.75283, 43.00228], [-83.749603, 43.002057], [-83.74748, 43.00191], [-83.74726, 42.99915]]]}}, {"type": "Feature", "properties": {"area_id": 4323, "city": "Flint", "state": "MI", "city_survey": true, "cat": "Hazardous", "grade": "D", "label": "D6", "res": true, "com": false, "ind": false, "holc_grade": "D"}, "geometry": {"type": "Polygon", "coordinates": [[[-83.70434, 43.01471], [-83.70744, 43.01317], [-83.70954, 43.01234], [-83.71026, 43.01348], [-83.70273, 43.0169], [-83.70191, 43.01588], [-83.70434, 43.01471]]]}}, {"type": "Feature", "properties": {"area_id": 4324, "city": "Flint", "state": "MI", "city_survey": true, "cat": "Hazardous", "grade": "D", "label": "D7", "res": true, "com": false, "ind": false, "holc_grade": "D"}, "geometry": {"type": "Polygon", "coordinates": [[[-83.70042, 43.01679], [-83.70127, 43.01752], [-83.699109, 43.018359], [-83.69542, 43.01979], [-83.69414, 43.01844], [-83.69782, 43.016838], [-83.69917, 43.01625], [-83.70042, 43.01679]]]}}, {"type": "Feature", "properties": {"area_id": 4322, "city": "Flint", "state": "MI", "city_survey": true, "cat": "Hazardous", "grade": "D", "label": "D8", "res": true, "com": false, "ind": false, "holc_grade": "D"}, "geometry": {"type": "Polygon", "coordinates": [[[-83.69792, 43.00806], [-83.70067, 43.00673], [-83.70439, 43.00675], [-83.70983, 43.00677], [-83.70762, 43.00788], [-83.7053, 43.00908], [-83.70434, 43.00999], [-83.70348, 43.01038], [-83.70309, 43.01088], [-83.70302, 43.01148], [-83.70166, 43.01213], [-83.704092, 43.014471], [-83.70434, 43.01471], [-83.70191, 43.01588], [-83.701446, 43.015798], [-83.70027, 43.01559], [-83.69952, 43.01549], [-83.69963, 43.01479], [-83.699174, 43.014547], [-83.69796, 43.0139], [-83.69749, 43.01299], [-83.69824, 43.01187], [-83.69856, 43.0109], [-83.69774, 43.01033], [-83.69157, 43.01291], [-83.69186, 43.01348], [-83.69168, 43.01398], [-83.69115, 43.01413], [-83.69033, 43.01296], [-83.68993, 43.01247], [-83.698912, 43.008776], [-83.69895, 43.00876], [-83.698808, 43.008663], [-83.698616, 43.008533], [-83.69792, 43.00806]]]}}, {"type": "Feature", "properties": {"area_id": 4340, "city": "Flint", "state": "MI", "city_survey": true, "cat": "Hazardous", "grade": "D", "label": "D9", "res": true, "com": false, "ind": false, "holc_grade": "D"}, "geometry": {"type": "Polygon", "coordinates": [[[-83.68451, 43.07574], [-83.68457, 43.06847], [-83.69247, 43.06855], [-83.69253, 43.07025], [-83.69093, 43.07055], [-83.69081, 43.07168], [-83.69259, 43.07151], [-83.69277, 43.07568], [-83.68451, 43.07574]]]}}, {"type": "Feature", "properties": {"area_id": 11233, "city": "Flint", "state": "MI", "city_survey": true, "cat": "Industrial and Commercial", "grade": null, "label": "Industrial and Commercial", "res": false, "com": true, "ind": true, "holc_grade": null}, "geometry": {"type": "MultiPolygon", "coordinates": [[[[-83.64697, 42.97886], [-83.64043, 42.97903], [-83.63735, 42.97982], [-83.63573, 42.9786], [-83.63485, 42.97704], [-83.63568, 42.97494], [-83.6482, 42.9748], [-83.64848, 42.97901], [-83.64697, 42.97886]]], [[[-83.66491, 43.04388], [-83.66443, 43.03349], [-83.665188, 43.033428], [-83.66529, 43.03342], [-83.66576, 43.03356], [-83.66619, 43.04725], [-83.665155, 43.047387], [-83.66498, 43.04741], [-83.66491, 43.04388]]], [[[-83.71289, 43.00675], [-83.713217, 43.008573], [-83.71325, 43.00876], [-83.71528, 43.00899], [-83.715358, 43.008989], [-83.71695, 43.00897], [-83.71951, 43.00906], [-83.7204, 43.00995], [-83.719911, 43.010255], [-83.71923, 43.01068], [-83.71846, 43.01068], [-83.712314, 43.013313], [-83.71127, 43.01376], [-83.71147, 43.01419], [-83.7089, 43.0157], [-83.70581, 43.01717], [-83.700043, 43.01944], [-83.69603, 43.02102], [-83.697474, 43.022498], [-83.70396, 43.02914], [-83.70473, 43.03049], [-83.703528, 43.03107], [-83.7033, 43.03118], [-83.702861, 43.03071], [-83.70229, 43.0301], [-83.69575, 43.0233], [-83.6949, 43.02361], [-83.69521, 43.02858], [-83.69534, 43.03062], [-83.695333, 43.030781], [-83.69516, 43.03501], [-83.69724, 43.03514], [-83.69819, 43.03553], [-83.69632, 43.03581], [-83.69494, 43.03581], [-83.69524, 43.04548], [-83.69528, 43.046917], [-83.69528, 43.04693], [-83.695518, 43.054236], [-83.69561, 43.05707], [-83.6955, 43.05953], [-83.69554, 43.060981], [-83.69565, 43.06496], [-83.695756, 43.068772], [-83.6959, 43.07395], [-83.69414, 43.07393], [-83.69414, 43.07566], [-83.694051, 43.075661], [-83.69277, 43.07568], [-83.69259, 43.07151], [-83.69081, 43.07168], [-83.69093, 43.07055], [-83.69253, 43.07025], [-83.69247, 43.06855], [-83.69349, 43.06837], [-83.69368, 43.06543], [-83.69265, 43.06495], [-83.692562, 43.061016], [-83.69248, 43.05737], [-83.69224, 43.04676], [-83.6937, 43.04699], [-83.69361, 43.04567], [-83.69221, 43.04558], [-83.692154, 43.043101], [-83.69197, 43.03499], [-83.69182, 43.02828], [-83.69182, 43.02808], [-83.691917, 43.023472], [-83.69194, 43.02235], [-83.68962, 43.02248], [-83.68962, 43.023507], [-83.68962, 43.0237], [-83.68885, 43.02452], [-83.68754, 43.02444], [-83.68695, 43.02496], [-83.686664, 43.024785], [-83.685954, 43.024349], [-83.68325, 43.02269], [-83.683428, 43.022415], [-83.68362, 43.02212], [-83.68335, 43.02129], [-83.68415, 43.01993], [-83.684893, 43.019652], [-83.6873, 43.01875], [-83.68644, 43.01765], [-83.68801, 43.01682], [-83.68523, 43.01332], [-83.68612, 43.01281], [-83.6843, 43.01133], [-83.68348, 43.01208], [-83.68402, 43.01284], [-83.68299, 43.01323], [-83.68177, 43.01177], [-83.68377, 43.01057], [-83.68274, 43.00979], [-83.682358, 43.009401], [-83.68113, 43.00815], [-83.68006, 43.00867], [-83.67928, 43.00799], [-83.68006, 43.00724], [-83.677068, 43.004535], [-83.67703, 43.0045], [-83.67593, 43.00505], [-83.67461, 43.0034], [-83.675128, 43.003063], [-83.676194, 43.002371], [-83.67621, 43.00236], [-83.67671, 43.00025], [-83.67675, 42.99795], [-83.676, 42.99438], [-83.6757, 42.992569], [-83.6755, 42.99136], [-83.675003, 42.989587], [-83.674833, 42.988979], [-83.67464, 42.98829], [-83.67351, 42.98203], [-83.67439, 42.981681], [-83.67482, 42.98151], [-83.68089, 42.98143], [-83.680896, 42.981566], [-83.68119, 42.98789], [-83.681236, 42.988885], [-83.68132, 42.99072], [-83.68294, 42.99065], [-83.683224, 42.99494], [-83.68327, 42.99563], [-83.68334, 42.99725], [-83.67931, 42.99725], [-83.67874, 43.00205], [-83.67995, 43.00205], [-83.67992, 43.004], [-83.6829, 43.00644], [-83.6842, 43.0075], [-83.684812, 43.007984], [-83.68851, 43.01091], [-83.69407, 43.00825], [-83.697864, 43.008063], [-83.69792, 43.00806], [-83.698616, 43.008533], [-83.698808, 43.008663], [-83.69895, 43.00876], [-83.698912, 43.008776], [-83.68993, 43.01247], [-83.69033, 43.01296], [-83.69115, 43.01413], [-83.69168, 43.01398], [-83.69186, 43.01348], [-83.69157, 43.01291], [-83.69774, 43.01033], [-83.69856, 43.0109], [-83.69824, 43.01187], [-83.69749, 43.01299], [-83.69796, 43.0139], [-83.699174, 43.014547], [-83.69963, 43.01479], [-83.69952, 43.01549], [-83.699419, 43.015487], [-83.69915, 43.01548], [-83.6981, 43.01545], [-83.69917, 43.01625], [-83.69782, 43.016838], [-83.69414, 43.01844], [-83.69542, 43.01979], [-83.699109, 43.018359], [-83.70127, 43.01752], [-83.70115, 43.01742], [-83.702, 43.01761], [-83.70306, 43.01726], [-83.70273, 43.0169], [-83.71026, 43.01348], [-83.70954, 43.01234], [-83.70744, 43.01317], [-83.70434, 43.01471], [-83.704092, 43.014471], [-83.70166, 43.01213], [-83.70302, 43.01148], [-83.70309, 43.01088], [-83.70348, 43.01038], [-83.70434, 43.00999], [-83.7053, 43.00908], [-83.70762, 43.00788], [-83.70983, 43.00677], [-83.71157, 43.00678], [-83.71095, 43.00578], [-83.71249, 43.00526], [-83.71469, 43.00461], [-83.72004, 43.00313], [-83.72248, 43.00235], [-83.722801, 43.002262], [-83.72485, 43.0017], [-83.73807, 43.00129], [-83.738115, 43.001326], [-83.73903, 43.00205], [-83.738576, 43.002278], [-83.737, 43.00307], [-83.72401, 43.00339], [-83.723448, 43.00356], [-83.71289, 43.00675]]]]}}]}