{"type": "FeatureCollection", "features": [{"type": "Feature", "properties": {"area_id": 10425, "city": "Orlando", "state": "FL", "city_survey": false, "cat": "Business Section", "grade": null, "label": "Business Section", "res": false, "com": true, "ind": false, "holc_grade": null}, "geometry": {"type": "Polygon", "coordinates": [[[-81.388983, 28.540143], [-81.38907, 28.54935], [-81.37705, 28.54941], [-81.37699, 28.53883], [-81.38076, 28.53879], [-81.382523, 28.538775], [-81.38897, 28.53872], [-81.388983, 28.540143]]]}}, {"type": "Feature", "properties": {"area_id": 10426, "city": "Orlando", "state": "FL", "city_survey": false, "cat": "Colored Section & Cheaper Area", "grade": null, "label": "Colored Section & Cheaper Area", "res": true, "com": false, "ind": false, "holc_grade": null}, "geometry": {"type": "MultiPolygon", "coordinates": [[[[-81.359897, 28.51682], [-81.36446, 28.51675], [-81.3644, 28.51966], [-81.3641, 28.52157], [-81.3641, 28.531292], [-81.3641, 28.53181], [-81.36001, 28.53182], [-81.36029, 28.53528], [-81.3642, 28.53511], [-81.36423, 28.537266], [-81.36425, 28.53867], [-81.35159, 28.53891], [-81.34772, 28.53884], [-81.347704, 28.538326], [-81.34749, 28.53143], [-81.355418, 28.531771], [-81.3568, 28.53183], [-81.357043, 28.531353], [-81.35821, 28.52906], [-81.35841, 28.5244], [-81.35192, 28.52419], [-81.351921, 28.524088], [-81.35201, 28.51694], [-81.356094, 28.516878], [-81.359897, 28.51682]]], [[[-81.40149, 28.53456], [-81.405407, 28.534574], [-81.40974, 28.53459], [-81.409896, 28.539693], [-81.41029, 28.55253], [-81.40156, 28.55262], [-81.40152, 28.54927], [-81.397375, 28.549297], [-81.38907, 28.54935], [-81.388983, 28.540143], [-81.38897, 28.53872], [-81.382523, 28.538775], [-81.38076, 28.53879], [-81.380624, 28.535275], [-81.38047, 28.5313], [-81.38047, 28.531115], [-81.38047, 28.51666], [-81.38047, 28.51551], [-81.397018, 28.515016], [-81.40157, 28.51488], [-81.40149, 28.53456]]]]}}, {"type": "Feature", "properties": {"area_id": 10427, "city": "Orlando", "state": "FL", "city_survey": false, "cat": "Residential Section", "grade": null, "label": "Residential Section", "res": true, "com": false, "ind": false, "holc_grade": null}, "geometry": {"type": "Polygon", "coordinates": [[[-81.38076, 28.53879], [-81.37699, 28.53883], [-81.37705, 28.54941], [-81.38907, 28.54935], [-81.397375, 28.549297], [-81.40152, 28.54927], [-81.40156, 28.55262], [-81.401571, 28.552915], [-81.40196, 28.56368], [-81.399597, 28.563737], [-81.39904, 28.56375], [-81.40189, 28.56784], [-81.40196, 28.57394], [-81.39549, 28.577], [-81.39375, 28.57762], [-81.39415, 28.58219], [-81.389786, 28.582226], [-81.375143, 28.582348], [-81.373111, 28.582365], [-81.364861, 28.582434], [-81.35215, 28.58254], [-81.352109, 28.579351], [-81.351961, 28.567779], [-81.351861, 28.559998], [-81.351773, 28.553198], [-81.35168, 28.545947], [-81.35159, 28.53891], [-81.36425, 28.53867], [-81.36423, 28.537266], [-81.3642, 28.53511], [-81.36029, 28.53528], [-81.36001, 28.53182], [-81.3641, 28.53181], [-81.3641, 28.531292], [-81.3641, 28.52157], [-81.3644, 28.51966], [-81.36446, 28.51675], [-81.37636, 28.516683], [-81.38047, 28.51666], [-81.38047, 28.531115], [-81.38047, 28.5313], [-81.380624, 28.535275], [-81.38076, 28.53879]]]}}]}