{"type": "FeatureCollection", "features": [{"type": "Feature", "properties": {"area_id": 10388, "city": "Colorado Springs", "state": "CO", "city_survey": false, "cat": "1st Grade", "grade": null, "label": "1st Grade", "res": true, "com": false, "ind": false, "holc_grade": null}, "geometry": {"type": "Polygon", "coordinates": [[[-104.81544, 38.83392], [-104.81778, 38.8344], [-104.81767, 38.8369], [-104.817946, 38.836949], [-104.8188, 38.8371], [-104.81883, 38.8381], [-104.824993, 38.838345], [-104.82511, 38.83835], [-104.824989, 38.838407], [-104.8231, 38.83929], [-104.823096, 38.839538], [-104.82307, 38.84097], [-104.82478, 38.84242], [-104.82559, 38.84353], [-104.82759, 38.84358], [-104.82891, 38.84609], [-104.828841, 38.851053], [-104.82884, 38.85112], [-104.83139, 38.85743], [-104.82986, 38.86038], [-104.82832, 38.86095], [-104.820173, 38.860631], [-104.81836, 38.86056], [-104.818367, 38.8604], [-104.81858, 38.8553], [-104.81672, 38.85339], [-104.816857, 38.850438], [-104.81705, 38.84626], [-104.81478, 38.84418], [-104.81504, 38.84168], [-104.815287, 38.839272], [-104.81529, 38.83924], [-104.81296, 38.83483], [-104.81329, 38.83341], [-104.81544, 38.83392]]]}}, {"type": "Feature", "properties": {"area_id": 10389, "city": "Colorado Springs", "state": "CO", "city_survey": false, "cat": "2nd Grade", "grade": null, "label": "2nd Grade", "res": true, "com": false, "ind": false, "holc_grade": null}, "geometry": {"type": "MultiPolygon", "coordinates": [[[[-104.81544, 38.83284], [-104.81325, 38.8327], [-104.81329, 38.83341], [-104.81296, 38.83483], [-104.81529, 38.83924], [-104.815287, 38.839272], [-104.81504, 38.84168], [-104.81478, 38.84418], [-104.81705, 38.84626], [-104.816857, 38.850438], [-104.81672, 38.85339], [-104.81858, 38.8553], [-104.818367, 38.8604], [-104.81836, 38.86056], [-104.820173, 38.860631], [-104.82832, 38.86095], [-104.82986, 38.86038], [-104.82799, 38.86178], [-104.82566, 38.86198], [-104.820101, 38.861778], [-104.81657, 38.86165], [-104.81371, 38.860263], [-104.81358, 38.8602], [-104.81233, 38.85379], [-104.812458, 38.850321], [-104.81246, 38.85027], [-104.81253, 38.84898], [-104.8113, 38.84879], [-104.81136, 38.84757], [-104.81011, 38.847506], [-104.809008, 38.84745], [-104.80394, 38.84719], [-104.80192, 38.84657], [-104.79719, 38.84647], [-104.79514, 38.84614], [-104.7949, 38.84544], [-104.79461, 38.83875], [-104.79462, 38.838639], [-104.7952, 38.83196], [-104.80389, 38.8321], [-104.808173, 38.832021], [-104.80822, 38.83202], [-104.81056, 38.83208], [-104.81067, 38.83067], [-104.81566, 38.83068], [-104.81544, 38.83284]]], [[[-104.82559, 38.84353], [-104.82478, 38.84242], [-104.82307, 38.84097], [-104.823096, 38.839538], [-104.8231, 38.83929], [-104.824989, 38.838407], [-104.82511, 38.83835], [-104.82555, 38.83744], [-104.828, 38.83722], [-104.82759, 38.84358], [-104.82559, 38.84353]]], [[[-104.83795, 38.8318], [-104.83783, 38.83218], [-104.840658, 38.833794], [-104.857053, 38.843152], [-104.86008, 38.84488], [-104.86034, 38.84473], [-104.86749, 38.84943], [-104.86734, 38.84974], [-104.86574, 38.84882], [-104.856729, 38.843493], [-104.84847, 38.83861], [-104.840672, 38.834293], [-104.83774, 38.83267], [-104.83323, 38.832583], [-104.8315, 38.83255], [-104.82909, 38.8319], [-104.82905, 38.8313], [-104.834053, 38.831581], [-104.83795, 38.8318]]], [[[-104.83727, 38.83332], [-104.840696, 38.835207], [-104.85519, 38.84319], [-104.856357, 38.843856], [-104.86092, 38.84646], [-104.86404, 38.84832], [-104.86304, 38.84941], [-104.857058, 38.849277], [-104.85676, 38.84927], [-104.85659, 38.848991], [-104.854568, 38.845663], [-104.8545, 38.84555], [-104.84771, 38.84535], [-104.84752, 38.8435], [-104.8453, 38.84231], [-104.84055, 38.84216], [-104.84066, 38.83787], [-104.840656, 38.837868], [-104.83278, 38.83335], [-104.83727, 38.83332]]]]}}, {"type": "Feature", "properties": {"area_id": 10390, "city": "Colorado Springs", "state": "CO", "city_survey": false, "cat": "3rd Grade", "grade": null, "label": "3rd Grade", "res": true, "com": false, "ind": false, "holc_grade": null}, "geometry": {"type": "Polygon", "coordinates": [[[-104.840712, 38.829341], [-104.84074, 38.82934], [-104.84128, 38.82999], [-104.84107, 38.83115], [-104.84996, 38.83578], [-104.85652, 38.83901], [-104.86811, 38.83888], [-104.86831, 38.83419], [-104.87247, 38.83416], [-104.872438, 38.838902], [-104.87243, 38.84011], [-104.86902, 38.84448], [-104.8674, 38.84581], [-104.86844, 38.84623], [-104.868424, 38.847463], [-104.8684, 38.8493], [-104.87209, 38.85163], [-104.872437, 38.85184], [-104.87434, 38.85299], [-104.87641, 38.85425], [-104.88571, 38.85641], [-104.88542, 38.85819], [-104.880902, 38.858462], [-104.88061, 38.85848], [-104.87853, 38.85929], [-104.87787, 38.86107], [-104.87392, 38.8602], [-104.87189, 38.85874], [-104.87326, 38.85713], [-104.87272, 38.85664], [-104.87243, 38.85548], [-104.8713, 38.85444], [-104.87006, 38.85541], [-104.869854, 38.855288], [-104.86811, 38.85425], [-104.867671, 38.854724], [-104.86674, 38.85573], [-104.866374, 38.855507], [-104.86346, 38.85373], [-104.863473, 38.853136], [-104.86354, 38.85014], [-104.85905, 38.85014], [-104.858688, 38.850273], [-104.85739, 38.85075], [-104.85444, 38.84927], [-104.854372, 38.847742], [-104.85432, 38.84658], [-104.853879, 38.846572], [-104.84493, 38.84642], [-104.84502, 38.84296], [-104.84053, 38.84289], [-104.84054, 38.844375], [-104.840545, 38.84502], [-104.840548, 38.845504], [-104.840566, 38.848153], [-104.840583, 38.850668], [-104.8407, 38.86786], [-104.833623, 38.86786], [-104.83326, 38.86786], [-104.833115, 38.860731], [-104.832995, 38.854833], [-104.83297, 38.85363], [-104.83272, 38.853625], [-104.83156, 38.8536], [-104.830938, 38.850839], [-104.8299, 38.84623], [-104.828, 38.83722], [-104.828135, 38.83691], [-104.82873, 38.83554], [-104.82953, 38.83338], [-104.832367, 38.833354], [-104.83278, 38.83335], [-104.840656, 38.837868], [-104.84066, 38.83787], [-104.84055, 38.84216], [-104.8453, 38.84231], [-104.84752, 38.8435], [-104.84771, 38.84535], [-104.8545, 38.84555], [-104.854568, 38.845663], [-104.85659, 38.848991], [-104.85676, 38.84927], [-104.857058, 38.849277], [-104.86304, 38.84941], [-104.86404, 38.84832], [-104.87096, 38.85245], [-104.871846, 38.853263], [-104.87205, 38.85345], [-104.873876, 38.854218], [-104.87388, 38.85422], [-104.87326, 38.85314], [-104.8722, 38.852529], [-104.87156, 38.85216], [-104.86734, 38.84974], [-104.86749, 38.84943], [-104.86034, 38.84473], [-104.86008, 38.84488], [-104.857053, 38.843152], [-104.840658, 38.833794], [-104.83783, 38.83218], [-104.83795, 38.8318], [-104.834053, 38.831581], [-104.82905, 38.8313], [-104.8273, 38.8311], [-104.82738, 38.82968], [-104.8257, 38.82832], [-104.82581, 38.8255], [-104.82212, 38.82527], [-104.82029, 38.8253], [-104.81865, 38.82658], [-104.81851, 38.82806], [-104.818418, 38.828241], [-104.81715, 38.83073], [-104.81566, 38.83068], [-104.81067, 38.83067], [-104.81056, 38.83208], [-104.80822, 38.83202], [-104.808173, 38.832021], [-104.80389, 38.8321], [-104.7952, 38.83196], [-104.79462, 38.838639], [-104.79461, 38.83875], [-104.7949, 38.84544], [-104.79514, 38.84614], [-104.79719, 38.84647], [-104.80192, 38.84657], [-104.80394, 38.84719], [-104.809008, 38.84745], [-104.81011, 38.847506], [-104.81136, 38.84757], [-104.8113, 38.84879], [-104.81253, 38.84898], [-104.81246, 38.85027], [-104.812458, 38.850321], [-104.81233, 38.85379], [-104.81358, 38.8602], [-104.81371, 38.860263], [-104.81657, 38.86165], [-104.820101, 38.861778], [-104.82566, 38.86198], [-104.82799, 38.86178], [-104.82737, 38.86392], [-104.82579, 38.86776], [-104.823387, 38.869373], [-104.82217, 38.87019], [-104.820574, 38.870502], [-104.819621, 38.870687], [-104.818645, 38.870878], [-104.81802, 38.871], [-104.817305, 38.870858], [-104.8157, 38.87054], [-104.81615, 38.86233], [-104.809097, 38.86214], [-104.80909, 38.86214], [-104.80938, 38.85512], [-104.80706, 38.85515], [-104.80722, 38.85208], [-104.80498, 38.85214], [-104.80506, 38.85033], [-104.80278, 38.85033], [-104.8022, 38.84991], [-104.80232, 38.84733], [-104.794236, 38.847262], [-104.79402, 38.84726], [-104.794135, 38.84095], [-104.79431, 38.83135], [-104.794797, 38.831361], [-104.80374, 38.83157], [-104.80386, 38.82856], [-104.80328, 38.82847], [-104.80332, 38.82746], [-104.79925, 38.82255], [-104.79651, 38.82238], [-104.796532, 38.821044], [-104.79655, 38.81992], [-104.7973, 38.8206], [-104.79879, 38.82038], [-104.80365, 38.82047], [-104.80357, 38.81805], [-104.82217, 38.81753], [-104.82213, 38.81698], [-104.822357, 38.816993], [-104.82433, 38.81711], [-104.82442, 38.81769], [-104.8304, 38.8174], [-104.831849, 38.817382], [-104.83276, 38.81737], [-104.832962, 38.818234], [-104.83372, 38.82148], [-104.83443, 38.82248], [-104.836051, 38.824011], [-104.83659, 38.82452], [-104.83663, 38.82562], [-104.83588, 38.82598], [-104.83526, 38.8272], [-104.83841, 38.82944], [-104.840712, 38.829341]]]}}, {"type": "Feature", "properties": {"area_id": 10387, "city": "Colorado Springs", "state": "CO", "city_survey": false, "cat": "Business", "grade": null, "label": "Business", "res": false, "com": true, "ind": false, "holc_grade": null}, "geometry": {"type": "Polygon", "coordinates": [[[-104.82212, 38.82527], [-104.82581, 38.8255], [-104.8257, 38.82832], [-104.82738, 38.82968], [-104.8273, 38.8311], [-104.82905, 38.8313], [-104.82909, 38.8319], [-104.8315, 38.83255], [-104.83323, 38.832583], [-104.83774, 38.83267], [-104.840672, 38.834293], [-104.84847, 38.83861], [-104.856729, 38.843493], [-104.86574, 38.84882], [-104.86734, 38.84974], [-104.87156, 38.85216], [-104.8722, 38.852529], [-104.87326, 38.85314], [-104.87388, 38.85422], [-104.873876, 38.854218], [-104.87205, 38.85345], [-104.871846, 38.853263], [-104.87096, 38.85245], [-104.86404, 38.84832], [-104.86092, 38.84646], [-104.856357, 38.843856], [-104.85519, 38.84319], [-104.840696, 38.835207], [-104.83727, 38.83332], [-104.83278, 38.83335], [-104.832367, 38.833354], [-104.82953, 38.83338], [-104.82873, 38.83554], [-104.828135, 38.83691], [-104.828, 38.83722], [-104.82555, 38.83744], [-104.82511, 38.83835], [-104.824993, 38.838345], [-104.81883, 38.8381], [-104.8188, 38.8371], [-104.817946, 38.836949], [-104.81767, 38.8369], [-104.81778, 38.8344], [-104.81544, 38.83392], [-104.81329, 38.83341], [-104.81325, 38.8327], [-104.81544, 38.83284], [-104.81566, 38.83068], [-104.81715, 38.83073], [-104.818418, 38.828241], [-104.81851, 38.82806], [-104.81865, 38.82658], [-104.82029, 38.8253], [-104.82212, 38.82527]]]}}]}