{"type": "FeatureCollection", "features": [{"type": "Feature", "geometry": {"type": "Point", "coordinates": [-104.9091, 38.8451]}, "properties": {"facility_name": "SNYDER QUARRY", "industry": null, "tri_facility_id": "80829PKVWQ2001B"}}, {"type": "Feature", "geometry": {"type": "Point", "coordinates": [-104.846994, 38.896474]}, "properties": {"facility_name": "KEYSIGHT TECHNOLOGIES", "industry": null, "tri_facility_id": "80901HWLTT1900G"}}, {"type": "Feature", "geometry": {"type": "Point", "coordinates": [-104.827778, 38.826111]}, "properties": {"facility_name": "METSO MINERALS INDUSTRIES INC", "industry": null, "tri_facility_id": "80903DNVRQ621SS"}}, {"type": "Feature", "geometry": {"type": "Point", "coordinates": [-104.83194444444445, 38.824444444444445]}, "properties": {"facility_name": "COLORADO SPRINGS UTILITIES MARTIN DRAKE POWER PLANT", "industry": null, "tri_facility_id": "80903MRTND700SC"}}, {"type": "Feature", "geometry": {"type": "Point", "coordinates": [-104.874323, 38.892557]}, "properties": {"facility_name": "QUEENS QUARRY", "industry": null, "tri_facility_id": "80904PKVWQ3820N"}}, {"type": "Feature", "geometry": {"type": "Point", "coordinates": [-104.8584, 38.7913]}, "properties": {"facility_name": "ATMEL CORP", "industry": null, "tri_facility_id": "80906HNYWL1150E"}}, {"type": "Feature", "geometry": {"type": "Point", "coordinates": [-104.793889, 38.792222]}, "properties": {"facility_name": "ELECTRONICS METAL FINISHING CORP", "industry": null, "tri_facility_id": "80906LCTRN3025J"}}, {"type": "Feature", "geometry": {"type": "Point", "coordinates": [-104.805791, 38.7805]}, "properties": {"facility_name": "INMOS CORP", "industry": null, "tri_facility_id": "80906NMSCR1110B"}}, {"type": "Feature", "geometry": {"type": "Point", "coordinates": [-104.791685, 38.80234]}, "properties": {"facility_name": "INMOS CORP, DIV/ SGS-THOMSON MICRO INC", "industry": null, "tri_facility_id": "80906NMSCR2150E"}}, {"type": "Feature", "geometry": {"type": "Point", "coordinates": [-104.791667, 38.791667]}, "properties": {"facility_name": "AVX CORP", "industry": null, "tri_facility_id": "80906VXCRP2435E"}}, {"type": "Feature", "geometry": {"type": "Point", "coordinates": [-104.81199, 38.882605]}, "properties": {"facility_name": "CELLULAR PRODUCT SERVICES INC", "industry": null, "tri_facility_id": "80907CLLLR3407N"}}, {"type": "Feature", "geometry": {"type": "Point", "coordinates": [-104.815224, 38.88137]}, "properties": {"facility_name": "CURRENT INC", "industry": null, "tri_facility_id": "80907CRRNT3525N"}}, {"type": "Feature", "geometry": {"type": "Point", "coordinates": [-104.798, 38.8927]}, "properties": {"facility_name": "DIGITAL EQUIPMENT CORP", "industry": null, "tri_facility_id": "80907DGTLQ4755F"}}, {"type": "Feature", "geometry": {"type": "Point", "coordinates": [-104.76083333333334, 38.78444444444444]}, "properties": {"facility_name": "LAFARGE WEST INC. DRENNAN PLANT", "industry": null, "tri_facility_id": "80907LFRGW3390D"}}, {"type": "Feature", "geometry": {"type": "Point", "coordinates": [-104.8125, 38.866667]}, "properties": {"facility_name": "LITTON DATA SYSTEMS", "industry": null, "tri_facility_id": "80907LTTND425EF"}}, {"type": "Feature", "geometry": {"type": "Point", "coordinates": [-104.818889, 38.878056]}, "properties": {"facility_name": "AMI INDUSTRIES INC", "industry": null, "tri_facility_id": "80907MNDST3200N"}}, {"type": "Feature", "geometry": {"type": "Point", "coordinates": [-104.82388888888889, 38.88027777777778]}, "properties": {"facility_name": "MANSTONE LLC", "industry": null, "tri_facility_id": "80907MNSTN115TA"}}, {"type": "Feature", "geometry": {"type": "Point", "coordinates": [-104.8045, 38.9097]}, "properties": {"facility_name": "MAXCOR MANUFACTURING INC", "industry": null, "tri_facility_id": "80907MXCRM3020N"}}, {"type": "Feature", "geometry": {"type": "Point", "coordinates": [-104.827778, 38.891667]}, "properties": {"facility_name": "QUALTEK MANUFACTURING INC", "industry": null, "tri_facility_id": "80907MXCRM4230N"}}, {"type": "Feature", "geometry": {"type": "Point", "coordinates": [-104.856667, 38.895278]}, "properties": {"facility_name": "INTEL CORP (F23)", "industry": null, "tri_facility_id": "80907NTDTC1575G"}}, {"type": "Feature", "geometry": {"type": "Point", "coordinates": [-104.816667, 38.891667]}, "properties": {"facility_name": "PIKE TOOL & GRINDING INC", "industry": null, "tri_facility_id": "80907PKTLG4205H"}}, {"type": "Feature", "geometry": {"type": "Point", "coordinates": [-104.809722, 38.883333]}, "properties": {"facility_name": "PIONEER MANUFACTURING CO.", "industry": null, "tri_facility_id": "80907PNRMN3410N"}}, {"type": "Feature", "geometry": {"type": "Point", "coordinates": [-104.826278, 38.8861]}, "properties": {"facility_name": "RBM PRECISION METAL PRODUCTS INC", "industry": null, "tri_facility_id": "80907RBMPR720GA"}}, {"type": "Feature", "geometry": {"type": "Point", "coordinates": [-104.85472222222222, 38.894444444444446]}, "properties": {"facility_name": "FRONTGRADE COLORADO SPRINGS LLC", "industry": null, "tri_facility_id": "80907RFLXT4350C"}}, {"type": "Feature", "geometry": {"type": "Point", "coordinates": [-104.833333, 38.891667]}, "properties": {"facility_name": "IRATHANE SYSTEMS INC", "industry": null, "tri_facility_id": "80907RTHNS4045S"}}, {"type": "Feature", "geometry": {"type": "Point", "coordinates": [-104.832929, 38.89672]}, "properties": {"facility_name": "RIVIERA CABINETS INC", "industry": null, "tri_facility_id": "80907RVRCB618WG"}}, {"type": "Feature", "geometry": {"type": "Point", "coordinates": [-104.833333, 38.886111]}, "properties": {"facility_name": "SINTON DAIRY FOODS CO LLC", "industry": null, "tri_facility_id": "80907SNTND3801N"}}, {"type": "Feature", "geometry": {"type": "Point", "coordinates": [-104.8181, 38.88356]}, "properties": {"facility_name": "TRW INC ELECTRONIC PRODUCTS INC", "industry": null, "tri_facility_id": "80907TRWLC3650N"}}, {"type": "Feature", "geometry": {"type": "Point", "coordinates": [-104.823611, 38.867222]}, "properties": {"facility_name": "VISIONEERING INDUSTRIES INC (DBA ROCKY MT METAL FINISHER)", "industry": null, "tri_facility_id": "80907VSNRN3525N"}}, {"type": "Feature", "geometry": {"type": "Point", "coordinates": [-104.836111, 38.897222]}, "properties": {"facility_name": "WIGAND CORP", "industry": null, "tri_facility_id": "80907WGNDC850EL"}}, {"type": "Feature", "geometry": {"type": "Point", "coordinates": [-104.838889, 38.898889]}, "properties": {"facility_name": "WESTERN FORGE CORP", "industry": null, "tri_facility_id": "80907WSTRN4607F"}}, {"type": "Feature", "geometry": {"type": "Point", "coordinates": [-104.763333, 38.781667]}, "properties": {"facility_name": "STRESSCON/ENCON", "industry": null, "tri_facility_id": "80910STRSS3210A"}}, {"type": "Feature", "geometry": {"type": "Point", "coordinates": [-104.745556, 38.844167]}, "properties": {"facility_name": "COLORADO SINTERED METALS INC", "industry": null, "tri_facility_id": "80915CLRDS835EM"}}, {"type": "Feature", "geometry": {"type": "Point", "coordinates": [-104.74861111111112, 38.80972222222222]}, "properties": {"facility_name": "QUALITY CONCEPTS MANUFACTURING INC", "industry": null, "tri_facility_id": "80916QLTYC1635S"}}, {"type": "Feature", "geometry": {"type": "Point", "coordinates": [-104.82664, 38.900396]}, "properties": {"facility_name": "SPRINGFIELD PLATING, & ANODIZING", "industry": null, "tri_facility_id": "80918SPRNG4829N"}}, {"type": "Feature", "geometry": {"type": "Point", "coordinates": [-104.85, 38.9]}, "properties": {"facility_name": "SCI SYS INC", "industry": null, "tri_facility_id": "80919SCMNF4835C"}}, {"type": "Feature", "geometry": {"type": "Point", "coordinates": [-104.816667, 38.916667]}, "properties": {"facility_name": "TEXAS INSTRUMENTS INC, COLORADO SPRINGS", "industry": null, "tri_facility_id": "80919TXSNS5825M"}}, {"type": "Feature", "geometry": {"type": "Point", "coordinates": [-104.815, 38.873889]}, "properties": {"facility_name": "BRUNNER & LAY INC TIMKEN ROCK BIT DIV", "industry": null, "tri_facility_id": "80933BRNNR333EF"}}]}