{"type": "FeatureCollection", "features": [{"type": "Feature", "properties": {"area_id": 10099, "city": "Norman", "state": "OK", "city_survey": false, "cat": "Better Residential Section", "grade": null, "label": "Better Residential Section", "res": true, "com": false, "ind": false, "holc_grade": null}, "geometry": {"type": "Polygon", "coordinates": [[[-97.450134, 35.203903], [-97.45895, 35.20392], [-97.458967, 35.205463], [-97.45911, 35.218423], [-97.45911, 35.21846], [-97.458968, 35.218459], [-97.449393, 35.218391], [-97.447734, 35.218379], [-97.441014, 35.218331], [-97.43813, 35.21831], [-97.4307, 35.21833], [-97.429128, 35.218367], [-97.423623, 35.218497], [-97.4235, 35.2185], [-97.423501, 35.218374], [-97.42363, 35.20385], [-97.423641, 35.20385], [-97.432933, 35.203868], [-97.441235, 35.203885], [-97.450134, 35.203903]]]}}, {"type": "Feature", "properties": {"area_id": 10096, "city": "Norman", "state": "OK", "city_survey": false, "cat": "Decadent Neighborhood", "grade": null, "label": "Decadent Neighborhood", "res": true, "com": false, "ind": false, "holc_grade": null}, "geometry": {"type": "Polygon", "coordinates": [[[-97.43251, 35.22562], [-97.43249, 35.22035], [-97.43587, 35.22565], [-97.43251, 35.22562]]]}}, {"type": "Feature", "properties": {"area_id": 10097, "city": "Norman", "state": "OK", "city_survey": false, "cat": "Industrial District", "grade": null, "label": "Industrial District", "res": false, "com": false, "ind": true, "holc_grade": null}, "geometry": {"type": "Polygon", "coordinates": [[[-97.44172, 35.21428], [-97.443539, 35.217274], [-97.44698, 35.222937], [-97.44703, 35.22302], [-97.445388, 35.223652], [-97.443767, 35.224276], [-97.4436, 35.22434], [-97.440011, 35.218766], [-97.43644, 35.21322], [-97.43641, 35.21111], [-97.437483, 35.211123], [-97.44123, 35.21117], [-97.44123, 35.21421], [-97.44172, 35.21428]]]}}, {"type": "Feature", "properties": {"area_id": 10098, "city": "Norman", "state": "OK", "city_survey": false, "cat": "Major Business District", "grade": null, "label": "Major Business District", "res": false, "com": true, "ind": false, "holc_grade": null}, "geometry": {"type": "Polygon", "coordinates": [[[-97.451584, 35.218375], [-97.45158, 35.21859], [-97.448657, 35.219845], [-97.44112, 35.22308], [-97.442294, 35.224911], [-97.4428, 35.2257], [-97.44101, 35.22567], [-97.43924, 35.22564], [-97.43533, 35.21952], [-97.436763, 35.218901], [-97.43813, 35.21831], [-97.438748, 35.219309], [-97.43991, 35.22119], [-97.447444, 35.217926], [-97.45002, 35.21681], [-97.45161, 35.21677], [-97.451584, 35.218375]]]}}]}