{"type": "FeatureCollection", "features": [{"type": "Feature", "geometry": {"type": "Point", "coordinates": [-97.405556, 35.156944]}, "properties": {"facility_name": "UNITED DESIGN CORP", "industry": null, "tri_facility_id": "73068NTDDS1600N"}}, {"type": "Feature", "geometry": {"type": "Point", "coordinates": [-97.466339, 35.267705]}, "properties": {"facility_name": "BIO-CIDE INTERNATIONAL INC A KEMIN CO", "industry": null, "tri_facility_id": "73069BCDNT2650V"}}, {"type": "Feature", "geometry": {"type": "Point", "coordinates": [-97.4623, 35.2469]}, "properties": {"facility_name": "COORS CERAMICS CO", "industry": null, "tri_facility_id": "73069CRSCR45024"}}, {"type": "Feature", "geometry": {"type": "Point", "coordinates": [-97.4388888888889, 35.22166666666667]}, "properties": {"facility_name": "THE CRUCIBLE LLC", "industry": null, "tri_facility_id": "73069THCRC11ETN"}}, {"type": "Feature", "geometry": {"type": "Point", "coordinates": [-97.414444, 35.1875]}, "properties": {"facility_name": "HITACHI COMPUTER PRODUCTS (AME RICA) INC.", "industry": null, "tri_facility_id": "73070HTCHC1800E"}}, {"type": "Feature", "geometry": {"type": "Point", "coordinates": [-97.475833, 35.252778]}, "properties": {"facility_name": "SOUTHWESTERN WIRE INC", "industry": null, "tri_facility_id": "73070STHWS3505N"}}, {"type": "Feature", "geometry": {"type": "Point", "coordinates": [-97.437444, 35.220516]}, "properties": {"facility_name": "HILAND/GILT EDGE DAIRY", "industry": null, "tri_facility_id": "73071GLTDG302SP"}}]}