{"type": "FeatureCollection", "features": [{"type": "Feature", "properties": {"area_id": 2736, "city": "Bronx", "state": "NY", "city_survey": true, "cat": "Best", "grade": "A", "label": "A1", "res": true, "com": false, "ind": false, "holc_grade": "A"}, "geometry": {"type": "Polygon", "coordinates": [[[-73.91684, 40.88378], [-73.91773, 40.88194], [-73.918863, 40.880721], [-73.918911, 40.880669], [-73.91904, 40.88053], [-73.91957, 40.88033], [-73.91987, 40.88008], [-73.92026, 40.87961], [-73.92067, 40.87936], [-73.92094, 40.87931], [-73.92171, 40.87952], [-73.92246, 40.87985], [-73.92278, 40.88026], [-73.92287, 40.88066], [-73.9224, 40.88161], [-73.92162, 40.88293], [-73.92127, 40.88354], [-73.92115, 40.88405], [-73.921, 40.88468], [-73.92044, 40.88533], [-73.91963, 40.88661], [-73.919477, 40.887009], [-73.91925, 40.8876], [-73.91904, 40.88884], [-73.918, 40.89135], [-73.91746, 40.89201], [-73.91562, 40.89654], [-73.91384, 40.90124], [-73.91286, 40.90377], [-73.9112, 40.90961], [-73.91102, 40.91006], [-73.910138, 40.912645], [-73.90998, 40.91311], [-73.90871, 40.91257], [-73.90802, 40.91278], [-73.90606, 40.91201], [-73.90615, 40.91161], [-73.90345, 40.91062], [-73.90352, 40.910234], [-73.90386, 40.90835], [-73.90443, 40.90602], [-73.904504, 40.905516], [-73.90452, 40.90541], [-73.904578, 40.905314], [-73.90475, 40.90503], [-73.90517, 40.90427], [-73.90594, 40.90234], [-73.90619, 40.901533], [-73.90633, 40.90108], [-73.90652, 40.9006], [-73.90683, 40.8998], [-73.906877, 40.899682], [-73.90781, 40.89737], [-73.90784, 40.89659], [-73.908274, 40.896597], [-73.91019, 40.89663], [-73.91016, 40.89275], [-73.9109, 40.89268], [-73.91093, 40.89113], [-73.91138, 40.88983], [-73.912858, 40.889933], [-73.91584, 40.89014], [-73.91598, 40.88769], [-73.91622, 40.88655], [-73.91654, 40.88529], [-73.916595, 40.885011], [-73.91684, 40.88378]]]}}, {"type": "Feature", "properties": {"area_id": 2738, "city": "Bronx", "state": "NY", "city_survey": true, "cat": "Best", "grade": "A", "label": "A2", "res": true, "com": false, "ind": false, "holc_grade": "A"}, "geometry": {"type": "Polygon", "coordinates": [[[-73.9021, 40.90061], [-73.901873, 40.900568], [-73.90065, 40.90034], [-73.90032, 40.89735], [-73.90059, 40.89713], [-73.90086, 40.89659], [-73.90086, 40.89616], [-73.90083, 40.8958], [-73.90068, 40.89528], [-73.90089, 40.89387], [-73.90089, 40.89342], [-73.90047, 40.89329], [-73.90008, 40.89322], [-73.89949, 40.89311], [-73.89916, 40.89286], [-73.89934, 40.89254], [-73.89934, 40.89227], [-73.89934, 40.89189], [-73.89961, 40.8918], [-73.9002, 40.89169], [-73.9008, 40.8916], [-73.90154, 40.89162], [-73.902153, 40.891344], [-73.90234, 40.89126], [-73.903, 40.89124], [-73.90335, 40.89106], [-73.9038, 40.89081], [-73.90415, 40.89057], [-73.90448, 40.89057], [-73.90496, 40.8907], [-73.90561, 40.89081], [-73.906, 40.89079], [-73.90632, 40.89079], [-73.90683, 40.89093], [-73.9073, 40.89093], [-73.90793, 40.89093], [-73.90784, 40.89659], [-73.90781, 40.89737], [-73.906877, 40.899682], [-73.90683, 40.8998], [-73.90652, 40.9006], [-73.905799, 40.900406], [-73.90522, 40.90025], [-73.9021, 40.90061]]]}}, {"type": "Feature", "properties": {"area_id": 2737, "city": "Bronx", "state": "NY", "city_survey": true, "cat": "Still Desirable", "grade": "B", "label": "B1", "res": true, "com": false, "ind": false, "holc_grade": "B"}, "geometry": {"type": "Polygon", "coordinates": [[[-73.90652, 40.9006], [-73.90633, 40.90108], [-73.90619, 40.901533], [-73.90594, 40.90234], [-73.90517, 40.90427], [-73.90475, 40.90503], [-73.904578, 40.905314], [-73.90452, 40.90541], [-73.904504, 40.905516], [-73.90443, 40.90602], [-73.90386, 40.90835], [-73.90352, 40.910234], [-73.90345, 40.91062], [-73.902677, 40.913041], [-73.90261, 40.91325], [-73.897956, 40.911773], [-73.896771, 40.911397], [-73.896636, 40.911354], [-73.89637, 40.91127], [-73.896369, 40.911236], [-73.89634, 40.9099], [-73.89646, 40.90912], [-73.89625, 40.90312], [-73.8967, 40.89969], [-73.89664, 40.89477], [-73.89652, 40.89333], [-73.89688, 40.89261], [-73.897388, 40.892632], [-73.89806, 40.89266], [-73.89916, 40.89286], [-73.89949, 40.89311], [-73.90008, 40.89322], [-73.90047, 40.89329], [-73.90089, 40.89342], [-73.90089, 40.89387], [-73.90068, 40.89528], [-73.90083, 40.8958], [-73.90086, 40.89616], [-73.90086, 40.89659], [-73.90059, 40.89713], [-73.90032, 40.89735], [-73.90065, 40.90034], [-73.901873, 40.900568], [-73.9021, 40.90061], [-73.90522, 40.90025], [-73.905799, 40.900406], [-73.90652, 40.9006]]]}}, {"type": "Feature", "properties": {"area_id": 2764, "city": "Bronx", "state": "NY", "city_survey": true, "cat": "Still Desirable", "grade": "B", "label": "B10", "res": true, "com": false, "ind": false, "holc_grade": "B"}, "geometry": {"type": "Polygon", "coordinates": [[[-73.851096, 40.850427], [-73.85481, 40.85506], [-73.85555, 40.85655], [-73.85298, 40.8568], [-73.85068, 40.85713], [-73.85024, 40.85716], [-73.85, 40.85653], [-73.849899, 40.856488], [-73.84971, 40.85641], [-73.8495, 40.85635], [-73.84905, 40.85608], [-73.84824, 40.85526], [-73.84786, 40.85493], [-73.84772, 40.85468], [-73.84774, 40.85384], [-73.84781, 40.85112], [-73.848212, 40.85112], [-73.84922, 40.85112], [-73.849341, 40.851066], [-73.85101, 40.85032], [-73.851096, 40.850427]]]}}, {"type": "Feature", "properties": {"area_id": 2775, "city": "Bronx", "state": "NY", "city_survey": true, "cat": "Still Desirable", "grade": "B", "label": "B11", "res": true, "com": false, "ind": false, "holc_grade": "B"}, "geometry": {"type": "Polygon", "coordinates": [[[-73.838175, 40.857508], [-73.83848, 40.86078], [-73.83762, 40.86081], [-73.83537, 40.86069], [-73.83362, 40.86049], [-73.83273, 40.86045], [-73.83268, 40.85989], [-73.83252, 40.85972], [-73.83223, 40.85944], [-73.831856, 40.859086], [-73.83184, 40.85907], [-73.83685, 40.85726], [-73.836868, 40.857261], [-73.83816, 40.85735], [-73.838175, 40.857508]]]}}, {"type": "Feature", "properties": {"area_id": 2739, "city": "Bronx", "state": "NY", "city_survey": true, "cat": "Still Desirable", "grade": "B", "label": "B2", "res": true, "com": false, "ind": false, "holc_grade": "B"}, "geometry": {"type": "Polygon", "coordinates": [[[-73.918863, 40.880721], [-73.91773, 40.88194], [-73.91684, 40.88378], [-73.916595, 40.885011], [-73.91654, 40.88529], [-73.91622, 40.88655], [-73.91598, 40.88769], [-73.91584, 40.89014], [-73.912858, 40.889933], [-73.91138, 40.88983], [-73.909253, 40.889448], [-73.908774, 40.889362], [-73.90837, 40.88929], [-73.90802, 40.88976], [-73.90796, 40.89023], [-73.90793, 40.89093], [-73.9073, 40.89093], [-73.90683, 40.89093], [-73.90632, 40.89079], [-73.906, 40.89079], [-73.90561, 40.89081], [-73.90496, 40.8907], [-73.90448, 40.89057], [-73.90415, 40.89057], [-73.9038, 40.89025], [-73.90368, 40.88996], [-73.90362, 40.88978], [-73.90317, 40.8896], [-73.902921, 40.889499], [-73.90285, 40.88947], [-73.90264, 40.88931], [-73.90264, 40.889118], [-73.90264, 40.88904], [-73.9024, 40.88873], [-73.90255, 40.88843], [-73.90267, 40.88821], [-73.90267, 40.88733], [-73.90362, 40.88643], [-73.90843, 40.88239], [-73.90873, 40.88212], [-73.908988, 40.881949], [-73.90998, 40.88129], [-73.91081, 40.88053], [-73.91194, 40.87979], [-73.912532, 40.879285], [-73.91316, 40.87875], [-73.91357, 40.87857], [-73.91518, 40.8783], [-73.91592, 40.87819], [-73.91648, 40.8783], [-73.91675, 40.8786], [-73.91702, 40.87929], [-73.91738, 40.87967], [-73.91803, 40.8801], [-73.918409, 40.880298], [-73.91847, 40.88033], [-73.91904, 40.88053], [-73.918911, 40.880669], [-73.918863, 40.880721]]]}}, {"type": "Feature", "properties": {"area_id": 2774, "city": "Bronx", "state": "NY", "city_survey": true, "cat": "Still Desirable", "grade": "B", "label": "B3", "res": true, "com": false, "ind": false, "holc_grade": "B"}, "geometry": {"type": "Polygon", "coordinates": [[[-73.877081, 40.895473], [-73.877119, 40.895471], [-73.87713, 40.89547], [-73.87702, 40.89588], [-73.87666, 40.89673], [-73.87574, 40.89812], [-73.87501, 40.89872], [-73.87431, 40.89915], [-73.87323, 40.89963], [-73.87106, 40.90066], [-73.87035, 40.90101], [-73.8695, 40.90143], [-73.868088, 40.903046], [-73.86805, 40.90309], [-73.86667, 40.90254], [-73.863493, 40.90162], [-73.861958, 40.901175], [-73.86163, 40.90108], [-73.861635, 40.901066], [-73.862474, 40.89879], [-73.86337, 40.89636], [-73.86404, 40.89553], [-73.864053, 40.895532], [-73.87047, 40.89654], [-73.87295, 40.89598], [-73.87447, 40.89565], [-73.877081, 40.895473]]]}}, {"type": "Feature", "properties": {"area_id": 2741, "city": "Bronx", "state": "NY", "city_survey": true, "cat": "Still Desirable", "grade": "B", "label": "B4", "res": true, "com": false, "ind": false, "holc_grade": "B"}, "geometry": {"type": "Polygon", "coordinates": [[[-73.89367, 40.8834], [-73.89383, 40.8834], [-73.89409, 40.88345], [-73.89448, 40.88343], [-73.89504, 40.88331], [-73.89551, 40.88314], [-73.89618, 40.88268], [-73.89656, 40.88241], [-73.89693, 40.88241], [-73.89726, 40.88255], [-73.8975, 40.88275], [-73.89757, 40.88295], [-73.89763, 40.88383], [-73.89757, 40.88397], [-73.89727, 40.88415], [-73.89655, 40.88444], [-73.89554, 40.88482], [-73.89505, 40.88496], [-73.89467, 40.88498], [-73.8944, 40.88478], [-73.89425, 40.88444], [-73.89403, 40.88402], [-73.89374, 40.8839], [-73.89354, 40.8838], [-73.89342, 40.88358], [-73.89345, 40.88347], [-73.89367, 40.8834]]]}}, {"type": "Feature", "properties": {"area_id": 2745, "city": "Bronx", "state": "NY", "city_survey": true, "cat": "Still Desirable", "grade": "B", "label": "B5", "res": true, "com": false, "ind": false, "holc_grade": "B"}, "geometry": {"type": "Polygon", "coordinates": [[[-73.92322, 40.82286], [-73.923464, 40.822948], [-73.92372, 40.82304], [-73.92411, 40.82342], [-73.924307, 40.823718], [-73.92442, 40.82389], [-73.92442, 40.82443], [-73.924, 40.82532], [-73.92328, 40.82619], [-73.92322, 40.82649], [-73.92325, 40.82669], [-73.92315, 40.82682], [-73.923021, 40.826954], [-73.92289, 40.82709], [-73.92225, 40.8277], [-73.92214, 40.82811], [-73.92163, 40.82891], [-73.92177, 40.82928], [-73.92148, 40.82957], [-73.92189, 40.83005], [-73.92271, 40.83017], [-73.9227, 40.83049], [-73.92196, 40.83181], [-73.92078, 40.83366], [-73.920762, 40.833677], [-73.91947, 40.83492], [-73.91862, 40.83587], [-73.918253, 40.836386], [-73.9182, 40.83646], [-73.91784, 40.83678], [-73.91733, 40.83722], [-73.9169, 40.83751], [-73.91666, 40.83773], [-73.9164, 40.83809], [-73.91584, 40.83894], [-73.915481, 40.839436], [-73.91513, 40.83992], [-73.91477, 40.84076], [-73.91441, 40.84144], [-73.914343, 40.841567], [-73.91323, 40.84368], [-73.913202, 40.843715], [-73.91273, 40.84431], [-73.912153, 40.845098], [-73.91158, 40.84588], [-73.91069, 40.84701], [-73.9101, 40.84753], [-73.90978, 40.84779], [-73.90934, 40.84812], [-73.909275, 40.848161], [-73.90896, 40.84836], [-73.90863, 40.84848], [-73.90843, 40.8488], [-73.90819, 40.84922], [-73.907129, 40.850514], [-73.9071, 40.85055], [-73.90605, 40.85148], [-73.90546, 40.85216], [-73.905, 40.85295], [-73.90437, 40.85341], [-73.90386, 40.85398], [-73.90337, 40.85441], [-73.903218, 40.85452], [-73.90294, 40.85472], [-73.902912, 40.85476], [-73.90259, 40.85523], [-73.90161, 40.85648], [-73.90119, 40.85715], [-73.900834, 40.857723], [-73.90029, 40.8586], [-73.89947, 40.86044], [-73.898327, 40.862353], [-73.89794, 40.863], [-73.895496, 40.866628], [-73.8947, 40.86781], [-73.894191, 40.868403], [-73.89217, 40.87076], [-73.893268, 40.871296], [-73.8935, 40.87141], [-73.88957, 40.87391], [-73.88782, 40.87799], [-73.885753, 40.879475], [-73.8843, 40.88052], [-73.88549, 40.88356], [-73.88554, 40.88374], [-73.885527, 40.883778], [-73.88541, 40.88412], [-73.88542, 40.88459], [-73.88434, 40.88436], [-73.88408, 40.88421], [-73.88388, 40.88392], [-73.88372, 40.88379], [-73.88348, 40.88371], [-73.88309, 40.88367], [-73.88252, 40.88365], [-73.88214, 40.8836], [-73.88161, 40.88343], [-73.88131, 40.88323], [-73.87943, 40.88583], [-73.87806, 40.88724], [-73.87755, 40.88665], [-73.87731, 40.88616], [-73.87717, 40.88558], [-73.87706, 40.88494], [-73.87702, 40.88454], [-73.87713, 40.88396], [-73.87767, 40.88241], [-73.87415, 40.88168], [-73.87437, 40.88028], [-73.87117, 40.88036], [-73.871213, 40.880252], [-73.871839, 40.878672], [-73.87243, 40.87718], [-73.873135, 40.876118], [-73.87318, 40.87605], [-73.87478, 40.8735], [-73.875217, 40.873092], [-73.87723, 40.87121], [-73.88135, 40.86888], [-73.881542, 40.868836], [-73.88174, 40.86879], [-73.88208, 40.86869], [-73.883829, 40.867507], [-73.88489, 40.86679], [-73.88606, 40.866091], [-73.88638, 40.8659], [-73.88708, 40.86723], [-73.88781, 40.86799], [-73.888378, 40.868494], [-73.88843, 40.86854], [-73.88983, 40.86929], [-73.89164, 40.86743], [-73.89308, 40.86539], [-73.893135, 40.865328], [-73.89356, 40.86485], [-73.89423, 40.86412], [-73.89478, 40.86347], [-73.89543, 40.86272], [-73.895765, 40.862236], [-73.896101, 40.861753], [-73.89629, 40.86148], [-73.89671, 40.86063], [-73.89722, 40.85949], [-73.897476, 40.858817], [-73.89763, 40.85841], [-73.89859, 40.85642], [-73.899, 40.85544], [-73.89903, 40.85537], [-73.89935, 40.85488], [-73.90081, 40.85342], [-73.90095, 40.85321], [-73.90126, 40.85275], [-73.90165, 40.85235], [-73.90251, 40.8517], [-73.902876, 40.851365], [-73.90309, 40.85117], [-73.90395, 40.84985], [-73.904471, 40.848981], [-73.90503, 40.84805], [-73.90526, 40.8477], [-73.905477, 40.847483], [-73.90561, 40.84735], [-73.90598, 40.84714], [-73.9069, 40.84655], [-73.9082, 40.84566], [-73.908961, 40.845038], [-73.90897, 40.84503], [-73.909391, 40.844645], [-73.90955, 40.8445], [-73.91008, 40.84376], [-73.91034, 40.84311], [-73.910389, 40.842945], [-73.91056, 40.84237], [-73.91081, 40.84093], [-73.91112, 40.84024], [-73.91185, 40.83888], [-73.912387, 40.838243], [-73.91297, 40.83755], [-73.91385, 40.83647], [-73.914464, 40.835856], [-73.91469, 40.83563], [-73.91493, 40.8354], [-73.91515, 40.83519], [-73.91553, 40.8347], [-73.91569, 40.8344], [-73.91601, 40.83417], [-73.91617, 40.8341], [-73.916389, 40.834029], [-73.91651, 40.83399], [-73.918729, 40.83025], [-73.91886, 40.83003], [-73.91915, 40.82968], [-73.91948, 40.82899], [-73.92041, 40.827], [-73.920789, 40.826299], [-73.92081, 40.82626], [-73.92091, 40.82613], [-73.92124, 40.82569], [-73.92174, 40.82513], [-73.92215, 40.82461], [-73.92322, 40.82286]]]}}, {"type": "Feature", "properties": {"area_id": 2742, "city": "Bronx", "state": "NY", "city_survey": true, "cat": "Still Desirable", "grade": "B", "label": "B6", "res": true, "com": false, "ind": false, "holc_grade": "B"}, "geometry": {"type": "Polygon", "coordinates": [[[-73.89928, 40.86877], [-73.89922, 40.86857], [-73.89915, 40.86834], [-73.899597, 40.868365], [-73.90023, 40.8684], [-73.90103, 40.86851], [-73.90178, 40.86873], [-73.90264, 40.86909], [-73.9035, 40.8695], [-73.902407, 40.870544], [-73.9024, 40.87055], [-73.90172, 40.87311], [-73.90115, 40.87457], [-73.90029, 40.87493], [-73.900251, 40.874822], [-73.90021, 40.87471], [-73.90001, 40.8745], [-73.89975, 40.8745], [-73.89936, 40.87445], [-73.89869, 40.87427], [-73.89804, 40.87402], [-73.89782, 40.87375], [-73.89764, 40.87297], [-73.89748, 40.87193], [-73.89745, 40.87167], [-73.89753, 40.87137], [-73.897792, 40.871037], [-73.89863, 40.86997], [-73.898637, 40.869957], [-73.898819, 40.869612], [-73.899, 40.86927], [-73.89922, 40.86898], [-73.89928, 40.86877]]]}}, {"type": "Feature", "properties": {"area_id": 2743, "city": "Bronx", "state": "NY", "city_survey": true, "cat": "Still Desirable", "grade": "B", "label": "B7", "res": true, "com": false, "ind": false, "holc_grade": "B"}, "geometry": {"type": "Polygon", "coordinates": [[[-73.902755, 40.865001], [-73.90047, 40.868078], [-73.90023, 40.8684], [-73.899597, 40.868365], [-73.89915, 40.86834], [-73.89744, 40.86791], [-73.89774, 40.8678], [-73.89807, 40.86763], [-73.8983, 40.86751], [-73.89849, 40.86729], [-73.89867, 40.867], [-73.90154, 40.86295], [-73.903224, 40.862861], [-73.90439, 40.8628], [-73.902755, 40.865001]]]}}, {"type": "Feature", "properties": {"area_id": 2744, "city": "Bronx", "state": "NY", "city_survey": true, "cat": "Still Desirable", "grade": "B", "label": "B8", "res": true, "com": false, "ind": false, "holc_grade": "B"}, "geometry": {"type": "MultiPolygon", "coordinates": [[[[-73.89116, 40.8623], [-73.89133, 40.8623], [-73.89147, 40.8623], [-73.89191, 40.86231], [-73.89259, 40.86232], [-73.8933, 40.8625], [-73.89399, 40.86272], [-73.89423, 40.86281], [-73.89447, 40.86306], [-73.89462, 40.86325], [-73.89478, 40.86347], [-73.89423, 40.86412], [-73.89356, 40.86485], [-73.893135, 40.865328], [-73.89308, 40.86539], [-73.89164, 40.86743], [-73.88983, 40.86929], [-73.88843, 40.86854], [-73.888378, 40.868494], [-73.88781, 40.86799], [-73.88708, 40.86723], [-73.88638, 40.8659], [-73.88703, 40.86556], [-73.888336, 40.864393], [-73.88977, 40.86311], [-73.89079, 40.86212], [-73.89095, 40.86222], [-73.89116, 40.8623]]], [[[-73.900909, 40.862975], [-73.90154, 40.86295], [-73.89867, 40.867], [-73.89849, 40.86729], [-73.8983, 40.86751], [-73.89807, 40.86763], [-73.89774, 40.8678], [-73.89744, 40.86791], [-73.89711, 40.86798], [-73.89664, 40.868601], [-73.89546, 40.87016], [-73.8935, 40.87141], [-73.893268, 40.871296], [-73.89217, 40.87076], [-73.894191, 40.868403], [-73.8947, 40.86781], [-73.895496, 40.866628], [-73.89794, 40.863], [-73.8999, 40.86379], [-73.90054, 40.86299], [-73.900909, 40.862975]]]]}}, {"type": "Feature", "properties": {"area_id": 2747, "city": "Bronx", "state": "NY", "city_survey": true, "cat": "Still Desirable", "grade": "B", "label": "B9", "res": true, "com": false, "ind": false, "holc_grade": "B"}, "geometry": {"type": "Polygon", "coordinates": [[[-73.91589, 40.85065], [-73.91603, 40.85097], [-73.91619, 40.85136], [-73.91657, 40.85149], [-73.916761, 40.851681], [-73.9171, 40.85202], [-73.917193, 40.852092], [-73.9176, 40.85241], [-73.9178, 40.85264], [-73.9178, 40.85313], [-73.9178, 40.853467], [-73.9178, 40.85361], [-73.91751, 40.85406], [-73.917206, 40.854251], [-73.91689, 40.85445], [-73.916714, 40.854668], [-73.91664, 40.85476], [-73.91639, 40.85506], [-73.91602, 40.85586], [-73.91569, 40.85648], [-73.91536, 40.8568], [-73.91514, 40.85697], [-73.91512, 40.85699], [-73.9149, 40.85699], [-73.91247, 40.85652], [-73.9123, 40.85692], [-73.91214, 40.85697], [-73.9118, 40.85701], [-73.91162, 40.85699], [-73.91134, 40.85686], [-73.91097, 40.85686], [-73.91036, 40.85687], [-73.91027, 40.85738], [-73.91027, 40.85777], [-73.91036, 40.85808], [-73.91054, 40.85821], [-73.91078, 40.85836], [-73.91118, 40.85855], [-73.91174, 40.8588], [-73.91311, 40.85934], [-73.91316, 40.85949], [-73.913167, 40.859578], [-73.913174, 40.859668], [-73.91318, 40.85974], [-73.91302, 40.86011], [-73.91278, 40.86026], [-73.91242, 40.86038], [-73.91162, 40.86052], [-73.91137, 40.86061], [-73.90976, 40.86209], [-73.909533, 40.86216], [-73.90924, 40.86225], [-73.90854, 40.86246], [-73.90762, 40.86278], [-73.90715, 40.86278], [-73.906406, 40.862785], [-73.90439, 40.8628], [-73.904445, 40.862745], [-73.90692, 40.86024], [-73.907583, 40.859514], [-73.90925, 40.85769], [-73.90933, 40.85761], [-73.90939, 40.85704], [-73.91003, 40.85601], [-73.910622, 40.854642], [-73.91064, 40.8546], [-73.91101, 40.85404], [-73.91158, 40.85344], [-73.91242, 40.85272], [-73.91403, 40.85127], [-73.91419, 40.85099], [-73.91461, 40.85055], [-73.915236, 40.850406], [-73.91535, 40.85038], [-73.915559, 40.850413], [-73.91579, 40.85045], [-73.91589, 40.85065]]]}}, {"type": "Feature", "properties": {"area_id": 2740, "city": "Bronx", "state": "NY", "city_survey": true, "cat": "Definitely Declining", "grade": "C", "label": "C1", "res": true, "com": false, "ind": false, "holc_grade": "C"}, "geometry": {"type": "Polygon", "coordinates": [[[-73.909061, 40.862795], [-73.90962, 40.86271], [-73.90968, 40.86332], [-73.90944, 40.86428], [-73.90909, 40.86512], [-73.90876, 40.86572], [-73.90867, 40.86631], [-73.90837, 40.86734], [-73.90822, 40.8679], [-73.90721, 40.86999], [-73.90579, 40.873], [-73.905689, 40.873125], [-73.90528, 40.87363], [-73.90469, 40.87413], [-73.90463, 40.87453], [-73.90427, 40.87541], [-73.90406, 40.87619], [-73.903978, 40.876272], [-73.9035, 40.87675], [-73.90329, 40.87702], [-73.90317, 40.87812], [-73.903745, 40.878385], [-73.904819, 40.878879], [-73.90606, 40.87945], [-73.90751, 40.87788], [-73.909843, 40.879754], [-73.910644, 40.880397], [-73.91081, 40.88053], [-73.90998, 40.88129], [-73.908988, 40.881949], [-73.90873, 40.88212], [-73.90843, 40.88239], [-73.90362, 40.88643], [-73.900892, 40.884649], [-73.90077, 40.88457], [-73.9005, 40.88536], [-73.900173, 40.885988], [-73.89973, 40.88684], [-73.899689, 40.886834], [-73.89857, 40.88666], [-73.89658, 40.88626], [-73.89563, 40.88614], [-73.89453, 40.88596], [-73.8937, 40.88572], [-73.89197, 40.88531], [-73.88719, 40.88466], [-73.887014, 40.884377], [-73.88701, 40.88437], [-73.88701, 40.88412], [-73.887038, 40.883986], [-73.88713, 40.88354], [-73.8871, 40.88334], [-73.887081, 40.883234], [-73.88701, 40.88284], [-73.88705, 40.88266], [-73.88707, 40.88257], [-73.89471, 40.88167], [-73.89474, 40.88239], [-73.89512, 40.88239], [-73.8956, 40.88208], [-73.89598, 40.88176], [-73.89622, 40.8812], [-73.89631, 40.88064], [-73.89664, 40.87963], [-73.89699, 40.87907], [-73.89895, 40.87628], [-73.900226, 40.874995], [-73.90029, 40.87493], [-73.90115, 40.87457], [-73.90172, 40.87311], [-73.9024, 40.87055], [-73.902407, 40.870544], [-73.9035, 40.8695], [-73.90264, 40.86909], [-73.90178, 40.86873], [-73.90103, 40.86851], [-73.90023, 40.8684], [-73.90047, 40.868078], [-73.902755, 40.865001], [-73.90439, 40.8628], [-73.906406, 40.862785], [-73.90715, 40.86278], [-73.90762, 40.86278], [-73.907923, 40.862784], [-73.90903, 40.8628], [-73.909061, 40.862795]], [[-73.8944, 40.88478], [-73.89467, 40.88498], [-73.89505, 40.88496], [-73.89554, 40.88482], [-73.89655, 40.88444], [-73.89727, 40.88415], [-73.89757, 40.88397], [-73.89763, 40.88383], [-73.89757, 40.88295], [-73.8975, 40.88275], [-73.89726, 40.88255], [-73.89693, 40.88241], [-73.89656, 40.88241], [-73.89618, 40.88268], [-73.89551, 40.88314], [-73.89504, 40.88331], [-73.89448, 40.88343], [-73.89409, 40.88345], [-73.89383, 40.8834], [-73.89367, 40.8834], [-73.89345, 40.88347], [-73.89342, 40.88358], [-73.89354, 40.8838], [-73.89374, 40.8839], [-73.89403, 40.88402], [-73.89425, 40.88444], [-73.8944, 40.88478]]]}}, {"type": "Feature", "properties": {"area_id": 2761, "city": "Bronx", "state": "NY", "city_survey": true, "cat": "Definitely Declining", "grade": "C", "label": "C10", "res": true, "com": false, "ind": false, "holc_grade": "C"}, "geometry": {"type": "Polygon", "coordinates": [[[-73.858059, 40.822826], [-73.85919, 40.82613], [-73.859285, 40.826337], [-73.86027, 40.828468], [-73.86215, 40.83254], [-73.860132, 40.833126], [-73.85998, 40.83317], [-73.85386, 40.83375], [-73.848471, 40.834462], [-73.84546, 40.83486], [-73.844032, 40.828392], [-73.84308, 40.82408], [-73.8462, 40.82378], [-73.846165, 40.823643], [-73.844536, 40.817308], [-73.84439, 40.81674], [-73.8454, 40.81525], [-73.84998, 40.81466], [-73.850466, 40.816516], [-73.851721, 40.821312], [-73.85205, 40.82257], [-73.855103, 40.822288], [-73.85779, 40.82204], [-73.858059, 40.822826]]]}}, {"type": "Feature", "properties": {"area_id": 2760, "city": "Bronx", "state": "NY", "city_survey": true, "cat": "Definitely Declining", "grade": "C", "label": "C11", "res": true, "com": false, "ind": false, "holc_grade": "C"}, "geometry": {"type": "Polygon", "coordinates": [[[-73.86215, 40.83328], [-73.86229, 40.83363], [-73.86232, 40.8339], [-73.86214, 40.83427], [-73.86225, 40.8347], [-73.86247, 40.83562], [-73.86111, 40.835547], [-73.86079, 40.83553], [-73.86082, 40.83495], [-73.85819, 40.8353], [-73.85657, 40.83565], [-73.85623, 40.83578], [-73.856194, 40.836088], [-73.85618, 40.83621], [-73.8561, 40.83654], [-73.85593, 40.83702], [-73.85432, 40.8395], [-73.853922, 40.839885], [-73.85337, 40.84042], [-73.853441, 40.840692], [-73.85363, 40.84142], [-73.85432, 40.84137], [-73.854426, 40.842346], [-73.85444, 40.84247], [-73.853725, 40.842551], [-73.847901, 40.843214], [-73.84644, 40.84338], [-73.84493, 40.8427], [-73.84407, 40.84216], [-73.84384, 40.84195], [-73.84349, 40.84181], [-73.84304, 40.84172], [-73.84269, 40.84152], [-73.84236, 40.84123], [-73.84203, 40.84106], [-73.841721, 40.840817], [-73.84156, 40.84069], [-73.841685, 40.840598], [-73.8437, 40.83911], [-73.84282, 40.83828], [-73.8428, 40.83769], [-73.84242, 40.83526], [-73.84546, 40.83486], [-73.848471, 40.834462], [-73.85386, 40.83375], [-73.85998, 40.83317], [-73.860132, 40.833126], [-73.86215, 40.83254], [-73.86218, 40.83298], [-73.862163, 40.833155], [-73.86215, 40.83328]]]}}, {"type": "Feature", "properties": {"area_id": 2767, "city": "Bronx", "state": "NY", "city_survey": true, "cat": "Definitely Declining", "grade": "C", "label": "C12", "res": true, "com": false, "ind": false, "holc_grade": "C"}, "geometry": {"type": "Polygon", "coordinates": [[[-73.826463, 40.811394], [-73.82684, 40.81125], [-73.82715, 40.81174], [-73.82741, 40.81193], [-73.82767, 40.81199], [-73.8282, 40.8121], [-73.82853, 40.81247], [-73.82865, 40.81285], [-73.82863, 40.81368], [-73.82865, 40.81433], [-73.82908, 40.81517], [-73.8295, 40.81586], [-73.83095, 40.81659], [-73.83309, 40.81402], [-73.83637, 40.81586], [-73.83975, 40.81595], [-73.839625, 40.816383], [-73.8387, 40.8196], [-73.83868, 40.81992], [-73.838729, 40.820323], [-73.83875, 40.8205], [-73.83889, 40.82096], [-73.841627, 40.826931], [-73.84213, 40.82803], [-73.842226, 40.828553], [-73.84227, 40.82879], [-73.84213, 40.82942], [-73.84194, 40.82999], [-73.84201, 40.83095], [-73.84174, 40.83131], [-73.83972, 40.83325], [-73.83846, 40.83426], [-73.83816, 40.83487], [-73.83801, 40.83524], [-73.83704, 40.83556], [-73.83701, 40.83513], [-73.83695, 40.83457], [-73.8371, 40.83416], [-73.8374, 40.83365], [-73.83784, 40.83322], [-73.8363, 40.83115], [-73.8344, 40.82992], [-73.8344, 40.83043], [-73.83463, 40.83147], [-73.83202, 40.83203], [-73.83172, 40.83196], [-73.83154, 40.83174], [-73.82872, 40.83325], [-73.828431, 40.833401], [-73.825919, 40.834714], [-73.82539, 40.83499], [-73.82501, 40.83474], [-73.8243, 40.83458], [-73.82339, 40.83454], [-73.82209, 40.83469], [-73.82047, 40.83497], [-73.819861, 40.835112], [-73.81845, 40.83544], [-73.817778, 40.835606], [-73.816408, 40.835944], [-73.81626, 40.83598], [-73.81609, 40.8353], [-73.816072, 40.834973], [-73.81602, 40.83404], [-73.81571, 40.83345], [-73.815438, 40.832585], [-73.81538, 40.8324], [-73.815, 40.83159], [-73.8144, 40.83071], [-73.81331, 40.82965], [-73.81288, 40.8292], [-73.812949, 40.827923], [-73.812965, 40.827626], [-73.81302, 40.82661], [-73.81381, 40.8258], [-73.813904, 40.825586], [-73.814095, 40.825153], [-73.81433, 40.82462], [-73.81447, 40.82382], [-73.81419, 40.82368], [-73.81369, 40.8237], [-73.813327, 40.82392], [-73.81331, 40.82393], [-73.813076, 40.824109], [-73.812782, 40.824333], [-73.81255, 40.82451], [-73.81186, 40.82471], [-73.811192, 40.82471], [-73.81105, 40.82471], [-73.81048, 40.8249], [-73.80998, 40.82516], [-73.809933, 40.825179], [-73.809469, 40.825367], [-73.80924, 40.82546], [-73.8086, 40.82552], [-73.80777, 40.82548], [-73.80711, 40.82514], [-73.806926, 40.824901], [-73.80658, 40.82445], [-73.80618, 40.82373], [-73.80615, 40.82309], [-73.80608, 40.82267], [-73.8058, 40.82221], [-73.80561, 40.82181], [-73.80532, 40.82073], [-73.80513, 40.82026], [-73.80492, 40.81992], [-73.80473, 40.81942], [-73.80455, 40.819042], [-73.80444, 40.81881], [-73.804164, 40.81867], [-73.80383, 40.8185], [-73.80306, 40.81841], [-73.80238, 40.81861], [-73.80183, 40.81846], [-73.801576, 40.818108], [-73.80152, 40.81803], [-73.80074, 40.81762], [-73.800331, 40.817557], [-73.80002, 40.81751], [-73.799913, 40.817373], [-73.79988, 40.81733], [-73.79948, 40.81695], [-73.79926, 40.81685], [-73.79891, 40.81683], [-73.798701, 40.816837], [-73.79829, 40.81685], [-73.79767, 40.81638], [-73.797663, 40.816234], [-73.797653, 40.816008], [-73.79765, 40.81595], [-73.7985, 40.81582], [-73.798942, 40.815437], [-73.79902, 40.81537], [-73.79952, 40.81476], [-73.80036, 40.81354], [-73.8009, 40.81337], [-73.801325, 40.813351], [-73.80157, 40.81334], [-73.80185, 40.81319], [-73.80188, 40.813], [-73.801858, 40.812894], [-73.80183, 40.81276], [-73.80145, 40.81235], [-73.802182, 40.810153], [-73.80235, 40.80965], [-73.80202, 40.80965], [-73.80159, 40.80976], [-73.80088, 40.8099], [-73.80059, 40.80994], [-73.79978, 40.80974], [-73.79886, 40.80949], [-73.79755, 40.80906], [-73.79598, 40.80807], [-73.79477, 40.80756], [-73.79394, 40.80719], [-73.79377, 40.80706], [-73.7933, 40.80627], [-73.79327, 40.80562], [-73.79349, 40.80495], [-73.793787, 40.804653], [-73.79406, 40.80438], [-73.79463, 40.80407], [-73.79515, 40.80407], [-73.79601, 40.80423], [-73.79686, 40.80456], [-73.79834, 40.80546], [-73.79886, 40.80605], [-73.80028, 40.80672], [-73.80078, 40.80699], [-73.80171, 40.8078], [-73.802971, 40.808695], [-73.80302, 40.80873], [-73.80404, 40.80924], [-73.80456, 40.80922], [-73.804969, 40.80922], [-73.80513, 40.80922], [-73.80523, 40.809394], [-73.80566, 40.81014], [-73.80744, 40.81109], [-73.80889, 40.81219], [-73.80967, 40.81282], [-73.81027, 40.81307], [-73.81134, 40.81319], [-73.8121, 40.81336], [-73.8125, 40.81348], [-73.81303, 40.81363], [-73.814426, 40.81358], [-73.815491, 40.813543], [-73.818021, 40.813453], [-73.81867, 40.81343], [-73.81988, 40.8137], [-73.82066, 40.81361], [-73.826463, 40.811394]], [[-73.83636, 40.82751], [-73.83712, 40.82782], [-73.83734, 40.82791], [-73.83755, 40.82798], [-73.84055, 40.8283], [-73.8407, 40.82818], [-73.84067, 40.82791], [-73.8396, 40.82603], [-73.83884, 40.82495], [-73.836614, 40.825353], [-73.83437, 40.82576], [-73.83264, 40.82648], [-73.83636, 40.82751]]]}}, {"type": "Feature", "properties": {"area_id": 2766, "city": "Bronx", "state": "NY", "city_survey": true, "cat": "Definitely Declining", "grade": "C", "label": "C13", "res": true, "com": false, "ind": false, "holc_grade": "C"}, "geometry": {"type": "Polygon", "coordinates": [[[-73.82209, 40.83469], [-73.82339, 40.83454], [-73.8243, 40.83458], [-73.82501, 40.83474], [-73.82539, 40.83499], [-73.82563, 40.84041], [-73.82596, 40.84269], [-73.825954, 40.842919], [-73.82594, 40.84352], [-73.82584, 40.84424], [-73.82594, 40.84459], [-73.82598, 40.84522], [-73.82591, 40.84555], [-73.8256, 40.84621], [-73.82332, 40.84749], [-73.81993, 40.84905], [-73.81793, 40.84932], [-73.81605, 40.84972], [-73.815733, 40.849403], [-73.81562, 40.84929], [-73.81512, 40.849], [-73.8151, 40.84873], [-73.81541, 40.84855], [-73.815847, 40.847813], [-73.81589, 40.84774], [-73.815813, 40.847696], [-73.81546, 40.84749], [-73.81546, 40.84726], [-73.815642, 40.847089], [-73.81579, 40.84695], [-73.81598, 40.84648], [-73.815824, 40.846018], [-73.81572, 40.84571], [-73.815624, 40.845619], [-73.81555, 40.84555], [-73.81536, 40.84535], [-73.81505, 40.8451], [-73.814895, 40.845199], [-73.81472, 40.84531], [-73.81429, 40.84546], [-73.8142, 40.84522], [-73.814733, 40.844509], [-73.81474, 40.8445], [-73.814731, 40.844473], [-73.8145, 40.84375], [-73.81467, 40.84355], [-73.814678, 40.84355], [-73.814952, 40.843537], [-73.8151, 40.84353], [-73.815191, 40.843673], [-73.81524, 40.84375], [-73.8155, 40.84433], [-73.81569, 40.84409], [-73.815733, 40.844059], [-73.81626, 40.84368], [-73.81645, 40.84341], [-73.81631, 40.84326], [-73.81595, 40.84296], [-73.81579, 40.84265], [-73.81567, 40.84244], [-73.815673, 40.842412], [-73.81576, 40.84152], [-73.81548, 40.84109], [-73.8156, 40.84078], [-73.81522, 40.84048], [-73.81498, 40.83983], [-73.815, 40.83954], [-73.815343, 40.83899], [-73.81538, 40.83893], [-73.815859, 40.838567], [-73.816, 40.83846], [-73.816076, 40.838326], [-73.81617, 40.83816], [-73.81626, 40.83783], [-73.81626, 40.83598], [-73.816408, 40.835944], [-73.817778, 40.835606], [-73.81845, 40.83544], [-73.819861, 40.835112], [-73.82047, 40.83497], [-73.82209, 40.83469]]]}}, {"type": "Feature", "properties": {"area_id": 2765, "city": "Bronx", "state": "NY", "city_survey": true, "cat": "Definitely Declining", "grade": "C", "label": "C14", "res": true, "com": false, "ind": false, "holc_grade": "C"}, "geometry": {"type": "Polygon", "coordinates": [[[-73.83145, 40.8349], [-73.83276, 40.83526], [-73.83345, 40.83553], [-73.83378, 40.83591], [-73.83407, 40.83652], [-73.83704, 40.83556], [-73.83801, 40.83524], [-73.83789, 40.83569], [-73.83796, 40.83625], [-73.83827, 40.8367], [-73.83894, 40.83776], [-73.839598, 40.838637], [-73.83975, 40.83884], [-73.83984, 40.83945], [-73.83977, 40.84014], [-73.83965, 40.84053], [-73.839742, 40.840827], [-73.83979, 40.84098], [-73.84003, 40.84111], [-73.8407, 40.84119], [-73.836821, 40.843467], [-73.83576, 40.84409], [-73.83405, 40.84508], [-73.83358, 40.84542], [-73.83308, 40.84607], [-73.83296, 40.84639], [-73.83258, 40.84672], [-73.83172, 40.84745], [-73.831536, 40.847676], [-73.831411, 40.847829], [-73.83115, 40.84815], [-73.83075, 40.84902], [-73.830731, 40.849129], [-73.830686, 40.849381], [-73.83051, 40.85037], [-73.8302, 40.85128], [-73.82973, 40.8517], [-73.82911, 40.85211], [-73.82835, 40.85252], [-73.8278, 40.85278], [-73.827339, 40.85288], [-73.82692, 40.85297], [-73.82686, 40.85251], [-73.82667, 40.85189], [-73.82663, 40.85155], [-73.8276, 40.84893], [-73.8256, 40.84621], [-73.82591, 40.84555], [-73.82598, 40.84522], [-73.82594, 40.84459], [-73.82584, 40.84424], [-73.82594, 40.84352], [-73.825954, 40.842919], [-73.82596, 40.84269], [-73.82563, 40.84041], [-73.82539, 40.83499], [-73.825919, 40.834714], [-73.828431, 40.833401], [-73.82872, 40.83325], [-73.83005, 40.8346], [-73.83031, 40.83467], [-73.83145, 40.8349]]]}}, {"type": "Feature", "properties": {"area_id": 2762, "city": "Bronx", "state": "NY", "city_survey": true, "cat": "Definitely Declining", "grade": "C", "label": "C15", "res": true, "com": false, "ind": false, "holc_grade": "C"}, "geometry": {"type": "Polygon", "coordinates": [[[-73.86965, 40.83974], [-73.87111, 40.84032], [-73.8701, 40.84132], [-73.86955, 40.84186], [-73.867588, 40.843191], [-73.86722, 40.84344], [-73.86729, 40.84361], [-73.8677, 40.84382], [-73.86801, 40.84413], [-73.86796, 40.84438], [-73.86796, 40.84483], [-73.866111, 40.8452], [-73.859376, 40.846547], [-73.85851, 40.84672], [-73.85834, 40.84702], [-73.857003, 40.847622], [-73.854579, 40.848713], [-73.851284, 40.850197], [-73.85101, 40.85032], [-73.849341, 40.851066], [-73.84922, 40.85112], [-73.848212, 40.85112], [-73.84781, 40.85112], [-73.84774, 40.85384], [-73.84772, 40.85468], [-73.84786, 40.85493], [-73.84824, 40.85526], [-73.84905, 40.85608], [-73.8495, 40.85635], [-73.84971, 40.85641], [-73.849899, 40.856488], [-73.85, 40.85653], [-73.85024, 40.85716], [-73.849367, 40.8573], [-73.84912, 40.85734], [-73.84796, 40.85729], [-73.84596, 40.85713], [-73.84387, 40.85693], [-73.84144, 40.85651], [-73.8379, 40.85601], [-73.83897, 40.85544], [-73.84011, 40.85468], [-73.84132, 40.85349], [-73.8423, 40.85216], [-73.84292, 40.85101], [-73.842935, 40.850974], [-73.84346, 40.84974], [-73.84375, 40.84927], [-73.84434, 40.84855], [-73.84334, 40.84823], [-73.84285, 40.84814], [-73.84254, 40.84787], [-73.84249, 40.84765], [-73.84277, 40.84726], [-73.84308, 40.84706], [-73.84313, 40.8467], [-73.84035, 40.84814], [-73.84018, 40.85078], [-73.83976, 40.85091], [-73.83897, 40.85123], [-73.83842, 40.85143], [-73.83759, 40.85166], [-73.83697, 40.85218], [-73.83562, 40.85224], [-73.835444, 40.852221], [-73.83403, 40.85207], [-73.834012, 40.854372], [-73.834, 40.85589], [-73.8322, 40.85556], [-73.831676, 40.855557], [-73.830221, 40.85555], [-73.828497, 40.855541], [-73.82837, 40.85554], [-73.82699, 40.85349], [-73.82692, 40.85297], [-73.827339, 40.85288], [-73.8278, 40.85278], [-73.82835, 40.85252], [-73.82911, 40.85211], [-73.82973, 40.8517], [-73.8302, 40.85128], [-73.83051, 40.85037], [-73.830686, 40.849381], [-73.830731, 40.849129], [-73.83075, 40.84902], [-73.83115, 40.84815], [-73.831411, 40.847829], [-73.831536, 40.847676], [-73.83172, 40.84745], [-73.83258, 40.84672], [-73.83296, 40.84639], [-73.83308, 40.84607], [-73.83358, 40.84542], [-73.83405, 40.84508], [-73.83576, 40.84409], [-73.836821, 40.843467], [-73.8407, 40.84119], [-73.84073, 40.84117], [-73.84156, 40.84069], [-73.841721, 40.840817], [-73.84203, 40.84106], [-73.84236, 40.84123], [-73.84269, 40.84152], [-73.84304, 40.84172], [-73.84349, 40.84181], [-73.84384, 40.84195], [-73.84407, 40.84216], [-73.84493, 40.8427], [-73.84644, 40.84338], [-73.847901, 40.843214], [-73.853725, 40.842551], [-73.85444, 40.84247], [-73.8579, 40.84357], [-73.85885, 40.84476], [-73.86061, 40.84452], [-73.86066, 40.84406], [-73.86446, 40.8426], [-73.86472, 40.84247], [-73.86472, 40.84226], [-73.86453, 40.8421], [-73.86402, 40.84171], [-73.864122, 40.841686], [-73.8648, 40.84153], [-73.86587, 40.84124], [-73.86701, 40.84091], [-73.86804, 40.8405], [-73.86965, 40.83974]]]}}, {"type": "Feature", "properties": {"area_id": 2763, "city": "Bronx", "state": "NY", "city_survey": true, "cat": "Definitely Declining", "grade": "C", "label": "C16", "res": true, "com": false, "ind": false, "holc_grade": "C"}, "geometry": {"type": "Polygon", "coordinates": [[[-73.86796, 40.84483], [-73.868164, 40.844771], [-73.86827, 40.84474], [-73.86851, 40.84476], [-73.86886, 40.84494], [-73.86908, 40.84528], [-73.86908, 40.84585], [-73.86898, 40.84681], [-73.86919, 40.84709], [-73.86957, 40.84772], [-73.869642, 40.848117], [-73.86972, 40.84855], [-73.86965, 40.84927], [-73.86934, 40.85011], [-73.86905, 40.85071], [-73.86898, 40.85112], [-73.868309, 40.851146], [-73.86793, 40.85116], [-73.86515, 40.84999], [-73.864758, 40.85027], [-73.86354, 40.85114], [-73.86321, 40.85202], [-73.86311, 40.85233], [-73.864881, 40.852301], [-73.86675, 40.85227], [-73.8667, 40.85416], [-73.86734, 40.85416], [-73.867329, 40.854487], [-73.86727, 40.85623], [-73.864753, 40.856326], [-73.86411, 40.85635], [-73.861935, 40.856304], [-73.86176, 40.8563], [-73.860992, 40.856281], [-73.86012, 40.85626], [-73.855893, 40.856528], [-73.85555, 40.85655], [-73.85481, 40.85506], [-73.851096, 40.850427], [-73.85101, 40.85032], [-73.851284, 40.850197], [-73.854579, 40.848713], [-73.857003, 40.847622], [-73.85834, 40.84702], [-73.85851, 40.84672], [-73.859376, 40.846547], [-73.866111, 40.8452], [-73.86796, 40.84483]]]}}, {"type": "Feature", "properties": {"area_id": 2772, "city": "Bronx", "state": "NY", "city_survey": true, "cat": "Definitely Declining", "grade": "C", "label": "C17", "res": true, "com": false, "ind": false, "holc_grade": "C"}, "geometry": {"type": "Polygon", "coordinates": [[[-73.86499, 40.89073], [-73.86456, 40.89173], [-73.86388, 40.89156], [-73.86306, 40.89205], [-73.86182, 40.89456], [-73.861743, 40.894786], [-73.861, 40.89695], [-73.858737, 40.900173], [-73.8585, 40.90051], [-73.85711, 40.90221], [-73.85536, 40.90431], [-73.85515, 40.90431], [-73.85404, 40.90574], [-73.85362, 40.90622], [-73.852983, 40.907176], [-73.8529, 40.9073], [-73.852614, 40.907194], [-73.85123, 40.90668], [-73.85059, 40.90771], [-73.8492, 40.90706], [-73.849216, 40.90696], [-73.84937, 40.90601], [-73.85002, 40.90458], [-73.85101, 40.9031], [-73.85298, 40.90046], [-73.854377, 40.898481], [-73.85454, 40.89825], [-73.854473, 40.898228], [-73.85287, 40.89771], [-73.85141, 40.89798], [-73.851456, 40.89783], [-73.85169, 40.89706], [-73.850934, 40.895405], [-73.849229, 40.891677], [-73.84881, 40.89076], [-73.84927, 40.89092], [-73.850513, 40.891353], [-73.854371, 40.892697], [-73.857212, 40.893687], [-73.85722, 40.89369], [-73.858939, 40.890642], [-73.860526, 40.887827], [-73.86181, 40.88555], [-73.865443, 40.886776], [-73.86652, 40.88714], [-73.86499, 40.89073]]]}}, {"type": "Feature", "properties": {"area_id": 2768, "city": "Bronx", "state": "NY", "city_survey": true, "cat": "Definitely Declining", "grade": "C", "label": "C18", "res": true, "com": false, "ind": false, "holc_grade": "C"}, "geometry": {"type": "Polygon", "coordinates": [[[-73.867589, 40.857939], [-73.86855, 40.85792], [-73.871063, 40.857551], [-73.87148, 40.85749], [-73.87087, 40.86401], [-73.87062, 40.86822], [-73.87108, 40.87162], [-73.87094, 40.87205], [-73.87055, 40.87561], [-73.87008, 40.87736], [-73.869608, 40.878171], [-73.86898, 40.87925], [-73.86656, 40.88412], [-73.86738, 40.88499], [-73.86652, 40.88714], [-73.865443, 40.886776], [-73.86181, 40.88555], [-73.862473, 40.884299], [-73.863985, 40.881444], [-73.864413, 40.880636], [-73.864462, 40.880544], [-73.86555, 40.87849], [-73.866184, 40.877299], [-73.86727, 40.87526], [-73.864955, 40.875037], [-73.86363, 40.87491], [-73.86146, 40.87474], [-73.86099, 40.87555], [-73.860557, 40.87542], [-73.856513, 40.874205], [-73.855628, 40.873939], [-73.855, 40.87375], [-73.854741, 40.873656], [-73.85352, 40.87321], [-73.85308, 40.87305], [-73.853202, 40.865394], [-73.85326, 40.86178], [-73.85629, 40.85816], [-73.856648, 40.858141], [-73.85743, 40.858098], [-73.86071, 40.85792], [-73.86179, 40.857938], [-73.862835, 40.857955], [-73.86374, 40.85797], [-73.86459, 40.858], [-73.864669, 40.857998], [-73.867589, 40.857939]]]}}, {"type": "Feature", "properties": {"area_id": 2769, "city": "Bronx", "state": "NY", "city_survey": true, "cat": "Definitely Declining", "grade": "C", "label": "C19", "res": true, "com": false, "ind": false, "holc_grade": "C"}, "geometry": {"type": "Polygon", "coordinates": [[[-73.847394, 40.858759], [-73.84789, 40.85886], [-73.84946, 40.85908], [-73.850273, 40.858966], [-73.853105, 40.858569], [-73.85388, 40.85846], [-73.85629, 40.85816], [-73.85326, 40.86178], [-73.853202, 40.865394], [-73.85308, 40.87305], [-73.85352, 40.87321], [-73.853477, 40.873246], [-73.85181, 40.87464], [-73.85036, 40.87542], [-73.8501, 40.87555], [-73.84871, 40.87623], [-73.848112, 40.876352], [-73.84675, 40.87663], [-73.846, 40.87698], [-73.845671, 40.877275], [-73.843502, 40.879219], [-73.84272, 40.87992], [-73.8413, 40.88051], [-73.83994, 40.88086], [-73.8388, 40.881368], [-73.83866, 40.88143], [-73.83841, 40.88154], [-73.838341, 40.881416], [-73.834861, 40.875188], [-73.83142, 40.86903], [-73.833156, 40.868313], [-73.83573, 40.86725], [-73.83481, 40.86547], [-73.836084, 40.865171], [-73.83609, 40.86517], [-73.836193, 40.86523], [-73.83755, 40.86601], [-73.837551, 40.865946], [-73.837562, 40.865104], [-73.83762, 40.86081], [-73.83848, 40.86078], [-73.838175, 40.857508], [-73.83816, 40.85735], [-73.84172, 40.85795], [-73.843875, 40.85836], [-73.84582, 40.85873], [-73.846812, 40.858654], [-73.84686, 40.85865], [-73.8469, 40.858658], [-73.847394, 40.858759]]]}}, {"type": "Feature", "properties": {"area_id": 2748, "city": "Bronx", "state": "NY", "city_survey": true, "cat": "Definitely Declining", "grade": "C", "label": "C2", "res": true, "com": false, "ind": false, "holc_grade": "C"}, "geometry": {"type": "Polygon", "coordinates": [[[-73.92857, 40.83048], [-73.92885, 40.83047], [-73.92958, 40.83035], [-73.93079, 40.83006], [-73.93145, 40.82996], [-73.93171, 40.82997], [-73.93191, 40.83026], [-73.93211, 40.83057], [-73.93228, 40.83087], [-73.93221, 40.83131], [-73.93206, 40.83218], [-73.93155, 40.83462], [-73.931544, 40.834637], [-73.93104, 40.83615], [-73.93041, 40.83799], [-73.93017, 40.83847], [-73.929337, 40.83964], [-73.92896, 40.84017], [-73.92876, 40.84076], [-73.92862, 40.8412], [-73.92832, 40.84159], [-73.92753, 40.84228], [-73.92739, 40.84251], [-73.92646, 40.84477], [-73.926373, 40.844935], [-73.92609, 40.84547], [-73.92438, 40.84798], [-73.922767, 40.850211], [-73.92182, 40.85152], [-73.91993, 40.853551], [-73.91753, 40.85613], [-73.917494, 40.856508], [-73.91746, 40.85686], [-73.91737, 40.85731], [-73.91719, 40.85781], [-73.91593, 40.85972], [-73.91314, 40.862009], [-73.91175, 40.86315], [-73.91124, 40.86286], [-73.91075, 40.86244], [-73.90962, 40.86271], [-73.909061, 40.862795], [-73.90903, 40.8628], [-73.907923, 40.862784], [-73.90762, 40.86278], [-73.90854, 40.86246], [-73.90924, 40.86225], [-73.909533, 40.86216], [-73.90976, 40.86209], [-73.91137, 40.86061], [-73.91162, 40.86052], [-73.91242, 40.86038], [-73.91278, 40.86026], [-73.91302, 40.86011], [-73.91318, 40.85974], [-73.913174, 40.859668], [-73.913167, 40.859578], [-73.91316, 40.85949], [-73.91311, 40.85934], [-73.91374, 40.85898], [-73.91416, 40.85877], [-73.91463, 40.85845], [-73.91501, 40.85811], [-73.91522, 40.85781], [-73.91532, 40.85747], [-73.91514, 40.85697], [-73.91536, 40.8568], [-73.91569, 40.85648], [-73.91602, 40.85586], [-73.91639, 40.85506], [-73.91664, 40.85476], [-73.916714, 40.854668], [-73.91689, 40.85445], [-73.917206, 40.854251], [-73.91751, 40.85406], [-73.9178, 40.85361], [-73.9178, 40.853467], [-73.9178, 40.85313], [-73.9178, 40.85264], [-73.9176, 40.85241], [-73.917193, 40.852092], [-73.9171, 40.85202], [-73.916761, 40.851681], [-73.91657, 40.85149], [-73.91619, 40.85136], [-73.91603, 40.85097], [-73.91589, 40.85065], [-73.91579, 40.85045], [-73.9163, 40.85014], [-73.916332, 40.849849], [-73.91654, 40.84795], [-73.91674, 40.84736], [-73.91688, 40.84689], [-73.91711, 40.846387], [-73.9172, 40.84619], [-73.91722, 40.84556], [-73.917462, 40.845019], [-73.91751, 40.84491], [-73.91781, 40.84449], [-73.91784, 40.84423], [-73.91787, 40.84385], [-73.91797, 40.84353], [-73.91814, 40.84317], [-73.91862, 40.84274], [-73.91899, 40.84235], [-73.91953, 40.84168], [-73.92011, 40.8407], [-73.920117, 40.840686], [-73.92091, 40.83906], [-73.92211, 40.83714], [-73.92212, 40.83683], [-73.92232, 40.836734], [-73.92241, 40.83669], [-73.92296, 40.83641], [-73.92335, 40.83617], [-73.92348, 40.83607], [-73.92369, 40.83573], [-73.92388, 40.83524], [-73.924006, 40.835027], [-73.924899, 40.833522], [-73.92503, 40.8333], [-73.925474, 40.83266], [-73.92596, 40.83196], [-73.926947, 40.83089], [-73.92764, 40.83014], [-73.927691, 40.83017], [-73.92791, 40.8303], [-73.92818, 40.83046], [-73.92857, 40.83048]]]}}, {"type": "Feature", "properties": {"area_id": 2770, "city": "Bronx", "state": "NY", "city_survey": true, "cat": "Definitely Declining", "grade": "C", "label": "C20", "res": true, "com": false, "ind": false, "holc_grade": "C"}, "geometry": {"type": "Polygon", "coordinates": [[[-73.8501, 40.87555], [-73.85036, 40.87542], [-73.850493, 40.875581], [-73.85167, 40.87701], [-73.848, 40.87892], [-73.84688, 40.876869], [-73.84675, 40.87663], [-73.848112, 40.876352], [-73.84871, 40.87623], [-73.8501, 40.87555]]]}}, {"type": "Feature", "properties": {"area_id": 2776, "city": "Bronx", "state": "NY", "city_survey": true, "cat": "Definitely Declining", "grade": "C", "label": "C21", "res": true, "com": false, "ind": false, "holc_grade": "C"}, "geometry": {"type": "Polygon", "coordinates": [[[-73.83223, 40.85944], [-73.83252, 40.85972], [-73.83268, 40.85989], [-73.83273, 40.86045], [-73.83362, 40.86049], [-73.83537, 40.86069], [-73.83762, 40.86081], [-73.837562, 40.865104], [-73.837551, 40.865946], [-73.83755, 40.86601], [-73.836193, 40.86523], [-73.83609, 40.86517], [-73.836084, 40.865171], [-73.83481, 40.86547], [-73.83573, 40.86725], [-73.833156, 40.868313], [-73.83142, 40.86903], [-73.834861, 40.875188], [-73.838341, 40.881416], [-73.83841, 40.88154], [-73.836813, 40.88203], [-73.83551, 40.88243], [-73.83513, 40.88261], [-73.83503, 40.88298], [-73.8347, 40.88345], [-73.834211, 40.883913], [-73.83413, 40.88399], [-73.83387, 40.88422], [-73.833402, 40.884283], [-73.8309, 40.88462], [-73.82778, 40.88564], [-73.827764, 40.885997], [-73.82774, 40.88652], [-73.828, 40.88737], [-73.828, 40.88771], [-73.827718, 40.888471], [-73.82693, 40.8906], [-73.82671, 40.89056], [-73.82239, 40.88893], [-73.820136, 40.890316], [-73.82, 40.8904], [-73.816996, 40.889555], [-73.81634, 40.889371], [-73.81598, 40.88927], [-73.815991, 40.889254], [-73.81623, 40.88892], [-73.81635, 40.88836], [-73.81646, 40.88758], [-73.816414, 40.886514], [-73.81641, 40.88642], [-73.81521, 40.88548], [-73.81666, 40.88458], [-73.81769, 40.88561], [-73.81852, 40.88513], [-73.818969, 40.884933], [-73.81934, 40.88477], [-73.82017, 40.88464], [-73.820333, 40.884633], [-73.82105, 40.8846], [-73.82094, 40.88318], [-73.82097, 40.88242], [-73.82139, 40.88102], [-73.82288, 40.8772], [-73.82806, 40.87875], [-73.82975, 40.88141], [-73.83368, 40.87642], [-73.83161, 40.87304], [-73.82678, 40.87064], [-73.82368, 40.87169], [-73.8237, 40.87047], [-73.822421, 40.86752], [-73.82161, 40.86565], [-73.81959, 40.86263], [-73.8204, 40.86181], [-73.82246, 40.86111], [-73.827269, 40.859294], [-73.82945, 40.85847], [-73.829924, 40.859137], [-73.830257, 40.859605], [-73.83026, 40.85961], [-73.83112, 40.859316], [-73.83184, 40.85907], [-73.831856, 40.859086], [-73.83223, 40.85944]]]}}, {"type": "Feature", "properties": {"area_id": 2773, "city": "Bronx", "state": "NY", "city_survey": true, "cat": "Definitely Declining", "grade": "C", "label": "C22", "res": true, "com": false, "ind": false, "holc_grade": "C"}, "geometry": {"type": "Polygon", "coordinates": [[[-73.849229, 40.891677], [-73.850934, 40.895405], [-73.85169, 40.89706], [-73.851456, 40.89783], [-73.85141, 40.89798], [-73.85287, 40.89771], [-73.854473, 40.898228], [-73.85454, 40.89825], [-73.854377, 40.898481], [-73.85298, 40.90046], [-73.85101, 40.9031], [-73.85002, 40.90458], [-73.84937, 40.90601], [-73.849216, 40.90696], [-73.8492, 40.90706], [-73.84806, 40.906523], [-73.84763, 40.90632], [-73.8467, 40.90598], [-73.846288, 40.905856], [-73.845672, 40.90567], [-73.845256, 40.905545], [-73.84504, 40.90548], [-73.845021, 40.90541], [-73.844704, 40.904257], [-73.84468, 40.904171], [-73.84468, 40.90417], [-73.844675, 40.90417], [-73.84169, 40.90426], [-73.841569, 40.903987], [-73.84105, 40.90282], [-73.84104, 40.902803], [-73.840985, 40.902712], [-73.84081, 40.90242], [-73.84072, 40.901549], [-73.84069, 40.90126], [-73.839515, 40.899906], [-73.83905, 40.89937], [-73.839151, 40.899113], [-73.839539, 40.898124], [-73.839628, 40.897895], [-73.839723, 40.897654], [-73.83974, 40.89761], [-73.839721, 40.89757], [-73.83872, 40.89545], [-73.838826, 40.895179], [-73.83907, 40.89456], [-73.838535, 40.894402], [-73.83277, 40.8927], [-73.829436, 40.891501], [-73.828058, 40.891005], [-73.827724, 40.890885], [-73.82693, 40.8906], [-73.827718, 40.888471], [-73.828, 40.88771], [-73.828, 40.88737], [-73.82774, 40.88652], [-73.827764, 40.885997], [-73.82778, 40.88564], [-73.8309, 40.88462], [-73.833402, 40.884283], [-73.83387, 40.88422], [-73.83413, 40.88399], [-73.834211, 40.883913], [-73.8347, 40.88345], [-73.83503, 40.88298], [-73.83513, 40.88261], [-73.83551, 40.88243], [-73.836813, 40.88203], [-73.83841, 40.88154], [-73.83866, 40.88143], [-73.83943, 40.88297], [-73.840937, 40.885859], [-73.841212, 40.886386], [-73.84207, 40.88803], [-73.842181, 40.888389], [-73.84228, 40.88871], [-73.84413, 40.88925], [-73.84492, 40.88941], [-73.84881, 40.89076], [-73.849229, 40.891677]], [[-73.8361, 40.88501], [-73.83553, 40.8862], [-73.83674, 40.88855], [-73.83769, 40.8883], [-73.83841, 40.88821], [-73.83905, 40.88832], [-73.84012, 40.88814], [-73.83822, 40.88607], [-73.8361, 40.88501]], [[-73.85153, 40.89955], [-73.851, 40.9001], [-73.85043, 40.89998], [-73.85001, 40.89994], [-73.84944, 40.89991], [-73.84879, 40.9], [-73.84801, 40.90025], [-73.84759, 40.90067], [-73.84725, 40.90117], [-73.84721, 40.90158], [-73.84957, 40.90271], [-73.85185, 40.89972], [-73.85153, 40.89955]]]}}, {"type": "Feature", "properties": {"area_id": 2777, "city": "Bronx", "state": "NY", "city_survey": true, "cat": "Definitely Declining", "grade": "C", "label": "C23", "res": true, "com": false, "ind": false, "holc_grade": "C"}, "geometry": {"type": "Polygon", "coordinates": [[[-73.789179, 40.843879], [-73.78918, 40.84389], [-73.78922, 40.84428], [-73.78949, 40.84464], [-73.79001, 40.84535], [-73.79078, 40.84623], [-73.79118, 40.84718], [-73.791183, 40.847197], [-73.79132, 40.84795], [-73.79109, 40.84853], [-73.79099, 40.8489], [-73.79034, 40.8495], [-73.79009, 40.84982], [-73.789912, 40.850265], [-73.78989, 40.85032], [-73.78949, 40.8508], [-73.78935, 40.8512], [-73.78931, 40.85197], [-73.78984, 40.85228], [-73.78999, 40.85249], [-73.79001, 40.85274], [-73.79031, 40.85319], [-73.79102, 40.85406], [-73.79156, 40.85483], [-73.79193, 40.85552], [-73.79192, 40.85628], [-73.79172, 40.85668], [-73.79139, 40.85686], [-73.79091, 40.85695], [-73.79076, 40.85736], [-73.79051, 40.85767], [-73.79015, 40.85809], [-73.78978, 40.85846], [-73.789064, 40.858383], [-73.78885, 40.85836], [-73.788876, 40.858085], [-73.78898, 40.85697], [-73.788842, 40.856549], [-73.7888, 40.85642], [-73.78852, 40.85561], [-73.78855, 40.85514], [-73.788603, 40.85468], [-73.78867, 40.8541], [-73.788374, 40.853789], [-73.78714, 40.85249], [-73.78688, 40.852336], [-73.78619, 40.851927], [-73.78606, 40.85185], [-73.7852, 40.85147], [-73.785161, 40.85145], [-73.78494, 40.85134], [-73.78477, 40.85121], [-73.78477, 40.85109], [-73.784766, 40.851062], [-73.78474, 40.850875], [-73.78472, 40.85073], [-73.78467, 40.85042], [-73.78445, 40.8501], [-73.78389, 40.84953], [-73.78332, 40.84886], [-73.78302, 40.84809], [-73.78286, 40.84757], [-73.78309, 40.84678], [-73.78382, 40.84446], [-73.78395, 40.84382], [-73.78353, 40.84274], [-73.78288, 40.84184], [-73.78242, 40.84193], [-73.78199, 40.84184], [-73.78189, 40.84176], [-73.78184, 40.8416], [-73.78188, 40.8414], [-73.78206, 40.84121], [-73.781847, 40.840882], [-73.78127, 40.83999], [-73.781459, 40.839283], [-73.781478, 40.839213], [-73.78179, 40.83805], [-73.782697, 40.837714], [-73.78279, 40.83768], [-73.78365, 40.83716], [-73.78395, 40.83716], [-73.78473, 40.83749], [-73.784856, 40.837338], [-73.78493, 40.83725], [-73.78509, 40.8372], [-73.78526, 40.83731], [-73.78526, 40.83745], [-73.785168, 40.837621], [-73.78504, 40.83786], [-73.78534, 40.83787], [-73.78517, 40.83813], [-73.785325, 40.838448], [-73.78539, 40.83858], [-73.785551, 40.839248], [-73.78559, 40.83941], [-73.78591, 40.83979], [-73.78621, 40.83983], [-73.78656, 40.83995], [-73.78686, 40.84031], [-73.787326, 40.840889], [-73.78797, 40.84169], [-73.78878, 40.84283], [-73.78915, 40.8434], [-73.789179, 40.843879]]]}}, {"type": "Feature", "properties": {"area_id": 2778, "city": "Bronx", "state": "NY", "city_survey": true, "cat": "Definitely Declining", "grade": "C", "label": "C3", "res": true, "com": false, "ind": false, "holc_grade": "C"}, "geometry": {"type": "Polygon", "coordinates": [[[-73.9227, 40.83049], [-73.92271, 40.83017], [-73.92298, 40.82933], [-73.924176, 40.827282], [-73.92712, 40.82224], [-73.92823, 40.82391], [-73.92593, 40.82814], [-73.92661, 40.82838], [-73.92714, 40.82863], [-73.92756, 40.82903], [-73.92792, 40.82926], [-73.92827, 40.82951], [-73.92764, 40.83014], [-73.926947, 40.83089], [-73.92596, 40.83196], [-73.925474, 40.83266], [-73.92503, 40.8333], [-73.924899, 40.833522], [-73.924006, 40.835027], [-73.92388, 40.83524], [-73.92369, 40.83573], [-73.92348, 40.83607], [-73.92335, 40.83617], [-73.92296, 40.83641], [-73.92241, 40.83669], [-73.92232, 40.836734], [-73.92212, 40.83683], [-73.92211, 40.83714], [-73.92091, 40.83906], [-73.920117, 40.840686], [-73.92011, 40.8407], [-73.91953, 40.84168], [-73.91899, 40.84235], [-73.91862, 40.84274], [-73.91814, 40.84317], [-73.91797, 40.84353], [-73.91787, 40.84385], [-73.91784, 40.84423], [-73.91781, 40.84449], [-73.91751, 40.84491], [-73.917462, 40.845019], [-73.91722, 40.84556], [-73.9172, 40.84619], [-73.91711, 40.846387], [-73.91688, 40.84689], [-73.91674, 40.84736], [-73.91654, 40.84795], [-73.916332, 40.849849], [-73.9163, 40.85014], [-73.91579, 40.85045], [-73.915559, 40.850413], [-73.91535, 40.85038], [-73.915236, 40.850406], [-73.91461, 40.85055], [-73.91419, 40.85099], [-73.91403, 40.85127], [-73.91242, 40.85272], [-73.91158, 40.85344], [-73.91101, 40.85404], [-73.91064, 40.8546], [-73.910622, 40.854642], [-73.91003, 40.85601], [-73.90939, 40.85704], [-73.90933, 40.85761], [-73.90925, 40.85769], [-73.907583, 40.859514], [-73.90692, 40.86024], [-73.904445, 40.862745], [-73.90439, 40.8628], [-73.903224, 40.862861], [-73.90154, 40.86295], [-73.900909, 40.862975], [-73.90054, 40.86299], [-73.8999, 40.86379], [-73.89794, 40.863], [-73.898327, 40.862353], [-73.89947, 40.86044], [-73.90029, 40.8586], [-73.900834, 40.857723], [-73.90119, 40.85715], [-73.90161, 40.85648], [-73.90259, 40.85523], [-73.902912, 40.85476], [-73.90294, 40.85472], [-73.903218, 40.85452], [-73.90337, 40.85441], [-73.90386, 40.85398], [-73.90437, 40.85341], [-73.905, 40.85295], [-73.90546, 40.85216], [-73.90605, 40.85148], [-73.9071, 40.85055], [-73.907129, 40.850514], [-73.90819, 40.84922], [-73.90843, 40.8488], [-73.90863, 40.84848], [-73.90896, 40.84836], [-73.909275, 40.848161], [-73.90934, 40.84812], [-73.90978, 40.84779], [-73.9101, 40.84753], [-73.91069, 40.84701], [-73.91158, 40.84588], [-73.912153, 40.845098], [-73.91273, 40.84431], [-73.913202, 40.843715], [-73.91323, 40.84368], [-73.914343, 40.841567], [-73.91441, 40.84144], [-73.91477, 40.84076], [-73.91513, 40.83992], [-73.915481, 40.839436], [-73.91584, 40.83894], [-73.9164, 40.83809], [-73.91666, 40.83773], [-73.9169, 40.83751], [-73.91733, 40.83722], [-73.91784, 40.83678], [-73.9182, 40.83646], [-73.918253, 40.836386], [-73.91862, 40.83587], [-73.91947, 40.83492], [-73.920762, 40.833677], [-73.92078, 40.83366], [-73.92196, 40.83181], [-73.9227, 40.83049]]]}}, {"type": "Feature", "properties": {"area_id": 5498, "city": "Bronx", "state": "NY", "city_survey": true, "cat": "Definitely Declining", "grade": "C", "label": "C4", "res": true, "com": false, "ind": false, "holc_grade": "C"}, "geometry": {"type": "Polygon", "coordinates": [[[-73.910389, 40.842945], [-73.91034, 40.84311], [-73.91008, 40.84376], [-73.90955, 40.8445], [-73.909391, 40.844645], [-73.90897, 40.84503], [-73.908961, 40.845038], [-73.9082, 40.84566], [-73.9069, 40.84655], [-73.90598, 40.84714], [-73.90561, 40.84735], [-73.905477, 40.847483], [-73.90526, 40.8477], [-73.90503, 40.84805], [-73.904471, 40.848981], [-73.90395, 40.84985], [-73.90309, 40.85117], [-73.902876, 40.851365], [-73.90251, 40.8517], [-73.90165, 40.85235], [-73.90126, 40.85275], [-73.90095, 40.85321], [-73.90081, 40.85342], [-73.89935, 40.85488], [-73.89903, 40.85537], [-73.899, 40.85544], [-73.89859, 40.85642], [-73.89763, 40.85841], [-73.897476, 40.858817], [-73.89722, 40.85949], [-73.89671, 40.86063], [-73.89629, 40.86148], [-73.896101, 40.861753], [-73.895765, 40.862236], [-73.89543, 40.86272], [-73.89478, 40.86347], [-73.89462, 40.86325], [-73.89447, 40.86306], [-73.89423, 40.86281], [-73.89399, 40.86272], [-73.8933, 40.8625], [-73.89259, 40.86232], [-73.89191, 40.86231], [-73.89147, 40.8623], [-73.89133, 40.8623], [-73.89116, 40.8623], [-73.89095, 40.86222], [-73.89079, 40.86212], [-73.891321, 40.861669], [-73.891935, 40.861148], [-73.89297, 40.86027], [-73.893545, 40.859356], [-73.89439, 40.85801], [-73.896452, 40.854913], [-73.89658, 40.85472], [-73.89925, 40.85026], [-73.90062, 40.84797], [-73.900803, 40.847665], [-73.902682, 40.844523], [-73.903589, 40.843007], [-73.90406, 40.84222], [-73.90503, 40.842277], [-73.90558, 40.84231], [-73.90919, 40.84238], [-73.909509, 40.842378], [-73.91056, 40.84237], [-73.910389, 40.842945]]]}}, {"type": "Feature", "properties": {"area_id": 2749, "city": "Bronx", "state": "NY", "city_survey": true, "cat": "Definitely Declining", "grade": "C", "label": "C5", "res": true, "com": false, "ind": false, "holc_grade": "C"}, "geometry": {"type": "Polygon", "coordinates": [[[-73.920789, 40.826299], [-73.92041, 40.827], [-73.91948, 40.82899], [-73.91915, 40.82968], [-73.91886, 40.83003], [-73.918729, 40.83025], [-73.91651, 40.83399], [-73.916389, 40.834029], [-73.91617, 40.8341], [-73.91601, 40.83417], [-73.91569, 40.8344], [-73.91553, 40.8347], [-73.91515, 40.83519], [-73.91493, 40.8354], [-73.91469, 40.83563], [-73.914464, 40.835856], [-73.91385, 40.83647], [-73.91297, 40.83755], [-73.912387, 40.838243], [-73.91185, 40.83888], [-73.91112, 40.84024], [-73.91081, 40.84093], [-73.91056, 40.84237], [-73.909509, 40.842378], [-73.90919, 40.84238], [-73.9091, 40.84067], [-73.90905, 40.8401], [-73.90869, 40.83952], [-73.90867, 40.83922], [-73.90883, 40.83738], [-73.90712, 40.83862], [-73.90686, 40.83916], [-73.90648, 40.83974], [-73.90615, 40.84008], [-73.90584, 40.84033], [-73.90548, 40.8413], [-73.90558, 40.84231], [-73.90503, 40.842277], [-73.90406, 40.84222], [-73.90438, 40.8417], [-73.905419, 40.839781], [-73.906958, 40.83694], [-73.90735, 40.836216], [-73.908601, 40.833907], [-73.9103, 40.83077], [-73.910455, 40.830799], [-73.911214, 40.83094], [-73.91132, 40.83096], [-73.912073, 40.829747], [-73.913042, 40.828186], [-73.91384, 40.8269], [-73.91948, 40.82352], [-73.919573, 40.823548], [-73.92008, 40.8237], [-73.91898, 40.8255], [-73.92091, 40.82613], [-73.92081, 40.82626], [-73.920789, 40.826299]]]}}, {"type": "Feature", "properties": {"area_id": 2755, "city": "Bronx", "state": "NY", "city_survey": true, "cat": "Definitely Declining", "grade": "C", "label": "C6", "res": true, "com": false, "ind": false, "holc_grade": "C"}, "geometry": {"type": "Polygon", "coordinates": [[[-73.88342, 40.81485], [-73.88448, 40.81492], [-73.88381, 40.81259], [-73.883817, 40.812589], [-73.8902, 40.81163], [-73.8907, 40.81366], [-73.88853, 40.8138], [-73.8892, 40.81643], [-73.88959, 40.81689], [-73.89064, 40.81812], [-73.88946, 40.81889], [-73.88938, 40.818936], [-73.88615, 40.82082], [-73.88585, 40.81966], [-73.88573, 40.81887], [-73.88532, 40.81707], [-73.884907, 40.81712], [-73.88393, 40.81724], [-73.88342, 40.81485]]]}}, {"type": "Feature", "properties": {"area_id": 2757, "city": "Bronx", "state": "NY", "city_survey": true, "cat": "Definitely Declining", "grade": "C", "label": "C7", "res": true, "com": false, "ind": false, "holc_grade": "C"}, "geometry": {"type": "Polygon", "coordinates": [[[-73.8607, 40.81123], [-73.86108, 40.8113], [-73.86157, 40.81138], [-73.8617, 40.81148], [-73.86194, 40.81288], [-73.86292, 40.81284], [-73.863388, 40.814774], [-73.86344, 40.81499], [-73.86518, 40.81487], [-73.86563, 40.81637], [-73.86656, 40.81627], [-73.86707, 40.81832], [-73.869929, 40.818064], [-73.86997, 40.81806], [-73.87041, 40.81999], [-73.87435, 40.81951], [-73.874427, 40.819871], [-73.87487, 40.82196], [-73.87951, 40.82139], [-73.87993, 40.8234], [-73.873337, 40.824204], [-73.87198, 40.82437], [-73.871387, 40.824441], [-73.86974, 40.82464], [-73.865966, 40.820981], [-73.864428, 40.819491], [-73.863969, 40.819047], [-73.861977, 40.817116], [-73.860029, 40.815227], [-73.85638, 40.81169], [-73.86036, 40.81127], [-73.8607, 40.81123]]]}}, {"type": "Feature", "properties": {"area_id": 2758, "city": "Bronx", "state": "NY", "city_survey": true, "cat": "Definitely Declining", "grade": "C", "label": "C8", "res": true, "com": false, "ind": false, "holc_grade": "C"}, "geometry": {"type": "Polygon", "coordinates": [[[-73.871387, 40.824441], [-73.87198, 40.82437], [-73.872053, 40.824753], [-73.872454, 40.826856], [-73.87299, 40.82967], [-73.8729, 40.82976], [-73.87264, 40.82978], [-73.87209, 40.82982], [-73.868049, 40.830926], [-73.863547, 40.832158], [-73.86215, 40.83254], [-73.86027, 40.828468], [-73.859285, 40.826337], [-73.85919, 40.82613], [-73.86957, 40.824664], [-73.86974, 40.82464], [-73.871387, 40.824441]]]}}, {"type": "Feature", "properties": {"area_id": 2759, "city": "Bronx", "state": "NY", "city_survey": true, "cat": "Definitely Declining", "grade": "C", "label": "C9", "res": true, "com": false, "ind": false, "holc_grade": "C"}, "geometry": {"type": "Polygon", "coordinates": [[[-73.88386, 40.8258], [-73.88402, 40.82642], [-73.88405, 40.82675], [-73.88394, 40.82716], [-73.88381, 40.82757], [-73.883543, 40.82832], [-73.88302, 40.82979], [-73.88262, 40.83047], [-73.881996, 40.831381], [-73.88175, 40.83174], [-73.88054, 40.83337], [-73.879447, 40.834492], [-73.87907, 40.83488], [-73.87808, 40.83581], [-73.87686, 40.8364], [-73.87578, 40.83688], [-73.87502, 40.83724], [-73.8783, 40.83878], [-73.877477, 40.839986], [-73.876064, 40.842058], [-73.87594, 40.84224], [-73.874452, 40.841648], [-73.872719, 40.840959], [-73.87111, 40.84032], [-73.86965, 40.83974], [-73.86804, 40.8405], [-73.86701, 40.84091], [-73.86587, 40.84124], [-73.8648, 40.84153], [-73.864122, 40.841686], [-73.86402, 40.84171], [-73.86369, 40.84154], [-73.863607, 40.841298], [-73.863598, 40.841274], [-73.86359, 40.84125], [-73.86247, 40.83562], [-73.86225, 40.8347], [-73.86214, 40.83427], [-73.86232, 40.8339], [-73.86229, 40.83363], [-73.86215, 40.83328], [-73.862163, 40.833155], [-73.86218, 40.83298], [-73.86215, 40.83254], [-73.863547, 40.832158], [-73.868049, 40.830926], [-73.87209, 40.82982], [-73.87264, 40.82978], [-73.8729, 40.82976], [-73.87299, 40.82967], [-73.872454, 40.826856], [-73.872053, 40.824753], [-73.87198, 40.82437], [-73.873337, 40.824204], [-73.87993, 40.8234], [-73.88331, 40.82274], [-73.883383, 40.823218], [-73.88362, 40.82478], [-73.88386, 40.8258]]]}}, {"type": "Feature", "properties": {"area_id": 2771, "city": "Bronx", "state": "NY", "city_survey": true, "cat": "Hazardous", "grade": "D", "label": "D1", "res": true, "com": false, "ind": false, "holc_grade": "D"}, "geometry": {"type": "Polygon", "coordinates": [[[-73.86094, 40.87563], [-73.86, 40.87714], [-73.86135, 40.87706], [-73.86175, 40.87706], [-73.86185, 40.87725], [-73.86189, 40.8776], [-73.86431, 40.87757], [-73.86413, 40.87798], [-73.86555, 40.87849], [-73.864462, 40.880544], [-73.864413, 40.880636], [-73.863985, 40.881444], [-73.862473, 40.884299], [-73.86181, 40.88555], [-73.860526, 40.887827], [-73.858939, 40.890642], [-73.85722, 40.89369], [-73.857212, 40.893687], [-73.854371, 40.892697], [-73.850513, 40.891353], [-73.84927, 40.89092], [-73.84881, 40.89076], [-73.84492, 40.88941], [-73.84413, 40.88925], [-73.84228, 40.88871], [-73.842181, 40.888389], [-73.84207, 40.88803], [-73.84445, 40.88784], [-73.84577, 40.88755], [-73.84699, 40.88733], [-73.8482, 40.88518], [-73.84524, 40.88402], [-73.845671, 40.883205], [-73.8457, 40.88315], [-73.84281, 40.88197], [-73.839634, 40.88291], [-73.83943, 40.88297], [-73.83866, 40.88143], [-73.8388, 40.881368], [-73.83994, 40.88086], [-73.8413, 40.88051], [-73.84272, 40.87992], [-73.843502, 40.879219], [-73.845671, 40.877275], [-73.846, 40.87698], [-73.84675, 40.87663], [-73.84688, 40.876869], [-73.848, 40.87892], [-73.85167, 40.87701], [-73.850493, 40.875581], [-73.85036, 40.87542], [-73.85181, 40.87464], [-73.853477, 40.873246], [-73.85352, 40.87321], [-73.854741, 40.873656], [-73.855, 40.87375], [-73.855628, 40.873939], [-73.856513, 40.874205], [-73.860557, 40.87542], [-73.86099, 40.87555], [-73.86094, 40.87563]]]}}, {"type": "Feature", "properties": {"area_id": 2750, "city": "Bronx", "state": "NY", "city_survey": true, "cat": "Hazardous", "grade": "D", "label": "D2", "res": true, "com": false, "ind": false, "holc_grade": "D"}, "geometry": {"type": "Polygon", "coordinates": [[[-73.89605, 40.84625], [-73.895822, 40.846598], [-73.8954, 40.84724], [-73.89505, 40.8479], [-73.89498, 40.84893], [-73.895023, 40.848943], [-73.898237, 40.849945], [-73.89925, 40.85026], [-73.89658, 40.85472], [-73.896452, 40.854913], [-73.89439, 40.85801], [-73.893545, 40.859356], [-73.89297, 40.86027], [-73.891935, 40.861148], [-73.891321, 40.861669], [-73.89079, 40.86212], [-73.88756, 40.86018], [-73.88704, 40.86076], [-73.88183, 40.85815], [-73.88117, 40.85741], [-73.880915, 40.857134], [-73.88081, 40.85702], [-73.880718, 40.856783], [-73.88069, 40.85671], [-73.88062, 40.85632], [-73.88069, 40.85597], [-73.880923, 40.856041], [-73.88112, 40.8561], [-73.8819, 40.85553], [-73.88326, 40.85313], [-73.88371, 40.85182], [-73.88395, 40.85135], [-73.88459, 40.85164], [-73.88476, 40.85162], [-73.88496, 40.85152], [-73.88514, 40.85143], [-73.8864, 40.85049], [-73.886384, 40.85035], [-73.886376, 40.850272], [-73.88637, 40.85022], [-73.88744, 40.84934], [-73.8878, 40.84904], [-73.88818, 40.84882], [-73.888347, 40.848705], [-73.88863, 40.84851], [-73.889884, 40.84689], [-73.89041, 40.84621], [-73.890536, 40.846108], [-73.89098, 40.84575], [-73.891369, 40.84553], [-73.89144, 40.84549], [-73.8926, 40.84607], [-73.893024, 40.846091], [-73.89342, 40.84611], [-73.89605, 40.84625]]]}}, {"type": "Feature", "properties": {"area_id": 2751, "city": "Bronx", "state": "NY", "city_survey": true, "cat": "Hazardous", "grade": "D", "label": "D3", "res": true, "com": false, "ind": false, "holc_grade": "D"}, "geometry": {"type": "Polygon", "coordinates": [[[-73.89918, 40.83197], [-73.89999, 40.83159], [-73.90044, 40.83161], [-73.900503, 40.83163], [-73.90101, 40.83179], [-73.90156, 40.83201], [-73.899499, 40.834982], [-73.89923, 40.83537], [-73.89681, 40.83476], [-73.89552, 40.83533], [-73.89526, 40.83586], [-73.89476, 40.83616], [-73.89348, 40.83668], [-73.89177, 40.83693], [-73.8911, 40.83693], [-73.89075, 40.8371], [-73.89008, 40.83758], [-73.88873, 40.83836], [-73.89581, 40.84267], [-73.895549, 40.843045], [-73.894966, 40.843885], [-73.89342, 40.84611], [-73.893024, 40.846091], [-73.8926, 40.84607], [-73.89144, 40.84549], [-73.891369, 40.84553], [-73.89098, 40.84575], [-73.890536, 40.846108], [-73.89041, 40.84621], [-73.889884, 40.84689], [-73.88863, 40.84851], [-73.888347, 40.848705], [-73.88818, 40.84882], [-73.8878, 40.84904], [-73.88744, 40.84934], [-73.88637, 40.85022], [-73.886376, 40.850272], [-73.886384, 40.85035], [-73.8864, 40.85049], [-73.88514, 40.85143], [-73.88496, 40.85152], [-73.88476, 40.85162], [-73.88459, 40.85164], [-73.88395, 40.85135], [-73.88371, 40.85182], [-73.88326, 40.85313], [-73.8819, 40.85553], [-73.88112, 40.8561], [-73.880923, 40.856041], [-73.88069, 40.85597], [-73.88278, 40.84828], [-73.882916, 40.848153], [-73.883348, 40.84775], [-73.88338, 40.84772], [-73.88376, 40.84726], [-73.88454, 40.846], [-73.884996, 40.845409], [-73.885201, 40.845142], [-73.88521, 40.84513], [-73.88535, 40.84434], [-73.885362, 40.844246], [-73.885559, 40.842662], [-73.88583, 40.84049], [-73.88609, 40.840048], [-73.88623, 40.83981], [-73.886413, 40.839649], [-73.886762, 40.839342], [-73.8869, 40.83922], [-73.88744, 40.83855], [-73.88758, 40.838243], [-73.88785, 40.83765], [-73.88818, 40.83737], [-73.88894, 40.8371], [-73.88946, 40.83679], [-73.89015, 40.83623], [-73.89079, 40.83602], [-73.891409, 40.835979], [-73.89184, 40.83595], [-73.89348, 40.83568], [-73.89388, 40.83544], [-73.89431, 40.83492], [-73.89474, 40.83458], [-73.89576, 40.83418], [-73.89652, 40.83397], [-73.896595, 40.833896], [-73.897, 40.8335], [-73.89785, 40.8326], [-73.89842, 40.83247], [-73.89873, 40.83238], [-73.89918, 40.83197]]]}}, {"type": "Feature", "properties": {"area_id": 2752, "city": "Bronx", "state": "NY", "city_survey": true, "cat": "Hazardous", "grade": "D", "label": "D4", "res": true, "com": false, "ind": false, "holc_grade": "D"}, "geometry": {"type": "Polygon", "coordinates": [[[-73.905717, 40.823373], [-73.909812, 40.824428], [-73.91083, 40.82469], [-73.91084, 40.824721], [-73.91128, 40.82616], [-73.91145, 40.82764], [-73.91145, 40.827937], [-73.91145, 40.82827], [-73.91083, 40.82866], [-73.91035, 40.82909], [-73.90981, 40.82962], [-73.9093, 40.830336], [-73.90929, 40.83035], [-73.90933, 40.8305], [-73.9103, 40.83077], [-73.908601, 40.833907], [-73.90735, 40.836216], [-73.906958, 40.83694], [-73.905419, 40.839781], [-73.90438, 40.8417], [-73.90406, 40.84222], [-73.903589, 40.843007], [-73.902682, 40.844523], [-73.900803, 40.847665], [-73.90062, 40.84797], [-73.89925, 40.85026], [-73.898237, 40.849945], [-73.895023, 40.848943], [-73.89498, 40.84893], [-73.89505, 40.8479], [-73.8954, 40.84724], [-73.895822, 40.846598], [-73.89605, 40.84625], [-73.89697, 40.8442], [-73.89647, 40.84402], [-73.89642, 40.843974], [-73.89633, 40.84389], [-73.89633, 40.84355], [-73.89634, 40.843535], [-73.89735, 40.84204], [-73.89871, 40.83907], [-73.89985, 40.83728], [-73.9009, 40.8358], [-73.89923, 40.83537], [-73.899499, 40.834982], [-73.90156, 40.83201], [-73.90101, 40.83179], [-73.900503, 40.83163], [-73.90044, 40.83161], [-73.89999, 40.83159], [-73.89918, 40.83197], [-73.89873, 40.83238], [-73.89842, 40.83247], [-73.89785, 40.8326], [-73.897, 40.8335], [-73.896595, 40.833896], [-73.89652, 40.83397], [-73.89636, 40.83372], [-73.896346, 40.833596], [-73.89633, 40.83346], [-73.89631, 40.83328], [-73.89624, 40.83287], [-73.89643, 40.83217], [-73.896844, 40.831283], [-73.89764, 40.82958], [-73.897984, 40.828531], [-73.898153, 40.828016], [-73.898194, 40.82789], [-73.89885, 40.82589], [-73.899667, 40.824028], [-73.90054, 40.82204], [-73.900631, 40.822063], [-73.905717, 40.823373]]]}}, {"type": "Feature", "properties": {"area_id": 2753, "city": "Bronx", "state": "NY", "city_survey": true, "cat": "Hazardous", "grade": "D", "label": "D5", "res": true, "com": false, "ind": false, "holc_grade": "D"}, "geometry": {"type": "Polygon", "coordinates": [[[-73.89588, 40.82107], [-73.89852, 40.8212], [-73.898535, 40.821263], [-73.89859, 40.82149], [-73.89873, 40.82154], [-73.89952, 40.82177], [-73.90054, 40.82204], [-73.899667, 40.824028], [-73.89885, 40.82589], [-73.898194, 40.82789], [-73.898153, 40.828016], [-73.897984, 40.828531], [-73.89764, 40.82958], [-73.896844, 40.831283], [-73.89643, 40.83217], [-73.89624, 40.83287], [-73.89631, 40.83328], [-73.89633, 40.83346], [-73.896346, 40.833596], [-73.89636, 40.83372], [-73.89652, 40.83397], [-73.89576, 40.83418], [-73.89474, 40.83458], [-73.89431, 40.83492], [-73.89388, 40.83544], [-73.89348, 40.83568], [-73.89184, 40.83595], [-73.891409, 40.835979], [-73.89079, 40.83602], [-73.89015, 40.83623], [-73.88946, 40.83679], [-73.88894, 40.8371], [-73.88818, 40.83737], [-73.88785, 40.83765], [-73.88758, 40.838243], [-73.88744, 40.83855], [-73.8869, 40.83922], [-73.886762, 40.839342], [-73.886413, 40.839649], [-73.88623, 40.83981], [-73.88609, 40.840048], [-73.88583, 40.84049], [-73.885559, 40.842662], [-73.885362, 40.844246], [-73.88535, 40.84434], [-73.88521, 40.84513], [-73.885201, 40.845142], [-73.884996, 40.845409], [-73.88454, 40.846], [-73.88376, 40.84726], [-73.88338, 40.84772], [-73.883348, 40.84775], [-73.882916, 40.848153], [-73.88278, 40.84828], [-73.8769, 40.84386], [-73.87761, 40.84265], [-73.877735, 40.842486], [-73.87854, 40.84143], [-73.879767, 40.840192], [-73.880729, 40.839221], [-73.88073, 40.83922], [-73.88118, 40.83868], [-73.881212, 40.838577], [-73.88139, 40.838], [-73.88144, 40.83769], [-73.88163, 40.83756], [-73.882178, 40.837553], [-73.88246, 40.83755], [-73.884313, 40.834183], [-73.88546, 40.8321], [-73.886318, 40.830881], [-73.88641, 40.83075], [-73.88669, 40.83024], [-73.8866, 40.82981], [-73.88641, 40.82897], [-73.88622, 40.82848], [-73.88622, 40.828381], [-73.88622, 40.82821], [-73.88643, 40.82796], [-73.88683, 40.82762], [-73.8871, 40.82748], [-73.887056, 40.827169], [-73.88693, 40.82627], [-73.88681, 40.82589], [-73.88681, 40.82569], [-73.886942, 40.8253], [-73.88705, 40.82498], [-73.88719, 40.8246], [-73.88707, 40.82399], [-73.88712, 40.82334], [-73.887133, 40.823213], [-73.88717, 40.82285], [-73.887269, 40.822688], [-73.8875, 40.82231], [-73.88819, 40.82186], [-73.89038, 40.82073], [-73.89044, 40.820725], [-73.89104, 40.82068], [-73.891287, 40.820704], [-73.89177, 40.82075], [-73.892945, 40.820859], [-73.894267, 40.820982], [-73.89446, 40.821], [-73.89588, 40.82107]]]}}, {"type": "Feature", "properties": {"area_id": 2754, "city": "Bronx", "state": "NY", "city_survey": true, "cat": "Hazardous", "grade": "D", "label": "D6", "res": true, "com": false, "ind": false, "holc_grade": "D"}, "geometry": {"type": "Polygon", "coordinates": [[[-73.91751, 40.8033], [-73.91848, 40.80334], [-73.91932, 40.8035], [-73.92926, 40.8079], [-73.928477, 40.809012], [-73.927115, 40.810946], [-73.927104, 40.810963], [-73.92372, 40.81577], [-73.923756, 40.815777], [-73.92515, 40.81605], [-73.92632, 40.81632], [-73.92513, 40.81785], [-73.92425, 40.81895], [-73.92332, 40.81987], [-73.9222, 40.82082], [-73.920714, 40.821762], [-73.920235, 40.822066], [-73.91933, 40.82264], [-73.91636, 40.82417], [-73.916262, 40.824225], [-73.914609, 40.825156], [-73.91398, 40.82551], [-73.913241, 40.825318], [-73.91083, 40.82469], [-73.909812, 40.824428], [-73.905717, 40.823373], [-73.900631, 40.822063], [-73.90054, 40.82204], [-73.89952, 40.82177], [-73.89873, 40.82154], [-73.89859, 40.82149], [-73.898535, 40.821263], [-73.89852, 40.8212], [-73.89588, 40.82107], [-73.89446, 40.821], [-73.894267, 40.820982], [-73.892945, 40.820859], [-73.89177, 40.82075], [-73.894, 40.81911], [-73.89605, 40.81717], [-73.896635, 40.816564], [-73.89916, 40.81395], [-73.899513, 40.813846], [-73.904425, 40.812398], [-73.904673, 40.812324], [-73.90496, 40.81224], [-73.9051, 40.8119], [-73.90529, 40.81159], [-73.90574, 40.81138], [-73.90684, 40.81087], [-73.907006, 40.81073], [-73.90769, 40.81015], [-73.90819, 40.80907], [-73.910389, 40.809587], [-73.91074, 40.80967], [-73.91021, 40.81068], [-73.91059, 40.81075], [-73.91081, 40.8108], [-73.91095, 40.81087], [-73.91078, 40.81136], [-73.91054, 40.81201], [-73.91054, 40.81244], [-73.91054, 40.812782], [-73.91054, 40.81282], [-73.9104, 40.81312], [-73.910756, 40.813225], [-73.9129, 40.81386], [-73.91478, 40.81059], [-73.9144, 40.81062], [-73.91394, 40.8106], [-73.91347, 40.81037], [-73.91266, 40.80979], [-73.91095, 40.80929], [-73.911117, 40.808935], [-73.911993, 40.807069], [-73.91302, 40.80488], [-73.91393, 40.804444], [-73.91444, 40.8042], [-73.9152, 40.8038], [-73.915748, 40.803589], [-73.91585, 40.80355], [-73.91661, 40.80339], [-73.91751, 40.8033]], [[-73.91085, 40.82242], [-73.91116, 40.82233], [-73.91159, 40.82224], [-73.91209, 40.82222], [-73.912095, 40.822211], [-73.913624, 40.819571], [-73.913877, 40.819133], [-73.91411, 40.81873], [-73.914339, 40.818642], [-73.91484, 40.81845], [-73.91558, 40.81803], [-73.91629, 40.81735], [-73.91634, 40.817304], [-73.91686, 40.81683], [-73.91914, 40.81737], [-73.91993, 40.81625], [-73.92033, 40.81562], [-73.92059, 40.81483], [-73.92025, 40.814679], [-73.91926, 40.81424], [-73.91862, 40.81481], [-73.9181, 40.81515], [-73.91727, 40.81553], [-73.91698, 40.81564], [-73.91513, 40.81485], [-73.915074, 40.814987], [-73.91489, 40.81544], [-73.91342, 40.81742], [-73.91213, 40.8192], [-73.91154, 40.82035], [-73.910896, 40.822282], [-73.91085, 40.82242]]]}}, {"type": "Feature", "properties": {"area_id": 2756, "city": "Bronx", "state": "NY", "city_survey": true, "cat": "Hazardous", "grade": "D", "label": "D7", "res": true, "com": false, "ind": false, "holc_grade": "D"}, "geometry": {"type": "Polygon", "coordinates": [[[-73.85857, 40.80695], [-73.858668, 40.807421], [-73.85867, 40.80743], [-73.85872, 40.80802], [-73.85873, 40.80844], [-73.85893, 40.80894], [-73.85939, 40.80967], [-73.86001, 40.81015], [-73.86058, 40.81048], [-73.86093, 40.81058], [-73.86154, 40.81068], [-73.861646, 40.810699], [-73.86251, 40.81085], [-73.86415, 40.81118], [-73.86751, 40.81175], [-73.86855, 40.81373], [-73.86932, 40.81445], [-73.86983, 40.81487], [-73.87086, 40.81525], [-73.8716, 40.8155], [-73.87267, 40.81565], [-73.87357, 40.81562], [-73.874, 40.81566], [-73.87432, 40.81577], [-73.87822, 40.81729], [-73.87862, 40.81765], [-73.88003, 40.81881], [-73.880113, 40.818865], [-73.88144, 40.81974], [-73.88221, 40.82029], [-73.88252, 40.82054], [-73.88275, 40.8208], [-73.88284, 40.82107], [-73.88331, 40.82274], [-73.87993, 40.8234], [-73.87951, 40.82139], [-73.87487, 40.82196], [-73.874427, 40.819871], [-73.87435, 40.81951], [-73.87041, 40.81999], [-73.86997, 40.81806], [-73.869929, 40.818064], [-73.86707, 40.81832], [-73.86656, 40.81627], [-73.86563, 40.81637], [-73.86518, 40.81487], [-73.86344, 40.81499], [-73.863388, 40.814774], [-73.86292, 40.81284], [-73.86194, 40.81288], [-73.8617, 40.81148], [-73.86157, 40.81138], [-73.86108, 40.8113], [-73.8607, 40.81123], [-73.86036, 40.81127], [-73.85638, 40.81169], [-73.860029, 40.815227], [-73.861977, 40.817116], [-73.863969, 40.819047], [-73.864428, 40.819491], [-73.865966, 40.820981], [-73.86974, 40.82464], [-73.86957, 40.824664], [-73.85919, 40.82613], [-73.858059, 40.822826], [-73.85779, 40.82204], [-73.855103, 40.822288], [-73.85205, 40.82257], [-73.851721, 40.821312], [-73.850466, 40.816516], [-73.84998, 40.81466], [-73.850063, 40.814426], [-73.850296, 40.813765], [-73.85051, 40.81316], [-73.850507, 40.813153], [-73.85024, 40.81249], [-73.85014, 40.81238], [-73.84952, 40.81211], [-73.84954, 40.81145], [-73.84944, 40.81112], [-73.849392, 40.811043], [-73.84932, 40.81093], [-73.84905, 40.81082], [-73.84825, 40.80944], [-73.84786, 40.8084], [-73.84773, 40.80749], [-73.84784, 40.806779], [-73.84786, 40.80665], [-73.847712, 40.806172], [-73.84768, 40.80607], [-73.847685, 40.806058], [-73.84787, 40.8056], [-73.84827, 40.80539], [-73.84881, 40.80539], [-73.84922, 40.80544], [-73.8495, 40.80551], [-73.85001, 40.80562], [-73.85036, 40.80577], [-73.85078, 40.80589], [-73.85123, 40.80581], [-73.85185, 40.8057], [-73.8525, 40.80565], [-73.85295, 40.80554], [-73.85313, 40.80531], [-73.85323, 40.80522], [-73.85347, 40.80515], [-73.85363, 40.80536], [-73.85377, 40.8056], [-73.85419, 40.80579], [-73.854431, 40.805837], [-73.8545, 40.80585], [-73.85479, 40.80583], [-73.85499, 40.80577], [-73.855323, 40.805712], [-73.85556, 40.80567], [-73.85589, 40.80567], [-73.855894, 40.805671], [-73.85623, 40.80581], [-73.85668, 40.80579], [-73.85705, 40.80569], [-73.85758, 40.80575], [-73.85802, 40.80587], [-73.858269, 40.806276], [-73.85829, 40.80631], [-73.858478, 40.806739], [-73.85857, 40.80695]]]}}, {"type": "Feature", "properties": {"area_id": 11384, "city": "Bronx", "state": "NY", "city_survey": true, "cat": "Commercial", "grade": null, "label": "Commercial", "res": false, "com": true, "ind": false, "holc_grade": null}, "geometry": {"type": "MultiPolygon", "coordinates": [[[[-73.866184, 40.877299], [-73.86555, 40.87849], [-73.86413, 40.87798], [-73.86431, 40.87757], [-73.86189, 40.8776], [-73.86185, 40.87725], [-73.86175, 40.87706], [-73.86135, 40.87706], [-73.86, 40.87714], [-73.86094, 40.87563], [-73.86099, 40.87555], [-73.86146, 40.87474], [-73.86363, 40.87491], [-73.864955, 40.875037], [-73.86727, 40.87526], [-73.866184, 40.877299]]], [[[-73.86354, 40.85114], [-73.864758, 40.85027], [-73.86515, 40.84999], [-73.86793, 40.85116], [-73.868309, 40.851146], [-73.86898, 40.85112], [-73.86959, 40.85331], [-73.87029, 40.85452], [-73.86987, 40.85549], [-73.869824, 40.85554], [-73.86917, 40.85625], [-73.867656, 40.856234], [-73.86727, 40.85623], [-73.867329, 40.854487], [-73.86734, 40.85416], [-73.8667, 40.85416], [-73.86675, 40.85227], [-73.864881, 40.852301], [-73.86311, 40.85233], [-73.86321, 40.85202], [-73.86354, 40.85114]]], [[[-73.900892, 40.884649], [-73.90362, 40.88643], [-73.90267, 40.88733], [-73.90267, 40.88821], [-73.90255, 40.88843], [-73.9024, 40.88873], [-73.90264, 40.88904], [-73.90264, 40.889118], [-73.90264, 40.88931], [-73.90181, 40.88984], [-73.90053, 40.88977], [-73.89925, 40.89029], [-73.89806, 40.89266], [-73.897388, 40.892632], [-73.89688, 40.89261], [-73.897786, 40.890776], [-73.897915, 40.890514], [-73.89973, 40.88684], [-73.900173, 40.885988], [-73.9005, 40.88536], [-73.90077, 40.88457], [-73.900892, 40.884649]]], [[[-73.90784, 40.89659], [-73.9079, 40.89257], [-73.90793, 40.89093], [-73.90796, 40.89023], [-73.90802, 40.88976], [-73.90837, 40.88929], [-73.908774, 40.889362], [-73.909253, 40.889448], [-73.91138, 40.88983], [-73.91093, 40.89113], [-73.9109, 40.89268], [-73.91016, 40.89275], [-73.91019, 40.89663], [-73.908274, 40.896597], [-73.90784, 40.89659]]], [[[-73.91862, 40.81481], [-73.91926, 40.81424], [-73.92025, 40.814679], [-73.92059, 40.81483], [-73.92033, 40.81562], [-73.91993, 40.81625], [-73.91914, 40.81737], [-73.91686, 40.81683], [-73.91634, 40.817304], [-73.91629, 40.81735], [-73.91558, 40.81803], [-73.91484, 40.81845], [-73.914339, 40.818642], [-73.91411, 40.81873], [-73.913877, 40.819133], [-73.913624, 40.819571], [-73.912095, 40.822211], [-73.91209, 40.82222], [-73.91159, 40.82224], [-73.91116, 40.82233], [-73.91085, 40.82242], [-73.910896, 40.822282], [-73.91154, 40.82035], [-73.91213, 40.8192], [-73.91315, 40.81779], [-73.91342, 40.81742], [-73.91489, 40.81544], [-73.915074, 40.814987], [-73.91513, 40.81485], [-73.91698, 40.81564], [-73.91727, 40.81553], [-73.9181, 40.81515], [-73.91862, 40.81481]]]]}}, {"type": "Feature", "properties": {"area_id": 5499, "city": "Bronx", "state": "NY", "city_survey": true, "cat": "\"E\"", "grade": null, "label": "E1", "res": true, "com": false, "ind": false, "holc_grade": null}, "geometry": {"type": "Polygon", "coordinates": [[[-73.85819, 40.8353], [-73.86082, 40.83495], [-73.86079, 40.83553], [-73.86111, 40.835547], [-73.86247, 40.83562], [-73.86359, 40.84125], [-73.863598, 40.841274], [-73.863607, 40.841298], [-73.86369, 40.84154], [-73.86402, 40.84171], [-73.86453, 40.8421], [-73.86472, 40.84226], [-73.86472, 40.84247], [-73.86446, 40.8426], [-73.86066, 40.84406], [-73.86061, 40.84452], [-73.85885, 40.84476], [-73.8579, 40.84357], [-73.85444, 40.84247], [-73.854426, 40.842346], [-73.85432, 40.84137], [-73.85363, 40.84142], [-73.853441, 40.840692], [-73.85337, 40.84042], [-73.853922, 40.839885], [-73.85432, 40.8395], [-73.85593, 40.83702], [-73.8561, 40.83654], [-73.85618, 40.83621], [-73.856194, 40.836088], [-73.85623, 40.83578], [-73.85657, 40.83565], [-73.85819, 40.8353]]]}}, {"type": "Feature", "properties": {"area_id": 11383, "city": "Bronx", "state": "NY", "city_survey": true, "cat": "Industrial", "grade": null, "label": "Industrial", "res": false, "com": false, "ind": true, "holc_grade": null}, "geometry": {"type": "MultiPolygon", "coordinates": [[[[-73.86886, 40.84494], [-73.86851, 40.84476], [-73.86827, 40.84474], [-73.868164, 40.844771], [-73.86796, 40.84483], [-73.86796, 40.84438], [-73.86801, 40.84413], [-73.8677, 40.84382], [-73.86729, 40.84361], [-73.86722, 40.84344], [-73.867588, 40.843191], [-73.86955, 40.84186], [-73.8701, 40.84132], [-73.87111, 40.84032], [-73.87272, 40.840959], [-73.87353, 40.84128], [-73.87199, 40.843], [-73.86886, 40.84494]]], [[[-73.92756, 40.803], [-73.927897, 40.803351], [-73.93052, 40.80608], [-73.93247, 40.80835], [-73.9328, 40.81059], [-73.93255, 40.8148], [-73.932023, 40.814684], [-73.93146, 40.81456], [-73.93154, 40.81714], [-73.93093, 40.81889], [-73.93129, 40.82015], [-73.932157, 40.820282], [-73.93247, 40.82033], [-73.932509, 40.824504], [-73.93251, 40.8246], [-73.932584, 40.825155], [-73.933003, 40.828276], [-73.933014, 40.828358], [-73.93316, 40.82945], [-73.933157, 40.829843], [-73.93313, 40.83363], [-73.932734, 40.834769], [-73.93194, 40.83705], [-73.930916, 40.839163], [-73.930475, 40.840072], [-73.93038, 40.840268], [-73.92923, 40.84264], [-73.92838, 40.8445], [-73.9279, 40.845269], [-73.926554, 40.847425], [-73.92632, 40.8478], [-73.92321, 40.85289], [-73.92227, 40.85427], [-73.91858, 40.85875], [-73.91411, 40.86284], [-73.91269, 40.86443], [-73.91144, 40.8669], [-73.91011, 40.86914], [-73.909118, 40.871428], [-73.90901, 40.871676], [-73.909, 40.8717], [-73.909185, 40.872387], [-73.90939, 40.87315], [-73.90817, 40.87407], [-73.9078, 40.87592], [-73.90724, 40.87642], [-73.907245, 40.876446], [-73.90751, 40.87788], [-73.90606, 40.87945], [-73.904819, 40.878879], [-73.903745, 40.878385], [-73.90317, 40.87812], [-73.90329, 40.87702], [-73.9035, 40.87675], [-73.903978, 40.876272], [-73.90406, 40.87619], [-73.90427, 40.87541], [-73.90463, 40.87453], [-73.90469, 40.87413], [-73.90528, 40.87363], [-73.905689, 40.873125], [-73.90579, 40.873], [-73.90721, 40.86999], [-73.90822, 40.8679], [-73.90837, 40.86734], [-73.90867, 40.86631], [-73.90876, 40.86572], [-73.90909, 40.86512], [-73.90944, 40.86428], [-73.90968, 40.86332], [-73.90962, 40.86271], [-73.91075, 40.86244], [-73.91124, 40.86286], [-73.91175, 40.86315], [-73.91298, 40.86214], [-73.91314, 40.862009], [-73.91593, 40.85972], [-73.91719, 40.85781], [-73.91737, 40.85731], [-73.91746, 40.85686], [-73.917494, 40.856508], [-73.91753, 40.85613], [-73.91993, 40.853551], [-73.92182, 40.85152], [-73.922767, 40.850211], [-73.92438, 40.84798], [-73.92609, 40.84547], [-73.926373, 40.844935], [-73.92646, 40.84477], [-73.92739, 40.84251], [-73.92753, 40.84228], [-73.92832, 40.84159], [-73.92862, 40.8412], [-73.92876, 40.84076], [-73.92896, 40.84017], [-73.929337, 40.83964], [-73.93017, 40.83847], [-73.93041, 40.83799], [-73.93104, 40.83615], [-73.931544, 40.834637], [-73.93155, 40.83462], [-73.93206, 40.83218], [-73.93221, 40.83131], [-73.93228, 40.83087], [-73.93211, 40.83057], [-73.93191, 40.83026], [-73.93171, 40.82997], [-73.93145, 40.82996], [-73.93079, 40.83006], [-73.92958, 40.83035], [-73.92885, 40.83047], [-73.92857, 40.83048], [-73.92818, 40.83046], [-73.92791, 40.8303], [-73.927691, 40.83017], [-73.92764, 40.83014], [-73.92827, 40.82951], [-73.92792, 40.82926], [-73.92756, 40.82903], [-73.92714, 40.82863], [-73.92661, 40.82838], [-73.92593, 40.82814], [-73.92823, 40.82391], [-73.92712, 40.82224], [-73.926134, 40.820724], [-73.92606, 40.82061], [-73.925943, 40.820883], [-73.92442, 40.82443], [-73.92442, 40.82389], [-73.924307, 40.823718], [-73.92411, 40.82342], [-73.92372, 40.82304], [-73.923464, 40.822948], [-73.92322, 40.82286], [-73.92215, 40.82461], [-73.92174, 40.82513], [-73.92124, 40.82569], [-73.92091, 40.82613], [-73.91898, 40.8255], [-73.92008, 40.8237], [-73.919573, 40.823548], [-73.91948, 40.82352], [-73.91384, 40.8269], [-73.913042, 40.828186], [-73.912073, 40.829747], [-73.91132, 40.83096], [-73.911214, 40.83094], [-73.910455, 40.830799], [-73.9103, 40.83077], [-73.90933, 40.8305], [-73.90929, 40.83035], [-73.9093, 40.830336], [-73.90981, 40.82962], [-73.91035, 40.82909], [-73.91083, 40.82866], [-73.91145, 40.82827], [-73.91145, 40.827937], [-73.91145, 40.82764], [-73.91128, 40.82616], [-73.91084, 40.824721], [-73.91083, 40.82469], [-73.913241, 40.825318], [-73.91398, 40.82551], [-73.914609, 40.825156], [-73.916262, 40.824225], [-73.91636, 40.82417], [-73.91933, 40.82264], [-73.920235, 40.822066], [-73.920714, 40.821762], [-73.9222, 40.82082], [-73.92332, 40.81987], [-73.92425, 40.81895], [-73.92446, 40.81869], [-73.92513, 40.81785], [-73.92632, 40.81632], [-73.92515, 40.81605], [-73.923756, 40.815777], [-73.92372, 40.81577], [-73.927104, 40.810963], [-73.927115, 40.810946], [-73.928477, 40.809012], [-73.92926, 40.8079], [-73.91932, 40.8035], [-73.91848, 40.80334], [-73.91751, 40.8033], [-73.91661, 40.80339], [-73.91585, 40.80355], [-73.915748, 40.803589], [-73.9152, 40.8038], [-73.91444, 40.8042], [-73.91393, 40.804444], [-73.91302, 40.80488], [-73.911993, 40.807069], [-73.911117, 40.808935], [-73.91095, 40.80929], [-73.91074, 40.80967], [-73.910389, 40.809587], [-73.90819, 40.80907], [-73.90769, 40.81015], [-73.907006, 40.81073], [-73.90684, 40.81087], [-73.90574, 40.81138], [-73.90529, 40.81159], [-73.9051, 40.8119], [-73.90496, 40.81224], [-73.904673, 40.812324], [-73.904425, 40.812398], [-73.899513, 40.813846], [-73.89916, 40.81395], [-73.896635, 40.816564], [-73.89605, 40.81717], [-73.894, 40.81911], [-73.89177, 40.82075], [-73.891287, 40.820704], [-73.89104, 40.82068], [-73.89044, 40.820725], [-73.89038, 40.82073], [-73.88819, 40.82186], [-73.8875, 40.82231], [-73.887269, 40.822688], [-73.88717, 40.82285], [-73.887133, 40.823213], [-73.88712, 40.82334], [-73.88707, 40.82399], [-73.88719, 40.8246], [-73.88705, 40.82498], [-73.886942, 40.8253], [-73.88681, 40.82569], [-73.88681, 40.82589], [-73.88693, 40.82627], [-73.887056, 40.827169], [-73.8871, 40.82748], [-73.88683, 40.82762], [-73.88643, 40.82796], [-73.88622, 40.82821], [-73.88622, 40.828381], [-73.88622, 40.82848], [-73.88641, 40.82897], [-73.8866, 40.82981], [-73.88669, 40.83024], [-73.88641, 40.83075], [-73.886318, 40.830881], [-73.88546, 40.8321], [-73.88431, 40.834182], [-73.8843, 40.8342], [-73.88246, 40.83755], [-73.882178, 40.837553], [-73.88163, 40.83756], [-73.88144, 40.83769], [-73.88139, 40.838], [-73.881212, 40.838577], [-73.88118, 40.83868], [-73.88073, 40.83922], [-73.880729, 40.839221], [-73.879767, 40.840192], [-73.87854, 40.84143], [-73.877735, 40.842486], [-73.87761, 40.84265], [-73.87594, 40.84224], [-73.876064, 40.842058], [-73.877477, 40.839986], [-73.8783, 40.83878], [-73.87502, 40.83724], [-73.87578, 40.83688], [-73.87686, 40.8364], [-73.87808, 40.83581], [-73.87907, 40.83488], [-73.879447, 40.834492], [-73.88054, 40.83337], [-73.88158, 40.83197], [-73.88175, 40.83174], [-73.881996, 40.831381], [-73.88262, 40.83047], [-73.88302, 40.82979], [-73.883543, 40.82832], [-73.88381, 40.82757], [-73.88394, 40.82716], [-73.88405, 40.82675], [-73.88402, 40.82642], [-73.88386, 40.8258], [-73.88362, 40.82478], [-73.883383, 40.823218], [-73.88331, 40.82274], [-73.88284, 40.82107], [-73.88275, 40.8208], [-73.88252, 40.82054], [-73.88221, 40.82029], [-73.88144, 40.81974], [-73.880113, 40.818865], [-73.88003, 40.81881], [-73.87862, 40.81765], [-73.87822, 40.81729], [-73.87432, 40.81577], [-73.874, 40.81566], [-73.87357, 40.81562], [-73.87267, 40.81565], [-73.8716, 40.8155], [-73.87086, 40.81525], [-73.87216, 40.81496], [-73.874322, 40.814476], [-73.87699, 40.81388], [-73.87289, 40.81248], [-73.87221, 40.81169], [-73.87102, 40.80745], [-73.868467, 40.806751], [-73.86777, 40.80656], [-73.868397, 40.806432], [-73.875801, 40.804915], [-73.88554, 40.80292], [-73.88772, 40.80509], [-73.889116, 40.805822], [-73.889464, 40.806004], [-73.8906, 40.8066], [-73.894891, 40.806486], [-73.89512, 40.80648], [-73.90196, 40.80493], [-73.901991, 40.804913], [-73.90274, 40.804516], [-73.90373, 40.80399], [-73.904948, 40.802801], [-73.906224, 40.801555], [-73.906338, 40.801444], [-73.9098, 40.798064], [-73.91006, 40.79781], [-73.910085, 40.797823], [-73.91331, 40.79956], [-73.9166, 40.8011], [-73.919882, 40.800246], [-73.92025, 40.80015], [-73.92159, 40.80162], [-73.923458, 40.802178], [-73.92427, 40.80242], [-73.92374, 40.80313], [-73.92634, 40.80405], [-73.92756, 40.803]], [[-73.89064, 40.81812], [-73.88959, 40.81689], [-73.8892, 40.81643], [-73.88853, 40.8138], [-73.8907, 40.81366], [-73.8902, 40.81163], [-73.883817, 40.812589], [-73.88381, 40.81259], [-73.88448, 40.81492], [-73.88342, 40.81485], [-73.88393, 40.81724], [-73.884907, 40.81712], [-73.88532, 40.81707], [-73.88573, 40.81887], [-73.88585, 40.81966], [-73.88615, 40.82082], [-73.88938, 40.818936], [-73.88946, 40.81889], [-73.89064, 40.81812]]]]}}]}