{"type": "FeatureCollection", "features": [{"type": "Feature", "properties": {"area_id": 8420, "city": "Hartford", "state": "CT", "city_survey": true, "cat": "Best", "grade": "A", "label": "A1", "res": true, "com": false, "ind": false, "holc_grade": "A"}, "geometry": {"type": "Polygon", "coordinates": [[[-72.774583, 41.750387], [-72.77522, 41.75114], [-72.77535, 41.75131], [-72.77555, 41.75145], [-72.77618, 41.75147], [-72.7765, 41.75144], [-72.77688, 41.75147], [-72.77726, 41.7516], [-72.77752, 41.75162], [-72.7779, 41.75179], [-72.77825, 41.75212], [-72.7783, 41.75271], [-72.77838, 41.75312], [-72.77854, 41.7535], [-72.7788, 41.75379], [-72.77916, 41.75393], [-72.77957, 41.75426], [-72.77988, 41.75441], [-72.78026, 41.75452], [-72.78095, 41.75454], [-72.78117, 41.75464], [-72.7814, 41.75494], [-72.78157, 41.75533], [-72.78163, 41.75592], [-72.78163, 41.75637], [-72.78149, 41.75668], [-72.78123, 41.75702], [-72.7807, 41.7574], [-72.78043, 41.75783], [-72.78024, 41.75814], [-72.78012, 41.75846], [-72.78004, 41.75878], [-72.78009, 41.75911], [-72.7804, 41.75954], [-72.78049, 41.7598], [-72.7805, 41.7602], [-72.78031, 41.76085], [-72.77976, 41.76211], [-72.77968, 41.76234], [-72.77945, 41.76251], [-72.77915, 41.76264], [-72.77878, 41.7627], [-72.77819, 41.76296], [-72.77793, 41.76325], [-72.77785, 41.76388], [-72.77773, 41.76449], [-72.77742, 41.76532], [-72.77727, 41.76578], [-72.77721, 41.7662], [-72.77699, 41.76675], [-72.77596, 41.76986], [-72.77574, 41.77009], [-72.77524, 41.77059], [-72.77501, 41.77091], [-72.77496, 41.77137], [-72.77497, 41.77222], [-72.77494, 41.77252], [-72.77448, 41.77427], [-72.77445, 41.77447], [-72.77438, 41.776], [-72.77438, 41.77631], [-72.77428, 41.77685], [-72.77424, 41.77808], [-72.77437, 41.7797], [-72.77432, 41.78035], [-72.77426, 41.78093], [-72.77433, 41.78184], [-72.77488, 41.78307], [-72.7752, 41.78365], [-72.77556, 41.78422], [-72.77597, 41.78522], [-72.77641, 41.78613], [-72.77657, 41.78662], [-72.77671, 41.78755], [-72.77706, 41.78842], [-72.77678, 41.78953], [-72.766353, 41.789096], [-72.7662, 41.78909], [-72.766076, 41.787345], [-72.76575, 41.78276], [-72.765106, 41.773641], [-72.76496, 41.77158], [-72.76507, 41.77119], [-72.76512, 41.77079], [-72.76528, 41.77005], [-72.76535, 41.76968], [-72.76533, 41.76912], [-72.76527, 41.76869], [-72.76503, 41.76795], [-72.76498, 41.76755], [-72.76492, 41.76645], [-72.76487, 41.76611], [-72.76478, 41.76564], [-72.76483, 41.7653], [-72.76536, 41.7641], [-72.76549, 41.76374], [-72.76556, 41.76333], [-72.76556, 41.7628], [-72.765452, 41.762446], [-72.76545, 41.76244], [-72.765247, 41.76209], [-72.76413, 41.76017], [-72.76399, 41.7599], [-72.76394, 41.75959], [-72.76367, 41.75919], [-72.76362, 41.7588], [-72.76362, 41.7586], [-72.76378, 41.75774], [-72.763786, 41.75771], [-72.76383, 41.75747], [-72.76389, 41.75713], [-72.763897, 41.757105], [-72.76402, 41.75666], [-72.76402, 41.755722], [-72.76402, 41.75539], [-72.764063, 41.755377], [-72.76819, 41.75415], [-72.76992, 41.75363], [-72.77011, 41.75354], [-72.7706, 41.75324], [-72.771041, 41.752904], [-72.77359, 41.75096], [-72.77456, 41.75036], [-72.774583, 41.750387]]]}}, {"type": "Feature", "properties": {"area_id": 8428, "city": "Hartford", "state": "CT", "city_survey": true, "cat": "Best", "grade": "A", "label": "A2", "res": true, "com": false, "ind": false, "holc_grade": "A"}, "geometry": {"type": "Polygon", "coordinates": [[[-72.74759, 41.73658], [-72.74564, 41.7371], [-72.74504, 41.73737], [-72.74606, 41.74027], [-72.744427, 41.740577], [-72.74441, 41.74058], [-72.74472, 41.743], [-72.7449, 41.7438], [-72.74504, 41.74488], [-72.745082, 41.744978], [-72.74516, 41.74516], [-72.74571, 41.74505], [-72.74634, 41.74489], [-72.74653, 41.74552], [-72.74657, 41.74608], [-72.74659, 41.74703], [-72.74651, 41.74804], [-72.74642, 41.74852], [-72.74625, 41.74911], [-72.74611, 41.74947], [-72.74598, 41.75001], [-72.74668, 41.75047], [-72.7472, 41.74979], [-72.74761, 41.74933], [-72.74804, 41.74904], [-72.74914, 41.74827], [-72.74978, 41.7482], [-72.75039, 41.74821], [-72.75132, 41.74811], [-72.75225, 41.74811], [-72.75245, 41.74815], [-72.75285, 41.7482], [-72.75328, 41.7484], [-72.75403, 41.74894], [-72.75434, 41.74927], [-72.75459, 41.74961], [-72.75717, 41.74762], [-72.75796, 41.74709], [-72.75925, 41.7463], [-72.7591, 41.74593], [-72.75903, 41.74552], [-72.75887, 41.74491], [-72.75859, 41.74389], [-72.75841, 41.74289], [-72.75827, 41.74271], [-72.75822, 41.74234], [-72.758981, 41.742329], [-72.7603, 41.74231], [-72.76149, 41.74626], [-72.76041, 41.74679], [-72.76038, 41.74689], [-72.76071, 41.74816], [-72.760925, 41.749432], [-72.76096, 41.74964], [-72.76098, 41.749639], [-72.76258, 41.74957], [-72.76394, 41.75059], [-72.7639, 41.75373], [-72.76176, 41.75376], [-72.761497, 41.75379], [-72.76132, 41.75381], [-72.7561, 41.75465], [-72.75495, 41.75476], [-72.75382, 41.75492], [-72.75272, 41.75507], [-72.75244, 41.75375], [-72.74426, 41.75499], [-72.74428, 41.7557], [-72.74424, 41.75592], [-72.74408, 41.75621], [-72.743835, 41.756168], [-72.74349, 41.75611], [-72.74265, 41.75618], [-72.74003, 41.75648], [-72.73872, 41.75661], [-72.73865, 41.75661], [-72.73781, 41.75679], [-72.73774, 41.75513], [-72.73763, 41.755], [-72.73724, 41.755], [-72.73685, 41.75515], [-72.73663, 41.75515], [-72.73636, 41.75484], [-72.7363, 41.75452], [-72.736303, 41.754454], [-72.73632, 41.75405], [-72.7362, 41.75333], [-72.73599, 41.7525], [-72.73574, 41.75199], [-72.74145, 41.7507], [-72.74215, 41.75056], [-72.74139, 41.74902], [-72.74091, 41.749], [-72.74034, 41.74885], [-72.74012, 41.74873], [-72.73996, 41.74793], [-72.73962, 41.74674], [-72.73929, 41.74507], [-72.73926, 41.74477], [-72.744, 41.74363], [-72.74322, 41.74023], [-72.74305, 41.73961], [-72.74293, 41.73892], [-72.74281, 41.73866], [-72.74243, 41.73723], [-72.7422, 41.7362], [-72.74196, 41.73525], [-72.742936, 41.73501], [-72.74655, 41.73412], [-72.74706, 41.73537], [-72.74759, 41.73658]]]}}, {"type": "Feature", "properties": {"area_id": 8426, "city": "Hartford", "state": "CT", "city_survey": true, "cat": "Best", "grade": "A", "label": "A3", "res": true, "com": false, "ind": false, "holc_grade": "A"}, "geometry": {"type": "Polygon", "coordinates": [[[-72.7537, 41.76594], [-72.75382, 41.76704], [-72.75566, 41.76687], [-72.755676, 41.766968], [-72.75609, 41.76943], [-72.75041, 41.77011], [-72.75031, 41.77019], [-72.75016, 41.77062], [-72.74976, 41.7712], [-72.74973, 41.77145], [-72.74976, 41.7717], [-72.75144, 41.77705], [-72.75156, 41.77735], [-72.75173, 41.77801], [-72.75185, 41.77836], [-72.75192, 41.77869], [-72.75214, 41.77919], [-72.75211, 41.77934], [-72.75164, 41.78077], [-72.75145, 41.78126], [-72.75129, 41.78217], [-72.75119, 41.78265], [-72.75102, 41.78271], [-72.75068, 41.78263], [-72.75004, 41.78251], [-72.74966, 41.78246], [-72.74903, 41.78233], [-72.74863, 41.78216], [-72.74834, 41.78196], [-72.7472, 41.7813], [-72.74706, 41.78124], [-72.74677, 41.78118], [-72.74648, 41.78117], [-72.7462, 41.77957], [-72.746121, 41.779251], [-72.74604, 41.77892], [-72.74523, 41.77634], [-72.74518, 41.77609], [-72.74514, 41.7748], [-72.74514, 41.774185], [-72.74514, 41.773], [-72.744894, 41.773068], [-72.74467, 41.77313], [-72.74445, 41.77315], [-72.74409, 41.77316], [-72.74387, 41.77322], [-72.74364, 41.77331], [-72.7434, 41.77344], [-72.74322, 41.77363], [-72.74313, 41.77374], [-72.74289, 41.77416], [-72.74283, 41.77433], [-72.74275, 41.77462], [-72.7427, 41.77497], [-72.74261, 41.77527], [-72.74231, 41.77587], [-72.74204, 41.77624], [-72.7417, 41.77648], [-72.74124, 41.77671], [-72.74083, 41.77683], [-72.74038, 41.77689], [-72.74001, 41.77688], [-72.73933, 41.77684], [-72.73914, 41.77672], [-72.73916, 41.7765], [-72.73944, 41.77626], [-72.73949, 41.77616], [-72.73839, 41.77565], [-72.73767, 41.77519], [-72.73727, 41.77487], [-72.73723, 41.77473], [-72.7372, 41.77398], [-72.73535, 41.7738], [-72.73478, 41.77647], [-72.73362, 41.77636], [-72.73326, 41.77877], [-72.73249, 41.77876], [-72.73054, 41.77867], [-72.72937, 41.77864], [-72.727207, 41.778649], [-72.72458, 41.77866], [-72.724586, 41.778567], [-72.72473, 41.77617], [-72.72331, 41.77604], [-72.72331, 41.77547], [-72.72075, 41.77535], [-72.72078, 41.77244], [-72.72019, 41.77243], [-72.720255, 41.770399], [-72.72026, 41.77024], [-72.72105, 41.76554], [-72.72117, 41.7653], [-72.72335, 41.76518], [-72.72455, 41.765076], [-72.72462, 41.76507], [-72.725457, 41.769866], [-72.72547, 41.76994], [-72.732077, 41.76962], [-72.73518, 41.76947], [-72.73695, 41.76938], [-72.74299, 41.76918], [-72.74276, 41.76838], [-72.74265, 41.76774], [-72.742754, 41.767723], [-72.75037, 41.76644], [-72.75352, 41.76591], [-72.7537, 41.76594]]]}}, {"type": "Feature", "properties": {"area_id": 8423, "city": "Hartford", "state": "CT", "city_survey": true, "cat": "Best", "grade": "A", "label": "A4", "res": true, "com": false, "ind": false, "holc_grade": "A"}, "geometry": {"type": "MultiPolygon", "coordinates": [[[[-72.72098, 41.77827], [-72.72063, 41.77951], [-72.71797, 41.77913], [-72.71781, 41.78128], [-72.7175, 41.7834], [-72.71774, 41.78355], [-72.71723, 41.78625], [-72.71828, 41.78629], [-72.71836, 41.78691], [-72.71748, 41.78707], [-72.717485, 41.787105], [-72.71795, 41.79016], [-72.71737, 41.7902], [-72.71719, 41.79036], [-72.71717, 41.79077], [-72.71783, 41.79149], [-72.71836, 41.79148], [-72.7186, 41.79155], [-72.71897, 41.79328], [-72.71787, 41.79385], [-72.71757, 41.79392], [-72.71683, 41.79345], [-72.71591, 41.79188], [-72.71548, 41.78979], [-72.715156, 41.789544], [-72.71494, 41.78938], [-72.71463, 41.78913], [-72.71453, 41.78889], [-72.71457, 41.7886], [-72.71486, 41.78807], [-72.715114, 41.787763], [-72.71515, 41.78772], [-72.715138, 41.787606], [-72.715089, 41.787152], [-72.714563, 41.782273], [-72.714012, 41.777165], [-72.71401, 41.77715], [-72.714977, 41.77735], [-72.71676, 41.77772], [-72.72098, 41.77827]]], [[[-72.72413, 41.78469], [-72.7241, 41.78579], [-72.72994, 41.7862], [-72.729946, 41.786265], [-72.73007, 41.78759], [-72.7301, 41.7884], [-72.73033, 41.78941], [-72.73063, 41.79078], [-72.73068, 41.79201], [-72.7372, 41.79166], [-72.73764, 41.79549], [-72.72781, 41.79598], [-72.72768, 41.7949], [-72.72712, 41.79484], [-72.72711, 41.794], [-72.72614, 41.79329], [-72.72476, 41.79246], [-72.72408, 41.79202], [-72.72385, 41.79174], [-72.7238, 41.79031], [-72.72366, 41.79013], [-72.72252, 41.79003], [-72.72212, 41.78991], [-72.721, 41.78816], [-72.72006, 41.78813], [-72.72005, 41.78774], [-72.71987, 41.78716], [-72.71983, 41.7868], [-72.72055, 41.7866], [-72.720556, 41.786576], [-72.72273, 41.77843], [-72.72458, 41.77866], [-72.7243, 41.782], [-72.72413, 41.78469]]]]}}, {"type": "Feature", "properties": {"area_id": 8422, "city": "Hartford", "state": "CT", "city_survey": true, "cat": "Best", "grade": "A", "label": "A5", "res": true, "com": false, "ind": false, "holc_grade": "A"}, "geometry": {"type": "Polygon", "coordinates": [[[-72.73326, 41.77877], [-72.74208, 41.77894], [-72.74288, 41.77905], [-72.74396, 41.77898], [-72.74604, 41.77892], [-72.746121, 41.779251], [-72.7462, 41.77957], [-72.74648, 41.78117], [-72.74668, 41.7823], [-72.74697, 41.78367], [-72.74712, 41.78455], [-72.74721, 41.78554], [-72.74805, 41.78525], [-72.74896, 41.78501], [-72.74994, 41.78483], [-72.75131, 41.78465], [-72.75317, 41.78453], [-72.75539, 41.78444], [-72.75705, 41.78424], [-72.76085, 41.78362], [-72.76575, 41.78276], [-72.766076, 41.787345], [-72.7662, 41.78909], [-72.76675, 41.79842], [-72.76719, 41.79972], [-72.76685, 41.80103], [-72.767038, 41.805284], [-72.76704, 41.80532], [-72.751808, 41.805742], [-72.750928, 41.805766], [-72.72272, 41.806548], [-72.71796, 41.80668], [-72.717955, 41.806589], [-72.717818, 41.804259], [-72.7178, 41.80395], [-72.71758, 41.80214], [-72.717445, 41.801223], [-72.71739, 41.80085], [-72.71725, 41.7999], [-72.71707, 41.79874], [-72.71703, 41.7985], [-72.71591, 41.79188], [-72.71683, 41.79345], [-72.71757, 41.79392], [-72.71787, 41.79385], [-72.71803, 41.79403], [-72.72113, 41.79606], [-72.7273, 41.79797], [-72.72731, 41.79731], [-72.72793, 41.79727], [-72.72781, 41.79598], [-72.73764, 41.79549], [-72.7372, 41.79166], [-72.73068, 41.79201], [-72.73063, 41.79078], [-72.73033, 41.78941], [-72.7301, 41.7884], [-72.73007, 41.78759], [-72.729946, 41.786265], [-72.72994, 41.7862], [-72.7241, 41.78579], [-72.72413, 41.78469], [-72.7243, 41.782], [-72.72458, 41.77866], [-72.727207, 41.778649], [-72.72937, 41.77864], [-72.73054, 41.77867], [-72.73249, 41.77876], [-72.73326, 41.77877]]]}}, {"type": "Feature", "properties": {"area_id": 8425, "city": "Hartford", "state": "CT", "city_survey": true, "cat": "Best", "grade": "A", "label": "A6", "res": true, "com": false, "ind": false, "holc_grade": "A"}, "geometry": {"type": "Polygon", "coordinates": [[[-72.70958, 41.78518], [-72.709651, 41.785222], [-72.7099, 41.78537], [-72.711542, 41.786189], [-72.7131449886842, 41.78698799747499], [-72.712903, 41.786934], [-72.713145, 41.786988], [-72.713147, 41.786989], [-72.71333, 41.78708], [-72.7135, 41.78729], [-72.71453, 41.78889], [-72.71463, 41.78913], [-72.71494, 41.78938], [-72.715156, 41.789544], [-72.71548, 41.78979], [-72.71591, 41.79188], [-72.71703, 41.7985], [-72.716612, 41.798509], [-72.71658, 41.79851], [-72.71631, 41.79867], [-72.71591, 41.79892], [-72.71545, 41.79899], [-72.71509, 41.79899], [-72.71472, 41.79889], [-72.7144, 41.79871], [-72.7138, 41.79806], [-72.71346, 41.79789], [-72.71312, 41.79765], [-72.71309, 41.79747], [-72.7129, 41.79714], [-72.71263, 41.79684], [-72.71182, 41.79613], [-72.71151, 41.79596], [-72.71102, 41.79581], [-72.71101, 41.79563], [-72.71115, 41.79547], [-72.71122, 41.79515], [-72.71122, 41.79491], [-72.71118, 41.79451], [-72.7109, 41.79412], [-72.7109, 41.7938], [-72.71077, 41.79354], [-72.71058, 41.79327], [-72.71026, 41.79282], [-72.71012, 41.79248], [-72.71004, 41.7921], [-72.71007, 41.79182], [-72.71022, 41.7914], [-72.71026, 41.79109], [-72.71022, 41.7902], [-72.71009, 41.78973], [-72.70985, 41.78943], [-72.70958, 41.78916], [-72.70946, 41.78888], [-72.70934, 41.78835], [-72.70909, 41.78804], [-72.70881, 41.78767], [-72.70855, 41.78738], [-72.70821, 41.78723], [-72.70804, 41.78702], [-72.70806, 41.78684], [-72.7084, 41.78669], [-72.70904, 41.7865], [-72.70918, 41.78633], [-72.70891, 41.786], [-72.70884, 41.78576], [-72.70876, 41.78511], [-72.70922, 41.78515], [-72.709429, 41.785167], [-72.70958, 41.78518]]]}}, {"type": "Feature", "properties": {"area_id": 8424, "city": "Hartford", "state": "CT", "city_survey": true, "cat": "Best", "grade": "A", "label": "A7", "res": true, "com": false, "ind": false, "holc_grade": "A"}, "geometry": {"type": "Polygon", "coordinates": [[[-72.70674, 41.7729], [-72.7077, 41.7729], [-72.711502, 41.773799], [-72.71485, 41.77459], [-72.714219, 41.776512], [-72.71401, 41.77715], [-72.714012, 41.777165], [-72.714563, 41.782273], [-72.715089, 41.787152], [-72.715138, 41.787606], [-72.71515, 41.78772], [-72.715114, 41.787763], [-72.71486, 41.78807], [-72.71457, 41.7886], [-72.71453, 41.78889], [-72.7135, 41.78729], [-72.71333, 41.78708], [-72.713147, 41.786989], [-72.711542, 41.786189], [-72.7099, 41.78537], [-72.709651, 41.785222], [-72.70958, 41.78518], [-72.709429, 41.785167], [-72.70922, 41.78515], [-72.70876, 41.78511], [-72.708646, 41.784981], [-72.70629, 41.78231], [-72.70633, 41.78203], [-72.70657, 41.78183], [-72.70688, 41.7817], [-72.70717, 41.78165], [-72.70738, 41.78149], [-72.70774, 41.78117], [-72.70787, 41.78086], [-72.70783, 41.78075], [-72.70717, 41.77948], [-72.70674, 41.77803], [-72.70658, 41.77784], [-72.70635, 41.77762], [-72.70612, 41.77752], [-72.70588, 41.77755], [-72.70569, 41.77767], [-72.70568, 41.77785], [-72.70572, 41.77838], [-72.70569, 41.77887], [-72.70559, 41.77927], [-72.70536, 41.77954], [-72.70508, 41.77985], [-72.70443, 41.78034], [-72.70378, 41.7805], [-72.70358, 41.78043], [-72.70354, 41.7803], [-72.7036, 41.78009], [-72.70386, 41.77962], [-72.70391, 41.77937], [-72.70377, 41.77916], [-72.70361, 41.7791], [-72.70326, 41.77911], [-72.70301, 41.77941], [-72.70273, 41.77942], [-72.70269, 41.77923], [-72.70277, 41.77894], [-72.70271, 41.77862], [-72.70222, 41.77826], [-72.70223, 41.77785], [-72.70235, 41.77757], [-72.70231, 41.77721], [-72.7017, 41.77667], [-72.70172, 41.7764], [-72.70266, 41.77481], [-72.70282, 41.7741], [-72.70301, 41.77375], [-72.70343, 41.77349], [-72.70368, 41.77349], [-72.703917, 41.773318], [-72.70401, 41.77325], [-72.70438, 41.77312], [-72.70568, 41.77319], [-72.70674, 41.7729]]]}}, {"type": "Feature", "properties": {"area_id": 6420, "city": "Hartford", "state": "CT", "city_survey": true, "cat": "Best", "grade": "A", "label": "A8", "res": true, "com": false, "ind": false, "holc_grade": "A"}, "geometry": {"type": "Polygon", "coordinates": [[[-72.5913, 41.77002], [-72.59103, 41.76868], [-72.59105, 41.76833], [-72.59058, 41.76465], [-72.59029, 41.76179], [-72.59345, 41.76158], [-72.5941, 41.76604], [-72.59383, 41.76831], [-72.59353, 41.76979], [-72.5913, 41.77002]]]}}, {"type": "Feature", "properties": {"area_id": 8427, "city": "Hartford", "state": "CT", "city_survey": true, "cat": "Still Desirable", "grade": "B", "label": "B1", "res": true, "com": false, "ind": false, "holc_grade": "B"}, "geometry": {"type": "Polygon", "coordinates": [[[-72.764017, 41.755352], [-72.76402, 41.75539], [-72.76402, 41.755722], [-72.76402, 41.75666], [-72.763897, 41.757105], [-72.76389, 41.75713], [-72.76383, 41.75747], [-72.76262, 41.7579], [-72.75335, 41.76094], [-72.75393, 41.76279], [-72.75235, 41.76373], [-72.7514, 41.76407], [-72.74968, 41.76443], [-72.75009, 41.76543], [-72.75037, 41.76644], [-72.742754, 41.767723], [-72.74265, 41.76774], [-72.74257, 41.76679], [-72.7423, 41.76566], [-72.74229, 41.7652], [-72.74216, 41.7648], [-72.7418, 41.76334], [-72.74178, 41.76273], [-72.74174, 41.76233], [-72.741822, 41.762083], [-72.741852, 41.761994], [-72.7422, 41.76095], [-72.74227, 41.7606], [-72.74264, 41.75938], [-72.74293, 41.75879], [-72.74303, 41.75815], [-72.74363, 41.75702], [-72.744, 41.75636], [-72.74408, 41.75621], [-72.74424, 41.75592], [-72.74428, 41.7557], [-72.74426, 41.75499], [-72.75244, 41.75375], [-72.75272, 41.75507], [-72.75382, 41.75492], [-72.75495, 41.75476], [-72.7561, 41.75465], [-72.76132, 41.75381], [-72.761497, 41.75379], [-72.76176, 41.75376], [-72.7639, 41.75373], [-72.764017, 41.755352]]]}}, {"type": "Feature", "properties": {"area_id": 8429, "city": "Hartford", "state": "CT", "city_survey": true, "cat": "Still Desirable", "grade": "B", "label": "B2", "res": true, "com": false, "ind": false, "holc_grade": "B"}, "geometry": {"type": "Polygon", "coordinates": [[[-72.74303, 41.75815], [-72.74293, 41.75879], [-72.74264, 41.75938], [-72.74227, 41.7606], [-72.7422, 41.76095], [-72.741852, 41.761994], [-72.741822, 41.762083], [-72.74174, 41.76233], [-72.74178, 41.76273], [-72.7418, 41.76334], [-72.74216, 41.7648], [-72.74229, 41.7652], [-72.7423, 41.76566], [-72.74257, 41.76679], [-72.74265, 41.76774], [-72.74276, 41.76838], [-72.74299, 41.76918], [-72.73695, 41.76938], [-72.73518, 41.76947], [-72.732077, 41.76962], [-72.72547, 41.76994], [-72.725457, 41.769866], [-72.72462, 41.76507], [-72.72455, 41.765076], [-72.72335, 41.76518], [-72.72117, 41.7653], [-72.72105, 41.76554], [-72.72026, 41.77024], [-72.720255, 41.770399], [-72.72019, 41.77243], [-72.71793, 41.77234], [-72.71722, 41.77513], [-72.714933, 41.774609], [-72.71485, 41.77459], [-72.71641, 41.7704], [-72.716009, 41.765637], [-72.71597, 41.76518], [-72.716077, 41.765171], [-72.71743, 41.76506], [-72.719, 41.76498], [-72.72017, 41.76488], [-72.71976, 41.75982], [-72.72715, 41.75896], [-72.72915, 41.75855], [-72.73432, 41.75738], [-72.73529, 41.75721], [-72.73624, 41.75702], [-72.73781, 41.75679], [-72.73865, 41.75661], [-72.73872, 41.75661], [-72.74003, 41.75648], [-72.74265, 41.75618], [-72.74349, 41.75611], [-72.743835, 41.756168], [-72.74408, 41.75621], [-72.744, 41.75636], [-72.74363, 41.75702], [-72.74303, 41.75815]]]}}, {"type": "Feature", "properties": {"area_id": 8430, "city": "Hartford", "state": "CT", "city_survey": true, "cat": "Still Desirable", "grade": "B", "label": "B3", "res": true, "com": false, "ind": false, "holc_grade": "B"}, "geometry": {"type": "Polygon", "coordinates": [[[-72.71597, 41.76518], [-72.716009, 41.765637], [-72.71641, 41.7704], [-72.71485, 41.77459], [-72.711502, 41.773799], [-72.7077, 41.7729], [-72.70674, 41.7729], [-72.70568, 41.77319], [-72.70438, 41.77312], [-72.70401, 41.77325], [-72.703917, 41.773318], [-72.70368, 41.77349], [-72.70343, 41.77349], [-72.70301, 41.77375], [-72.70282, 41.7741], [-72.70266, 41.77481], [-72.70172, 41.7764], [-72.7017, 41.77667], [-72.70231, 41.77721], [-72.70235, 41.77757], [-72.70223, 41.77785], [-72.70222, 41.77826], [-72.70271, 41.77862], [-72.70277, 41.77894], [-72.70269, 41.77923], [-72.70273, 41.77942], [-72.70301, 41.77941], [-72.70326, 41.77911], [-72.70361, 41.7791], [-72.70377, 41.77916], [-72.70391, 41.77937], [-72.70386, 41.77962], [-72.7036, 41.78009], [-72.70354, 41.7803], [-72.70358, 41.78043], [-72.70378, 41.7805], [-72.70443, 41.78034], [-72.70508, 41.77985], [-72.70536, 41.77954], [-72.70559, 41.77927], [-72.70569, 41.77887], [-72.70572, 41.77838], [-72.70568, 41.77785], [-72.70569, 41.77767], [-72.70588, 41.77755], [-72.70612, 41.77752], [-72.70635, 41.77762], [-72.70658, 41.77784], [-72.70674, 41.77803], [-72.70717, 41.77948], [-72.70783, 41.78075], [-72.70787, 41.78086], [-72.70774, 41.78117], [-72.70738, 41.78149], [-72.70717, 41.78165], [-72.70688, 41.7817], [-72.70657, 41.78183], [-72.70633, 41.78203], [-72.70629, 41.78231], [-72.708646, 41.784981], [-72.70876, 41.78511], [-72.70479, 41.78489], [-72.704706, 41.784621], [-72.70437, 41.78354], [-72.70403, 41.78258], [-72.70351, 41.7818], [-72.7031, 41.7813], [-72.70222, 41.78039], [-72.70173, 41.77998], [-72.70104, 41.77958], [-72.70052, 41.77922], [-72.69872, 41.77809], [-72.6986, 41.77786], [-72.69887, 41.77704], [-72.69965, 41.774657], [-72.699755, 41.774337], [-72.69976, 41.77432], [-72.697812, 41.774022], [-72.69643, 41.77381], [-72.696434, 41.773799], [-72.697249, 41.771333], [-72.69725, 41.77133], [-72.69868, 41.77171], [-72.69949, 41.76778], [-72.69993, 41.76778], [-72.699948, 41.767718], [-72.70008, 41.76726], [-72.70608, 41.76657], [-72.70692, 41.76641], [-72.70936, 41.76591], [-72.710891, 41.765801], [-72.71147, 41.76576], [-72.71244, 41.76563], [-72.71296, 41.76557], [-72.71597, 41.76518]]]}}, {"type": "Feature", "properties": {"area_id": 8441, "city": "Hartford", "state": "CT", "city_survey": true, "cat": "Still Desirable", "grade": "B", "label": "B4", "res": true, "com": false, "ind": false, "holc_grade": "B"}, "geometry": {"type": "MultiPolygon", "coordinates": [[[[-72.69097, 41.72756], [-72.691175, 41.727549], [-72.69175, 41.72752], [-72.69304, 41.72737], [-72.69342, 41.73348], [-72.6933, 41.73569], [-72.69334, 41.73693], [-72.69342, 41.73766], [-72.69353, 41.73792], [-72.69289, 41.737935], [-72.69267, 41.73794], [-72.692943, 41.740844], [-72.69304, 41.74187], [-72.692187, 41.742354], [-72.69186, 41.74254], [-72.69101, 41.74169], [-72.6909, 41.74052], [-72.69081, 41.73891], [-72.69066, 41.73845], [-72.6906, 41.7372], [-72.69041, 41.73679], [-72.690139, 41.735512], [-72.69012, 41.73542], [-72.68997, 41.73507], [-72.68931, 41.73036], [-72.69097, 41.72756]]], [[[-72.70111, 41.72963], [-72.701, 41.72916], [-72.70098, 41.72849], [-72.70198, 41.7286], [-72.70403, 41.72885], [-72.70506, 41.72898], [-72.705202, 41.730063], [-72.70525, 41.73043], [-72.70568, 41.733258], [-72.70568, 41.73326], [-72.70561, 41.73327], [-72.70288, 41.73376], [-72.70233, 41.73389], [-72.702144, 41.733903], [-72.70161, 41.73394], [-72.70138, 41.73145], [-72.70128, 41.73042], [-72.70111, 41.72963]]], [[[-72.71178, 41.72906], [-72.71185, 41.73227], [-72.70803, 41.73316], [-72.70677, 41.73321], [-72.70797, 41.73127], [-72.70824, 41.73085], [-72.70912, 41.72897], [-72.70951, 41.72906], [-72.71037, 41.72902], [-72.71146, 41.72902], [-72.71178, 41.72906]]]]}}, {"type": "Feature", "properties": {"area_id": 8439, "city": "Hartford", "state": "CT", "city_survey": true, "cat": "Still Desirable", "grade": "B", "label": "B5", "res": true, "com": false, "ind": false, "holc_grade": "B"}, "geometry": {"type": "MultiPolygon", "coordinates": [[[[-72.67514, 41.79826], [-72.67502, 41.7984], [-72.67489, 41.79986], [-72.6733, 41.79971], [-72.67135, 41.79952], [-72.66854, 41.7993], [-72.66704, 41.79916], [-72.66671, 41.79917], [-72.66625, 41.7996], [-72.66598, 41.80028], [-72.6632, 41.80169], [-72.662855, 41.8017], [-72.66072, 41.80176], [-72.660953, 41.80137], [-72.66223, 41.79923], [-72.66313, 41.79605], [-72.675996, 41.797649], [-72.68051, 41.79821], [-72.6802, 41.79916], [-72.67582, 41.798294], [-72.6757, 41.79827], [-72.67514, 41.79826]]], [[[-72.70516, 41.78828], [-72.7052, 41.7884], [-72.705224, 41.788723], [-72.70527, 41.78936], [-72.70542, 41.79002], [-72.70546, 41.79111], [-72.70558, 41.79169], [-72.70574, 41.79268], [-72.70583, 41.79321], [-72.70587, 41.79373], [-72.70595, 41.79413], [-72.70603, 41.79433], [-72.70624, 41.79575], [-72.70646, 41.79882], [-72.70652, 41.79911], [-72.706616, 41.799984], [-72.70669, 41.80065], [-72.706798, 41.801744], [-72.70681, 41.80187], [-72.70687, 41.80239], [-72.70686, 41.80277], [-72.70688, 41.80328], [-72.70693, 41.80385], [-72.70688, 41.80586], [-72.70689, 41.80695], [-72.70207, 41.80703], [-72.702071, 41.807079], [-72.70212, 41.81005], [-72.69606, 41.81004], [-72.696, 41.81007], [-72.69611, 41.81092], [-72.69587, 41.81094], [-72.695083, 41.81094], [-72.68925, 41.81094], [-72.68886, 41.80481], [-72.691047, 41.804756], [-72.69169, 41.80474], [-72.690292, 41.800879], [-72.69022, 41.80068], [-72.69017, 41.80038], [-72.69006, 41.796047], [-72.69006, 41.79604], [-72.690335, 41.796045], [-72.69423, 41.79612], [-72.69424, 41.796], [-72.69426, 41.7947], [-72.69532, 41.79197], [-72.695787, 41.787304], [-72.69584, 41.78677], [-72.69586, 41.786776], [-72.696309, 41.786909], [-72.69804, 41.78742], [-72.698572, 41.787444], [-72.69871, 41.78745], [-72.69979, 41.78739], [-72.70112, 41.78732], [-72.70176, 41.7871], [-72.702212, 41.786918], [-72.70233, 41.78687], [-72.702914, 41.786532], [-72.70309, 41.78643], [-72.7033, 41.78621], [-72.70336, 41.78591], [-72.70362, 41.78539], [-72.70404, 41.78488], [-72.704176, 41.78488], [-72.70445, 41.78488], [-72.70533, 41.78769], [-72.70533, 41.78783], [-72.70516, 41.78828]]]]}}, {"type": "Feature", "properties": {"area_id": 6418, "city": "Hartford", "state": "CT", "city_survey": true, "cat": "Still Desirable", "grade": "B", "label": "B6", "res": true, "com": false, "ind": false, "holc_grade": "B"}, "geometry": {"type": "MultiPolygon", "coordinates": [[[[-72.61396, 41.77656], [-72.61627, 41.77634], [-72.61634, 41.77832], [-72.61361, 41.77887], [-72.61345, 41.77699], [-72.6137, 41.77703], [-72.61388, 41.77692], [-72.61396, 41.77656]]], [[[-72.64719, 41.77413], [-72.64309, 41.77335], [-72.64359, 41.7723], [-72.64419, 41.77239], [-72.64486, 41.77091], [-72.64776, 41.77078], [-72.64931, 41.77115], [-72.64833, 41.77243], [-72.64738, 41.77365], [-72.64719, 41.77413]]], [[[-72.65137, 41.76714], [-72.64592, 41.76776], [-72.64723, 41.76542], [-72.64843, 41.76536], [-72.65067, 41.7652], [-72.65109, 41.76635], [-72.65137, 41.76714]]]]}}, {"type": "Feature", "properties": {"area_id": 8421, "city": "Hartford", "state": "CT", "city_survey": true, "cat": "Definitely Declining", "grade": "C", "label": "C1", "res": true, "com": false, "ind": false, "holc_grade": "C"}, "geometry": {"type": "Polygon", "coordinates": [[[-72.7688, 41.74968], [-72.769, 41.74919], [-72.77386, 41.74833], [-72.77532, 41.74801], [-72.77791, 41.74739], [-72.77887, 41.74729], [-72.77456, 41.75036], [-72.77359, 41.75096], [-72.771041, 41.752904], [-72.7706, 41.75324], [-72.77011, 41.75354], [-72.76992, 41.75363], [-72.76819, 41.75415], [-72.768181, 41.754106], [-72.76809, 41.75363], [-72.7688, 41.74968]]]}}, {"type": "Feature", "properties": {"area_id": 6417, "city": "Hartford", "state": "CT", "city_survey": true, "cat": "Definitely Declining", "grade": "C", "label": "C10", "res": true, "com": false, "ind": false, "holc_grade": "C"}, "geometry": {"type": "MultiPolygon", "coordinates": [[[[-72.61647, 41.72939], [-72.61574, 41.72864], [-72.61518, 41.72799], [-72.6171, 41.72776], [-72.61787, 41.72853], [-72.61858, 41.72896], [-72.61946, 41.72934], [-72.62036, 41.72941], [-72.62163, 41.72935], [-72.62391, 41.73091], [-72.62501, 41.73174], [-72.6263, 41.73151], [-72.62797, 41.73131], [-72.62731, 41.72933], [-72.62645, 41.7266], [-72.6281, 41.72644], [-72.62875, 41.72827], [-72.62934, 41.73054], [-72.62958, 41.73123], [-72.62994, 41.73166], [-72.63149, 41.73314], [-72.63209, 41.73378], [-72.63258, 41.73458], [-72.63273, 41.73505], [-72.63348, 41.73727], [-72.63384, 41.73805], [-72.63472, 41.74023], [-72.63483, 41.74105], [-72.634729, 41.7419], [-72.63467, 41.7424], [-72.63464, 41.74379], [-72.63479, 41.74411], [-72.63676, 41.74639], [-72.63896, 41.74899], [-72.63964, 41.74979], [-72.63988, 41.75028], [-72.64009, 41.75093], [-72.64061, 41.75156], [-72.64168, 41.75284], [-72.64248, 41.75378], [-72.64344, 41.75492], [-72.64473, 41.7565], [-72.64614, 41.75827], [-72.64754, 41.76003], [-72.648114, 41.760821], [-72.64828, 41.76105], [-72.64921, 41.76232], [-72.64895, 41.76298], [-72.6493, 41.76305], [-72.64992, 41.76303], [-72.65107, 41.76299], [-72.651, 41.7639], [-72.65081, 41.76458], [-72.65067, 41.7652], [-72.64843, 41.76536], [-72.64723, 41.76542], [-72.64735, 41.76512], [-72.646307, 41.764965], [-72.64614, 41.76494], [-72.64446, 41.76746], [-72.64124, 41.77208], [-72.63876, 41.77562], [-72.63844, 41.77552], [-72.63411, 41.776], [-72.63334, 41.77618], [-72.62566, 41.77861], [-72.62121, 41.78008], [-72.61813, 41.78107], [-72.61738, 41.78129], [-72.612475, 41.782711], [-72.61172, 41.78293], [-72.61153, 41.78298], [-72.60775, 41.78398], [-72.60598, 41.7844], [-72.60162, 41.78537], [-72.59361, 41.78714], [-72.59271, 41.78731], [-72.59167, 41.78745], [-72.59055, 41.78742], [-72.58938, 41.7873], [-72.58874, 41.78715], [-72.58832, 41.78678], [-72.58814, 41.78628], [-72.58501, 41.78675], [-72.58461, 41.78525], [-72.58427, 41.78369], [-72.584885, 41.782629], [-72.58511, 41.78224], [-72.58777, 41.77783], [-72.58849, 41.77699], [-72.59114, 41.77797], [-72.59148, 41.78043], [-72.59167, 41.78079], [-72.59192, 41.78103], [-72.59235, 41.78121], [-72.59278, 41.78138], [-72.59301, 41.78164], [-72.59309, 41.78194], [-72.59299, 41.78239], [-72.593069, 41.782529], [-72.59311, 41.7826], [-72.59346, 41.7828], [-72.59413, 41.78278], [-72.59523, 41.78278], [-72.59582, 41.78249], [-72.5961, 41.782239], [-72.5963, 41.78206], [-72.59679, 41.78137], [-72.59689, 41.78094], [-72.596858, 41.780747], [-72.59681, 41.78045], [-72.59667, 41.78007], [-72.59665, 41.77967], [-72.59665, 41.77943], [-72.59679, 41.77928], [-72.596886, 41.779243], [-72.59715, 41.77914], [-72.5977, 41.77916], [-72.59826, 41.77927], [-72.598398, 41.779377], [-72.59876, 41.77966], [-72.59901, 41.77966], [-72.59899, 41.78001], [-72.5992, 41.78022], [-72.60037, 41.78042], [-72.60069, 41.78028], [-72.60112, 41.78045], [-72.601329, 41.780326], [-72.60139, 41.78029], [-72.601528, 41.780334], [-72.6017, 41.78039], [-72.60219, 41.78022], [-72.60261, 41.77996], [-72.60252, 41.77954], [-72.60216, 41.77907], [-72.60639, 41.77857], [-72.606128, 41.777197], [-72.605988, 41.776464], [-72.60597, 41.77637], [-72.60653, 41.77595], [-72.60671, 41.77567], [-72.60656, 41.77471], [-72.604383, 41.774949], [-72.60383, 41.77501], [-72.60362, 41.77442], [-72.6034, 41.77408], [-72.60311, 41.77371], [-72.60269, 41.7734], [-72.60204, 41.77321], [-72.60167, 41.77302], [-72.60138, 41.77236], [-72.600963, 41.771376], [-72.60088, 41.77118], [-72.60045, 41.77041], [-72.60018, 41.76969], [-72.59993, 41.76868], [-72.59958, 41.76726], [-72.59936, 41.76603], [-72.59896, 41.76494], [-72.600132, 41.764822], [-72.60114, 41.76472], [-72.60142, 41.7656], [-72.60164, 41.76671], [-72.60182, 41.76795], [-72.60198, 41.76913], [-72.60223, 41.76996], [-72.60246, 41.77061], [-72.60276, 41.77105], [-72.60306, 41.77133], [-72.60355, 41.7716], [-72.60393, 41.77188], [-72.60413, 41.7722], [-72.60431, 41.77272], [-72.60815, 41.77218], [-72.60864, 41.77428], [-72.60887, 41.77555], [-72.60888, 41.775581], [-72.60912, 41.77632], [-72.6102, 41.77646], [-72.61094, 41.77666], [-72.61192, 41.7769], [-72.612149, 41.776948], [-72.61216, 41.77695], [-72.612449, 41.77691], [-72.61252, 41.7769], [-72.6128, 41.7769], [-72.61329, 41.77697], [-72.61345, 41.77699], [-72.61361, 41.77887], [-72.61634, 41.77832], [-72.61627, 41.77634], [-72.62018, 41.77607], [-72.62458, 41.77585], [-72.62506, 41.77506], [-72.62529, 41.77429], [-72.62524, 41.77373], [-72.63086, 41.77291], [-72.63695, 41.77202], [-72.63665, 41.76869], [-72.63721, 41.76841], [-72.63984, 41.76798], [-72.63974, 41.76667], [-72.64512, 41.76595], [-72.64608, 41.76379], [-72.64523, 41.76206], [-72.644954, 41.761547], [-72.64457, 41.76083], [-72.63943, 41.76164], [-72.63182, 41.76282], [-72.62542, 41.76375], [-72.62248, 41.76327], [-72.62246, 41.76213], [-72.62539, 41.76248], [-72.63115, 41.7617], [-72.63042, 41.758], [-72.63046, 41.75731], [-72.63037, 41.75673], [-72.63068, 41.75655], [-72.63111, 41.75606], [-72.63166, 41.7555], [-72.63073, 41.75289], [-72.6347, 41.75236], [-72.63914, 41.75183], [-72.63789, 41.74898], [-72.63525, 41.74652], [-72.63413, 41.74665], [-72.63303, 41.74526], [-72.631942, 41.743026], [-72.63154, 41.7422], [-72.630455, 41.739992], [-72.62949, 41.73803], [-72.62883, 41.73752], [-72.62832, 41.73693], [-72.62774, 41.7362], [-72.62611, 41.73486], [-72.62537, 41.73419], [-72.624322, 41.733941], [-72.62398, 41.73386], [-72.62366, 41.73366], [-72.622976, 41.732908], [-72.62245, 41.73233], [-72.62182, 41.73194], [-72.61953, 41.73075], [-72.61684, 41.72963], [-72.61647, 41.72939]], [[-72.63603, 41.75809], [-72.63438, 41.7583], [-72.6352, 41.76104], [-72.63677, 41.76082], [-72.63603, 41.75809]], [[-72.63848, 41.75778], [-72.63875, 41.75862], [-72.63924, 41.76042], [-72.64367, 41.75977], [-72.64295, 41.75835], [-72.64226, 41.75734], [-72.63848, 41.75778]]], [[[-72.64213, 41.77853], [-72.63972, 41.77882], [-72.63989, 41.78012], [-72.63884, 41.7827], [-72.63599, 41.78282], [-72.63378, 41.78706], [-72.63443, 41.78856], [-72.63042, 41.78987], [-72.629796, 41.789733], [-72.62864, 41.78948], [-72.63044, 41.78795], [-72.63101, 41.78678], [-72.63224, 41.78443], [-72.62599, 41.78527], [-72.62596, 41.78504], [-72.62641, 41.78441], [-72.62943, 41.78003], [-72.63045, 41.77893], [-72.63145, 41.77806], [-72.632384, 41.777457], [-72.63269, 41.77726], [-72.63339, 41.77694], [-72.63418, 41.77656], [-72.63728, 41.77622], [-72.639028, 41.776064], [-72.642084, 41.775791], [-72.64634, 41.77541], [-72.64657, 41.77548], [-72.64213, 41.77853]]], [[[-72.64309, 41.77335], [-72.64719, 41.77413], [-72.64698, 41.77475], [-72.64307, 41.7751], [-72.64038, 41.77539], [-72.64087, 41.77471], [-72.64384, 41.77097], [-72.64459, 41.77], [-72.64965, 41.76991], [-72.64949, 41.77081], [-72.64931, 41.77115], [-72.64776, 41.77078], [-72.64486, 41.77091], [-72.64419, 41.77239], [-72.64359, 41.7723], [-72.64309, 41.77335]]], [[[-72.64524, 41.76898], [-72.64592, 41.76776], [-72.65137, 41.76714], [-72.65155, 41.76743], [-72.65149, 41.76773], [-72.65109, 41.76807], [-72.65073, 41.76872], [-72.64524, 41.76898]]]]}}, {"type": "Feature", "properties": {"area_id": 8432, "city": "Hartford", "state": "CT", "city_survey": true, "cat": "Definitely Declining", "grade": "C", "label": "C2", "res": true, "com": false, "ind": false, "holc_grade": "C"}, "geometry": {"type": "MultiPolygon", "coordinates": [[[[-72.73001, 41.74034], [-72.72971, 41.73901], [-72.729686, 41.738731], [-72.72963, 41.738102], [-72.72959, 41.73764], [-72.72909, 41.73763], [-72.72759, 41.73736], [-72.72498, 41.73723], [-72.7212, 41.7369], [-72.72448, 41.73261], [-72.72485, 41.7332], [-72.72543, 41.73364], [-72.72617, 41.73401], [-72.72688, 41.73425], [-72.72673, 41.73439], [-72.72642, 41.73447], [-72.72631, 41.73482], [-72.72655, 41.73494], [-72.72731, 41.73502], [-72.72781, 41.73504], [-72.7286, 41.73541], [-72.72901, 41.73571], [-72.72934, 41.73577], [-72.72964, 41.73599], [-72.72981, 41.73615], [-72.73016, 41.73612], [-72.730321, 41.736314], [-72.73061, 41.73666], [-72.73091, 41.73698], [-72.73115, 41.73765], [-72.73154, 41.73851], [-72.73178, 41.73913], [-72.73192, 41.73994], [-72.73213, 41.74011], [-72.73268, 41.74041], [-72.73313, 41.74082], [-72.73337, 41.74134], [-72.7334, 41.74209], [-72.7335, 41.7431], [-72.73349, 41.74392], [-72.73352, 41.74425], [-72.73369, 41.74469], [-72.73378, 41.74524], [-72.73386, 41.74559], [-72.73409, 41.746], [-72.734348, 41.746525], [-72.73437, 41.74657], [-72.73449, 41.74697], [-72.73445, 41.74744], [-72.73428, 41.74782], [-72.7343, 41.7482], [-72.73457, 41.74848], [-72.73498, 41.74879], [-72.73535, 41.74904], [-72.73555, 41.74927], [-72.73552, 41.74945], [-72.73508, 41.74998], [-72.73491, 41.75023], [-72.73486, 41.75067], [-72.73489, 41.75101], [-72.73503, 41.75129], [-72.73541, 41.75185], [-72.73574, 41.75199], [-72.73599, 41.7525], [-72.7362, 41.75333], [-72.73632, 41.75405], [-72.736303, 41.754454], [-72.7363, 41.75452], [-72.73636, 41.75484], [-72.73663, 41.75515], [-72.73685, 41.75515], [-72.73724, 41.755], [-72.73763, 41.755], [-72.73774, 41.75513], [-72.73781, 41.75679], [-72.73624, 41.75702], [-72.73529, 41.75721], [-72.73432, 41.75738], [-72.72915, 41.75855], [-72.72715, 41.75896], [-72.71976, 41.75982], [-72.71848, 41.75996], [-72.71783, 41.76003], [-72.71632, 41.76019], [-72.715329, 41.760107], [-72.71525, 41.7601], [-72.71518, 41.75951], [-72.715053, 41.758382], [-72.715039, 41.758264], [-72.714934, 41.757331], [-72.7149, 41.75703], [-72.71597, 41.75736], [-72.71903, 41.758], [-72.72034, 41.75832], [-72.720394, 41.757619], [-72.72043, 41.75716], [-72.71821, 41.75656], [-72.71867, 41.7552], [-72.72214, 41.75535], [-72.72202, 41.75374], [-72.721688, 41.749851], [-72.72166, 41.74952], [-72.71825, 41.74932], [-72.715161, 41.749143], [-72.71475, 41.74912], [-72.71471, 41.74532], [-72.714962, 41.745023], [-72.71605, 41.74374], [-72.71687, 41.74279], [-72.71716, 41.742367], [-72.71983, 41.73847], [-72.72064, 41.74251], [-72.725621, 41.742808], [-72.728, 41.74295], [-72.72934, 41.74299], [-72.729462, 41.742986], [-72.73016, 41.742961], [-72.73019, 41.74296], [-72.73033, 41.74221], [-72.73037, 41.7415], [-72.73028, 41.74091], [-72.730278, 41.740906], [-72.73001, 41.74034]]], [[[-72.74461, 41.73329], [-72.743178, 41.733378], [-72.73775, 41.73371], [-72.73182, 41.73374], [-72.73144, 41.73367], [-72.731124, 41.733552], [-72.72556, 41.73147], [-72.72778, 41.7284], [-72.7287, 41.72683], [-72.72943, 41.72608], [-72.73208, 41.72678], [-72.73276, 41.72694], [-72.733, 41.72636], [-72.733692, 41.72637], [-72.74278, 41.7265], [-72.74482, 41.72648], [-72.744664, 41.731544], [-72.74461, 41.73329]]]]}}, {"type": "Feature", "properties": {"area_id": 8431, "city": "Hartford", "state": "CT", "city_survey": true, "cat": "Definitely Declining", "grade": "C", "label": "C3", "res": true, "com": false, "ind": false, "holc_grade": "C"}, "geometry": {"type": "Polygon", "coordinates": [[[-72.71538, 41.76129], [-72.71525, 41.7601], [-72.715329, 41.760107], [-72.71632, 41.76019], [-72.71783, 41.76003], [-72.71848, 41.75996], [-72.71976, 41.75982], [-72.72017, 41.76488], [-72.719, 41.76498], [-72.71743, 41.76506], [-72.716077, 41.765171], [-72.71597, 41.76518], [-72.71587, 41.76402], [-72.715829, 41.763661], [-72.71576, 41.76305], [-72.715732, 41.762917], [-72.7156, 41.7623], [-72.71538, 41.76129]]]}}, {"type": "Feature", "properties": {"area_id": 8442, "city": "Hartford", "state": "CT", "city_survey": true, "cat": "Definitely Declining", "grade": "C", "label": "C4", "res": true, "com": false, "ind": false, "holc_grade": "C"}, "geometry": {"type": "Polygon", "coordinates": [[[-72.714754, 41.726193], [-72.71481, 41.72561], [-72.71477, 41.7238], [-72.72178, 41.72321], [-72.72473, 41.72292], [-72.73073, 41.72237], [-72.72769, 41.72594], [-72.72725, 41.72632], [-72.71631, 41.74085], [-72.71553, 41.74177], [-72.71523, 41.73606], [-72.71512, 41.73127], [-72.714822, 41.727577], [-72.71473, 41.72644], [-72.714754, 41.726193]]]}}, {"type": "Feature", "properties": {"area_id": 8433, "city": "Hartford", "state": "CT", "city_survey": true, "cat": "Definitely Declining", "grade": "C", "label": "C5", "res": true, "com": false, "ind": false, "holc_grade": "C"}, "geometry": {"type": "Polygon", "coordinates": [[[-72.71296, 41.76557], [-72.71244, 41.76563], [-72.71147, 41.76576], [-72.710891, 41.765801], [-72.70936, 41.76591], [-72.70692, 41.76641], [-72.70608, 41.76657], [-72.70008, 41.76726], [-72.699948, 41.767718], [-72.69993, 41.76778], [-72.69949, 41.76778], [-72.69383, 41.76784], [-72.69385, 41.7652], [-72.69453, 41.76489], [-72.69509, 41.76475], [-72.69567, 41.7646], [-72.6973, 41.76406], [-72.69762, 41.76386], [-72.69836, 41.76368], [-72.69884, 41.76358], [-72.70051, 41.76359], [-72.700607, 41.763273], [-72.70076, 41.76277], [-72.70088, 41.76248], [-72.7013, 41.76192], [-72.70159, 41.76159], [-72.70228, 41.7612], [-72.70268, 41.76104], [-72.7034, 41.76104], [-72.70466, 41.76102], [-72.7061, 41.76098], [-72.70694, 41.76088], [-72.70856, 41.76068], [-72.70937, 41.76057], [-72.709484, 41.76056], [-72.71066, 41.76046], [-72.71147, 41.76033], [-72.71206, 41.76026], [-72.7127, 41.76022], [-72.71387, 41.76003], [-72.71413, 41.76007], [-72.71432, 41.7601], [-72.71525, 41.7601], [-72.71538, 41.76129], [-72.7156, 41.7623], [-72.715732, 41.762917], [-72.71576, 41.76305], [-72.715829, 41.763661], [-72.71587, 41.76402], [-72.71597, 41.76518], [-72.71296, 41.76557]]]}}, {"type": "Feature", "properties": {"area_id": 8436, "city": "Hartford", "state": "CT", "city_survey": true, "cat": "Definitely Declining", "grade": "C", "label": "C6", "res": true, "com": false, "ind": false, "holc_grade": "C"}, "geometry": {"type": "Polygon", "coordinates": [[[-72.68917, 41.76633], [-72.68921, 41.76795], [-72.693774, 41.767841], [-72.69383, 41.76784], [-72.69949, 41.76778], [-72.69868, 41.77171], [-72.69725, 41.77133], [-72.697249, 41.771333], [-72.696434, 41.773799], [-72.69643, 41.77381], [-72.697812, 41.774022], [-72.69976, 41.77432], [-72.699755, 41.774337], [-72.69965, 41.774657], [-72.69887, 41.77704], [-72.698548, 41.77697], [-72.68698, 41.77446], [-72.68687, 41.77479], [-72.6851, 41.77402], [-72.68432, 41.77327], [-72.68405, 41.77292], [-72.68363, 41.77235], [-72.68321, 41.772], [-72.68349, 41.7715], [-72.68349, 41.77137], [-72.68364, 41.76814], [-72.68404, 41.76812], [-72.68438, 41.76639], [-72.68917, 41.76633]], [[-72.68404, 41.76812], [-72.68589, 41.7704], [-72.6858, 41.77073], [-72.68419, 41.77131], [-72.68517, 41.77313], [-72.68526, 41.77313], [-72.68744, 41.77235], [-72.6876, 41.77236], [-72.689533, 41.772669], [-72.68954, 41.77267], [-72.689631, 41.772333], [-72.69036, 41.76964], [-72.69046, 41.76926], [-72.68404, 41.76812]]]}}, {"type": "Feature", "properties": {"area_id": 8435, "city": "Hartford", "state": "CT", "city_survey": true, "cat": "Definitely Declining", "grade": "C", "label": "C7", "res": true, "com": false, "ind": false, "holc_grade": "C"}, "geometry": {"type": "Polygon", "coordinates": [[[-72.6986, 41.77786], [-72.69872, 41.77809], [-72.70052, 41.77922], [-72.70104, 41.77958], [-72.70173, 41.77998], [-72.70222, 41.78039], [-72.7031, 41.7813], [-72.70351, 41.7818], [-72.70403, 41.78258], [-72.70437, 41.78354], [-72.704706, 41.784621], [-72.70479, 41.78489], [-72.70445, 41.78488], [-72.704176, 41.78488], [-72.70404, 41.78488], [-72.70362, 41.78539], [-72.70336, 41.78591], [-72.7033, 41.78621], [-72.70309, 41.78643], [-72.702914, 41.786532], [-72.70233, 41.78687], [-72.702212, 41.786918], [-72.70176, 41.7871], [-72.70112, 41.78732], [-72.69979, 41.78739], [-72.69871, 41.78745], [-72.698572, 41.787444], [-72.69804, 41.78742], [-72.696309, 41.786909], [-72.69586, 41.786776], [-72.69584, 41.78677], [-72.696022, 41.784535], [-72.69604, 41.78432], [-72.6957, 41.78432], [-72.69528, 41.784242], [-72.69457, 41.78411], [-72.69406, 41.78404], [-72.6923, 41.78377], [-72.69082, 41.78361], [-72.690834, 41.783909], [-72.69091, 41.78551], [-72.69072, 41.78603], [-72.69066, 41.78657], [-72.69018, 41.7887], [-72.68992, 41.78904], [-72.68727, 41.78863], [-72.68698, 41.78933], [-72.68688, 41.7899], [-72.68677, 41.79255], [-72.68334, 41.79179], [-72.68338, 41.79258], [-72.68337, 41.79348], [-72.6832, 41.79544], [-72.681592, 41.795522], [-72.68144, 41.79553], [-72.68051, 41.79821], [-72.675996, 41.797649], [-72.66313, 41.79605], [-72.66312, 41.79582], [-72.66328, 41.79547], [-72.66404, 41.79455], [-72.66447, 41.79437], [-72.66904, 41.79195], [-72.67333, 41.78757], [-72.67363, 41.78696], [-72.67371, 41.78672], [-72.67373, 41.78665], [-72.673756, 41.7866], [-72.67494, 41.7843], [-72.675012, 41.784316], [-72.67711, 41.78479], [-72.679545, 41.785339], [-72.6827, 41.78605], [-72.68356, 41.78357], [-72.68376, 41.783], [-72.683774, 41.78296], [-72.68381, 41.78286], [-72.68411, 41.78218], [-72.68489, 41.78039], [-72.68547, 41.77891], [-72.685769, 41.77794], [-72.68584, 41.77771], [-72.6862, 41.77692], [-72.686735, 41.775221], [-72.68687, 41.77479], [-72.68698, 41.77446], [-72.698548, 41.77697], [-72.69887, 41.77704], [-72.6986, 41.77786]]]}}, {"type": "Feature", "properties": {"area_id": 8434, "city": "Hartford", "state": "CT", "city_survey": true, "cat": "Definitely Declining", "grade": "C", "label": "C8", "res": true, "com": false, "ind": false, "holc_grade": "C"}, "geometry": {"type": "MultiPolygon", "coordinates": [[[[-72.68647, 41.753418], [-72.68649, 41.75738], [-72.682423, 41.757249], [-72.67563, 41.75703], [-72.67525, 41.7558], [-72.67552, 41.75565], [-72.67583, 41.75548], [-72.67585, 41.75547], [-72.6766, 41.75514], [-72.67718, 41.75466], [-72.67762, 41.75435], [-72.68012, 41.75244], [-72.68042, 41.7523], [-72.68047, 41.75228], [-72.68243, 41.75147], [-72.683073, 41.751461], [-72.68317, 41.75146], [-72.68323, 41.75146], [-72.68332, 41.75146], [-72.68485, 41.75139], [-72.68646, 41.75132], [-72.68647, 41.753418]]], [[[-72.6866, 41.75851], [-72.68612, 41.76278], [-72.686111, 41.76356], [-72.68611, 41.76367], [-72.68115, 41.76268], [-72.68061, 41.76405], [-72.67689, 41.76297], [-72.67646, 41.76288], [-72.67563, 41.76235], [-72.67636, 41.76015], [-72.676138, 41.760039], [-72.67606, 41.76], [-72.67693, 41.75815], [-72.680791, 41.758294], [-72.682285, 41.758349], [-72.6866, 41.75851]]], [[[-72.69322, 41.76142], [-72.69189, 41.76173], [-72.69139, 41.76179], [-72.69059, 41.7618], [-72.69054, 41.76195], [-72.69053, 41.76243], [-72.69058, 41.76286], [-72.69112, 41.76285], [-72.69182, 41.76275], [-72.69301, 41.76273], [-72.69298, 41.76319], [-72.6929, 41.763421], [-72.69288, 41.76348], [-72.690455, 41.763678], [-72.690398, 41.763683], [-72.687898, 41.763888], [-72.68787, 41.76389], [-72.68787, 41.763886], [-72.68823, 41.75877], [-72.690555, 41.758795], [-72.69387, 41.75883], [-72.69339, 41.75959], [-72.69334, 41.75986], [-72.69327, 41.76031], [-72.69322, 41.76142]]], [[[-72.698013, 41.752829], [-72.69784, 41.75285], [-72.69762, 41.75312], [-72.69748, 41.75384], [-72.69691, 41.75399], [-72.69594, 41.75435], [-72.6952, 41.75475], [-72.69474, 41.75519], [-72.69458, 41.75549], [-72.69447, 41.75607], [-72.69449, 41.75633], [-72.69469, 41.75699], [-72.69476, 41.75737], [-72.69471, 41.75784], [-72.691946, 41.757767], [-72.68827, 41.75767], [-72.688203, 41.753354], [-72.68817, 41.75119], [-72.68858, 41.75114], [-72.68968, 41.75108], [-72.69169, 41.75092], [-72.69309, 41.750866], [-72.69324, 41.75086], [-72.6933, 41.75217], [-72.69319, 41.75303], [-72.69339, 41.75328], [-72.693452, 41.753228], [-72.69357, 41.75313], [-72.69373, 41.75262], [-72.69393, 41.75086], [-72.69481, 41.75089], [-72.69759, 41.75109], [-72.69822, 41.75115], [-72.70097, 41.75141], [-72.70152, 41.75086], [-72.70181, 41.7506], [-72.70224, 41.7503], [-72.70259, 41.7501], [-72.70286, 41.75002], [-72.70341, 41.75], [-72.70355, 41.75007], [-72.70403, 41.75031], [-72.70778, 41.7516], [-72.70631, 41.75369], [-72.706006, 41.754127], [-72.703495, 41.75774], [-72.70344, 41.75782], [-72.70183, 41.7582], [-72.701848, 41.75808], [-72.70189, 41.75781], [-72.70217, 41.75671], [-72.70256, 41.75598], [-72.70255, 41.75498], [-72.70233, 41.75462], [-72.70196, 41.75434], [-72.70147, 41.75427], [-72.70074, 41.75401], [-72.70034, 41.7537], [-72.700648, 41.753262], [-72.70065, 41.75326], [-72.70048, 41.75309], [-72.70007, 41.75292], [-72.69941, 41.7528], [-72.698761, 41.752805], [-72.698546, 41.752807], [-72.69817, 41.75281], [-72.698013, 41.752829]]], [[[-72.715039, 41.758264], [-72.715053, 41.758382], [-72.71518, 41.75951], [-72.71525, 41.7601], [-72.71432, 41.7601], [-72.71413, 41.76007], [-72.71387, 41.76003], [-72.7127, 41.76022], [-72.71206, 41.76026], [-72.71147, 41.76033], [-72.71066, 41.76046], [-72.709484, 41.76056], [-72.70937, 41.76057], [-72.70856, 41.76068], [-72.70694, 41.76088], [-72.7061, 41.76098], [-72.70466, 41.76102], [-72.7034, 41.76104], [-72.70268, 41.76104], [-72.702686, 41.761024], [-72.70303, 41.76007], [-72.70341, 41.75937], [-72.70371, 41.75914], [-72.70389, 41.759], [-72.70414, 41.75874], [-72.70438, 41.7582], [-72.70587, 41.75779], [-72.70665, 41.75758], [-72.70869, 41.75717], [-72.709072, 41.757123], [-72.70926, 41.7571], [-72.71032, 41.75703], [-72.710804, 41.756941], [-72.71092, 41.75692], [-72.71272, 41.75685], [-72.714874, 41.757028], [-72.7149, 41.75703], [-72.714934, 41.757331], [-72.715039, 41.758264]]], [[[-72.71261, 41.7558], [-72.7104, 41.75593], [-72.70908, 41.75621], [-72.70666, 41.75662], [-72.70681, 41.75593], [-72.70702, 41.75536], [-72.70757, 41.75464], [-72.71171, 41.74899], [-72.712, 41.74855], [-72.71471, 41.74532], [-72.71475, 41.74912], [-72.71461, 41.75426], [-72.71463, 41.75577], [-72.71373, 41.75581], [-72.71261, 41.7558]]]]}}, {"type": "Feature", "properties": {"area_id": 8440, "city": "Hartford", "state": "CT", "city_survey": true, "cat": "Definitely Declining", "grade": "C", "label": "C9", "res": true, "com": false, "ind": false, "holc_grade": "C"}, "geometry": {"type": "MultiPolygon", "coordinates": [[[[-72.68148, 41.73174], [-72.68151, 41.7345], [-72.68307, 41.73412], [-72.68518, 41.73356], [-72.68677, 41.73324], [-72.68761, 41.73312], [-72.68931, 41.73036], [-72.68997, 41.73507], [-72.69012, 41.73542], [-72.690139, 41.735512], [-72.69041, 41.73679], [-72.6906, 41.7372], [-72.69066, 41.73845], [-72.69081, 41.73891], [-72.6909, 41.74052], [-72.69101, 41.74169], [-72.69186, 41.74254], [-72.69185, 41.742546], [-72.69124, 41.74289], [-72.69154, 41.74384], [-72.69101, 41.7439], [-72.69058, 41.74391], [-72.69083, 41.74553], [-72.69042, 41.74701], [-72.68718, 41.74753], [-72.68731, 41.7513], [-72.68646, 41.75132], [-72.68485, 41.75139], [-72.68332, 41.75146], [-72.68323, 41.75146], [-72.68317, 41.75146], [-72.68336, 41.74841], [-72.68336, 41.7482], [-72.683331, 41.748203], [-72.68246, 41.74829], [-72.68018, 41.74846], [-72.67895, 41.75091], [-72.680402, 41.752283], [-72.68042, 41.7523], [-72.68012, 41.75244], [-72.67762, 41.75435], [-72.67718, 41.75466], [-72.6766, 41.75514], [-72.67585, 41.75547], [-72.67583, 41.75548], [-72.67552, 41.75565], [-72.67525, 41.7558], [-72.675139, 41.75584], [-72.674274, 41.756148], [-72.67351, 41.75642], [-72.673421, 41.756466], [-72.67255, 41.75692], [-72.670032, 41.757529], [-72.66978, 41.75759], [-72.66868, 41.75446], [-72.67314, 41.75448], [-72.67285, 41.75361], [-72.67307, 41.75352], [-72.67423, 41.7534], [-72.6737, 41.75147], [-72.67277, 41.75151], [-72.67269, 41.74967], [-72.67343, 41.74955], [-72.673427, 41.749488], [-72.6733, 41.74695], [-72.67321, 41.74588], [-72.67263, 41.74407], [-72.67173, 41.74415], [-72.67082, 41.74417], [-72.66781, 41.73356], [-72.66996, 41.73329], [-72.66999, 41.73316], [-72.66936, 41.73012], [-72.667901, 41.728238], [-72.66784, 41.72816], [-72.68233, 41.72631], [-72.682366, 41.726528], [-72.6824, 41.72674], [-72.68218, 41.72788], [-72.68232, 41.73006], [-72.68247, 41.73172], [-72.68148, 41.73174]]], [[[-72.714583, 41.723812], [-72.71477, 41.7238], [-72.71481, 41.72561], [-72.714754, 41.726193], [-72.71473, 41.72644], [-72.714822, 41.727577], [-72.71512, 41.73127], [-72.71523, 41.73606], [-72.714876, 41.736068], [-72.71383, 41.73609], [-72.71135, 41.7361], [-72.70857, 41.736], [-72.70664, 41.73589], [-72.70565, 41.73593], [-72.703132, 41.736381], [-72.70297, 41.73641], [-72.70336, 41.73968], [-72.70352, 41.74074], [-72.70234, 41.74093], [-72.70047, 41.74145], [-72.69927, 41.74163], [-72.69807, 41.74174], [-72.69837, 41.74377], [-72.70064, 41.74354], [-72.70176, 41.74314], [-72.702009, 41.74384], [-72.7024, 41.74494], [-72.70298, 41.74674], [-72.70318, 41.74832], [-72.70355, 41.75007], [-72.70341, 41.75], [-72.70286, 41.75002], [-72.70259, 41.7501], [-72.70224, 41.7503], [-72.70181, 41.7506], [-72.70152, 41.75086], [-72.70097, 41.75141], [-72.69822, 41.75115], [-72.69759, 41.75109], [-72.69481, 41.75089], [-72.69393, 41.75086], [-72.69406, 41.74924], [-72.694094, 41.747276], [-72.69419, 41.74178], [-72.6941, 41.741299], [-72.69408, 41.74119], [-72.69391, 41.7397], [-72.69373, 41.73859], [-72.69358, 41.73802], [-72.69353, 41.73792], [-72.69342, 41.73766], [-72.69334, 41.73693], [-72.6933, 41.73569], [-72.69342, 41.73348], [-72.69304, 41.72737], [-72.69376, 41.72731], [-72.69677, 41.72594], [-72.7003, 41.72575], [-72.70049, 41.72626], [-72.70057, 41.72761], [-72.70066, 41.7284], [-72.70085, 41.72846], [-72.70098, 41.72849], [-72.701, 41.72916], [-72.70111, 41.72963], [-72.70128, 41.73042], [-72.70138, 41.73145], [-72.70161, 41.73394], [-72.702144, 41.733903], [-72.70233, 41.73389], [-72.70288, 41.73376], [-72.70561, 41.73327], [-72.70568, 41.73326], [-72.706018, 41.733244], [-72.70677, 41.73321], [-72.70803, 41.73316], [-72.71185, 41.73227], [-72.71178, 41.72906], [-72.71146, 41.72902], [-72.71037, 41.72902], [-72.70951, 41.72906], [-72.70912, 41.72897], [-72.71023, 41.72604], [-72.71044, 41.72513], [-72.710532, 41.724156], [-72.71054, 41.72407], [-72.713173, 41.723902], [-72.714583, 41.723812]]]]}}, {"type": "Feature", "properties": {"area_id": 8437, "city": "Hartford", "state": "CT", "city_survey": true, "cat": "Hazardous", "grade": "D", "label": "D1", "res": true, "com": false, "ind": false, "holc_grade": "D"}, "geometry": {"type": "Polygon", "coordinates": [[[-72.67073, 41.77565], [-72.67034, 41.77522], [-72.67014, 41.77485], [-72.66974, 41.77405], [-72.66945, 41.77308], [-72.66917, 41.77247], [-72.669, 41.77165], [-72.66899, 41.77099], [-72.66918, 41.77087], [-72.67074, 41.77099], [-72.67354, 41.77121], [-72.67382, 41.77139], [-72.67472, 41.77318], [-72.67516, 41.77426], [-72.67569, 41.77425], [-72.67606, 41.77416], [-72.676498, 41.774048], [-72.67684, 41.77396], [-72.677005, 41.773949], [-72.67715, 41.77394], [-72.679322, 41.775831], [-72.68024, 41.77663], [-72.680813, 41.776368], [-72.68105, 41.77626], [-72.67815, 41.7736], [-72.67971, 41.77315], [-72.68035, 41.77284], [-72.680929, 41.772484], [-72.68118, 41.77233], [-72.68133, 41.77237], [-72.68254, 41.77314], [-72.68321, 41.772], [-72.68363, 41.77235], [-72.68405, 41.77292], [-72.68432, 41.77327], [-72.6851, 41.77402], [-72.68687, 41.77479], [-72.686735, 41.775221], [-72.6862, 41.77692], [-72.68584, 41.77771], [-72.685769, 41.77794], [-72.68547, 41.77891], [-72.68489, 41.78039], [-72.68411, 41.78218], [-72.68229, 41.78162], [-72.68229, 41.7814], [-72.67959, 41.78073], [-72.67971, 41.78004], [-72.67989, 41.7792], [-72.67655, 41.77845], [-72.67644, 41.77877], [-72.67644, 41.77944], [-72.67641, 41.78065], [-72.67708, 41.78071], [-72.6773, 41.78106], [-72.67934, 41.78149], [-72.67946, 41.78184], [-72.683061, 41.782811], [-72.68376, 41.783], [-72.68356, 41.78357], [-72.678, 41.7823], [-72.67737, 41.78218], [-72.67719, 41.78228], [-72.677, 41.78226], [-72.67679, 41.78251], [-72.6761, 41.78233], [-72.67585, 41.78283], [-72.67696, 41.78307], [-72.67677, 41.78358], [-72.67721, 41.78366], [-72.67734, 41.78422], [-72.677125, 41.784752], [-72.67711, 41.78479], [-72.675012, 41.784316], [-72.67494, 41.7843], [-72.673756, 41.7866], [-72.67373, 41.78665], [-72.67371, 41.78672], [-72.67209, 41.78683], [-72.66928, 41.78713], [-72.669326, 41.78702], [-72.6708, 41.7835], [-72.6714, 41.78146], [-72.67248, 41.77816], [-72.67255, 41.77794], [-72.672519, 41.777639], [-72.67238, 41.77627], [-72.672303, 41.776212], [-72.67218, 41.77612], [-72.67175, 41.77603], [-72.67122, 41.77592], [-72.67073, 41.77565]]]}}, {"type": "Feature", "properties": {"area_id": 8438, "city": "Hartford", "state": "CT", "city_survey": true, "cat": "Hazardous", "grade": "D", "label": "D2", "res": true, "com": false, "ind": false, "holc_grade": "D"}, "geometry": {"type": "Polygon", "coordinates": [[[-72.66384, 41.75055], [-72.6638, 41.75108], [-72.66266, 41.75189], [-72.66545, 41.75449], [-72.66868, 41.75446], [-72.66978, 41.75759], [-72.670032, 41.757529], [-72.67255, 41.75692], [-72.673421, 41.756466], [-72.67351, 41.75642], [-72.674274, 41.756148], [-72.675139, 41.75584], [-72.67525, 41.7558], [-72.67563, 41.75703], [-72.675425, 41.757576], [-72.67461, 41.75974], [-72.67362, 41.75962], [-72.673161, 41.761504], [-72.67295, 41.76237], [-72.67048, 41.7619], [-72.67029, 41.76193], [-72.66998, 41.76364], [-72.66795, 41.76319], [-72.66762, 41.76501], [-72.66953, 41.76529], [-72.6694, 41.76657], [-72.66922, 41.76754], [-72.66927, 41.76828], [-72.66933, 41.76921], [-72.6682, 41.76918], [-72.6681, 41.76913], [-72.66803, 41.76887], [-72.66776, 41.76878], [-72.6675, 41.76862], [-72.66687, 41.76761], [-72.66681, 41.76727], [-72.66689, 41.76553], [-72.66682, 41.76522], [-72.6666, 41.76475], [-72.6666, 41.76406], [-72.66649, 41.76366], [-72.66632, 41.76257], [-72.66591, 41.76173], [-72.66578, 41.76122], [-72.66557, 41.76096], [-72.66503, 41.76038], [-72.66374, 41.75901], [-72.66344, 41.75832], [-72.66317, 41.75805], [-72.66256, 41.75783], [-72.6622, 41.75753], [-72.66143, 41.75677], [-72.66079, 41.75584], [-72.6604, 41.75532], [-72.65917, 41.75412], [-72.65799, 41.75302], [-72.65786, 41.75285], [-72.659083, 41.752123], [-72.659339, 41.75197], [-72.66134, 41.75078], [-72.661444, 41.75077], [-72.66384, 41.75055]]]}}, {"type": "Feature", "properties": {"area_id": 6419, "city": "Hartford", "state": "CT", "city_survey": true, "cat": "Hazardous", "grade": "D", "label": "D3", "res": true, "com": false, "ind": false, "holc_grade": "D"}, "geometry": {"type": "MultiPolygon", "coordinates": [[[[-72.61172, 41.78293], [-72.612475, 41.782711], [-72.61738, 41.78129], [-72.617614, 41.781505], [-72.61798, 41.78184], [-72.61848, 41.78163], [-72.62943, 41.78003], [-72.62641, 41.78441], [-72.614111, 41.786046], [-72.6131, 41.78618], [-72.611633, 41.78319], [-72.61153, 41.78298], [-72.61172, 41.78293]]], [[[-72.64269, 41.74714], [-72.64296, 41.74763], [-72.64323, 41.74784], [-72.64383, 41.74869], [-72.64423, 41.74899], [-72.64498, 41.74957], [-72.64513, 41.74954], [-72.64534, 41.74963], [-72.64536, 41.74985], [-72.64549, 41.75004], [-72.64608, 41.75053], [-72.64463, 41.75087], [-72.644294, 41.750924], [-72.64195, 41.7513], [-72.64061, 41.75156], [-72.64009, 41.75093], [-72.63988, 41.75028], [-72.63964, 41.74979], [-72.63896, 41.74899], [-72.63676, 41.74639], [-72.63821, 41.74605], [-72.640746, 41.745412], [-72.64155, 41.74521], [-72.64214, 41.74614], [-72.64252, 41.74663], [-72.64269, 41.74714]]], [[[-72.65479, 41.76161], [-72.66219, 41.76118], [-72.66262, 41.76181], [-72.66298, 41.76231], [-72.66338, 41.76267], [-72.66359, 41.76307], [-72.66381, 41.76369], [-72.66431, 41.76458], [-72.66473, 41.76549], [-72.66485, 41.76596], [-72.6649, 41.76669], [-72.66463, 41.76757], [-72.66416, 41.7685], [-72.66224, 41.76855], [-72.65974, 41.76873], [-72.6593, 41.76877], [-72.6577, 41.76874], [-72.65735, 41.76806], [-72.65716, 41.76754], [-72.65529, 41.76753], [-72.65519, 41.76445], [-72.65081, 41.76458], [-72.651, 41.7639], [-72.65107, 41.76299], [-72.65489, 41.7629], [-72.65479, 41.76161]]], [[[-72.65261, 41.77249], [-72.653, 41.77058], [-72.65909, 41.77028], [-72.66061, 41.77008], [-72.66334, 41.76986], [-72.66281, 41.77065], [-72.66244, 41.77126], [-72.66197, 41.77173], [-72.66141, 41.77234], [-72.66084, 41.77283], [-72.65994, 41.77378], [-72.6597, 41.77383], [-72.65919, 41.77417], [-72.65795, 41.77519], [-72.65736, 41.77552], [-72.65712, 41.77559], [-72.65659, 41.77556], [-72.65561, 41.77504], [-72.65468, 41.77474], [-72.65382, 41.77454], [-72.65288, 41.77445], [-72.6522, 41.77449], [-72.65235, 41.77392], [-72.65261, 41.77249]]]]}}, {"type": "Feature", "properties": {"area_id": 11377, "city": "Hartford", "state": "CT", "city_survey": true, "cat": "Commercial", "grade": null, "label": "Commercial", "res": false, "com": true, "ind": false, "holc_grade": null}, "geometry": {"type": "MultiPolygon", "coordinates": [[[[-72.68954, 41.77267], [-72.689533, 41.772669], [-72.6876, 41.77236], [-72.68744, 41.77235], [-72.68526, 41.77313], [-72.68517, 41.77313], [-72.68419, 41.77131], [-72.6858, 41.77073], [-72.68589, 41.7704], [-72.68404, 41.76812], [-72.69046, 41.76926], [-72.69036, 41.76964], [-72.69001, 41.77092], [-72.689623, 41.772361], [-72.68954, 41.77267]]], [[[-72.68404, 41.76812], [-72.68364, 41.76814], [-72.68349, 41.77137], [-72.68349, 41.7715], [-72.68321, 41.772], [-72.68254, 41.77314], [-72.68133, 41.77237], [-72.68118, 41.77233], [-72.680929, 41.772484], [-72.68035, 41.77284], [-72.67971, 41.77315], [-72.67815, 41.7736], [-72.68105, 41.77626], [-72.680813, 41.776368], [-72.68024, 41.77663], [-72.679322, 41.775831], [-72.67715, 41.77394], [-72.677005, 41.773949], [-72.67684, 41.77396], [-72.676498, 41.774048], [-72.67606, 41.77416], [-72.67569, 41.77425], [-72.67516, 41.77426], [-72.67472, 41.77318], [-72.67382, 41.77139], [-72.67354, 41.77121], [-72.67074, 41.77099], [-72.66918, 41.77087], [-72.66933, 41.76921], [-72.66927, 41.76828], [-72.66922, 41.76754], [-72.6694, 41.76657], [-72.66953, 41.76529], [-72.66762, 41.76501], [-72.66795, 41.76319], [-72.66998, 41.76364], [-72.67029, 41.76193], [-72.67048, 41.7619], [-72.67295, 41.76237], [-72.673161, 41.761504], [-72.67362, 41.75962], [-72.67461, 41.75974], [-72.675425, 41.757576], [-72.67563, 41.75703], [-72.682423, 41.757249], [-72.68649, 41.75738], [-72.68647, 41.753418], [-72.68646, 41.75132], [-72.68731, 41.7513], [-72.68817, 41.75119], [-72.688203, 41.753354], [-72.68827, 41.75767], [-72.691946, 41.757767], [-72.69471, 41.75784], [-72.69431, 41.75831], [-72.69387, 41.75883], [-72.690555, 41.758795], [-72.68823, 41.75877], [-72.68787, 41.763886], [-72.68787, 41.76389], [-72.687898, 41.763888], [-72.690398, 41.763683], [-72.690455, 41.763678], [-72.69288, 41.76348], [-72.693826, 41.765158], [-72.69385, 41.7652], [-72.69383, 41.76784], [-72.693774, 41.767841], [-72.68921, 41.76795], [-72.68917, 41.76633], [-72.68438, 41.76639], [-72.68404, 41.76812]], [[-72.682285, 41.758349], [-72.680791, 41.758294], [-72.67693, 41.75815], [-72.67606, 41.76], [-72.676138, 41.760039], [-72.67636, 41.76015], [-72.67563, 41.76235], [-72.67646, 41.76288], [-72.67624, 41.76435], [-72.67662, 41.76495], [-72.67833, 41.76479], [-72.67925, 41.76487], [-72.68027, 41.76628], [-72.68119, 41.76682], [-72.68273, 41.76647], [-72.68357, 41.76515], [-72.6842, 41.7642], [-72.68611, 41.76367], [-72.68612, 41.763562], [-72.6866, 41.75851], [-72.682285, 41.758349]]], [[[-72.7104, 41.75593], [-72.71261, 41.7558], [-72.71373, 41.75581], [-72.71463, 41.75577], [-72.71465, 41.75616], [-72.714794, 41.756197], [-72.71796, 41.75702], [-72.71821, 41.75656], [-72.72043, 41.75716], [-72.720394, 41.757619], [-72.72034, 41.75832], [-72.71903, 41.758], [-72.71597, 41.75736], [-72.7149, 41.75703], [-72.714874, 41.757028], [-72.71272, 41.75685], [-72.71092, 41.75692], [-72.710804, 41.756941], [-72.71032, 41.75703], [-72.70926, 41.7571], [-72.709072, 41.757123], [-72.70869, 41.75717], [-72.70665, 41.75758], [-72.70587, 41.75779], [-72.70438, 41.7582], [-72.705082, 41.757445], [-72.70702, 41.75536], [-72.70681, 41.75593], [-72.70666, 41.75662], [-72.70908, 41.75621], [-72.7104, 41.75593]]]]}}, {"type": "Feature", "properties": {"area_id": 11376, "city": "Hartford", "state": "CT", "city_survey": true, "cat": "Industrial", "grade": null, "label": "Industrial", "res": false, "com": false, "ind": true, "holc_grade": null}, "geometry": {"type": "MultiPolygon", "coordinates": [[[[-72.64524, 41.76898], [-72.65073, 41.76872], [-72.6577, 41.76874], [-72.6593, 41.76877], [-72.65974, 41.76873], [-72.66224, 41.76855], [-72.66416, 41.7685], [-72.66334, 41.76986], [-72.66061, 41.77008], [-72.65909, 41.77028], [-72.653, 41.77058], [-72.64931, 41.77115], [-72.64949, 41.77081], [-72.64965, 41.76991], [-72.64459, 41.77], [-72.64338, 41.77155], [-72.64087, 41.77471], [-72.64038, 41.77539], [-72.64307, 41.7751], [-72.64698, 41.77475], [-72.64669, 41.775267], [-72.64657, 41.77548], [-72.64634, 41.77541], [-72.642084, 41.775791], [-72.639028, 41.776064], [-72.63728, 41.77622], [-72.63418, 41.77656], [-72.63339, 41.77694], [-72.63269, 41.77726], [-72.632384, 41.777457], [-72.63145, 41.77806], [-72.63045, 41.77893], [-72.62943, 41.78003], [-72.61848, 41.78163], [-72.61798, 41.78184], [-72.617614, 41.781505], [-72.61738, 41.78129], [-72.61813, 41.78107], [-72.62121, 41.78008], [-72.62566, 41.77861], [-72.63334, 41.77618], [-72.63383, 41.77607], [-72.63411, 41.776], [-72.63844, 41.77552], [-72.63876, 41.77562], [-72.64124, 41.77208], [-72.64446, 41.76746], [-72.64614, 41.76494], [-72.646307, 41.764965], [-72.64735, 41.76512], [-72.64723, 41.76542], [-72.64592, 41.76776], [-72.64524, 41.76898]]], [[[-72.72769, 41.72594], [-72.73073, 41.72237], [-72.73279, 41.7221], [-72.72943, 41.72608], [-72.7287, 41.72683], [-72.72556, 41.73147], [-72.72448, 41.73261], [-72.7212, 41.7369], [-72.71983, 41.73847], [-72.71716, 41.742367], [-72.71687, 41.74279], [-72.71605, 41.74374], [-72.714962, 41.745023], [-72.71471, 41.74532], [-72.712, 41.74855], [-72.71171, 41.74899], [-72.70757, 41.75464], [-72.70702, 41.75536], [-72.705082, 41.757445], [-72.70438, 41.7582], [-72.70414, 41.75874], [-72.70389, 41.759], [-72.70371, 41.75914], [-72.70341, 41.75937], [-72.70303, 41.76007], [-72.702686, 41.761024], [-72.70268, 41.76104], [-72.70228, 41.7612], [-72.70159, 41.76159], [-72.7013, 41.76192], [-72.70088, 41.76248], [-72.70076, 41.76277], [-72.700607, 41.763273], [-72.70051, 41.76359], [-72.69884, 41.76358], [-72.69836, 41.76368], [-72.69762, 41.76386], [-72.6973, 41.76406], [-72.69567, 41.7646], [-72.69509, 41.76475], [-72.69453, 41.76489], [-72.69385, 41.7652], [-72.693826, 41.765158], [-72.69288, 41.76348], [-72.6929, 41.763421], [-72.69298, 41.76319], [-72.69301, 41.76273], [-72.69182, 41.76275], [-72.69112, 41.76285], [-72.69058, 41.76286], [-72.69053, 41.76243], [-72.69054, 41.76195], [-72.69059, 41.7618], [-72.69139, 41.76179], [-72.69189, 41.76173], [-72.69322, 41.76142], [-72.69327, 41.76031], [-72.69334, 41.75986], [-72.69339, 41.75959], [-72.69387, 41.75883], [-72.69431, 41.75831], [-72.700421, 41.758518], [-72.70078, 41.75853], [-72.70183, 41.7582], [-72.70344, 41.75782], [-72.703496, 41.75774], [-72.706102, 41.754005], [-72.70778, 41.7516], [-72.715135, 41.742271], [-72.71553, 41.74177], [-72.71631, 41.74085], [-72.72725, 41.72632], [-72.72769, 41.72594]]]]}}]}