{"type": "FeatureCollection", "features": [{"type": "Feature", "geometry": {"type": "Point", "coordinates": [-93.8732, 42.0876]}, "properties": {"facility_name": "GATES CORP", "industry": null, "tri_facility_id": "50036GTSRBINDUS"}}, {"type": "Feature", "geometry": {"type": "Point", "coordinates": [-93.86583333333333, 42.04555555555555]}, "properties": {"facility_name": "MIDLAND BIO PRODUCTS CORP", "industry": null, "tri_facility_id": "50036MDLND800SN"}}, {"type": "Feature", "geometry": {"type": "Point", "coordinates": [-93.88916666666667, 42.062777777777775]}, "properties": {"facility_name": "AMERICAN CONCRETE PRODUCTS", "industry": null, "tri_facility_id": "50036MRCNC827MN"}}, {"type": "Feature", "geometry": {"type": "Point", "coordinates": [-93.847778, 42.051667]}, "properties": {"facility_name": "OSHKOSH TANNING CO INC", "industry": null, "tri_facility_id": "50036SHKSHINDUS"}}]}