{"type": "FeatureCollection", "features": [{"type": "Feature", "properties": {"area_id": 6943, "city": "Elmira", "state": "NY", "city_survey": true, "cat": "Best", "grade": "A", "label": "A1", "res": true, "com": false, "ind": false, "holc_grade": "A"}, "geometry": {"type": "Polygon", "coordinates": [[[-76.830371, 42.090505], [-76.83053, 42.09116], [-76.83003, 42.09213], [-76.82963, 42.09257], [-76.82922, 42.09311], [-76.82977, 42.0944], [-76.83044, 42.09498], [-76.83262, 42.09812], [-76.83317, 42.09849], [-76.83015, 42.09925], [-76.82979, 42.09932], [-76.827439, 42.094964], [-76.82742, 42.09493], [-76.82564, 42.09547], [-76.82276, 42.09024], [-76.82566, 42.08934], [-76.826936, 42.091434], [-76.82697, 42.09149], [-76.83024, 42.090538], [-76.83037, 42.0905], [-76.830371, 42.090505]]]}}, {"type": "Feature", "properties": {"area_id": 6946, "city": "Elmira", "state": "NY", "city_survey": true, "cat": "Still Desirable", "grade": "B", "label": "B1", "res": true, "com": false, "ind": false, "holc_grade": "B"}, "geometry": {"type": "Polygon", "coordinates": [[[-76.82272, 42.11776], [-76.82215, 42.11639], [-76.82072, 42.11194], [-76.82482, 42.11382], [-76.826591, 42.11232], [-76.82678, 42.11216], [-76.827204, 42.114293], [-76.8275, 42.11578], [-76.827505, 42.116955], [-76.82753, 42.12321], [-76.82817, 42.123], [-76.8281, 42.1272], [-76.82999, 42.13236], [-76.8291, 42.13246], [-76.82846, 42.13072], [-76.82629, 42.13093], [-76.82579, 42.12924], [-76.82703, 42.12897], [-76.82682, 42.12818], [-76.8255, 42.12834], [-76.82532, 42.12728], [-76.82482, 42.12517], [-76.82443, 42.12451], [-76.82443, 42.12411], [-76.82418, 42.12324], [-76.82322, 42.11943], [-76.822905, 42.118377], [-76.82272, 42.11776]]]}}, {"type": "Feature", "properties": {"area_id": 6942, "city": "Elmira", "state": "NY", "city_survey": true, "cat": "Still Desirable", "grade": "B", "label": "B2", "res": true, "com": false, "ind": false, "holc_grade": "B"}, "geometry": {"type": "Polygon", "coordinates": [[[-76.827439, 42.094964], [-76.82979, 42.09932], [-76.83015, 42.09925], [-76.83134, 42.1016], [-76.82632, 42.10313], [-76.8267, 42.10407], [-76.82506, 42.10461], [-76.82335, 42.10502], [-76.823047, 42.104558], [-76.82293, 42.10438], [-76.81862, 42.10574], [-76.81843, 42.10495], [-76.81633, 42.10485], [-76.81376, 42.10005], [-76.81414, 42.09961], [-76.81433, 42.09921], [-76.814177, 42.098932], [-76.8139, 42.09843], [-76.82163, 42.09619], [-76.82195, 42.09609], [-76.822232, 42.096489], [-76.82224, 42.0965], [-76.823445, 42.096135], [-76.82564, 42.09547], [-76.82742, 42.09493], [-76.827439, 42.094964]]]}}, {"type": "Feature", "properties": {"area_id": 6949, "city": "Elmira", "state": "NY", "city_survey": true, "cat": "Still Desirable", "grade": "B", "label": "B3", "res": true, "com": false, "ind": false, "holc_grade": "B"}, "geometry": {"type": "Polygon", "coordinates": [[[-76.83642, 42.07627], [-76.84155, 42.07547], [-76.8495, 42.07521], [-76.85214, 42.07523], [-76.85325, 42.07553], [-76.85592, 42.07746], [-76.85649, 42.07809], [-76.85546, 42.07815], [-76.85442, 42.07899], [-76.85728, 42.08111], [-76.85728, 42.08159], [-76.84573, 42.08092], [-76.83974, 42.0814], [-76.8381, 42.08196], [-76.83656, 42.08231], [-76.8325, 42.08324], [-76.83123, 42.08108], [-76.83049, 42.07965], [-76.83024, 42.07883], [-76.83642, 42.07627]]]}}, {"type": "Feature", "properties": {"area_id": 6944, "city": "Elmira", "state": "NY", "city_survey": true, "cat": "Still Desirable", "grade": "B", "label": "B4", "res": true, "com": false, "ind": false, "holc_grade": "B"}, "geometry": {"type": "Polygon", "coordinates": [[[-76.83049, 42.07965], [-76.83123, 42.08108], [-76.8325, 42.08324], [-76.83266, 42.08351], [-76.83405, 42.08603], [-76.83451, 42.08671], [-76.83548, 42.08899], [-76.832781, 42.089787], [-76.83037, 42.0905], [-76.83024, 42.090538], [-76.82697, 42.09149], [-76.826936, 42.091434], [-76.82566, 42.08934], [-76.82276, 42.09024], [-76.82564, 42.09547], [-76.823445, 42.096135], [-76.82224, 42.0965], [-76.822232, 42.096489], [-76.82195, 42.09609], [-76.82163, 42.09619], [-76.81699, 42.08834], [-76.812332, 42.089589], [-76.81065, 42.09004], [-76.80974, 42.0884], [-76.811406, 42.087826], [-76.81148, 42.0878], [-76.81081, 42.08645], [-76.81227, 42.08621], [-76.81437, 42.08547], [-76.816003, 42.084641], [-76.8163, 42.08449], [-76.81701, 42.08375], [-76.81765, 42.08375], [-76.81804, 42.08386], [-76.81822, 42.08365], [-76.81826, 42.08349], [-76.82097, 42.08267], [-76.82307, 42.08169], [-76.82489, 42.08087], [-76.827072, 42.080023], [-76.82927, 42.07917], [-76.83024, 42.07883], [-76.83049, 42.07965]]]}}, {"type": "Feature", "properties": {"area_id": 6934, "city": "Elmira", "state": "NY", "city_survey": true, "cat": "Still Desirable", "grade": "B", "label": "B5", "res": true, "com": false, "ind": false, "holc_grade": "B"}, "geometry": {"type": "Polygon", "coordinates": [[[-76.788158, 42.072172], [-76.78888, 42.07479], [-76.79134, 42.07929], [-76.79818, 42.08488], [-76.798986, 42.085362], [-76.79972, 42.0858], [-76.80021, 42.08684], [-76.79842, 42.0871], [-76.798081, 42.087116], [-76.79738, 42.08715], [-76.79655, 42.08684], [-76.79522, 42.08582], [-76.79284, 42.08379], [-76.78878, 42.0807], [-76.78831, 42.07937], [-76.78682, 42.07302], [-76.78731, 42.07286], [-76.78731, 42.07233], [-76.787569, 42.072248], [-76.78813, 42.07207], [-76.788158, 42.072172]]]}}, {"type": "Feature", "properties": {"area_id": 6948, "city": "Elmira", "state": "NY", "city_survey": true, "cat": "Definitely Declining", "grade": "C", "label": "C1", "res": true, "com": false, "ind": false, "holc_grade": "C"}, "geometry": {"type": "Polygon", "coordinates": [[[-76.83547, 42.12102], [-76.83935, 42.12807], [-76.83946, 42.13052], [-76.83911, 42.13068], [-76.83958, 42.13205], [-76.82999, 42.13236], [-76.8281, 42.1272], [-76.82817, 42.123], [-76.83547, 42.12102]]]}}, {"type": "Feature", "properties": {"area_id": 6931, "city": "Elmira", "state": "NY", "city_survey": true, "cat": "Definitely Declining", "grade": "C", "label": "C10", "res": true, "com": false, "ind": false, "holc_grade": "C"}, "geometry": {"type": "Polygon", "coordinates": [[[-76.80864, 42.05969], [-76.80858, 42.05891], [-76.80883, 42.05782], [-76.81092, 42.05724], [-76.81212, 42.05954], [-76.81507, 42.05777], [-76.81971, 42.05546], [-76.81775, 42.06024], [-76.81756, 42.0613], [-76.81624, 42.0651], [-76.81594, 42.0652], [-76.81566, 42.06444], [-76.81331, 42.06502], [-76.81113, 42.06055], [-76.80981, 42.06102], [-76.80864, 42.05969]]]}}, {"type": "Feature", "properties": {"area_id": 6947, "city": "Elmira", "state": "NY", "city_survey": true, "cat": "Definitely Declining", "grade": "C", "label": "C2", "res": true, "com": false, "ind": false, "holc_grade": "C"}, "geometry": {"type": "Polygon", "coordinates": [[[-76.82629, 42.13093], [-76.825604, 42.13105], [-76.8248, 42.13119], [-76.82482, 42.13175], [-76.82047, 42.13182], [-76.82007, 42.13001], [-76.82512, 42.12933], [-76.82579, 42.12924], [-76.82629, 42.13093]]]}}, {"type": "Feature", "properties": {"area_id": 6945, "city": "Elmira", "state": "NY", "city_survey": true, "cat": "Definitely Declining", "grade": "C", "label": "C3", "res": true, "com": false, "ind": false, "holc_grade": "C"}, "geometry": {"type": "Polygon", "coordinates": [[[-76.813796, 42.104413], [-76.8154, 42.10476], [-76.81633, 42.10485], [-76.81843, 42.10495], [-76.81862, 42.10574], [-76.82293, 42.10438], [-76.823047, 42.104558], [-76.82335, 42.10502], [-76.82443, 42.107], [-76.8265, 42.11081], [-76.82678, 42.11216], [-76.826591, 42.11232], [-76.82482, 42.11382], [-76.82072, 42.11194], [-76.82215, 42.11639], [-76.82272, 42.11776], [-76.822905, 42.118377], [-76.82322, 42.11943], [-76.82418, 42.12324], [-76.82443, 42.12411], [-76.82443, 42.12451], [-76.82482, 42.12517], [-76.82532, 42.12728], [-76.8255, 42.12834], [-76.824849, 42.128426], [-76.81987, 42.12908], [-76.81951, 42.12837], [-76.81891, 42.12186], [-76.81612, 42.1226], [-76.81855, 42.13083], [-76.81915, 42.13069], [-76.81908, 42.13154], [-76.81969, 42.13278], [-76.8203, 42.13421], [-76.826532, 42.134318], [-76.82664, 42.13432], [-76.82974, 42.14338], [-76.829092, 42.143262], [-76.8276, 42.14299], [-76.82618, 42.14233], [-76.82468, 42.14211], [-76.82333, 42.14137], [-76.82183, 42.14026], [-76.82033, 42.13955], [-76.81873, 42.13939], [-76.81566, 42.13847], [-76.81195, 42.13632], [-76.811095, 42.133493], [-76.81103, 42.13328], [-76.811141, 42.13322], [-76.81131, 42.13313], [-76.81177, 42.13328], [-76.8122, 42.13344], [-76.81548, 42.13244], [-76.81555, 42.13154], [-76.81516, 42.13035], [-76.81366, 42.12834], [-76.81263, 42.1286], [-76.81099, 42.12913], [-76.81003, 42.12895], [-76.80878, 42.12313], [-76.81042, 42.12281], [-76.81174, 42.12244], [-76.81256, 42.12213], [-76.81416, 42.12207], [-76.81488, 42.12202], [-76.81659, 42.12149], [-76.81598, 42.11885], [-76.816091, 42.118818], [-76.82104, 42.11739], [-76.82012, 42.11538], [-76.818591, 42.112822], [-76.81516, 42.10708], [-76.814368, 42.105548], [-76.81378, 42.10441], [-76.813796, 42.104413]]]}}, {"type": "Feature", "properties": {"area_id": 6940, "city": "Elmira", "state": "NY", "city_survey": true, "cat": "Definitely Declining", "grade": "C", "label": "C4", "res": true, "com": false, "ind": false, "holc_grade": "C"}, "geometry": {"type": "Polygon", "coordinates": [[[-76.81145, 42.09582], [-76.80986, 42.09279], [-76.81069, 42.09259], [-76.8139, 42.09843], [-76.814177, 42.098932], [-76.81433, 42.09921], [-76.81414, 42.09961], [-76.81376, 42.10005], [-76.81633, 42.10485], [-76.8154, 42.10476], [-76.812438, 42.099439], [-76.81058, 42.0961], [-76.81145, 42.09582]]]}}, {"type": "Feature", "properties": {"area_id": 6938, "city": "Elmira", "state": "NY", "city_survey": true, "cat": "Definitely Declining", "grade": "C", "label": "C5", "res": true, "com": false, "ind": false, "holc_grade": "C"}, "geometry": {"type": "Polygon", "coordinates": [[[-76.80231, 42.09797], [-76.80271, 42.09789], [-76.803471, 42.099286], [-76.80349, 42.09932], [-76.803923, 42.099414], [-76.80506, 42.09966], [-76.80673, 42.10035], [-76.806979, 42.100772], [-76.80709, 42.10096], [-76.80681, 42.10112], [-76.80973, 42.1067], [-76.81101, 42.10643], [-76.81358, 42.1112], [-76.81169, 42.11305], [-76.8123, 42.11376], [-76.81197, 42.11416], [-76.81126, 42.11574], [-76.81105, 42.11675], [-76.810951, 42.117981], [-76.81094, 42.11812], [-76.81, 42.118289], [-76.80827, 42.1186], [-76.80784, 42.11455], [-76.80641, 42.11498], [-76.80435, 42.10942], [-76.80517, 42.10911], [-76.80292, 42.1054], [-76.80205, 42.10579], [-76.798184, 42.098296], [-76.79814, 42.09821], [-76.80174, 42.09718], [-76.80231, 42.09797]]]}}, {"type": "Feature", "properties": {"area_id": 6950, "city": "Elmira", "state": "NY", "city_survey": true, "cat": "Definitely Declining", "grade": "C", "label": "C6", "res": true, "com": false, "ind": false, "holc_grade": "C"}, "geometry": {"type": "Polygon", "coordinates": [[[-76.8381, 42.08196], [-76.83974, 42.0814], [-76.84573, 42.08092], [-76.85728, 42.08159], [-76.85728, 42.08111], [-76.85442, 42.07899], [-76.85546, 42.07815], [-76.85649, 42.07809], [-76.85774, 42.07796], [-76.8579, 42.07789], [-76.85849, 42.07762], [-76.85963, 42.0787], [-76.86031, 42.07939], [-76.86113, 42.07965], [-76.86077, 42.08735], [-76.85934, 42.08722], [-76.85763, 42.08828], [-76.85774, 42.09008], [-76.8525, 42.09024], [-76.85136, 42.08751], [-76.85057, 42.086], [-76.85079, 42.08426], [-76.84697, 42.08439], [-76.84045, 42.08516], [-76.83849, 42.08579], [-76.83656, 42.08231], [-76.8381, 42.08196]]]}}, {"type": "Feature", "properties": {"area_id": 6941, "city": "Elmira", "state": "NY", "city_survey": true, "cat": "Definitely Declining", "grade": "C", "label": "C7", "res": true, "com": false, "ind": false, "holc_grade": "C"}, "geometry": {"type": "Polygon", "coordinates": [[[-76.80922, 42.08958], [-76.80879, 42.08863], [-76.80974, 42.0884], [-76.81065, 42.09004], [-76.812332, 42.089589], [-76.81699, 42.08834], [-76.82163, 42.09619], [-76.8139, 42.09843], [-76.81069, 42.09259], [-76.80986, 42.09279], [-76.80808, 42.09326], [-76.808078, 42.093255], [-76.80653, 42.0903], [-76.80922, 42.08958]]]}}, {"type": "Feature", "properties": {"area_id": 6935, "city": "Elmira", "state": "NY", "city_survey": true, "cat": "Definitely Declining", "grade": "C", "label": "C8", "res": true, "com": false, "ind": false, "holc_grade": "C"}, "geometry": {"type": "Polygon", "coordinates": [[[-76.80179, 42.09465], [-76.80051, 42.09208], [-76.80257, 42.09141], [-76.80345, 42.09303], [-76.80583, 42.09234], [-76.80619, 42.09338], [-76.80179, 42.09465]]]}}, {"type": "Feature", "properties": {"area_id": 6930, "city": "Elmira", "state": "NY", "city_survey": true, "cat": "Definitely Declining", "grade": "C", "label": "C9", "res": true, "com": false, "ind": false, "holc_grade": "C"}, "geometry": {"type": "Polygon", "coordinates": [[[-76.81113, 42.06055], [-76.81331, 42.06502], [-76.81566, 42.06444], [-76.81594, 42.0652], [-76.81624, 42.0651], [-76.81644, 42.06503], [-76.81748, 42.06609], [-76.81938, 42.06948], [-76.81745, 42.07001], [-76.81765, 42.07076], [-76.816011, 42.07126], [-76.81575, 42.07134], [-76.81682, 42.07337], [-76.817201, 42.073258], [-76.81863, 42.07284], [-76.81982, 42.07273], [-76.82171, 42.07229], [-76.82264, 42.07363], [-76.82316, 42.07509], [-76.82161, 42.07557], [-76.82273, 42.07608], [-76.8233, 42.07672], [-76.82208, 42.07815], [-76.82172, 42.07868], [-76.82066, 42.07928], [-76.820561, 42.079331], [-76.81899, 42.08014], [-76.814679, 42.082087], [-76.81465, 42.0821], [-76.81011, 42.08426], [-76.80675, 42.08492], [-76.80325, 42.07735], [-76.80188, 42.07768], [-76.80538, 42.08551], [-76.80303, 42.08623], [-76.80139, 42.08668], [-76.80029, 42.08421], [-76.799789, 42.084377], [-76.79915, 42.08459], [-76.799315, 42.084941], [-76.79972, 42.0858], [-76.798986, 42.085362], [-76.79818, 42.08488], [-76.79134, 42.07929], [-76.78888, 42.07479], [-76.788158, 42.072172], [-76.78813, 42.07207], [-76.787569, 42.072248], [-76.78731, 42.07233], [-76.78731, 42.07286], [-76.78682, 42.07302], [-76.78831, 42.07937], [-76.78878, 42.0807], [-76.79284, 42.08379], [-76.79052, 42.08477], [-76.7866, 42.08144], [-76.78575, 42.07905], [-76.78653, 42.07884], [-76.786429, 42.07848], [-76.78545, 42.075], [-76.78478, 42.07265], [-76.78749, 42.07191], [-76.78778, 42.07127], [-76.78924, 42.07104], [-76.789477, 42.071777], [-76.78953, 42.07194], [-76.79156, 42.07165], [-76.79106, 42.0731], [-76.79106, 42.07461], [-76.79152, 42.07514], [-76.79206, 42.07485], [-76.79391, 42.0745], [-76.79388, 42.07305], [-76.79338, 42.07257], [-76.79384, 42.0718], [-76.79377, 42.07122], [-76.79562, 42.07072], [-76.79837, 42.07514], [-76.79662, 42.07567], [-76.79847, 42.07741], [-76.801199, 42.082458], [-76.80126, 42.08257], [-76.801478, 42.082063], [-76.801612, 42.081752], [-76.80218, 42.08043], [-76.80126, 42.07845], [-76.800204, 42.078222], [-76.80001, 42.07818], [-76.80001, 42.077409], [-76.80001, 42.07659], [-76.800893, 42.074357], [-76.8009, 42.07434], [-76.80215, 42.07392], [-76.80147, 42.07252], [-76.80293, 42.07225], [-76.804823, 42.067098], [-76.80721, 42.0606], [-76.80913, 42.06176], [-76.80981, 42.06102], [-76.81113, 42.06055]]]}}, {"type": "Feature", "properties": {"area_id": 6939, "city": "Elmira", "state": "NY", "city_survey": true, "cat": "Hazardous", "grade": "D", "label": "D1", "res": true, "com": false, "ind": false, "holc_grade": "D"}, "geometry": {"type": "Polygon", "coordinates": [[[-76.81145, 42.09582], [-76.81058, 42.0961], [-76.812438, 42.099439], [-76.8154, 42.10476], [-76.813796, 42.104413], [-76.81378, 42.10441], [-76.813661, 42.104146], [-76.81279, 42.10221], [-76.812601, 42.102253], [-76.81093, 42.10263], [-76.80939, 42.10162], [-76.80882, 42.10122], [-76.8086, 42.10086], [-76.808465, 42.100634], [-76.8082, 42.10019], [-76.80725, 42.09718], [-76.80592, 42.09758], [-76.80673, 42.10035], [-76.80506, 42.09966], [-76.803923, 42.099414], [-76.80349, 42.09932], [-76.803471, 42.099286], [-76.80271, 42.09789], [-76.80934, 42.09589], [-76.80854, 42.094221], [-76.80808, 42.09326], [-76.80986, 42.09279], [-76.81145, 42.09582]]]}}, {"type": "Feature", "properties": {"area_id": 6936, "city": "Elmira", "state": "NY", "city_survey": true, "cat": "Hazardous", "grade": "D", "label": "D2", "res": true, "com": false, "ind": false, "holc_grade": "D"}, "geometry": {"type": "Polygon", "coordinates": [[[-76.80205, 42.10579], [-76.80292, 42.1054], [-76.80517, 42.10911], [-76.80435, 42.10942], [-76.80641, 42.11498], [-76.80463, 42.11553], [-76.80374, 42.11279], [-76.80274, 42.10974], [-76.80256, 42.10945], [-76.80039, 42.10599], [-76.796082, 42.097867], [-76.79472, 42.0953], [-76.79269, 42.09583], [-76.78877, 42.0886], [-76.78951, 42.08839], [-76.7919, 42.08839], [-76.79572, 42.08855], [-76.79689, 42.08863], [-76.79786, 42.08855], [-76.79896, 42.09067], [-76.79967, 42.09054], [-76.80051, 42.09208], [-76.80179, 42.09465], [-76.80619, 42.09338], [-76.80656, 42.09495], [-76.80128, 42.09657], [-76.80174, 42.09718], [-76.79814, 42.09821], [-76.798184, 42.098296], [-76.80205, 42.10579]], [[-76.80205, 42.10579], [-76.80197, 42.10632], [-76.80161, 42.10673], [-76.80142, 42.10711], [-76.80163, 42.10756], [-76.80214, 42.10827], [-76.80235, 42.10832], [-76.80293, 42.10817], [-76.80346, 42.10798], [-76.8038, 42.10761], [-76.80373, 42.10717], [-76.80343, 42.1067], [-76.80328, 42.10636], [-76.80299, 42.10595], [-76.80291, 42.10581], [-76.80265, 42.10559], [-76.80205, 42.10579]]]}}, {"type": "Feature", "properties": {"area_id": 6937, "city": "Elmira", "state": "NY", "city_survey": true, "cat": "Hazardous", "grade": "D", "label": "D3", "res": true, "com": false, "ind": false, "holc_grade": "D"}, "geometry": {"type": "MultiPolygon", "coordinates": [[[[-76.80256, 42.10945], [-76.80274, 42.10974], [-76.80374, 42.11279], [-76.80249, 42.11307], [-76.80189, 42.11302], [-76.80117, 42.11239], [-76.80121, 42.1117], [-76.80153, 42.11122], [-76.80103, 42.11046], [-76.80196, 42.10993], [-76.80256, 42.10945]]], [[[-76.80256, 42.10945], [-76.80189, 42.10932], [-76.80135, 42.109], [-76.8, 42.10871], [-76.79918, 42.10826], [-76.79918, 42.10789], [-76.79928, 42.10741], [-76.79928, 42.10662], [-76.79914, 42.10646], [-76.793213, 42.10799], [-76.79147, 42.10844], [-76.782678, 42.090993], [-76.78249, 42.09062], [-76.782434, 42.09054], [-76.781715, 42.089518], [-76.78074, 42.08813], [-76.78099, 42.08813], [-76.781092, 42.088102], [-76.78139, 42.08802], [-76.78174, 42.08797], [-76.7826, 42.08813], [-76.78367, 42.0885], [-76.78459, 42.08879], [-76.78534, 42.08887], [-76.78616, 42.08882], [-76.78741, 42.08868], [-76.78877, 42.0886], [-76.79269, 42.09583], [-76.79472, 42.0953], [-76.796082, 42.097867], [-76.80039, 42.10599], [-76.80256, 42.10945]]]]}}, {"type": "Feature", "properties": {"area_id": 6951, "city": "Elmira", "state": "NY", "city_survey": true, "cat": "Hazardous", "grade": "D", "label": "D4", "res": true, "com": false, "ind": false, "holc_grade": "D"}, "geometry": {"type": "Polygon", "coordinates": [[[-76.83099, 42.07601], [-76.8328, 42.07586], [-76.83377, 42.07547], [-76.83588, 42.0746], [-76.837142, 42.074452], [-76.83793, 42.07436], [-76.84193, 42.07398], [-76.84731, 42.07412], [-76.85151, 42.07423], [-76.85258, 42.07425], [-76.85315, 42.07435], [-76.85438, 42.07488], [-76.85509, 42.07538], [-76.85693, 42.07707], [-76.8579, 42.07789], [-76.85774, 42.07796], [-76.85649, 42.07809], [-76.85592, 42.07746], [-76.85325, 42.07553], [-76.85214, 42.07523], [-76.8495, 42.07521], [-76.84155, 42.07547], [-76.83642, 42.07627], [-76.83024, 42.07883], [-76.82927, 42.07917], [-76.827072, 42.080023], [-76.82489, 42.08087], [-76.82307, 42.08169], [-76.82097, 42.08267], [-76.81826, 42.08349], [-76.81803, 42.08329], [-76.81898, 42.08276], [-76.81943, 42.08264], [-76.82, 42.08259], [-76.8204, 42.08246], [-76.82084, 42.08218], [-76.82111, 42.08174], [-76.82196, 42.0814], [-76.82354, 42.08075], [-76.824, 42.08063], [-76.82428, 42.08056], [-76.82453, 42.08041], [-76.82482, 42.08037], [-76.82544, 42.08016], [-76.82556, 42.07995], [-76.82529, 42.07989], [-76.82449, 42.08005], [-76.82385, 42.08023], [-76.82329, 42.08041], [-76.8227, 42.08068], [-76.82221, 42.08088], [-76.82156, 42.08119], [-76.82071, 42.08154], [-76.82018, 42.0818], [-76.8197, 42.08192], [-76.81922, 42.08219], [-76.81902, 42.0825], [-76.81814, 42.08302], [-76.81786, 42.08308], [-76.81787, 42.08286], [-76.81919, 42.08181], [-76.82221, 42.0802], [-76.82333, 42.08], [-76.82434, 42.07944], [-76.82573, 42.07869], [-76.826699, 42.07832], [-76.82772, 42.07793], [-76.828101, 42.077608], [-76.82902, 42.07683], [-76.83099, 42.07601]]]}}, {"type": "Feature", "properties": {"area_id": 6929, "city": "Elmira", "state": "NY", "city_survey": true, "cat": "Hazardous", "grade": "D", "label": "D5", "res": true, "com": false, "ind": false, "holc_grade": "D"}, "geometry": {"type": "Polygon", "coordinates": [[[-76.82264, 42.07363], [-76.82171, 42.07229], [-76.82202, 42.07147], [-76.82178, 42.07075], [-76.82095, 42.06899], [-76.81938, 42.06948], [-76.81748, 42.06609], [-76.81644, 42.06503], [-76.82024, 42.06398], [-76.82601, 42.07398], [-76.82316, 42.07509], [-76.82264, 42.07363]]]}}, {"type": "Feature", "properties": {"area_id": 6952, "city": "Elmira", "state": "NY", "city_survey": true, "cat": "Hazardous", "grade": "D", "label": "D6", "res": true, "com": false, "ind": false, "holc_grade": "D"}, "geometry": {"type": "Polygon", "coordinates": [[[-76.78226, 42.07811], [-76.78164, 42.07667], [-76.78137, 42.07573], [-76.78545, 42.075], [-76.786429, 42.07848], [-76.78653, 42.07884], [-76.78575, 42.07905], [-76.7866, 42.08144], [-76.79052, 42.08477], [-76.78737, 42.08682], [-76.78651, 42.08695], [-76.78631, 42.08675], [-76.78657, 42.0866], [-76.78693, 42.08635], [-76.78675, 42.08605], [-76.7861, 42.08538], [-76.78286, 42.08338], [-76.78259, 42.08283], [-76.78212, 42.08261], [-76.78176, 42.08225], [-76.78131, 42.08148], [-76.78063, 42.08045], [-76.782763, 42.079848], [-76.783073, 42.07976], [-76.78488, 42.07925], [-76.784767, 42.078982], [-76.78426, 42.07778], [-76.78226, 42.07811]]]}}, {"type": "Feature", "properties": {"area_id": 6933, "city": "Elmira", "state": "NY", "city_survey": true, "cat": "Hazardous", "grade": "D", "label": "D7", "res": true, "com": false, "ind": false, "holc_grade": "D"}, "geometry": {"type": "Polygon", "coordinates": [[[-76.79244, 42.07154], [-76.79217, 42.07199], [-76.79165, 42.07287], [-76.79155, 42.07372], [-76.7915, 42.07447], [-76.79161, 42.07463], [-76.79187, 42.07465], [-76.79224, 42.0744], [-76.79221, 42.07366], [-76.79211, 42.0732], [-76.79228, 42.07278], [-76.79272, 42.07227], [-76.79319, 42.07164], [-76.79322, 42.07136], [-76.79377, 42.07122], [-76.79384, 42.0718], [-76.79338, 42.07257], [-76.79388, 42.07305], [-76.79391, 42.0745], [-76.79206, 42.07485], [-76.79152, 42.07514], [-76.79106, 42.07461], [-76.79106, 42.0731], [-76.79156, 42.07165], [-76.79244, 42.07154]]]}}, {"type": "Feature", "properties": {"area_id": 6932, "city": "Elmira", "state": "NY", "city_survey": true, "cat": "Hazardous", "grade": "D", "label": "D8", "res": true, "com": false, "ind": false, "holc_grade": "D"}, "geometry": {"type": "Polygon", "coordinates": [[[-76.79445, 42.06859], [-76.79076, 42.06235], [-76.78975, 42.06096], [-76.79558, 42.05904], [-76.79879, 42.05908], [-76.80009, 42.06142], [-76.79911, 42.06281], [-76.79888, 42.06372], [-76.79938, 42.0644], [-76.80018, 42.06614], [-76.80152, 42.06738], [-76.80333, 42.06707], [-76.80384, 42.06564], [-76.805, 42.06116], [-76.80514, 42.05939], [-76.80721, 42.0606], [-76.804823, 42.067098], [-76.80293, 42.07225], [-76.80147, 42.07252], [-76.801482, 42.072083], [-76.80149, 42.07177], [-76.80104, 42.07088], [-76.79932, 42.07133], [-76.798041, 42.069043], [-76.79748, 42.06804], [-76.79445, 42.06859]]]}}, {"type": "Feature", "properties": {"area_id": 11389, "city": "Elmira", "state": "NY", "city_survey": true, "cat": "Commercial", "grade": null, "label": "Commercial", "res": false, "com": true, "ind": false, "holc_grade": null}, "geometry": {"type": "MultiPolygon", "coordinates": [[[[-76.81081, 42.08645], [-76.81148, 42.0878], [-76.811406, 42.087826], [-76.80974, 42.0884], [-76.80879, 42.08863], [-76.80922, 42.08958], [-76.80653, 42.0903], [-76.808078, 42.093255], [-76.80808, 42.09326], [-76.808553, 42.094243], [-76.80871, 42.09457], [-76.80656, 42.09495], [-76.80619, 42.09338], [-76.80583, 42.09234], [-76.80345, 42.09303], [-76.80257, 42.09141], [-76.80051, 42.09208], [-76.79967, 42.09054], [-76.79896, 42.09067], [-76.79786, 42.08855], [-76.79921, 42.08844], [-76.80315, 42.08782], [-76.8049, 42.08759], [-76.80702, 42.08717], [-76.8096, 42.08646], [-76.810568, 42.086452], [-76.81081, 42.08645]]], [[[-76.799789, 42.084377], [-76.80029, 42.08421], [-76.80139, 42.08668], [-76.80021, 42.08684], [-76.79972, 42.0858], [-76.799315, 42.084941], [-76.79915, 42.08459], [-76.799789, 42.084377]]], [[[-76.80602, 42.08538], [-76.80538, 42.08551], [-76.80188, 42.07768], [-76.80325, 42.07735], [-76.80675, 42.08492], [-76.80628, 42.085], [-76.80602, 42.08538]]], [[[-76.82579, 42.12924], [-76.82512, 42.12933], [-76.82007, 42.13001], [-76.81987, 42.12908], [-76.824849, 42.128426], [-76.8255, 42.12834], [-76.82682, 42.12818], [-76.82703, 42.12897], [-76.82579, 42.12924]]]]}}, {"type": "Feature", "properties": {"area_id": 11388, "city": "Elmira", "state": "NY", "city_survey": true, "cat": "Industrial", "grade": null, "label": "Industrial", "res": false, "com": false, "ind": true, "holc_grade": null}, "geometry": {"type": "MultiPolygon", "coordinates": [[[[-76.79932, 42.07133], [-76.80104, 42.07088], [-76.80149, 42.07177], [-76.801482, 42.072083], [-76.80147, 42.07252], [-76.80215, 42.07392], [-76.8009, 42.07434], [-76.800893, 42.074357], [-76.80001, 42.07659], [-76.80001, 42.077409], [-76.80001, 42.07818], [-76.800204, 42.078222], [-76.80126, 42.07845], [-76.80218, 42.08043], [-76.801612, 42.081752], [-76.801478, 42.082063], [-76.80126, 42.08257], [-76.801199, 42.082458], [-76.79847, 42.07741], [-76.79662, 42.07567], [-76.79837, 42.07514], [-76.79562, 42.07072], [-76.79377, 42.07122], [-76.79322, 42.07136], [-76.79321, 42.07142], [-76.79244, 42.07154], [-76.792158, 42.070859], [-76.79141, 42.06905], [-76.79445, 42.06859], [-76.79748, 42.06804], [-76.798041, 42.069043], [-76.79932, 42.07133]]], [[[-76.80231, 42.09797], [-76.80174, 42.09718], [-76.80128, 42.09657], [-76.80656, 42.09495], [-76.80871, 42.09457], [-76.80934, 42.09589], [-76.80271, 42.09789], [-76.80231, 42.09797]]], [[[-76.808465, 42.100634], [-76.8086, 42.10086], [-76.80882, 42.10122], [-76.80939, 42.10162], [-76.81093, 42.10263], [-76.812601, 42.102253], [-76.81279, 42.10221], [-76.813661, 42.104146], [-76.81378, 42.10441], [-76.814368, 42.105548], [-76.81516, 42.10708], [-76.81772, 42.11136], [-76.817657, 42.111378], [-76.81169, 42.11305], [-76.81358, 42.1112], [-76.81101, 42.10643], [-76.80973, 42.1067], [-76.80681, 42.10112], [-76.80709, 42.10096], [-76.806979, 42.100772], [-76.80673, 42.10035], [-76.80592, 42.09758], [-76.80725, 42.09718], [-76.8082, 42.10019], [-76.808465, 42.100634]]], [[[-76.81855, 42.13083], [-76.81612, 42.1226], [-76.81891, 42.12186], [-76.81951, 42.12837], [-76.81987, 42.12908], [-76.82007, 42.13001], [-76.82047, 42.13182], [-76.82482, 42.13175], [-76.8248, 42.13119], [-76.825604, 42.13105], [-76.82629, 42.13093], [-76.82846, 42.13072], [-76.8291, 42.13246], [-76.82622, 42.13258], [-76.82664, 42.13432], [-76.826532, 42.134318], [-76.8203, 42.13421], [-76.81969, 42.13278], [-76.81908, 42.13154], [-76.81915, 42.13069], [-76.81855, 42.13083]]]]}}]}