{"type": "FeatureCollection", "features": [{"type": "Feature", "properties": {"area_id": 4558, "city": "Springfield", "state": "MO", "city_survey": true, "cat": "Best", "grade": "A", "label": "A1", "res": true, "com": false, "ind": false, "holc_grade": "A"}, "geometry": {"type": "Polygon", "coordinates": [[[-93.28544, 37.18047], [-93.28548, 37.18138], [-93.285517, 37.182118], [-93.28552, 37.18218], [-93.286899, 37.182135], [-93.28737, 37.18212], [-93.287369, 37.18214], [-93.28726, 37.18388], [-93.28716, 37.18573], [-93.28616, 37.18572], [-93.276521, 37.18567], [-93.27646, 37.18567], [-93.276559, 37.181943], [-93.27657, 37.18152], [-93.276634, 37.181157], [-93.27675, 37.1805], [-93.28227, 37.18056], [-93.28544, 37.18047]]]}}, {"type": "Feature", "properties": {"area_id": 4555, "city": "Springfield", "state": "MO", "city_survey": true, "cat": "Best", "grade": "A", "label": "A2", "res": true, "com": false, "ind": false, "holc_grade": "A"}, "geometry": {"type": "Polygon", "coordinates": [[[-93.26359, 37.19064], [-93.26672, 37.19075], [-93.26997, 37.19087], [-93.26969, 37.19473], [-93.26837, 37.1947], [-93.2684, 37.19518], [-93.262098, 37.195018], [-93.2618, 37.19501], [-93.26207, 37.19261], [-93.26215, 37.192602], [-93.26327, 37.19249], [-93.26359, 37.19064]]]}}, {"type": "Feature", "properties": {"area_id": 4564, "city": "Springfield", "state": "MO", "city_survey": true, "cat": "Still Desirable", "grade": "B", "label": "B1", "res": true, "com": false, "ind": false, "holc_grade": "B"}, "geometry": {"type": "Polygon", "coordinates": [[[-93.26145, 37.20546], [-93.2619, 37.20547], [-93.26826, 37.20561], [-93.27603, 37.20569], [-93.27625, 37.20649], [-93.276, 37.20762], [-93.27038, 37.20734], [-93.27029, 37.20734], [-93.2648, 37.20717], [-93.261897, 37.207122], [-93.2612, 37.20711], [-93.26145, 37.20546]]]}}, {"type": "Feature", "properties": {"area_id": 4557, "city": "Springfield", "state": "MO", "city_survey": true, "cat": "Still Desirable", "grade": "B", "label": "B2", "res": true, "com": false, "ind": false, "holc_grade": "B"}, "geometry": {"type": "Polygon", "coordinates": [[[-93.276559, 37.181943], [-93.27646, 37.18567], [-93.27633, 37.18924], [-93.276066, 37.196566], [-93.27606, 37.19674], [-93.27593, 37.20035], [-93.27582, 37.20353], [-93.27372, 37.2037], [-93.27268, 37.20365], [-93.27161, 37.20348], [-93.27008, 37.20362], [-93.26908, 37.20362], [-93.2673, 37.20348], [-93.26755, 37.19652], [-93.262069, 37.196325], [-93.26165, 37.19631], [-93.261655, 37.19627], [-93.2618, 37.19501], [-93.262098, 37.195018], [-93.2684, 37.19518], [-93.26837, 37.1947], [-93.26969, 37.19473], [-93.26997, 37.19087], [-93.26672, 37.19075], [-93.26673, 37.18888], [-93.26701, 37.1855], [-93.26701, 37.18439], [-93.266834, 37.181699], [-93.26683, 37.18164], [-93.27657, 37.18152], [-93.276559, 37.181943]]]}}, {"type": "Feature", "properties": {"area_id": 4560, "city": "Springfield", "state": "MO", "city_survey": true, "cat": "Still Desirable", "grade": "B", "label": "B3", "res": true, "com": false, "ind": false, "holc_grade": "B"}, "geometry": {"type": "Polygon", "coordinates": [[[-93.28737, 37.18212], [-93.286899, 37.182135], [-93.28552, 37.18218], [-93.285517, 37.182118], [-93.28548, 37.18138], [-93.28691, 37.18132], [-93.28855, 37.18098], [-93.29225, 37.18101], [-93.295041, 37.181137], [-93.296, 37.18118], [-93.29553, 37.18195], [-93.29553, 37.18217], [-93.29553, 37.18223], [-93.29494, 37.182215], [-93.293304, 37.182175], [-93.29229, 37.18215], [-93.292279, 37.18218], [-93.29211, 37.18266], [-93.29097, 37.18286], [-93.29047, 37.19354], [-93.29044, 37.196856], [-93.29044, 37.19686], [-93.29013, 37.196861], [-93.28298, 37.19689], [-93.28024, 37.19686], [-93.27625, 37.196745], [-93.27606, 37.19674], [-93.276066, 37.196566], [-93.27633, 37.18924], [-93.276395, 37.189237], [-93.27795, 37.18917], [-93.27799, 37.19161], [-93.27824, 37.19379], [-93.28081, 37.19376], [-93.28091, 37.18905], [-93.28216, 37.18899], [-93.28202, 37.19203], [-93.28423, 37.19212], [-93.28466, 37.18854], [-93.28512, 37.18692], [-93.28616, 37.18572], [-93.28716, 37.18573], [-93.28726, 37.18388], [-93.287369, 37.18214], [-93.28737, 37.18212]]]}}, {"type": "Feature", "properties": {"area_id": 4568, "city": "Springfield", "state": "MO", "city_survey": true, "cat": "Definitely Declining", "grade": "C", "label": "C1", "res": true, "com": false, "ind": false, "holc_grade": "C"}, "geometry": {"type": "Polygon", "coordinates": [[[-93.30334, 37.19666], [-93.30345, 37.19325], [-93.30548, 37.19331], [-93.30566, 37.19104], [-93.30694, 37.1909], [-93.30844, 37.19126], [-93.308216, 37.197051], [-93.30794, 37.20416], [-93.303413, 37.204056], [-93.30053, 37.20399], [-93.30028, 37.20248], [-93.3017, 37.20243], [-93.30184, 37.20089], [-93.30184, 37.19687], [-93.30184, 37.19655], [-93.30334, 37.19666]]]}}, {"type": "Feature", "properties": {"area_id": 4575, "city": "Springfield", "state": "MO", "city_survey": true, "cat": "Definitely Declining", "grade": "C", "label": "C10", "res": true, "com": false, "ind": false, "holc_grade": "C"}, "geometry": {"type": "Polygon", "coordinates": [[[-93.30191, 37.24028], [-93.29777, 37.24032], [-93.29744, 37.24062], [-93.2962, 37.24044], [-93.29639, 37.2334], [-93.29692, 37.23336], [-93.29711, 37.23109], [-93.3003, 37.23071], [-93.30034, 37.2334], [-93.305, 37.23343], [-93.30676, 37.23359], [-93.3069, 37.23412], [-93.30609, 37.23415], [-93.30619, 37.23536], [-93.305768, 37.24083], [-93.30576, 37.24093], [-93.303741, 37.240803], [-93.3021, 37.2407], [-93.30191, 37.24028]]]}}, {"type": "Feature", "properties": {"area_id": 4561, "city": "Springfield", "state": "MO", "city_survey": true, "cat": "Definitely Declining", "grade": "C", "label": "C2", "res": true, "com": false, "ind": false, "holc_grade": "C"}, "geometry": {"type": "Polygon", "coordinates": [[[-93.29229, 37.18215], [-93.293304, 37.182175], [-93.29494, 37.182215], [-93.29553, 37.18223], [-93.294942, 37.183543], [-93.29493, 37.18357], [-93.29486, 37.18556], [-93.29481, 37.1862], [-93.29471, 37.18771], [-93.294791, 37.189346], [-93.29482, 37.18993], [-93.29481, 37.19049], [-93.29477, 37.19231], [-93.29475, 37.19348], [-93.294621, 37.193482], [-93.29047, 37.19354], [-93.29097, 37.18286], [-93.29211, 37.18266], [-93.292279, 37.18218], [-93.29229, 37.18215]]]}}, {"type": "Feature", "properties": {"area_id": 4559, "city": "Springfield", "state": "MO", "city_survey": true, "cat": "Definitely Declining", "grade": "C", "label": "C3", "res": true, "com": false, "ind": false, "holc_grade": "C"}, "geometry": {"type": "Polygon", "coordinates": [[[-93.28091, 37.18905], [-93.28081, 37.19376], [-93.27824, 37.19379], [-93.27799, 37.19161], [-93.27795, 37.18917], [-93.28091, 37.18905]]]}}, {"type": "Feature", "properties": {"area_id": 4553, "city": "Springfield", "state": "MO", "city_survey": true, "cat": "Definitely Declining", "grade": "C", "label": "C4", "res": true, "com": false, "ind": false, "holc_grade": "C"}, "geometry": {"type": "Polygon", "coordinates": [[[-93.276776, 37.17707], [-93.27671, 37.17723], [-93.2766, 37.17843], [-93.27175, 37.17885], [-93.27183, 37.17678], [-93.276801, 37.176166], [-93.27717, 37.17612], [-93.276776, 37.17707]]]}}, {"type": "Feature", "properties": {"area_id": 4556, "city": "Springfield", "state": "MO", "city_survey": true, "cat": "Definitely Declining", "grade": "C", "label": "C5", "res": true, "com": false, "ind": false, "holc_grade": "C"}, "geometry": {"type": "Polygon", "coordinates": [[[-93.26174, 37.20166], [-93.26159, 37.19686], [-93.26165, 37.19631], [-93.262069, 37.196325], [-93.26755, 37.19652], [-93.2673, 37.20348], [-93.26534, 37.20362], [-93.2642, 37.20342], [-93.26291, 37.20353], [-93.261927, 37.20353], [-93.26181, 37.20353], [-93.26174, 37.20166]]]}}, {"type": "Feature", "properties": {"area_id": 4563, "city": "Springfield", "state": "MO", "city_survey": true, "cat": "Definitely Declining", "grade": "C", "label": "C6", "res": true, "com": false, "ind": false, "holc_grade": "C"}, "geometry": {"type": "Polygon", "coordinates": [[[-93.291123, 37.19687], [-93.293464, 37.196904], [-93.293857, 37.19691], [-93.29454, 37.19692], [-93.29536, 37.19703], [-93.294997, 37.204147], [-93.29493, 37.20546], [-93.29422, 37.20546], [-93.28662, 37.20538], [-93.2863, 37.20969], [-93.28213, 37.20958], [-93.282005, 37.207064], [-93.28199, 37.20677], [-93.27625, 37.20649], [-93.27603, 37.20569], [-93.26826, 37.20561], [-93.2619, 37.20547], [-93.26145, 37.20546], [-93.26138, 37.20495], [-93.26181, 37.20353], [-93.261927, 37.20353], [-93.26291, 37.20353], [-93.2642, 37.20342], [-93.26534, 37.20362], [-93.2673, 37.20348], [-93.26908, 37.20362], [-93.27008, 37.20362], [-93.27161, 37.20348], [-93.27268, 37.20365], [-93.27372, 37.2037], [-93.27582, 37.20353], [-93.27593, 37.20035], [-93.276099, 37.200349], [-93.28006, 37.20032], [-93.28024, 37.19686], [-93.28298, 37.19689], [-93.29013, 37.196861], [-93.29044, 37.19686], [-93.290934, 37.196867], [-93.291123, 37.19687]]]}}, {"type": "Feature", "properties": {"area_id": 4565, "city": "Springfield", "state": "MO", "city_survey": true, "cat": "Definitely Declining", "grade": "C", "label": "C7", "res": true, "com": false, "ind": false, "holc_grade": "C"}, "geometry": {"type": "Polygon", "coordinates": [[[-93.2612, 37.20711], [-93.261897, 37.207122], [-93.2648, 37.20717], [-93.27029, 37.20734], [-93.27038, 37.20734], [-93.27175, 37.20964], [-93.26862, 37.2095], [-93.26698, 37.2095], [-93.26184, 37.209391], [-93.26134, 37.20938], [-93.2612, 37.20711]]]}}, {"type": "Feature", "properties": {"area_id": 4572, "city": "Springfield", "state": "MO", "city_survey": true, "cat": "Definitely Declining", "grade": "C", "label": "C8", "res": true, "com": false, "ind": false, "holc_grade": "C"}, "geometry": {"type": "Polygon", "coordinates": [[[-93.28408, 37.22184], [-93.28743, 37.22195], [-93.28757, 37.21731], [-93.28846, 37.21732], [-93.28846, 37.21571], [-93.29017, 37.21568], [-93.29035, 37.21732], [-93.29138, 37.21749], [-93.29149, 37.21849], [-93.29146, 37.2284], [-93.28885, 37.22843], [-93.28154, 37.22854], [-93.28137, 37.22661], [-93.28165, 37.22331], [-93.28158, 37.22118], [-93.28415, 37.22121], [-93.28408, 37.22184]]]}}, {"type": "Feature", "properties": {"area_id": 4570, "city": "Springfield", "state": "MO", "city_survey": true, "cat": "Definitely Declining", "grade": "C", "label": "C9", "res": true, "com": false, "ind": false, "holc_grade": "C"}, "geometry": {"type": "Polygon", "coordinates": [[[-93.29274, 37.2186], [-93.29488, 37.21837], [-93.29816, 37.21852], [-93.30294, 37.218622], [-93.30333, 37.21863], [-93.30546, 37.21872], [-93.30743, 37.2188], [-93.30757, 37.21951], [-93.30743, 37.21988], [-93.3075, 37.22124], [-93.30761, 37.22215], [-93.30746, 37.22303], [-93.30739, 37.2236], [-93.30743, 37.22476], [-93.30743, 37.227], [-93.30704, 37.22865], [-93.30272, 37.22828], [-93.302576, 37.228282], [-93.29207, 37.228393], [-93.29146, 37.2284], [-93.29149, 37.21849], [-93.29233, 37.218564], [-93.29274, 37.2186]], [[-93.30122, 37.22519], [-93.3019, 37.22522], [-93.3019, 37.22235], [-93.2998, 37.22224], [-93.29987, 37.22365], [-93.30033, 37.22371], [-93.30037, 37.22408], [-93.29983, 37.22405], [-93.29987, 37.22459], [-93.30108, 37.22468], [-93.30122, 37.22519]]]}}, {"type": "Feature", "properties": {"area_id": 4554, "city": "Springfield", "state": "MO", "city_survey": true, "cat": "Hazardous", "grade": "D", "label": "D1", "res": true, "com": false, "ind": false, "holc_grade": "D"}, "geometry": {"type": "Polygon", "coordinates": [[[-93.262164, 37.191746], [-93.26207, 37.19261], [-93.2618, 37.19501], [-93.261655, 37.19627], [-93.26165, 37.19631], [-93.26159, 37.19686], [-93.26174, 37.20166], [-93.25831, 37.20157], [-93.258923, 37.196149], [-93.25935, 37.19237], [-93.262172, 37.191419], [-93.2622, 37.19141], [-93.262164, 37.191746]]]}}, {"type": "Feature", "properties": {"area_id": 4562, "city": "Springfield", "state": "MO", "city_survey": true, "cat": "Hazardous", "grade": "D", "label": "D2", "res": true, "com": false, "ind": false, "holc_grade": "D"}, "geometry": {"type": "MultiPolygon", "coordinates": [[[[-93.29935, 37.19493], [-93.29799, 37.19501], [-93.29799, 37.19601], [-93.29614, 37.19595], [-93.29457, 37.19612], [-93.29475, 37.19348], [-93.29477, 37.19231], [-93.29956, 37.19232], [-93.29935, 37.19493]]], [[[-93.29481, 37.1862], [-93.294879, 37.186205], [-93.29586, 37.18627], [-93.30302, 37.18584], [-93.30299, 37.18672], [-93.30306, 37.18831], [-93.30245, 37.1882], [-93.29639, 37.1884], [-93.29632, 37.19047], [-93.29481, 37.19049], [-93.29482, 37.18993], [-93.294791, 37.189346], [-93.29471, 37.18771], [-93.29481, 37.1862]]]]}}, {"type": "Feature", "properties": {"area_id": 4567, "city": "Springfield", "state": "MO", "city_survey": true, "cat": "Hazardous", "grade": "D", "label": "D3", "res": true, "com": false, "ind": false, "holc_grade": "D"}, "geometry": {"type": "Polygon", "coordinates": [[[-93.30184, 37.19655], [-93.30184, 37.19687], [-93.30184, 37.20089], [-93.3017, 37.20243], [-93.30028, 37.20248], [-93.30053, 37.20399], [-93.303413, 37.204056], [-93.30794, 37.20416], [-93.30783, 37.20839], [-93.30363, 37.20839], [-93.303321, 37.208301], [-93.30245, 37.20805], [-93.298722, 37.208424], [-93.29707, 37.20859], [-93.29692, 37.20674], [-93.29446, 37.20657], [-93.29422, 37.20546], [-93.29493, 37.20546], [-93.294997, 37.204147], [-93.29536, 37.19703], [-93.298031, 37.19693], [-93.298153, 37.196925], [-93.2991, 37.19689], [-93.2991, 37.196889], [-93.29946, 37.19598], [-93.30184, 37.19592], [-93.30184, 37.19655]]]}}, {"type": "Feature", "properties": {"area_id": 4566, "city": "Springfield", "state": "MO", "city_survey": true, "cat": "Hazardous", "grade": "D", "label": "D4", "res": true, "com": false, "ind": false, "holc_grade": "D"}, "geometry": {"type": "Polygon", "coordinates": [[[-93.285441, 37.210177], [-93.28334, 37.21137], [-93.275813, 37.211243], [-93.27329, 37.2112], [-93.272349, 37.211155], [-93.26912, 37.211], [-93.266396, 37.21106], [-93.261765, 37.211162], [-93.26142, 37.21117], [-93.26134, 37.20938], [-93.26184, 37.209391], [-93.26698, 37.2095], [-93.26862, 37.2095], [-93.27175, 37.20964], [-93.27038, 37.20734], [-93.276, 37.20762], [-93.27625, 37.20649], [-93.28199, 37.20677], [-93.282005, 37.207064], [-93.28213, 37.20958], [-93.2863, 37.20969], [-93.285441, 37.210177]]]}}, {"type": "Feature", "properties": {"area_id": 4573, "city": "Springfield", "state": "MO", "city_survey": true, "cat": "Hazardous", "grade": "D", "label": "D5", "res": true, "com": false, "ind": false, "holc_grade": "D"}, "geometry": {"type": "Polygon", "coordinates": [[[-93.261621, 37.215458], [-93.26226, 37.21548], [-93.2629, 37.21528], [-93.26597, 37.21528], [-93.26614, 37.21582], [-93.27039, 37.21588], [-93.27039, 37.21386], [-93.27556, 37.2138], [-93.275655, 37.214651], [-93.2757, 37.21505], [-93.27684, 37.21522], [-93.2768, 37.21451], [-93.28105, 37.21457], [-93.28087, 37.21852], [-93.28386, 37.21869], [-93.28415, 37.22121], [-93.28158, 37.22118], [-93.28165, 37.22331], [-93.28137, 37.22661], [-93.28154, 37.22854], [-93.28885, 37.22843], [-93.28875, 37.22928], [-93.28522, 37.2295], [-93.28522, 37.23001], [-93.28108, 37.2303], [-93.27901, 37.23013], [-93.275212, 37.230185], [-93.27349, 37.23021], [-93.27031, 37.23192], [-93.269865, 37.231972], [-93.267, 37.23231], [-93.26593, 37.23228], [-93.26593, 37.232247], [-93.26589, 37.22908], [-93.26999, 37.22913], [-93.2701, 37.22414], [-93.26999, 37.22243], [-93.27031, 37.21874], [-93.26283, 37.21849], [-93.26161, 37.218277], [-93.26151, 37.21826], [-93.26137, 37.21545], [-93.261621, 37.215458]], [[-93.27648, 37.22215], [-93.27766, 37.22226], [-93.27762, 37.22002], [-93.27648, 37.22008], [-93.27648, 37.22215]]]}}, {"type": "Feature", "properties": {"area_id": 4571, "city": "Springfield", "state": "MO", "city_survey": true, "cat": "Hazardous", "grade": "D", "label": "D6", "res": true, "com": false, "ind": false, "holc_grade": "D"}, "geometry": {"type": "Polygon", "coordinates": [[[-93.29138, 37.21749], [-93.29035, 37.21732], [-93.29017, 37.21568], [-93.28846, 37.21571], [-93.28846, 37.21732], [-93.28757, 37.21731], [-93.28572, 37.2173], [-93.28572, 37.21244], [-93.292311, 37.21244], [-93.29645, 37.21244], [-93.30229, 37.21261], [-93.303831, 37.212646], [-93.30618, 37.2127], [-93.30611, 37.21539], [-93.30546, 37.21872], [-93.30333, 37.21863], [-93.30294, 37.218622], [-93.29816, 37.21852], [-93.29488, 37.21837], [-93.29274, 37.2186], [-93.29233, 37.218564], [-93.29149, 37.21849], [-93.29138, 37.21749]]]}}, {"type": "Feature", "properties": {"area_id": 4569, "city": "Springfield", "state": "MO", "city_survey": true, "cat": "Hazardous", "grade": "D", "label": "D7", "res": true, "com": false, "ind": false, "holc_grade": "D"}, "geometry": {"type": "Polygon", "coordinates": [[[-93.31324, 37.18626], [-93.31752, 37.18654], [-93.31752, 37.18961], [-93.317597, 37.189648], [-93.3182, 37.18995], [-93.31994, 37.19015], [-93.32304, 37.19029], [-93.32379, 37.19378], [-93.32137, 37.19393], [-93.32183, 37.196], [-93.321806, 37.197204], [-93.3218, 37.19753], [-93.31725, 37.19736], [-93.31349, 37.19722], [-93.313394, 37.203675], [-93.31338, 37.2046], [-93.312836, 37.204581], [-93.31021, 37.20449], [-93.3101, 37.20739], [-93.31017, 37.20832], [-93.31221, 37.20835], [-93.31228, 37.20719], [-93.312296, 37.20719], [-93.31352, 37.20716], [-93.3152, 37.20483], [-93.32615, 37.205], [-93.32625, 37.212431], [-93.32629, 37.21539], [-93.32597, 37.22181], [-93.32579, 37.226806], [-93.32579, 37.22681], [-93.31673, 37.22817], [-93.315927, 37.228187], [-93.3086, 37.22834], [-93.30743, 37.227], [-93.30743, 37.22476], [-93.30739, 37.2236], [-93.30746, 37.22303], [-93.30761, 37.22215], [-93.3075, 37.22124], [-93.30743, 37.21988], [-93.30757, 37.21951], [-93.30743, 37.2188], [-93.30739, 37.21783], [-93.30761, 37.21724], [-93.30782, 37.21514], [-93.307825, 37.211563], [-93.30783, 37.20852], [-93.30783, 37.20839], [-93.30794, 37.20416], [-93.308216, 37.197051], [-93.30844, 37.19126], [-93.3085, 37.18694], [-93.31285, 37.18742], [-93.31324, 37.18626]]]}}, {"type": "Feature", "properties": {"area_id": 4574, "city": "Springfield", "state": "MO", "city_survey": true, "cat": "Hazardous", "grade": "D", "label": "D8", "res": true, "com": false, "ind": false, "holc_grade": "D"}, "geometry": {"type": "Polygon", "coordinates": [[[-93.270312, 37.231941], [-93.27039, 37.23298], [-93.2732, 37.23302], [-93.27529, 37.23302], [-93.27957, 37.23313], [-93.28171, 37.23298], [-93.2848, 37.23317], [-93.28489, 37.23196], [-93.2876, 37.23147], [-93.28993, 37.2315], [-93.29273, 37.23109], [-93.29359, 37.23109], [-93.29711, 37.23109], [-93.29692, 37.23336], [-93.29639, 37.2334], [-93.2962, 37.24044], [-93.29744, 37.24062], [-93.29777, 37.24032], [-93.30191, 37.24028], [-93.3021, 37.2407], [-93.303741, 37.240803], [-93.30576, 37.24093], [-93.305768, 37.24083], [-93.30619, 37.23536], [-93.30609, 37.23415], [-93.3069, 37.23412], [-93.30676, 37.23359], [-93.305, 37.23343], [-93.30034, 37.2334], [-93.3003, 37.23071], [-93.30029, 37.23007], [-93.30614, 37.22976], [-93.311514, 37.230727], [-93.32254, 37.23271], [-93.32416, 37.2329], [-93.32416, 37.23347], [-93.32397, 37.23465], [-93.32363, 37.23552], [-93.32373, 37.23654], [-93.32382, 37.23786], [-93.32007, 37.23813], [-93.31684, 37.23805], [-93.3165, 37.23949], [-93.31645, 37.24017], [-93.31645, 37.24066], [-93.316598, 37.241035], [-93.3166, 37.24104], [-93.316332, 37.241031], [-93.312925, 37.240919], [-93.31085, 37.24085], [-93.31118, 37.24422], [-93.31075, 37.24547], [-93.30814, 37.24532], [-93.30509, 37.24505], [-93.30305, 37.24513], [-93.3011, 37.24509], [-93.29944, 37.24505], [-93.29687, 37.24505], [-93.28855, 37.24524], [-93.283677, 37.245192], [-93.28142, 37.24517], [-93.27439, 37.24509], [-93.27415, 37.24271], [-93.27011, 37.24278], [-93.26968, 37.24316], [-93.26958, 37.24361], [-93.26949, 37.2443], [-93.26512, 37.24426], [-93.26531, 37.24025], [-93.269695, 37.240279], [-93.26977, 37.24028], [-93.26968, 37.23885], [-93.26968, 37.23737], [-93.26992, 37.23684], [-93.26611, 37.23669], [-93.26602, 37.23529], [-93.26118, 37.234492], [-93.26117, 37.23449], [-93.26108, 37.23279], [-93.261226, 37.232775], [-93.26593, 37.23228], [-93.267, 37.23231], [-93.269865, 37.231972], [-93.27031, 37.23192], [-93.270312, 37.231941]], [[-93.28372, 37.24046], [-93.28681, 37.24029], [-93.2869, 37.23909], [-93.28423, 37.23866], [-93.28372, 37.24046]]]}}, {"type": "Feature", "properties": {"area_id": 11193, "city": "Springfield", "state": "MO", "city_survey": true, "cat": "Commercial", "grade": null, "label": "Commercial", "res": false, "com": true, "ind": false, "holc_grade": null}, "geometry": {"type": "MultiPolygon", "coordinates": [[[[-93.30272, 37.22828], [-93.30516, 37.22849], [-93.305208, 37.229554], [-93.30522, 37.22981], [-93.30101, 37.23003], [-93.300949, 37.229798], [-93.3009, 37.22961], [-93.29917, 37.22963], [-93.2955, 37.22975], [-93.29489, 37.23001], [-93.29368, 37.22987], [-93.29362, 37.229875], [-93.29278, 37.22994], [-93.28726, 37.23043], [-93.28517, 37.23047], [-93.28522, 37.23001], [-93.28522, 37.2295], [-93.28875, 37.22928], [-93.28885, 37.22843], [-93.29146, 37.2284], [-93.29207, 37.228393], [-93.302576, 37.228282], [-93.30272, 37.22828]]], [[[-93.28662, 37.20538], [-93.29422, 37.20546], [-93.29446, 37.20657], [-93.29692, 37.20674], [-93.29707, 37.20859], [-93.297054, 37.208706], [-93.29686, 37.21007], [-93.296494, 37.210065], [-93.28896, 37.20996], [-93.2863, 37.20969], [-93.28662, 37.20538]]]]}}, {"type": "Feature", "properties": {"area_id": 11194, "city": "Springfield", "state": "MO", "city_survey": true, "cat": "Industrial", "grade": null, "label": "Industrial", "res": false, "com": false, "ind": true, "holc_grade": null}, "geometry": {"type": "MultiPolygon", "coordinates": [[[[-93.3009, 37.22961], [-93.300949, 37.229798], [-93.30101, 37.23003], [-93.30029, 37.23007], [-93.3003, 37.23071], [-93.29711, 37.23109], [-93.29359, 37.23109], [-93.29273, 37.23109], [-93.28993, 37.2315], [-93.2876, 37.23147], [-93.28489, 37.23196], [-93.2848, 37.23317], [-93.28171, 37.23298], [-93.27957, 37.23313], [-93.27529, 37.23302], [-93.2732, 37.23302], [-93.27039, 37.23298], [-93.270312, 37.231941], [-93.27031, 37.23192], [-93.27349, 37.23021], [-93.275212, 37.230185], [-93.27901, 37.23013], [-93.28108, 37.2303], [-93.28522, 37.23001], [-93.28517, 37.23047], [-93.28726, 37.23043], [-93.29278, 37.22994], [-93.29362, 37.229875], [-93.29368, 37.22987], [-93.29489, 37.23001], [-93.2955, 37.22975], [-93.29917, 37.22963], [-93.3009, 37.22961]]], [[[-93.30783, 37.20852], [-93.307825, 37.211563], [-93.30782, 37.21514], [-93.30761, 37.21724], [-93.30739, 37.21783], [-93.30743, 37.2188], [-93.30546, 37.21872], [-93.30611, 37.21539], [-93.30618, 37.2127], [-93.303831, 37.212646], [-93.30229, 37.21261], [-93.29645, 37.21244], [-93.292311, 37.21244], [-93.28572, 37.21244], [-93.28572, 37.2173], [-93.28399, 37.21712], [-93.28386, 37.21869], [-93.28087, 37.21852], [-93.28105, 37.21457], [-93.2768, 37.21451], [-93.27684, 37.21522], [-93.2757, 37.21505], [-93.275655, 37.214651], [-93.27556, 37.2138], [-93.27039, 37.21386], [-93.270587, 37.211117], [-93.27059, 37.21107], [-93.272359, 37.211155], [-93.27329, 37.2112], [-93.275813, 37.211243], [-93.28334, 37.21137], [-93.285441, 37.210177], [-93.2863, 37.20969], [-93.28896, 37.20996], [-93.296494, 37.210065], [-93.29686, 37.21007], [-93.297054, 37.208706], [-93.29707, 37.20859], [-93.298722, 37.208424], [-93.30245, 37.20805], [-93.303321, 37.208301], [-93.30363, 37.20839], [-93.30783, 37.20839], [-93.30783, 37.20852]]], [[[-93.32772, 37.22762], [-93.32688, 37.23329], [-93.32416, 37.2329], [-93.32254, 37.23271], [-93.311514, 37.230727], [-93.30614, 37.22976], [-93.30522, 37.22981], [-93.305208, 37.229554], [-93.30516, 37.22849], [-93.30704, 37.22865], [-93.30743, 37.227], [-93.3086, 37.22834], [-93.315927, 37.228187], [-93.31673, 37.22817], [-93.32579, 37.22681], [-93.325802, 37.226805], [-93.32698, 37.22627], [-93.32721, 37.22669], [-93.32772, 37.22762]]]]}}]}