{"type": "FeatureCollection", "features": [{"type": "Feature", "properties": {"area_id": 8205, "city": "Shreveport", "state": "LA", "city_survey": true, "cat": "Best", "grade": "A", "label": "A1", "res": true, "com": false, "ind": false, "holc_grade": "A"}, "geometry": {"type": "Polygon", "coordinates": [[[-93.74182, 32.44932], [-93.74178, 32.45289], [-93.743897, 32.454703], [-93.74394, 32.45474], [-93.745079, 32.454735], [-93.745632, 32.454733], [-93.74621, 32.45473], [-93.74621, 32.45483], [-93.75064, 32.45475], [-93.75072, 32.45943], [-93.75495, 32.45953], [-93.75506, 32.46363], [-93.75118, 32.46388], [-93.751, 32.46569], [-93.75128, 32.46609], [-93.75119, 32.46782], [-93.751, 32.46918], [-93.751003, 32.46921], [-93.75121, 32.47103], [-93.75129, 32.47103], [-93.7509, 32.48004], [-93.75463, 32.47912], [-93.75466, 32.47945], [-93.75463, 32.47945], [-93.7544, 32.48191], [-93.754376, 32.481915], [-93.75367, 32.48206], [-93.75339, 32.48259], [-93.75343, 32.48263], [-93.75277, 32.48275], [-93.75276, 32.48299], [-93.75309, 32.48709], [-93.75306, 32.48709], [-93.75306, 32.49273], [-93.75306, 32.49275], [-93.75305, 32.49275], [-93.7514, 32.49282], [-93.7514, 32.49287], [-93.74897, 32.49264], [-93.74903, 32.49431], [-93.75139, 32.49428], [-93.75139, 32.49429], [-93.75107, 32.49855], [-93.74605, 32.49855], [-93.74599, 32.49855], [-93.74537, 32.49907], [-93.74502, 32.49892], [-93.74521, 32.49621], [-93.74534, 32.49612], [-93.745248, 32.492686], [-93.74507, 32.48601], [-93.74137, 32.48601], [-93.74137, 32.481786], [-93.74137, 32.48084], [-93.73793, 32.48111], [-93.737921, 32.481773], [-93.73777, 32.49242], [-93.730974, 32.492517], [-93.73077, 32.49252], [-93.730835, 32.489621], [-93.73092, 32.48588], [-93.7332, 32.48573], [-93.73381, 32.48478], [-93.733842, 32.481796], [-93.73385, 32.48104], [-93.73324, 32.48098], [-93.73161, 32.48072], [-93.73133, 32.47903], [-93.73111, 32.47817], [-93.73333, 32.47814], [-93.73333, 32.47807], [-93.737379, 32.478244], [-93.74148, 32.47842], [-93.74157, 32.47094], [-93.737312, 32.471177], [-93.73726, 32.47118], [-93.73679, 32.47026], [-93.7366, 32.46939], [-93.73636, 32.46873], [-93.73556, 32.46771], [-93.73552, 32.46766], [-93.735574, 32.467116], [-93.73594, 32.46344], [-93.73594, 32.46327], [-93.73597, 32.46062], [-93.736397, 32.460615], [-93.74616, 32.46049], [-93.74621, 32.45654], [-93.734132, 32.45656], [-93.73401, 32.45656], [-93.73439, 32.45542], [-93.73396, 32.45359], [-93.7333, 32.45226], [-93.73235, 32.45166], [-93.73164, 32.45101], [-93.732302, 32.450731], [-93.73404, 32.45], [-93.73744, 32.44869], [-93.73742, 32.44937], [-93.74182, 32.44932]], [[-93.74575, 32.48093], [-93.7459, 32.47916], [-93.74191, 32.47912], [-93.74195, 32.481], [-93.74575, 32.48093]]]}}, {"type": "Feature", "properties": {"area_id": 8206, "city": "Shreveport", "state": "LA", "city_survey": true, "cat": "Best", "grade": "A", "label": "A2", "res": true, "com": false, "ind": false, "holc_grade": "A"}, "geometry": {"type": "Polygon", "coordinates": [[[-93.72368, 32.46384], [-93.72477, 32.46376], [-93.7287, 32.46359], [-93.73594, 32.46327], [-93.73594, 32.46344], [-93.735574, 32.467116], [-93.73552, 32.46766], [-93.73556, 32.46771], [-93.73128, 32.46839], [-93.72814, 32.46892], [-93.72659, 32.46918], [-93.72607, 32.46941], [-93.72492, 32.47016], [-93.72424, 32.4711], [-93.72389, 32.47249], [-93.72406, 32.4764], [-93.72534, 32.47654], [-93.72811, 32.47905], [-93.72727, 32.47938], [-93.72638, 32.48008], [-93.72586, 32.48069], [-93.72586, 32.48095], [-93.72523, 32.48142], [-93.72492, 32.48158], [-93.72456, 32.48135], [-93.722348, 32.480411], [-93.718937, 32.478963], [-93.71768, 32.47843], [-93.717602, 32.47827], [-93.716924, 32.476891], [-93.71657, 32.47617], [-93.70865, 32.46874], [-93.70769, 32.46667], [-93.72017, 32.46081], [-93.722, 32.46095], [-93.722192, 32.464667], [-93.72221, 32.46501], [-93.7227, 32.46446], [-93.72368, 32.46384]]]}}, {"type": "Feature", "properties": {"area_id": 8200, "city": "Shreveport", "state": "LA", "city_survey": true, "cat": "Still Desirable", "grade": "B", "label": "B1", "res": true, "com": false, "ind": false, "holc_grade": "B"}, "geometry": {"type": "Polygon", "coordinates": [[[-93.780099, 32.478085], [-93.78124, 32.47837], [-93.78237, 32.48076], [-93.78254, 32.48196], [-93.79082, 32.48208], [-93.791, 32.4855], [-93.79016, 32.48552], [-93.79015, 32.485926], [-93.79001, 32.49191], [-93.79743, 32.49181], [-93.79742, 32.4947], [-93.79731, 32.4947], [-93.79311, 32.49462], [-93.79309, 32.49371], [-93.78441, 32.49364], [-93.78442, 32.49624], [-93.784127, 32.496178], [-93.78301, 32.49594], [-93.780266, 32.495048], [-93.78012, 32.495], [-93.78012, 32.494903], [-93.78012, 32.49351], [-93.77834, 32.49343], [-93.7778, 32.49321], [-93.77729, 32.49125], [-93.77709, 32.48464], [-93.77502, 32.48526], [-93.77435, 32.48546], [-93.77027, 32.48621], [-93.77089, 32.48423], [-93.774321, 32.4818], [-93.77891, 32.47855], [-93.77992, 32.47804], [-93.780099, 32.478085]]]}}, {"type": "Feature", "properties": {"area_id": 8197, "city": "Shreveport", "state": "LA", "city_survey": true, "cat": "Still Desirable", "grade": "B", "label": "B2", "res": true, "com": false, "ind": false, "holc_grade": "B"}, "geometry": {"type": "Polygon", "coordinates": [[[-93.75817, 32.47858], [-93.75864, 32.47809], [-93.75925, 32.47748], [-93.76214, 32.47737], [-93.76214, 32.47811], [-93.76305, 32.47818], [-93.76328, 32.47738], [-93.76412, 32.47744], [-93.76495, 32.47818], [-93.765, 32.47929], [-93.76297, 32.47938], [-93.76299, 32.4795], [-93.762969, 32.481835], [-93.76293, 32.48627], [-93.76301, 32.48617], [-93.76284, 32.48712], [-93.755664, 32.487558], [-93.75563, 32.48756], [-93.75564, 32.48719], [-93.75431, 32.48714], [-93.7535, 32.4871], [-93.75346, 32.48647], [-93.75421, 32.48607], [-93.75458, 32.48564], [-93.75458, 32.48508], [-93.75458, 32.48433], [-93.75445, 32.48358], [-93.75372, 32.48295], [-93.75343, 32.48263], [-93.75339, 32.48259], [-93.75367, 32.48206], [-93.754376, 32.481915], [-93.7544, 32.48191], [-93.75463, 32.47945], [-93.75466, 32.47945], [-93.75519, 32.47948], [-93.755632, 32.479377], [-93.75592, 32.47931], [-93.75709, 32.479], [-93.75817, 32.47858]]]}}, {"type": "Feature", "properties": {"area_id": 8189, "city": "Shreveport", "state": "LA", "city_survey": true, "cat": "Still Desirable", "grade": "B", "label": "B3", "res": true, "com": false, "ind": false, "holc_grade": "B"}, "geometry": {"type": "Polygon", "coordinates": [[[-93.73804, 32.492684], [-93.73804, 32.49322], [-93.73801, 32.4962], [-93.74457, 32.4962], [-93.74521, 32.4962], [-93.74521, 32.49621], [-93.74502, 32.49892], [-93.74502, 32.49901], [-93.7439, 32.49901], [-93.73319, 32.49906], [-93.733172, 32.499975], [-93.73317, 32.50007], [-93.73305, 32.50007], [-93.728922, 32.50002], [-93.72889, 32.50002], [-93.72883, 32.49254], [-93.73077, 32.49252], [-93.730974, 32.492517], [-93.73777, 32.49242], [-93.73804, 32.49242], [-93.73804, 32.492684]]]}}, {"type": "Feature", "properties": {"area_id": 8187, "city": "Shreveport", "state": "LA", "city_survey": true, "cat": "Still Desirable", "grade": "B", "label": "B4", "res": true, "com": false, "ind": false, "holc_grade": "B"}, "geometry": {"type": "Polygon", "coordinates": [[[-93.73663, 32.51764], [-93.72542, 32.51779], [-93.72542, 32.51625], [-93.73514, 32.51601], [-93.73663, 32.51764]]]}}, {"type": "Feature", "properties": {"area_id": 8201, "city": "Shreveport", "state": "LA", "city_survey": true, "cat": "Definitely Declining", "grade": "C", "label": "C1", "res": true, "com": false, "ind": false, "holc_grade": "C"}, "geometry": {"type": "Polygon", "coordinates": [[[-93.77485, 32.48827], [-93.7748, 32.48703], [-93.7749, 32.48601], [-93.7749, 32.48599], [-93.77502, 32.48526], [-93.77709, 32.48464], [-93.77729, 32.49125], [-93.7778, 32.49321], [-93.77834, 32.49343], [-93.78012, 32.49351], [-93.78012, 32.494903], [-93.78012, 32.495], [-93.780266, 32.495048], [-93.78301, 32.49594], [-93.784127, 32.496178], [-93.78442, 32.49624], [-93.78441, 32.49364], [-93.79309, 32.49371], [-93.79311, 32.49462], [-93.79731, 32.4947], [-93.79735, 32.50006], [-93.78941, 32.499996], [-93.78865, 32.49999], [-93.78866, 32.50355], [-93.78857, 32.50355], [-93.780265, 32.503638], [-93.78012, 32.50364], [-93.77166, 32.50372], [-93.77165, 32.50723], [-93.77165, 32.510873], [-93.77165, 32.51094], [-93.77107, 32.51132], [-93.761069, 32.511254], [-93.75899, 32.51124], [-93.75883, 32.50418], [-93.758494, 32.503894], [-93.756, 32.50177], [-93.75583, 32.50162], [-93.75668, 32.49912], [-93.75675, 32.49912], [-93.769557, 32.499091], [-93.76989, 32.49909], [-93.77223, 32.4989], [-93.77523, 32.49841], [-93.77547, 32.49724], [-93.77681, 32.49702], [-93.77738, 32.49607], [-93.77716, 32.49457], [-93.77602, 32.49402], [-93.77531, 32.49383], [-93.77219, 32.49265], [-93.772194, 32.492585], [-93.77231, 32.49061], [-93.7732, 32.48944], [-93.77426, 32.4886], [-93.77485, 32.48827]]]}}, {"type": "Feature", "properties": {"area_id": 8193, "city": "Shreveport", "state": "LA", "city_survey": true, "cat": "Definitely Declining", "grade": "C", "label": "C10", "res": true, "com": false, "ind": false, "holc_grade": "C"}, "geometry": {"type": "Polygon", "coordinates": [[[-93.7439, 32.49901], [-93.74502, 32.49901], [-93.74502, 32.49892], [-93.74537, 32.49907], [-93.74542, 32.4991], [-93.745274, 32.499972], [-93.74521, 32.50035], [-93.74492, 32.50215], [-93.74101, 32.50318], [-93.73669, 32.5036], [-93.73496, 32.50382], [-93.73493, 32.50382], [-93.73501, 32.50257], [-93.73311, 32.50056], [-93.73305, 32.50007], [-93.73317, 32.50007], [-93.733172, 32.499975], [-93.73319, 32.49906], [-93.7439, 32.49901]]]}}, {"type": "Feature", "properties": {"area_id": 8190, "city": "Shreveport", "state": "LA", "city_survey": true, "cat": "Definitely Declining", "grade": "C", "label": "C2", "res": true, "com": false, "ind": false, "holc_grade": "C"}, "geometry": {"type": "Polygon", "coordinates": [[[-93.74137, 32.48084], [-93.74137, 32.481786], [-93.74137, 32.48601], [-93.74507, 32.48601], [-93.745248, 32.492686], [-93.74534, 32.49612], [-93.74521, 32.49621], [-93.74521, 32.4962], [-93.74457, 32.4962], [-93.73801, 32.4962], [-93.73804, 32.49322], [-93.73804, 32.492684], [-93.73804, 32.49242], [-93.73777, 32.49242], [-93.737921, 32.481773], [-93.73793, 32.48111], [-93.74137, 32.48084]]]}}, {"type": "Feature", "properties": {"area_id": 8191, "city": "Shreveport", "state": "LA", "city_survey": true, "cat": "Definitely Declining", "grade": "C", "label": "C3", "res": true, "com": false, "ind": false, "holc_grade": "C"}, "geometry": {"type": "Polygon", "coordinates": [[[-93.717611, 32.4784], [-93.71768, 32.47843], [-93.718937, 32.478963], [-93.722348, 32.480411], [-93.72456, 32.48135], [-93.72492, 32.48158], [-93.72511, 32.4817], [-93.72559, 32.482], [-93.72952, 32.48197], [-93.729497, 32.482794], [-93.72942, 32.48548], [-93.72878, 32.48549], [-93.72878, 32.48544], [-93.721186, 32.485392], [-93.72088, 32.48539], [-93.72084, 32.48545], [-93.7208, 32.48364], [-93.71881, 32.48125], [-93.717677, 32.478834], [-93.71752, 32.4785], [-93.71745, 32.47833], [-93.717611, 32.4784]]]}}, {"type": "Feature", "properties": {"area_id": 8184, "city": "Shreveport", "state": "LA", "city_survey": true, "cat": "Definitely Declining", "grade": "C", "label": "C4", "res": true, "com": false, "ind": false, "holc_grade": "C"}, "geometry": {"type": "Polygon", "coordinates": [[[-93.75128, 32.46609], [-93.751, 32.46569], [-93.75118, 32.46388], [-93.75506, 32.46363], [-93.75506, 32.46377], [-93.75608, 32.46377], [-93.7562, 32.46377], [-93.7563, 32.46465], [-93.756813, 32.464626], [-93.75932, 32.46451], [-93.76042, 32.46477], [-93.75995, 32.46644], [-93.759902, 32.468693], [-93.75988, 32.46974], [-93.75947, 32.47101], [-93.755742, 32.471019], [-93.75129, 32.47103], [-93.75121, 32.47103], [-93.751003, 32.46921], [-93.751, 32.46918], [-93.75119, 32.46782], [-93.75128, 32.46609]]]}}, {"type": "Feature", "properties": {"area_id": 8199, "city": "Shreveport", "state": "LA", "city_survey": true, "cat": "Definitely Declining", "grade": "C", "label": "C5", "res": true, "com": false, "ind": false, "holc_grade": "C"}, "geometry": {"type": "Polygon", "coordinates": [[[-93.78019, 32.46368], [-93.78861, 32.46369], [-93.788472, 32.470995], [-93.78847, 32.47108], [-93.79314, 32.471005], [-93.79722, 32.47094], [-93.79722, 32.471013], [-93.79724, 32.47549], [-93.79646, 32.47605], [-93.79447, 32.47669], [-93.79294, 32.47735], [-93.79302, 32.47473], [-93.78871, 32.47457], [-93.78171, 32.47713], [-93.780097, 32.47795], [-93.77992, 32.47804], [-93.77891, 32.47855], [-93.774321, 32.4818], [-93.77089, 32.48423], [-93.77079, 32.4843], [-93.77142, 32.482], [-93.771422, 32.4818], [-93.77147, 32.47798], [-93.77806, 32.47113], [-93.7729, 32.47117], [-93.772998, 32.470945], [-93.775147, 32.466008], [-93.77539, 32.46545], [-93.775445, 32.465237], [-93.77585, 32.46367], [-93.775893, 32.46367], [-93.78019, 32.46368]]]}}, {"type": "Feature", "properties": {"area_id": 8182, "city": "Shreveport", "state": "LA", "city_survey": true, "cat": "Definitely Declining", "grade": "C", "label": "C6", "res": true, "com": false, "ind": false, "holc_grade": "C"}, "geometry": {"type": "Polygon", "coordinates": [[[-93.7588, 32.45482], [-93.76297, 32.45471], [-93.76305, 32.45302], [-93.77136, 32.45305], [-93.771399, 32.456494], [-93.77144, 32.46005], [-93.77139, 32.46005], [-93.76855, 32.45997], [-93.76341, 32.46013], [-93.76321, 32.46098], [-93.76286, 32.46136], [-93.7597, 32.46133], [-93.75886, 32.46005], [-93.758817, 32.456329], [-93.7588, 32.45491], [-93.7588, 32.45482]]]}}, {"type": "Feature", "properties": {"area_id": 8181, "city": "Shreveport", "state": "LA", "city_survey": true, "cat": "Definitely Declining", "grade": "C", "label": "C7", "res": true, "com": false, "ind": false, "holc_grade": "C"}, "geometry": {"type": "Polygon", "coordinates": [[[-93.76291, 32.44087], [-93.762942, 32.442068], [-93.763, 32.44419], [-93.757186, 32.44418], [-93.75696, 32.44418], [-93.757219, 32.450521], [-93.75738, 32.45448], [-93.75738, 32.45464], [-93.757265, 32.454642], [-93.75469, 32.45468], [-93.751681, 32.454732], [-93.75064, 32.45475], [-93.74621, 32.45483], [-93.74621, 32.45473], [-93.74621, 32.454704], [-93.74609, 32.44722], [-93.74893, 32.44705], [-93.74894, 32.44357], [-93.74874, 32.44262], [-93.748558, 32.441012], [-93.74853, 32.44076], [-93.750247, 32.440773], [-93.76291, 32.44087]]]}}, {"type": "Feature", "properties": {"area_id": 8186, "city": "Shreveport", "state": "LA", "city_survey": true, "cat": "Definitely Declining", "grade": "C", "label": "C8", "res": true, "com": false, "ind": false, "holc_grade": "C"}, "geometry": {"type": "Polygon", "coordinates": [[[-93.73514, 32.51601], [-93.73412, 32.51489], [-93.72554, 32.51516], [-93.72589, 32.51405], [-93.73605, 32.51396], [-93.73891, 32.51582], [-93.739165, 32.516238], [-93.73924, 32.51636], [-93.74158, 32.5205], [-93.74139, 32.522], [-93.74123, 32.5232], [-93.74128, 32.52434], [-93.74117, 32.52538], [-93.74164, 32.52685], [-93.74232, 32.52802], [-93.74224, 32.52917], [-93.74077, 32.53036], [-93.73842, 32.53159], [-93.73771, 32.53174], [-93.73799, 32.53049], [-93.7333, 32.52922], [-93.73202, 32.52927], [-93.7319, 32.52791], [-93.7329, 32.52614], [-93.73142, 32.52569], [-93.736165, 32.518842], [-93.73652, 32.51833], [-93.736803, 32.517999], [-93.73688, 32.51791], [-93.736844, 32.517871], [-93.73663, 32.51764], [-93.73514, 32.51601]]]}}, {"type": "Feature", "properties": {"area_id": 8195, "city": "Shreveport", "state": "LA", "city_survey": true, "cat": "Definitely Declining", "grade": "C", "label": "C9", "res": true, "com": false, "ind": false, "holc_grade": "C"}, "geometry": {"type": "Polygon", "coordinates": [[[-93.7514, 32.49287], [-93.7514, 32.49282], [-93.75305, 32.49275], [-93.75306, 32.49275], [-93.75306, 32.49273], [-93.75306, 32.48709], [-93.75309, 32.48709], [-93.7535, 32.4871], [-93.75431, 32.48714], [-93.75564, 32.48719], [-93.75563, 32.48756], [-93.75554, 32.49462], [-93.75527, 32.49613], [-93.75403, 32.49854], [-93.75179, 32.49855], [-93.75107, 32.49855], [-93.75139, 32.49429], [-93.75139, 32.49428], [-93.7514, 32.49287]]]}}, {"type": "Feature", "properties": {"area_id": 8185, "city": "Shreveport", "state": "LA", "city_survey": true, "cat": "Hazardous", "grade": "D", "label": "D1", "res": true, "com": false, "ind": false, "holc_grade": "D"}, "geometry": {"type": "Polygon", "coordinates": [[[-93.748143, 32.519815], [-93.74874, 32.51986], [-93.75004, 32.51983], [-93.75097, 32.51964], [-93.7521, 32.51901], [-93.75369, 32.51883], [-93.75469, 32.51884], [-93.75552, 32.51883], [-93.75615, 32.519], [-93.75718, 32.52037], [-93.757751, 32.520735], [-93.7579, 32.52083], [-93.75859, 32.52157], [-93.758984, 32.521976], [-93.75922, 32.52222], [-93.76021, 32.52263], [-93.76021, 32.52525], [-93.76403, 32.52516], [-93.76516, 32.52684], [-93.76514, 32.53124], [-93.76693, 32.53262], [-93.76467, 32.53465], [-93.76336, 32.53478], [-93.76084, 32.53291], [-93.75967, 32.53193], [-93.75879, 32.53106], [-93.75755, 32.53023], [-93.75639, 32.52968], [-93.75514, 32.52915], [-93.75397, 32.52845], [-93.75289, 32.52782], [-93.75178, 32.52756], [-93.75123, 32.52756], [-93.75062, 32.52779], [-93.75055, 32.52621], [-93.74875, 32.52502], [-93.74832, 32.52394], [-93.74849, 32.52314], [-93.74833, 32.5221], [-93.74786, 32.52112], [-93.74715, 32.52044], [-93.74711, 32.52013], [-93.74778, 32.519805], [-93.74781, 32.51979], [-93.748143, 32.519815]]]}}, {"type": "Feature", "properties": {"area_id": 8198, "city": "Shreveport", "state": "LA", "city_survey": true, "cat": "Hazardous", "grade": "D", "label": "D10", "res": true, "com": false, "ind": false, "holc_grade": "D"}, "geometry": {"type": "Polygon", "coordinates": [[[-93.75276, 32.48299], [-93.75277, 32.48275], [-93.75343, 32.48263], [-93.75372, 32.48295], [-93.75445, 32.48358], [-93.75458, 32.48433], [-93.75458, 32.48508], [-93.75458, 32.48564], [-93.75421, 32.48607], [-93.75346, 32.48647], [-93.7535, 32.4871], [-93.75309, 32.48709], [-93.75276, 32.48299]]]}}, {"type": "Feature", "properties": {"area_id": 8203, "city": "Shreveport", "state": "LA", "city_survey": true, "cat": "Hazardous", "grade": "D", "label": "D2", "res": true, "com": false, "ind": false, "holc_grade": "D"}, "geometry": {"type": "Polygon", "coordinates": [[[-93.756, 32.50177], [-93.758494, 32.503894], [-93.75883, 32.50418], [-93.75899, 32.51124], [-93.761069, 32.511254], [-93.77107, 32.51132], [-93.77165, 32.51094], [-93.77165, 32.510873], [-93.77165, 32.50723], [-93.78008, 32.50707], [-93.78012, 32.50364], [-93.780265, 32.503638], [-93.78857, 32.50355], [-93.78862, 32.51078], [-93.787103, 32.510758], [-93.78161, 32.51068], [-93.78039, 32.51096], [-93.77845, 32.51168], [-93.77665, 32.51251], [-93.776288, 32.512854], [-93.77585, 32.51327], [-93.77492, 32.51423], [-93.77409, 32.5153], [-93.77363, 32.51587], [-93.77304, 32.51624], [-93.77241, 32.5166], [-93.77215, 32.51739], [-93.77161, 32.51826], [-93.77109, 32.51873], [-93.77011, 32.51866], [-93.76915, 32.51831], [-93.76868, 32.51807], [-93.76882, 32.51577], [-93.76612, 32.51549], [-93.765, 32.51516], [-93.76319, 32.51582], [-93.76305, 32.51455], [-93.761089, 32.514525], [-93.758977, 32.514498], [-93.75617, 32.514462], [-93.7552, 32.51445], [-93.75191, 32.51677], [-93.75055, 32.51541], [-93.75553, 32.51206], [-93.75229, 32.50882], [-93.752945, 32.50727], [-93.75303, 32.50707], [-93.75352, 32.50685], [-93.756, 32.50177]]]}}, {"type": "Feature", "properties": {"area_id": 8194, "city": "Shreveport", "state": "LA", "city_survey": true, "cat": "Hazardous", "grade": "D", "label": "D3", "res": true, "com": false, "ind": false, "holc_grade": "D"}, "geometry": {"type": "Polygon", "coordinates": [[[-93.753609, 32.499798], [-93.753562, 32.499923], [-93.75341, 32.50032], [-93.75237, 32.50184], [-93.75221, 32.50318], [-93.74796, 32.50658], [-93.74799, 32.50707], [-93.7448, 32.50841], [-93.74289, 32.50753], [-93.73571, 32.50565], [-93.73481, 32.50416], [-93.73496, 32.50382], [-93.73669, 32.5036], [-93.74101, 32.50318], [-93.74492, 32.50215], [-93.74521, 32.50035], [-93.745274, 32.499972], [-93.74542, 32.4991], [-93.74537, 32.49907], [-93.74599, 32.49855], [-93.74605, 32.49855], [-93.75107, 32.49855], [-93.75179, 32.49855], [-93.75403, 32.49854], [-93.75409, 32.49854], [-93.754056, 32.498629], [-93.753609, 32.499798]]]}}, {"type": "Feature", "properties": {"area_id": 8188, "city": "Shreveport", "state": "LA", "city_survey": true, "cat": "Hazardous", "grade": "D", "label": "D4", "res": true, "com": false, "ind": false, "holc_grade": "D"}, "geometry": {"type": "Polygon", "coordinates": [[[-93.721186, 32.485392], [-93.72878, 32.48544], [-93.72878, 32.48549], [-93.728782, 32.485827], [-93.728809, 32.489618], [-93.72883, 32.49254], [-93.72889, 32.50002], [-93.72889, 32.5001], [-93.72867, 32.50007], [-93.728688, 32.504061], [-93.72869, 32.50451], [-93.72834, 32.50459], [-93.72771, 32.50491], [-93.72707, 32.5053], [-93.726689, 32.505505], [-93.72644, 32.50564], [-93.72539, 32.50578], [-93.72438, 32.50545], [-93.72453, 32.50014], [-93.72018, 32.50002], [-93.72006, 32.48683], [-93.720439, 32.48616], [-93.72084, 32.48545], [-93.72088, 32.48539], [-93.721186, 32.485392]]]}}, {"type": "Feature", "properties": {"area_id": 8196, "city": "Shreveport", "state": "LA", "city_survey": true, "cat": "Hazardous", "grade": "D", "label": "D5", "res": true, "com": false, "ind": false, "holc_grade": "D"}, "geometry": {"type": "Polygon", "coordinates": [[[-93.75139, 32.49428], [-93.74903, 32.49431], [-93.74897, 32.49264], [-93.7514, 32.49287], [-93.75139, 32.49428]]]}}, {"type": "Feature", "properties": {"area_id": 8202, "city": "Shreveport", "state": "LA", "city_survey": true, "cat": "Hazardous", "grade": "D", "label": "D6", "res": true, "com": false, "ind": false, "holc_grade": "D"}, "geometry": {"type": "Polygon", "coordinates": [[[-93.76839, 32.48917], [-93.77049, 32.48759], [-93.7731, 32.48642], [-93.7749, 32.48601], [-93.7748, 32.48703], [-93.77485, 32.48827], [-93.77426, 32.4886], [-93.7732, 32.48944], [-93.77231, 32.49061], [-93.772194, 32.492585], [-93.77219, 32.49265], [-93.77531, 32.49383], [-93.77602, 32.49402], [-93.77716, 32.49457], [-93.77738, 32.49607], [-93.77681, 32.49702], [-93.77547, 32.49724], [-93.77523, 32.49841], [-93.77223, 32.4989], [-93.76989, 32.49909], [-93.769557, 32.499091], [-93.75675, 32.49912], [-93.75736, 32.49688], [-93.75973, 32.49609], [-93.761378, 32.495244], [-93.76158, 32.49514], [-93.763562, 32.493751], [-93.76422, 32.49329], [-93.765134, 32.492454], [-93.76646, 32.49124], [-93.76774, 32.49021], [-93.76839, 32.48917]]]}}, {"type": "Feature", "properties": {"area_id": 8183, "city": "Shreveport", "state": "LA", "city_survey": true, "cat": "Hazardous", "grade": "D", "label": "D7", "res": true, "com": false, "ind": false, "holc_grade": "D"}, "geometry": {"type": "Polygon", "coordinates": [[[-93.75738, 32.45464], [-93.75738, 32.45448], [-93.7588, 32.45491], [-93.758817, 32.456329], [-93.75886, 32.46005], [-93.7597, 32.46133], [-93.76286, 32.46136], [-93.76321, 32.46098], [-93.76341, 32.46013], [-93.76855, 32.45997], [-93.77139, 32.46005], [-93.771687, 32.47094], [-93.77169, 32.47105], [-93.77249, 32.47098], [-93.77291, 32.47152], [-93.76738, 32.48043], [-93.76692, 32.48074], [-93.766368, 32.481766], [-93.76573, 32.48295], [-93.76301, 32.48617], [-93.76293, 32.48627], [-93.762969, 32.481835], [-93.76299, 32.4795], [-93.76297, 32.47938], [-93.765, 32.47929], [-93.76495, 32.47818], [-93.76412, 32.47744], [-93.76328, 32.47738], [-93.76324, 32.47738], [-93.76319, 32.47108], [-93.75946, 32.47104], [-93.75947, 32.47101], [-93.75988, 32.46974], [-93.759902, 32.468693], [-93.75995, 32.46644], [-93.76042, 32.46477], [-93.75932, 32.46451], [-93.756813, 32.464626], [-93.7563, 32.46465], [-93.7562, 32.46377], [-93.75608, 32.46377], [-93.75506, 32.46377], [-93.75506, 32.46363], [-93.75495, 32.45953], [-93.75487, 32.45666], [-93.75458, 32.456], [-93.754687, 32.454722], [-93.75469, 32.45468], [-93.757265, 32.454642], [-93.75738, 32.45464]]]}}, {"type": "Feature", "properties": {"area_id": 8192, "city": "Shreveport", "state": "LA", "city_survey": true, "cat": "Hazardous", "grade": "D", "label": "D8", "res": true, "com": false, "ind": false, "holc_grade": "D"}, "geometry": {"type": "Polygon", "coordinates": [[[-93.73333, 32.47814], [-93.73111, 32.47817], [-93.72911, 32.47819], [-93.72905, 32.47043], [-93.73333, 32.47046], [-93.73333, 32.47807], [-93.73333, 32.47814]]]}}, {"type": "Feature", "properties": {"area_id": 8180, "city": "Shreveport", "state": "LA", "city_survey": true, "cat": "Hazardous", "grade": "D", "label": "D9", "res": true, "com": false, "ind": false, "holc_grade": "D"}, "geometry": {"type": "Polygon", "coordinates": [[[-93.76291, 32.44087], [-93.750247, 32.440773], [-93.74853, 32.44076], [-93.748558, 32.441012], [-93.74874, 32.44262], [-93.74894, 32.44357], [-93.74893, 32.44705], [-93.74609, 32.44722], [-93.745994, 32.447229], [-93.74598, 32.44723], [-93.745939, 32.442822], [-93.745923, 32.441122], [-93.74583, 32.43109], [-93.75332, 32.431077], [-93.76284, 32.43106], [-93.763, 32.44087], [-93.76291, 32.44087]]]}}, {"type": "Feature", "properties": {"area_id": 11198, "city": "Shreveport", "state": "LA", "city_survey": true, "cat": "Industrial and Commercial", "grade": null, "label": "Industrial and Commercial", "res": false, "com": true, "ind": true, "holc_grade": null}, "geometry": {"type": "MultiPolygon", "coordinates": [[[[-93.72523, 32.48142], [-93.72586, 32.48095], [-93.72586, 32.48069], [-93.72638, 32.48008], [-93.72727, 32.47938], [-93.72811, 32.47905], [-93.7302, 32.48079], [-93.73161, 32.48072], [-93.73324, 32.48098], [-93.73385, 32.48104], [-93.733843, 32.481796], [-93.73384, 32.48206], [-93.729579, 32.481971], [-93.72952, 32.48197], [-93.72559, 32.482], [-93.72511, 32.4817], [-93.72492, 32.48158], [-93.72523, 32.48142]]], [[[-93.73412, 32.51489], [-93.73514, 32.51601], [-93.72542, 32.51625], [-93.72554, 32.51516], [-93.73412, 32.51489]]], [[[-93.776094, 32.462563], [-93.77585, 32.46367], [-93.775445, 32.465237], [-93.77539, 32.46545], [-93.775147, 32.466008], [-93.772998, 32.470945], [-93.7729, 32.47117], [-93.77806, 32.47113], [-93.77199, 32.47744], [-93.77147, 32.47798], [-93.771422, 32.4818], [-93.77142, 32.482], [-93.77079, 32.4843], [-93.77089, 32.48423], [-93.77027, 32.48621], [-93.77435, 32.48546], [-93.77502, 32.48526], [-93.7749, 32.48599], [-93.7749, 32.48601], [-93.7731, 32.48642], [-93.77049, 32.48759], [-93.76839, 32.48917], [-93.76774, 32.49021], [-93.76646, 32.49124], [-93.765134, 32.492454], [-93.76422, 32.49329], [-93.763562, 32.493751], [-93.76158, 32.49514], [-93.761378, 32.495244], [-93.75973, 32.49609], [-93.75736, 32.49688], [-93.75675, 32.49912], [-93.75668, 32.49912], [-93.75583, 32.50162], [-93.756, 32.50177], [-93.75352, 32.50685], [-93.75303, 32.50707], [-93.752945, 32.50727], [-93.75229, 32.50882], [-93.75553, 32.51206], [-93.75055, 32.51541], [-93.75191, 32.51677], [-93.7552, 32.51445], [-93.75617, 32.514462], [-93.758977, 32.514498], [-93.761089, 32.514525], [-93.76305, 32.51455], [-93.76319, 32.51582], [-93.765, 32.51516], [-93.76612, 32.51549], [-93.76882, 32.51577], [-93.76868, 32.51807], [-93.76704, 32.51783], [-93.76577, 32.51713], [-93.76382, 32.51711], [-93.76286, 32.51795], [-93.76341, 32.519], [-93.76339, 32.51978], [-93.76127, 32.52114], [-93.760028, 32.520577], [-93.75825, 32.51977], [-93.75773, 32.5184], [-93.75697, 32.51836], [-93.75614, 32.51745], [-93.75507, 32.51744], [-93.75333, 32.51801], [-93.753336, 32.518023], [-93.75369, 32.51883], [-93.7521, 32.51901], [-93.75097, 32.51964], [-93.750407, 32.519341], [-93.7498, 32.51902], [-93.74636, 32.51912], [-93.74509, 32.51877], [-93.74453, 32.517979], [-93.74434, 32.51771], [-93.74351, 32.51483], [-93.743279, 32.514585], [-93.74241, 32.51366], [-93.74, 32.51219], [-93.73547, 32.50989], [-93.73238, 32.50983], [-93.73104, 32.50963], [-93.72945, 32.50483], [-93.73389, 32.50424], [-93.73422, 32.50511], [-93.73533, 32.50503], [-93.73571, 32.50565], [-93.74289, 32.50753], [-93.7448, 32.50841], [-93.74799, 32.50707], [-93.74796, 32.50658], [-93.75221, 32.50318], [-93.75237, 32.50184], [-93.75341, 32.50032], [-93.753562, 32.499923], [-93.753609, 32.499798], [-93.754056, 32.498629], [-93.75409, 32.49854], [-93.75403, 32.49854], [-93.75527, 32.49613], [-93.75554, 32.49462], [-93.75557, 32.49244], [-93.75563, 32.48756], [-93.755664, 32.487558], [-93.76284, 32.48712], [-93.76301, 32.48617], [-93.76573, 32.48295], [-93.766368, 32.481766], [-93.76692, 32.48074], [-93.76738, 32.48043], [-93.76937, 32.47722], [-93.77291, 32.47152], [-93.77249, 32.47098], [-93.77169, 32.47105], [-93.771687, 32.47094], [-93.77139, 32.46005], [-93.77144, 32.46005], [-93.7714, 32.456494], [-93.7714, 32.45648], [-93.777108, 32.456367], [-93.77746, 32.45636], [-93.777434, 32.456477], [-93.776094, 32.462563]]], [[[-93.7588, 32.45491], [-93.75738, 32.45448], [-93.757219, 32.450521], [-93.75696, 32.44418], [-93.757186, 32.44418], [-93.763, 32.44419], [-93.76305, 32.45302], [-93.76297, 32.45471], [-93.7588, 32.45482], [-93.7588, 32.45491]]]]}}]}