{"type": "FeatureCollection", "features": [{"type": "Feature", "geometry": {"type": "Point", "coordinates": [-76.791667, 40.208333]}, "properties": {"facility_name": "CONAGRA FOODS INGREDIENTS", "industry": null, "tri_facility_id": "17034CNGRF99SEC"}}, {"type": "Feature", "geometry": {"type": "Point", "coordinates": [-76.78888888888889, 40.219166666666666]}, "properties": {"facility_name": "SCRANTON-ALTOONA TERMINALS CORP -MIDDLETOWN TERM", "industry": null, "tri_facility_id": "17057GTTYT911SE"}}, {"type": "Feature", "geometry": {"type": "Point", "coordinates": [-76.766667, 40.225]}, "properties": {"facility_name": "MACK TRUCKS INC REMANUFACTURING CENTER", "industry": null, "tri_facility_id": "17057MCKTR2800C"}}, {"type": "Feature", "geometry": {"type": "Point", "coordinates": [-76.78666666666666, 40.227222222222224]}, "properties": {"facility_name": "TYCO ELECTRONICS FULLING MILL ROAD", "industry": null, "tri_facility_id": "17057TYCLC29FUL"}}, {"type": "Feature", "geometry": {"type": "Point", "coordinates": [-76.870556, 40.260278]}, "properties": {"facility_name": "HERSHEY CREAMERY CO", "industry": null, "tri_facility_id": "17101HRSYC301SC"}}, {"type": "Feature", "geometry": {"type": "Point", "coordinates": [-76.884444, 40.273889]}, "properties": {"facility_name": "HARGRO FLEXIBLE PACKAGING CORP", "industry": null, "tri_facility_id": "17102BYRTW1501N"}}, {"type": "Feature", "geometry": {"type": "Point", "coordinates": [-76.878611, 40.273889]}, "properties": {"facility_name": "DAYTON PARTS LLC", "industry": null, "tri_facility_id": "17103DYTNP1300N"}}, {"type": "Feature", "geometry": {"type": "Point", "coordinates": [-76.863333, 40.243889]}, "properties": {"facility_name": "THE AMES COS INC.", "industry": null, "tri_facility_id": "17104TRTMP1500S"}}, {"type": "Feature", "geometry": {"type": "Point", "coordinates": [-76.881111, 40.274444]}, "properties": {"facility_name": "TURBINE AIRFOIL DESIGNS INC.", "industry": null, "tri_facility_id": "17105CHRML1400N"}}, {"type": "Feature", "geometry": {"type": "Point", "coordinates": [-76.879444, 40.261944]}, "properties": {"facility_name": "CHARLES D SNYDER & SON INC", "industry": null, "tri_facility_id": "17105CHSDS101NO"}}, {"type": "Feature", "geometry": {"type": "Point", "coordinates": [-76.79166666666667, 40.21944444444445]}, "properties": {"facility_name": "HIGHSPIRE TERMINALS - DE LLC/HIGHSPIRE TERMINAL", "industry": null, "tri_facility_id": "17105LDRDP900SE"}}, {"type": "Feature", "geometry": {"type": "Point", "coordinates": [-76.877778, 40.269444]}, "properties": {"facility_name": "TAYLOR-WHARTON GAS EQUIPMENT DIV HBG PLANT", "industry": null, "tri_facility_id": "17105PLNTC9THHE"}}, {"type": "Feature", "geometry": {"type": "Point", "coordinates": [-76.893862, 40.297093]}, "properties": {"facility_name": "UNITED BRAKE SYSTEMS INC", "industry": null, "tri_facility_id": "17110NTDBR700AN"}}, {"type": "Feature", "geometry": {"type": "Point", "coordinates": [-76.78527777777778, 40.26027777777778]}, "properties": {"facility_name": "ELECTRONIC SERVICE & DESIGN", "industry": null, "tri_facility_id": "17111LCTRN5885G"}}, {"type": "Feature", "geometry": {"type": "Point", "coordinates": [-76.80194444444444, 40.255833333333335]}, "properties": {"facility_name": "EXXONMOBIL OIL CORP HARRISBURG TERMINAL", "industry": null, "tri_facility_id": "17111MBLLH5140P"}}, {"type": "Feature", "geometry": {"type": "Point", "coordinates": [-76.78083333333333, 40.25972222222222]}, "properties": {"facility_name": "SHERWIN-WILLIAMS CO", "industry": null, "tri_facility_id": "17111SHRWN355EA"}}, {"type": "Feature", "geometry": {"type": "Point", "coordinates": [-76.81833333333333, 40.25666666666667]}, "properties": {"facility_name": "MONTOUR OIL KELLY CO", "industry": null, "tri_facility_id": "17111SNCNC80S40"}}, {"type": "Feature", "geometry": {"type": "Point", "coordinates": [-76.841389, 40.305278]}, "properties": {"facility_name": "OLIVETTI SUPPLIES INC", "industry": null, "tri_facility_id": "17112LVTTS2800V"}}, {"type": "Feature", "geometry": {"type": "Point", "coordinates": [-76.837222, 40.236667]}, "properties": {"facility_name": "CLEVELAND-CLIFFS STEELTON LLC", "industry": null, "tri_facility_id": "17113BTHLHFRONT"}}, {"type": "Feature", "geometry": {"type": "Point", "coordinates": [-76.78, 40.214444]}, "properties": {"facility_name": "HARSCO METALS - STEELTON", "industry": null, "tri_facility_id": "17113HCKTTBETHL"}}, {"type": "Feature", "geometry": {"type": "Point", "coordinates": [-76.958333, 40.215278]}, "properties": {"facility_name": "THE AMES COS INC.", "industry": null, "tri_facility_id": "17001TRTMP465RA"}}, {"type": "Feature", "geometry": {"type": "Point", "coordinates": [-76.944444, 40.21]}, "properties": {"facility_name": "ICELAND SEAFOOD CORP", "industry": null, "tri_facility_id": "17011CLNDS1250S"}}, {"type": "Feature", "geometry": {"type": "Point", "coordinates": [-76.914167, 40.233611]}, "properties": {"facility_name": "ADM ANIMAL NUTRITION INC", "industry": null, "tri_facility_id": "17011CNTRL2000H"}}, {"type": "Feature", "geometry": {"type": "Point", "coordinates": [-76.9299, 40.2343]}, "properties": {"facility_name": "ADM MILLING CO", "industry": null, "tri_facility_id": "17011DMMLLSPANG"}}, {"type": "Feature", "geometry": {"type": "Point", "coordinates": [-76.939167, 40.210278]}, "properties": {"facility_name": "KEYSTONE HOLDINGS LLC/CAMP HILL", "industry": null, "tri_facility_id": "17011PPLTN2850A"}}, {"type": "Feature", "geometry": {"type": "Point", "coordinates": [-76.932222, 40.225556]}, "properties": {"facility_name": "PERK FOODS, CHB", "industry": null, "tri_facility_id": "17011PRKFD2400O"}}, {"type": "Feature", "geometry": {"type": "Point", "coordinates": [-76.957444, 40.2353]}, "properties": {"facility_name": "PURINA ANIMAL NUTRITION LLC - HARRISBURG", "industry": null, "tri_facility_id": "17011PRNMLSTJOH"}}, {"type": "Feature", "geometry": {"type": "Point", "coordinates": [-76.918333, 40.2325]}, "properties": {"facility_name": "ATLAS ROOFING CORP", "industry": null, "tri_facility_id": "17011TLSNR817SP"}}, {"type": "Feature", "geometry": {"type": "Point", "coordinates": [-76.925, 40.236111]}, "properties": {"facility_name": "AMERICAN NATIONAL CAN CO LEMOYNE FACILITY", "industry": null, "tri_facility_id": "17043MRCNN221S1"}}, {"type": "Feature", "geometry": {"type": "Point", "coordinates": [-76.83277777777778, 40.339444444444446]}, "properties": {"facility_name": "PATTON PICTURE CO", "industry": null, "tri_facility_id": "17050PTTNP27LYN"}}, {"type": "Feature", "geometry": {"type": "Point", "coordinates": [-76.99, 40.240833]}, "properties": {"facility_name": "CAPITOL PRODUCTS CORP", "industry": null, "tri_facility_id": "17055CPTLP6034C"}}, {"type": "Feature", "geometry": {"type": "Point", "coordinates": [-76.97638888888889, 40.22]}, "properties": {"facility_name": "SUNOCO PARTNERS MARKETING & TERMINALS LP-MECHANICSBURG", "industry": null, "tri_facility_id": "17055SNCNC5145S"}}, {"type": "Feature", "geometry": {"type": "Point", "coordinates": [-76.872953, 40.178836]}, "properties": {"facility_name": "DU PONT FISHING CREEK", "industry": null, "tri_facility_id": "17070DPNTF515FI"}}, {"type": "Feature", "geometry": {"type": "Point", "coordinates": [-76.83722222222222, 40.208333333333336]}, "properties": {"facility_name": "DEFENSE DISTRIBUTION CENTER SUSQUEHANNA", "industry": null, "tri_facility_id": "17070SDLDF2001M"}}, {"type": "Feature", "geometry": {"type": "Point", "coordinates": [-76.833333, 40.180278]}, "properties": {"facility_name": "FCI USA LLC", "industry": null, "tri_facility_id": "17319DPNTV825OL"}}, {"type": "Feature", "geometry": {"type": "Point", "coordinates": [-76.8325, 40.170278]}, "properties": {"facility_name": "DRYDEN OIL CO", "industry": null, "tri_facility_id": "17339DRYDN569IN"}}]}