{"type": "FeatureCollection", "features": [{"type": "Feature", "geometry": {"type": "Point", "coordinates": [-89.64750000000001, 39.79944444444444]}, "properties": {"facility_name": "DICKEY-JOHN CORP", "industry": null, "tri_facility_id": "62615DCKYJ5200D"}}, {"type": "Feature", "geometry": {"type": "Point", "coordinates": [-89.652778, 39.806111]}, "properties": {"facility_name": "HUBBARD MILLING CO", "industry": null, "tri_facility_id": "62702HBBRD426N2"}}, {"type": "Feature", "geometry": {"type": "Point", "coordinates": [-89.60694444444444, 39.84527777777778]}, "properties": {"facility_name": "METAL DECOR", "industry": null, "tri_facility_id": "62702MTLDC2731N"}}, {"type": "Feature", "geometry": {"type": "Point", "coordinates": [-89.605833, 39.847222]}, "properties": {"facility_name": "ANDERSON CONCRETE PIPE INC", "industry": null, "tri_facility_id": "62702NDRSN2917N"}}, {"type": "Feature", "geometry": {"type": "Point", "coordinates": [-89.619444, 39.818056]}, "properties": {"facility_name": "CARGILL INC NA FLOUR MILLING", "industry": null, "tri_facility_id": "62702THPLL1525E"}}, {"type": "Feature", "geometry": {"type": "Point", "coordinates": [-89.630833, 39.756389]}, "properties": {"facility_name": "GROWMARK FEED PLANT", "industry": null, "tri_facility_id": "62703GRWMR1500A"}}, {"type": "Feature", "geometry": {"type": "Point", "coordinates": [-89.619444, 39.787222]}, "properties": {"facility_name": "PRECISION PRODS INC", "industry": null, "tri_facility_id": "62703PRCSN2415S"}}, {"type": "Feature", "geometry": {"type": "Point", "coordinates": [-89.608611, 39.831667]}, "properties": {"facility_name": "COCA-COLA BOTTLING CO CENTRAL STATES", "industry": null, "tri_facility_id": "62707CCCLB3495E"}}, {"type": "Feature", "geometry": {"type": "Point", "coordinates": [-89.676667, 39.843333]}, "properties": {"facility_name": "ALLIED-SIGNAL INC GARRETT GENERAL AVIATION SERVI", "industry": null, "tri_facility_id": "62707LLDSG2951J"}}, {"type": "Feature", "geometry": {"type": "Point", "coordinates": [-89.56666666666666, 39.833333333333336]}, "properties": {"facility_name": "METAL DECOR", "industry": null, "tri_facility_id": "62707MTLDC2601C"}}, {"type": "Feature", "geometry": {"type": "Point", "coordinates": [-89.67083333333333, 39.833333333333336]}, "properties": {"facility_name": "US DOD USAF CAPITAL MAP ANG", "industry": null, "tri_facility_id": "62707SRFRC3101J"}}, {"type": "Feature", "geometry": {"type": "Point", "coordinates": [-89.640833, 39.779167]}, "properties": {"facility_name": "HONEYWELL HOBBS CORP", "industry": null, "tri_facility_id": "62794STWRTYALEB"}}]}