{"type": "FeatureCollection", "features": [{"type": "Feature", "geometry": {"type": "Point", "coordinates": [-103.76583333333333, 40.25277777777778]}, "properties": {"facility_name": "DAIRY FARMERS OF AMERICA INC", "industry": null, "tri_facility_id": "80701DRYFR2301E"}}, {"type": "Feature", "geometry": {"type": "Point", "coordinates": [-103.75555555555556, 40.251666666666665]}, "properties": {"facility_name": "HOMES BY OAKWOOD", "industry": null, "tri_facility_id": "80701HMSBY20870"}}, {"type": "Feature", "geometry": {"type": "Point", "coordinates": [-103.8022, 40.2545]}, "properties": {"facility_name": "LEPRINO FOODS CO", "industry": null, "tri_facility_id": "80701LPRNF2400E"}}, {"type": "Feature", "geometry": {"type": "Point", "coordinates": [-103.840573, 40.271485]}, "properties": {"facility_name": "WESTERN SUGAR COOPERATIVE", "industry": null, "tri_facility_id": "80701WSTRN18317"}}, {"type": "Feature", "geometry": {"type": "Point", "coordinates": [-103.774444, 40.247222]}, "properties": {"facility_name": "CARGILL MEAT SOLUTIONS CORP", "industry": null, "tri_facility_id": "80701XCLCR1505E"}}]}