{"type": "FeatureCollection", "features": [{"type": "Feature", "geometry": {"type": "Point", "coordinates": [-97.06833333333333, 44.89388888888889]}, "properties": {"facility_name": "COEV INC", "industry": null, "tri_facility_id": "57201CVNCX30039"}}, {"type": "Feature", "geometry": {"type": "Point", "coordinates": [-97.156389, 44.925833]}, "properties": {"facility_name": "DAKOTA TUBE BUILDING 1", "industry": null, "tri_facility_id": "57201DKTTB221AI"}}, {"type": "Feature", "geometry": {"type": "Point", "coordinates": [-97.160278, 44.923889]}, "properties": {"facility_name": "FAULTLESS-NUTTING DIV", "industry": null, "tri_facility_id": "57201FLTLS505WA"}}, {"type": "Feature", "geometry": {"type": "Point", "coordinates": [-97.11333333333333, 44.876111111111115]}, "properties": {"facility_name": "GLACIAL LAKES ENERGY LLC", "industry": null, "tri_facility_id": "57201GLCLL30120"}}, {"type": "Feature", "geometry": {"type": "Point", "coordinates": [-97.106389, 44.9025]}, "properties": {"facility_name": "HUBBARD FEEDS INC WATERTOWN SD", "industry": null, "tri_facility_id": "57201HBBRD1514T"}}, {"type": "Feature", "geometry": {"type": "Point", "coordinates": [-97.155278, 44.927778]}, "properties": {"facility_name": "MIDCOM INC", "industry": null, "tri_facility_id": "57201MDCMN121AI"}}, {"type": "Feature", "geometry": {"type": "Point", "coordinates": [-97.139167, 44.893611]}, "properties": {"facility_name": "MINNESOTA RUBBER & PLASTICS", "industry": null, "tri_facility_id": "57201MNNST600QU"}}, {"type": "Feature", "geometry": {"type": "Point", "coordinates": [-97.06638888888888, 44.885]}, "properties": {"facility_name": "SPARTRONICS WATERTOWN LLC", "industry": null, "tri_facility_id": "57201MWRLD292KE"}}, {"type": "Feature", "geometry": {"type": "Point", "coordinates": [-97.11138888888888, 44.89944444444444]}, "properties": {"facility_name": "OEM WORLDWIDE LLC", "industry": null, "tri_facility_id": "57201MWRLD400CE"}}, {"type": "Feature", "geometry": {"type": "Point", "coordinates": [-97.1575, 44.925833]}, "properties": {"facility_name": "WORKHORSE CABS LLC DBA CRENLO ENGINEERED CABS", "industry": null, "tri_facility_id": "57201NGSND315WA"}}, {"type": "Feature", "geometry": {"type": "Point", "coordinates": [-97.064722, 44.888889]}, "properties": {"facility_name": "ENERCEPT INC", "industry": null, "tri_facility_id": "57201NRCPT31009"}}, {"type": "Feature", "geometry": {"type": "Point", "coordinates": [-97.150833, 44.902222]}, "properties": {"facility_name": "PERSONA INC", "industry": null, "tri_facility_id": "57201PRSNN70021"}}, {"type": "Feature", "geometry": {"type": "Point", "coordinates": [-97.15, 44.93333333333333]}, "properties": {"facility_name": "MILLER ELECTRIC MANUFACTURING CO", "industry": null, "tri_facility_id": "57201SMTHQ2601A"}}, {"type": "Feature", "geometry": {"type": "Point", "coordinates": [-97.166667, 44.927778]}, "properties": {"facility_name": "TEREX TELELECT INC FGI DIV", "industry": null, "tri_facility_id": "57201TLLCT2813P"}}, {"type": "Feature", "geometry": {"type": "Point", "coordinates": [-97.145833, 44.895833]}, "properties": {"facility_name": "TELELECT INC CYLINDER PLANT", "industry": null, "tri_facility_id": "57201TLLCT51021"}}, {"type": "Feature", "geometry": {"type": "Point", "coordinates": [-97.136111, 44.895833]}, "properties": {"facility_name": "TEREX SOUTH DAKOTA - MAIN PLANT", "industry": null, "tri_facility_id": "57201TLLCT600OA"}}, {"type": "Feature", "geometry": {"type": "Point", "coordinates": [-97.15722222222223, 44.92916666666667]}, "properties": {"facility_name": "TWIN CITY DIE CASTINGS CO - WATERTOWN DIV", "industry": null, "tri_facility_id": "57201TWNCT122CE"}}]}