{"type": "FeatureCollection", "features": [{"type": "Feature", "geometry": {"type": "Point", "coordinates": [-87.35777777777777, 39.390277777777776]}, "properties": {"facility_name": "STEEL DYNAMICS HEARTLAND LLC", "industry": null, "tri_facility_id": "47802CSNLL455WI"}}, {"type": "Feature", "geometry": {"type": "Point", "coordinates": [-87.415, 39.442778]}, "properties": {"facility_name": "GARTLAND FOUNDRY CO INC", "industry": null, "tri_facility_id": "47802GRTLN330GR"}}, {"type": "Feature", "geometry": {"type": "Point", "coordinates": [-87.39583333333334, 39.44083333333333]}, "properties": {"facility_name": "HYDRITE CHEMICAL CO.", "industry": null, "tri_facility_id": "47802HYDRT1330L"}}, {"type": "Feature", "geometry": {"type": "Point", "coordinates": [-87.393889, 39.438333]}, "properties": {"facility_name": "BRENNTAG MID-SOUTH INC.", "industry": null, "tri_facility_id": "47802LRCHC1400L"}}, {"type": "Feature", "geometry": {"type": "Point", "coordinates": [-87.418611, 39.452222]}, "properties": {"facility_name": "SCHERING-PLOUGH ANIMAL HEALTH CORP", "industry": null, "tri_facility_id": "47802PTMNM1331S"}}, {"type": "Feature", "geometry": {"type": "Point", "coordinates": [-87.408333, 39.466667]}, "properties": {"facility_name": "SHENANGO INDUSTRIES INC", "industry": null, "tri_facility_id": "47802SHNNG1200C"}}, {"type": "Feature", "geometry": {"type": "Point", "coordinates": [-87.422859, 39.441015]}, "properties": {"facility_name": "INTERNATIONAL PAPER CO.", "industry": null, "tri_facility_id": "47802THWSTPRAIR"}}, {"type": "Feature", "geometry": {"type": "Point", "coordinates": [-87.396111, 39.446389]}, "properties": {"facility_name": "TERRE HAUTE COKE & CARBON, CORP", "industry": null, "tri_facility_id": "47802TRRHT1341H"}}, {"type": "Feature", "geometry": {"type": "Point", "coordinates": [-87.358333, 39.508333]}, "properties": {"facility_name": "IVY HILL PACKAGING FORT HARRISON INDUSTRIAL PARK", "industry": null, "tri_facility_id": "47802VYHLLBUILD"}}, {"type": "Feature", "geometry": {"type": "Point", "coordinates": [-87.423732, 39.43981]}, "properties": {"facility_name": "STELLA-JONES CORP", "industry": null, "tri_facility_id": "47802WSTRN2525P"}}, {"type": "Feature", "geometry": {"type": "Point", "coordinates": [-87.353611, 39.509167]}, "properties": {"facility_name": "ACCURATE GLASS INC", "industry": null, "tri_facility_id": "47803CCRTG1600S"}}, {"type": "Feature", "geometry": {"type": "Point", "coordinates": [-87.353611, 39.471389]}, "properties": {"facility_name": "TRI-REMANUFACTURING", "industry": null, "tri_facility_id": "47803TRRMN3390L"}}, {"type": "Feature", "geometry": {"type": "Point", "coordinates": [-87.375, 39.458333]}, "properties": {"facility_name": "WABASH PRODUCTS", "industry": null, "tri_facility_id": "47803WBSHP1600H"}}, {"type": "Feature", "geometry": {"type": "Point", "coordinates": [-87.365278, 39.505]}, "properties": {"facility_name": "GEON PERFORMANCE SOLUTIONS LLC", "industry": null, "tri_facility_id": "47804BFGDR3100N"}}, {"type": "Feature", "geometry": {"type": "Point", "coordinates": [-87.362778, 39.508333]}, "properties": {"facility_name": "AMCOR FLEXIBLES N.A.", "industry": null, "tri_facility_id": "47804BMSCM1350N"}}, {"type": "Feature", "geometry": {"type": "Point", "coordinates": [-87.361389, 39.504444]}, "properties": {"facility_name": "SONY DADC", "industry": null, "tri_facility_id": "47804DGTLD1800N"}}, {"type": "Feature", "geometry": {"type": "Point", "coordinates": [-87.392429, 39.4868]}, "properties": {"facility_name": "COLUMBIAN HOME PRODUCTS LLC", "industry": null, "tri_facility_id": "47804GNRLH1536B"}}, {"type": "Feature", "geometry": {"type": "Point", "coordinates": [-87.3885, 39.4956]}, "properties": {"facility_name": "WABASH FIBRE BOX CO", "industry": null, "tri_facility_id": "47804WBSHF2000N"}}, {"type": "Feature", "geometry": {"type": "Point", "coordinates": [-87.3161, 39.5419]}, "properties": {"facility_name": "APPLIED EXTRUSION TECHNOLOGIES INC", "industry": null, "tri_facility_id": "47805HRCLSUS41N"}}, {"type": "Feature", "geometry": {"type": "Point", "coordinates": [-87.394444, 39.535833]}, "properties": {"facility_name": "NOVELIS CORP", "industry": null, "tri_facility_id": "47805LCNRL5901N"}}, {"type": "Feature", "geometry": {"type": "Point", "coordinates": [-87.36, 39.511111]}, "properties": {"facility_name": "AMPACET CORP", "industry": null, "tri_facility_id": "47805MPCTC3701N"}}, {"type": "Feature", "geometry": {"type": "Point", "coordinates": [-87.36027777777777, 39.51361111111111]}, "properties": {"facility_name": "VP RACING FUELS INC.", "industry": null, "tri_facility_id": "47805VPRCN41EST"}}, {"type": "Feature", "geometry": {"type": "Point", "coordinates": [-87.393333, 39.525556]}, "properties": {"facility_name": "GREAT DANE TRAILERS", "industry": null, "tri_facility_id": "47807GRTDN4901N"}}, {"type": "Feature", "geometry": {"type": "Point", "coordinates": [-87.418611, 39.469444]}, "properties": {"facility_name": "PILLSBURY CO", "industry": null, "tri_facility_id": "47807PLLSB1WEST"}}, {"type": "Feature", "geometry": {"type": "Point", "coordinates": [-87.407222, 39.462222]}, "properties": {"facility_name": "UNISON ENGINE COMPONENTS TERRE HAUTE", "industry": null, "tri_facility_id": "47807TRNDS333SO"}}, {"type": "Feature", "geometry": {"type": "Point", "coordinates": [-87.404167, 39.461111]}, "properties": {"facility_name": "BORDEN INC SNACKS & INTL DIV", "industry": null, "tri_facility_id": "47808BRDNN500S9"}}, {"type": "Feature", "geometry": {"type": "Point", "coordinates": [-87.413889, 39.475]}, "properties": {"facility_name": "SHERWIN-WILLIAMS CO", "industry": null, "tri_facility_id": "47808MBRDR630NO"}}, {"type": "Feature", "geometry": {"type": "Point", "coordinates": [-87.403, 39.4358]}, "properties": {"facility_name": "PFIZER INC VIGO PLANT", "industry": null, "tri_facility_id": "47808PFZRNCARLI"}}, {"type": "Feature", "geometry": {"type": "Point", "coordinates": [-87.416667, 39.466667]}, "properties": {"facility_name": "THE CORP", "industry": null, "tri_facility_id": "47808TRRHT648WA"}}, {"type": "Feature", "geometry": {"type": "Point", "coordinates": [-87.42222222222223, 39.52777777777778]}, "properties": {"facility_name": "DUKE ENERGY INDIANA INC - WABASH RIVER GENERATING STATION", "industry": null, "tri_facility_id": "47885PSWBS450BO"}}, {"type": "Feature", "geometry": {"type": "Point", "coordinates": [-87.47222222222223, 39.54055555555556]}, "properties": {"facility_name": "SG SOLUTIONS LLC / WABASH RIVER COMBINED CYCLE PLANT", "industry": null, "tri_facility_id": "47885WBSHR444WS"}}]}