{"type": "FeatureCollection", "features": [{"type": "Feature", "properties": {"area_id": 10226, "city": "Burlington", "state": "VT", "city_survey": false, "cat": "#1 Best Residential", "grade": null, "label": "#1 Best Residential", "res": true, "com": false, "ind": false, "holc_grade": null}, "geometry": {"type": "Polygon", "coordinates": [[[-73.208896, 44.451854], [-73.208538, 44.455136], [-73.20852, 44.4553], [-73.207653, 44.463063], [-73.207616, 44.463397], [-73.20744, 44.46497], [-73.20994, 44.46758], [-73.21016, 44.46883], [-73.21061, 44.46965], [-73.21123, 44.46988], [-73.21215, 44.47086], [-73.21226, 44.47156], [-73.21207, 44.47224], [-73.212275, 44.474813], [-73.21228, 44.47487], [-73.210815, 44.474931], [-73.20842, 44.47503], [-73.20858, 44.476084], [-73.20867, 44.47668], [-73.2103, 44.47659], [-73.21055, 44.47931], [-73.2105, 44.48069], [-73.20596, 44.48079], [-73.205733, 44.480795], [-73.19952, 44.48092], [-73.19419, 44.48263], [-73.18916, 44.48484], [-73.18824, 44.48504], [-73.18769, 44.48484], [-73.18709, 44.48462], [-73.18564, 44.48251], [-73.18497, 44.48036], [-73.18531, 44.48001], [-73.18913, 44.47927], [-73.19, 44.47836], [-73.18975, 44.47648], [-73.188757, 44.473938], [-73.18839, 44.473], [-73.18862, 44.47209], [-73.18944, 44.47186], [-73.19013, 44.47196], [-73.193102, 44.471876], [-73.19901, 44.47171], [-73.19977, 44.47129], [-73.19995, 44.47073], [-73.19911, 44.46683], [-73.19937, 44.46273], [-73.19937, 44.45836], [-73.199615, 44.45637], [-73.199815, 44.454735], [-73.19995, 44.45364], [-73.203271, 44.451857], [-73.2036, 44.45168], [-73.20753, 44.45033], [-73.20837, 44.44984], [-73.20855, 44.44712], [-73.20904, 44.44632], [-73.209427, 44.446044], [-73.209567, 44.445944], [-73.20988, 44.44572], [-73.209832, 44.445972], [-73.20914, 44.44962], [-73.208896, 44.451854]]]}}, {"type": "Feature", "properties": {"area_id": 10228, "city": "Burlington", "state": "VT", "city_survey": false, "cat": "#2 Residential", "grade": null, "label": "#2 Residential", "res": true, "com": false, "ind": false, "holc_grade": null}, "geometry": {"type": "MultiPolygon", "coordinates": [[[[-73.20601, 44.48446], [-73.20589, 44.484562], [-73.20501, 44.48531], [-73.20411, 44.4867], [-73.20406, 44.48831], [-73.20374, 44.48916], [-73.203488, 44.489362], [-73.20284, 44.48988], [-73.20264, 44.489823], [-73.20221, 44.4897], [-73.20164, 44.4893], [-73.20048, 44.4893], [-73.19773, 44.48882], [-73.19482, 44.4882], [-73.1932, 44.48731], [-73.19205, 44.48698], [-73.19123, 44.48639], [-73.19021, 44.48639], [-73.18887, 44.48716], [-73.18701, 44.48893], [-73.18495, 44.489179], [-73.18445, 44.48924], [-73.183617, 44.488873], [-73.1832, 44.48869], [-73.18261, 44.48812], [-73.18244, 44.48703], [-73.18293, 44.48604], [-73.18408, 44.48532], [-73.18664, 44.48482], [-73.18769, 44.48484], [-73.18824, 44.48504], [-73.18916, 44.48484], [-73.19419, 44.48263], [-73.19952, 44.48092], [-73.205733, 44.480795], [-73.20596, 44.48079], [-73.20601, 44.48446]]], [[[-73.21695, 44.45038], [-73.21834, 44.45124], [-73.21851, 44.4531], [-73.21823, 44.45477], [-73.21747, 44.45547], [-73.21612, 44.455527], [-73.214213, 44.455606], [-73.21389, 44.45562], [-73.21388, 44.45818], [-73.21476, 44.46708], [-73.21486, 44.47015], [-73.214979, 44.471043], [-73.21519, 44.47263], [-73.21767, 44.47285], [-73.21937, 44.47332], [-73.21957, 44.47329], [-73.2199, 44.47447], [-73.21981, 44.47539], [-73.21881, 44.47551], [-73.21571, 44.47555], [-73.21572, 44.47499], [-73.21535, 44.47499], [-73.21538, 44.47474], [-73.21228, 44.47487], [-73.212275, 44.474813], [-73.21207, 44.47224], [-73.21226, 44.47156], [-73.21215, 44.47086], [-73.21123, 44.46988], [-73.21061, 44.46965], [-73.21016, 44.46883], [-73.20994, 44.46758], [-73.20744, 44.46497], [-73.207616, 44.463397], [-73.207653, 44.463063], [-73.20852, 44.4553], [-73.208538, 44.455136], [-73.208896, 44.451854], [-73.20914, 44.44962], [-73.21028, 44.44951], [-73.21447, 44.44989], [-73.21695, 44.45038]]]]}}, {"type": "Feature", "properties": {"area_id": 10227, "city": "Burlington", "state": "VT", "city_survey": false, "cat": "#3 Residential", "grade": null, "label": "#3 Residential", "res": true, "com": false, "ind": false, "holc_grade": null}, "geometry": {"type": "Polygon", "coordinates": [[[-73.22007, 44.47868], [-73.22012, 44.4795], [-73.22074, 44.48027], [-73.22284, 44.48115], [-73.224098, 44.482816], [-73.22644, 44.48592], [-73.226452, 44.48596], [-73.22681, 44.48711], [-73.22637, 44.48851], [-73.22484, 44.48933], [-73.22224, 44.48965], [-73.21979, 44.48949], [-73.21816, 44.48919], [-73.21661, 44.48924], [-73.21484, 44.49046], [-73.21287, 44.49129], [-73.20921, 44.49138], [-73.20824, 44.49104], [-73.20284, 44.48988], [-73.203488, 44.489362], [-73.20374, 44.48916], [-73.20406, 44.48831], [-73.20411, 44.4867], [-73.20501, 44.48531], [-73.20589, 44.484562], [-73.20601, 44.48446], [-73.20596, 44.48079], [-73.2105, 44.48069], [-73.211196, 44.480663], [-73.21626, 44.48047], [-73.216241, 44.480324], [-73.21597, 44.47823], [-73.22018, 44.47817], [-73.22007, 44.47868]], [[-73.21795, 44.48408], [-73.21224, 44.4842], [-73.21228, 44.4851], [-73.21286, 44.48512], [-73.21271, 44.48538], [-73.21361, 44.48571], [-73.213921, 44.485329], [-73.21414, 44.48506], [-73.218, 44.48492], [-73.21798, 44.484589], [-73.21795, 44.48408]], [[-73.22207, 44.48397], [-73.221991, 44.483987], [-73.2213, 44.48414], [-73.221329, 44.484461], [-73.22136, 44.4848], [-73.22199, 44.48487], [-73.22266, 44.48568], [-73.22327, 44.48541], [-73.222338, 44.484291], [-73.22207, 44.48397]]]}}, {"type": "Feature", "properties": {"area_id": 10225, "city": "Burlington", "state": "VT", "city_survey": false, "cat": "Industrial", "grade": null, "label": "Industrial", "res": false, "com": false, "ind": true, "holc_grade": null}, "geometry": {"type": "Polygon", "coordinates": [[[-73.21747, 44.45547], [-73.217891, 44.455577], [-73.21857, 44.45575], [-73.21842, 44.45947], [-73.21881, 44.46095], [-73.21878, 44.46162], [-73.221084, 44.461948], [-73.22208, 44.46209], [-73.22066, 44.46391], [-73.219079, 44.466672], [-73.21892, 44.46695], [-73.21861, 44.46811], [-73.21888, 44.4706], [-73.21984, 44.47101], [-73.22038, 44.47109], [-73.220497, 44.471625], [-73.22062, 44.47219], [-73.22069, 44.47315], [-73.22052, 44.473171], [-73.21957, 44.47329], [-73.21937, 44.47332], [-73.21767, 44.47285], [-73.21519, 44.47263], [-73.214979, 44.471043], [-73.21486, 44.47015], [-73.21476, 44.46708], [-73.21388, 44.45818], [-73.21389, 44.45562], [-73.214213, 44.455606], [-73.21612, 44.455527], [-73.21747, 44.45547]]]}}, {"type": "Feature", "properties": {"area_id": 10224, "city": "Burlington", "state": "VT", "city_survey": false, "cat": "Trading", "grade": null, "label": "Trading", "res": false, "com": true, "ind": false, "holc_grade": null}, "geometry": {"type": "MultiPolygon", "coordinates": [[[[-73.21538, 44.47474], [-73.21535, 44.47499], [-73.21572, 44.47499], [-73.21571, 44.47555], [-73.21881, 44.47551], [-73.21981, 44.47539], [-73.22005, 44.47537], [-73.2208, 44.4766], [-73.22064, 44.47816], [-73.22018, 44.47817], [-73.21597, 44.47823], [-73.216241, 44.480324], [-73.21626, 44.48047], [-73.211196, 44.480663], [-73.2105, 44.48069], [-73.21055, 44.47931], [-73.2103, 44.47659], [-73.20867, 44.47668], [-73.20858, 44.476084], [-73.20842, 44.47503], [-73.210815, 44.474931], [-73.21228, 44.47487], [-73.21538, 44.47474]]], [[[-73.21228, 44.4851], [-73.21224, 44.4842], [-73.21795, 44.48408], [-73.21798, 44.484589], [-73.218, 44.48492], [-73.21414, 44.48506], [-73.213921, 44.485329], [-73.21361, 44.48571], [-73.21271, 44.48538], [-73.21286, 44.48512], [-73.21228, 44.4851]]], [[[-73.221991, 44.483987], [-73.22207, 44.48397], [-73.222338, 44.484291], [-73.22327, 44.48541], [-73.22266, 44.48568], [-73.22199, 44.48487], [-73.22136, 44.4848], [-73.221329, 44.484461], [-73.2213, 44.48414], [-73.221991, 44.483987]]]]}}]}