{"type": "FeatureCollection", "features": [{"type": "Feature", "geometry": {"type": "Point", "coordinates": [-73.82138888888889, 40.88861111111111]}, "properties": {"facility_name": "GETTY TERMINALS CORP.", "industry": null, "tri_facility_id": "10466GTTYT4301B"}}, {"type": "Feature", "geometry": {"type": "Point", "coordinates": [-73.847778, 41.0125]}, "properties": {"facility_name": "RSA CORP", "industry": null, "tri_facility_id": "10502RSCRP690SA"}}, {"type": "Feature", "geometry": {"type": "Point", "coordinates": [-73.806667, 41.036944]}, "properties": {"facility_name": "AMERICAN BANK NOTE HOLOGRAPHICS INC", "industry": null, "tri_facility_id": "10523MRCNB399EX"}}, {"type": "Feature", "geometry": {"type": "Point", "coordinates": [-73.72222222222223, 40.93611111111111]}, "properties": {"facility_name": "COMPOSITE MATERIALS LLC", "industry": null, "tri_facility_id": "10543CMPST700WA"}}, {"type": "Feature", "geometry": {"type": "Point", "coordinates": [-73.731, 40.9571]}, "properties": {"facility_name": "CINE MAGNETICS FILM & VIDEO LABS", "industry": null, "tri_facility_id": "10543CNMGN650HA"}}, {"type": "Feature", "geometry": {"type": "Point", "coordinates": [-73.7453, 40.948]}, "properties": {"facility_name": "AMERCHOL CORP", "industry": null, "tri_facility_id": "10543MRCHL628WA"}}, {"type": "Feature", "geometry": {"type": "Point", "coordinates": [-73.7432, 40.9497]}, "properties": {"facility_name": "M. ARGUESO & CO INC", "industry": null, "tri_facility_id": "10543MRGSC441WA"}}, {"type": "Feature", "geometry": {"type": "Point", "coordinates": [-73.746389, 40.9475]}, "properties": {"facility_name": "METAGLO INC", "industry": null, "tri_facility_id": "10543MTGLN625WA"}}, {"type": "Feature", "geometry": {"type": "Point", "coordinates": [-73.738666, 40.952348]}, "properties": {"facility_name": "ITT SEALECTRO CORP", "industry": null, "tri_facility_id": "10543TTSLC139HO"}}, {"type": "Feature", "geometry": {"type": "Point", "coordinates": [-73.835, 40.905833]}, "properties": {"facility_name": "COMMERCIAL DECAL", "industry": null, "tri_facility_id": "10550CMMRC650SO"}}, {"type": "Feature", "geometry": {"type": "Point", "coordinates": [-73.82027777777778, 40.89611111111111]}, "properties": {"facility_name": "CANAL ASPHALT INC", "industry": null, "tri_facility_id": "10550CNLSP800CA"}}, {"type": "Feature", "geometry": {"type": "Point", "coordinates": [-73.8247, 40.8951]}, "properties": {"facility_name": "NORTHEAST PLATING INC", "industry": null, "tri_facility_id": "10550DYNCS807SO"}}, {"type": "Feature", "geometry": {"type": "Point", "coordinates": [-73.8216, 40.9006]}, "properties": {"facility_name": "FR CHEMICAL INC.", "industry": null, "tri_facility_id": "10550FRCHM524SO"}}, {"type": "Feature", "geometry": {"type": "Point", "coordinates": [-73.8382, 40.8981]}, "properties": {"facility_name": "ALLTEX LAMINATING CORP", "industry": null, "tri_facility_id": "10550LLTXL120SA"}}, {"type": "Feature", "geometry": {"type": "Point", "coordinates": [-73.85083333333333, 40.91]}, "properties": {"facility_name": "MICHAEL ANTHONY JEWELERS INC", "industry": null, "tri_facility_id": "10550MCHLN115SM"}}, {"type": "Feature", "geometry": {"type": "Point", "coordinates": [-73.8453, 40.9163]}, "properties": {"facility_name": "AMPACET CORP MT VERNON PLANT", "industry": null, "tri_facility_id": "10550MPCTC250ST"}}, {"type": "Feature", "geometry": {"type": "Point", "coordinates": [-73.825, 40.890277777777776]}, "properties": {"facility_name": "RCA ASPHALT LLC", "industry": null, "tri_facility_id": "10550RCSPH7EDIS"}}, {"type": "Feature", "geometry": {"type": "Point", "coordinates": [-73.847778, 40.913889]}, "properties": {"facility_name": "RED DEVIL COATINGS", "industry": null, "tri_facility_id": "10550RDDVL30NOR"}}, {"type": "Feature", "geometry": {"type": "Point", "coordinates": [-73.82722222222222, 40.89138888888889]}, "properties": {"facility_name": "ROHLF'S STAINED & LEADED GLASS STUDIO INC", "industry": null, "tri_facility_id": "10550RHLFS783S3"}}, {"type": "Feature", "geometry": {"type": "Point", "coordinates": [-73.8225, 40.895833]}, "properties": {"facility_name": "PPG INDUSTRIES INC", "industry": null, "tri_facility_id": "10550SPRYL716SO"}}, {"type": "Feature", "geometry": {"type": "Point", "coordinates": [-73.841667, 40.920833]}, "properties": {"facility_name": "BEACON CHEMICAL CO INC", "industry": null, "tri_facility_id": "10551BCNCH125MA"}}, {"type": "Feature", "geometry": {"type": "Point", "coordinates": [-73.8277, 40.9105]}, "properties": {"facility_name": "RECTORSEAL CORP", "industry": null, "tri_facility_id": "10553STWRT222WA"}}, {"type": "Feature", "geometry": {"type": "Point", "coordinates": [-73.9, 40.947222]}, "properties": {"facility_name": "BICC UTILITY CABLE CO", "industry": null, "tri_facility_id": "10701CBLCRFOOTO"}}, {"type": "Feature", "geometry": {"type": "Point", "coordinates": [-73.901389, 40.938056]}, "properties": {"facility_name": "PATCLIN CHEMICAL CO", "industry": null, "tri_facility_id": "10701PTCLN66ALE"}}, {"type": "Feature", "geometry": {"type": "Point", "coordinates": [-73.875, 40.958333333333336]}, "properties": {"facility_name": "T.C. DUNHAM PAINT CO", "industry": null, "tri_facility_id": "10701TCDNH581SA"}}, {"type": "Feature", "geometry": {"type": "Point", "coordinates": [-73.873056, 40.9575]}, "properties": {"facility_name": "GRAPHITE METALLIZING CORP", "industry": null, "tri_facility_id": "10702GRPHT1050N"}}, {"type": "Feature", "geometry": {"type": "Point", "coordinates": [-73.899444, 40.936667]}, "properties": {"facility_name": "INSL-X PRODS CORP", "industry": null, "tri_facility_id": "10702NSLXP115WO"}}, {"type": "Feature", "geometry": {"type": "Point", "coordinates": [-73.9009, 40.9401]}, "properties": {"facility_name": "POLYCHROME CORP", "industry": null, "tri_facility_id": "10702PLYCH2ASHB"}}, {"type": "Feature", "geometry": {"type": "Point", "coordinates": [-73.905556, 40.9375]}, "properties": {"facility_name": "AMERICAN SUGAR REFINING INC", "industry": null, "tri_facility_id": "10702RFNDSONEFE"}}, {"type": "Feature", "geometry": {"type": "Point", "coordinates": [-73.881278, 40.9486]}, "properties": {"facility_name": "CIRCUIT TECHNOLOGY INC", "industry": null, "tri_facility_id": "10703CRCTT771NE"}}, {"type": "Feature", "geometry": {"type": "Point", "coordinates": [-73.881944, 40.947222]}, "properties": {"facility_name": "PRECISION VALUE CORP", "industry": null, "tri_facility_id": "10703RCLNC700NE"}}, {"type": "Feature", "geometry": {"type": "Point", "coordinates": [-73.8605, 40.9224]}, "properties": {"facility_name": "STEWART EFI NY LLC", "industry": null, "tri_facility_id": "10704STWRT630CE"}}, {"type": "Feature", "geometry": {"type": "Point", "coordinates": [-73.90611111111112, 40.92361111111111]}, "properties": {"facility_name": "TYCO PLASTICS YONKERS", "industry": null, "tri_facility_id": "10705TYCPL78FER"}}, {"type": "Feature", "geometry": {"type": "Point", "coordinates": [-73.885556, 40.9875]}, "properties": {"facility_name": "UHLICH COLOR CORP", "industry": null, "tri_facility_id": "10706PLHLC1RAIL"}}, {"type": "Feature", "geometry": {"type": "Point", "coordinates": [-73.825, 40.933889]}, "properties": {"facility_name": "KINGS ELECTRONICS CO INC", "industry": null, "tri_facility_id": "10707KNGSL40MAR"}}, {"type": "Feature", "geometry": {"type": "Point", "coordinates": [-73.82166666666666, 40.95611111111111]}, "properties": {"facility_name": "MEDI-RAY INC", "industry": null, "tri_facility_id": "10707MDRYN150MA"}}, {"type": "Feature", "geometry": {"type": "Point", "coordinates": [-73.868333, 40.975]}, "properties": {"facility_name": "ELECTRONIC DEVICES INC.", "industry": null, "tri_facility_id": "10710LCTRN21GRA"}}, {"type": "Feature", "geometry": {"type": "Point", "coordinates": [-73.789167, 40.906111]}, "properties": {"facility_name": "BAKERS PRIDE OVEN CO INC", "industry": null, "tri_facility_id": "10801BKRSP30PIN"}}, {"type": "Feature", "geometry": {"type": "Point", "coordinates": [-73.775, 40.925]}, "properties": {"facility_name": "POR PRODUCTS LLC", "industry": null, "tri_facility_id": "10801BSLTC38POR"}}, {"type": "Feature", "geometry": {"type": "Point", "coordinates": [-73.792222, 40.905278]}, "properties": {"facility_name": "MONARCH BRASS CO", "industry": null, "tri_facility_id": "10801MNRCH75BEE"}}, {"type": "Feature", "geometry": {"type": "Point", "coordinates": [-73.786333, 40.9063]}, "properties": {"facility_name": "RUSH MFG CORP", "industry": null, "tri_facility_id": "10801RSHMN18COL"}}, {"type": "Feature", "geometry": {"type": "Point", "coordinates": [-73.786389, 40.919722]}, "properties": {"facility_name": "RUSH MFG CORP", "industry": null, "tri_facility_id": "10801TLDYN1012P"}}, {"type": "Feature", "geometry": {"type": "Point", "coordinates": [-73.7729, 40.926]}, "properties": {"facility_name": "POWERS FASTENERS INC", "industry": null, "tri_facility_id": "10802DCSTF190PE"}}, {"type": "Feature", "geometry": {"type": "Point", "coordinates": [-73.77321, 40.915646]}, "properties": {"facility_name": "SEVEN-UP BOTTLING CO, NEW YORK", "industry": null, "tri_facility_id": "10802SVNPB1JOYC"}}, {"type": "Feature", "geometry": {"type": "Point", "coordinates": [-73.899833, 40.841667]}, "properties": {"facility_name": "PERRIGO NY", "industry": null, "tri_facility_id": "10457CLYPR1700B"}}, {"type": "Feature", "geometry": {"type": "Point", "coordinates": [-73.884722, 40.833333]}, "properties": {"facility_name": "RUSSALL PRODS CO INC", "industry": null, "tri_facility_id": "10460RSSLL1719W"}}, {"type": "Feature", "geometry": {"type": "Point", "coordinates": [-73.886389, 40.839167]}, "properties": {"facility_name": "ARTHUR FRISCH CO INC", "industry": null, "tri_facility_id": "10460RTHRF1816B"}}, {"type": "Feature", "geometry": {"type": "Point", "coordinates": [-73.843056, 40.849722]}, "properties": {"facility_name": "ABSOLUTE COATINGS INC", "industry": null, "tri_facility_id": "10461BSLTC34IND"}}, {"type": "Feature", "geometry": {"type": "Point", "coordinates": [-73.84083333333332, 40.838055555555556]}, "properties": {"facility_name": "FRED M SCHILDWACHTER & SONS, INC.", "industry": null, "tri_facility_id": "10461FRDMS1400F"}}, {"type": "Feature", "geometry": {"type": "Point", "coordinates": [-73.843032, 40.853563]}, "properties": {"facility_name": "AMSTERDAM COLOR WORKS", "industry": null, "tri_facility_id": "10461MSTRD1546S"}}, {"type": "Feature", "geometry": {"type": "Point", "coordinates": [-73.8405, 40.8465]}, "properties": {"facility_name": "WORLD DYEING & FINISHING CORP", "industry": null, "tri_facility_id": "10461WRLDD2472B"}}, {"type": "Feature", "geometry": {"type": "Point", "coordinates": [-73.87805555555555, 40.83583333333333]}, "properties": {"facility_name": "SRM - JENNA LLC", "industry": null, "tri_facility_id": "10472JNNCN1465B"}}, {"type": "Feature", "geometry": {"type": "Point", "coordinates": [-73.826, 40.8855]}, "properties": {"facility_name": "HEXAGON LABS OF NEW YORK INC", "industry": null, "tri_facility_id": "10475HXGNL3536P"}}]}