{"type": "FeatureCollection", "features": [{"type": "Feature", "properties": {"area_id": 10121, "city": "Enid", "state": "OK", "city_survey": false, "cat": "Race Areas", "grade": null, "label": "Race Areas", "res": true, "com": false, "ind": false, "holc_grade": null}, "geometry": {"type": "MultiPolygon", "coordinates": [[[[-97.87267, 36.38355], [-97.8725, 36.39017], [-97.87384, 36.39017], [-97.87383, 36.39032], [-97.87383, 36.39072], [-97.87649, 36.39051], [-97.87649, 36.39081], [-97.87675, 36.39082], [-97.876736, 36.390861], [-97.8759, 36.39332], [-97.87345, 36.3934], [-97.8734, 36.39263], [-97.87346, 36.39088], [-97.86857, 36.39091], [-97.86853, 36.39374], [-97.86498, 36.39372], [-97.86521, 36.39078], [-97.86434, 36.39072], [-97.86372, 36.39065], [-97.86372, 36.390645], [-97.86374, 36.3836], [-97.86447, 36.38359], [-97.87267, 36.38355]]], [[[-97.900928, 36.405276], [-97.90093, 36.40542], [-97.90068, 36.40543], [-97.90068, 36.40715], [-97.90005, 36.4067], [-97.89903, 36.40639], [-97.899023, 36.405301], [-97.89902, 36.40473], [-97.90092, 36.40465], [-97.900928, 36.405276]]]]}}]}