{"type": "FeatureCollection", "features": [{"type": "Feature", "geometry": {"type": "Point", "coordinates": [-97.875, 36.4]}, "properties": {"facility_name": "ADVANCE MEAT CO PINE STREET FACILITY 2260G", "industry": null, "tri_facility_id": "73701DVNCM204EP"}}, {"type": "Feature", "geometry": {"type": "Point", "coordinates": [-97.881547, 36.403024]}, "properties": {"facility_name": "GOLD SPOT DAIRY", "industry": null, "tri_facility_id": "73701GLDSP320WW"}}, {"type": "Feature", "geometry": {"type": "Point", "coordinates": [-97.884444, 36.372778]}, "properties": {"facility_name": "GEFCO", "industry": null, "tri_facility_id": "73701GRGFL2215S"}}, {"type": "Feature", "geometry": {"type": "Point", "coordinates": [-97.8725, 36.42]}, "properties": {"facility_name": "HACKNEY LADISH INC ENID OK", "industry": null, "tri_facility_id": "73701HCKNY4THWI"}}, {"type": "Feature", "geometry": {"type": "Point", "coordinates": [-97.870556, 36.410556]}, "properties": {"facility_name": "ADM MILLING CO", "industry": null, "tri_facility_id": "73701PLLSB1301N"}}, {"type": "Feature", "geometry": {"type": "Point", "coordinates": [-97.856667, 36.4225]}, "properties": {"facility_name": "PARRISH ENTERPRISES DBA CENTRAL MACHINE & TOOL CO", "industry": null, "tri_facility_id": "73702CNTRL1414E"}}]}