{"type": "FeatureCollection", "features": [{"type": "Feature", "properties": {"area_id": 10267, "city": "Sioux Falls", "state": "SD", "city_survey": false, "cat": "Best Residential Section", "grade": "", "label": "Best Residential Section", "res": true, "com": false, "ind": false, "fill": "#76a865", "GEOID10": "46099001600", "GISJOIN": "G4600990001600", "calc_area": 647192.87632, "pct_tract": 0.34499}, "geometry": {"type": "MultiPolygon", "coordinates": [[[[-96.729267, 43.534865], [-96.728781, 43.534858], [-96.727538, 43.534861], [-96.7263, 43.534859], [-96.726295, 43.534584], [-96.725264, 43.534583], [-96.723802, 43.53458], [-96.722308, 43.534574], [-96.720854, 43.534575], [-96.719417, 43.534577], [-96.717917, 43.534582], [-96.716309, 43.534585], [-96.716303, 43.533977], [-96.716298, 43.533528], [-96.716294, 43.533075], [-96.716289, 43.532551], [-96.716275, 43.532059], [-96.716286, 43.531745], [-96.716291, 43.53162], [-96.716263, 43.531073], [-96.716273, 43.52939], [-96.72214, 43.52942], [-96.72385, 43.52943], [-96.73, 43.52941], [-96.730053, 43.52941], [-96.730052, 43.529663], [-96.730027, 43.530327], [-96.730025, 43.531246], [-96.730038, 43.532137], [-96.730029, 43.53305], [-96.730031, 43.533967], [-96.730035, 43.534855], [-96.729267, 43.534865]]]]}}, {"type": "Feature", "properties": {"area_id": 10267, "city": "Sioux Falls", "state": "SD", "city_survey": false, "cat": "Best Residential Section", "grade": "", "label": "Best Residential Section", "res": true, "com": false, "ind": false, "fill": "#76a865", "GEOID10": "46099001200", "GISJOIN": "G4600990001200", "calc_area": 328863.28734, "pct_tract": 0.07392}, "geometry": {"type": "MultiPolygon", "coordinates": [[[[-96.75137, 43.53294], [-96.75875, 43.53301], [-96.76119, 43.53303], [-96.76101, 43.53672], [-96.75127, 43.53674], [-96.75137, 43.53294]]]]}}, {"type": "Feature", "properties": {"area_id": 10267, "city": "Sioux Falls", "state": "SD", "city_survey": false, "cat": "Best Residential Section", "grade": "", "label": "Best Residential Section", "res": true, "com": false, "ind": false, "fill": "#76a865", "GEOID10": "46099000600", "GISJOIN": "G4600990000600", "calc_area": 249704.84436, "pct_tract": 0.25999}, "geometry": {"type": "MultiPolygon", "coordinates": [[[[-96.72883, 43.53487], [-96.72878, 43.53574], [-96.73055, 43.53573], [-96.7306, 43.53672], [-96.73019, 43.53672], [-96.72614, 43.53672], [-96.7163, 43.53672], [-96.716297, 43.536326], [-96.716307, 43.535636], [-96.716307, 43.53484], [-96.716309, 43.534585], [-96.717917, 43.534582], [-96.719417, 43.534577], [-96.720854, 43.534575], [-96.722308, 43.534574], [-96.723802, 43.53458], [-96.725264, 43.534583], [-96.726295, 43.534584], [-96.7263, 43.534859], [-96.727538, 43.534861], [-96.728781, 43.534858], [-96.729267, 43.534865], [-96.72883, 43.53487]]]]}}, {"type": "Feature", "properties": {"area_id": 10267, "city": "Sioux Falls", "state": "SD", "city_survey": false, "cat": "Best Residential Section", "grade": "", "label": "Best Residential Section", "res": true, "com": false, "ind": false, "fill": "#76a865", "GEOID10": "46099000500", "GISJOIN": "G4600990000500", "calc_area": 581.01304, "pct_tract": 0.00021}, "geometry": {"type": "MultiPolygon", "coordinates": [[[[-96.71627, 43.533077], [-96.716294, 43.533075], [-96.716298, 43.533528], [-96.716303, 43.533977], [-96.716309, 43.534585], [-96.716307, 43.53484], [-96.716307, 43.535636], [-96.716297, 43.536326], [-96.71627, 43.533077]]]]}}, {"type": "Feature", "properties": {"area_id": 10267, "city": "Sioux Falls", "state": "SD", "city_survey": false, "cat": "Best Residential Section", "grade": "", "label": "Best Residential Section", "res": true, "com": false, "ind": false, "fill": "#76a865", "GEOID10": "46099001700", "GISJOIN": "G4600990001700", "calc_area": 701.82678, "pct_tract": 0.0004}, "geometry": {"type": "MultiPolygon", "coordinates": [[[[-96.71624, 43.52939], [-96.716273, 43.52939], [-96.716263, 43.531073], [-96.716291, 43.53162], [-96.716286, 43.531745], [-96.716275, 43.532059], [-96.716289, 43.532551], [-96.716294, 43.533075], [-96.71627, 43.533077], [-96.71624, 43.52939]]]]}}, {"type": "Feature", "properties": {"area_id": 10267, "city": "Sioux Falls", "state": "SD", "city_survey": false, "cat": "Best Residential Section", "grade": "", "label": "Best Residential Section", "res": true, "com": false, "ind": false, "fill": "#76a865", "GEOID10": "46099001500", "GISJOIN": "G4600990001500", "calc_area": 53218.70482, "pct_tract": 0.01411}, "geometry": {"type": "MultiPolygon", "coordinates": [[[[-96.73071, 43.52941], [-96.73068, 43.53031], [-96.73116, 43.5303], [-96.73122, 43.53315], [-96.73125, 43.53484], [-96.730035, 43.534855], [-96.730031, 43.533967], [-96.730029, 43.53305], [-96.730038, 43.532137], [-96.730025, 43.531246], [-96.730027, 43.530327], [-96.730052, 43.529663], [-96.730053, 43.52941], [-96.73071, 43.52941]]]]}}, {"type": "Feature", "properties": {"area_id": 10268, "city": "Sioux Falls", "state": "SD", "city_survey": false, "cat": "Definitely Declining", "grade": "", "label": "Definitely Declining", "res": true, "com": false, "ind": false, "fill": "#ffff00", "GEOID10": "46099000300", "GISJOIN": "G4600990000300", "calc_area": 910847.94388, "pct_tract": 0.22628}, "geometry": {"type": "MultiPolygon", "coordinates": [[[[-96.7185, 43.55527], [-96.71619, 43.55525], [-96.71617, 43.5549], [-96.71561, 43.5549], [-96.71563, 43.55771], [-96.71396, 43.55827], [-96.71131, 43.55832], [-96.71008, 43.55834], [-96.706, 43.55756], [-96.70316, 43.55668], [-96.70154, 43.55577], [-96.7015, 43.55411], [-96.701415, 43.552712], [-96.70141, 43.552231], [-96.701412, 43.551992], [-96.701468, 43.551219], [-96.702656, 43.551214], [-96.703887, 43.551214], [-96.704356, 43.551209], [-96.70519, 43.551215], [-96.706421, 43.551207], [-96.707682, 43.551216], [-96.707867, 43.551216], [-96.70809, 43.55129], [-96.717299, 43.551219], [-96.71846, 43.551229], [-96.7185, 43.55527]], [[-96.71138, 43.55487], [-96.71137, 43.5554], [-96.71205, 43.5554], [-96.71204, 43.55494], [-96.71269, 43.55494], [-96.71263, 43.55453], [-96.71148, 43.55463], [-96.71145, 43.55454], [-96.71082, 43.55448], [-96.71072, 43.55483], [-96.71138, 43.55487]]]]}}, {"type": "Feature", "properties": {"area_id": 10268, "city": "Sioux Falls", "state": "SD", "city_survey": false, "cat": "Definitely Declining", "grade": "", "label": "Definitely Declining", "res": true, "com": false, "ind": false, "fill": "#ffff00", "GEOID10": "46099000500", "GISJOIN": "G4600990000500", "calc_area": 1690.61774, "pct_tract": 0.00061}, "geometry": {"type": "MultiPolygon", "coordinates": [[[[-96.71846, 43.55121], [-96.71846, 43.551229], [-96.717299, 43.551219], [-96.71846, 43.55121]]], [[[-96.70147, 43.55119], [-96.70776, 43.55118], [-96.707867, 43.551216], [-96.707682, 43.551216], [-96.706421, 43.551207], [-96.70519, 43.551215], [-96.704356, 43.551209], [-96.703887, 43.551214], [-96.702656, 43.551214], [-96.701468, 43.551219], [-96.70147, 43.55119]]]]}}, {"type": "Feature", "properties": {"area_id": 10268, "city": "Sioux Falls", "state": "SD", "city_survey": false, "cat": "Definitely Declining", "grade": "", "label": "Definitely Declining", "res": true, "com": false, "ind": false, "fill": "#ffff00", "GEOID10": "46099000401", "GISJOIN": "G4600990000401", "calc_area": 65.61157, "pct_tract": 4e-05}, "geometry": {"type": "MultiPolygon", "coordinates": [[[[-96.70139, 43.55229], [-96.701412, 43.551992], [-96.70141, 43.552231], [-96.701415, 43.552712], [-96.70139, 43.55229]]]]}}, {"type": "Feature", "properties": {"area_id": 10269, "city": "Sioux Falls", "state": "SD", "city_survey": false, "cat": "Hazardous", "grade": "", "label": "Hazardous", "res": true, "com": false, "ind": false, "fill": "#d9838d", "GEOID10": "46099000406", "GISJOIN": "G4600990000406", "calc_area": 134588.44426, "pct_tract": 0.09331}, "geometry": {"type": "MultiPolygon", "coordinates": [[[[-96.69132, 43.54488], [-96.69137, 43.53943], [-96.69389, 43.53934], [-96.69389, 43.54026], [-96.694103, 43.540258], [-96.694106, 43.540314], [-96.694112, 43.542154], [-96.694115, 43.542973], [-96.694118, 43.54394], [-96.694146, 43.54441], [-96.694147, 43.544847], [-96.69132, 43.54488]]]]}}, {"type": "Feature", "properties": {"area_id": 10269, "city": "Sioux Falls", "state": "SD", "city_survey": false, "cat": "Hazardous", "grade": "", "label": "Hazardous", "res": true, "com": false, "ind": false, "fill": "#d9838d", "GEOID10": "46099001200", "GISJOIN": "G4600990001200", "calc_area": 867.56838, "pct_tract": 0.0002}, "geometry": {"type": "MultiPolygon", "coordinates": [[[[-96.76096, 43.54028], [-96.76096, 43.540313], [-96.759644, 43.54031], [-96.758296, 43.540312], [-96.757202, 43.540312], [-96.756294, 43.540299], [-96.76096, 43.54028]]]]}}, {"type": "Feature", "properties": {"area_id": 10269, "city": "Sioux Falls", "state": "SD", "city_survey": false, "cat": "Hazardous", "grade": "", "label": "Hazardous", "res": true, "com": false, "ind": false, "fill": "#d9838d", "GEOID10": "46099000900", "GISJOIN": "G4600990000900", "calc_area": 599840.88921, "pct_tract": 0.32288}, "geometry": {"type": "MultiPolygon", "coordinates": [[[[-96.75112, 43.55122], [-96.75115, 43.54791], [-96.75116, 43.547], [-96.75119, 43.54452], [-96.7517, 43.54451], [-96.75172, 43.54396], [-96.75173, 43.54347], [-96.75121, 43.54349], [-96.75117, 43.54032], [-96.756294, 43.540299], [-96.757202, 43.540312], [-96.758296, 43.540312], [-96.759644, 43.54031], [-96.76096, 43.540313], [-96.76094, 43.54338], [-96.76029, 43.54346], [-96.76029, 43.54388], [-96.75973, 43.54389], [-96.75978, 43.54444], [-96.76074, 43.54444], [-96.760809, 43.54744], [-96.759556, 43.547433], [-96.758992, 43.547436], [-96.75847, 43.54742], [-96.75847, 43.547428], [-96.758378, 43.547426], [-96.757219, 43.547426], [-96.756018, 43.547426], [-96.754835, 43.547375], [-96.753602, 43.547293], [-96.752392, 43.547142], [-96.751223, 43.546965], [-96.751224, 43.547226], [-96.751257, 43.550487], [-96.751257, 43.550506], [-96.751257, 43.550522], [-96.751263, 43.551079], [-96.751263, 43.551216], [-96.751263, 43.55122], [-96.75112, 43.55122]], [[-96.75352, 43.54395], [-96.75305, 43.54395], [-96.75301, 43.54446], [-96.75355, 43.54446], [-96.75352, 43.54395]]]]}}, {"type": "Feature", "properties": {"area_id": 10269, "city": "Sioux Falls", "state": "SD", "city_survey": false, "cat": "Hazardous", "grade": "", "label": "Hazardous", "res": true, "com": false, "ind": false, "fill": "#d9838d", "GEOID10": "46099000202", "GISJOIN": "G4600990000202", "calc_area": 222003.14905, "pct_tract": 0.04738}, "geometry": {"type": "MultiPolygon", "coordinates": [[[[-96.75623, 43.55121], [-96.755936, 43.551211], [-96.755995, 43.551168], [-96.756185, 43.551032], [-96.756234, 43.551011], [-96.75623, 43.55121]]], [[[-96.75854, 43.5493], [-96.75741, 43.54932], [-96.75742, 43.55028], [-96.75625, 43.5503], [-96.756235, 43.550993], [-96.754503, 43.551186], [-96.753533, 43.55114], [-96.752176, 43.551084], [-96.752054, 43.551083], [-96.751263, 43.551079], [-96.751257, 43.550522], [-96.751257, 43.550506], [-96.751257, 43.550487], [-96.751224, 43.547226], [-96.751223, 43.546965], [-96.752392, 43.547142], [-96.753602, 43.547293], [-96.754835, 43.547375], [-96.756018, 43.547426], [-96.757219, 43.547426], [-96.758378, 43.547426], [-96.75847, 43.547428], [-96.75854, 43.5493]]], [[[-96.76081, 43.54749], [-96.758992, 43.547436], [-96.759556, 43.547433], [-96.760809, 43.54744], [-96.76081, 43.54749]]]]}}, {"type": "Feature", "properties": {"area_id": 10269, "city": "Sioux Falls", "state": "SD", "city_survey": false, "cat": "Hazardous", "grade": "", "label": "Hazardous", "res": true, "com": false, "ind": false, "fill": "#d9838d", "GEOID10": "46099000401", "GISJOIN": "G4600990000401", "calc_area": 95836.54393, "pct_tract": 0.05597}, "geometry": {"type": "MultiPolygon", "coordinates": [[[[-96.69638, 43.54024], [-96.69643, 43.54196], [-96.69648, 43.54383], [-96.69651, 43.54482], [-96.694147, 43.544847], [-96.694146, 43.54441], [-96.694118, 43.54394], [-96.694115, 43.542973], [-96.694112, 43.542154], [-96.694106, 43.540314], [-96.694103, 43.540258], [-96.69638, 43.54024]]]]}}, {"type": "Feature", "properties": {"area_id": 10269, "city": "Sioux Falls", "state": "SD", "city_survey": false, "cat": "Hazardous", "grade": "", "label": "Hazardous", "res": true, "com": false, "ind": false, "fill": "#d9838d", "GEOID10": "46099000201", "GISJOIN": "G4600990000201", "calc_area": 4467.34014, "pct_tract": 0.00163}, "geometry": {"type": "MultiPolygon", "coordinates": [[[[-96.751263, 43.55122], [-96.751263, 43.551216], [-96.751263, 43.551079], [-96.752054, 43.551083], [-96.752176, 43.551084], [-96.753533, 43.55114], [-96.754503, 43.551186], [-96.756235, 43.550993], [-96.756234, 43.551011], [-96.756185, 43.551032], [-96.755995, 43.551168], [-96.755936, 43.551211], [-96.751263, 43.55122]]]]}}, {"type": "Feature", "properties": {"area_id": 10270, "city": "Sioux Falls", "state": "SD", "city_survey": false, "cat": "Still good residential section", "grade": "", "label": "Still good residential section", "res": true, "com": false, "ind": false, "fill": "#7cb5bd", "GEOID10": "46099000700", "GISJOIN": "G4600990000700", "calc_area": 748447.37436, "pct_tract": 0.40825}, "geometry": {"type": "MultiPolygon", "coordinates": [[[[-96.73347, 43.54855], [-96.73344, 43.54591], [-96.73566, 43.5459], [-96.73547, 43.54092], [-96.73294, 43.540184], [-96.734144, 43.540485], [-96.734144, 43.540224], [-96.735559, 43.540245], [-96.737066, 43.540236], [-96.738497, 43.540215], [-96.739894, 43.540215], [-96.74126, 43.540229], [-96.74123, 43.54131], [-96.74126, 43.542139], [-96.74125, 43.542432], [-96.741245, 43.543039], [-96.741239, 43.543221], [-96.74112, 43.54317], [-96.74111, 43.54418], [-96.74052, 43.54423], [-96.74054, 43.54459], [-96.74175, 43.54461], [-96.74173, 43.54423], [-96.742629, 43.54423], [-96.742627, 43.544656], [-96.742642, 43.54597], [-96.742649, 43.547248], [-96.742663, 43.548549], [-96.742674, 43.549878], [-96.742675, 43.551182], [-96.741311, 43.551183], [-96.739812, 43.551186], [-96.739181, 43.551195], [-96.738286, 43.551186], [-96.737081, 43.551206], [-96.73575, 43.5512], [-96.734258, 43.551211], [-96.733497, 43.551205], [-96.73347, 43.54855]]]]}}, {"type": "Feature", "properties": {"area_id": 10270, "city": "Sioux Falls", "state": "SD", "city_survey": false, "cat": "Still good residential section", "grade": "", "label": "Still good residential section", "res": true, "com": false, "ind": false, "fill": "#7cb5bd", "GEOID10": "46099000300", "GISJOIN": "G4600990000300", "calc_area": 475565.66241, "pct_tract": 0.11814}, "geometry": {"type": "MultiPolygon", "coordinates": [[[[-96.70144, 43.56208], [-96.71149, 43.5621], [-96.71142, 43.5666], [-96.71011, 43.5666], [-96.710102, 43.567247], [-96.71005, 43.567263], [-96.709969, 43.567288], [-96.709883, 43.567323], [-96.7098, 43.567362], [-96.709643, 43.56745], [-96.70148, 43.56745], [-96.70145, 43.56367], [-96.70144, 43.56208]]], [[[-96.70809, 43.55129], [-96.707867, 43.551216], [-96.708059, 43.551215], [-96.708936, 43.551211], [-96.710186, 43.551208], [-96.71139, 43.551218], [-96.711853, 43.551209], [-96.712637, 43.551213], [-96.712761, 43.551213], [-96.713877, 43.551219], [-96.714235, 43.551218], [-96.715668, 43.551222], [-96.717065, 43.551217], [-96.717299, 43.551219], [-96.70809, 43.55129]]], [[[-96.701412, 43.551992], [-96.701417, 43.551219], [-96.701468, 43.551219], [-96.701412, 43.551992]]], [[[-96.7015, 43.55411], [-96.70154, 43.55577], [-96.701424, 43.555725], [-96.701414, 43.554705], [-96.70143, 43.553982], [-96.701415, 43.552712], [-96.7015, 43.55411]]]]}}, {"type": "Feature", "properties": {"area_id": 10270, "city": "Sioux Falls", "state": "SD", "city_survey": false, "cat": "Still good residential section", "grade": "", "label": "Still good residential section", "res": true, "com": false, "ind": false, "fill": "#7cb5bd", "GEOID10": "46099001600", "GISJOIN": "G4600990001600", "calc_area": 626594.81602, "pct_tract": 0.33401}, "geometry": {"type": "MultiPolygon", "coordinates": [[[[-96.71141, 43.52299], [-96.71131, 43.529347], [-96.711291, 43.529347], [-96.711255, 43.527536], [-96.711253, 43.526646], [-96.711265, 43.52485], [-96.711247, 43.522991], [-96.71141, 43.52299]]], [[[-96.713999, 43.529372], [-96.713776, 43.529372], [-96.712542, 43.529382], [-96.711905, 43.529355], [-96.713999, 43.529372]]], [[[-96.71619, 43.52573], [-96.72091, 43.52575], [-96.720949, 43.522116], [-96.721063, 43.522118], [-96.722396, 43.522115], [-96.723196, 43.52212], [-96.723796, 43.522118], [-96.725237, 43.522116], [-96.725612, 43.522115], [-96.72763, 43.52213], [-96.72763, 43.52396], [-96.72654, 43.52398], [-96.7265, 43.52472], [-96.72754, 43.52472], [-96.72752, 43.52492], [-96.72879, 43.52486], [-96.72875, 43.52389], [-96.72998, 43.52392], [-96.73, 43.52486], [-96.730049, 43.52486], [-96.730022, 43.525746], [-96.730039, 43.527596], [-96.730021, 43.528525], [-96.730044, 43.529169], [-96.73, 43.52941], [-96.72385, 43.52943], [-96.72379, 43.52436], [-96.72222, 43.52436], [-96.72214, 43.52942], [-96.716273, 43.52939], [-96.716273, 43.529372], [-96.71624, 43.529372], [-96.71619, 43.52573]]]]}}, {"type": "Feature", "properties": {"area_id": 10270, "city": "Sioux Falls", "state": "SD", "city_survey": false, "cat": "Still good residential section", "grade": "", "label": "Still good residential section", "res": true, "com": false, "ind": false, "fill": "#7cb5bd", "GEOID10": "46099001200", "GISJOIN": "G4600990001200", "calc_area": 84641.33393, "pct_tract": 0.01903}, "geometry": {"type": "MultiPolygon", "coordinates": [[[[-96.75882, 43.5293], [-96.7613, 43.52939], [-96.76119, 43.53303], [-96.75875, 43.53301], [-96.75882, 43.5293]]], [[[-96.75116, 43.52195], [-96.751176, 43.523918], [-96.751133, 43.522121], [-96.751133, 43.52195], [-96.75116, 43.52195]]], [[[-96.75137, 43.53294], [-96.75127, 43.53674], [-96.75123, 43.53816], [-96.751224, 43.536683], [-96.751236, 43.535802], [-96.751237, 43.534886], [-96.751242, 43.533987], [-96.75124, 43.533061], [-96.75124, 43.532943], [-96.75137, 43.53294]]]]}}, {"type": "Feature", "properties": {"area_id": 10270, "city": "Sioux Falls", "state": "SD", "city_survey": false, "cat": "Still good residential section", "grade": "", "label": "Still good residential section", "res": true, "com": false, "ind": false, "fill": "#7cb5bd", "GEOID10": "46099000900", "GISJOIN": "G4600990000900", "calc_area": 795564.58742, "pct_tract": 0.42823}, "geometry": {"type": "MultiPolygon", "coordinates": [[[[-96.75117, 43.54032], [-96.75121, 43.54349], [-96.75119, 43.54452], [-96.75116, 43.547], [-96.75115, 43.54791], [-96.74688, 43.54786], [-96.74691, 43.54889], [-96.74922, 43.54889], [-96.74931, 43.55124], [-96.74727, 43.55123], [-96.74732, 43.55082], [-96.74613, 43.55073], [-96.746105, 43.551149], [-96.74542, 43.551162], [-96.744065, 43.551177], [-96.742675, 43.551182], [-96.742674, 43.549878], [-96.742663, 43.548549], [-96.742649, 43.547248], [-96.742642, 43.54597], [-96.742627, 43.544656], [-96.742629, 43.54423], [-96.74265, 43.54423], [-96.7428, 43.54389], [-96.74221, 43.54364], [-96.741239, 43.543221], [-96.741245, 43.543039], [-96.74125, 43.542432], [-96.74126, 43.542139], [-96.74123, 43.54131], [-96.74126, 43.540229], [-96.742496, 43.540226], [-96.74373, 43.540223], [-96.744972, 43.540217], [-96.74624, 43.540223], [-96.747498, 43.540218], [-96.748718, 43.540211], [-96.749972, 43.540228], [-96.750579, 43.540222], [-96.750705, 43.540224], [-96.750875, 43.540256], [-96.75117, 43.540306], [-96.75117, 43.54032]], [[-96.74338, 43.54418], [-96.74401, 43.54449], [-96.74407, 43.54393], [-96.7428, 43.54389], [-96.74338, 43.54418]]]]}}, {"type": "Feature", "properties": {"area_id": 10270, "city": "Sioux Falls", "state": "SD", "city_survey": false, "cat": "Still good residential section", "grade": "", "label": "Still good residential section", "res": true, "com": false, "ind": false, "fill": "#7cb5bd", "GEOID10": "46099000100", "GISJOIN": "G4600990000100", "calc_area": 750125.80764, "pct_tract": 0.03277}, "geometry": {"type": "MultiPolygon", "coordinates": [[[[-96.74168, 43.56669], [-96.74022, 43.56668], [-96.74024, 43.56581], [-96.73778, 43.5658], [-96.73784, 43.56854], [-96.73536, 43.56851], [-96.73534, 43.56933], [-96.73132, 43.56933], [-96.73124, 43.56578], [-96.72921, 43.56578], [-96.72927, 43.56414], [-96.72921, 43.55903], [-96.72919, 43.55847], [-96.7291, 43.554], [-96.72919, 43.55366], [-96.731347, 43.553691], [-96.731347, 43.553815], [-96.731361, 43.555121], [-96.731373, 43.556418], [-96.73139, 43.557743], [-96.731359, 43.559036], [-96.731367, 43.560298], [-96.731344, 43.561549], [-96.731338, 43.562847], [-96.731343, 43.563857], [-96.731345, 43.564166], [-96.731881, 43.564256], [-96.732352, 43.56423], [-96.734382, 43.564205], [-96.736623, 43.563756], [-96.737035, 43.563647], [-96.737159, 43.563644], [-96.737149, 43.563588], [-96.737663, 43.563578], [-96.738725, 43.563556], [-96.740417, 43.563554], [-96.741628, 43.563547], [-96.74168, 43.56669]]], [[[-96.76016, 43.56471], [-96.76028, 43.56571], [-96.75152, 43.56577], [-96.751383, 43.563752], [-96.754013, 43.563924], [-96.755975, 43.564076], [-96.756621, 43.564113], [-96.761018, 43.564362], [-96.76016, 43.56471]]], [[[-96.7101, 43.56745], [-96.709643, 43.56745], [-96.7098, 43.567362], [-96.709883, 43.567323], [-96.709969, 43.567288], [-96.71005, 43.567263], [-96.710102, 43.567247], [-96.7101, 43.56745]]]]}}, {"type": "Feature", "properties": {"area_id": 10270, "city": "Sioux Falls", "state": "SD", "city_survey": false, "cat": "Still good residential section", "grade": "", "label": "Still good residential section", "res": true, "com": false, "ind": false, "fill": "#7cb5bd", "GEOID10": "46099000202", "GISJOIN": "G4600990000202", "calc_area": 666022.00738, "pct_tract": 0.14216}, "geometry": {"type": "MultiPolygon", "coordinates": [[[[-96.76471, 43.55482], [-96.76478, 43.5583], [-96.76616, 43.55829], [-96.76617, 43.56003], [-96.76517, 43.56113], [-96.76259, 43.56116], [-96.76256, 43.56205], [-96.76139, 43.56208], [-96.76149, 43.56417], [-96.761018, 43.564362], [-96.756621, 43.564113], [-96.756233, 43.563799], [-96.756234, 43.562056], [-96.756239, 43.561162], [-96.75625, 43.560267], [-96.756247, 43.559364], [-96.75626, 43.558434], [-96.756243, 43.557511], [-96.756244, 43.556603], [-96.756254, 43.55484], [-96.76471, 43.55482]]]]}}, {"type": "Feature", "properties": {"area_id": 10270, "city": "Sioux Falls", "state": "SD", "city_survey": false, "cat": "Still good residential section", "grade": "", "label": "Still good residential section", "res": true, "com": false, "ind": false, "fill": "#7cb5bd", "GEOID10": "46099000600", "GISJOIN": "G4600990000600", "calc_area": 339927.7806, "pct_tract": 0.35393}, "geometry": {"type": "MultiPolygon", "coordinates": [[[[-96.716292, 43.536717], [-96.716292, 43.536648], [-96.716297, 43.536326], [-96.7163, 43.53672], [-96.716292, 43.536717]]], [[[-96.73121, 43.53968], [-96.72923, 43.53918], [-96.72717, 43.53887], [-96.72512, 43.53873], [-96.72322, 43.53909], [-96.72099, 43.54015], [-96.720808, 43.540365], [-96.720503, 43.540467], [-96.71911, 43.54045], [-96.7188, 43.53923], [-96.71826, 43.53821], [-96.71742, 43.53741], [-96.7163, 43.53672], [-96.72614, 43.53672], [-96.72683, 43.53755], [-96.72973, 43.53759], [-96.73019, 43.53672], [-96.7306, 43.53672], [-96.73128, 43.53676], [-96.73255, 43.53673], [-96.732548, 43.536691], [-96.732566, 43.536695], [-96.73271, 43.536695], [-96.732721, 43.537703], [-96.732707, 43.538958], [-96.73271, 43.540117], [-96.73121, 43.53968]]], [[[-96.73253, 43.53635], [-96.73124, 43.53638], [-96.7313, 43.53579], [-96.732536, 43.53578], [-96.732536, 43.535785], [-96.732538, 43.53651], [-96.73253, 43.53635]]]]}}, {"type": "Feature", "properties": {"area_id": 10270, "city": "Sioux Falls", "state": "SD", "city_survey": false, "cat": "Still good residential section", "grade": "", "label": "Still good residential section", "res": true, "com": false, "ind": false, "fill": "#7cb5bd", "GEOID10": "46099000500", "GISJOIN": "G4600990000500", "calc_area": 1266655.75343, "pct_tract": 0.45605}, "geometry": {"type": "MultiPolygon", "coordinates": [[[[-96.71373, 43.53585], [-96.70929, 43.53424], [-96.708782, 43.533985], [-96.708779, 43.533882], [-96.710063, 43.533889], [-96.711295, 43.533891], [-96.712428, 43.534076], [-96.713728, 43.533976], [-96.713628, 43.533076], [-96.714828, 43.533176], [-96.71627, 43.533077], [-96.716297, 43.536326], [-96.716292, 43.536648], [-96.716292, 43.536717], [-96.71373, 43.53585]]], [[[-96.72072, 43.54047], [-96.720503, 43.540467], [-96.720808, 43.540365], [-96.72072, 43.54047]]], [[[-96.70443, 43.54027], [-96.70818, 43.54223], [-96.71206, 43.54395], [-96.71666, 43.54563], [-96.71764, 43.54674], [-96.71822, 43.54828], [-96.71846, 43.55121], [-96.717299, 43.551219], [-96.717065, 43.551217], [-96.715668, 43.551222], [-96.714235, 43.551218], [-96.713877, 43.551219], [-96.712761, 43.551213], [-96.712637, 43.551213], [-96.711853, 43.551209], [-96.71139, 43.551218], [-96.710186, 43.551208], [-96.708936, 43.551211], [-96.708059, 43.551215], [-96.707867, 43.551216], [-96.70776, 43.55118], [-96.70147, 43.55119], [-96.701468, 43.551219], [-96.701417, 43.551219], [-96.701415, 43.550306], [-96.70143, 43.54938], [-96.701423, 43.548483], [-96.700163, 43.548471], [-96.698942, 43.548477], [-96.698942, 43.54845], [-96.70512, 43.54847], [-96.70525, 43.54677], [-96.699268, 43.546667], [-96.700147, 43.546662], [-96.701412, 43.546666], [-96.701376, 43.545748], [-96.701377, 43.544851], [-96.701361, 43.543942], [-96.702666, 43.543949], [-96.702666, 43.542145], [-96.702636, 43.541236], [-96.702641, 43.540302], [-96.702624, 43.539176], [-96.70443, 43.54027]], [[-96.7142, 43.54809], [-96.71349, 43.54811], [-96.7135, 43.54919], [-96.71422, 43.5492], [-96.7142, 43.54809]]]]}}, {"type": "Feature", "properties": {"area_id": 10270, "city": "Sioux Falls", "state": "SD", "city_survey": false, "cat": "Still good residential section", "grade": "", "label": "Still good residential section", "res": true, "com": false, "ind": false, "fill": "#7cb5bd", "GEOID10": "46099000401", "GISJOIN": "G4600990000401", "calc_area": 445906.92293, "pct_tract": 0.2604}, "geometry": {"type": "MultiPolygon", "coordinates": [[[[-96.69648, 43.54383], [-96.69796, 43.54383], [-96.70254, 43.54384], [-96.70235, 43.53901], [-96.702624, 43.539176], [-96.702641, 43.540302], [-96.702636, 43.541236], [-96.702666, 43.542145], [-96.702666, 43.543949], [-96.701361, 43.543942], [-96.701377, 43.544851], [-96.701376, 43.545748], [-96.701412, 43.546666], [-96.700147, 43.546662], [-96.699268, 43.546667], [-96.69654, 43.54662], [-96.69651, 43.54482], [-96.69648, 43.54383]]], [[[-96.70139, 43.55229], [-96.701415, 43.552712], [-96.70143, 43.553982], [-96.701414, 43.554705], [-96.701424, 43.555725], [-96.70013, 43.55523], [-96.69752, 43.55302], [-96.69661, 43.55225], [-96.693991, 43.550558], [-96.694094, 43.550236], [-96.694228, 43.549545], [-96.694259, 43.549437], [-96.69438, 43.548939], [-96.694461, 43.548436], [-96.698942, 43.54845], [-96.698942, 43.548477], [-96.700163, 43.548471], [-96.701423, 43.548483], [-96.70143, 43.54938], [-96.701415, 43.550306], [-96.701417, 43.551219], [-96.701412, 43.551992], [-96.70139, 43.55229]]]]}}, {"type": "Feature", "properties": {"area_id": 10270, "city": "Sioux Falls", "state": "SD", "city_survey": false, "cat": "Still good residential section", "grade": "", "label": "Still good residential section", "res": true, "com": false, "ind": false, "fill": "#7cb5bd", "GEOID10": "46099010600", "GISJOIN": "G4600990010600", "calc_area": 1471701.39353, "pct_tract": 0.56224}, "geometry": {"type": "MultiPolygon", "coordinates": [[[[-96.73632, 43.52422], [-96.73632, 43.527257], [-96.736254, 43.527256], [-96.736249, 43.52597], [-96.736235, 43.52422], [-96.73632, 43.52422]]], [[[-96.74004, 43.52604], [-96.74111, 43.526015], [-96.740055, 43.526355], [-96.74004, 43.52604]]], [[[-96.74131, 43.52601], [-96.74128, 43.52206], [-96.751133, 43.52195], [-96.751133, 43.522121], [-96.751176, 43.523918], [-96.75122, 43.52944], [-96.7463, 43.52946], [-96.74623, 43.53306], [-96.75124, 43.532943], [-96.75124, 43.533061], [-96.751242, 43.533987], [-96.751237, 43.534886], [-96.751236, 43.535802], [-96.751224, 43.536683], [-96.75123, 43.53816], [-96.75117, 43.540306], [-96.750875, 43.540256], [-96.750705, 43.540224], [-96.750579, 43.540222], [-96.749972, 43.540228], [-96.748718, 43.540211], [-96.747498, 43.540218], [-96.74624, 43.540223], [-96.744972, 43.540217], [-96.74373, 43.540223], [-96.742496, 43.540226], [-96.74126, 43.540229], [-96.74126, 43.538966], [-96.741268, 43.537691], [-96.741261, 43.536667], [-96.741223, 43.535757], [-96.741273, 43.53507], [-96.741289, 43.534856], [-96.74128, 43.533936], [-96.74129, 43.533012], [-96.741259, 43.532139], [-96.741241, 43.531244], [-96.741266, 43.530331], [-96.741288, 43.529439], [-96.741253, 43.528531], [-96.741248, 43.527265], [-96.741243, 43.526012], [-96.74131, 43.52601]]]]}}, {"type": "Feature", "properties": {"area_id": 10270, "city": "Sioux Falls", "state": "SD", "city_survey": false, "cat": "Still good residential section", "grade": "", "label": "Still good residential section", "res": true, "com": false, "ind": false, "fill": "#7cb5bd", "GEOID10": "46099000405", "GISJOIN": "G4600990000405", "calc_area": 57334.34109, "pct_tract": 0.01547}, "geometry": {"type": "MultiPolygon", "coordinates": [[[[-96.69387, 43.55048], [-96.68973, 43.54906], [-96.68963, 43.54842], [-96.694461, 43.548436], [-96.69438, 43.548939], [-96.694259, 43.549437], [-96.694228, 43.549545], [-96.694094, 43.550236], [-96.693991, 43.550558], [-96.69387, 43.55048]]]]}}, {"type": "Feature", "properties": {"area_id": 10270, "city": "Sioux Falls", "state": "SD", "city_survey": false, "cat": "Still good residential section", "grade": "", "label": "Still good residential section", "res": true, "com": false, "ind": false, "fill": "#7cb5bd", "GEOID10": "46099001700", "GISJOIN": "G4600990001700", "calc_area": 670446.09794, "pct_tract": 0.38356}, "geometry": {"type": "MultiPolygon", "coordinates": [[[[-96.7075, 43.53334], [-96.70623, 43.53244], [-96.7061, 43.52303], [-96.711247, 43.522991], [-96.711265, 43.52485], [-96.711253, 43.526646], [-96.711255, 43.527536], [-96.711291, 43.529347], [-96.71131, 43.529347], [-96.71131, 43.52935], [-96.711905, 43.529355], [-96.712542, 43.529382], [-96.713776, 43.529372], [-96.713999, 43.529372], [-96.71624, 43.52939], [-96.71627, 43.533077], [-96.714828, 43.533176], [-96.713628, 43.533076], [-96.713728, 43.533976], [-96.712428, 43.534076], [-96.711295, 43.533891], [-96.710063, 43.533889], [-96.708779, 43.533882], [-96.708782, 43.533985], [-96.7075, 43.53334]]], [[[-96.71624, 43.529372], [-96.716273, 43.529372], [-96.716273, 43.52939], [-96.71624, 43.52939], [-96.71624, 43.529372]]]]}}, {"type": "Feature", "properties": {"area_id": 10270, "city": "Sioux Falls", "state": "SD", "city_survey": false, "cat": "Still good residential section", "grade": "", "label": "Still good residential section", "res": true, "com": false, "ind": false, "fill": "#7cb5bd", "GEOID10": "46099001500", "GISJOIN": "G4600990001500", "calc_area": 1282990.48539, "pct_tract": 0.34014}, "geometry": {"type": "MultiPolygon", "coordinates": [[[[-96.73124, 43.52487], [-96.73133, 43.52195], [-96.73365, 43.52204], [-96.73371, 43.52422], [-96.736235, 43.52422], [-96.736249, 43.52597], [-96.736254, 43.527256], [-96.73632, 43.527257], [-96.73632, 43.52736], [-96.7401, 43.52727], [-96.740055, 43.526355], [-96.74111, 43.526015], [-96.741243, 43.526012], [-96.741248, 43.527265], [-96.741253, 43.528531], [-96.741288, 43.529439], [-96.741266, 43.530331], [-96.741241, 43.531244], [-96.741259, 43.532139], [-96.74129, 43.533012], [-96.74128, 43.533936], [-96.741289, 43.534856], [-96.741273, 43.53507], [-96.741223, 43.535757], [-96.741261, 43.536667], [-96.741268, 43.537691], [-96.74126, 43.538966], [-96.74126, 43.540229], [-96.739894, 43.540215], [-96.738497, 43.540215], [-96.737066, 43.540236], [-96.735559, 43.540245], [-96.734144, 43.540224], [-96.734144, 43.540485], [-96.73294, 43.540184], [-96.73271, 43.540117], [-96.732707, 43.538958], [-96.732721, 43.537703], [-96.73271, 43.536695], [-96.732566, 43.536695], [-96.732548, 43.536691], [-96.732538, 43.53651], [-96.732536, 43.535785], [-96.732536, 43.53578], [-96.73503, 43.53576], [-96.73501, 43.53489], [-96.73125, 43.53484], [-96.73122, 43.53315], [-96.73116, 43.5303], [-96.73121, 43.52906], [-96.73007, 43.52903], [-96.730044, 43.529169], [-96.730021, 43.528525], [-96.730039, 43.527596], [-96.730022, 43.525746], [-96.730049, 43.52486], [-96.73124, 43.52487]], [[-96.73997, 43.53126], [-96.73759, 43.53128], [-96.73756, 43.53303], [-96.74, 43.53306], [-96.73997, 43.53126]]]]}}, {"type": "Feature", "properties": {"area_id": 10270, "city": "Sioux Falls", "state": "SD", "city_survey": false, "cat": "Still good residential section", "grade": "", "label": "Still good residential section", "res": true, "com": false, "ind": false, "fill": "#7cb5bd", "GEOID10": "46099000201", "GISJOIN": "G4600990000201", "calc_area": 1395992.54846, "pct_tract": 0.50943}, "geometry": {"type": "MultiPolygon", "coordinates": [[[[-96.7461, 43.55123], [-96.74537, 43.55122], [-96.74536, 43.55247], [-96.74405, 43.55367], [-96.74094, 43.55371], [-96.74088, 43.55494], [-96.74138, 43.55494], [-96.74141, 43.55639], [-96.73998, 43.55647], [-96.74005, 43.56029], [-96.7416, 43.56028], [-96.74162, 43.56304], [-96.741628, 43.563547], [-96.740417, 43.563554], [-96.738725, 43.563556], [-96.737663, 43.563578], [-96.737149, 43.563588], [-96.737159, 43.563644], [-96.737035, 43.563647], [-96.736623, 43.563756], [-96.734382, 43.564205], [-96.732352, 43.56423], [-96.731881, 43.564256], [-96.731345, 43.564166], [-96.731343, 43.563857], [-96.731338, 43.562847], [-96.731344, 43.561549], [-96.731367, 43.560298], [-96.731359, 43.559036], [-96.73139, 43.557743], [-96.731373, 43.556418], [-96.731361, 43.555121], [-96.731347, 43.553815], [-96.731347, 43.553691], [-96.73194, 43.5537], [-96.73209, 43.55249], [-96.73351, 43.55247], [-96.733497, 43.551205], [-96.734258, 43.551211], [-96.73575, 43.5512], [-96.737081, 43.551206], [-96.738286, 43.551186], [-96.739181, 43.551195], [-96.739812, 43.551186], [-96.741311, 43.551183], [-96.742675, 43.551182], [-96.744065, 43.551177], [-96.74542, 43.551162], [-96.746105, 43.551149], [-96.7461, 43.55123]]], [[[-96.75611, 43.55484], [-96.756254, 43.55484], [-96.756244, 43.556603], [-96.756243, 43.557511], [-96.75626, 43.558434], [-96.756247, 43.559364], [-96.75625, 43.560267], [-96.756239, 43.561162], [-96.756234, 43.562056], [-96.756233, 43.563799], [-96.756621, 43.564113], [-96.755975, 43.564076], [-96.754013, 43.563924], [-96.751383, 43.563752], [-96.75133, 43.56297], [-96.75121, 43.55841], [-96.75607, 43.55838], [-96.75611, 43.55484]]]]}}, {"type": "Feature", "properties": {"area_id": 10270, "city": "Sioux Falls", "state": "SD", "city_survey": false, "cat": "Still good residential section", "grade": "", "label": "Still good residential section", "res": true, "com": false, "ind": false, "fill": "#7cb5bd", "GEOID10": "46099001901", "GISJOIN": "G4600990001901", "calc_area": 1337.83483, "pct_tract": 0.00104}, "geometry": {"type": "MultiPolygon", "coordinates": [[[[-96.72095, 43.52204], [-96.72372, 43.5221], [-96.725612, 43.522115], [-96.725237, 43.522116], [-96.723796, 43.522118], [-96.723196, 43.52212], [-96.722396, 43.522115], [-96.721063, 43.522118], [-96.720949, 43.522116], [-96.72095, 43.52204]]]]}}, {"type": "Feature", "properties": {"area_id": 10271, "city": "Sioux Falls", "state": "SD", "city_survey": false, "cat": "Business - Industrial & Multiple dwelling", "grade": "", "label": "Business - Industrial & Multiple dwelling", "res": true, "com": true, "ind": false, "fill": "#97A998", "GEOID10": "46099000700", "GISJOIN": "G4600990000700", "calc_area": 1084858.30726, "pct_tract": 0.59175}, "geometry": {"type": "MultiPolygon", "coordinates": [[[[-96.74173, 43.54423], [-96.74175, 43.54461], [-96.74054, 43.54459], [-96.74052, 43.54423], [-96.74111, 43.54418], [-96.74112, 43.54317], [-96.741239, 43.543221], [-96.741234, 43.543354], [-96.742566, 43.543955], [-96.742629, 43.544211], [-96.742629, 43.54423], [-96.74173, 43.54423]]], [[[-96.73547, 43.54092], [-96.73566, 43.5459], [-96.73344, 43.54591], [-96.73347, 43.54855], [-96.733497, 43.551205], [-96.732806, 43.551199], [-96.731711, 43.551212], [-96.731354, 43.551205], [-96.729814, 43.551221], [-96.728325, 43.551214], [-96.726831, 43.551213], [-96.725809, 43.551216], [-96.724832, 43.551218], [-96.724277, 43.551219], [-96.724053, 43.55122], [-96.724107, 43.551128], [-96.72467, 43.549751], [-96.724696, 43.549678], [-96.724736, 43.549569], [-96.724761, 43.549569], [-96.724985, 43.549221], [-96.72532, 43.549], [-96.725457, 43.548626], [-96.72557, 43.548318], [-96.725252, 43.547742], [-96.724897, 43.547498], [-96.724279, 43.547073], [-96.723643, 43.546712], [-96.722935, 43.546188], [-96.722355, 43.545758], [-96.722067, 43.545559], [-96.721439, 43.545253], [-96.721339, 43.545225], [-96.720653, 43.545032], [-96.720299, 43.545034], [-96.71974, 43.544831], [-96.719508, 43.544727], [-96.719498, 43.544364], [-96.719473, 43.543439], [-96.719481, 43.543141], [-96.719524, 43.542441], [-96.719719, 43.54187], [-96.719956, 43.541438], [-96.720886, 43.541444], [-96.722307, 43.541442], [-96.723793, 43.541431], [-96.725276, 43.541448], [-96.726804, 43.541448], [-96.728238, 43.541443], [-96.729763, 43.541428], [-96.731262, 43.541441], [-96.732714, 43.541444], [-96.73271, 43.540126], [-96.73294, 43.540184], [-96.73547, 43.54092]]]]}}, {"type": "Feature", "properties": {"area_id": 10271, "city": "Sioux Falls", "state": "SD", "city_survey": false, "cat": "Business - Industrial & Multiple dwelling", "grade": "", "label": "Business - Industrial & Multiple dwelling", "res": true, "com": true, "ind": false, "fill": "#97A998", "GEOID10": "46099000300", "GISJOIN": "G4600990000300", "calc_area": 1615373.01431, "pct_tract": 0.4013}, "geometry": {"type": "MultiPolygon", "coordinates": [[[[-96.71082, 43.55448], [-96.71145, 43.55454], [-96.71148, 43.55463], [-96.71263, 43.55453], [-96.71269, 43.55494], [-96.71204, 43.55494], [-96.71205, 43.5554], [-96.71137, 43.5554], [-96.71138, 43.55487], [-96.71072, 43.55483], [-96.71082, 43.55448]]], [[[-96.70152, 43.55837], [-96.70148, 43.56018], [-96.69599, 43.56204], [-96.69599, 43.561893], [-96.696432, 43.561745], [-96.696433, 43.561556], [-96.696428, 43.561114], [-96.696658, 43.561112], [-96.696853, 43.561073], [-96.700112, 43.559983], [-96.700295, 43.559937], [-96.700671, 43.559886], [-96.700888, 43.559869], [-96.70085, 43.559749], [-96.700839, 43.559632], [-96.700845, 43.559266], [-96.700842, 43.558462], [-96.700842, 43.558366], [-96.70152, 43.55837]]], [[[-96.70147, 43.56786], [-96.69987, 43.56786], [-96.69996, 43.56581], [-96.69755, 43.56571], [-96.69751, 43.5637], [-96.70145, 43.56367], [-96.70148, 43.56745], [-96.709643, 43.56745], [-96.709605, 43.567471], [-96.70957, 43.567497], [-96.709226, 43.567803], [-96.709032, 43.568009], [-96.708783, 43.568211], [-96.708506, 43.568437], [-96.707795, 43.569166], [-96.707634, 43.569314], [-96.707398, 43.569535], [-96.706851, 43.569995], [-96.706083, 43.570742], [-96.705038, 43.571649], [-96.70477, 43.571859], [-96.704594, 43.571984], [-96.704419, 43.572158], [-96.704339, 43.572167], [-96.704198, 43.572201], [-96.704053, 43.572223], [-96.703913, 43.572259], [-96.703864, 43.572265], [-96.703673, 43.5723], [-96.70348, 43.572329], [-96.703286, 43.572349], [-96.703094, 43.572377], [-96.702947, 43.57239], [-96.702454, 43.572401], [-96.701513, 43.572375], [-96.701331, 43.572379], [-96.70147, 43.56786]]], [[[-96.71011, 43.5666], [-96.71142, 43.5666], [-96.71149, 43.5621], [-96.71131, 43.55832], [-96.71396, 43.55827], [-96.71563, 43.55771], [-96.71561, 43.5549], [-96.71617, 43.5549], [-96.71619, 43.55525], [-96.7185, 43.55527], [-96.71846, 43.551229], [-96.718501, 43.551229], [-96.719923, 43.55123], [-96.721562, 43.551226], [-96.721634, 43.551226], [-96.722236, 43.551224], [-96.722342, 43.551224], [-96.722401, 43.551224], [-96.723546, 43.55122], [-96.723865, 43.55122], [-96.724053, 43.55122], [-96.724024, 43.551269], [-96.723453, 43.552664], [-96.723411, 43.553093], [-96.723327, 43.553947], [-96.723364, 43.554178], [-96.723471, 43.554608], [-96.723526, 43.554664], [-96.723757, 43.555073], [-96.723866, 43.555267], [-96.723828, 43.555388], [-96.723677, 43.55547], [-96.723474, 43.555871], [-96.723248, 43.555942], [-96.722984, 43.556079], [-96.72266, 43.556502], [-96.72272, 43.55671], [-96.722358, 43.556776], [-96.72223, 43.55693], [-96.722056, 43.557133], [-96.721951, 43.55716], [-96.721889, 43.557205], [-96.721708, 43.557251], [-96.721622, 43.557284], [-96.721508, 43.557352], [-96.721443, 43.557405], [-96.721335, 43.557566], [-96.721271, 43.557735], [-96.721274, 43.557983], [-96.72127, 43.558054], [-96.72123, 43.558157], [-96.721241, 43.558226], [-96.721282, 43.558292], [-96.72133, 43.558429], [-96.721315, 43.5585], [-96.721348, 43.558521], [-96.721423, 43.558658], [-96.721415, 43.558802], [-96.721382, 43.558868], [-96.721357, 43.558899], [-96.721323, 43.558965], [-96.72126, 43.559061], [-96.721184, 43.559154], [-96.721169, 43.559187], [-96.721142, 43.559482], [-96.721128, 43.559542], [-96.721109, 43.559685], [-96.720993, 43.560033], [-96.720989, 43.560068], [-96.721002, 43.560426], [-96.721009, 43.560461], [-96.721082, 43.560555], [-96.721211, 43.560788], [-96.72124, 43.560856], [-96.721371, 43.561088], [-96.721483, 43.5614], [-96.721524, 43.561466], [-96.721613, 43.561552], [-96.72169, 43.561597], [-96.721872, 43.561654], [-96.722948, 43.562099], [-96.72356, 43.56243], [-96.723661, 43.562485], [-96.723697, 43.56251], [-96.72375, 43.56257], [-96.723837, 43.562738], [-96.723862, 43.562844], [-96.723859, 43.562987], [-96.723824, 43.563308], [-96.723812, 43.563379], [-96.723674, 43.563943], [-96.723439, 43.564563], [-96.723365, 43.564656], [-96.723335, 43.564685], [-96.722715, 43.565196], [-96.722568, 43.56534], [-96.72237, 43.565587], [-96.722105, 43.565847], [-96.722, 43.565923], [-96.721925, 43.56597], [-96.721649, 43.566123], [-96.720824, 43.566453], [-96.720355, 43.566772], [-96.720278, 43.566817], [-96.720079, 43.566923], [-96.720041, 43.566947], [-96.719911, 43.567055], [-96.719661, 43.567229], [-96.719513, 43.567357], [-96.71937, 43.567363], [-96.718968, 43.56734], [-96.718918, 43.567343], [-96.71887, 43.567351], [-96.71878, 43.567382], [-96.718731, 43.567375], [-96.71859, 43.56734], [-96.718295, 43.567351], [-96.718246, 43.567346], [-96.718053, 43.567314], [-96.717868, 43.567262], [-96.717327, 43.567212], [-96.715383, 43.566919], [-96.715089, 43.56688], [-96.714511, 43.566779], [-96.71407, 43.56673], [-96.713674, 43.566718], [-96.713575, 43.566719], [-96.712836, 43.566774], [-96.71269, 43.566791], [-96.712499, 43.566831], [-96.712035, 43.566953], [-96.711938, 43.566967], [-96.711435, 43.567007], [-96.711151, 43.567029], [-96.710566, 43.567113], [-96.710519, 43.567123], [-96.710102, 43.567247], [-96.71011, 43.5666]]]]}}, {"type": "Feature", "properties": {"area_id": 10271, "city": "Sioux Falls", "state": "SD", "city_survey": false, "cat": "Business - Industrial & Multiple dwelling", "grade": "", "label": "Business - Industrial & Multiple dwelling", "res": true, "com": true, "ind": false, "fill": "#97A998", "GEOID10": "46099001600", "GISJOIN": "G4600990001600", "calc_area": 130892.9496, "pct_tract": 0.06977}, "geometry": {"type": "MultiPolygon", "coordinates": [[[[-96.73, 43.52486], [-96.72998, 43.52392], [-96.72875, 43.52389], [-96.72879, 43.52486], [-96.72752, 43.52492], [-96.72754, 43.52472], [-96.7265, 43.52472], [-96.72654, 43.52398], [-96.72763, 43.52396], [-96.72763, 43.52213], [-96.727712, 43.522126], [-96.728751, 43.522126], [-96.730004, 43.522132], [-96.730022, 43.523919], [-96.73005, 43.524833], [-96.730049, 43.52486], [-96.73, 43.52486]]], [[[-96.72214, 43.52942], [-96.72222, 43.52436], [-96.72379, 43.52436], [-96.72385, 43.52943], [-96.72214, 43.52942]]], [[[-96.73, 43.52941], [-96.730044, 43.529169], [-96.730053, 43.529405], [-96.730053, 43.52941], [-96.73, 43.52941]]], [[[-96.730035, 43.534855], [-96.730035, 43.534875], [-96.729267, 43.534865], [-96.730035, 43.534855]]]]}}, {"type": "Feature", "properties": {"area_id": 10271, "city": "Sioux Falls", "state": "SD", "city_survey": false, "cat": "Business - Industrial & Multiple dwelling", "grade": "", "label": "Business - Industrial & Multiple dwelling", "res": true, "com": true, "ind": false, "fill": "#97A998", "GEOID10": "46099001200", "GISJOIN": "G4600990001200", "calc_area": 881706.78307, "pct_tract": 0.19819}, "geometry": {"type": "MultiPolygon", "coordinates": [[[[-96.75116, 43.52195], [-96.75643, 43.52206], [-96.75648, 43.52949], [-96.751248, 43.52944], [-96.751248, 43.529435], [-96.751222, 43.527629], [-96.7512, 43.525809], [-96.751178, 43.524012], [-96.751176, 43.523918], [-96.75116, 43.52195]]], [[[-96.76096, 43.54028], [-96.756294, 43.540299], [-96.756009, 43.540295], [-96.754816, 43.540305], [-96.753614, 43.54031], [-96.752399, 43.540307], [-96.751651, 43.540316], [-96.751232, 43.540316], [-96.751236, 43.539139], [-96.751232, 43.53855], [-96.75123, 43.53816], [-96.75127, 43.53674], [-96.76101, 43.53672], [-96.76445, 43.53693], [-96.764499, 43.543929], [-96.761141, 43.543926], [-96.761136, 43.542151], [-96.761167, 43.540313], [-96.76096, 43.540313], [-96.76096, 43.54028]]]]}}, {"type": "Feature", "properties": {"area_id": 10271, "city": "Sioux Falls", "state": "SD", "city_survey": false, "cat": "Business - Industrial & Multiple dwelling", "grade": "", "label": "Business - Industrial & Multiple dwelling", "res": true, "com": true, "ind": false, "fill": "#97A998", "GEOID10": "46099000900", "GISJOIN": "G4600990000900", "calc_area": 29736.11016, "pct_tract": 0.01601}, "geometry": {"type": "MultiPolygon", "coordinates": [[[[-96.75117, 43.54032], [-96.75117, 43.540306], [-96.751232, 43.540316], [-96.751651, 43.540316], [-96.752399, 43.540307], [-96.753614, 43.54031], [-96.754816, 43.540305], [-96.756009, 43.540295], [-96.756294, 43.540299], [-96.75117, 43.54032]]], [[[-96.7645, 43.54403], [-96.76099, 43.54397], [-96.76074, 43.54444], [-96.75978, 43.54444], [-96.75973, 43.54389], [-96.76029, 43.54388], [-96.76029, 43.54346], [-96.76094, 43.54338], [-96.76096, 43.540313], [-96.761167, 43.540313], [-96.761136, 43.542151], [-96.761141, 43.543926], [-96.764499, 43.543929], [-96.7645, 43.54403]]], [[[-96.75301, 43.54446], [-96.75305, 43.54395], [-96.75352, 43.54395], [-96.75355, 43.54446], [-96.75301, 43.54446]]], [[[-96.74407, 43.54393], [-96.74401, 43.54449], [-96.74338, 43.54418], [-96.7428, 43.54389], [-96.74407, 43.54393]]], [[[-96.75173, 43.54347], [-96.75172, 43.54396], [-96.7517, 43.54451], [-96.75119, 43.54452], [-96.75121, 43.54349], [-96.75173, 43.54347]]], [[[-96.74221, 43.54364], [-96.7428, 43.54389], [-96.74265, 43.54423], [-96.742629, 43.54423], [-96.742629, 43.544211], [-96.742566, 43.543955], [-96.741234, 43.543354], [-96.741239, 43.543221], [-96.74221, 43.54364]]]]}}, {"type": "Feature", "properties": {"area_id": 10271, "city": "Sioux Falls", "state": "SD", "city_survey": false, "cat": "Business - Industrial & Multiple dwelling", "grade": "", "label": "Business - Industrial & Multiple dwelling", "res": true, "com": true, "ind": false, "fill": "#97A998", "GEOID10": "46099000100", "GISJOIN": "G4600990000100", "calc_area": 2354651.45123, "pct_tract": 0.10288}, "geometry": {"type": "MultiPolygon", "coordinates": [[[[-96.72919, 43.55366], [-96.7291, 43.554], [-96.72919, 43.55847], [-96.72921, 43.55903], [-96.72927, 43.56414], [-96.72921, 43.56578], [-96.73124, 43.56578], [-96.73132, 43.56933], [-96.73149, 43.57305], [-96.70131, 43.57305], [-96.701331, 43.572379], [-96.701513, 43.572375], [-96.702454, 43.572401], [-96.702947, 43.57239], [-96.703094, 43.572377], [-96.703286, 43.572349], [-96.70348, 43.572329], [-96.703673, 43.5723], [-96.703864, 43.572265], [-96.703913, 43.572259], [-96.704053, 43.572223], [-96.704198, 43.572201], [-96.704339, 43.572167], [-96.704419, 43.572158], [-96.704594, 43.571984], [-96.70477, 43.571859], [-96.705038, 43.571649], [-96.706083, 43.570742], [-96.706851, 43.569995], [-96.707398, 43.569535], [-96.707634, 43.569314], [-96.707795, 43.569166], [-96.708506, 43.568437], [-96.708783, 43.568211], [-96.709032, 43.568009], [-96.709226, 43.567803], [-96.70957, 43.567497], [-96.709605, 43.567471], [-96.709643, 43.56745], [-96.7101, 43.56745], [-96.710102, 43.567247], [-96.710519, 43.567123], [-96.710566, 43.567113], [-96.711151, 43.567029], [-96.711435, 43.567007], [-96.711938, 43.566967], [-96.712035, 43.566953], [-96.712499, 43.566831], [-96.71269, 43.566791], [-96.712836, 43.566774], [-96.713575, 43.566719], [-96.713674, 43.566718], [-96.71407, 43.56673], [-96.714511, 43.566779], [-96.715089, 43.56688], [-96.715383, 43.566919], [-96.717327, 43.567212], [-96.717868, 43.567262], [-96.718053, 43.567314], [-96.718246, 43.567346], [-96.718295, 43.567351], [-96.71859, 43.56734], [-96.718731, 43.567375], [-96.71878, 43.567382], [-96.71887, 43.567351], [-96.718918, 43.567343], [-96.718968, 43.56734], [-96.71937, 43.567363], [-96.719513, 43.567357], [-96.719661, 43.567229], [-96.719911, 43.567055], [-96.720041, 43.566947], [-96.720079, 43.566923], [-96.720278, 43.566817], [-96.720355, 43.566772], [-96.720824, 43.566453], [-96.721649, 43.566123], [-96.721925, 43.56597], [-96.722, 43.565923], [-96.722105, 43.565847], [-96.72237, 43.565587], [-96.722568, 43.56534], [-96.722715, 43.565196], [-96.723335, 43.564685], [-96.723365, 43.564656], [-96.723439, 43.564563], [-96.723674, 43.563943], [-96.723812, 43.563379], [-96.723824, 43.563308], [-96.723859, 43.562987], [-96.723862, 43.562844], [-96.723837, 43.562738], [-96.72375, 43.56257], [-96.723697, 43.56251], [-96.723661, 43.562485], [-96.72356, 43.56243], [-96.722948, 43.562099], [-96.721872, 43.561654], [-96.72169, 43.561597], [-96.721613, 43.561552], [-96.721524, 43.561466], [-96.721483, 43.5614], [-96.721371, 43.561088], [-96.72124, 43.560856], [-96.721211, 43.560788], [-96.721082, 43.560555], [-96.721009, 43.560461], [-96.721002, 43.560426], [-96.720989, 43.560068], [-96.720993, 43.560033], [-96.721109, 43.559685], [-96.721128, 43.559542], [-96.721142, 43.559482], [-96.721169, 43.559187], [-96.721184, 43.559154], [-96.72126, 43.559061], [-96.721323, 43.558965], [-96.721357, 43.558899], [-96.721382, 43.558868], [-96.721415, 43.558802], [-96.721423, 43.558658], [-96.721348, 43.558521], [-96.721315, 43.5585], [-96.72133, 43.558429], [-96.721282, 43.558292], [-96.721241, 43.558226], [-96.72123, 43.558157], [-96.72127, 43.558054], [-96.721274, 43.557983], [-96.721271, 43.557735], [-96.721335, 43.557566], [-96.721443, 43.557405], [-96.721508, 43.557352], [-96.721622, 43.557284], [-96.721708, 43.557251], [-96.721889, 43.557205], [-96.721951, 43.55716], [-96.722056, 43.557133], [-96.72223, 43.55693], [-96.722358, 43.556776], [-96.72272, 43.55671], [-96.72266, 43.556502], [-96.722984, 43.556079], [-96.723248, 43.555942], [-96.723474, 43.555871], [-96.723677, 43.55547], [-96.723828, 43.555388], [-96.723866, 43.555267], [-96.723757, 43.555073], [-96.723526, 43.554664], [-96.723471, 43.554608], [-96.723364, 43.554178], [-96.723327, 43.553947], [-96.723411, 43.553093], [-96.723453, 43.552664], [-96.724024, 43.551269], [-96.724053, 43.55122], [-96.724277, 43.551219], [-96.724832, 43.551218], [-96.725809, 43.551216], [-96.726831, 43.551213], [-96.728325, 43.551214], [-96.729814, 43.551221], [-96.731354, 43.551205], [-96.73135, 43.552522], [-96.731347, 43.553691], [-96.72919, 43.55366]]]]}}, {"type": "Feature", "properties": {"area_id": 10271, "city": "Sioux Falls", "state": "SD", "city_survey": false, "cat": "Business - Industrial & Multiple dwelling", "grade": "", "label": "Business - Industrial & Multiple dwelling", "res": true, "com": true, "ind": false, "fill": "#97A998", "GEOID10": "46099000408", "GISJOIN": "G4600990000408", "calc_area": 74192.69229, "pct_tract": 0.00997}, "geometry": {"type": "MultiPolygon", "coordinates": [[[[-96.69152, 43.55498], [-96.69152, 43.551218], [-96.692377, 43.551225], [-96.692482, 43.551226], [-96.693741, 43.551214], [-96.693819, 43.551211], [-96.693908, 43.551208], [-96.693803, 43.551872], [-96.693785, 43.552068], [-96.693696, 43.553052], [-96.693691, 43.55311], [-96.693583, 43.555004], [-96.69152, 43.55498]]]]}}, {"type": "Feature", "properties": {"area_id": 10271, "city": "Sioux Falls", "state": "SD", "city_survey": false, "cat": "Business - Industrial & Multiple dwelling", "grade": "", "label": "Business - Industrial & Multiple dwelling", "res": true, "com": true, "ind": false, "fill": "#97A998", "GEOID10": "46099001801", "GISJOIN": "G4600990001801", "calc_area": 2937.19523, "pct_tract": 0.00074}, "geometry": {"type": "MultiPolygon", "coordinates": [[[[-96.69515, 43.53307], [-96.696221, 43.533055], [-96.696244, 43.533144], [-96.69601, 43.533324], [-96.695881, 43.533426], [-96.695746, 43.533549], [-96.695658, 43.533623], [-96.69515, 43.53307]]]]}}, {"type": "Feature", "properties": {"area_id": 10271, "city": "Sioux Falls", "state": "SD", "city_survey": false, "cat": "Business - Industrial & Multiple dwelling", "grade": "", "label": "Business - Industrial & Multiple dwelling", "res": true, "com": true, "ind": false, "fill": "#97A998", "GEOID10": "46099000600", "GISJOIN": "G4600990000600", "calc_area": 344291.99444, "pct_tract": 0.35848}, "geometry": {"type": "MultiPolygon", "coordinates": [[[[-96.73255, 43.53673], [-96.73128, 43.53676], [-96.7306, 43.53672], [-96.73055, 43.53573], [-96.72878, 43.53574], [-96.72883, 43.53487], [-96.729267, 43.534865], [-96.730035, 43.534875], [-96.731278, 43.534883], [-96.731702, 43.534883], [-96.732556, 43.53487], [-96.732536, 43.53578], [-96.7313, 43.53579], [-96.73124, 43.53638], [-96.73253, 43.53635], [-96.732538, 43.53651], [-96.732539, 43.536689], [-96.732548, 43.536691], [-96.73255, 43.53673]]], [[[-96.72099, 43.54015], [-96.72322, 43.53909], [-96.72512, 43.53873], [-96.72717, 43.53887], [-96.72923, 43.53918], [-96.73121, 43.53968], [-96.73271, 43.540117], [-96.73271, 43.540126], [-96.732714, 43.541444], [-96.731262, 43.541441], [-96.729763, 43.541428], [-96.728238, 43.541443], [-96.726804, 43.541448], [-96.725276, 43.541448], [-96.723793, 43.541431], [-96.722307, 43.541442], [-96.720886, 43.541444], [-96.719956, 43.541438], [-96.720238, 43.541025], [-96.720646, 43.540581], [-96.720869, 43.540345], [-96.720808, 43.540365], [-96.72099, 43.54015]]], [[[-96.7163, 43.53672], [-96.71742, 43.53741], [-96.71826, 43.53821], [-96.7188, 43.53923], [-96.71911, 43.54045], [-96.720503, 43.540467], [-96.71952, 43.540796], [-96.719442, 43.540798], [-96.717911, 43.540476], [-96.716315, 43.540466], [-96.716293, 43.537573], [-96.716292, 43.536737], [-96.716292, 43.536717], [-96.7163, 43.53672]]]]}}, {"type": "Feature", "properties": {"area_id": 10271, "city": "Sioux Falls", "state": "SD", "city_survey": false, "cat": "Business - Industrial & Multiple dwelling", "grade": "", "label": "Business - Industrial & Multiple dwelling", "res": true, "com": true, "ind": false, "fill": "#97A998", "GEOID10": "46099000500", "GISJOIN": "G4600990000500", "calc_area": 1410494.43551, "pct_tract": 0.50784}, "geometry": {"type": "MultiPolygon", "coordinates": [[[[-96.7135, 43.54919], [-96.71349, 43.54811], [-96.7142, 43.54809], [-96.71422, 43.5492], [-96.7135, 43.54919]]], [[[-96.72072, 43.54047], [-96.720808, 43.540365], [-96.720869, 43.540345], [-96.720646, 43.540581], [-96.720238, 43.541025], [-96.719956, 43.541438], [-96.719719, 43.54187], [-96.719524, 43.542441], [-96.719481, 43.543141], [-96.719473, 43.543439], [-96.719498, 43.544364], [-96.719508, 43.544727], [-96.71974, 43.544831], [-96.720299, 43.545034], [-96.720653, 43.545032], [-96.721339, 43.545225], [-96.721439, 43.545253], [-96.722067, 43.545559], [-96.722355, 43.545758], [-96.722935, 43.546188], [-96.723643, 43.546712], [-96.724279, 43.547073], [-96.724897, 43.547498], [-96.725252, 43.547742], [-96.72557, 43.548318], [-96.725457, 43.548626], [-96.72532, 43.549], [-96.724985, 43.549221], [-96.724761, 43.549569], [-96.724736, 43.549569], [-96.724696, 43.549678], [-96.72467, 43.549751], [-96.724107, 43.551128], [-96.724053, 43.55122], [-96.723865, 43.55122], [-96.723546, 43.55122], [-96.722401, 43.551224], [-96.722342, 43.551224], [-96.722236, 43.551224], [-96.721634, 43.551226], [-96.721562, 43.551226], [-96.719923, 43.55123], [-96.718501, 43.551229], [-96.71846, 43.551229], [-96.71846, 43.55121], [-96.71822, 43.54828], [-96.71764, 43.54674], [-96.71666, 43.54563], [-96.71206, 43.54395], [-96.70818, 43.54223], [-96.70443, 43.54027], [-96.702624, 43.539176], [-96.702623, 43.539076], [-96.702393, 43.538906], [-96.702312, 43.538846], [-96.701883, 43.538561], [-96.700989, 43.537941], [-96.699763, 43.53699], [-96.699246, 43.536619], [-96.699608, 43.536618], [-96.701258, 43.536615], [-96.701686, 43.536614], [-96.702163, 43.536613], [-96.703514, 43.536611], [-96.703788, 43.536636], [-96.704015, 43.536709], [-96.705861, 43.537765], [-96.70596, 43.537664], [-96.706056, 43.537606], [-96.706163, 43.537548], [-96.706319, 43.537498], [-96.706345, 43.536617], [-96.706336, 43.534955], [-96.706324, 43.533973], [-96.70631, 43.533446], [-96.706347, 43.532774], [-96.70753, 43.53351], [-96.708783, 43.534003], [-96.708782, 43.533985], [-96.70929, 43.53424], [-96.71373, 43.53585], [-96.716292, 43.536717], [-96.716292, 43.536737], [-96.716293, 43.537573], [-96.716315, 43.540466], [-96.717911, 43.540476], [-96.719442, 43.540798], [-96.71952, 43.540796], [-96.720503, 43.540467], [-96.72072, 43.54047]]]]}}, {"type": "Feature", "properties": {"area_id": 10271, "city": "Sioux Falls", "state": "SD", "city_survey": false, "cat": "Business - Industrial & Multiple dwelling", "grade": "", "label": "Business - Industrial & Multiple dwelling", "res": true, "com": true, "ind": false, "fill": "#97A998", "GEOID10": "46099000401", "GISJOIN": "G4600990000401", "calc_area": 184874.39532, "pct_tract": 0.10796}, "geometry": {"type": "MultiPolygon", "coordinates": [[[[-96.69643, 43.54196], [-96.69796, 43.54204], [-96.69796, 43.54383], [-96.69648, 43.54383], [-96.69643, 43.54196]]], [[[-96.69405, 43.55115], [-96.69409, 43.55501], [-96.693583, 43.555004], [-96.693691, 43.55311], [-96.693696, 43.553052], [-96.693785, 43.552068], [-96.693803, 43.551872], [-96.693908, 43.551208], [-96.693915, 43.55115], [-96.69405, 43.55115]]], [[[-96.70013, 43.55523], [-96.69759, 43.55519], [-96.69752, 43.55302], [-96.70013, 43.55523]]], [[[-96.69599, 43.55834], [-96.700842, 43.558366], [-96.700842, 43.558462], [-96.700845, 43.559266], [-96.700839, 43.559632], [-96.70085, 43.559749], [-96.700888, 43.559869], [-96.700671, 43.559886], [-96.700295, 43.559937], [-96.700112, 43.559983], [-96.696853, 43.561073], [-96.696658, 43.561112], [-96.696428, 43.561114], [-96.696433, 43.561556], [-96.696432, 43.561745], [-96.69599, 43.561893], [-96.69599, 43.55834]]], [[[-96.70235, 43.53901], [-96.69743, 43.53555], [-96.695658, 43.533623], [-96.695746, 43.533549], [-96.695881, 43.533426], [-96.69601, 43.533324], [-96.696244, 43.533144], [-96.696547, 43.533789], [-96.697053, 43.534506], [-96.697392, 43.534849], [-96.697661, 43.535102], [-96.697945, 43.53535], [-96.698816, 43.535993], [-96.699349, 43.536405], [-96.699608, 43.536618], [-96.699246, 43.536619], [-96.699763, 43.53699], [-96.700989, 43.537941], [-96.701883, 43.538561], [-96.702312, 43.538846], [-96.702393, 43.538906], [-96.702623, 43.539076], [-96.702624, 43.539176], [-96.70235, 43.53901]]]]}}, {"type": "Feature", "properties": {"area_id": 10271, "city": "Sioux Falls", "state": "SD", "city_survey": false, "cat": "Business - Industrial & Multiple dwelling", "grade": "", "label": "Business - Industrial & Multiple dwelling", "res": true, "com": true, "ind": false, "fill": "#97A998", "GEOID10": "46099010600", "GISJOIN": "G4600990010600", "calc_area": 221014.26866, "pct_tract": 0.08443}, "geometry": {"type": "MultiPolygon", "coordinates": [[[[-96.73632, 43.52422], [-96.736235, 43.52422], [-96.736234, 43.524108], [-96.736233, 43.522082], [-96.738165, 43.522093], [-96.738165, 43.522052], [-96.74128, 43.52206], [-96.74131, 43.52601], [-96.741243, 43.526012], [-96.741243, 43.525972], [-96.74111, 43.526015], [-96.74004, 43.52604], [-96.740055, 43.526355], [-96.740045, 43.526358], [-96.739995, 43.527263], [-96.738725, 43.527265], [-96.737506, 43.527266], [-96.73632, 43.527257], [-96.73632, 43.52422]]], [[[-96.75122, 43.52944], [-96.751176, 43.523918], [-96.751178, 43.524012], [-96.7512, 43.525809], [-96.751222, 43.527629], [-96.751248, 43.529435], [-96.751248, 43.52944], [-96.75122, 43.52944]]], [[[-96.75123, 43.53816], [-96.751232, 43.53855], [-96.751236, 43.539139], [-96.751232, 43.540316], [-96.75117, 43.540306], [-96.75123, 43.53816]]]]}}, {"type": "Feature", "properties": {"area_id": 10271, "city": "Sioux Falls", "state": "SD", "city_survey": false, "cat": "Business - Industrial & Multiple dwelling", "grade": "", "label": "Business - Industrial & Multiple dwelling", "res": true, "com": true, "ind": false, "fill": "#97A998", "GEOID10": "46099000405", "GISJOIN": "G4600990000405", "calc_area": 1504.21911, "pct_tract": 0.00041}, "geometry": {"type": "MultiPolygon", "coordinates": [[[[-96.69152, 43.55115], [-96.693915, 43.55115], [-96.693908, 43.551208], [-96.693819, 43.551211], [-96.693741, 43.551214], [-96.692482, 43.551226], [-96.692377, 43.551225], [-96.69152, 43.551218], [-96.69152, 43.55115]]]]}}, {"type": "Feature", "properties": {"area_id": 10271, "city": "Sioux Falls", "state": "SD", "city_survey": false, "cat": "Business - Industrial & Multiple dwelling", "grade": "", "label": "Business - Industrial & Multiple dwelling", "res": true, "com": true, "ind": false, "fill": "#97A998", "GEOID10": "46099001700", "GISJOIN": "G4600990001700", "calc_area": 304403.12166, "pct_tract": 0.17415}, "geometry": {"type": "MultiPolygon", "coordinates": [[[[-96.70608, 43.53292], [-96.70623, 43.53244], [-96.7075, 43.53334], [-96.708782, 43.533985], [-96.708783, 43.534003], [-96.70753, 43.53351], [-96.706347, 43.532774], [-96.70631, 43.533446], [-96.706324, 43.533973], [-96.706336, 43.534955], [-96.706345, 43.536617], [-96.706319, 43.537498], [-96.706163, 43.537548], [-96.706056, 43.537606], [-96.70596, 43.537664], [-96.705861, 43.537765], [-96.704015, 43.536709], [-96.703788, 43.536636], [-96.703514, 43.536611], [-96.702163, 43.536613], [-96.701686, 43.536614], [-96.701258, 43.536615], [-96.699608, 43.536618], [-96.699349, 43.536405], [-96.698816, 43.535993], [-96.697945, 43.53535], [-96.697661, 43.535102], [-96.697392, 43.534849], [-96.697053, 43.534506], [-96.696547, 43.533789], [-96.696244, 43.533144], [-96.696362, 43.533053], [-96.70608, 43.53292]]]]}}, {"type": "Feature", "properties": {"area_id": 10271, "city": "Sioux Falls", "state": "SD", "city_survey": false, "cat": "Business - Industrial & Multiple dwelling", "grade": "", "label": "Business - Industrial & Multiple dwelling", "res": true, "com": true, "ind": false, "fill": "#97A998", "GEOID10": "46099001500", "GISJOIN": "G4600990001500", "calc_area": 113845.78032, "pct_tract": 0.03018}, "geometry": {"type": "MultiPolygon", "coordinates": [[[[-96.73133, 43.52195], [-96.73124, 43.52487], [-96.730049, 43.52486], [-96.73005, 43.524833], [-96.730022, 43.523919], [-96.730004, 43.522132], [-96.730002, 43.522015], [-96.73133, 43.52195]]], [[[-96.73371, 43.52422], [-96.73365, 43.52204], [-96.738165, 43.522052], [-96.738165, 43.522093], [-96.736233, 43.522082], [-96.736234, 43.524108], [-96.736235, 43.52422], [-96.73371, 43.52422]]], [[[-96.7401, 43.52727], [-96.73632, 43.52736], [-96.73632, 43.527257], [-96.737506, 43.527266], [-96.738725, 43.527265], [-96.739995, 43.527263], [-96.740045, 43.526358], [-96.740055, 43.526355], [-96.7401, 43.52727]]], [[[-96.74111, 43.526015], [-96.741243, 43.525972], [-96.741243, 43.526012], [-96.74111, 43.526015]]], [[[-96.73007, 43.52903], [-96.73121, 43.52906], [-96.73116, 43.5303], [-96.73068, 43.53031], [-96.73071, 43.52941], [-96.730053, 43.52941], [-96.730053, 43.529405], [-96.730044, 43.529169], [-96.73007, 43.52903]]], [[[-96.732548, 43.536691], [-96.732539, 43.536689], [-96.732538, 43.53651], [-96.732548, 43.536691]]], [[[-96.73125, 43.53484], [-96.73501, 43.53489], [-96.73503, 43.53576], [-96.732536, 43.53578], [-96.732556, 43.53487], [-96.731702, 43.534883], [-96.731278, 43.534883], [-96.730035, 43.534875], [-96.730035, 43.534855], [-96.73125, 43.53484]]], [[[-96.73294, 43.540184], [-96.73271, 43.540126], [-96.73271, 43.540117], [-96.73294, 43.540184]]]]}}, {"type": "Feature", "properties": {"area_id": 10271, "city": "Sioux Falls", "state": "SD", "city_survey": false, "cat": "Business - Industrial & Multiple dwelling", "grade": "", "label": "Business - Industrial & Multiple dwelling", "res": true, "com": true, "ind": false, "fill": "#97A998", "GEOID10": "46099000201", "GISJOIN": "G4600990000201", "calc_area": 31913.77055, "pct_tract": 0.01165}, "geometry": {"type": "MultiPolygon", "coordinates": [[[[-96.73351, 43.55247], [-96.73209, 43.55249], [-96.73194, 43.5537], [-96.731347, 43.553691], [-96.73135, 43.552522], [-96.731354, 43.551205], [-96.731711, 43.551212], [-96.732806, 43.551199], [-96.733497, 43.551205], [-96.73351, 43.55247]]]]}}, {"type": "Feature", "properties": {"area_id": 10271, "city": "Sioux Falls", "state": "SD", "city_survey": false, "cat": "Business - Industrial & Multiple dwelling", "grade": "", "label": "Business - Industrial & Multiple dwelling", "res": true, "com": true, "ind": false, "fill": "#97A998", "GEOID10": "46099001901", "GISJOIN": "G4600990001901", "calc_area": 1180.19064, "pct_tract": 0.00091}, "geometry": {"type": "MultiPolygon", "coordinates": [[[[-96.730002, 43.522015], [-96.730004, 43.522132], [-96.728751, 43.522126], [-96.727712, 43.522126], [-96.730002, 43.522015]]]]}}, {"type": "Feature", "properties": {"area_id": 10271, "city": "Sioux Falls", "state": "SD", "city_survey": false, "cat": "Business - Industrial & Multiple dwelling", "grade": "", "label": "Business - Industrial & Multiple dwelling", "res": true, "com": true, "ind": false, "fill": "#97A998", "GEOID10": "46099001902", "GISJOIN": "G4600990001902", "calc_area": 56.19236, "pct_tract": 1e-05}, "geometry": {"type": "MultiPolygon", "coordinates": [[[[-96.696362, 43.533053], [-96.696244, 43.533144], [-96.696221, 43.533055], [-96.696362, 43.533053]]]]}}]}