{"type": "FeatureCollection", "features": [{"type": "Feature", "geometry": {"type": "Point", "coordinates": [-71.128178, 42.477476]}, "properties": {"facility_name": "ENGELHARD SURFACE TECHS, ENGELHARD CORP", "industry": null, "tri_facility_id": "01801GNRLP5DRAP"}}, {"type": "Feature", "geometry": {"type": "Point", "coordinates": [-71.128434, 42.511996]}, "properties": {"facility_name": "BOYD CORP INC.", "industry": null, "tri_facility_id": "01801LYTRNDRAGO"}}, {"type": "Feature", "geometry": {"type": "Point", "coordinates": [-71.1256, 42.4932]}, "properties": {"facility_name": "NEW ENGLAND PLASTICS CORP", "industry": null, "tri_facility_id": "01801NWNGL310SA"}}, {"type": "Feature", "geometry": {"type": "Point", "coordinates": [-71.117778, 42.476944]}, "properties": {"facility_name": "KRAFT FOODS GROUP INC", "industry": null, "tri_facility_id": "01801TLNTCHILLS"}}, {"type": "Feature", "geometry": {"type": "Point", "coordinates": [-71.122222, 42.495556]}, "properties": {"facility_name": "A W CHESTERTON CO", "industry": null, "tri_facility_id": "01801WCHST9FORB"}}, {"type": "Feature", "geometry": {"type": "Point", "coordinates": [-71.050278, 42.521944]}, "properties": {"facility_name": "CP CLARE CORP", "industry": null, "tri_facility_id": "01880CPCLR8CORP"}}, {"type": "Feature", "geometry": {"type": "Point", "coordinates": [-71.0662, 42.5034]}, "properties": {"facility_name": "SMURFIT STONE CONTAINER ENTERP RISES INC.", "industry": null, "tri_facility_id": "01880CPNTN365AU"}}, {"type": "Feature", "geometry": {"type": "Point", "coordinates": [-71.041762, 42.515005]}, "properties": {"facility_name": "HOOD IND INC", "industry": null, "tri_facility_id": "01880HDNDS14AUD"}}, {"type": "Feature", "geometry": {"type": "Point", "coordinates": [-71.070833, 42.498889]}, "properties": {"facility_name": "KYTRON CIRCUITS CORP", "industry": null, "tri_facility_id": "01880KYTRN23NOR"}}, {"type": "Feature", "geometry": {"type": "Point", "coordinates": [-71.05, 42.518889]}, "properties": {"facility_name": "ANALOGIC CORP", "industry": null, "tri_facility_id": "01880NLCCR360AU"}}, {"type": "Feature", "geometry": {"type": "Point", "coordinates": [-71.075, 42.5]}, "properties": {"facility_name": "WAKEFIELD CORP", "industry": null, "tri_facility_id": "01880WKFLD29FOU"}}, {"type": "Feature", "geometry": {"type": "Point", "coordinates": [-71.1286111111111, 42.481944444444444]}, "properties": {"facility_name": "LUBRIZOL ADVANCED MATERIALS INC", "industry": null, "tri_facility_id": "01887NVNNC27LWE"}}, {"type": "Feature", "geometry": {"type": "Point", "coordinates": [-71.1286111111111, 42.481944444444444]}, "properties": {"facility_name": "VIASYS HEALTHCARE INCTHERMEDICS POLYMER PRODS DIV", "industry": null, "tri_facility_id": "01888VSYSH470WI"}}, {"type": "Feature", "geometry": {"type": "Point", "coordinates": [-71.125833, 42.472222]}, "properties": {"facility_name": "MCCORD WINN TEXTRON", "industry": null, "tri_facility_id": "01890MCCRD620WA"}}, {"type": "Feature", "geometry": {"type": "Point", "coordinates": [-71.08805555555556, 42.4175]}, "properties": {"facility_name": "JOHN DANAIS CO INC", "industry": null, "tri_facility_id": "02145JHNJD50TUF"}}, {"type": "Feature", "geometry": {"type": "Point", "coordinates": [-71.104167, 42.4]}, "properties": {"facility_name": "ROGERS FOAM CORP", "industry": null, "tri_facility_id": "02145RGRSF20VER"}}, {"type": "Feature", "geometry": {"type": "Point", "coordinates": [-71.046667, 42.429167]}, "properties": {"facility_name": "FM CALLAHAN & SON INC", "industry": null, "tri_facility_id": "02148FMCLL22SHA"}}, {"type": "Feature", "geometry": {"type": "Point", "coordinates": [-71.076111, 42.418056]}, "properties": {"facility_name": "HOPWOOD GLOBE LTD", "industry": null, "tri_facility_id": "02148HPWDG303CO"}}, {"type": "Feature", "geometry": {"type": "Point", "coordinates": [-71.070833, 42.420833]}, "properties": {"facility_name": "ROHM TECH INC", "industry": null, "tri_facility_id": "02148RHMTC195CA"}}, {"type": "Feature", "geometry": {"type": "Point", "coordinates": [-71.067222, 42.435556]}, "properties": {"facility_name": "STERLING-CLARK-LURTON CORP", "industry": null, "tri_facility_id": "02148STRLN184CO"}}, {"type": "Feature", "geometry": {"type": "Point", "coordinates": [-71.038611, 42.430556]}, "properties": {"facility_name": "EASTERN CHEM-LAC", "industry": null, "tri_facility_id": "02148STRNC1100E"}}, {"type": "Feature", "geometry": {"type": "Point", "coordinates": [-71.056389, 42.401389]}, "properties": {"facility_name": "DAMPNEY CO INC", "industry": null, "tri_facility_id": "02149DMPNY85PAR"}}, {"type": "Feature", "geometry": {"type": "Point", "coordinates": [-71.068056, 42.407222]}, "properties": {"facility_name": "DUNCAN GALVANIZING CORP.", "industry": null, "tri_facility_id": "02149DNCNG69NOR"}}, {"type": "Feature", "geometry": {"type": "Point", "coordinates": [-71.05777777777777, 42.39]}, "properties": {"facility_name": "HOLCIM - NER INC.", "industry": null, "tri_facility_id": "02149GGRGT201BR"}}, {"type": "Feature", "geometry": {"type": "Point", "coordinates": [-71.067164, 42.410611]}, "properties": {"facility_name": "GE CO", "industry": null, "tri_facility_id": "02149GNRLL62TRE"}}, {"type": "Feature", "geometry": {"type": "Point", "coordinates": [-71.06388888888888, 42.400277777777774]}, "properties": {"facility_name": "HUB FABRIC LEATHER CO INC", "industry": null, "tri_facility_id": "02149HBFBR7CHAR"}}, {"type": "Feature", "geometry": {"type": "Point", "coordinates": [-71.053056, 42.400556]}, "properties": {"facility_name": "BAYSTATE GALVANIZING INC", "industry": null, "tri_facility_id": "02149LDKTG12813"}}, {"type": "Feature", "geometry": {"type": "Point", "coordinates": [-71.051667, 42.400833]}, "properties": {"facility_name": "LEE PRODUCTS CO", "industry": null, "tri_facility_id": "02149LPRDC380SE"}}, {"type": "Feature", "geometry": {"type": "Point", "coordinates": [-71.051111, 42.408333]}, "properties": {"facility_name": "MARKET FORGE INDUSTRIES INC", "industry": null, "tri_facility_id": "02149MRKTF35GAR"}}, {"type": "Feature", "geometry": {"type": "Point", "coordinates": [-71.05916666666667, 42.39833333333333]}, "properties": {"facility_name": "MERRILL COMMUNICATIONS LLC", "industry": null, "tri_facility_id": "02149MRRLL4CMME"}}, {"type": "Feature", "geometry": {"type": "Point", "coordinates": [-71.048889, 42.398889]}, "properties": {"facility_name": "NUBRITE CHEMICAL KYANIZE PAINTS DIV", "industry": null, "tri_facility_id": "02149NBRTCSECON"}}, {"type": "Feature", "geometry": {"type": "Point", "coordinates": [-71.0525, 42.401389]}, "properties": {"facility_name": "W A WOOD CO", "industry": null, "tri_facility_id": "02149WWDCM108SP"}}, {"type": "Feature", "geometry": {"type": "Point", "coordinates": [-71.0611111111111, 42.39722222222222]}, "properties": {"facility_name": "EXXON MOBIL CORP EVERETT TERMINAL", "industry": null, "tri_facility_id": "02149XXNCS52BEA"}}, {"type": "Feature", "geometry": {"type": "Point", "coordinates": [-71.109, 42.4235]}, "properties": {"facility_name": "BOSTON RETAIL PRODUCTS", "industry": null, "tri_facility_id": "02155BSTNR400RI"}}, {"type": "Feature", "geometry": {"type": "Point", "coordinates": [-71.079893, 42.413668]}, "properties": {"facility_name": "GE CO", "industry": null, "tri_facility_id": "02155GNRLL320MI"}}, {"type": "Feature", "geometry": {"type": "Point", "coordinates": [-71.106111, 42.404444]}, "properties": {"facility_name": "MATERIALS DEVELOPMENT CORP", "industry": null, "tri_facility_id": "02155MTRLS81HIC"}}, {"type": "Feature", "geometry": {"type": "Point", "coordinates": [-71.076849, 42.40745]}, "properties": {"facility_name": "MYSTIC PLATING CORP", "industry": null, "tri_facility_id": "02155MYSTC213CO"}}, {"type": "Feature", "geometry": {"type": "Point", "coordinates": [-71.108333, 42.413889]}, "properties": {"facility_name": "TRA-CON INC", "industry": null, "tri_facility_id": "02155TRCNN55NOR"}}, {"type": "Feature", "geometry": {"type": "Point", "coordinates": [-71.06777777777778, 42.4525]}, "properties": {"facility_name": "MICROSEMI CDI", "industry": null, "tri_facility_id": "02176MCRSM22COR"}}, {"type": "Feature", "geometry": {"type": "Point", "coordinates": [-71.07138888888889, 42.441111111111105]}, "properties": {"facility_name": "RWA INC", "industry": null, "tri_facility_id": "02176RWNCX37WAS"}}, {"type": "Feature", "geometry": {"type": "Point", "coordinates": [-71.1, 42.485833]}, "properties": {"facility_name": "GEORGE MANN & CO INC", "industry": null, "tri_facility_id": "02180GRGMN105CE"}}, {"type": "Feature", "geometry": {"type": "Point", "coordinates": [-71.008638, 42.469658]}, "properties": {"facility_name": "HENKEL CORP", "industry": null, "tri_facility_id": "01906HNKLC222CE"}}, {"type": "Feature", "geometry": {"type": "Point", "coordinates": [-70.985, 42.450833]}, "properties": {"facility_name": "EASTERN TOOL & STAMPING CO. IN C.", "industry": null, "tri_facility_id": "01906STRNT109BA"}}, {"type": "Feature", "geometry": {"type": "Point", "coordinates": [-70.981389, 42.518333]}, "properties": {"facility_name": "TURBINE COMPONENT SERVICES", "industry": null, "tri_facility_id": "01960WLBRN5THST"}}]}