{"type": "FeatureCollection", "features": [{"type": "Feature", "geometry": {"type": "Point", "coordinates": [-70.894167, 42.5]}, "properties": {"facility_name": "GTE PRODS CORP", "industry": null, "tri_facility_id": "01870GTPRD71LOR"}}, {"type": "Feature", "geometry": {"type": "Point", "coordinates": [-70.941667, 42.458333]}, "properties": {"facility_name": "REFINITY CORP", "industry": null, "tri_facility_id": "01901STRNS3739B"}}, {"type": "Feature", "geometry": {"type": "Point", "coordinates": [-70.933333, 42.466667]}, "properties": {"facility_name": "LYNN PLASTICS CO LLC", "industry": null, "tri_facility_id": "01902LYNNP92BRO"}}, {"type": "Feature", "geometry": {"type": "Point", "coordinates": [-70.972778, 42.463333]}, "properties": {"facility_name": "CARR LEATHER COMPANY", "industry": null, "tri_facility_id": "01903CRRLT500BO"}}, {"type": "Feature", "geometry": {"type": "Point", "coordinates": [-70.975, 42.458333]}, "properties": {"facility_name": "CL HAUTHAWAY & SONS CORP", "industry": null, "tri_facility_id": "01905CLHTH638SU"}}, {"type": "Feature", "geometry": {"type": "Point", "coordinates": [-70.974167, 42.457778]}, "properties": {"facility_name": "HARVARD FOLDING BOX CO", "industry": null, "tri_facility_id": "01905HRVRD71LIN"}}, {"type": "Feature", "geometry": {"type": "Point", "coordinates": [-70.973889, 42.45]}, "properties": {"facility_name": "GE AEROSPACE", "industry": null, "tri_facility_id": "01910GNRLL1000W"}}, {"type": "Feature", "geometry": {"type": "Point", "coordinates": [-70.968056, 42.451667]}, "properties": {"facility_name": "GE CO AIRCRAFT ENGINES", "industry": null, "tri_facility_id": "01910GRCRF40FED"}}, {"type": "Feature", "geometry": {"type": "Point", "coordinates": [-70.92, 42.586111111111116]}, "properties": {"facility_name": "CLARE", "industry": null, "tri_facility_id": "01915CPCLR78CHE"}}, {"type": "Feature", "geometry": {"type": "Point", "coordinates": [-70.88305555555554, 42.55972222222222]}, "properties": {"facility_name": "DELTA ELECTRONICS MANUFACTURING CORP.", "industry": null, "tri_facility_id": "01915DLTLC416CA"}}, {"type": "Feature", "geometry": {"type": "Point", "coordinates": [-70.897778, 42.570833]}, "properties": {"facility_name": "SYMMETRICOM", "industry": null, "tri_facility_id": "01915FRQNC34TOZ"}}, {"type": "Feature", "geometry": {"type": "Point", "coordinates": [-70.8786111111111, 42.569722222222225]}, "properties": {"facility_name": "KAISER SYSTEMS INC", "industry": null, "tri_facility_id": "01915KSRSY126SH"}}, {"type": "Feature", "geometry": {"type": "Point", "coordinates": [-70.891667, 42.541389]}, "properties": {"facility_name": "MORTON INTERNATIONAL INC", "industry": null, "tri_facility_id": "01915MRTNT15CON"}}, {"type": "Feature", "geometry": {"type": "Point", "coordinates": [-70.908889, 42.575556]}, "properties": {"facility_name": "EATON CORP", "industry": null, "tri_facility_id": "01915TNCRP108CH"}}, {"type": "Feature", "geometry": {"type": "Point", "coordinates": [-70.8825, 42.574167]}, "properties": {"facility_name": "COMMUNICATIONS & POWER INDUSTRIES BEVERLY MICROWAVE DIVION", "industry": null, "tri_facility_id": "01915VRNSS8SALE"}}, {"type": "Feature", "geometry": {"type": "Point", "coordinates": [-70.925653, 42.553317]}, "properties": {"facility_name": "BABCO TEXTRON", "industry": null, "tri_facility_id": "01923BBCTX28WAT"}}, {"type": "Feature", "geometry": {"type": "Point", "coordinates": [-70.918333, 42.577222]}, "properties": {"facility_name": "BABCO TEXTRON", "industry": null, "tri_facility_id": "01923BBCTX54CHE"}}, {"type": "Feature", "geometry": {"type": "Point", "coordinates": [-70.927222, 42.546111]}, "properties": {"facility_name": "ITW PERFORMANCE POLYMERS", "industry": null, "tri_facility_id": "01923DVCNC30END"}}, {"type": "Feature", "geometry": {"type": "Point", "coordinates": [-70.944444, 42.556389]}, "properties": {"facility_name": "OSRAM SYLVANIA PRODS INC", "industry": null, "tri_facility_id": "01923GTPRD75SYL"}}, {"type": "Feature", "geometry": {"type": "Point", "coordinates": [-70.91583333333334, 42.573055555555555]}, "properties": {"facility_name": "MEDTRONIC INC", "industry": null, "tri_facility_id": "01923MDTRN37ACH"}}, {"type": "Feature", "geometry": {"type": "Point", "coordinates": [-70.970833, 42.558333]}, "properties": {"facility_name": "MORTON INTL INC DAC", "industry": null, "tri_facility_id": "01923MRTNT154AN"}}, {"type": "Feature", "geometry": {"type": "Point", "coordinates": [-70.9235, 42.5679]}, "properties": {"facility_name": "MILLIPORE CORP", "industry": null, "tri_facility_id": "01923WRGRC17CHE"}}, {"type": "Feature", "geometry": {"type": "Point", "coordinates": [-70.85555555555555, 42.51222222222222]}, "properties": {"facility_name": "SOUNDOWN CORP", "industry": null, "tri_facility_id": "01945SNDWN17LIM"}}, {"type": "Feature", "geometry": {"type": "Point", "coordinates": [-70.95, 42.520833]}, "properties": {"facility_name": "BOND LEATHER CO INC", "industry": null, "tri_facility_id": "01960BNDLTSUMMI"}}, {"type": "Feature", "geometry": {"type": "Point", "coordinates": [-70.9729, 42.5335]}, "properties": {"facility_name": "STAHL PC DIOLS", "industry": null, "tri_facility_id": "01960CMRCSCORWI"}}, {"type": "Feature", "geometry": {"type": "Point", "coordinates": [-70.933333, 42.533333]}, "properties": {"facility_name": "ALLIANCE LEATHER INC.", "industry": null, "tri_facility_id": "01960FRDJH58PUL"}}, {"type": "Feature", "geometry": {"type": "Point", "coordinates": [-70.973056, 42.518056]}, "properties": {"facility_name": "EAGLE CAN CO", "industry": null, "tri_facility_id": "01960GLCNC1STAV"}}, {"type": "Feature", "geometry": {"type": "Point", "coordinates": [-70.96416666666667, 42.52111111111111]}, "properties": {"facility_name": "KAISER SYSTEMS INC", "industry": null, "tri_facility_id": "01960KSRSY1TECH"}}, {"type": "Feature", "geometry": {"type": "Point", "coordinates": [-70.955, 42.526389]}, "properties": {"facility_name": "ANALOGIC CORP", "industry": null, "tri_facility_id": "01960NLGCC8CENT"}}, {"type": "Feature", "geometry": {"type": "Point", "coordinates": [-70.930556, 42.521389]}, "properties": {"facility_name": "REX FINISHING INC", "industry": null, "tri_facility_id": "01960RXFNSREAR1"}}, {"type": "Feature", "geometry": {"type": "Point", "coordinates": [-70.921944, 42.525833]}, "properties": {"facility_name": "SALEM SUEDE INC", "industry": null, "tri_facility_id": "01960SLMSD5512R"}}, {"type": "Feature", "geometry": {"type": "Point", "coordinates": [-70.919722, 42.523333]}, "properties": {"facility_name": "ICI AMERICAS INC STAHL USA DIV", "industry": null, "tri_facility_id": "01960STHLC26HOW"}}, {"type": "Feature", "geometry": {"type": "Point", "coordinates": [-70.9375, 42.522222]}, "properties": {"facility_name": "ROUSSELOT PEABODY INC.", "industry": null, "tri_facility_id": "01960STMNG227WA"}}, {"type": "Feature", "geometry": {"type": "Point", "coordinates": [-70.9313, 42.5221]}, "properties": {"facility_name": "TRIMONT CHEMICALS INC", "industry": null, "tri_facility_id": "01960TRMNT103FO"}}, {"type": "Feature", "geometry": {"type": "Point", "coordinates": [-70.910278, 42.518611]}, "properties": {"facility_name": "IDEAL FINISHING CO INC", "industry": null, "tri_facility_id": "01970DLFNS59BOS"}}, {"type": "Feature", "geometry": {"type": "Point", "coordinates": [-70.889444, 42.518333]}, "properties": {"facility_name": "EXCELITAS TECHNOLOGIES CORP", "industry": null, "tri_facility_id": "01970GGNCX35CON"}}, {"type": "Feature", "geometry": {"type": "Point", "coordinates": [-70.87972222222221, 42.525]}, "properties": {"facility_name": "NORTHEAST PETROLEUM SALEM TERMINAL", "industry": null, "tri_facility_id": "01970NRTHS25DER"}}, {"type": "Feature", "geometry": {"type": "Point", "coordinates": [-70.9, 42.533333]}, "properties": {"facility_name": "PARKER BROTHERS", "industry": null, "tri_facility_id": "01970PRKRB190BR"}}, {"type": "Feature", "geometry": {"type": "Point", "coordinates": [-70.883333, 42.516667]}, "properties": {"facility_name": "RICHARD TANNING CO INC", "industry": null, "tri_facility_id": "01970RCHRD9WEBB"}}, {"type": "Feature", "geometry": {"type": "Point", "coordinates": [-70.8761111111111, 42.526666666666664]}, "properties": {"facility_name": "SALEM HARBOR S TATION", "industry": null, "tri_facility_id": "01970SGNNW24FOR"}}, {"type": "Feature", "geometry": {"type": "Point", "coordinates": [-70.911111, 42.522222]}, "properties": {"facility_name": "SALEM OIL & GREASE CO", "industry": null, "tri_facility_id": "01970SLMLG60GRO"}}, {"type": "Feature", "geometry": {"type": "Point", "coordinates": [-70.909722, 42.527778]}, "properties": {"facility_name": "SALEM SUEDE", "industry": null, "tri_facility_id": "01970SLMSD72FLI"}}, {"type": "Feature", "geometry": {"type": "Point", "coordinates": [-70.92416666666666, 42.49583333333334]}, "properties": {"facility_name": "THERMAL CIRCUITS", "industry": null, "tri_facility_id": "01970THRML1TECH"}}, {"type": "Feature", "geometry": {"type": "Point", "coordinates": [-70.90416666666667, 42.50972222222222]}, "properties": {"facility_name": "UNIVAR USA INC  SALEM BRANCH", "industry": null, "tri_facility_id": "01970VNWTRCOLON"}}]}