{"type": "FeatureCollection", "features": [{"type": "Feature", "geometry": {"type": "Point", "coordinates": [-71.10416666666666, 42.358333333333334]}, "properties": {"facility_name": "THERMO FISHER SCIENTIFIC", "industry": null, "tri_facility_id": "01730PPLDB2PRES"}}, {"type": "Feature", "geometry": {"type": "Point", "coordinates": [-71.052778, 42.352778]}, "properties": {"facility_name": "ELECTRO RENT CORP", "industry": null, "tri_facility_id": "01821LCTRR37MAN"}}, {"type": "Feature", "geometry": {"type": "Point", "coordinates": [-71.109722, 42.355556]}, "properties": {"facility_name": "CALIFORNIA PRODUCTS CORP", "industry": null, "tri_facility_id": "02139CLFRN169WA"}}, {"type": "Feature", "geometry": {"type": "Point", "coordinates": [-71.115, 42.36416666666667]}, "properties": {"facility_name": "CAMBRIDGE ELECTRIC LIGHT CO BLACKSTONE STATION", "industry": null, "tri_facility_id": "02139CMBRD46BLA"}}, {"type": "Feature", "geometry": {"type": "Point", "coordinates": [-71.09722222222221, 42.36194444444445]}, "properties": {"facility_name": "ANALOG DEVICES INC. - MICROMACHINED PRODUCTS DIV", "industry": null, "tri_facility_id": "02139NLGDV21OSB"}}, {"type": "Feature", "geometry": {"type": "Point", "coordinates": [-71.094444, 42.3625]}, "properties": {"facility_name": "POLAROID CORP", "industry": null, "tri_facility_id": "02139PLRDC600MA"}}, {"type": "Feature", "geometry": {"type": "Point", "coordinates": [-71.115833, 42.358333]}, "properties": {"facility_name": "POLAROID CORP", "industry": null, "tri_facility_id": "02139PLRDC784ME"}}, {"type": "Feature", "geometry": {"type": "Point", "coordinates": [-71.104167, 42.358333]}, "properties": {"facility_name": "APPLIED BIOSYSTEMS INC", "industry": null, "tri_facility_id": "02139PRSPT230AL"}}, {"type": "Feature", "geometry": {"type": "Point", "coordinates": [-71.101389, 42.363889]}, "properties": {"facility_name": "WARNER-LAMBERT CO", "industry": null, "tri_facility_id": "02139WRNRL810MA"}}, {"type": "Feature", "geometry": {"type": "Point", "coordinates": [-71.078902, 42.370741]}, "properties": {"facility_name": "HAVILAND CANDY INC", "industry": null, "tri_facility_id": "02141BRDNN134CA"}}, {"type": "Feature", "geometry": {"type": "Point", "coordinates": [-71.08, 42.363055555555555]}, "properties": {"facility_name": "KENDALL GREEN ENERGY LLC", "industry": null, "tri_facility_id": "02142CMBRD265FI"}}, {"type": "Feature", "geometry": {"type": "Point", "coordinates": [-71.072222, 42.365556]}, "properties": {"facility_name": "GENZYME CORP", "industry": null, "tri_facility_id": "02142GNZYM107BI"}}, {"type": "Feature", "geometry": {"type": "Point", "coordinates": [-71.108333, 42.370833]}, "properties": {"facility_name": "PETER GRAY CORP", "industry": null, "tri_facility_id": "02142PTRGR300TH"}}, {"type": "Feature", "geometry": {"type": "Point", "coordinates": [-71.083611, 42.366111]}, "properties": {"facility_name": "AMERICAN ENGINEERED COMPONENTS INC", "industry": null, "tri_facility_id": "02142TRWNC265TH"}}, {"type": "Feature", "geometry": {"type": "Point", "coordinates": [-71.0973, 42.3813]}, "properties": {"facility_name": "BAY STATE SMELTING CO INC", "industry": null, "tri_facility_id": "02143BYSTTBLEAC"}}, {"type": "Feature", "geometry": {"type": "Point", "coordinates": [-71.085556, 42.376667]}, "properties": {"facility_name": "AMERICAN ELECTROPLATING CO", "industry": null, "tri_facility_id": "02143MRCNL26CHE"}}, {"type": "Feature", "geometry": {"type": "Point", "coordinates": [-71.083333, 42.383333]}, "properties": {"facility_name": "UNITED LITHOGRAPH", "industry": null, "tri_facility_id": "02143NTDLT48THI"}}, {"type": "Feature", "geometry": {"type": "Point", "coordinates": [-71.08805555555556, 42.4175]}, "properties": {"facility_name": "JOHN DANAIS CO INC", "industry": null, "tri_facility_id": "02145JHNJD50TUF"}}, {"type": "Feature", "geometry": {"type": "Point", "coordinates": [-71.104167, 42.4]}, "properties": {"facility_name": "ROGERS FOAM CORP", "industry": null, "tri_facility_id": "02145RGRSF20VER"}}, {"type": "Feature", "geometry": {"type": "Point", "coordinates": [-71.094444, 42.388889]}, "properties": {"facility_name": "LINVURE CO INC", "industry": null, "tri_facility_id": "02145THLNV61CLY"}}, {"type": "Feature", "geometry": {"type": "Point", "coordinates": [-71.046667, 42.429167]}, "properties": {"facility_name": "FM CALLAHAN & SON INC", "industry": null, "tri_facility_id": "02148FMCLL22SHA"}}, {"type": "Feature", "geometry": {"type": "Point", "coordinates": [-71.076111, 42.418056]}, "properties": {"facility_name": "HOPWOOD GLOBE LTD", "industry": null, "tri_facility_id": "02148HPWDG303CO"}}, {"type": "Feature", "geometry": {"type": "Point", "coordinates": [-71.070833, 42.420833]}, "properties": {"facility_name": "ROHM TECH INC", "industry": null, "tri_facility_id": "02148RHMTC195CA"}}, {"type": "Feature", "geometry": {"type": "Point", "coordinates": [-71.067222, 42.435556]}, "properties": {"facility_name": "STERLING-CLARK-LURTON CORP", "industry": null, "tri_facility_id": "02148STRLN184CO"}}, {"type": "Feature", "geometry": {"type": "Point", "coordinates": [-71.038611, 42.430556]}, "properties": {"facility_name": "EASTERN CHEM-LAC", "industry": null, "tri_facility_id": "02148STRNC1100E"}}, {"type": "Feature", "geometry": {"type": "Point", "coordinates": [-71.056389, 42.401389]}, "properties": {"facility_name": "DAMPNEY CO INC", "industry": null, "tri_facility_id": "02149DMPNY85PAR"}}, {"type": "Feature", "geometry": {"type": "Point", "coordinates": [-71.068056, 42.407222]}, "properties": {"facility_name": "DUNCAN GALVANIZING CORP.", "industry": null, "tri_facility_id": "02149DNCNG69NOR"}}, {"type": "Feature", "geometry": {"type": "Point", "coordinates": [-71.05777777777777, 42.39]}, "properties": {"facility_name": "HOLCIM - NER INC.", "industry": null, "tri_facility_id": "02149GGRGT201BR"}}, {"type": "Feature", "geometry": {"type": "Point", "coordinates": [-71.067164, 42.410611]}, "properties": {"facility_name": "GE CO", "industry": null, "tri_facility_id": "02149GNRLL62TRE"}}, {"type": "Feature", "geometry": {"type": "Point", "coordinates": [-71.06388888888888, 42.400277777777774]}, "properties": {"facility_name": "HUB FABRIC LEATHER CO INC", "industry": null, "tri_facility_id": "02149HBFBR7CHAR"}}, {"type": "Feature", "geometry": {"type": "Point", "coordinates": [-71.053056, 42.400556]}, "properties": {"facility_name": "BAYSTATE GALVANIZING INC", "industry": null, "tri_facility_id": "02149LDKTG12813"}}, {"type": "Feature", "geometry": {"type": "Point", "coordinates": [-71.051667, 42.400833]}, "properties": {"facility_name": "LEE PRODUCTS CO", "industry": null, "tri_facility_id": "02149LPRDC380SE"}}, {"type": "Feature", "geometry": {"type": "Point", "coordinates": [-71.073611, 42.383611]}, "properties": {"facility_name": "MONSANTO CO", "industry": null, "tri_facility_id": "02149MNSNTMYSTI"}}, {"type": "Feature", "geometry": {"type": "Point", "coordinates": [-71.051111, 42.408333]}, "properties": {"facility_name": "MARKET FORGE INDUSTRIES INC", "industry": null, "tri_facility_id": "02149MRKTF35GAR"}}, {"type": "Feature", "geometry": {"type": "Point", "coordinates": [-71.05916666666667, 42.39833333333333]}, "properties": {"facility_name": "MERRILL COMMUNICATIONS LLC", "industry": null, "tri_facility_id": "02149MRRLL4CMME"}}, {"type": "Feature", "geometry": {"type": "Point", "coordinates": [-71.048889, 42.398889]}, "properties": {"facility_name": "NUBRITE CHEMICAL KYANIZE PAINTS DIV", "industry": null, "tri_facility_id": "02149NBRTCSECON"}}, {"type": "Feature", "geometry": {"type": "Point", "coordinates": [-71.05722222222222, 42.38972222222222]}, "properties": {"facility_name": "OSSIPEE AGGREGATES", "industry": null, "tri_facility_id": "02149SSPGG201RO"}}, {"type": "Feature", "geometry": {"type": "Point", "coordinates": [-71.0525, 42.401389]}, "properties": {"facility_name": "W A WOOD CO", "industry": null, "tri_facility_id": "02149WWDCM108SP"}}, {"type": "Feature", "geometry": {"type": "Point", "coordinates": [-71.0611111111111, 42.39722222222222]}, "properties": {"facility_name": "EXXON MOBIL CORP EVERETT TERMINAL", "industry": null, "tri_facility_id": "02149XXNCS52BEA"}}, {"type": "Feature", "geometry": {"type": "Point", "coordinates": [-71.109, 42.4235]}, "properties": {"facility_name": "BOSTON RETAIL PRODUCTS", "industry": null, "tri_facility_id": "02155BSTNR400RI"}}, {"type": "Feature", "geometry": {"type": "Point", "coordinates": [-71.079893, 42.413668]}, "properties": {"facility_name": "GE CO", "industry": null, "tri_facility_id": "02155GNRLL320MI"}}, {"type": "Feature", "geometry": {"type": "Point", "coordinates": [-71.106111, 42.404444]}, "properties": {"facility_name": "MATERIALS DEVELOPMENT CORP", "industry": null, "tri_facility_id": "02155MTRLS81HIC"}}, {"type": "Feature", "geometry": {"type": "Point", "coordinates": [-71.076849, 42.40745]}, "properties": {"facility_name": "MYSTIC PLATING CORP", "industry": null, "tri_facility_id": "02155MYSTC213CO"}}, {"type": "Feature", "geometry": {"type": "Point", "coordinates": [-71.108333, 42.413889]}, "properties": {"facility_name": "TRA-CON INC", "industry": null, "tri_facility_id": "02155TRCNN55NOR"}}, {"type": "Feature", "geometry": {"type": "Point", "coordinates": [-71.06777777777778, 42.4525]}, "properties": {"facility_name": "MICROSEMI CDI", "industry": null, "tri_facility_id": "02176MCRSM22COR"}}, {"type": "Feature", "geometry": {"type": "Point", "coordinates": [-71.07138888888889, 42.441111111111105]}, "properties": {"facility_name": "RWA INC", "industry": null, "tri_facility_id": "02176RWNCX37WAS"}}, {"type": "Feature", "geometry": {"type": "Point", "coordinates": [-71.058333, 42.35]}, "properties": {"facility_name": "THE GILLETTE CO LLC", "industry": null, "tri_facility_id": "02106THGLLGILLE"}}, {"type": "Feature", "geometry": {"type": "Point", "coordinates": [-71.025505, 42.375332]}, "properties": {"facility_name": "USAIR HANGAR", "industry": null, "tri_facility_id": "02108SRHNG180PR"}}, {"type": "Feature", "geometry": {"type": "Point", "coordinates": [-71.06333333333333, 42.34583333333334]}, "properties": {"facility_name": "TERADYNE, INC", "industry": null, "tri_facility_id": "02108TRDYN321HA"}}, {"type": "Feature", "geometry": {"type": "Point", "coordinates": [-71.045556, 42.348056]}, "properties": {"facility_name": "TERADYNE, INC.", "industry": null, "tri_facility_id": "02111TRDYN179LI"}}, {"type": "Feature", "geometry": {"type": "Point", "coordinates": [-71.048333, 42.346111]}, "properties": {"facility_name": "CONTI CAST CORPORATION METALONICS DIV", "industry": null, "tri_facility_id": "02127MTLNC40WTH"}}, {"type": "Feature", "geometry": {"type": "Point", "coordinates": [-71.034167, 42.383333]}, "properties": {"facility_name": "MOBIL OIL CORP EAST BOSTON LUBE PLANT", "industry": null, "tri_facility_id": "02128MBLST580CH"}}, {"type": "Feature", "geometry": {"type": "Point", "coordinates": [-71.0125, 42.375]}, "properties": {"facility_name": "NORTHWEST AIRLINES INC", "industry": null, "tri_facility_id": "02128NRTHWTERMI"}}, {"type": "Feature", "geometry": {"type": "Point", "coordinates": [-71.075278, 42.387778]}, "properties": {"facility_name": "FEDERAL METAL FINISHING INC", "industry": null, "tri_facility_id": "02129FDRLM18DOR"}}, {"type": "Feature", "geometry": {"type": "Point", "coordinates": [-71.071278, 42.3826]}, "properties": {"facility_name": "H P HOOD INC", "industry": null, "tri_facility_id": "02129HPHDN500RU"}}, {"type": "Feature", "geometry": {"type": "Point", "coordinates": [-71.05777777777777, 42.39111111111111]}, "properties": {"facility_name": "MYSTIC STATION", "industry": null, "tri_facility_id": "02129MYSTC173AL"}}, {"type": "Feature", "geometry": {"type": "Point", "coordinates": [-71.05, 42.383333]}, "properties": {"facility_name": "UNITED STATES GYPSUM CO", "industry": null, "tri_facility_id": "02129NTDST200TE"}}, {"type": "Feature", "geometry": {"type": "Point", "coordinates": [-71.074167, 42.386944]}, "properties": {"facility_name": "WHITTEMORE-WRIGHT CO INC", "industry": null, "tri_facility_id": "02129WHTTM62ALF"}}, {"type": "Feature", "geometry": {"type": "Point", "coordinates": [-71.05, 42.35]}, "properties": {"facility_name": "NEW BALANCE ATHLETIC SHOE INC", "industry": null, "tri_facility_id": "02135NWBLN65NBE"}}, {"type": "Feature", "geometry": {"type": "Point", "coordinates": [-71.042222, 42.399444]}, "properties": {"facility_name": "CHELSEA CLOCK LLC", "industry": null, "tri_facility_id": "02150CHLSC284EV"}}, {"type": "Feature", "geometry": {"type": "Point", "coordinates": [-71.04527777777777, 42.38611111111111]}, "properties": {"facility_name": "CHELSEA SANDWICH LLC", "industry": null, "tri_facility_id": "02150CHLSS11BRO"}}, {"type": "Feature", "geometry": {"type": "Point", "coordinates": [-71.01805555555555, 42.39277777777778]}, "properties": {"facility_name": "GLOBAL COS LLC - CHELSEA EASTERN AVE TERMINAL", "industry": null, "tri_facility_id": "02150GLFLL281EA"}}, {"type": "Feature", "geometry": {"type": "Point", "coordinates": [-71.021843, 42.394766]}, "properties": {"facility_name": "GLYPTAL INC", "industry": null, "tri_facility_id": "02150GLYPT305EA"}}, {"type": "Feature", "geometry": {"type": "Point", "coordinates": [-71.046111, 42.387222]}, "properties": {"facility_name": "MODINE NORTHEAST INC", "industry": null, "tri_facility_id": "02150MDNNR25ARL"}}, {"type": "Feature", "geometry": {"type": "Point", "coordinates": [-71.019521, 42.402461]}, "properties": {"facility_name": "AMERICAN FINISH & CHEMICAL CORP", "industry": null, "tri_facility_id": "02150MRCNF1012B"}}, {"type": "Feature", "geometry": {"type": "Point", "coordinates": [-71.025556, 42.395833]}, "properties": {"facility_name": "MARSON CORP MARVEL CORP", "industry": null, "tri_facility_id": "02150MRSNC130CR"}}, {"type": "Feature", "geometry": {"type": "Point", "coordinates": [-71.021667, 42.399722]}, "properties": {"facility_name": "EMTEX", "industry": null, "tri_facility_id": "02150MTXXX181SP"}}, {"type": "Feature", "geometry": {"type": "Point", "coordinates": [-71.023889, 42.387222]}, "properties": {"facility_name": "BILTRITE CORP", "industry": null, "tri_facility_id": "02150THBLT31HIG"}}, {"type": "Feature", "geometry": {"type": "Point", "coordinates": [-71.03, 42.39944444444444]}, "properties": {"facility_name": "WATER CHEMICALS INC", "industry": null, "tri_facility_id": "02150WTRCH1556T"}}, {"type": "Feature", "geometry": {"type": "Point", "coordinates": [-71.0111111111111, 42.39861111111111]}, "properties": {"facility_name": "GLOBAL COMPANIES LLC", "industry": null, "tri_facility_id": "02151GLBLP140LE"}}, {"type": "Feature", "geometry": {"type": "Point", "coordinates": [-71.00916666666667, 42.3975]}, "properties": {"facility_name": "IRVING OIL TERMINALS INC.", "industry": null, "tri_facility_id": "02151RVNGL41LEE"}}, {"type": "Feature", "geometry": {"type": "Point", "coordinates": [-71.03722222222223, 42.34527777777778]}, "properties": {"facility_name": "ADCOTRON EMS INC", "industry": null, "tri_facility_id": "02210DVNCD12CHA"}}]}