{"type": "FeatureCollection", "features": [{"type": "Feature", "properties": {"area_id": 6595, "city": "Albany", "state": "NY", "city_survey": true, "cat": "Best", "grade": "A", "label": "A1", "res": true, "com": false, "ind": false, "holc_grade": "A"}, "geometry": {"type": "Polygon", "coordinates": [[[-73.79228, 42.63938], [-73.79944, 42.64283], [-73.7995, 42.64265], [-73.805129, 42.645301], [-73.82345, 42.65393], [-73.81783, 42.65347], [-73.81441, 42.65699], [-73.80366, 42.65161], [-73.802999, 42.652397], [-73.80134, 42.65437], [-73.79991, 42.65564], [-73.79576, 42.65933], [-73.794935, 42.658831], [-73.79427, 42.65843], [-73.79632, 42.65651], [-73.79528, 42.65594], [-73.795904, 42.654593], [-73.79591, 42.65458], [-73.79888, 42.65056], [-73.78653, 42.64519], [-73.786367, 42.64512], [-73.78486, 42.64447], [-73.78546, 42.644058], [-73.788726, 42.641818], [-73.79228, 42.63938]]]}}, {"type": "Feature", "properties": {"area_id": 6601, "city": "Albany", "state": "NY", "city_survey": true, "cat": "Best", "grade": "A", "label": "A2", "res": true, "com": false, "ind": false, "holc_grade": "A"}, "geometry": {"type": "Polygon", "coordinates": [[[-73.80387, 42.65721], [-73.79991, 42.65564], [-73.80134, 42.65437], [-73.802999, 42.652397], [-73.80366, 42.65161], [-73.81441, 42.65699], [-73.81783, 42.65347], [-73.82345, 42.65393], [-73.824928, 42.656836], [-73.82585, 42.65865], [-73.821551, 42.659714], [-73.81587, 42.66112], [-73.81308, 42.66383], [-73.81293, 42.66369], [-73.80889, 42.66752], [-73.80737, 42.66667], [-73.801744, 42.663525], [-73.80018, 42.66265], [-73.80387, 42.65721]]]}}, {"type": "Feature", "properties": {"area_id": 6602, "city": "Albany", "state": "NY", "city_survey": true, "cat": "Best", "grade": "A", "label": "A3", "res": true, "com": false, "ind": false, "holc_grade": "A"}, "geometry": {"type": "Polygon", "coordinates": [[[-73.80018, 42.66265], [-73.801744, 42.663525], [-73.80737, 42.66667], [-73.80405, 42.66995], [-73.806797, 42.670822], [-73.80701, 42.67089], [-73.806659, 42.671204], [-73.80038, 42.67682], [-73.79977, 42.67713], [-73.799284, 42.67755], [-73.79364, 42.68242], [-73.792164, 42.681142], [-73.78822, 42.67773], [-73.78779, 42.67763], [-73.78694, 42.67692], [-73.78733, 42.67659], [-73.78767, 42.67634], [-73.78822, 42.67669], [-73.79216, 42.67309], [-73.791047, 42.672418], [-73.79037, 42.67201], [-73.795044, 42.667521], [-73.79518, 42.66739], [-73.79989, 42.66291], [-73.80018, 42.66265]]]}}, {"type": "Feature", "properties": {"area_id": 6590, "city": "Albany", "state": "NY", "city_survey": true, "cat": "Best", "grade": "A", "label": "A4", "res": true, "com": false, "ind": false, "holc_grade": "A"}, "geometry": {"type": "Polygon", "coordinates": [[[-73.80316, 42.63077], [-73.80306, 42.62932], [-73.80289, 42.62781], [-73.80653, 42.62748], [-73.81024, 42.62729], [-73.81244, 42.62727], [-73.812677, 42.628842], [-73.81272, 42.62913], [-73.81501, 42.62898], [-73.82321, 42.62592], [-73.82508, 42.62793], [-73.82531, 42.62953], [-73.82531, 42.63113], [-73.82516, 42.63236], [-73.82486, 42.63344], [-73.81903, 42.63369], [-73.81326, 42.63398], [-73.809468, 42.6342], [-73.8062, 42.63439], [-73.80216, 42.6347], [-73.802251, 42.634492], [-73.80266, 42.63356], [-73.802939, 42.632533], [-73.80301, 42.63227], [-73.80316, 42.63077]]]}}, {"type": "Feature", "properties": {"area_id": 6587, "city": "Albany", "state": "NY", "city_survey": true, "cat": "Best", "grade": "A", "label": "A5", "res": true, "com": false, "ind": false, "holc_grade": "A"}, "geometry": {"type": "Polygon", "coordinates": [[[-73.82249, 42.6206], [-73.82098, 42.62067], [-73.82092, 42.6194], [-73.82116, 42.61805], [-73.82164, 42.61674], [-73.82217, 42.61567], [-73.82276, 42.61483], [-73.83554, 42.61494], [-73.85105, 42.61464], [-73.85036, 42.61582], [-73.84635, 42.61702], [-73.84475, 42.61761], [-73.84282, 42.61822], [-73.839065, 42.619582], [-73.83287, 42.62183], [-73.831281, 42.621418], [-73.82731, 42.62039], [-73.82249, 42.6206]]]}}, {"type": "Feature", "properties": {"area_id": 6576, "city": "Albany", "state": "NY", "city_survey": true, "cat": "Best", "grade": "A", "label": "A6", "res": true, "com": false, "ind": false, "holc_grade": "A"}, "geometry": {"type": "Polygon", "coordinates": [[[-73.751724, 42.68287], [-73.760665, 42.685986], [-73.76211, 42.68649], [-73.77829, 42.69982], [-73.773653, 42.701088], [-73.758, 42.70537], [-73.752914, 42.690906], [-73.74986, 42.68222], [-73.751724, 42.68287]]]}}, {"type": "Feature", "properties": {"area_id": 6596, "city": "Albany", "state": "NY", "city_survey": true, "cat": "Still Desirable", "grade": "B", "label": "B1", "res": true, "com": false, "ind": false, "holc_grade": "B"}, "geometry": {"type": "Polygon", "coordinates": [[[-73.79591, 42.65458], [-73.795904, 42.654593], [-73.79528, 42.65594], [-73.79632, 42.65651], [-73.79427, 42.65843], [-73.794935, 42.658831], [-73.79576, 42.65933], [-73.79991, 42.65564], [-73.80387, 42.65721], [-73.80018, 42.66265], [-73.79989, 42.66291], [-73.79534, 42.66029], [-73.7946, 42.65994], [-73.793978, 42.659817], [-73.79359, 42.65974], [-73.79273, 42.65943], [-73.79148, 42.65889], [-73.79082, 42.65842], [-73.79074, 42.65836], [-73.78967, 42.65734], [-73.78709, 42.655832], [-73.78536, 42.65482], [-73.78447, 42.65565], [-73.78166, 42.653987], [-73.78153, 42.65391], [-73.7828, 42.65268], [-73.78485, 42.65273], [-73.78521, 42.64731], [-73.785643, 42.646615], [-73.78653, 42.64519], [-73.79888, 42.65056], [-73.79591, 42.65458]]]}}, {"type": "Feature", "properties": {"area_id": 6598, "city": "Albany", "state": "NY", "city_survey": true, "cat": "Still Desirable", "grade": "B", "label": "B2", "res": true, "com": false, "ind": false, "holc_grade": "B"}, "geometry": {"type": "Polygon", "coordinates": [[[-73.7861, 42.66286], [-73.78996, 42.65922], [-73.79082, 42.65842], [-73.79148, 42.65889], [-73.79273, 42.65943], [-73.79359, 42.65974], [-73.793978, 42.659817], [-73.7946, 42.65994], [-73.79534, 42.66029], [-73.79989, 42.66291], [-73.79518, 42.66739], [-73.79255, 42.66657], [-73.788985, 42.664527], [-73.78859, 42.6643], [-73.7861, 42.66286]]]}}, {"type": "Feature", "properties": {"area_id": 6600, "city": "Albany", "state": "NY", "city_survey": true, "cat": "Still Desirable", "grade": "B", "label": "B3", "res": true, "com": false, "ind": false, "holc_grade": "B"}, "geometry": {"type": "Polygon", "coordinates": [[[-73.79255, 42.66657], [-73.79518, 42.66739], [-73.795044, 42.667521], [-73.79037, 42.67201], [-73.791047, 42.672418], [-73.79216, 42.67309], [-73.78822, 42.67669], [-73.78767, 42.67634], [-73.78733, 42.67659], [-73.78588, 42.675235], [-73.77668, 42.66664], [-73.777, 42.66631], [-73.77802, 42.665273], [-73.7782, 42.66509], [-73.77986, 42.66589], [-73.78425, 42.66846], [-73.788531, 42.664356], [-73.78859, 42.6643], [-73.788985, 42.664527], [-73.79255, 42.66657]]]}}, {"type": "Feature", "properties": {"area_id": 6594, "city": "Albany", "state": "NY", "city_survey": true, "cat": "Still Desirable", "grade": "B", "label": "B4", "res": true, "com": false, "ind": false, "holc_grade": "B"}, "geometry": {"type": "Polygon", "coordinates": [[[-73.77679, 42.635722], [-73.77728, 42.63379], [-73.78142, 42.63459], [-73.78129, 42.63491], [-73.78711, 42.63626], [-73.78855, 42.6354], [-73.791332, 42.636994], [-73.79197, 42.63736], [-73.791095, 42.637862], [-73.790421, 42.638249], [-73.79021, 42.63837], [-73.791577, 42.639037], [-73.79228, 42.63938], [-73.788726, 42.641818], [-73.78546, 42.644058], [-73.78486, 42.64447], [-73.78469, 42.64458], [-73.782416, 42.64381], [-73.78218, 42.64373], [-73.78079, 42.64207], [-73.78512, 42.6405], [-73.78277, 42.63957], [-73.78253, 42.63946], [-73.776979, 42.63886], [-73.77633, 42.63879], [-73.77614, 42.63829], [-73.77679, 42.635722]]]}}, {"type": "Feature", "properties": {"area_id": 6589, "city": "Albany", "state": "NY", "city_survey": true, "cat": "Still Desirable", "grade": "B", "label": "B5", "res": true, "com": false, "ind": false, "holc_grade": "B"}, "geometry": {"type": "Polygon", "coordinates": [[[-73.82241, 42.62109], [-73.82253, 42.62192], [-73.822945, 42.624359], [-73.823175, 42.625714], [-73.82321, 42.62592], [-73.81501, 42.62898], [-73.81272, 42.62913], [-73.812677, 42.628842], [-73.81244, 42.62727], [-73.8121, 42.62507], [-73.81174, 42.62316], [-73.81156, 42.62236], [-73.8115, 42.62117], [-73.820425, 42.620699], [-73.82098, 42.62067], [-73.82249, 42.6206], [-73.82241, 42.62109]]]}}, {"type": "Feature", "properties": {"area_id": 6588, "city": "Albany", "state": "NY", "city_survey": true, "cat": "Still Desirable", "grade": "B", "label": "B6", "res": true, "com": false, "ind": false, "holc_grade": "B"}, "geometry": {"type": "Polygon", "coordinates": [[[-73.84635, 42.61702], [-73.85036, 42.61582], [-73.850308, 42.615922], [-73.84965, 42.61722], [-73.8493, 42.61875], [-73.84915, 42.61934], [-73.84924, 42.62023], [-73.84947, 42.62207], [-73.84959, 42.62354], [-73.8498, 42.62502], [-73.850029, 42.626372], [-73.85013, 42.62697], [-73.84329, 42.62732], [-73.83732, 42.62754], [-73.82995, 42.62778], [-73.82508, 42.62793], [-73.82321, 42.62592], [-73.823175, 42.625714], [-73.822945, 42.624359], [-73.82253, 42.62192], [-73.82241, 42.62109], [-73.82249, 42.6206], [-73.82731, 42.62039], [-73.831281, 42.621418], [-73.83287, 42.62183], [-73.839065, 42.619582], [-73.84282, 42.61822], [-73.84475, 42.61761], [-73.84635, 42.61702]]]}}, {"type": "Feature", "properties": {"area_id": 6580, "city": "Albany", "state": "NY", "city_survey": true, "cat": "Still Desirable", "grade": "B", "label": "B7", "res": true, "com": false, "ind": false, "holc_grade": "B"}, "geometry": {"type": "Polygon", "coordinates": [[[-73.70231, 42.65112], [-73.70947, 42.65304], [-73.70965, 42.65328], [-73.719558, 42.65598], [-73.71978, 42.65604], [-73.71971, 42.656172], [-73.718818, 42.65787], [-73.71622, 42.66281], [-73.702881, 42.660565], [-73.69988, 42.66006], [-73.70231, 42.65112]]]}}, {"type": "Feature", "properties": {"area_id": 6597, "city": "Albany", "state": "NY", "city_survey": true, "cat": "Definitely Declining", "grade": "C", "label": "C1", "res": true, "com": false, "ind": false, "holc_grade": "C"}, "geometry": {"type": "Polygon", "coordinates": [[[-73.77502, 42.65645], [-73.77679, 42.65472], [-73.77924, 42.65609], [-73.78153, 42.65391], [-73.78166, 42.653987], [-73.78447, 42.65565], [-73.78355, 42.65657], [-73.785272, 42.657562], [-73.78735, 42.65876], [-73.788, 42.6581], [-73.78996, 42.65922], [-73.7861, 42.66286], [-73.782102, 42.660548], [-73.777508, 42.657892], [-73.77728, 42.65776], [-73.77502, 42.65645]]]}}, {"type": "Feature", "properties": {"area_id": 6599, "city": "Albany", "state": "NY", "city_survey": true, "cat": "Definitely Declining", "grade": "C", "label": "C2", "res": true, "com": false, "ind": false, "holc_grade": "C"}, "geometry": {"type": "Polygon", "coordinates": [[[-73.782102, 42.660548], [-73.7861, 42.66286], [-73.78859, 42.6643], [-73.788531, 42.664356], [-73.78425, 42.66846], [-73.77986, 42.66589], [-73.7782, 42.66509], [-73.77802, 42.665273], [-73.777, 42.66631], [-73.776506, 42.665809], [-73.77332, 42.66258], [-73.77461, 42.66137], [-73.774008, 42.661186], [-73.77088, 42.66023], [-73.7701, 42.65975], [-73.77212, 42.65787], [-73.7752, 42.6597], [-73.777178, 42.657855], [-73.77728, 42.65776], [-73.777508, 42.657892], [-73.782102, 42.660548]]]}}, {"type": "Feature", "properties": {"area_id": 6592, "city": "Albany", "state": "NY", "city_survey": true, "cat": "Definitely Declining", "grade": "C", "label": "C3", "res": true, "com": false, "ind": false, "holc_grade": "C"}, "geometry": {"type": "Polygon", "coordinates": [[[-73.77614, 42.63829], [-73.77633, 42.63879], [-73.77762, 42.64216], [-73.77085, 42.64311], [-73.772934, 42.644737], [-73.77504, 42.646382], [-73.77523, 42.64653], [-73.77437, 42.65029], [-73.77365, 42.65282], [-73.77679, 42.65472], [-73.77502, 42.65645], [-73.767731, 42.652195], [-73.7675, 42.65206], [-73.768749, 42.649292], [-73.76889, 42.64898], [-73.77051, 42.64545], [-73.76888, 42.64505], [-73.76896, 42.644846], [-73.76906, 42.64459], [-73.765473, 42.643609], [-73.76482, 42.64343], [-73.765564, 42.64188], [-73.76724, 42.63839], [-73.77595, 42.6388], [-73.77614, 42.63829]]]}}, {"type": "Feature", "properties": {"area_id": 6593, "city": "Albany", "state": "NY", "city_survey": true, "cat": "Definitely Declining", "grade": "C", "label": "C4", "res": true, "com": false, "ind": false, "holc_grade": "C"}, "geometry": {"type": "Polygon", "coordinates": [[[-73.77762, 42.64216], [-73.77633, 42.63879], [-73.776979, 42.63886], [-73.78253, 42.63946], [-73.78277, 42.63957], [-73.78512, 42.6405], [-73.78079, 42.64207], [-73.78218, 42.64373], [-73.77703, 42.645805], [-73.77523, 42.64653], [-73.77504, 42.646382], [-73.772934, 42.644737], [-73.77085, 42.64311], [-73.77762, 42.64216]]]}}, {"type": "Feature", "properties": {"area_id": 6583, "city": "Albany", "state": "NY", "city_survey": true, "cat": "Definitely Declining", "grade": "C", "label": "C5", "res": true, "com": false, "ind": false, "holc_grade": "C"}, "geometry": {"type": "Polygon", "coordinates": [[[-73.74486, 42.67185], [-73.740528, 42.67847], [-73.74024, 42.67891], [-73.73518, 42.67743], [-73.735489, 42.676962], [-73.73995, 42.6702], [-73.74486, 42.67185]]]}}, {"type": "Feature", "properties": {"area_id": 6603, "city": "Albany", "state": "NY", "city_survey": true, "cat": "Definitely Declining", "grade": "C", "label": "C6", "res": true, "com": false, "ind": false, "holc_grade": "C"}, "geometry": {"type": "Polygon", "coordinates": [[[-73.80737, 42.66667], [-73.80889, 42.66752], [-73.81293, 42.66369], [-73.81308, 42.66383], [-73.81587, 42.66112], [-73.821551, 42.659714], [-73.82585, 42.65865], [-73.825744, 42.659439], [-73.82526, 42.66305], [-73.826377, 42.663561], [-73.83742, 42.66861], [-73.836252, 42.670123], [-73.83133, 42.6765], [-73.826597, 42.677565], [-73.82644, 42.6776], [-73.826428, 42.677596], [-73.825863, 42.677425], [-73.82074, 42.67587], [-73.81542, 42.6808], [-73.8171, 42.68172], [-73.813007, 42.685481], [-73.80883, 42.68932], [-73.79828, 42.68764], [-73.79325, 42.68334], [-73.79403, 42.68282], [-73.79364, 42.68242], [-73.799284, 42.67755], [-73.79977, 42.67713], [-73.80038, 42.67682], [-73.806659, 42.671204], [-73.80701, 42.67089], [-73.806797, 42.670822], [-73.80405, 42.66995], [-73.80737, 42.66667]]]}}, {"type": "Feature", "properties": {"area_id": 6577, "city": "Albany", "state": "NY", "city_survey": true, "cat": "Definitely Declining", "grade": "C", "label": "C7", "res": true, "com": false, "ind": false, "holc_grade": "C"}, "geometry": {"type": "Polygon", "coordinates": [[[-73.79992, 42.68842], [-73.800457, 42.688884], [-73.80758, 42.69504], [-73.80733, 42.695231], [-73.80212, 42.69922], [-73.79608, 42.6959], [-73.791602, 42.688101], [-73.7914, 42.68775], [-73.79992, 42.68842]]]}}, {"type": "Feature", "properties": {"area_id": 6581, "city": "Albany", "state": "NY", "city_survey": true, "cat": "Definitely Declining", "grade": "C", "label": "C8", "res": true, "com": false, "ind": false, "holc_grade": "C"}, "geometry": {"type": "Polygon", "coordinates": [[[-73.72093, 42.65887], [-73.72956, 42.65278], [-73.73238, 42.65363], [-73.73367, 42.65087], [-73.73477, 42.65125], [-73.73129, 42.65773], [-73.7234, 42.66028], [-73.72093, 42.65887]]]}}, {"type": "Feature", "properties": {"area_id": 6579, "city": "Albany", "state": "NY", "city_survey": true, "cat": "Definitely Declining", "grade": "C", "label": "C9", "res": true, "com": false, "ind": false, "holc_grade": "C"}, "geometry": {"type": "Polygon", "coordinates": [[[-73.732602, 42.617807], [-73.73591, 42.62129], [-73.73439, 42.62304], [-73.73308, 42.62446], [-73.73095, 42.6265], [-73.72881, 42.62851], [-73.72447, 42.6258], [-73.72168, 42.62403], [-73.72126, 42.62383], [-73.71894, 42.6232], [-73.71948, 42.62199], [-73.71686, 42.61456], [-73.72179, 42.61404], [-73.72206, 42.6139], [-73.72322, 42.61399], [-73.72812, 42.61329], [-73.730383, 42.615524], [-73.73118, 42.61631], [-73.732602, 42.617807]]]}}, {"type": "Feature", "properties": {"area_id": 6586, "city": "Albany", "state": "NY", "city_survey": true, "cat": "Hazardous", "grade": "D", "label": "D1", "res": true, "com": false, "ind": false, "holc_grade": "D"}, "geometry": {"type": "Polygon", "coordinates": [[[-73.778652, 42.67083], [-73.78609, 42.67731], [-73.7858, 42.67749], [-73.78536, 42.67749], [-73.78204, 42.67956], [-73.780707, 42.678875], [-73.777441, 42.677197], [-73.775168, 42.676029], [-73.77295, 42.67489], [-73.76795, 42.67286], [-73.755287, 42.669516], [-73.75485, 42.6694], [-73.75627, 42.66805], [-73.757313, 42.666991], [-73.762645, 42.661574], [-73.76513, 42.65905], [-73.768816, 42.662261], [-73.778652, 42.67083]]]}}, {"type": "Feature", "properties": {"area_id": 6585, "city": "Albany", "state": "NY", "city_survey": true, "cat": "Hazardous", "grade": "D", "label": "D2", "res": true, "com": false, "ind": false, "holc_grade": "D"}, "geometry": {"type": "Polygon", "coordinates": [[[-73.75389, 42.65337], [-73.762047, 42.657893], [-73.76242, 42.6581], [-73.76328, 42.6573], [-73.76513, 42.65905], [-73.762645, 42.661574], [-73.757313, 42.666991], [-73.75627, 42.66805], [-73.744543, 42.663019], [-73.74429, 42.66291], [-73.74871, 42.65798], [-73.74918, 42.65455], [-73.749966, 42.654569], [-73.75085, 42.65459], [-73.75156, 42.65312], [-73.75299, 42.65427], [-73.753118, 42.654142], [-73.75389, 42.65337]]]}}, {"type": "Feature", "properties": {"area_id": 6584, "city": "Albany", "state": "NY", "city_survey": true, "cat": "Hazardous", "grade": "D", "label": "D3", "res": true, "com": false, "ind": false, "holc_grade": "D"}, "geometry": {"type": "Polygon", "coordinates": [[[-73.74168, 42.66757], [-73.74455, 42.66855], [-73.74486, 42.67185], [-73.73995, 42.6702], [-73.74168, 42.66757]]]}}, {"type": "Feature", "properties": {"area_id": 6578, "city": "Albany", "state": "NY", "city_survey": true, "cat": "Hazardous", "grade": "D", "label": "D4", "res": true, "com": false, "ind": false, "holc_grade": "D"}, "geometry": {"type": "Polygon", "coordinates": [[[-73.75471, 42.63684], [-73.757048, 42.637465], [-73.757368, 42.637551], [-73.75744, 42.63757], [-73.75828, 42.63803], [-73.758253, 42.638077], [-73.754, 42.64553], [-73.752849, 42.645208], [-73.74993, 42.64439], [-73.750196, 42.64397], [-73.753995, 42.63797], [-73.75471, 42.63684]]]}}, {"type": "Feature", "properties": {"area_id": 6591, "city": "Albany", "state": "NY", "city_survey": true, "cat": "Hazardous", "grade": "D", "label": "D5", "res": true, "com": false, "ind": false, "holc_grade": "D"}, "geometry": {"type": "Polygon", "coordinates": [[[-73.76951, 42.63365], [-73.76724, 42.63839], [-73.765564, 42.64188], [-73.76482, 42.64343], [-73.765473, 42.643609], [-73.76906, 42.64459], [-73.76896, 42.644846], [-73.76888, 42.64505], [-73.76883, 42.64518], [-73.76271, 42.64357], [-73.76225, 42.64441], [-73.76385, 42.64744], [-73.76577, 42.64718], [-73.76889, 42.64898], [-73.768749, 42.649292], [-73.7675, 42.65206], [-73.762156, 42.649001], [-73.75894, 42.64716], [-73.757404, 42.646559], [-73.756945, 42.646379], [-73.756516, 42.646211], [-73.75511, 42.64566], [-73.75925, 42.63835], [-73.760768, 42.637099], [-73.76424, 42.63424], [-73.76531, 42.63231], [-73.76951, 42.63365]]]}}, {"type": "Feature", "properties": {"area_id": 6582, "city": "Albany", "state": "NY", "city_survey": true, "cat": "Hazardous", "grade": "D", "label": "D6", "res": true, "com": false, "ind": false, "holc_grade": "D"}, "geometry": {"type": "Polygon", "coordinates": [[[-73.74259, 42.63171], [-73.73846, 42.64525], [-73.740224, 42.645815], [-73.740264, 42.645828], [-73.74027, 42.64583], [-73.740256, 42.645859], [-73.73461, 42.65747], [-73.72999, 42.65991], [-73.72425, 42.66078], [-73.7234, 42.66028], [-73.73129, 42.65773], [-73.73477, 42.65125], [-73.73367, 42.65087], [-73.72996, 42.64961], [-73.732183, 42.644167], [-73.73522, 42.63673], [-73.738135, 42.631731], [-73.73834, 42.63138], [-73.741406, 42.631618], [-73.74259, 42.63171]]]}}, {"type": "Feature", "properties": {"area_id": 11379, "city": "Albany", "state": "NY", "city_survey": true, "cat": "Commercial", "grade": null, "label": "Commercial", "res": false, "com": true, "ind": false, "holc_grade": null}, "geometry": {"type": "Polygon", "coordinates": [[[-73.7701, 42.65975], [-73.77088, 42.66023], [-73.774008, 42.661186], [-73.77461, 42.66137], [-73.77332, 42.66258], [-73.776506, 42.665809], [-73.777, 42.66631], [-73.77668, 42.66664], [-73.78588, 42.675235], [-73.78733, 42.67659], [-73.78694, 42.67692], [-73.786611, 42.677071], [-73.78609, 42.67731], [-73.778652, 42.67083], [-73.768816, 42.662261], [-73.76513, 42.65905], [-73.76328, 42.6573], [-73.76242, 42.6581], [-73.762047, 42.657893], [-73.75389, 42.65337], [-73.753118, 42.654142], [-73.75299, 42.65427], [-73.75156, 42.65312], [-73.75085, 42.65459], [-73.749966, 42.654569], [-73.74918, 42.65455], [-73.74809, 42.65432], [-73.74866, 42.6474], [-73.74901, 42.64549], [-73.74993, 42.64439], [-73.752849, 42.645208], [-73.754, 42.64553], [-73.75511, 42.64566], [-73.756516, 42.646211], [-73.756945, 42.646379], [-73.757404, 42.646559], [-73.75894, 42.64716], [-73.762156, 42.649001], [-73.7675, 42.65206], [-73.767731, 42.652194], [-73.76951, 42.65323], [-73.769366, 42.653372], [-73.76551, 42.65717], [-73.7701, 42.65975]]]}}, {"type": "Feature", "properties": {"area_id": 11425, "city": "Albany", "state": "NY", "city_survey": true, "cat": "Industrial", "grade": null, "label": "Industrial", "res": false, "com": false, "ind": true, "holc_grade": null}, "geometry": {"type": "MultiPolygon", "coordinates": [[[[-73.740161, 42.624911], [-73.74049, 42.62211], [-73.744039, 42.622462], [-73.75411, 42.62346], [-73.75278, 42.62654], [-73.75025, 42.6353], [-73.75002, 42.63698], [-73.74653, 42.64289], [-73.74353, 42.64921], [-73.74204, 42.65178], [-73.74122, 42.65166], [-73.739869, 42.653453], [-73.73957, 42.65385], [-73.73792, 42.65499], [-73.73694, 42.65662], [-73.73723, 42.65723], [-73.73289, 42.66077], [-73.72966, 42.66317], [-73.723775, 42.669546], [-73.72319, 42.67018], [-73.71775, 42.66787], [-73.718206, 42.667233], [-73.72117, 42.6631], [-73.72196, 42.66496], [-73.72294, 42.66461], [-73.72425, 42.66078], [-73.72999, 42.65991], [-73.73461, 42.65747], [-73.740256, 42.645859], [-73.74027, 42.64583], [-73.740264, 42.645828], [-73.740224, 42.645815], [-73.73846, 42.64525], [-73.74259, 42.63171], [-73.741383, 42.631619], [-73.74034, 42.63154], [-73.73989, 42.62722], [-73.740161, 42.624911]]], [[[-73.77295, 42.67489], [-73.775168, 42.676029], [-73.777441, 42.677197], [-73.780707, 42.678875], [-73.78204, 42.67956], [-73.78536, 42.67749], [-73.7858, 42.67749], [-73.78609, 42.67731], [-73.786611, 42.677071], [-73.78694, 42.67692], [-73.78822, 42.67773], [-73.792165, 42.681141], [-73.79258, 42.6815], [-73.786623, 42.685482], [-73.78199, 42.68858], [-73.777955, 42.685257], [-73.77065, 42.67924], [-73.770432, 42.679129], [-73.765206, 42.676464], [-73.76512, 42.67642], [-73.76232, 42.67888], [-73.75718, 42.67582], [-73.751775, 42.672384], [-73.74768, 42.66978], [-73.74468, 42.668601], [-73.74455, 42.66855], [-73.74168, 42.66757], [-73.73995, 42.6702], [-73.735489, 42.676962], [-73.73518, 42.67743], [-73.72557, 42.67449], [-73.726208, 42.673999], [-73.72912, 42.67176], [-73.73387, 42.66732], [-73.73542, 42.66517], [-73.73697, 42.66296], [-73.73818, 42.66112], [-73.740891, 42.657649], [-73.74182, 42.65646], [-73.74594, 42.64954], [-73.7467, 42.65005], [-73.74866, 42.6474], [-73.74809, 42.65432], [-73.74918, 42.65455], [-73.74871, 42.65798], [-73.74429, 42.66291], [-73.744543, 42.663019], [-73.75627, 42.66805], [-73.75485, 42.6694], [-73.755287, 42.669516], [-73.76795, 42.67286], [-73.77295, 42.67489]]], [[[-73.76424, 42.63424], [-73.760768, 42.637099], [-73.75925, 42.63835], [-73.75511, 42.64566], [-73.754, 42.64553], [-73.758253, 42.638077], [-73.75828, 42.63803], [-73.75744, 42.63757], [-73.757368, 42.637551], [-73.757048, 42.637465], [-73.75471, 42.63684], [-73.753995, 42.63797], [-73.750196, 42.64397], [-73.74993, 42.64439], [-73.74901, 42.64549], [-73.74876, 42.64395], [-73.748966, 42.643597], [-73.752499, 42.637534], [-73.75316, 42.6364], [-73.75424, 42.63374], [-73.75402, 42.63178], [-73.75478, 42.62862], [-73.75832, 42.62109], [-73.75908, 42.61633], [-73.764555, 42.616997], [-73.76466, 42.61701], [-73.764862, 42.620235], [-73.7651, 42.62405], [-73.76531, 42.63231], [-73.76424, 42.63424]]]]}}]}