{"type": "FeatureCollection", "features": [{"type": "Feature", "geometry": {"type": "Point", "coordinates": [-78.91388888888889, 35.09916666666667]}, "properties": {"facility_name": "ADAMS PRODUCTS CO - FAYETTEVILLE", "industry": null, "tri_facility_id": "28301DMSPR957CO"}}, {"type": "Feature", "geometry": {"type": "Point", "coordinates": [-78.82944444444443, 35.09861111111111]}, "properties": {"facility_name": "PUBLIC WORKS COMMISSION BUTLER-WARNER GENERATION PLANT", "industry": null, "tri_facility_id": "28301PBLCWSTATE"}}, {"type": "Feature", "geometry": {"type": "Point", "coordinates": [-78.861667, 35.028333]}, "properties": {"facility_name": "HEXION INC-FAYETTEVILLE FACILITY", "industry": null, "tri_facility_id": "28302BRDNN1411I"}}, {"type": "Feature", "geometry": {"type": "Point", "coordinates": [-78.8387, 35.0176]}, "properties": {"facility_name": "ALPEK POLYESTER USA LLC", "industry": null, "tri_facility_id": "28302CMRCSPOBOX"}}, {"type": "Feature", "geometry": {"type": "Point", "coordinates": [-78.862222, 35.0325]}, "properties": {"facility_name": "DARLING INGREDIENTS INC - FAYETTEVILLE FACILITY", "industry": null, "tri_facility_id": "28302CPFRF1309I"}}, {"type": "Feature", "geometry": {"type": "Point", "coordinates": [-78.9275, 35.075]}, "properties": {"facility_name": "CARGILL INC", "industry": null, "tri_facility_id": "28302CRGLLRIVER"}}, {"type": "Feature", "geometry": {"type": "Point", "coordinates": [-78.88194444444444, 35.04861111111111]}, "properties": {"facility_name": "UNIVAR USA INC FAYETTEVILLE FACILITY", "industry": null, "tri_facility_id": "28304PRLLM334WO"}}, {"type": "Feature", "geometry": {"type": "Point", "coordinates": [-78.92833333333334, 35.120555555555555]}, "properties": {"facility_name": "APAC FAYETTEVILLE ASPHALT PLANT", "industry": null, "tri_facility_id": "28305PCCRW6030M"}}, {"type": "Feature", "geometry": {"type": "Point", "coordinates": [-78.9017, 35.001]}, "properties": {"facility_name": "BLACK & DECKER (US) INC", "industry": null, "tri_facility_id": "28306BLCKDHWY30"}}, {"type": "Feature", "geometry": {"type": "Point", "coordinates": [-78.9187, 35.0142]}, "properties": {"facility_name": "MANN + HUMMEL PUROLATOR FILTERS LLC", "industry": null, "tri_facility_id": "28306FCTPR3200N"}}, {"type": "Feature", "geometry": {"type": "Point", "coordinates": [-78.85277777777777, 34.9925]}, "properties": {"facility_name": "W.R. GRACE & CO. - CONN. GRACE CONSTRUCTION PRODUCTS", "industry": null, "tri_facility_id": "28306WRGRC1541W"}}, {"type": "Feature", "geometry": {"type": "Point", "coordinates": [-78.894167, 34.996389]}, "properties": {"facility_name": "EATON - FAYETTEVILLE", "industry": null, "tri_facility_id": "28306WSTNG2900D"}}]}