{"type": "FeatureCollection", "features": [{"type": "Feature", "properties": {"area_id": 5091, "city": "Watertown", "state": "MA", "city_survey": true, "cat": "Still Desirable", "grade": "B", "label": "B1", "res": true, "com": false, "ind": false, "holc_grade": "B"}, "geometry": {"type": "Polygon", "coordinates": [[[-71.17033, 42.36762], [-71.17193, 42.36714], [-71.174308, 42.368909], [-71.17431, 42.36891], [-71.178341, 42.368271], [-71.17841, 42.36826], [-71.17989, 42.36758], [-71.181202, 42.368525], [-71.182475, 42.369441], [-71.182738, 42.369631], [-71.18364, 42.37028], [-71.183635, 42.370297], [-71.18346, 42.37085], [-71.18382, 42.37172], [-71.18319, 42.37218], [-71.1826, 42.37295], [-71.18206, 42.37269], [-71.1815, 42.37442], [-71.18376, 42.37581], [-71.18284, 42.37829], [-71.18281, 42.37921], [-71.18247, 42.38005], [-71.18048, 42.38022], [-71.17967, 42.38011], [-71.17899, 42.37991], [-71.17578, 42.37931], [-71.175589, 42.379257], [-71.17266, 42.37845], [-71.16931, 42.37747], [-71.16387, 42.37676], [-71.162078, 42.376733], [-71.16117, 42.37672], [-71.160932, 42.376649], [-71.1565, 42.37532], [-71.155697, 42.375227], [-71.154473, 42.375085], [-71.15443, 42.37508], [-71.154424, 42.375064], [-71.15383, 42.37334], [-71.15439, 42.37312], [-71.15663, 42.37223], [-71.159188, 42.370744], [-71.15966, 42.37047], [-71.160568, 42.370356], [-71.16085, 42.37032], [-71.161343, 42.370445], [-71.16302, 42.37087], [-71.163611, 42.37087], [-71.164097, 42.37087], [-71.16445, 42.37087], [-71.166239, 42.370134], [-71.16632, 42.3701], [-71.166334, 42.3701], [-71.17116, 42.37017], [-71.171047, 42.370059], [-71.17057, 42.36959], [-71.17048, 42.36907], [-71.17057, 42.36817], [-71.17033, 42.36762]]]}}, {"type": "Feature", "properties": {"area_id": 5093, "city": "Watertown", "state": "MA", "city_survey": true, "cat": "Definitely Declining", "grade": "C", "label": "C1", "res": true, "com": false, "ind": false, "holc_grade": "C"}, "geometry": {"type": "Polygon", "coordinates": [[[-71.21069, 42.36412], [-71.210865, 42.364177], [-71.211872, 42.364506], [-71.212795, 42.364808], [-71.213823, 42.365144], [-71.21424, 42.36528], [-71.21613, 42.3656], [-71.2173, 42.366512], [-71.21731, 42.36652], [-71.21724, 42.366573], [-71.216329, 42.367262], [-71.21167, 42.37079], [-71.210114, 42.3725], [-71.208825, 42.373917], [-71.20875, 42.374], [-71.204479, 42.377234], [-71.2013, 42.37964], [-71.1992, 42.38172], [-71.195365, 42.385059], [-71.19425, 42.38603], [-71.194214, 42.385994], [-71.19382, 42.3856], [-71.189447, 42.380704], [-71.18939, 42.38064], [-71.18675, 42.38024], [-71.18547, 42.38035], [-71.1841, 42.38016], [-71.18247, 42.38005], [-71.18281, 42.37921], [-71.18284, 42.37829], [-71.18376, 42.37581], [-71.1815, 42.37442], [-71.18206, 42.37269], [-71.1826, 42.37295], [-71.18319, 42.37218], [-71.18382, 42.37172], [-71.18346, 42.37085], [-71.183635, 42.370297], [-71.18364, 42.37028], [-71.182738, 42.369631], [-71.182475, 42.369441], [-71.181202, 42.368525], [-71.17989, 42.36758], [-71.17841, 42.36826], [-71.178341, 42.368271], [-71.17431, 42.36891], [-71.174308, 42.368909], [-71.17193, 42.36714], [-71.17173, 42.36687], [-71.17315, 42.36604], [-71.17407, 42.36624], [-71.17452, 42.36661], [-71.17496, 42.36703], [-71.17716, 42.36619], [-71.17758, 42.36551], [-71.17844, 42.3654], [-71.17894, 42.36492], [-71.17048, 42.36428], [-71.170528, 42.364166], [-71.17101, 42.36303], [-71.16813, 42.36239], [-71.168147, 42.362382], [-71.17158, 42.36086], [-71.17333, 42.36055], [-71.17372, 42.36314], [-71.17728, 42.36384], [-71.17874, 42.36057], [-71.18022, 42.36084], [-71.18171, 42.36145], [-71.18355, 42.36362], [-71.18479, 42.36406], [-71.1859, 42.364397], [-71.18604, 42.36444], [-71.18855, 42.36473], [-71.193396, 42.366499], [-71.19507, 42.36711], [-71.19566, 42.36772], [-71.196163, 42.367592], [-71.19625, 42.36757], [-71.196422, 42.367291], [-71.19667, 42.36689], [-71.19822, 42.36739], [-71.19964, 42.366804], [-71.20006, 42.36663], [-71.20212, 42.365935], [-71.2024, 42.36584], [-71.202628, 42.365818], [-71.20319, 42.365765], [-71.204468, 42.365643], [-71.20523, 42.36557], [-71.205721, 42.36516], [-71.206489, 42.364519], [-71.20668, 42.36436], [-71.20757, 42.3641], [-71.20927, 42.36434], [-71.209798, 42.364258], [-71.210505, 42.364149], [-71.21069, 42.36412]]]}}, {"type": "Feature", "properties": {"area_id": 5022, "city": "Watertown", "state": "MA", "city_survey": true, "cat": "Definitely Declining", "grade": "C", "label": "C2", "res": true, "com": false, "ind": false, "holc_grade": "C"}, "geometry": {"type": "Polygon", "coordinates": [[[-71.18368, 42.35888], [-71.190226, 42.360395], [-71.19519, 42.361543], [-71.19604, 42.36174], [-71.196038, 42.361742], [-71.19294, 42.36448], [-71.19009, 42.36469], [-71.18855, 42.36473], [-71.18604, 42.36444], [-71.1859, 42.364397], [-71.18479, 42.36406], [-71.18365, 42.36229], [-71.18359, 42.36107], [-71.18268, 42.3606], [-71.182633, 42.360081], [-71.18262, 42.35994], [-71.18342, 42.35914], [-71.18368, 42.35888]]]}}, {"type": "Feature", "properties": {"area_id": 5092, "city": "Watertown", "state": "MA", "city_survey": true, "cat": "Definitely Declining", "grade": "C", "label": "C3", "res": true, "com": false, "ind": false, "holc_grade": "C"}, "geometry": {"type": "Polygon", "coordinates": [[[-71.163611, 42.37087], [-71.16302, 42.37087], [-71.161343, 42.370445], [-71.16085, 42.37032], [-71.160568, 42.370356], [-71.15966, 42.37047], [-71.159188, 42.370744], [-71.15663, 42.37223], [-71.15439, 42.37312], [-71.15301, 42.3715], [-71.15496, 42.36943], [-71.15613, 42.3679], [-71.15877, 42.36771], [-71.15931, 42.36799], [-71.1596, 42.36615], [-71.16195, 42.36621], [-71.16189, 42.36553], [-71.166045, 42.365485], [-71.1692, 42.36545], [-71.17116, 42.36613], [-71.17173, 42.36687], [-71.17193, 42.36714], [-71.17033, 42.36762], [-71.17057, 42.36817], [-71.17048, 42.36907], [-71.17057, 42.36959], [-71.171047, 42.370059], [-71.17116, 42.37017], [-71.166334, 42.3701], [-71.16632, 42.3701], [-71.166239, 42.370134], [-71.16445, 42.37087], [-71.164097, 42.37087], [-71.163611, 42.37087]]]}}, {"type": "Feature", "properties": {"area_id": 5090, "city": "Watertown", "state": "MA", "city_survey": true, "cat": "Hazardous", "grade": "D", "label": "D1", "res": true, "com": false, "ind": false, "holc_grade": "D"}, "geometry": {"type": "Polygon", "coordinates": [[[-71.15068, 42.37326], [-71.15007, 42.37337], [-71.14945, 42.37189], [-71.15007, 42.37186], [-71.15083, 42.37147], [-71.15064, 42.37006], [-71.15007, 42.36898], [-71.1513, 42.36757], [-71.15244, 42.36743], [-71.15368, 42.36757], [-71.15297, 42.36578], [-71.15259, 42.36574], [-71.15182, 42.36564], [-71.15078, 42.36448], [-71.15111, 42.36427], [-71.15173, 42.36469], [-71.15392, 42.36476], [-71.15411, 42.36462], [-71.15301, 42.36241], [-71.15644, 42.36276], [-71.15672, 42.36557], [-71.15758, 42.36599], [-71.15613, 42.3679], [-71.15496, 42.36943], [-71.15301, 42.3715], [-71.15439, 42.37312], [-71.15383, 42.37334], [-71.15202, 42.37403], [-71.150291, 42.374466], [-71.14984, 42.37458], [-71.149897, 42.374444], [-71.15016, 42.37382], [-71.15068, 42.37326]]]}}, {"type": "Feature", "properties": {"area_id": 11595, "city": "Watertown", "state": "MA", "city_survey": true, "cat": "Commercial", "grade": null, "label": "Commercial", "res": false, "com": true, "ind": false, "holc_grade": null}, "geometry": {"type": "Polygon", "coordinates": [[[-71.15383, 42.37334], [-71.154424, 42.375064], [-71.15443, 42.37508], [-71.154366, 42.375072], [-71.15377, 42.375], [-71.15266, 42.37488], [-71.152093, 42.37482], [-71.14984, 42.37458], [-71.150291, 42.374466], [-71.15202, 42.37403], [-71.15383, 42.37334]]]}}, {"type": "Feature", "properties": {"area_id": 11596, "city": "Watertown", "state": "MA", "city_survey": true, "cat": "Industrial", "grade": null, "label": "Industrial", "res": false, "com": false, "ind": true, "holc_grade": null}, "geometry": {"type": "Polygon", "coordinates": [[[-71.17101, 42.36303], [-71.170528, 42.364166], [-71.17048, 42.36428], [-71.17894, 42.36492], [-71.17844, 42.3654], [-71.17758, 42.36551], [-71.17716, 42.36619], [-71.17496, 42.36703], [-71.17452, 42.36661], [-71.17407, 42.36624], [-71.17315, 42.36604], [-71.17173, 42.36687], [-71.17116, 42.36613], [-71.1692, 42.36545], [-71.166045, 42.365485], [-71.16189, 42.36553], [-71.16195, 42.36621], [-71.1596, 42.36615], [-71.15931, 42.36799], [-71.15877, 42.36771], [-71.15613, 42.3679], [-71.15758, 42.36599], [-71.15759, 42.36467], [-71.16073, 42.36309], [-71.16694, 42.36396], [-71.166987, 42.363898], [-71.167015, 42.36386], [-71.16813, 42.36239], [-71.17101, 42.36303]]]}}]}