{"type": "FeatureCollection", "features": [{"type": "Feature", "properties": {"area_id": 10599, "city": "Lynn", "state": "MA", "city_survey": true, "cat": "Best", "grade": "A", "label": "1", "res": true, "com": false, "ind": false, "holc_grade": "A"}, "geometry": {"type": "Polygon", "coordinates": [[[-70.97056, 42.4957], [-70.97202, 42.49668], [-70.97624, 42.49445], [-70.98083, 42.49879], [-70.99197, 42.50066], [-70.99643, 42.50504], [-70.995338, 42.5056], [-70.992195, 42.507211], [-70.98849, 42.50911], [-70.988525, 42.509133], [-70.99277, 42.51195], [-70.992875, 42.512169], [-70.992914, 42.512251], [-70.993, 42.51243], [-70.990597, 42.511876], [-70.98966, 42.51166], [-70.987232, 42.511763], [-70.986917, 42.511777], [-70.98684, 42.51178], [-70.98395, 42.5103], [-70.983928, 42.510254], [-70.98271, 42.50769], [-70.97983, 42.5065], [-70.9785, 42.50595], [-70.97367, 42.50136], [-70.97251, 42.49943], [-70.97189, 42.49935], [-70.97134, 42.4988], [-70.9705, 42.49873], [-70.97022, 42.49838], [-70.96909, 42.49689], [-70.969346, 42.496683], [-70.970322, 42.495893], [-70.97056, 42.4957]]]}}, {"type": "Feature", "properties": {"area_id": 10603, "city": "Lynn", "state": "MA", "city_survey": true, "cat": "Best", "grade": "A", "label": "2", "res": true, "com": false, "ind": false, "holc_grade": "A"}, "geometry": {"type": "Polygon", "coordinates": [[[-70.934529, 42.458562], [-70.934636, 42.458672], [-70.93691, 42.461], [-70.93883, 42.46299], [-70.938987, 42.46348], [-70.93899, 42.46349], [-70.93611, 42.46379], [-70.93561, 42.46323], [-70.93367, 42.46381], [-70.93265, 42.46466], [-70.932159, 42.464764], [-70.92592, 42.46609], [-70.92311, 42.46867], [-70.922053, 42.466908], [-70.92188, 42.46662], [-70.927582, 42.462162], [-70.92784, 42.46196], [-70.929002, 42.461609], [-70.93006, 42.46129], [-70.931063, 42.460614], [-70.93132, 42.46044], [-70.931772, 42.460357], [-70.933071, 42.460117], [-70.93311, 42.46011], [-70.933139, 42.460072], [-70.93397, 42.45898], [-70.93439, 42.45842], [-70.934529, 42.458562]]]}}, {"type": "Feature", "properties": {"area_id": 10600, "city": "Lynn", "state": "MA", "city_survey": true, "cat": "Best", "grade": "A", "label": "Best", "res": true, "com": false, "ind": false, "holc_grade": "A"}, "geometry": {"type": "Polygon", "coordinates": [[[-70.9409, 42.49157], [-70.94022, 42.49184], [-70.93915, 42.4916], [-70.93569, 42.49017], [-70.93749, 42.48845], [-70.94108, 42.49081], [-70.9409, 42.49157]]]}}, {"type": "Feature", "properties": {"area_id": 10601, "city": "Lynn", "state": "MA", "city_survey": true, "cat": "Best", "grade": "A", "label": "Best", "res": true, "com": false, "ind": false, "holc_grade": "A"}, "geometry": {"type": "Polygon", "coordinates": [[[-70.948035, 42.483969], [-70.94815, 42.48372], [-70.948173, 42.48367], [-70.94828, 42.48344], [-70.94829, 42.48342], [-70.94904, 42.48398], [-70.94904, 42.48451], [-70.94934, 42.4848], [-70.949603, 42.484812], [-70.94979, 42.48482], [-70.949805, 42.484624], [-70.94984, 42.48415], [-70.950291, 42.484172], [-70.95045, 42.48418], [-70.950592, 42.484067], [-70.95109, 42.48367], [-70.95133, 42.48383], [-70.95175, 42.48349], [-70.95228, 42.48385], [-70.953, 42.48328], [-70.95322, 42.48343], [-70.9534, 42.48396], [-70.95392, 42.48431], [-70.95495, 42.4845], [-70.95543, 42.48494], [-70.95561, 42.48453], [-70.9556, 42.48553], [-70.95518, 42.48559], [-70.95396, 42.4853], [-70.95259, 42.48477], [-70.95186, 42.4848], [-70.950773, 42.485252], [-70.95049, 42.48537], [-70.94941, 42.48539], [-70.94869, 42.48491], [-70.94801, 42.48473], [-70.94771, 42.48466], [-70.94786, 42.48435], [-70.947927, 42.484205], [-70.948035, 42.483969]]]}}, {"type": "Feature", "properties": {"area_id": 10602, "city": "Lynn", "state": "MA", "city_survey": true, "cat": "Best", "grade": "A", "label": "Best", "res": true, "com": false, "ind": false, "holc_grade": "A"}, "geometry": {"type": "Polygon", "coordinates": [[[-70.957048, 42.480161], [-70.95712, 42.48018], [-70.95671, 42.48101], [-70.95761, 42.48205], [-70.95559, 42.4832], [-70.95476, 42.48267], [-70.95321, 42.48143], [-70.95339, 42.48106], [-70.95397, 42.48079], [-70.95468, 42.48046], [-70.95433, 42.48005], [-70.95439, 42.47993], [-70.95501, 42.4801], [-70.95566, 42.47979], [-70.956743, 42.480079], [-70.957048, 42.480161]]]}}, {"type": "Feature", "properties": {"area_id": 10598, "city": "Lynn", "state": "MA", "city_survey": true, "cat": "Still Desirable", "grade": "B", "label": "3", "res": true, "com": false, "ind": false, "holc_grade": "B"}, "geometry": {"type": "Polygon", "coordinates": [[[-70.934529, 42.458562], [-70.93439, 42.45842], [-70.93397, 42.45898], [-70.93438, 42.45843], [-70.93458, 42.45817], [-70.934704, 42.458244], [-70.934835, 42.458322], [-70.93663, 42.45939], [-70.93733, 42.45981], [-70.93861, 42.46141], [-70.939607, 42.463403], [-70.93966, 42.46351], [-70.94015, 42.46505], [-70.93833, 42.46588], [-70.93483, 42.46754], [-70.934064, 42.467791], [-70.93147, 42.46864], [-70.93134, 42.46842], [-70.92925, 42.46946], [-70.92459, 42.47179], [-70.92311, 42.46867], [-70.92592, 42.46609], [-70.932159, 42.464764], [-70.93265, 42.46466], [-70.93367, 42.46381], [-70.93561, 42.46323], [-70.93611, 42.46379], [-70.93899, 42.46349], [-70.938987, 42.46348], [-70.93883, 42.46299], [-70.93789, 42.46223], [-70.93691, 42.461], [-70.934636, 42.458672], [-70.934529, 42.458562]]]}}, {"type": "Feature", "properties": {"area_id": 10594, "city": "Lynn", "state": "MA", "city_survey": true, "cat": "Still Desirable", "grade": "B", "label": "4", "res": true, "com": false, "ind": false, "holc_grade": "B"}, "geometry": {"type": "Polygon", "coordinates": [[[-70.95616, 42.46376], [-70.95823, 42.463785], [-70.9586, 42.46379], [-70.961, 42.46683], [-70.96236, 42.46573], [-70.9633, 42.467041], [-70.9634, 42.46718], [-70.96445, 42.46673], [-70.9641, 42.46882], [-70.96835, 42.46904], [-70.96896, 42.46966], [-70.969261, 42.471055], [-70.96931, 42.47128], [-70.96843, 42.47328], [-70.96413, 42.47622], [-70.96383, 42.47603], [-70.96215, 42.47488], [-70.96066, 42.47316], [-70.96279, 42.47291], [-70.96271, 42.47254], [-70.962655, 42.471954], [-70.962632, 42.471709], [-70.96238, 42.46903], [-70.961599, 42.468525], [-70.95983, 42.46738], [-70.959128, 42.467929], [-70.95859, 42.46835], [-70.953566, 42.464091], [-70.95353, 42.46406], [-70.953871, 42.464021], [-70.95616, 42.46376]]]}}, {"type": "Feature", "properties": {"area_id": 10593, "city": "Lynn", "state": "MA", "city_survey": true, "cat": "Still Desirable", "grade": "B", "label": "5", "res": true, "com": false, "ind": false, "holc_grade": "B"}, "geometry": {"type": "Polygon", "coordinates": [[[-70.9702, 42.47414], [-70.97267, 42.47413], [-70.97522, 42.47285], [-70.97659, 42.47269], [-70.976945, 42.473445], [-70.97698, 42.47352], [-70.97446, 42.47491], [-70.973103, 42.477474], [-70.9731, 42.47748], [-70.97475, 42.47942], [-70.96853, 42.48261], [-70.96907, 42.48322], [-70.9685, 42.48361], [-70.968363, 42.484013], [-70.9683, 42.4842], [-70.96878, 42.48428], [-70.96894, 42.48486], [-70.968731, 42.48497], [-70.96478, 42.48705], [-70.96536, 42.48793], [-70.96683, 42.48872], [-70.96904, 42.4897], [-70.96925, 42.48996], [-70.97106, 42.49086], [-70.9719, 42.49101], [-70.974394, 42.489694], [-70.97442, 42.48968], [-70.974518, 42.489819], [-70.974569, 42.48989], [-70.97567, 42.49145], [-70.97456, 42.49247], [-70.97624, 42.49445], [-70.97202, 42.49668], [-70.97056, 42.4957], [-70.970322, 42.495893], [-70.969346, 42.496683], [-70.96909, 42.49689], [-70.97022, 42.49838], [-70.96775, 42.4999], [-70.96729, 42.50037], [-70.96642, 42.50125], [-70.964599, 42.500327], [-70.95851, 42.49724], [-70.958484, 42.497224], [-70.95837, 42.497152], [-70.95722, 42.49643], [-70.95222, 42.49526], [-70.950852, 42.494898], [-70.94765, 42.49405], [-70.94827, 42.48758], [-70.94338, 42.4853], [-70.94335, 42.48532], [-70.94022, 42.48786], [-70.94218, 42.48952], [-70.94305, 42.4924], [-70.94407, 42.4928], [-70.94412, 42.49319], [-70.939452, 42.492142], [-70.939165, 42.492077], [-70.937999, 42.491816], [-70.93401, 42.49092], [-70.933965, 42.490805], [-70.933615, 42.489904], [-70.93322, 42.48889], [-70.93879, 42.48552], [-70.93797, 42.48499], [-70.93778, 42.48387], [-70.93703, 42.48394], [-70.93418, 42.4842], [-70.933524, 42.483419], [-70.93276, 42.48251], [-70.9331, 42.48236], [-70.93171, 42.48104], [-70.929739, 42.482169], [-70.92972, 42.48218], [-70.92503, 42.47305], [-70.925121, 42.473006], [-70.92821, 42.47152], [-70.92878, 42.47203], [-70.92963, 42.47152], [-70.931368, 42.473073], [-70.93441, 42.47579], [-70.93493, 42.47582], [-70.9367, 42.4767], [-70.938445, 42.477947], [-70.93922, 42.4785], [-70.94007, 42.47801], [-70.940608, 42.478321], [-70.94225, 42.47927], [-70.94322, 42.47821], [-70.94461, 42.47735], [-70.944655, 42.477379], [-70.94714, 42.47897], [-70.9487, 42.47727], [-70.95155, 42.47835], [-70.95078, 42.47943], [-70.95138, 42.47971], [-70.95129, 42.48002], [-70.95083, 42.48], [-70.9504, 42.48118], [-70.95096, 42.48195], [-70.95029, 42.482], [-70.94973, 42.48226], [-70.94942, 42.48179], [-70.94881, 42.48137], [-70.94784, 42.48201], [-70.94698, 42.48214], [-70.94679, 42.48255], [-70.94607, 42.48254], [-70.94619, 42.48364], [-70.947058, 42.484053], [-70.94762, 42.48432], [-70.947719, 42.484188], [-70.94828, 42.48344], [-70.948173, 42.48367], [-70.94815, 42.48372], [-70.948035, 42.483969], [-70.947927, 42.484205], [-70.94786, 42.48435], [-70.94771, 42.48466], [-70.94801, 42.48473], [-70.94869, 42.48491], [-70.94941, 42.48539], [-70.95049, 42.48537], [-70.950773, 42.485252], [-70.95186, 42.4848], [-70.95259, 42.48477], [-70.95396, 42.4853], [-70.95518, 42.48559], [-70.9556, 42.48553], [-70.95557, 42.48544], [-70.95543, 42.48494], [-70.95561, 42.48453], [-70.95592, 42.48427], [-70.95656, 42.48434], [-70.95604, 42.48373], [-70.95606, 42.48347], [-70.95559, 42.4832], [-70.95761, 42.48205], [-70.95671, 42.48101], [-70.95712, 42.48018], [-70.961421, 42.482196], [-70.962405, 42.482658], [-70.96241, 42.48266], [-70.962437, 42.482646], [-70.963793, 42.481929], [-70.96386, 42.481894], [-70.96735, 42.48005], [-70.969206, 42.476611], [-70.96933, 42.47638], [-70.96933, 42.47571], [-70.96933, 42.47554], [-70.96952, 42.47507], [-70.96916, 42.47447], [-70.969323, 42.474418], [-70.9702, 42.47414]], [[-70.93915, 42.4916], [-70.94022, 42.49184], [-70.9409, 42.49157], [-70.94108, 42.49081], [-70.93749, 42.48845], [-70.93569, 42.49017], [-70.93915, 42.4916]], [[-70.9612, 42.4913], [-70.95994, 42.49072], [-70.95939, 42.49157], [-70.95765, 42.49127], [-70.95563, 42.49078], [-70.95581, 42.49287], [-70.95741, 42.49269], [-70.95849, 42.49291], [-70.95795, 42.49366], [-70.95781, 42.49421], [-70.95965, 42.49496], [-70.96146, 42.49626], [-70.96395, 42.49468], [-70.96396, 42.49415], [-70.96337, 42.49398], [-70.96203, 42.49325], [-70.96251, 42.49263], [-70.9612, 42.4913]], [[-70.96664, 42.49385], [-70.96704, 42.49381], [-70.96731, 42.49434], [-70.96773, 42.4942], [-70.96806, 42.49408], [-70.96804, 42.49371], [-70.96738, 42.49318], [-70.96743, 42.49269], [-70.96704, 42.49242], [-70.96699, 42.49191], [-70.96774, 42.49151], [-70.96776, 42.49121], [-70.96841, 42.49129], [-70.96936, 42.49117], [-70.96952, 42.49157], [-70.96985, 42.49157], [-70.97021, 42.49175], [-70.97042, 42.49225], [-70.97089, 42.49231], [-70.97131, 42.49249], [-70.97147, 42.49207], [-70.97064, 42.49137], [-70.97099, 42.49128], [-70.97013, 42.49107], [-70.96954, 42.49075], [-70.96878, 42.49071], [-70.96704, 42.49006], [-70.96695, 42.48971], [-70.96648, 42.48952], [-70.96585, 42.48871], [-70.9645, 42.48806], [-70.96386, 42.48737], [-70.96327, 42.48736], [-70.96218, 42.48777], [-70.96191, 42.48733], [-70.96104, 42.48697], [-70.9604, 42.48693], [-70.96036, 42.48726], [-70.96066, 42.48767], [-70.96104, 42.4877], [-70.96135, 42.48849], [-70.96145, 42.48857], [-70.96158, 42.48869], [-70.9623, 42.48863], [-70.96299, 42.48924], [-70.96327, 42.48967], [-70.96265, 42.49001], [-70.96273, 42.49056], [-70.9639, 42.49031], [-70.96529, 42.49045], [-70.96577, 42.49022], [-70.96628, 42.49024], [-70.96634, 42.49075], [-70.96567, 42.49066], [-70.96634, 42.49124], [-70.96638, 42.49174], [-70.96591, 42.49197], [-70.96591, 42.49276], [-70.96622, 42.49298], [-70.9667, 42.49275], [-70.96702, 42.49281], [-70.96708, 42.49339], [-70.96669, 42.49363], [-70.96664, 42.49385]]]}}, {"type": "Feature", "properties": {"area_id": 10595, "city": "Lynn", "state": "MA", "city_survey": true, "cat": "Still Desirable", "grade": "B", "label": "7", "res": true, "com": false, "ind": false, "holc_grade": "B"}, "geometry": {"type": "Polygon", "coordinates": [[[-70.953899, 42.467993], [-70.954481, 42.468298], [-70.95479, 42.46846], [-70.95197, 42.47297], [-70.95202, 42.47366], [-70.951981, 42.473702], [-70.949, 42.47695], [-70.94801, 42.47646], [-70.94626, 42.47559], [-70.946111, 42.475515], [-70.9455, 42.47521], [-70.94599, 42.47431], [-70.94698, 42.47389], [-70.947092, 42.473722], [-70.9477, 42.47281], [-70.94842, 42.47235], [-70.94694, 42.47076], [-70.95009, 42.46982], [-70.94963, 42.46898], [-70.9512, 42.46851], [-70.95124, 42.46828], [-70.95028, 42.46787], [-70.94965, 42.46729], [-70.94895, 42.46694], [-70.94897, 42.46691], [-70.94971, 42.4658], [-70.949827, 42.465861], [-70.953899, 42.467993]]]}}, {"type": "Feature", "properties": {"area_id": 10596, "city": "Lynn", "state": "MA", "city_survey": true, "cat": "Still Desirable", "grade": "B", "label": "Still Desirable", "res": true, "com": false, "ind": false, "holc_grade": "B"}, "geometry": {"type": "Polygon", "coordinates": [[[-70.97387, 42.46576], [-70.974417, 42.465752], [-70.97792, 42.4657], [-70.97826, 42.46808], [-70.978279, 42.468206], [-70.97831, 42.46841], [-70.97795, 42.46887], [-70.9774, 42.46903], [-70.9778, 42.46974], [-70.977311, 42.470138], [-70.97688, 42.47049], [-70.97478, 42.46956], [-70.974372, 42.469535], [-70.97397, 42.46951], [-70.97387, 42.46576]]]}}, {"type": "Feature", "properties": {"area_id": 10597, "city": "Lynn", "state": "MA", "city_survey": true, "cat": "Still Desirable", "grade": "B", "label": "Still Desirable", "res": true, "com": false, "ind": false, "holc_grade": "B"}, "geometry": {"type": "Polygon", "coordinates": [[[-70.986527, 42.462069], [-70.98661, 42.46246], [-70.986513, 42.463007], [-70.986424, 42.463506], [-70.98642, 42.46353], [-70.986367, 42.463533], [-70.98181, 42.46377], [-70.98061, 42.46251], [-70.97938, 42.46314], [-70.97757, 42.46341], [-70.97692, 42.46351], [-70.97684, 42.4596], [-70.97818, 42.45919], [-70.97941, 42.45999], [-70.98019, 42.45934], [-70.985615, 42.45983], [-70.98606, 42.45987], [-70.986148, 42.460285], [-70.986527, 42.462069]]]}}, {"type": "Feature", "properties": {"area_id": 10606, "city": "Lynn", "state": "MA", "city_survey": true, "cat": "Definitely Declining", "grade": "C", "label": "10", "res": true, "com": false, "ind": false, "holc_grade": "C"}, "geometry": {"type": "Polygon", "coordinates": [[[-70.94064, 42.46682], [-70.94127, 42.46751], [-70.94183, 42.46718], [-70.94339, 42.46625], [-70.948757, 42.466916], [-70.94895, 42.46694], [-70.94965, 42.46729], [-70.95028, 42.46787], [-70.95124, 42.46828], [-70.9512, 42.46851], [-70.94963, 42.46898], [-70.95009, 42.46982], [-70.94694, 42.47076], [-70.94842, 42.47235], [-70.9477, 42.47281], [-70.947092, 42.473722], [-70.94698, 42.47389], [-70.94599, 42.47431], [-70.9455, 42.47521], [-70.946111, 42.475515], [-70.94626, 42.47559], [-70.94801, 42.47646], [-70.949, 42.47695], [-70.94865, 42.47724], [-70.9487, 42.47727], [-70.94714, 42.47897], [-70.944655, 42.477379], [-70.94461, 42.47735], [-70.944933, 42.476998], [-70.94495, 42.476979], [-70.94574, 42.47612], [-70.94091, 42.47435], [-70.93996, 42.47538], [-70.94187, 42.47725], [-70.94322, 42.47821], [-70.94225, 42.47927], [-70.940608, 42.478321], [-70.94007, 42.47801], [-70.93922, 42.4785], [-70.938445, 42.477947], [-70.9367, 42.4767], [-70.93493, 42.47582], [-70.93441, 42.47579], [-70.931368, 42.473073], [-70.92963, 42.47152], [-70.93058, 42.47095], [-70.929954, 42.470249], [-70.92925, 42.46946], [-70.93134, 42.46842], [-70.93147, 42.46864], [-70.934064, 42.467791], [-70.93483, 42.46754], [-70.93833, 42.46588], [-70.94015, 42.46505], [-70.93966, 42.46351], [-70.939607, 42.463403], [-70.93861, 42.46141], [-70.93733, 42.45981], [-70.93663, 42.45939], [-70.934835, 42.458322], [-70.934704, 42.458244], [-70.93458, 42.45817], [-70.93481, 42.45769], [-70.935017, 42.457772], [-70.939, 42.45934], [-70.93988, 42.46243], [-70.940145, 42.463336], [-70.94038, 42.46414], [-70.941662, 42.464769], [-70.94201, 42.46494], [-70.94064, 42.46682]], [[-70.93511, 42.47148], [-70.93865, 42.4749], [-70.94133, 42.47334], [-70.9406, 42.47231], [-70.93954, 42.47186], [-70.93891, 42.4714], [-70.937973, 42.470358], [-70.93793, 42.47031], [-70.93679, 42.47051], [-70.935316, 42.471361], [-70.93511, 42.47148]], [[-70.94239, 42.46818], [-70.94201, 42.46854], [-70.94108, 42.46942], [-70.93975, 42.46993], [-70.939764, 42.469963], [-70.94014, 42.47081], [-70.94118, 42.47086], [-70.941945, 42.470235], [-70.94331, 42.46912], [-70.94239, 42.46818]]]}}, {"type": "Feature", "properties": {"area_id": 10609, "city": "Lynn", "state": "MA", "city_survey": true, "cat": "Definitely Declining", "grade": "C", "label": "11", "res": true, "com": false, "ind": false, "holc_grade": "C"}, "geometry": {"type": "Polygon", "coordinates": [[[-70.988825, 42.460125], [-70.989307, 42.460169], [-70.98953, 42.46019], [-70.989553, 42.460253], [-70.9949, 42.47484], [-70.994898, 42.474839], [-70.994469, 42.474688], [-70.99384, 42.474466], [-70.99337, 42.4743], [-70.9912, 42.4741], [-70.990916, 42.474238], [-70.98983, 42.474765], [-70.989451, 42.47495], [-70.98626, 42.4765], [-70.986108, 42.476353], [-70.98321, 42.47356], [-70.98148, 42.47464], [-70.97977, 42.47297], [-70.979701, 42.472984], [-70.97698, 42.47352], [-70.976945, 42.473445], [-70.97659, 42.47269], [-70.97522, 42.47285], [-70.97267, 42.47413], [-70.9702, 42.47414], [-70.969323, 42.474418], [-70.96916, 42.47447], [-70.96843, 42.47328], [-70.96931, 42.47128], [-70.969261, 42.471055], [-70.96896, 42.46966], [-70.96835, 42.46904], [-70.9641, 42.46882], [-70.96445, 42.46673], [-70.9634, 42.46718], [-70.9633, 42.467041], [-70.96236, 42.46573], [-70.961, 42.46683], [-70.9586, 42.46379], [-70.9624, 42.46335], [-70.96349, 42.46459], [-70.964769, 42.463485], [-70.96481, 42.46345], [-70.96658, 42.46552], [-70.96758, 42.46513], [-70.967878, 42.465525], [-70.96798, 42.46566], [-70.968474, 42.465559], [-70.96935, 42.46538], [-70.971081, 42.464881], [-70.974052, 42.464024], [-70.9741, 42.46401], [-70.97231, 42.46099], [-70.975833, 42.459909], [-70.97684, 42.4596], [-70.97692, 42.46351], [-70.97757, 42.46341], [-70.97792, 42.4657], [-70.974417, 42.465752], [-70.97387, 42.46576], [-70.97396, 42.46915], [-70.97397, 42.46951], [-70.974372, 42.469535], [-70.97478, 42.46956], [-70.97688, 42.47049], [-70.977311, 42.470138], [-70.9778, 42.46974], [-70.9774, 42.46903], [-70.97795, 42.46887], [-70.97831, 42.46841], [-70.978279, 42.468206], [-70.97826, 42.46808], [-70.97923, 42.46769], [-70.97989, 42.46691], [-70.98218, 42.466188], [-70.98227, 42.46616], [-70.98309, 42.46731], [-70.98483, 42.46633], [-70.98412, 42.46559], [-70.983688, 42.46525], [-70.98181, 42.46377], [-70.986367, 42.463533], [-70.98642, 42.46353], [-70.986424, 42.463506], [-70.986513, 42.463007], [-70.98661, 42.46246], [-70.986527, 42.462069], [-70.986148, 42.460285], [-70.98606, 42.45987], [-70.986342, 42.459896], [-70.988825, 42.460125]]]}}, {"type": "Feature", "properties": {"area_id": 10608, "city": "Lynn", "state": "MA", "city_survey": true, "cat": "Definitely Declining", "grade": "C", "label": "12", "res": true, "com": false, "ind": false, "holc_grade": "C"}, "geometry": {"type": "Polygon", "coordinates": [[[-70.96425, 42.45976], [-70.96482, 42.45965], [-70.96553, 42.4609], [-70.96265, 42.46252], [-70.962182, 42.462549], [-70.96216, 42.46255], [-70.960033, 42.462656], [-70.95935, 42.46269], [-70.95313, 42.46369], [-70.95078, 42.46208], [-70.95281, 42.46146], [-70.95263, 42.46113], [-70.95583, 42.46048], [-70.95785, 42.46023], [-70.958374, 42.4602], [-70.960615, 42.46007], [-70.96078, 42.46006], [-70.96425, 42.45976]]]}}, {"type": "Feature", "properties": {"area_id": 10607, "city": "Lynn", "state": "MA", "city_survey": true, "cat": "Definitely Declining", "grade": "C", "label": "13", "res": true, "com": false, "ind": false, "holc_grade": "C"}, "geometry": {"type": "Polygon", "coordinates": [[[-70.953566, 42.464091], [-70.95859, 42.46835], [-70.959128, 42.467929], [-70.95983, 42.46738], [-70.961599, 42.468525], [-70.96238, 42.46903], [-70.962632, 42.471709], [-70.962655, 42.471954], [-70.96271, 42.47254], [-70.96279, 42.47291], [-70.96066, 42.47316], [-70.95902, 42.47125], [-70.95879, 42.47203], [-70.95774, 42.47137], [-70.95581, 42.47426], [-70.95417, 42.47342], [-70.95318, 42.47291], [-70.95248, 42.47371], [-70.95248, 42.475], [-70.95524, 42.4755], [-70.954854, 42.475978], [-70.95461, 42.47628], [-70.95554, 42.47657], [-70.9538, 42.47925], [-70.95439, 42.47993], [-70.95433, 42.48005], [-70.95393, 42.47973], [-70.95358, 42.47973], [-70.95348, 42.47987], [-70.95341, 42.48004], [-70.95314, 42.48017], [-70.95316, 42.48049], [-70.95287, 42.4805], [-70.95289, 42.48013], [-70.95266, 42.48038], [-70.95238, 42.48027], [-70.95257, 42.48079], [-70.95236, 42.48089], [-70.95161, 42.4803], [-70.95163, 42.48004], [-70.95152, 42.47991], [-70.95129, 42.48002], [-70.95138, 42.47971], [-70.95078, 42.47943], [-70.95155, 42.47835], [-70.9487, 42.47727], [-70.94865, 42.47724], [-70.949, 42.47695], [-70.951981, 42.473702], [-70.95202, 42.47366], [-70.95197, 42.47297], [-70.95479, 42.46846], [-70.954481, 42.468298], [-70.953899, 42.467993], [-70.949827, 42.465861], [-70.94971, 42.4658], [-70.94976, 42.465727], [-70.9502, 42.46508], [-70.9524, 42.46576], [-70.95297, 42.46434], [-70.953386, 42.464132], [-70.95353, 42.46406], [-70.953566, 42.464091]]]}}, {"type": "Feature", "properties": {"area_id": 10604, "city": "Lynn", "state": "MA", "city_survey": true, "cat": "Definitely Declining", "grade": "C", "label": "8", "res": true, "com": false, "ind": false, "holc_grade": "C"}, "geometry": {"type": "Polygon", "coordinates": [[[-70.94765, 42.49405], [-70.94412, 42.49319], [-70.94407, 42.4928], [-70.94305, 42.4924], [-70.94218, 42.48952], [-70.94022, 42.48786], [-70.94335, 42.48532], [-70.94338, 42.4853], [-70.94827, 42.48758], [-70.94765, 42.49405]]]}}, {"type": "Feature", "properties": {"area_id": 10605, "city": "Lynn", "state": "MA", "city_survey": true, "cat": "Definitely Declining", "grade": "C", "label": "9", "res": true, "com": false, "ind": false, "holc_grade": "C"}, "geometry": {"type": "Polygon", "coordinates": [[[-70.929739, 42.482169], [-70.93171, 42.48104], [-70.9331, 42.48236], [-70.93276, 42.48251], [-70.933524, 42.483419], [-70.93418, 42.4842], [-70.93703, 42.48394], [-70.93778, 42.48387], [-70.93797, 42.48499], [-70.93879, 42.48552], [-70.93738, 42.48638], [-70.93322, 42.48889], [-70.931173, 42.484966], [-70.930438, 42.483557], [-70.92972, 42.48218], [-70.929739, 42.482169]]]}}, {"type": "Feature", "properties": {"area_id": 10610, "city": "Lynn", "state": "MA", "city_survey": true, "cat": "Hazardous", "grade": "D", "label": "14", "res": true, "com": false, "ind": false, "holc_grade": "D"}, "geometry": {"type": "Polygon", "coordinates": [[[-70.97784, 42.45162], [-70.978099, 42.451715], [-70.97844, 42.45184], [-70.97898, 42.45149], [-70.97981, 42.45179], [-70.97995, 42.45158], [-70.98037, 42.4515], [-70.98083, 42.45173], [-70.98165, 42.4517], [-70.98183, 42.45198], [-70.98221, 42.45202], [-70.98271, 42.45241], [-70.98291, 42.45298], [-70.9826, 42.45345], [-70.98174, 42.45396], [-70.98136, 42.45388], [-70.98085, 42.45407], [-70.98012, 42.45405], [-70.97933, 42.4545], [-70.97888, 42.45461], [-70.97861, 42.45499], [-70.97816, 42.45523], [-70.97775, 42.45576], [-70.9773, 42.45634], [-70.97653, 42.45641], [-70.976349, 42.45686], [-70.9763, 42.45698], [-70.97624, 42.45692], [-70.9759, 42.45658], [-70.97504, 42.45704], [-70.97494, 42.45769], [-70.975141, 42.457785], [-70.97547, 42.45794], [-70.97681, 42.45857], [-70.976813, 42.458683], [-70.976835, 42.459434], [-70.97684, 42.4596], [-70.975833, 42.459909], [-70.97231, 42.46099], [-70.97324, 42.46256], [-70.9741, 42.46401], [-70.974052, 42.464024], [-70.971081, 42.464881], [-70.96935, 42.46538], [-70.968474, 42.465559], [-70.96798, 42.46566], [-70.967878, 42.465525], [-70.96758, 42.46513], [-70.96983, 42.46427], [-70.96842, 42.46213], [-70.96757, 42.4623], [-70.966648, 42.461868], [-70.96644, 42.46177], [-70.96604, 42.46069], [-70.96553, 42.4609], [-70.96482, 42.45965], [-70.96425, 42.45976], [-70.96078, 42.46006], [-70.960615, 42.46007], [-70.958374, 42.4602], [-70.95785, 42.46023], [-70.95583, 42.46048], [-70.95263, 42.46113], [-70.95243, 42.46059], [-70.95001, 42.46101], [-70.94829, 42.45981], [-70.9512, 42.4576], [-70.95289, 42.45685], [-70.9543, 42.456731], [-70.95763, 42.45645], [-70.9582, 42.45756], [-70.96007, 42.4569], [-70.96282, 42.45654], [-70.96572, 42.45525], [-70.96926, 42.45415], [-70.97087, 42.45613], [-70.97149, 42.45603], [-70.972295, 42.456736], [-70.97238, 42.45681], [-70.97565, 42.45387], [-70.975639, 42.453841], [-70.97455, 42.45104], [-70.97541, 42.45112], [-70.97696, 42.45162], [-70.97784, 42.45162]]]}}, {"type": "Feature", "properties": {"area_id": 10612, "city": "Lynn", "state": "MA", "city_survey": true, "cat": "Hazardous", "grade": "D", "label": "15", "res": true, "com": false, "ind": false, "holc_grade": "D"}, "geometry": {"type": "MultiPolygon", "coordinates": [[[[-70.937973, 42.470358], [-70.93891, 42.4714], [-70.93954, 42.47186], [-70.9406, 42.47231], [-70.94133, 42.47334], [-70.94041, 42.47388], [-70.93865, 42.4749], [-70.93511, 42.47148], [-70.935316, 42.471361], [-70.93679, 42.47051], [-70.93793, 42.47031], [-70.937973, 42.470358]]], [[[-70.94201, 42.46854], [-70.94239, 42.46818], [-70.94331, 42.46912], [-70.94309, 42.4693], [-70.941945, 42.470235], [-70.94118, 42.47086], [-70.94014, 42.47081], [-70.939764, 42.469963], [-70.93975, 42.46993], [-70.94108, 42.46942], [-70.94201, 42.46854]]]]}}, {"type": "Feature", "properties": {"area_id": 10611, "city": "Lynn", "state": "MA", "city_survey": true, "cat": "Hazardous", "grade": "D", "label": "16", "res": true, "com": false, "ind": false, "holc_grade": "D"}, "geometry": {"type": "Polygon", "coordinates": [[[-70.93645, 42.456847], [-70.93676, 42.45726], [-70.93846, 42.45807], [-70.93977, 42.45856], [-70.94062, 42.45902], [-70.94163, 42.46056], [-70.94255, 42.46197], [-70.94143, 42.46216], [-70.93988, 42.46243], [-70.939, 42.45934], [-70.935017, 42.457772], [-70.93481, 42.45769], [-70.93537, 42.45668], [-70.9357, 42.456712], [-70.9364, 42.45678], [-70.93645, 42.456847]]]}}, {"type": "Feature", "properties": {"area_id": 10592, "city": "Lynn", "state": "MA", "city_survey": true, "cat": "Business and Industrial", "grade": null, "label": "Business & Industrial", "res": false, "com": true, "ind": true, "holc_grade": null}, "geometry": {"type": "MultiPolygon", "coordinates": [[[[-70.92963, 42.47152], [-70.92878, 42.47203], [-70.92821, 42.47152], [-70.925121, 42.473006], [-70.92503, 42.47305], [-70.924792, 42.472369], [-70.92459, 42.47179], [-70.92925, 42.46946], [-70.929954, 42.470249], [-70.93058, 42.47095], [-70.92963, 42.47152]]], [[[-70.97386, 42.44877], [-70.97404, 42.44985], [-70.97455, 42.45104], [-70.975639, 42.453841], [-70.97565, 42.45387], [-70.97238, 42.45681], [-70.972295, 42.456736], [-70.97149, 42.45603], [-70.97087, 42.45613], [-70.96926, 42.45415], [-70.96572, 42.45525], [-70.96282, 42.45654], [-70.96007, 42.4569], [-70.9582, 42.45756], [-70.95763, 42.45645], [-70.9543, 42.456731], [-70.95289, 42.45685], [-70.9512, 42.4576], [-70.94829, 42.45981], [-70.95001, 42.46101], [-70.95243, 42.46059], [-70.95263, 42.46113], [-70.95281, 42.46146], [-70.95078, 42.46208], [-70.95313, 42.46369], [-70.95248, 42.46394], [-70.95252, 42.46423], [-70.952663, 42.464265], [-70.95297, 42.46434], [-70.9524, 42.46576], [-70.9502, 42.46508], [-70.94976, 42.465727], [-70.94971, 42.4658], [-70.94897, 42.46691], [-70.94895, 42.46694], [-70.948757, 42.466916], [-70.94339, 42.46625], [-70.94183, 42.46718], [-70.94127, 42.46751], [-70.94064, 42.46682], [-70.94201, 42.46494], [-70.941662, 42.464769], [-70.94038, 42.46414], [-70.940145, 42.463336], [-70.93988, 42.46243], [-70.94255, 42.46197], [-70.94163, 42.46056], [-70.94416, 42.46008], [-70.944523, 42.4598], [-70.94486, 42.45954], [-70.945068, 42.459327], [-70.945595, 42.458788], [-70.946211, 42.458158], [-70.94751, 42.45683], [-70.94909, 42.45566], [-70.9492, 42.45498], [-70.948738, 42.454467], [-70.94847, 42.45417], [-70.94872, 42.453998], [-70.950125, 42.45303], [-70.9538, 42.4505], [-70.954012, 42.450683], [-70.95601, 42.4524], [-70.95845, 42.45622], [-70.96109, 42.4555], [-70.96341, 42.45444], [-70.96694, 42.4523], [-70.96848, 42.45088], [-70.971199, 42.447714], [-70.97146, 42.44741], [-70.971626, 42.447504], [-70.97386, 42.44877]]], [[[-70.95814, 42.47527], [-70.957832, 42.476309], [-70.95779, 42.47645], [-70.95677, 42.47825], [-70.95566, 42.47979], [-70.95501, 42.4801], [-70.95439, 42.47993], [-70.9538, 42.47925], [-70.95554, 42.47657], [-70.95461, 42.47628], [-70.954854, 42.475978], [-70.95524, 42.4755], [-70.95581, 42.47426], [-70.95774, 42.47137], [-70.95879, 42.47203], [-70.95859, 42.47424], [-70.95814, 42.47527]]], [[[-70.966648, 42.461868], [-70.96757, 42.4623], [-70.96842, 42.46213], [-70.96983, 42.46427], [-70.96758, 42.46513], [-70.96658, 42.46552], [-70.96481, 42.46345], [-70.964769, 42.463485], [-70.96349, 42.46459], [-70.9624, 42.46335], [-70.96336, 42.46305], [-70.963328, 42.462943], [-70.963269, 42.462747], [-70.96324, 42.46265], [-70.96265, 42.46252], [-70.96553, 42.4609], [-70.96604, 42.46069], [-70.96644, 42.46177], [-70.966648, 42.461868]]]]}}]}