{"type": "FeatureCollection", "features": [{"type": "Feature", "geometry": {"type": "Point", "coordinates": [-94.880556, 36.922222]}, "properties": {"facility_name": "BAYLINER MARINE CORP", "industry": null, "tri_facility_id": "74354BYLNR300NE"}}, {"type": "Feature", "geometry": {"type": "Point", "coordinates": [-94.900847, 36.903389]}, "properties": {"facility_name": "TRACKER MARINE LLC", "industry": null, "tri_facility_id": "74354BYLNR3807M"}}, {"type": "Feature", "geometry": {"type": "Point", "coordinates": [-94.880556, 36.925]}, "properties": {"facility_name": "BAYLINER MARINE CORP", "industry": null, "tri_facility_id": "74354BYLNR805PI"}}, {"type": "Feature", "geometry": {"type": "Point", "coordinates": [-94.87666666666667, 36.88444444444444]}, "properties": {"facility_name": "EAGLE-PICHER TECHNOLOGIES LLC", "industry": null, "tri_facility_id": "74354GLPCH200BJ"}}, {"type": "Feature", "geometry": {"type": "Point", "coordinates": [-94.876667, 36.884444]}, "properties": {"facility_name": "EP SCIENTIFIC PRODUCTS LLC", "industry": null, "tri_facility_id": "74354GLPCH520NO"}}, {"type": "Feature", "geometry": {"type": "Point", "coordinates": [-94.8875, 36.909166666666664]}, "properties": {"facility_name": "STEELCRAFT INDUSTRIES LLC", "industry": null, "tri_facility_id": "74354STLCR50530"}}]}