{"type": "FeatureCollection", "features": [{"type": "Feature", "properties": {"area_id": 3233, "city": "Winston-Salem", "state": "NC", "city_survey": true, "cat": "Best", "grade": "A", "label": "A1", "res": true, "com": false, "ind": false, "holc_grade": "A"}, "geometry": {"type": "Polygon", "coordinates": [[[-80.26557, 36.09583], [-80.26507, 36.09585], [-80.26508, 36.09479], [-80.26479, 36.09322], [-80.26515, 36.09264], [-80.26515, 36.09255], [-80.2661, 36.09234], [-80.26692, 36.09249], [-80.26779, 36.09299], [-80.26896, 36.09411], [-80.27019, 36.0949], [-80.27142, 36.09558], [-80.27351, 36.09605], [-80.275093, 36.096578], [-80.2757, 36.09678], [-80.275828, 36.096809], [-80.27844, 36.0974], [-80.28049, 36.09795], [-80.28226, 36.09847], [-80.28267, 36.09826], [-80.28481, 36.09558], [-80.28631, 36.09344], [-80.28681, 36.09257], [-80.28727, 36.09206], [-80.28973, 36.091892], [-80.29211, 36.09173], [-80.2953, 36.09173], [-80.2958, 36.09199], [-80.29635, 36.09316], [-80.29672, 36.09345], [-80.2988, 36.09339], [-80.30028, 36.09349], [-80.30073, 36.09375], [-80.30088, 36.09432], [-80.30094, 36.09684], [-80.3008, 36.09755], [-80.3003, 36.09813], [-80.29856, 36.09886], [-80.29725, 36.09953], [-80.29669, 36.10019], [-80.2961, 36.10078], [-80.29477, 36.10252], [-80.29458, 36.10304], [-80.29534, 36.10343], [-80.29618, 36.10406], [-80.29743, 36.10539], [-80.29501, 36.10607], [-80.29285, 36.10681], [-80.29211, 36.10592], [-80.29106, 36.10486], [-80.29004, 36.10413], [-80.28846, 36.10371], [-80.28684, 36.10348], [-80.28665, 36.10367], [-80.28665, 36.10432], [-80.28633, 36.10572], [-80.28593, 36.10709], [-80.285738, 36.107542], [-80.28465, 36.11011], [-80.2829, 36.11353], [-80.28197, 36.11403], [-80.28146, 36.11432], [-80.28113, 36.11473], [-80.281029, 36.1157], [-80.281, 36.11598], [-80.2808, 36.11653], [-80.28016, 36.11711], [-80.278173, 36.117792], [-80.27783, 36.11791], [-80.276644, 36.118297], [-80.2759, 36.11854], [-80.27173, 36.11971], [-80.27149, 36.11941], [-80.27119, 36.1184], [-80.27119, 36.11697], [-80.2716, 36.11596], [-80.27234, 36.11492], [-80.27238, 36.11438], [-80.27188, 36.11373], [-80.27118, 36.11318], [-80.2698, 36.11192], [-80.26856, 36.11031], [-80.26762, 36.109], [-80.267, 36.10732], [-80.26508, 36.1048], [-80.2664, 36.10354], [-80.26685, 36.10352], [-80.26663, 36.101], [-80.26676, 36.10047], [-80.26755, 36.10009], [-80.26763, 36.09888], [-80.26756, 36.09822], [-80.267024, 36.097744], [-80.26649, 36.09727], [-80.26595, 36.09612], [-80.26557, 36.09583]]]}}, {"type": "Feature", "properties": {"area_id": 3236, "city": "Winston-Salem", "state": "NC", "city_survey": true, "cat": "Still Desirable", "grade": "B", "label": "B1", "res": true, "com": false, "ind": false, "holc_grade": "B"}, "geometry": {"type": "Polygon", "coordinates": [[[-80.24895, 36.12014], [-80.24913, 36.12073], [-80.24973, 36.12198], [-80.25, 36.12317], [-80.24686, 36.12317], [-80.24593, 36.1231], [-80.24559, 36.12329], [-80.24559, 36.123306], [-80.24563, 36.12551], [-80.245612, 36.125654], [-80.24546, 36.1269], [-80.24547, 36.1276], [-80.24549, 36.12888], [-80.24256, 36.12895], [-80.24243, 36.12952], [-80.24257, 36.13028], [-80.24229, 36.13088], [-80.242067, 36.130846], [-80.242006, 36.130837], [-80.2415, 36.13076], [-80.23931, 36.12969], [-80.23776, 36.12871], [-80.23722, 36.12782], [-80.237181, 36.127134], [-80.23717, 36.12695], [-80.23664, 36.1252], [-80.23659, 36.12447], [-80.23616, 36.12341], [-80.23615, 36.12121], [-80.23599, 36.11997], [-80.23622, 36.1183], [-80.2364, 36.1181], [-80.23874, 36.1181], [-80.23961, 36.11791], [-80.24098, 36.11718], [-80.24203, 36.1165], [-80.24279, 36.11583], [-80.24331, 36.11525], [-80.24348, 36.1149], [-80.24475, 36.11461], [-80.24502, 36.11612], [-80.24556, 36.11598], [-80.24668, 36.11586], [-80.24699, 36.11595], [-80.24745, 36.11736], [-80.24788, 36.11841], [-80.24847, 36.11936], [-80.248493, 36.119397], [-80.248663, 36.119674], [-80.24895, 36.12014]]]}}, {"type": "Feature", "properties": {"area_id": 3232, "city": "Winston-Salem", "state": "NC", "city_survey": true, "cat": "Still Desirable", "grade": "B", "label": "B2", "res": true, "com": false, "ind": false, "holc_grade": "B"}, "geometry": {"type": "Polygon", "coordinates": [[[-80.25816, 36.09586], [-80.25903, 36.0947], [-80.25998, 36.09414], [-80.2618, 36.09371], [-80.26479, 36.09322], [-80.26508, 36.09479], [-80.26507, 36.09585], [-80.26507, 36.09594], [-80.26461, 36.09716], [-80.26374, 36.09823], [-80.26259, 36.09934], [-80.26181, 36.10017], [-80.26119, 36.10129], [-80.261096, 36.101334], [-80.260563, 36.101585], [-80.26036, 36.10168], [-80.25858, 36.10241], [-80.258013, 36.102445], [-80.25646, 36.10254], [-80.2553, 36.10245], [-80.25437, 36.10176], [-80.25413, 36.10127], [-80.25419, 36.1009], [-80.25466, 36.10067], [-80.25637, 36.10036], [-80.256745, 36.099857], [-80.25699, 36.09953], [-80.257221, 36.099052], [-80.25741, 36.09866], [-80.25796, 36.09701], [-80.25816, 36.09586]]]}}, {"type": "Feature", "properties": {"area_id": 3229, "city": "Winston-Salem", "state": "NC", "city_survey": true, "cat": "Still Desirable", "grade": "B", "label": "B3", "res": true, "com": false, "ind": false, "holc_grade": "B"}, "geometry": {"type": "Polygon", "coordinates": [[[-80.28051, 36.07598], [-80.28167, 36.07594], [-80.28275, 36.07588], [-80.28429, 36.07572], [-80.28462, 36.07568], [-80.28657, 36.07564], [-80.28674, 36.07637], [-80.286489, 36.077944], [-80.28647, 36.07806], [-80.28683, 36.08105], [-80.28689, 36.08385], [-80.28679, 36.08492], [-80.28158, 36.08513], [-80.28145, 36.08562], [-80.28161, 36.08749], [-80.28149, 36.08792], [-80.28068, 36.08832], [-80.27515, 36.0896], [-80.27255, 36.08973], [-80.27108, 36.09003], [-80.26923, 36.09083], [-80.265277, 36.091787], [-80.26518, 36.09181], [-80.263674, 36.091302], [-80.26334, 36.09119], [-80.26217, 36.09019], [-80.262166, 36.090049], [-80.26207, 36.08693], [-80.26224, 36.08596], [-80.26229, 36.08396], [-80.26395, 36.0841], [-80.26437, 36.08377], [-80.26448, 36.08223], [-80.26428, 36.07913], [-80.26719, 36.07913], [-80.26943, 36.07923], [-80.27178, 36.07939], [-80.27284, 36.0795], [-80.27282, 36.07768], [-80.27308, 36.07575], [-80.27318, 36.07481], [-80.27358, 36.074808], [-80.27857, 36.07478], [-80.27876, 36.07597], [-80.28051, 36.07598]]]}}, {"type": "Feature", "properties": {"area_id": 3247, "city": "Winston-Salem", "state": "NC", "city_survey": true, "cat": "Still Desirable", "grade": "B", "label": "B4", "res": true, "com": false, "ind": false, "holc_grade": "B"}, "geometry": {"type": "Polygon", "coordinates": [[[-80.24997, 36.07219], [-80.25031, 36.07233], [-80.24992, 36.07317], [-80.24925, 36.0747], [-80.24923, 36.07475], [-80.24898, 36.07535], [-80.24816, 36.07635], [-80.24724, 36.07708], [-80.24635, 36.07753], [-80.24633, 36.07725], [-80.246, 36.07694], [-80.2453, 36.07647], [-80.2447, 36.07591], [-80.24417, 36.07602], [-80.24325, 36.07608], [-80.24257, 36.0762], [-80.24021, 36.07651], [-80.240037, 36.075876], [-80.23988, 36.0753], [-80.239848, 36.07508], [-80.23959, 36.0733], [-80.24997, 36.07219]]]}}, {"type": "Feature", "properties": {"area_id": 3239, "city": "Winston-Salem", "state": "NC", "city_survey": true, "cat": "Still Desirable", "grade": "B", "label": "B5", "res": true, "com": false, "ind": false, "holc_grade": "B"}, "geometry": {"type": "Polygon", "coordinates": [[[-80.25052, 36.14749], [-80.24906, 36.1476], [-80.24802, 36.14741], [-80.2478, 36.14649], [-80.2478, 36.14333], [-80.24804, 36.14171], [-80.24863, 36.14128], [-80.24962, 36.14087], [-80.25037, 36.14069], [-80.2513, 36.14061], [-80.25155, 36.14182], [-80.25179, 36.1443], [-80.25156, 36.14748], [-80.25052, 36.14749]]]}}, {"type": "Feature", "properties": {"area_id": 3238, "city": "Winston-Salem", "state": "NC", "city_survey": true, "cat": "Definitely Declining", "grade": "C", "label": "C1", "res": true, "com": false, "ind": false, "holc_grade": "C"}, "geometry": {"type": "Polygon", "coordinates": [[[-80.231, 36.1341], [-80.23173, 36.13178], [-80.23248, 36.12947], [-80.232492, 36.129472], [-80.23486, 36.12983], [-80.23932, 36.13074], [-80.24118, 36.131], [-80.242002, 36.131214], [-80.24222, 36.13127], [-80.24312, 36.13191], [-80.24392, 36.13277], [-80.24487, 36.13424], [-80.24572, 36.13518], [-80.24596, 36.13601], [-80.24639, 36.13661], [-80.24608, 36.13682], [-80.24489, 36.13702], [-80.24367, 36.13714], [-80.24361, 36.13795], [-80.24381, 36.1395], [-80.24398, 36.14007], [-80.24405, 36.1408], [-80.2443, 36.1417], [-80.24449, 36.1432], [-80.244281, 36.14403], [-80.24418, 36.14443], [-80.24395, 36.14684], [-80.24362, 36.14843], [-80.24311, 36.14904], [-80.24218, 36.14946], [-80.24028, 36.15011], [-80.23844, 36.15055], [-80.23605, 36.15104], [-80.23537, 36.15102], [-80.23366, 36.15109], [-80.23223, 36.15122], [-80.232, 36.15088], [-80.23195, 36.14874], [-80.23212, 36.14784], [-80.23213, 36.14633], [-80.23181, 36.14616], [-80.225771, 36.146978], [-80.22443, 36.14716], [-80.22334, 36.1472], [-80.22301, 36.14546], [-80.22289, 36.14432], [-80.22274, 36.14311], [-80.22312, 36.14287], [-80.22527, 36.14271], [-80.22601, 36.14271], [-80.2274, 36.14259], [-80.228289, 36.141841], [-80.22829, 36.14184], [-80.22867, 36.14129], [-80.231, 36.1341]]]}}, {"type": "Feature", "properties": {"area_id": 3250, "city": "Winston-Salem", "state": "NC", "city_survey": true, "cat": "Definitely Declining", "grade": "C", "label": "C10", "res": true, "com": false, "ind": false, "holc_grade": "C"}, "geometry": {"type": "Polygon", "coordinates": [[[-80.216268, 36.061643], [-80.21654, 36.06206], [-80.218284, 36.065053], [-80.21834, 36.06515], [-80.22001, 36.06525], [-80.2216, 36.06551], [-80.22281, 36.06557], [-80.22406, 36.06578], [-80.22679, 36.0661], [-80.22668, 36.06698], [-80.22675, 36.06831], [-80.226826, 36.068713], [-80.22689, 36.06905], [-80.22694, 36.069156], [-80.22715, 36.0696], [-80.22706, 36.06971], [-80.227076, 36.070403], [-80.22708, 36.07055], [-80.2271, 36.07214], [-80.22706, 36.07346], [-80.22724, 36.07398], [-80.2273, 36.07449], [-80.22538, 36.07446], [-80.22406, 36.07472], [-80.22225, 36.07468], [-80.220111, 36.074908], [-80.21934, 36.07499], [-80.21709, 36.0751], [-80.21443, 36.0755], [-80.21454, 36.07661], [-80.21498, 36.07898], [-80.21203, 36.07971], [-80.2117, 36.07953], [-80.21132, 36.07771], [-80.21089, 36.07449], [-80.20848, 36.07496], [-80.20759, 36.07497], [-80.20389, 36.07466], [-80.20136, 36.07455], [-80.20174, 36.07663], [-80.20185, 36.07784], [-80.20167, 36.07801], [-80.20016, 36.07806], [-80.19825, 36.07785], [-80.19825, 36.07633], [-80.19836, 36.07531], [-80.19823, 36.07502], [-80.196313, 36.074952], [-80.19626, 36.07495], [-80.1944, 36.07256], [-80.19429, 36.072336], [-80.19384, 36.07142], [-80.19437, 36.07103], [-80.19494, 36.07089], [-80.19622, 36.07018], [-80.19666, 36.06979], [-80.19725, 36.06908], [-80.1979, 36.06846], [-80.19889, 36.06721], [-80.19983, 36.06589], [-80.20054, 36.06523], [-80.20103, 36.06504], [-80.2015, 36.06515], [-80.20181, 36.06495], [-80.20161, 36.06406], [-80.20126, 36.06351], [-80.20107, 36.06284], [-80.20067, 36.06248], [-80.20026, 36.06161], [-80.19974, 36.06087], [-80.19926, 36.06035], [-80.19859, 36.06008], [-80.1984, 36.05964], [-80.1985, 36.05878], [-80.20416, 36.05901], [-80.20455, 36.05858], [-80.20482, 36.05794], [-80.20562, 36.05856], [-80.2067, 36.05944], [-80.20856, 36.05948], [-80.2097, 36.05975], [-80.21117, 36.06067], [-80.21151, 36.06072], [-80.214461, 36.059348], [-80.2145, 36.05933], [-80.21535, 36.06024], [-80.216268, 36.061643]]]}}, {"type": "Feature", "properties": {"area_id": 3245, "city": "Winston-Salem", "state": "NC", "city_survey": true, "cat": "Definitely Declining", "grade": "C", "label": "C11", "res": true, "com": false, "ind": false, "holc_grade": "C"}, "geometry": {"type": "Polygon", "coordinates": [[[-80.22541, 36.0916], [-80.22564, 36.09023], [-80.22571, 36.0895], [-80.22563, 36.08909], [-80.22521, 36.08831], [-80.22496, 36.08795], [-80.22484, 36.08675], [-80.22518, 36.08662], [-80.2273, 36.0866], [-80.22715, 36.08491], [-80.22655, 36.0845], [-80.22564, 36.08423], [-80.22414, 36.0841], [-80.2237, 36.08369], [-80.22355, 36.08311], [-80.2235, 36.08237], [-80.2236, 36.08131], [-80.22385, 36.08044], [-80.22462, 36.08026], [-80.22653, 36.08036], [-80.22786, 36.08053], [-80.22875, 36.08076], [-80.22936, 36.08114], [-80.22977, 36.0817], [-80.22991, 36.08237], [-80.22981, 36.08292], [-80.22942, 36.08342], [-80.22917, 36.08406], [-80.22905, 36.08465], [-80.22872, 36.0856], [-80.22863, 36.08637], [-80.22888, 36.08685], [-80.22958, 36.08713], [-80.22984, 36.0873], [-80.22993, 36.08765], [-80.22978, 36.08796], [-80.22957, 36.08865], [-80.22961, 36.08929], [-80.22989, 36.09038], [-80.2302, 36.09123], [-80.23037, 36.093108], [-80.23037, 36.09311], [-80.230328, 36.093116], [-80.229899, 36.09318], [-80.22883, 36.09334], [-80.22722, 36.09317], [-80.22587, 36.09273], [-80.22541, 36.0927], [-80.22541, 36.092546], [-80.22541, 36.0916]]]}}, {"type": "Feature", "properties": {"area_id": 3235, "city": "Winston-Salem", "state": "NC", "city_survey": true, "cat": "Definitely Declining", "grade": "C", "label": "C2", "res": true, "com": false, "ind": false, "holc_grade": "C"}, "geometry": {"type": "Polygon", "coordinates": [[[-80.252866, 36.11565], [-80.25336, 36.11571], [-80.25402, 36.11731], [-80.25508, 36.11917], [-80.2556, 36.11997], [-80.2564, 36.12002], [-80.25741, 36.12018], [-80.25776, 36.12033], [-80.2581, 36.12054], [-80.25939, 36.12022], [-80.260087, 36.12022], [-80.26017, 36.12022], [-80.26176, 36.1205], [-80.2622, 36.12042], [-80.262282, 36.120502], [-80.26243, 36.12065], [-80.26237, 36.12217], [-80.26214, 36.12244], [-80.26041, 36.12299], [-80.25521, 36.12313], [-80.25374, 36.12304], [-80.250693, 36.123146], [-80.25, 36.12317], [-80.24973, 36.12198], [-80.24913, 36.12073], [-80.24895, 36.12014], [-80.250636, 36.120124], [-80.25103, 36.12012], [-80.25142, 36.12002], [-80.25355, 36.11996], [-80.2543, 36.11999], [-80.25269, 36.11754], [-80.25224, 36.11648], [-80.252213, 36.116351], [-80.25211, 36.11586], [-80.25278, 36.11564], [-80.252866, 36.11565]]]}}, {"type": "Feature", "properties": {"area_id": 3237, "city": "Winston-Salem", "state": "NC", "city_survey": true, "cat": "Definitely Declining", "grade": "C", "label": "C3", "res": true, "com": false, "ind": false, "holc_grade": "C"}, "geometry": {"type": "Polygon", "coordinates": [[[-80.22401, 36.1123], [-80.22471, 36.11238], [-80.22638, 36.11203], [-80.22815, 36.11204], [-80.23024, 36.11223], [-80.23159, 36.11226], [-80.23308, 36.1124], [-80.23386, 36.1123], [-80.23422, 36.11186], [-80.23592, 36.112], [-80.236432, 36.111937], [-80.23705, 36.11186], [-80.237269, 36.111776], [-80.23825, 36.1114], [-80.23952, 36.11126], [-80.24339, 36.11106], [-80.2435, 36.11272], [-80.24342, 36.11389], [-80.24348, 36.1149], [-80.24331, 36.11525], [-80.24279, 36.11583], [-80.24203, 36.1165], [-80.24098, 36.11718], [-80.23961, 36.11791], [-80.23874, 36.1181], [-80.2364, 36.1181], [-80.23665, 36.1173], [-80.23727, 36.11481], [-80.237, 36.11463], [-80.23657, 36.11472], [-80.236538, 36.114716], [-80.23612, 36.11467], [-80.23566, 36.11483], [-80.2356, 36.11647], [-80.23528, 36.11761], [-80.23468, 36.11953], [-80.23388, 36.12199], [-80.23377, 36.12327], [-80.233659, 36.124507], [-80.23357, 36.12549], [-80.23347, 36.126075], [-80.233398, 36.126493], [-80.23335, 36.12677], [-80.233046, 36.127705], [-80.23269, 36.1288], [-80.23248, 36.12947], [-80.23173, 36.13178], [-80.22956, 36.13115], [-80.22485, 36.12942], [-80.22265, 36.12859], [-80.22014, 36.12733], [-80.21893, 36.12716], [-80.21747, 36.12682], [-80.2167, 36.12648], [-80.21665, 36.12222], [-80.2168, 36.12091], [-80.21727, 36.11908], [-80.217542, 36.117759], [-80.21762, 36.11738], [-80.21766, 36.11685], [-80.2191, 36.11684], [-80.22037, 36.11692], [-80.22378, 36.11681], [-80.22429, 36.11698], [-80.22462, 36.11746], [-80.22499, 36.11766], [-80.23305, 36.1175], [-80.23351, 36.11633], [-80.23369, 36.11403], [-80.2336, 36.11352], [-80.23203, 36.1133], [-80.23123, 36.11319], [-80.23023, 36.11315], [-80.22924, 36.11301], [-80.22783, 36.11299], [-80.22604, 36.11306], [-80.22471, 36.11314], [-80.22423, 36.11511], [-80.22386, 36.11523], [-80.22351, 36.11507], [-80.22335, 36.11475], [-80.22353, 36.11342], [-80.22194, 36.11339], [-80.221529, 36.113377], [-80.22101, 36.11336], [-80.22017, 36.11342], [-80.22, 36.11289], [-80.22064, 36.11289], [-80.22186, 36.11284], [-80.22256, 36.1127], [-80.222601, 36.112605], [-80.22271, 36.11235], [-80.22332, 36.11235], [-80.22401, 36.1123]]]}}, {"type": "Feature", "properties": {"area_id": 3243, "city": "Winston-Salem", "state": "NC", "city_survey": true, "cat": "Definitely Declining", "grade": "C", "label": "C4", "res": true, "com": false, "ind": false, "holc_grade": "C"}, "geometry": {"type": "Polygon", "coordinates": [[[-80.20895, 36.09687], [-80.21091, 36.09594], [-80.21322, 36.09517], [-80.21469, 36.0949], [-80.215911, 36.094812], [-80.21802, 36.09466], [-80.219285, 36.094653], [-80.21988, 36.09465], [-80.22161, 36.0948], [-80.223, 36.09506], [-80.223665, 36.09526], [-80.2237, 36.09527], [-80.2251, 36.09572], [-80.22621, 36.09592], [-80.22756, 36.09574], [-80.229, 36.09538], [-80.22968, 36.09534], [-80.22987, 36.09568], [-80.22967, 36.09711], [-80.22969, 36.09925], [-80.22995, 36.09941], [-80.23092, 36.09939], [-80.23212, 36.09936], [-80.23385, 36.09913], [-80.23396, 36.09749], [-80.23381, 36.09642], [-80.23389, 36.09501], [-80.2338, 36.09441], [-80.23407, 36.0942], [-80.23493, 36.09407], [-80.23478, 36.09509], [-80.23461, 36.09562], [-80.23444, 36.0962], [-80.23538, 36.09687], [-80.23644, 36.09752], [-80.23731, 36.09838], [-80.23762, 36.09892], [-80.23789, 36.10024], [-80.23789, 36.10123], [-80.2374, 36.10372], [-80.23724, 36.10508], [-80.237169, 36.105271], [-80.23669, 36.10655], [-80.23491, 36.10842], [-80.23461, 36.10924], [-80.23439, 36.10967], [-80.23438, 36.10979], [-80.2324, 36.10973], [-80.2323, 36.10933], [-80.23244, 36.10821], [-80.23253, 36.10737], [-80.23338, 36.10735], [-80.23372, 36.1072], [-80.23381, 36.10536], [-80.233796, 36.105359], [-80.23288, 36.10527], [-80.232106, 36.10527], [-80.23158, 36.10527], [-80.231553, 36.105048], [-80.23152, 36.10477], [-80.23168, 36.1031], [-80.23147, 36.10275], [-80.22996, 36.10278], [-80.22913, 36.10263], [-80.228679, 36.102649], [-80.22795, 36.10268], [-80.22705, 36.10259], [-80.2255, 36.10268], [-80.22422, 36.10257], [-80.22326, 36.10395], [-80.22319, 36.10478], [-80.22328, 36.10693], [-80.22315, 36.10775], [-80.22319, 36.10946], [-80.22321, 36.11054], [-80.22263, 36.11143], [-80.222564, 36.110768], [-80.22249, 36.11002], [-80.22237, 36.10948], [-80.221, 36.10953], [-80.22003, 36.10952], [-80.21975, 36.10914], [-80.21952, 36.10696], [-80.22179, 36.1069], [-80.22197, 36.10665], [-80.22196, 36.10528], [-80.22202, 36.10444], [-80.22186, 36.10393], [-80.21943, 36.103961], [-80.2163, 36.104], [-80.21608, 36.10348], [-80.21608, 36.10275], [-80.21636, 36.10185], [-80.21697, 36.10111], [-80.21671, 36.10099], [-80.21486, 36.10114], [-80.21385, 36.10117], [-80.21212, 36.10114], [-80.21102, 36.10102], [-80.20942, 36.10059], [-80.20887, 36.1011], [-80.20781, 36.10168], [-80.20698, 36.10204], [-80.20557, 36.10303], [-80.20428, 36.10395], [-80.20311, 36.10461], [-80.20121, 36.10611], [-80.20055, 36.10515], [-80.19948, 36.10394], [-80.19985, 36.1034], [-80.20109, 36.1024], [-80.20457, 36.09975], [-80.20692, 36.09822], [-80.207498, 36.097803], [-80.20796, 36.09747], [-80.20895, 36.09687]]]}}, {"type": "Feature", "properties": {"area_id": 3231, "city": "Winston-Salem", "state": "NC", "city_survey": true, "cat": "Definitely Declining", "grade": "C", "label": "C5", "res": true, "com": false, "ind": false, "holc_grade": "C"}, "geometry": {"type": "Polygon", "coordinates": [[[-80.26437, 36.08377], [-80.26395, 36.0841], [-80.26229, 36.08396], [-80.26224, 36.08596], [-80.26207, 36.08693], [-80.262166, 36.090049], [-80.26217, 36.09019], [-80.26334, 36.09119], [-80.263674, 36.091302], [-80.26518, 36.09181], [-80.265171, 36.092033], [-80.26515, 36.09255], [-80.26515, 36.09264], [-80.26479, 36.09322], [-80.2618, 36.09371], [-80.25998, 36.09414], [-80.25903, 36.0947], [-80.25816, 36.09586], [-80.25796, 36.09701], [-80.25741, 36.09866], [-80.257221, 36.099052], [-80.25699, 36.09953], [-80.256745, 36.099857], [-80.25637, 36.10036], [-80.25466, 36.10067], [-80.25419, 36.1009], [-80.25413, 36.10127], [-80.25437, 36.10176], [-80.2553, 36.10245], [-80.25646, 36.10254], [-80.258013, 36.102445], [-80.25858, 36.10241], [-80.26036, 36.10168], [-80.260563, 36.101585], [-80.261096, 36.101334], [-80.26119, 36.10129], [-80.261259, 36.10135], [-80.26236, 36.1023], [-80.262362, 36.102309], [-80.26244, 36.10267], [-80.26174, 36.10337], [-80.26016, 36.10456], [-80.2589, 36.10483], [-80.25785, 36.10474], [-80.257817, 36.104742], [-80.25684, 36.10479], [-80.25626, 36.10487], [-80.25495, 36.10461], [-80.25394, 36.10474], [-80.25296, 36.10529], [-80.25214, 36.10615], [-80.25183, 36.10691], [-80.25139, 36.10754], [-80.25105, 36.10769], [-80.24896, 36.1077], [-80.2473, 36.10772], [-80.24627, 36.10774], [-80.24584, 36.10753], [-80.24568, 36.10594], [-80.24568, 36.10588], [-80.24557, 36.10513], [-80.24547, 36.10416], [-80.24564, 36.1037], [-80.24762, 36.1036], [-80.24861, 36.10363], [-80.2505, 36.10362], [-80.25066, 36.10313], [-80.25042, 36.10272], [-80.25015, 36.10104], [-80.250093, 36.100847], [-80.24996, 36.1004], [-80.24963, 36.09778], [-80.24929, 36.0964], [-80.24568, 36.09678], [-80.24519, 36.09666], [-80.24493, 36.09534], [-80.24479, 36.09423], [-80.24432, 36.09412], [-80.2435, 36.09429], [-80.24249, 36.0943], [-80.242329, 36.093402], [-80.24216, 36.09246], [-80.24272, 36.0923], [-80.24285, 36.09173], [-80.24253, 36.09079], [-80.24242, 36.0893], [-80.24218, 36.0891], [-80.24172, 36.0891], [-80.24145, 36.08824], [-80.24121, 36.08697], [-80.24105, 36.08514], [-80.24078, 36.08395], [-80.24061, 36.08313], [-80.24088, 36.08281], [-80.2441, 36.08147], [-80.24487, 36.08108], [-80.24503, 36.081], [-80.24688, 36.08033], [-80.24955, 36.0798], [-80.2511, 36.0799], [-80.25359, 36.07981], [-80.25531, 36.08001], [-80.25742, 36.07995], [-80.258281, 36.079854], [-80.26314, 36.07931], [-80.26428, 36.07913], [-80.26448, 36.08223], [-80.26437, 36.08377]]]}}, {"type": "Feature", "properties": {"area_id": 3228, "city": "Winston-Salem", "state": "NC", "city_survey": true, "cat": "Definitely Declining", "grade": "C", "label": "C6", "res": true, "com": false, "ind": false, "holc_grade": "C"}, "geometry": {"type": "Polygon", "coordinates": [[[-80.29224, 36.07792], [-80.292885, 36.078125], [-80.29328, 36.07825], [-80.29403, 36.07979], [-80.29471, 36.08035], [-80.29569, 36.08088], [-80.29686, 36.08118], [-80.29798, 36.08127], [-80.299, 36.08134], [-80.29996, 36.08161], [-80.30054, 36.08199], [-80.30067, 36.08273], [-80.30074, 36.08435], [-80.29999, 36.08539], [-80.2983, 36.08639], [-80.29669, 36.08714], [-80.29582, 36.08699], [-80.29413, 36.08571], [-80.29353, 36.08451], [-80.29357, 36.0827], [-80.29351, 36.08168], [-80.29246, 36.08126], [-80.29042, 36.08097], [-80.28922, 36.08061], [-80.28891, 36.07986], [-80.28891, 36.07807], [-80.289028, 36.078016], [-80.28926, 36.07791], [-80.29224, 36.07792]]]}}, {"type": "Feature", "properties": {"area_id": 3230, "city": "Winston-Salem", "state": "NC", "city_survey": true, "cat": "Definitely Declining", "grade": "C", "label": "C7", "res": true, "com": false, "ind": false, "holc_grade": "C"}, "geometry": {"type": "Polygon", "coordinates": [[[-80.28393, 36.07202], [-80.28407, 36.07258], [-80.28412, 36.07502], [-80.28429, 36.07572], [-80.28275, 36.07588], [-80.28167, 36.07594], [-80.28051, 36.07598], [-80.27876, 36.07597], [-80.27857, 36.07478], [-80.27358, 36.074808], [-80.27318, 36.07481], [-80.27308, 36.07575], [-80.27282, 36.07768], [-80.27284, 36.0795], [-80.27178, 36.07939], [-80.26943, 36.07923], [-80.26719, 36.07913], [-80.26428, 36.07913], [-80.26314, 36.07931], [-80.26315, 36.07266], [-80.26863, 36.07251], [-80.27161, 36.07233], [-80.273596, 36.07227], [-80.27957, 36.07209], [-80.28393, 36.07202]]]}}, {"type": "Feature", "properties": {"area_id": 3246, "city": "Winston-Salem", "state": "NC", "city_survey": true, "cat": "Definitely Declining", "grade": "C", "label": "C8", "res": true, "com": false, "ind": false, "holc_grade": "C"}, "geometry": {"type": "Polygon", "coordinates": [[[-80.24021, 36.07651], [-80.24257, 36.0762], [-80.24325, 36.07608], [-80.24417, 36.07602], [-80.2447, 36.07591], [-80.2453, 36.07647], [-80.246, 36.07694], [-80.24633, 36.07725], [-80.24635, 36.07753], [-80.24636, 36.07768], [-80.24574, 36.07839], [-80.24479, 36.07938], [-80.24402, 36.07914], [-80.24303, 36.0791], [-80.24176, 36.07937], [-80.240692, 36.079603], [-80.24066, 36.07961], [-80.240511, 36.078665], [-80.24032, 36.07745], [-80.24021, 36.07651]]]}}, {"type": "Feature", "properties": {"area_id": 3248, "city": "Winston-Salem", "state": "NC", "city_survey": true, "cat": "Definitely Declining", "grade": "C", "label": "C9", "res": true, "com": false, "ind": false, "holc_grade": "C"}, "geometry": {"type": "Polygon", "coordinates": [[[-80.242533, 36.047595], [-80.24278, 36.04938], [-80.24282, 36.05083], [-80.24284, 36.05364], [-80.24306, 36.05522], [-80.24338, 36.05661], [-80.24353, 36.05818], [-80.24352, 36.0597], [-80.243725, 36.060913], [-80.2438, 36.06136], [-80.243922, 36.062262], [-80.24393, 36.06232], [-80.244059, 36.062585], [-80.24412, 36.06271], [-80.24448, 36.06285], [-80.245702, 36.064977], [-80.24575, 36.06506], [-80.24638, 36.06553], [-80.24729, 36.06574], [-80.24822, 36.0658], [-80.250394, 36.064878], [-80.25053, 36.06482], [-80.250724, 36.064927], [-80.25183, 36.06554], [-80.25186, 36.06647], [-80.2517, 36.06801], [-80.25179, 36.06878], [-80.25223, 36.06946], [-80.25278, 36.07001], [-80.25344, 36.07053], [-80.25377, 36.07111], [-80.25366, 36.07179], [-80.25298, 36.07257], [-80.25287, 36.07306], [-80.25234, 36.07388], [-80.25211, 36.07432], [-80.25145, 36.07476], [-80.25042, 36.07482], [-80.24976, 36.07477], [-80.24925, 36.0747], [-80.24992, 36.07317], [-80.25031, 36.07233], [-80.24997, 36.07219], [-80.23959, 36.0733], [-80.239848, 36.07508], [-80.23988, 36.0753], [-80.23938, 36.07505], [-80.23848, 36.07422], [-80.23794, 36.07339], [-80.23719, 36.07294], [-80.23652, 36.07283], [-80.23617, 36.07293], [-80.23594, 36.07331], [-80.23545, 36.07372], [-80.23427, 36.07522], [-80.23382, 36.07516], [-80.23318, 36.07605], [-80.23258, 36.07592], [-80.23108, 36.07516], [-80.22986, 36.07464], [-80.22911, 36.07406], [-80.22865, 36.07303], [-80.22839, 36.07169], [-80.228397, 36.07132], [-80.22843, 36.06958], [-80.22798, 36.06941], [-80.22726, 36.06946], [-80.22715, 36.0696], [-80.22694, 36.069156], [-80.22689, 36.06905], [-80.226826, 36.068713], [-80.22675, 36.06831], [-80.22668, 36.06698], [-80.22679, 36.0661], [-80.22947, 36.06651], [-80.2306, 36.06665], [-80.23164, 36.06686], [-80.233539, 36.066976], [-80.23409, 36.06701], [-80.234199, 36.066659], [-80.23445, 36.06585], [-80.23474, 36.06424], [-80.234756, 36.063972], [-80.2348, 36.06323], [-80.23483, 36.06276], [-80.23483, 36.06182], [-80.23473, 36.05993], [-80.23477, 36.05884], [-80.23481, 36.05724], [-80.23511, 36.05693], [-80.23614, 36.05674], [-80.23819, 36.05655], [-80.23881, 36.05603], [-80.23905, 36.05559], [-80.23929, 36.05451], [-80.23929, 36.05316], [-80.23904, 36.05003], [-80.23894, 36.04959], [-80.23886, 36.04834], [-80.238939, 36.047724], [-80.23898, 36.0474], [-80.24218, 36.04725], [-80.24252, 36.0475], [-80.242533, 36.047595]]]}}, {"type": "Feature", "properties": {"area_id": 3234, "city": "Winston-Salem", "state": "NC", "city_survey": true, "cat": "Hazardous", "grade": "D", "label": "D1", "res": true, "com": false, "ind": false, "holc_grade": "D"}, "geometry": {"type": "Polygon", "coordinates": [[[-80.25224, 36.11648], [-80.25269, 36.11754], [-80.2543, 36.11999], [-80.25355, 36.11996], [-80.25142, 36.12002], [-80.25103, 36.12012], [-80.250636, 36.120124], [-80.24895, 36.12014], [-80.248663, 36.119674], [-80.248493, 36.119397], [-80.24847, 36.11936], [-80.24788, 36.11841], [-80.24745, 36.11736], [-80.24699, 36.11595], [-80.24668, 36.11586], [-80.24556, 36.11598], [-80.24502, 36.11612], [-80.24475, 36.11461], [-80.24348, 36.1149], [-80.24342, 36.11389], [-80.2435, 36.11272], [-80.24339, 36.11106], [-80.23952, 36.11126], [-80.23825, 36.1114], [-80.237269, 36.111776], [-80.23705, 36.11186], [-80.236432, 36.111937], [-80.23592, 36.112], [-80.23422, 36.11186], [-80.23411, 36.11083], [-80.23436, 36.11001], [-80.23438, 36.10979], [-80.23439, 36.10967], [-80.23461, 36.10924], [-80.23491, 36.10842], [-80.23669, 36.10655], [-80.237169, 36.105271], [-80.23724, 36.10508], [-80.2374, 36.10372], [-80.23789, 36.10123], [-80.239434, 36.101286], [-80.24231, 36.10139], [-80.2425, 36.10239], [-80.242667, 36.102804], [-80.2433, 36.10437], [-80.24389, 36.10576], [-80.2445, 36.10592], [-80.24532, 36.10589], [-80.24568, 36.10588], [-80.24568, 36.10594], [-80.24584, 36.10753], [-80.24627, 36.10774], [-80.2473, 36.10772], [-80.24896, 36.1077], [-80.25105, 36.10769], [-80.25139, 36.10754], [-80.25183, 36.10691], [-80.25214, 36.10615], [-80.25296, 36.10529], [-80.25394, 36.10474], [-80.25495, 36.10461], [-80.25626, 36.10487], [-80.25599, 36.10519], [-80.25506, 36.10583], [-80.255354, 36.10613], [-80.25552, 36.1063], [-80.25703, 36.10684], [-80.25733, 36.10774], [-80.258, 36.10874], [-80.25902, 36.10946], [-80.25945, 36.109823], [-80.25979, 36.11011], [-80.26031, 36.11083], [-80.26084, 36.11218], [-80.26126, 36.11345], [-80.261413, 36.114728], [-80.2615, 36.11545], [-80.261583, 36.116154], [-80.26166, 36.1168], [-80.26205, 36.11868], [-80.2622, 36.12042], [-80.26176, 36.1205], [-80.26017, 36.12022], [-80.260087, 36.12022], [-80.25939, 36.12022], [-80.2581, 36.12054], [-80.25776, 36.12033], [-80.25741, 36.12018], [-80.2564, 36.12002], [-80.2556, 36.11997], [-80.25508, 36.11917], [-80.25402, 36.11731], [-80.25336, 36.11571], [-80.252866, 36.11565], [-80.25278, 36.11564], [-80.25211, 36.11586], [-80.252213, 36.116351], [-80.25224, 36.11648]]]}}, {"type": "Feature", "properties": {"area_id": 3240, "city": "Winston-Salem", "state": "NC", "city_survey": true, "cat": "Hazardous", "grade": "D", "label": "D2", "res": true, "com": false, "ind": false, "holc_grade": "D"}, "geometry": {"type": "Polygon", "coordinates": [[[-80.21206, 36.11186], [-80.212073, 36.111863], [-80.21273, 36.112], [-80.21318, 36.112], [-80.21387, 36.11215], [-80.21468, 36.11282], [-80.21539, 36.11313], [-80.21598, 36.11363], [-80.21803, 36.11419], [-80.218433, 36.114381], [-80.21862, 36.11447], [-80.218815, 36.11439], [-80.21913, 36.11426], [-80.22017, 36.11342], [-80.22101, 36.11336], [-80.221529, 36.113377], [-80.22194, 36.11339], [-80.22353, 36.11342], [-80.22335, 36.11475], [-80.22351, 36.11507], [-80.22386, 36.11523], [-80.22423, 36.11511], [-80.22471, 36.11314], [-80.22604, 36.11306], [-80.22783, 36.11299], [-80.22924, 36.11301], [-80.23023, 36.11315], [-80.23123, 36.11319], [-80.23203, 36.1133], [-80.2336, 36.11352], [-80.23369, 36.11403], [-80.23351, 36.11633], [-80.23305, 36.1175], [-80.22499, 36.11766], [-80.22462, 36.11746], [-80.22429, 36.11698], [-80.22378, 36.11681], [-80.22037, 36.11692], [-80.2191, 36.11684], [-80.21766, 36.11685], [-80.217275, 36.116837], [-80.21594, 36.11679], [-80.21532, 36.11691], [-80.21402, 36.11723], [-80.21348, 36.11748], [-80.21331, 36.11787], [-80.21314, 36.11812], [-80.21269, 36.11827], [-80.21189, 36.11801], [-80.21139, 36.11754], [-80.21087, 36.11545], [-80.21044, 36.11462], [-80.21036, 36.113705], [-80.21026, 36.11257], [-80.21064, 36.11222], [-80.21206, 36.11186]]]}}, {"type": "Feature", "properties": {"area_id": 3241, "city": "Winston-Salem", "state": "NC", "city_survey": true, "cat": "Hazardous", "grade": "D", "label": "D3", "res": true, "com": false, "ind": false, "holc_grade": "D"}, "geometry": {"type": "Polygon", "coordinates": [[[-80.22996, 36.10278], [-80.23147, 36.10275], [-80.23168, 36.1031], [-80.23152, 36.10477], [-80.231553, 36.105048], [-80.23158, 36.10527], [-80.232106, 36.10527], [-80.23288, 36.10527], [-80.233796, 36.105359], [-80.23381, 36.10536], [-80.23372, 36.1072], [-80.23338, 36.10735], [-80.23253, 36.10737], [-80.23244, 36.10821], [-80.2323, 36.10933], [-80.2324, 36.10973], [-80.23438, 36.10979], [-80.23436, 36.11001], [-80.23411, 36.11083], [-80.23422, 36.11186], [-80.23386, 36.1123], [-80.23308, 36.1124], [-80.23159, 36.11226], [-80.23024, 36.11223], [-80.22815, 36.11204], [-80.22638, 36.11203], [-80.22471, 36.11238], [-80.22401, 36.1123], [-80.22332, 36.11235], [-80.22271, 36.11235], [-80.22263, 36.11143], [-80.22321, 36.11054], [-80.22319, 36.10946], [-80.22315, 36.10775], [-80.22328, 36.10693], [-80.22319, 36.10478], [-80.22326, 36.10395], [-80.22422, 36.10257], [-80.2255, 36.10268], [-80.22705, 36.10259], [-80.22795, 36.10268], [-80.228679, 36.102649], [-80.22913, 36.10263], [-80.22996, 36.10278]]]}}, {"type": "Feature", "properties": {"area_id": 3244, "city": "Winston-Salem", "state": "NC", "city_survey": true, "cat": "Hazardous", "grade": "D", "label": "D4", "res": true, "com": false, "ind": false, "holc_grade": "D"}, "geometry": {"type": "Polygon", "coordinates": [[[-80.22202, 36.10444], [-80.22196, 36.10528], [-80.22197, 36.10665], [-80.22179, 36.1069], [-80.21952, 36.10696], [-80.216626, 36.106985], [-80.21491, 36.107], [-80.21474, 36.10681], [-80.21484, 36.10602], [-80.21505, 36.10528], [-80.21591, 36.10433], [-80.2163, 36.104], [-80.21943, 36.103961], [-80.22186, 36.10393], [-80.22202, 36.10444]]]}}, {"type": "Feature", "properties": {"area_id": 3242, "city": "Winston-Salem", "state": "NC", "city_survey": true, "cat": "Hazardous", "grade": "D", "label": "D5", "res": true, "com": false, "ind": false, "holc_grade": "D"}, "geometry": {"type": "Polygon", "coordinates": [[[-80.24031, 36.07733], [-80.24032, 36.07745], [-80.240511, 36.078665], [-80.24066, 36.07961], [-80.240692, 36.079603], [-80.24176, 36.07937], [-80.24303, 36.0791], [-80.24402, 36.07914], [-80.24479, 36.07938], [-80.24503, 36.07967], [-80.245041, 36.079813], [-80.24508, 36.0803], [-80.24487, 36.08108], [-80.2441, 36.08147], [-80.24088, 36.08281], [-80.24061, 36.08313], [-80.24025, 36.08326], [-80.240054, 36.083407], [-80.23977, 36.08362], [-80.23885, 36.08438], [-80.23797, 36.08551], [-80.23709, 36.08723], [-80.23701, 36.08804], [-80.23705, 36.08879], [-80.23757, 36.09125], [-80.237591, 36.091337], [-80.23787, 36.09248], [-80.23875, 36.09281], [-80.24216, 36.09246], [-80.242329, 36.093402], [-80.24249, 36.0943], [-80.24147, 36.09453], [-80.23937, 36.09475], [-80.23912, 36.09437], [-80.23863, 36.09381], [-80.23813, 36.09337], [-80.237848, 36.093285], [-80.2377, 36.09324], [-80.237561, 36.093322], [-80.237145, 36.093569], [-80.23674, 36.09381], [-80.23584, 36.09395], [-80.23493, 36.09407], [-80.23407, 36.0942], [-80.2338, 36.09441], [-80.23389, 36.09501], [-80.23381, 36.09642], [-80.23396, 36.09749], [-80.23385, 36.09913], [-80.23212, 36.09936], [-80.23092, 36.09939], [-80.22995, 36.09941], [-80.22969, 36.09925], [-80.22967, 36.09711], [-80.22987, 36.09568], [-80.22968, 36.09534], [-80.229, 36.09538], [-80.22756, 36.09574], [-80.22621, 36.09592], [-80.2251, 36.09572], [-80.2237, 36.09527], [-80.223665, 36.09526], [-80.223, 36.09506], [-80.22305, 36.094103], [-80.22313, 36.09257], [-80.22483, 36.09266], [-80.22541, 36.0927], [-80.22587, 36.09273], [-80.22722, 36.09317], [-80.22883, 36.09334], [-80.229899, 36.09318], [-80.230328, 36.093116], [-80.23037, 36.09311], [-80.23037, 36.093108], [-80.2302, 36.09123], [-80.22989, 36.09038], [-80.22961, 36.08929], [-80.22957, 36.08865], [-80.22978, 36.08796], [-80.22993, 36.08765], [-80.22984, 36.0873], [-80.22958, 36.08713], [-80.22888, 36.08685], [-80.22863, 36.08637], [-80.22872, 36.0856], [-80.22905, 36.08465], [-80.22917, 36.08406], [-80.22942, 36.08342], [-80.22981, 36.08292], [-80.22991, 36.08237], [-80.22977, 36.0817], [-80.22936, 36.08114], [-80.22875, 36.08076], [-80.22824, 36.07872], [-80.22782, 36.07756], [-80.227815, 36.077533], [-80.22738, 36.07517], [-80.2273, 36.07449], [-80.22724, 36.07398], [-80.22706, 36.07346], [-80.2271, 36.07214], [-80.22708, 36.07055], [-80.227076, 36.070403], [-80.22706, 36.06971], [-80.22715, 36.0696], [-80.22726, 36.06946], [-80.22798, 36.06941], [-80.22843, 36.06958], [-80.228397, 36.07132], [-80.22839, 36.07169], [-80.22865, 36.07303], [-80.22911, 36.07406], [-80.22986, 36.07464], [-80.23108, 36.07516], [-80.23258, 36.07592], [-80.23318, 36.07605], [-80.23382, 36.07516], [-80.23427, 36.07522], [-80.23443, 36.07524], [-80.23701, 36.07809], [-80.23788, 36.07791], [-80.23901, 36.07754], [-80.240284, 36.077334], [-80.24031, 36.07733]]]}}, {"type": "Feature", "properties": {"area_id": 3249, "city": "Winston-Salem", "state": "NC", "city_survey": true, "cat": "Hazardous", "grade": "D", "label": "D6", "res": true, "com": false, "ind": false, "holc_grade": "D"}, "geometry": {"type": "Polygon", "coordinates": [[[-80.21499, 36.05881], [-80.21567, 36.05854], [-80.21623, 36.05859], [-80.21854, 36.05851], [-80.22055, 36.05829], [-80.22141, 36.05734], [-80.22223, 36.05577], [-80.22249, 36.05452], [-80.22245, 36.05359], [-80.22234, 36.05131], [-80.22191, 36.04945], [-80.22199, 36.04883], [-80.22243, 36.04866], [-80.22441, 36.04875], [-80.22517, 36.04895], [-80.22558, 36.05058], [-80.22567, 36.05139], [-80.225675, 36.051415], [-80.22597, 36.05294], [-80.22635, 36.05534], [-80.22638, 36.0564], [-80.22662, 36.05757], [-80.22719, 36.05846], [-80.22814, 36.05947], [-80.22868, 36.0605], [-80.2291, 36.0618], [-80.229628, 36.06231], [-80.22971, 36.06239], [-80.23127, 36.06278], [-80.232309, 36.062898], [-80.23294, 36.06297], [-80.2348, 36.06323], [-80.234756, 36.063972], [-80.23474, 36.06424], [-80.23445, 36.06585], [-80.234199, 36.066659], [-80.23409, 36.06701], [-80.233539, 36.066976], [-80.23164, 36.06686], [-80.2306, 36.06665], [-80.22947, 36.06651], [-80.22679, 36.0661], [-80.22406, 36.06578], [-80.22281, 36.06557], [-80.2216, 36.06551], [-80.22001, 36.06525], [-80.21834, 36.06515], [-80.218284, 36.065053], [-80.21654, 36.06206], [-80.216268, 36.061643], [-80.21535, 36.06024], [-80.2145, 36.05933], [-80.21499, 36.05881]]]}}, {"type": "Feature", "properties": {"area_id": 11350, "city": "Winston-Salem", "state": "NC", "city_survey": true, "cat": "Industrial and Commercial", "grade": null, "label": "Industrial and Commercial", "res": false, "com": true, "ind": true, "holc_grade": null}, "geometry": {"type": "MultiPolygon", "coordinates": [[[[-80.23528, 36.11761], [-80.2356, 36.11647], [-80.23566, 36.11483], [-80.23612, 36.11467], [-80.236538, 36.114716], [-80.23657, 36.11472], [-80.237, 36.11463], [-80.23727, 36.11481], [-80.23665, 36.1173], [-80.2364, 36.1181], [-80.23622, 36.1183], [-80.23599, 36.11997], [-80.23615, 36.12121], [-80.23616, 36.12341], [-80.23659, 36.12447], [-80.23664, 36.1252], [-80.23685, 36.12589], [-80.235978, 36.126109], [-80.23335, 36.12677], [-80.233398, 36.126493], [-80.23347, 36.126075], [-80.23357, 36.12549], [-80.233659, 36.124507], [-80.23377, 36.12327], [-80.23388, 36.12199], [-80.23468, 36.11953], [-80.23528, 36.11761]]], [[[-80.237848, 36.093285], [-80.23813, 36.09337], [-80.23863, 36.09381], [-80.23912, 36.09437], [-80.23937, 36.09475], [-80.24147, 36.09453], [-80.24249, 36.0943], [-80.2435, 36.09429], [-80.24432, 36.09412], [-80.24479, 36.09423], [-80.24493, 36.09534], [-80.24519, 36.09666], [-80.24568, 36.09678], [-80.24929, 36.0964], [-80.24963, 36.09778], [-80.24996, 36.1004], [-80.250093, 36.100847], [-80.25015, 36.10104], [-80.25042, 36.10272], [-80.25066, 36.10313], [-80.2505, 36.10362], [-80.24861, 36.10363], [-80.24762, 36.1036], [-80.24564, 36.1037], [-80.24547, 36.10416], [-80.24557, 36.10513], [-80.24568, 36.10588], [-80.24532, 36.10589], [-80.2445, 36.10592], [-80.24389, 36.10576], [-80.2433, 36.10437], [-80.242667, 36.102804], [-80.2425, 36.10239], [-80.24231, 36.10139], [-80.239434, 36.101286], [-80.23789, 36.10123], [-80.23789, 36.10024], [-80.23762, 36.09892], [-80.23731, 36.09838], [-80.23644, 36.09752], [-80.23538, 36.09687], [-80.23444, 36.0962], [-80.23461, 36.09562], [-80.23478, 36.09509], [-80.23493, 36.09407], [-80.23584, 36.09395], [-80.23674, 36.09381], [-80.237145, 36.093569], [-80.237561, 36.093322], [-80.2377, 36.09324], [-80.237848, 36.093285]]]]}}]}