{"type": "FeatureCollection", "features": [{"type": "Feature", "properties": {"area_id": 3405, "city": "Muncie", "state": "IN", "city_survey": true, "cat": "Still Desirable", "grade": "B", "label": "B1", "res": true, "com": false, "ind": false, "holc_grade": "B"}, "geometry": {"type": "Polygon", "coordinates": [[[-85.41034, 40.19021], [-85.4128, 40.19026], [-85.41278, 40.19057], [-85.41593, 40.19067], [-85.41591, 40.19161], [-85.41915, 40.19166], [-85.41986, 40.19166], [-85.41988, 40.19362], [-85.41994, 40.19563], [-85.41991, 40.19687], [-85.419935, 40.197589], [-85.41997, 40.1986], [-85.41992, 40.20013], [-85.419124, 40.200216], [-85.41909, 40.20022], [-85.41909, 40.19852], [-85.41908, 40.19774], [-85.41517, 40.19775], [-85.41526, 40.19582], [-85.415263, 40.195715], [-85.41535, 40.19302], [-85.41161, 40.19301], [-85.41157, 40.19564], [-85.411493, 40.195727], [-85.41149, 40.19573], [-85.411371, 40.195726], [-85.41093, 40.19571], [-85.41093, 40.195723], [-85.41094, 40.19774], [-85.40798, 40.19775], [-85.4079, 40.20033], [-85.40316, 40.2003], [-85.403159, 40.20028], [-85.40311, 40.19892], [-85.40308, 40.19774], [-85.399, 40.19772], [-85.39898, 40.200223], [-85.39898, 40.20025], [-85.39427, 40.20022], [-85.39357, 40.20039], [-85.39353, 40.20104], [-85.39245, 40.20102], [-85.392096, 40.200496], [-85.3906, 40.19828], [-85.39055, 40.19814], [-85.38975, 40.19753], [-85.39334, 40.19644], [-85.39198, 40.19521], [-85.39225, 40.19511], [-85.39319, 40.19505], [-85.39422, 40.19592], [-85.39429, 40.19492], [-85.39456, 40.19481], [-85.39546, 40.1949], [-85.39611, 40.19496], [-85.39641, 40.195], [-85.39698, 40.19483], [-85.39723, 40.1946], [-85.397374, 40.194469], [-85.39768, 40.19419], [-85.397698, 40.19418], [-85.39887, 40.19354], [-85.39883, 40.19533], [-85.40013, 40.19536], [-85.40019, 40.19285], [-85.40459, 40.19288], [-85.4046, 40.19167], [-85.40551, 40.19153], [-85.40645, 40.19119], [-85.407606, 40.190632], [-85.4091, 40.18991], [-85.40912, 40.18963], [-85.41031, 40.18965], [-85.41034, 40.19021]], [[-85.39691, 40.19925], [-85.3969, 40.19832], [-85.39565, 40.19833], [-85.39565, 40.19925], [-85.39691, 40.19925]], [[-85.40885, 40.19472], [-85.40884, 40.19397], [-85.40792, 40.19398], [-85.4079, 40.19471], [-85.40885, 40.19472]]]}}, {"type": "Feature", "properties": {"area_id": 3408, "city": "Muncie", "state": "IN", "city_survey": true, "cat": "Still Desirable", "grade": "B", "label": "B2", "res": true, "com": false, "ind": false, "holc_grade": "B"}, "geometry": {"type": "Polygon", "coordinates": [[[-85.400974, 40.204061], [-85.40086, 40.20738], [-85.40085, 40.20757], [-85.39949, 40.20754], [-85.39836, 40.20745], [-85.39672, 40.20744], [-85.39611, 40.20747], [-85.396002, 40.207466], [-85.39584, 40.20746], [-85.39408, 40.2073], [-85.39413, 40.20467], [-85.394329, 40.204665], [-85.39452, 40.20466], [-85.39425, 40.20426], [-85.39431, 40.20173], [-85.400945, 40.201848], [-85.40105, 40.20185], [-85.400974, 40.204061]]]}}, {"type": "Feature", "properties": {"area_id": 3409, "city": "Muncie", "state": "IN", "city_survey": true, "cat": "Still Desirable", "grade": "B", "label": "B3", "res": true, "com": false, "ind": false, "holc_grade": "B"}, "geometry": {"type": "Polygon", "coordinates": [[[-85.38262, 40.20875], [-85.38056, 40.2087], [-85.38241, 40.20299], [-85.38273, 40.20307], [-85.38308, 40.20322], [-85.38364, 40.20353], [-85.38529, 40.20412], [-85.38585, 40.20423], [-85.38645, 40.20423], [-85.3871, 40.20438], [-85.38801, 40.20445], [-85.38923, 40.20441], [-85.3895, 40.20433], [-85.39037, 40.20424], [-85.39155, 40.20375], [-85.39211, 40.20327], [-85.39245, 40.2027], [-85.39254, 40.20222], [-85.39261, 40.20213], [-85.39302, 40.20252], [-85.39304, 40.20266], [-85.3928, 40.20306], [-85.39231, 40.2037], [-85.39187, 40.20399], [-85.39042, 40.20459], [-85.38998, 40.20462], [-85.38949, 40.20476], [-85.38847, 40.2048], [-85.38676, 40.20477], [-85.38637, 40.20468], [-85.38605, 40.20467], [-85.3839, 40.20723], [-85.3851, 40.2074], [-85.38518, 40.20721], [-85.38674, 40.20716], [-85.38645, 40.20562], [-85.39005, 40.20574], [-85.39003, 40.20714], [-85.38674, 40.20719], [-85.38697, 40.20886], [-85.38634, 40.20884], [-85.38262, 40.20875]]]}}, {"type": "Feature", "properties": {"area_id": 3406, "city": "Muncie", "state": "IN", "city_survey": true, "cat": "Definitely Declining", "grade": "C", "label": "C1", "res": true, "com": false, "ind": false, "holc_grade": "C"}, "geometry": {"type": "Polygon", "coordinates": [[[-85.41515, 40.20026], [-85.41515, 40.200263], [-85.41518, 40.20487], [-85.41292, 40.20489], [-85.413113, 40.207385], [-85.41313, 40.20761], [-85.40972, 40.20752], [-85.409716, 40.207285], [-85.40969, 40.20573], [-85.40964, 40.20396], [-85.409632, 40.202446], [-85.40962, 40.20027], [-85.411997, 40.200266], [-85.414994, 40.20026], [-85.41515, 40.20026]]]}}, {"type": "Feature", "properties": {"area_id": 3402, "city": "Muncie", "state": "IN", "city_survey": true, "cat": "Definitely Declining", "grade": "C", "label": "C10", "res": true, "com": false, "ind": false, "holc_grade": "C"}, "geometry": {"type": "Polygon", "coordinates": [[[-85.39266, 40.1782], [-85.39383, 40.17819], [-85.39671, 40.17824], [-85.398587, 40.178245], [-85.40058, 40.17825], [-85.4006, 40.17931], [-85.4013, 40.17932], [-85.40132, 40.17825], [-85.40726, 40.17827], [-85.40724, 40.18191], [-85.40716, 40.18196], [-85.40711, 40.18397], [-85.40544, 40.18398], [-85.40543, 40.18411], [-85.40137, 40.18408], [-85.40134, 40.18324], [-85.40035, 40.18324], [-85.40035, 40.18215], [-85.39647, 40.18216], [-85.39646, 40.18245], [-85.39596, 40.18245], [-85.3959, 40.18516], [-85.39498, 40.18514], [-85.39497, 40.18525], [-85.39269, 40.18518], [-85.39299, 40.18479], [-85.392569, 40.184533], [-85.39119, 40.18369], [-85.3924, 40.18245], [-85.39195, 40.18246], [-85.39192, 40.18204], [-85.39139, 40.18205], [-85.391371, 40.178327], [-85.39137, 40.1782], [-85.39266, 40.1782]], [[-85.39947, 40.18133], [-85.39964, 40.18116], [-85.39966, 40.18042], [-85.3996, 40.18029], [-85.39825, 40.18029], [-85.39824, 40.18131], [-85.39947, 40.18133]]]}}, {"type": "Feature", "properties": {"area_id": 3420, "city": "Muncie", "state": "IN", "city_survey": true, "cat": "Definitely Declining", "grade": "C", "label": "C11", "res": true, "com": false, "ind": false, "holc_grade": "C"}, "geometry": {"type": "Polygon", "coordinates": [[[-85.38159, 40.18124], [-85.38156, 40.17846], [-85.381642, 40.17846], [-85.39044, 40.17845], [-85.39044, 40.17931], [-85.38985, 40.17932], [-85.38992, 40.18302], [-85.38917, 40.18301], [-85.38919, 40.1838], [-85.38994, 40.18381], [-85.38996, 40.1847], [-85.38711, 40.18468], [-85.38712, 40.1856], [-85.381756, 40.185565], [-85.38091, 40.18556], [-85.37709, 40.18552], [-85.37711, 40.181321], [-85.37711, 40.18129], [-85.38159, 40.18124]], [[-85.38464, 40.18515], [-85.38561, 40.18517], [-85.38563, 40.18422], [-85.38467, 40.18422], [-85.38464, 40.18515]]]}}, {"type": "Feature", "properties": {"area_id": 3419, "city": "Muncie", "state": "IN", "city_survey": true, "cat": "Definitely Declining", "grade": "C", "label": "C12", "res": true, "com": false, "ind": false, "holc_grade": "C"}, "geometry": {"type": "MultiPolygon", "coordinates": [[[[-85.367368, 40.172211], [-85.36752, 40.17221], [-85.36757, 40.1744], [-85.367461, 40.174398], [-85.3666, 40.17438], [-85.36272, 40.17439], [-85.36262, 40.17223], [-85.367368, 40.172211]]], [[[-85.362996, 40.17883], [-85.36298, 40.17883], [-85.362961, 40.178303], [-85.36293, 40.17746], [-85.36382, 40.17737], [-85.367566, 40.177322], [-85.36769, 40.17732], [-85.36771, 40.17877], [-85.367616, 40.178771], [-85.362996, 40.17883]]], [[[-85.37709, 40.18552], [-85.37694, 40.18552], [-85.37276, 40.18555], [-85.37275, 40.1876], [-85.36779, 40.1876], [-85.36782, 40.18838], [-85.37272, 40.18844], [-85.37274, 40.18898], [-85.3712, 40.18901], [-85.37117, 40.19012], [-85.3706, 40.19011], [-85.3706, 40.190268], [-85.3706, 40.19038], [-85.36998, 40.19048], [-85.36892, 40.18971], [-85.36741, 40.18943], [-85.36722, 40.19025], [-85.36506, 40.19001], [-85.36516, 40.18958], [-85.36376, 40.18904], [-85.36443, 40.18777], [-85.3632, 40.18732], [-85.36314, 40.18718], [-85.36318, 40.18679], [-85.36519, 40.18753], [-85.36568, 40.18569], [-85.36375, 40.18569], [-85.3637, 40.18477], [-85.36484, 40.18474], [-85.36484, 40.1819], [-85.36705, 40.18187], [-85.36707, 40.183], [-85.367654, 40.182989], [-85.36861, 40.18297], [-85.368597, 40.182184], [-85.36859, 40.18175], [-85.37121, 40.18177], [-85.37124, 40.18177], [-85.371249, 40.181324], [-85.37125, 40.18127], [-85.37711, 40.18129], [-85.37711, 40.181321], [-85.37709, 40.18552]], [[-85.3664, 40.18278], [-85.36554, 40.18277], [-85.36551, 40.1845], [-85.36634, 40.18454], [-85.3664, 40.18278]]]]}}, {"type": "Feature", "properties": {"area_id": 3421, "city": "Muncie", "state": "IN", "city_survey": true, "cat": "Definitely Declining", "grade": "C", "label": "C13", "res": true, "com": false, "ind": false, "holc_grade": "C"}, "geometry": {"type": "Polygon", "coordinates": [[[-85.38643, 40.17383], [-85.38749, 40.17384], [-85.38749, 40.17485], [-85.391, 40.17492], [-85.39101, 40.17655], [-85.38736, 40.17657], [-85.38739, 40.17754], [-85.38984, 40.17757], [-85.38985, 40.17787], [-85.39107, 40.17789], [-85.39107, 40.17816], [-85.39043, 40.17816], [-85.390436, 40.178322], [-85.39044, 40.17845], [-85.381642, 40.17846], [-85.38156, 40.17846], [-85.38061, 40.17847], [-85.38059, 40.1773], [-85.38056, 40.17533], [-85.38157, 40.17535], [-85.38159, 40.17174], [-85.381661, 40.171739], [-85.38638, 40.17169], [-85.38643, 40.17383]]]}}, {"type": "Feature", "properties": {"area_id": 3422, "city": "Muncie", "state": "IN", "city_survey": true, "cat": "Definitely Declining", "grade": "C", "label": "C14", "res": true, "com": false, "ind": false, "holc_grade": "C"}, "geometry": {"type": "Polygon", "coordinates": [[[-85.38061, 40.17847], [-85.37576, 40.17852], [-85.37466, 40.17849], [-85.37359, 40.17848], [-85.3724, 40.17851], [-85.37225, 40.17284], [-85.37228, 40.17267], [-85.37243, 40.17246], [-85.37265, 40.17231], [-85.37725, 40.1723], [-85.37726, 40.17729], [-85.38059, 40.1773], [-85.38061, 40.17847]]]}}, {"type": "Feature", "properties": {"area_id": 3425, "city": "Muncie", "state": "IN", "city_survey": true, "cat": "Definitely Declining", "grade": "C", "label": "C15", "res": true, "com": false, "ind": false, "holc_grade": "C"}, "geometry": {"type": "MultiPolygon", "coordinates": [[[[-85.35408, 40.1747], [-85.35405, 40.17633], [-85.35576, 40.17636], [-85.35581, 40.17777], [-85.35583, 40.1784], [-85.35498, 40.17838], [-85.35332, 40.17834], [-85.35339, 40.18089], [-85.35178, 40.18086], [-85.35171, 40.18118], [-85.35169, 40.18273], [-85.35018, 40.18223], [-85.35021, 40.18069], [-85.35023, 40.18007], [-85.35045, 40.17896], [-85.35044, 40.17856], [-85.34717, 40.1785], [-85.346293, 40.176405], [-85.34563, 40.17482], [-85.351106, 40.174742], [-85.35408, 40.1747]]], [[[-85.35537, 40.18367], [-85.3551, 40.18399], [-85.35372, 40.1835], [-85.35393, 40.18313], [-85.35334, 40.18294], [-85.35333, 40.18261], [-85.3553, 40.18266], [-85.35537, 40.18367]]], [[[-85.36197, 40.18083], [-85.36098, 40.1808], [-85.36107, 40.18604], [-85.35715, 40.18471], [-85.35734, 40.1844], [-85.35738, 40.18172], [-85.35731, 40.17847], [-85.36039, 40.17841], [-85.36197, 40.18083]]]]}}, {"type": "Feature", "properties": {"area_id": 3407, "city": "Muncie", "state": "IN", "city_survey": true, "cat": "Definitely Declining", "grade": "C", "label": "C2", "res": true, "com": false, "ind": false, "holc_grade": "C"}, "geometry": {"type": "MultiPolygon", "coordinates": [[[[-85.40569, 40.20925], [-85.40564, 40.20987], [-85.40455, 40.20937], [-85.40291, 40.20879], [-85.40097, 40.20814], [-85.3994, 40.2081], [-85.3974, 40.20794], [-85.39721, 40.20797], [-85.39898, 40.21128], [-85.40046, 40.21155], [-85.40103, 40.21173], [-85.40113, 40.21268], [-85.40018, 40.21259], [-85.39885, 40.21237], [-85.3988, 40.212368], [-85.39608, 40.21224], [-85.39599, 40.21023], [-85.39165, 40.21009], [-85.39168, 40.21334], [-85.38636, 40.21319], [-85.38633, 40.2115], [-85.38628, 40.21067], [-85.38634, 40.21015], [-85.38634, 40.20884], [-85.38697, 40.20886], [-85.38991, 40.20895], [-85.39232, 40.20901], [-85.39521, 40.20919], [-85.39685, 40.20921], [-85.39584, 40.20746], [-85.396002, 40.207466], [-85.39611, 40.20747], [-85.39672, 40.20744], [-85.39836, 40.20745], [-85.39949, 40.20754], [-85.40085, 40.20757], [-85.40086, 40.20738], [-85.403441, 40.208379], [-85.405503, 40.209178], [-85.40569, 40.20925]], [[-85.38704, 40.21026], [-85.38849, 40.21029], [-85.38847, 40.20928], [-85.38699, 40.20928], [-85.38704, 40.21026]]], [[[-85.40725, 40.21049], [-85.40721, 40.21046], [-85.40714, 40.20983], [-85.408229, 40.210197], [-85.40963, 40.21067], [-85.40963, 40.210711], [-85.40963, 40.21145], [-85.40725, 40.21049]]]]}}, {"type": "Feature", "properties": {"area_id": 3410, "city": "Muncie", "state": "IN", "city_survey": true, "cat": "Definitely Declining", "grade": "C", "label": "C3", "res": true, "com": false, "ind": false, "holc_grade": "C"}, "geometry": {"type": "Polygon", "coordinates": [[[-85.38085, 40.20527], [-85.38073, 40.20562], [-85.38124, 40.20575], [-85.38126, 40.20531], [-85.38116, 40.20519], [-85.38109, 40.20384], [-85.38116, 40.20215], [-85.38129, 40.20194], [-85.38217, 40.20283], [-85.38241, 40.20299], [-85.38056, 40.2087], [-85.38262, 40.20875], [-85.38303, 40.20936], [-85.38149, 40.21141], [-85.380121, 40.211349], [-85.37992, 40.21134], [-85.37994, 40.21049], [-85.37833, 40.21041], [-85.3783, 40.20975], [-85.37836, 40.20865], [-85.37923, 40.20866], [-85.379244, 40.208618], [-85.38036, 40.20517], [-85.38085, 40.20527]]]}}, {"type": "Feature", "properties": {"area_id": 3411, "city": "Muncie", "state": "IN", "city_survey": true, "cat": "Definitely Declining", "grade": "C", "label": "C4", "res": true, "com": false, "ind": false, "holc_grade": "C"}, "geometry": {"type": "Polygon", "coordinates": [[[-85.38431, 40.20338], [-85.38384, 40.2032], [-85.38353, 40.2031], [-85.38316, 40.20282], [-85.38284, 40.20254], [-85.38251, 40.20229], [-85.38184, 40.20186], [-85.3815, 40.20155], [-85.3816, 40.19695], [-85.38434, 40.19702], [-85.38531, 40.19704], [-85.38528, 40.19751], [-85.38411, 40.19747], [-85.3841, 40.19836], [-85.38661, 40.19848], [-85.38647, 40.2039], [-85.38572, 40.20391], [-85.385308, 40.203842], [-85.38505, 40.2038], [-85.384869, 40.203712], [-85.38468, 40.20362], [-85.38431, 40.20338]]]}}, {"type": "Feature", "properties": {"area_id": 3404, "city": "Muncie", "state": "IN", "city_survey": true, "cat": "Definitely Declining", "grade": "C", "label": "C5", "res": true, "com": false, "ind": false, "holc_grade": "C"}, "geometry": {"type": "Polygon", "coordinates": [[[-85.41915, 40.19166], [-85.41912, 40.19063], [-85.41735, 40.19062], [-85.41733, 40.19002], [-85.41546, 40.19], [-85.41542, 40.18774], [-85.41339, 40.18819], [-85.41336, 40.1859], [-85.4205, 40.18588], [-85.42053, 40.18764], [-85.42094, 40.18776], [-85.42134, 40.18779], [-85.42145, 40.19037], [-85.42148, 40.19185], [-85.41988, 40.19146], [-85.41986, 40.19166], [-85.41915, 40.19166]]]}}, {"type": "Feature", "properties": {"area_id": 3424, "city": "Muncie", "state": "IN", "city_survey": true, "cat": "Definitely Declining", "grade": "C", "label": "C6", "res": true, "com": false, "ind": false, "holc_grade": "C"}, "geometry": {"type": "Polygon", "coordinates": [[[-85.39179, 40.18853], [-85.39233, 40.18846], [-85.39488, 40.18718], [-85.39626, 40.18694], [-85.39681, 40.18703], [-85.40012, 40.18702], [-85.4001, 40.18877], [-85.40055, 40.18885], [-85.3955, 40.19229], [-85.39507, 40.1928], [-85.39892, 40.19287], [-85.39887, 40.19309], [-85.39799, 40.19353], [-85.39755, 40.19373], [-85.39737, 40.19391], [-85.39308, 40.19393], [-85.39302, 40.19441], [-85.39228, 40.19447], [-85.39172, 40.19461], [-85.39106, 40.19492], [-85.39066, 40.19503], [-85.38998, 40.19545], [-85.389822, 40.195445], [-85.38869, 40.19541], [-85.38876, 40.19114], [-85.38824, 40.19114], [-85.38825, 40.18927], [-85.38934, 40.18928], [-85.38933, 40.18879], [-85.38969, 40.18871], [-85.389946, 40.188679], [-85.39043, 40.18862], [-85.39179, 40.18853]], [[-85.39338, 40.1922], [-85.39335, 40.19286], [-85.39417, 40.19287], [-85.3942, 40.1922], [-85.39338, 40.1922]]]}}, {"type": "Feature", "properties": {"area_id": 3412, "city": "Muncie", "state": "IN", "city_survey": true, "cat": "Definitely Declining", "grade": "C", "label": "C7", "res": true, "com": false, "ind": false, "holc_grade": "C"}, "geometry": {"type": "Polygon", "coordinates": [[[-85.38175, 40.19057], [-85.38178, 40.1902], [-85.38233, 40.1902], [-85.38272, 40.18985], [-85.38319, 40.18966], [-85.38353, 40.18952], [-85.38418, 40.18927], [-85.38449, 40.18916], [-85.38434, 40.19702], [-85.3816, 40.19695], [-85.37806, 40.19689], [-85.37728, 40.1967], [-85.37742, 40.19344], [-85.3772, 40.19341], [-85.37729, 40.19054], [-85.38175, 40.19057]], [[-85.37859, 40.19105], [-85.37856, 40.19178], [-85.37941, 40.1918], [-85.37949, 40.1911], [-85.37859, 40.19105]]]}}, {"type": "Feature", "properties": {"area_id": 3413, "city": "Muncie", "state": "IN", "city_survey": true, "cat": "Definitely Declining", "grade": "C", "label": "C8", "res": true, "com": false, "ind": false, "holc_grade": "C"}, "geometry": {"type": "MultiPolygon", "coordinates": [[[[-85.37742, 40.19344], [-85.37728, 40.1967], [-85.37671, 40.19658], [-85.37676, 40.1951], [-85.3761, 40.1951], [-85.37611, 40.19451], [-85.37082, 40.19443], [-85.37082, 40.19555], [-85.3687, 40.1955], [-85.36874, 40.19435], [-85.36783, 40.19433], [-85.36781, 40.19244], [-85.36892, 40.19215], [-85.37341, 40.19218], [-85.37345, 40.19133], [-85.37498, 40.19136], [-85.37502, 40.19059], [-85.37728, 40.1902], [-85.37729, 40.19054], [-85.3772, 40.19341], [-85.37742, 40.19344]]], [[[-85.37221, 40.19697], [-85.37219, 40.19805], [-85.37002, 40.19908], [-85.36951, 40.19925], [-85.36953, 40.19859], [-85.3685, 40.19855], [-85.36808, 40.19724], [-85.3691, 40.19723], [-85.36912, 40.19694], [-85.37221, 40.19697]]]]}}, {"type": "Feature", "properties": {"area_id": 3403, "city": "Muncie", "state": "IN", "city_survey": true, "cat": "Definitely Declining", "grade": "C", "label": "C9", "res": true, "com": false, "ind": false, "holc_grade": "C"}, "geometry": {"type": "Polygon", "coordinates": [[[-85.41471, 40.18228], [-85.41473, 40.18323], [-85.41088, 40.1833], [-85.41091, 40.18194], [-85.40724, 40.18191], [-85.40726, 40.17827], [-85.40749, 40.17827], [-85.40817, 40.17824], [-85.41644, 40.17828], [-85.42084, 40.17838], [-85.42085, 40.17909], [-85.42077, 40.18212], [-85.42439, 40.18153], [-85.42448, 40.18449], [-85.42363, 40.18463], [-85.422467, 40.184945], [-85.42219, 40.18502], [-85.42096, 40.18539], [-85.42054, 40.18541], [-85.42023, 40.18535], [-85.4199, 40.1852], [-85.4196, 40.18498], [-85.419493, 40.184926], [-85.41936, 40.18486], [-85.41912, 40.18482], [-85.419107, 40.184816], [-85.41886, 40.18474], [-85.41823, 40.18464], [-85.41772, 40.18458], [-85.41766, 40.18358], [-85.4174, 40.18318], [-85.4174, 40.182825], [-85.4174, 40.18228], [-85.41471, 40.18228]], [[-85.41478, 40.1809], [-85.41477, 40.18192], [-85.41683, 40.18192], [-85.41683, 40.18088], [-85.41478, 40.1809]]]}}, {"type": "Feature", "properties": {"area_id": 3428, "city": "Muncie", "state": "IN", "city_survey": true, "cat": "Hazardous", "grade": "D", "label": "D1", "res": true, "com": false, "ind": false, "holc_grade": "D"}, "geometry": {"type": "Polygon", "coordinates": [[[-85.40104, 40.211], [-85.40097, 40.20814], [-85.40291, 40.20879], [-85.40455, 40.20937], [-85.40564, 40.20987], [-85.40565, 40.21156], [-85.40718, 40.21163], [-85.40724, 40.21076], [-85.40721, 40.21046], [-85.40725, 40.21049], [-85.40963, 40.21145], [-85.40958, 40.21361], [-85.40948, 40.21372], [-85.40534, 40.21371], [-85.40528, 40.2127], [-85.40113, 40.21268], [-85.40103, 40.21173], [-85.40104, 40.211]]]}}, {"type": "Feature", "properties": {"area_id": 3415, "city": "Muncie", "state": "IN", "city_survey": true, "cat": "Hazardous", "grade": "D", "label": "D2", "res": true, "com": false, "ind": false, "holc_grade": "D"}, "geometry": {"type": "Polygon", "coordinates": [[[-85.36303, 40.20013], [-85.36816, 40.20013], [-85.36826, 40.19995], [-85.36959, 40.19996], [-85.37544, 40.19771], [-85.37594, 40.19829], [-85.3745, 40.19906], [-85.37439, 40.20292], [-85.37307, 40.20287], [-85.37304, 40.20378], [-85.37436, 40.20384], [-85.37429, 40.20755], [-85.36326, 40.20757], [-85.36303, 40.20013]]]}}, {"type": "Feature", "properties": {"area_id": 3416, "city": "Muncie", "state": "IN", "city_survey": true, "cat": "Hazardous", "grade": "D", "label": "D3", "res": true, "com": false, "ind": false, "holc_grade": "D"}, "geometry": {"type": "Polygon", "coordinates": [[[-85.36326, 40.20757], [-85.36246, 40.20758], [-85.36236, 40.20477], [-85.35819, 40.20476], [-85.3571, 40.2047], [-85.35712, 40.20361], [-85.3571, 40.20168], [-85.35728, 40.20009], [-85.3587, 40.20017], [-85.36303, 40.20013], [-85.36326, 40.20757]]]}}, {"type": "Feature", "properties": {"area_id": 3417, "city": "Muncie", "state": "IN", "city_survey": true, "cat": "Hazardous", "grade": "D", "label": "D4", "res": true, "com": false, "ind": false, "holc_grade": "D"}, "geometry": {"type": "Polygon", "coordinates": [[[-85.35981, 40.19571], [-85.358565, 40.19571], [-85.35856, 40.19571], [-85.35858, 40.19687], [-85.35464, 40.19685], [-85.35383, 40.19672], [-85.35344, 40.19674], [-85.35343, 40.19478], [-85.35361, 40.19474], [-85.3542, 40.1948], [-85.35565, 40.19479], [-85.35578, 40.19475], [-85.3558, 40.19292], [-85.35581, 40.19292], [-85.358545, 40.19294], [-85.35991, 40.19295], [-85.35981, 40.19571]]]}}, {"type": "Feature", "properties": {"area_id": 3418, "city": "Muncie", "state": "IN", "city_survey": true, "cat": "Hazardous", "grade": "D", "label": "D5", "res": true, "com": false, "ind": false, "holc_grade": "D"}, "geometry": {"type": "Polygon", "coordinates": [[[-85.38715, 40.1868], [-85.38645, 40.18678], [-85.38636, 40.18754], [-85.38511, 40.18753], [-85.38506, 40.18795], [-85.38268, 40.18796], [-85.38265, 40.18851], [-85.381814, 40.18851], [-85.37912, 40.18851], [-85.37911, 40.18891], [-85.37274, 40.18898], [-85.37272, 40.18844], [-85.36782, 40.18838], [-85.36779, 40.1876], [-85.37275, 40.1876], [-85.37276, 40.18555], [-85.37694, 40.18552], [-85.37709, 40.18552], [-85.38091, 40.18556], [-85.381756, 40.185565], [-85.38712, 40.1856], [-85.38715, 40.1868]]]}}, {"type": "Feature", "properties": {"area_id": 3401, "city": "Muncie", "state": "IN", "city_survey": true, "cat": "Hazardous", "grade": "D", "label": "D6", "res": true, "com": false, "ind": false, "holc_grade": "D"}, "geometry": {"type": "MultiPolygon", "coordinates": [[[[-85.39283, 40.17502], [-85.39354, 40.17501], [-85.39361, 40.17428], [-85.39368, 40.17431], [-85.39383, 40.17819], [-85.39266, 40.1782], [-85.39265, 40.17533], [-85.39283, 40.17502]]], [[[-85.40584, 40.171959], [-85.40616, 40.17219], [-85.40817, 40.17225], [-85.40828, 40.17487], [-85.40735, 40.17487], [-85.40744, 40.17747], [-85.40749, 40.17827], [-85.40726, 40.17827], [-85.40132, 40.17825], [-85.40058, 40.17825], [-85.398587, 40.178245], [-85.39671, 40.17824], [-85.39669, 40.17798], [-85.39637, 40.17795], [-85.39629, 40.1778], [-85.39627, 40.17733], [-85.39556, 40.17725], [-85.39555, 40.17423], [-85.39576, 40.17423], [-85.39581, 40.17348], [-85.39793, 40.17299], [-85.40244, 40.17293], [-85.403369, 40.173735], [-85.40432, 40.17456], [-85.40521, 40.17429], [-85.40521, 40.172384], [-85.40521, 40.17234], [-85.4058, 40.17193], [-85.40584, 40.171959]]]]}}, {"type": "Feature", "properties": {"area_id": 3423, "city": "Muncie", "state": "IN", "city_survey": true, "cat": "Hazardous", "grade": "D", "label": "D7", "res": true, "com": false, "ind": false, "holc_grade": "D"}, "geometry": {"type": "Polygon", "coordinates": [[[-85.38188, 40.16518], [-85.3824, 40.16516], [-85.38239, 40.16635], [-85.3861, 40.16637], [-85.3861, 40.16735], [-85.39046, 40.16736], [-85.39048, 40.16939], [-85.38561, 40.16938], [-85.38562, 40.17022], [-85.38508, 40.17027], [-85.38507, 40.1712], [-85.38183, 40.17122], [-85.38172, 40.1713], [-85.381659, 40.171306], [-85.38112, 40.17136], [-85.38111, 40.17045], [-85.3805, 40.17044], [-85.38045, 40.17013], [-85.37702, 40.17015], [-85.37706, 40.16386], [-85.381655, 40.163774], [-85.38189, 40.16377], [-85.38188, 40.16518]], [[-85.38317, 40.17024], [-85.38401, 40.17024], [-85.38401, 40.16941], [-85.38313, 40.1694], [-85.38317, 40.17024]]]}}, {"type": "Feature", "properties": {"area_id": 11249, "city": "Muncie", "state": "IN", "city_survey": true, "cat": "Commercial", "grade": null, "label": "Commercial", "res": false, "com": true, "ind": false, "holc_grade": null}, "geometry": {"type": "Polygon", "coordinates": [[[-85.38449, 40.18916], [-85.38933, 40.18879], [-85.38934, 40.18928], [-85.38825, 40.18927], [-85.38824, 40.19114], [-85.38876, 40.19114], [-85.38869, 40.19541], [-85.3872, 40.19633], [-85.3854, 40.19633], [-85.38531, 40.19704], [-85.38434, 40.19702], [-85.38449, 40.18916]]]}}, {"type": "Feature", "properties": {"area_id": 11250, "city": "Muncie", "state": "IN", "city_survey": true, "cat": "Industrial", "grade": null, "label": "Industrial", "res": false, "com": false, "ind": true, "holc_grade": null}, "geometry": {"type": "MultiPolygon", "coordinates": [[[[-85.393968, 40.171968], [-85.39415, 40.1722], [-85.3951, 40.17239], [-85.395497, 40.172308], [-85.39602, 40.1722], [-85.39641, 40.17225], [-85.396615, 40.172316], [-85.39691, 40.17241], [-85.39581, 40.17348], [-85.39576, 40.17423], [-85.39555, 40.17423], [-85.39368, 40.17431], [-85.39361, 40.17428], [-85.39354, 40.17501], [-85.39283, 40.17502], [-85.39265, 40.17533], [-85.39266, 40.1782], [-85.39137, 40.1782], [-85.391371, 40.178327], [-85.39139, 40.18205], [-85.39192, 40.18204], [-85.39195, 40.18246], [-85.3924, 40.18245], [-85.39119, 40.18369], [-85.392569, 40.184533], [-85.39299, 40.18479], [-85.39269, 40.18518], [-85.39497, 40.18525], [-85.39498, 40.18514], [-85.3959, 40.18516], [-85.39596, 40.18245], [-85.39646, 40.18245], [-85.39647, 40.18216], [-85.40035, 40.18215], [-85.40035, 40.18324], [-85.40134, 40.18324], [-85.40137, 40.18408], [-85.40543, 40.18411], [-85.40544, 40.18398], [-85.40711, 40.18397], [-85.40716, 40.18196], [-85.40724, 40.18191], [-85.41091, 40.18194], [-85.41088, 40.1833], [-85.41473, 40.18323], [-85.41471, 40.18228], [-85.4174, 40.18228], [-85.4174, 40.182825], [-85.4174, 40.18318], [-85.41076, 40.18433], [-85.40771, 40.18522], [-85.40606, 40.18606], [-85.40537, 40.18614], [-85.40354, 40.18701], [-85.40055, 40.18885], [-85.4001, 40.18877], [-85.40012, 40.18702], [-85.39681, 40.18703], [-85.39626, 40.18694], [-85.39488, 40.18718], [-85.39233, 40.18846], [-85.39179, 40.18853], [-85.39113, 40.18857], [-85.39043, 40.18862], [-85.389946, 40.188679], [-85.38969, 40.18871], [-85.38933, 40.18879], [-85.38449, 40.18916], [-85.38418, 40.18927], [-85.38353, 40.18952], [-85.38319, 40.18966], [-85.38272, 40.18985], [-85.38233, 40.1902], [-85.38178, 40.1902], [-85.38175, 40.19057], [-85.37729, 40.19054], [-85.37728, 40.1902], [-85.37502, 40.19059], [-85.37498, 40.19136], [-85.37345, 40.19133], [-85.37341, 40.19218], [-85.36892, 40.19215], [-85.36781, 40.19244], [-85.36783, 40.19433], [-85.36874, 40.19435], [-85.3687, 40.1955], [-85.37082, 40.19555], [-85.37082, 40.19443], [-85.37611, 40.19451], [-85.3761, 40.1951], [-85.37676, 40.1951], [-85.37671, 40.19658], [-85.37728, 40.1967], [-85.37806, 40.19689], [-85.3816, 40.19695], [-85.3815, 40.20155], [-85.38058, 40.20101], [-85.37997, 40.20063], [-85.37868, 40.20002], [-85.3776, 40.19921], [-85.37712, 40.19838], [-85.37721, 40.19805], [-85.37681, 40.19754], [-85.37629, 40.19708], [-85.37549, 40.19698], [-85.37436, 40.19742], [-85.37219, 40.19805], [-85.37221, 40.19697], [-85.36912, 40.19694], [-85.3691, 40.19723], [-85.36808, 40.19724], [-85.36773, 40.19742], [-85.36762, 40.19633], [-85.36725, 40.19538], [-85.36681, 40.195], [-85.36614, 40.1947], [-85.36516, 40.1946], [-85.36405, 40.19422], [-85.363993, 40.19426], [-85.35851, 40.19812], [-85.358526, 40.19783], [-85.358565, 40.197131], [-85.358568, 40.197087], [-85.35858, 40.19687], [-85.35856, 40.19571], [-85.358565, 40.19571], [-85.35981, 40.19571], [-85.35991, 40.19295], [-85.358545, 40.19294], [-85.35581, 40.19292], [-85.3558, 40.19292], [-85.355797, 40.19292], [-85.35346, 40.19309], [-85.353456, 40.19295], [-85.35342, 40.19174], [-85.35912, 40.19189], [-85.36051, 40.19078], [-85.36148, 40.19112], [-85.36231, 40.19149], [-85.36242, 40.19182], [-85.3632, 40.19183], [-85.36253, 40.19122], [-85.36183, 40.19077], [-85.36086, 40.19053], [-85.36212, 40.18958], [-85.36201, 40.18749], [-85.36196, 40.18645], [-85.36107, 40.18604], [-85.36098, 40.1808], [-85.36197, 40.18083], [-85.36039, 40.17841], [-85.36296, 40.17835], [-85.36298, 40.17883], [-85.362996, 40.17883], [-85.367616, 40.178771], [-85.36771, 40.17877], [-85.36769, 40.17732], [-85.367566, 40.17732], [-85.36751, 40.17732], [-85.36753, 40.176413], [-85.36753, 40.17641], [-85.37226, 40.17307], [-85.3724, 40.17851], [-85.37184, 40.17858], [-85.37181, 40.18127], [-85.37125, 40.18127], [-85.371249, 40.181324], [-85.37124, 40.18177], [-85.37121, 40.18177], [-85.36859, 40.18175], [-85.368597, 40.182184], [-85.36861, 40.18297], [-85.367654, 40.182989], [-85.36707, 40.183], [-85.36705, 40.18187], [-85.36484, 40.1819], [-85.36484, 40.18474], [-85.3637, 40.18477], [-85.36375, 40.18569], [-85.36353, 40.18607], [-85.36322, 40.18606], [-85.36286, 40.18662], [-85.36318, 40.18679], [-85.36314, 40.18718], [-85.3632, 40.18732], [-85.36443, 40.18777], [-85.36376, 40.18904], [-85.36516, 40.18958], [-85.36506, 40.19001], [-85.36722, 40.19025], [-85.36741, 40.18943], [-85.36892, 40.18971], [-85.36998, 40.19048], [-85.3706, 40.19038], [-85.3706, 40.190268], [-85.3706, 40.19011], [-85.37117, 40.19012], [-85.3712, 40.18901], [-85.37274, 40.18898], [-85.37911, 40.18891], [-85.37912, 40.18851], [-85.381814, 40.18851], [-85.38265, 40.18851], [-85.38268, 40.18796], [-85.38506, 40.18795], [-85.38511, 40.18753], [-85.38636, 40.18754], [-85.38645, 40.18678], [-85.38715, 40.1868], [-85.38712, 40.1856], [-85.38711, 40.18468], [-85.38996, 40.1847], [-85.38994, 40.18381], [-85.38919, 40.1838], [-85.38917, 40.18301], [-85.38992, 40.18302], [-85.38985, 40.17932], [-85.39044, 40.17931], [-85.39044, 40.17845], [-85.390436, 40.178322], [-85.39043, 40.17816], [-85.39107, 40.17816], [-85.39107, 40.17789], [-85.39101, 40.17655], [-85.391, 40.17492], [-85.39008, 40.1749], [-85.39021, 40.17336], [-85.38975, 40.17287], [-85.38867, 40.1727], [-85.3864, 40.17262], [-85.38638, 40.17169], [-85.381661, 40.171739], [-85.38159, 40.17174], [-85.38031, 40.17248], [-85.37725, 40.1723], [-85.37265, 40.17231], [-85.37408, 40.17146], [-85.37599, 40.17149], [-85.37695, 40.17074], [-85.37702, 40.17015], [-85.38045, 40.17013], [-85.3805, 40.17044], [-85.38111, 40.17045], [-85.38112, 40.17136], [-85.381659, 40.171306], [-85.38172, 40.1713], [-85.38183, 40.17122], [-85.38507, 40.1712], [-85.38508, 40.17027], [-85.38562, 40.17022], [-85.38561, 40.16938], [-85.39048, 40.16939], [-85.39046, 40.16736], [-85.38904, 40.16736], [-85.3893, 40.16386], [-85.39041, 40.16389], [-85.39087, 40.163924], [-85.39451, 40.16419], [-85.39473, 40.16804], [-85.39371, 40.16799], [-85.39386, 40.17183], [-85.393968, 40.171968]]], [[[-85.37425, 40.20801], [-85.37518, 40.20857], [-85.37534, 40.21031], [-85.37268, 40.21027], [-85.37277, 40.20894], [-85.37158, 40.2089], [-85.37088, 40.2084], [-85.36927, 40.20941], [-85.3679, 40.20939], [-85.36803, 40.20756], [-85.37429, 40.20755], [-85.37425, 40.20801]]], [[[-85.38124, 40.20575], [-85.38073, 40.20562], [-85.38085, 40.20527], [-85.38036, 40.20517], [-85.379244, 40.208618], [-85.37923, 40.20866], [-85.37836, 40.20865], [-85.3783, 40.20975], [-85.37833, 40.21041], [-85.37994, 40.21049], [-85.37992, 40.21134], [-85.380121, 40.211348], [-85.38066, 40.21137], [-85.380106, 40.211738], [-85.37938, 40.21222], [-85.37631, 40.21222], [-85.37682, 40.2104], [-85.37982, 40.20115], [-85.379861, 40.201172], [-85.38129, 40.20194], [-85.38116, 40.20215], [-85.38109, 40.20384], [-85.38116, 40.20519], [-85.38126, 40.20531], [-85.38124, 40.20575]]], [[[-85.38636, 40.21319], [-85.38579, 40.2132], [-85.38443, 40.21153], [-85.38149, 40.21141], [-85.38303, 40.20936], [-85.38262, 40.20875], [-85.38634, 40.20884], [-85.38634, 40.21015], [-85.38628, 40.21067], [-85.38633, 40.2115], [-85.38636, 40.21319]]], [[[-85.41361, 40.18525], [-85.41336, 40.1859], [-85.41339, 40.18819], [-85.41542, 40.18774], [-85.41546, 40.19], [-85.41733, 40.19002], [-85.41735, 40.19062], [-85.41912, 40.19063], [-85.41915, 40.19166], [-85.41591, 40.19161], [-85.41593, 40.19067], [-85.41278, 40.19057], [-85.4128, 40.19026], [-85.41034, 40.19021], [-85.41031, 40.18965], [-85.40912, 40.18963], [-85.4091, 40.18842], [-85.410664, 40.186027], [-85.41078, 40.18585], [-85.410981, 40.185726], [-85.41156, 40.18537], [-85.412393, 40.18514], [-85.41254, 40.1851], [-85.412636, 40.185113], [-85.41361, 40.18525]]]]}}]}