{"type": "FeatureCollection", "features": [{"type": "Feature", "geometry": {"type": "Point", "coordinates": [-85.416667, 40.156944]}, "properties": {"facility_name": "GARFIELD FACILITY LLC", "industry": null, "tri_facility_id": "46302XDCRP2601W"}}, {"type": "Feature", "geometry": {"type": "Point", "coordinates": [-85.386111, 40.151111]}, "properties": {"facility_name": "BECKETT BRONZE CO INC", "industry": null, "tri_facility_id": "47302BCKTT106E2"}}, {"type": "Feature", "geometry": {"type": "Point", "coordinates": [-85.370278, 40.181389]}, "properties": {"facility_name": "METAL SERVICES CO", "industry": null, "tri_facility_id": "47302BLLMTNINTH"}}, {"type": "Feature", "geometry": {"type": "Point", "coordinates": [-85.370278, 40.181389]}, "properties": {"facility_name": "BALL-INCON GLASS PACKAGING CORP", "industry": null, "tri_facility_id": "47302BLLNC1509S"}}, {"type": "Feature", "geometry": {"type": "Point", "coordinates": [-85.358056, 40.163611]}, "properties": {"facility_name": "DUFFY TOOL & STAMPING", "industry": null, "tri_facility_id": "47302DFFYT3424M"}}, {"type": "Feature", "geometry": {"type": "Point", "coordinates": [-85.38527777777779, 40.18833333333333]}, "properties": {"facility_name": "DELAWARE DYNAMICS LLC", "industry": null, "tri_facility_id": "47302DLWRM700SM"}}, {"type": "Feature", "geometry": {"type": "Point", "coordinates": [-85.418889, 40.205]}, "properties": {"facility_name": "F X SPRINGMAN CO INC", "industry": null, "tri_facility_id": "47302FXSPR4600W"}}, {"type": "Feature", "geometry": {"type": "Point", "coordinates": [-85.418611, 40.1525]}, "properties": {"facility_name": "DELPHI E - MUNCIE", "industry": null, "tri_facility_id": "47302GMCDL4500S"}}, {"type": "Feature", "geometry": {"type": "Point", "coordinates": [-85.383889, 40.184722]}, "properties": {"facility_name": "MAK CHEMICAL CORP", "industry": null, "tri_facility_id": "47302MKCHM1200R"}}, {"type": "Feature", "geometry": {"type": "Point", "coordinates": [-85.369167, 40.18]}, "properties": {"facility_name": "CONSUMER PRODS CO", "industry": null, "tri_facility_id": "47302MNCCL1509S"}}, {"type": "Feature", "geometry": {"type": "Point", "coordinates": [-85.385198, 40.1722]}, "properties": {"facility_name": "MAXON CORP", "industry": null, "tri_facility_id": "47302MXNCR201E1"}}, {"type": "Feature", "geometry": {"type": "Point", "coordinates": [-85.383333, 40.191667]}, "properties": {"facility_name": "AZZ GALVANIZING SERVICES-MUNCIE", "industry": null, "tri_facility_id": "47302NDNGL2415S"}}, {"type": "Feature", "geometry": {"type": "Point", "coordinates": [-85.409629, 40.16924]}, "properties": {"facility_name": "ARROWHEAD PLASTIC ENGINEERING INC", "industry": null, "tri_facility_id": "47302RRWHD2909S"}}, {"type": "Feature", "geometry": {"type": "Point", "coordinates": [-85.425833, 40.183611]}, "properties": {"facility_name": "DUFFY TOOL & STAMPING", "industry": null, "tri_facility_id": "47302SNGNR3401W"}}, {"type": "Feature", "geometry": {"type": "Point", "coordinates": [-85.389722, 40.158333]}, "properties": {"facility_name": "PROGRESS RAIL MANUFACTURING CORP.", "industry": null, "tri_facility_id": "47302WSTNG23RDS"}}, {"type": "Feature", "geometry": {"type": "Point", "coordinates": [-85.379444, 40.205556]}, "properties": {"facility_name": "DAYTON WALTHER CORP MUNCIE DIV", "industry": null, "tri_facility_id": "47303DYTNW600EH"}}, {"type": "Feature", "geometry": {"type": "Point", "coordinates": [-85.38472222222222, 40.215]}, "properties": {"facility_name": "G & G OIL CO OF INDIANA INC", "industry": null, "tri_facility_id": "47303GGLCF220EC"}}, {"type": "Feature", "geometry": {"type": "Point", "coordinates": [-85.333333, 40.183333]}, "properties": {"facility_name": "JEFFERSON SMURFIT CORP FOLDING CARTON DIV", "industry": null, "tri_facility_id": "47303JSCCN301SB"}}, {"type": "Feature", "geometry": {"type": "Point", "coordinates": [-85.361389, 40.194444]}, "properties": {"facility_name": "INDIANA STEEL & WIRE ACQUISITIONS CO LTD", "industry": null, "tri_facility_id": "47303NDNST2200E"}}, {"type": "Feature", "geometry": {"type": "Point", "coordinates": [-85.397222, 40.194444]}, "properties": {"facility_name": "GKN AEROSPACE MUNCIE INC.", "industry": null, "tri_facility_id": "47303NTRFR1200W"}}, {"type": "Feature", "geometry": {"type": "Point", "coordinates": [-85.439444, 40.183889]}, "properties": {"facility_name": "BORGWARNER DIVERSIFIED TRANSMISSION PRODUCTS INC", "industry": null, "tri_facility_id": "47304BRGWR5401K"}}, {"type": "Feature", "geometry": {"type": "Point", "coordinates": [-85.44166666666668, 40.21388888888889]}, "properties": {"facility_name": "TWOSON TOOL", "industry": null, "tri_facility_id": "47304TWSNT4620W"}}, {"type": "Feature", "geometry": {"type": "Point", "coordinates": [-85.368951, 40.190048]}, "properties": {"facility_name": "BRODERICK CO INC", "industry": null, "tri_facility_id": "47305BRDRC500LI"}}, {"type": "Feature", "geometry": {"type": "Point", "coordinates": [-85.3772, 40.19073]}, "properties": {"facility_name": "MID CITY PLATING CO. INC.", "industry": null, "tri_facility_id": "47305MDCTY416SH"}}, {"type": "Feature", "geometry": {"type": "Point", "coordinates": [-85.390833, 40.187778]}, "properties": {"facility_name": "ONTARIO FORGE CORP", "industry": null, "tri_facility_id": "47305NTRFR701SO"}}, {"type": "Feature", "geometry": {"type": "Point", "coordinates": [-85.371444, 40.1907]}, "properties": {"facility_name": "DYNAMERICA MANUFACTURING LLC", "industry": null, "tri_facility_id": "47307CRFDM1210E"}}, {"type": "Feature", "geometry": {"type": "Point", "coordinates": [-85.372199, 40.1942]}, "properties": {"facility_name": "CITY MACHINE TOOL & DIE CO INC", "industry": null, "tri_facility_id": "47307CTYMC1302E"}}, {"type": "Feature", "geometry": {"type": "Point", "coordinates": [-85.3988, 40.1817]}, "properties": {"facility_name": "MANUAL TRANSMISSIONS OF MUNCIE  LLC", "industry": null, "tri_facility_id": "47307HYDRM1200W"}}, {"type": "Feature", "geometry": {"type": "Point", "coordinates": [-85.37138888888889, 40.17222222222222]}, "properties": {"facility_name": "MUNCIE CASTING CORP", "industry": null, "tri_facility_id": "47307MNCCS1406E"}}]}