{"type": "FeatureCollection", "features": [{"type": "Feature", "properties": {"area_id": 8650, "city": "Amarillo", "state": "TX", "city_survey": true, "cat": "Best", "grade": "A", "label": "A", "res": true, "com": false, "ind": false, "holc_grade": "A"}, "geometry": {"type": "Polygon", "coordinates": [[[-101.86595, 35.17828], [-101.866017, 35.182753], [-101.86617, 35.19291], [-101.8612, 35.19289], [-101.84868, 35.19278], [-101.848715, 35.194616], [-101.84879, 35.19849], [-101.848523, 35.198457], [-101.84181, 35.19762], [-101.84245, 35.19282], [-101.83993, 35.1928], [-101.84108, 35.18737], [-101.840955, 35.182854], [-101.84088, 35.18013], [-101.84083, 35.1785], [-101.848466, 35.178348], [-101.84985, 35.17832], [-101.85305, 35.17827], [-101.86595, 35.17828]]]}}, {"type": "Feature", "properties": {"area_id": 8651, "city": "Amarillo", "state": "TX", "city_survey": true, "cat": "Best", "grade": "A", "label": "A", "res": true, "com": false, "ind": false, "holc_grade": "A"}, "geometry": {"type": "Polygon", "coordinates": [[[-101.85915, 35.20477], [-101.8557, 35.20482], [-101.85464, 35.20495], [-101.84916, 35.20506], [-101.8489, 35.20493], [-101.84888, 35.20399], [-101.8517, 35.20408], [-101.85566, 35.20395], [-101.8557, 35.19585], [-101.86133, 35.19601], [-101.86624, 35.19605], [-101.866256, 35.196589], [-101.86634, 35.19949], [-101.87048, 35.19958], [-101.87062, 35.20073], [-101.87055, 35.20172], [-101.87055, 35.203928], [-101.87055, 35.20434], [-101.86852, 35.2046], [-101.867263, 35.204738], [-101.86624, 35.20485], [-101.866181, 35.20485], [-101.8613, 35.20482], [-101.85915, 35.20477]]]}}, {"type": "Feature", "properties": {"area_id": 8653, "city": "Amarillo", "state": "TX", "city_survey": true, "cat": "Best", "grade": "A", "label": "A", "res": true, "com": false, "ind": false, "holc_grade": "A"}, "geometry": {"type": "Polygon", "coordinates": [[[-101.8837, 35.20034], [-101.88384, 35.20725], [-101.8748, 35.20731], [-101.87466, 35.20336], [-101.8837, 35.20034]]]}}, {"type": "Feature", "properties": {"area_id": 8649, "city": "Amarillo", "state": "TX", "city_survey": true, "cat": "Still Desirable", "grade": "B", "label": "B", "res": true, "com": false, "ind": false, "holc_grade": "B"}, "geometry": {"type": "Polygon", "coordinates": [[[-101.85305, 35.176532], [-101.85305, 35.17827], [-101.84985, 35.17832], [-101.848466, 35.178348], [-101.84083, 35.1785], [-101.84088, 35.18013], [-101.840955, 35.182854], [-101.84108, 35.18737], [-101.83993, 35.1928], [-101.84245, 35.19282], [-101.84181, 35.19762], [-101.848523, 35.198457], [-101.84879, 35.19849], [-101.848715, 35.194616], [-101.84868, 35.19278], [-101.8612, 35.19289], [-101.861303, 35.195351], [-101.86133, 35.19601], [-101.8557, 35.19585], [-101.85566, 35.20395], [-101.8517, 35.20408], [-101.84888, 35.20399], [-101.8489, 35.20493], [-101.847861, 35.20479], [-101.8417, 35.20396], [-101.839, 35.2036], [-101.83156, 35.2026], [-101.831755, 35.201656], [-101.83195, 35.20071], [-101.83359, 35.19273], [-101.83483, 35.18647], [-101.83487, 35.18588], [-101.83494, 35.18484], [-101.835672, 35.182859], [-101.84242, 35.1646], [-101.84808, 35.16444], [-101.848442, 35.17036], [-101.84868, 35.17424], [-101.85305, 35.17422], [-101.85305, 35.176532]]]}}, {"type": "Feature", "properties": {"area_id": 8652, "city": "Amarillo", "state": "TX", "city_survey": true, "cat": "Still Desirable", "grade": "B", "label": "B", "res": true, "com": false, "ind": false, "holc_grade": "B"}, "geometry": {"type": "Polygon", "coordinates": [[[-101.86645, 35.20733], [-101.866233, 35.207327], [-101.862868, 35.20728], [-101.86286, 35.20728], [-101.86182, 35.20727], [-101.85999, 35.20724], [-101.8571, 35.20731], [-101.85576, 35.20709], [-101.8557, 35.20482], [-101.85915, 35.20477], [-101.8613, 35.20482], [-101.866181, 35.20485], [-101.86624, 35.20485], [-101.867263, 35.204738], [-101.86852, 35.2046], [-101.87055, 35.20434], [-101.87101, 35.20442], [-101.87466, 35.20336], [-101.8748, 35.20731], [-101.88384, 35.20725], [-101.8837, 35.20034], [-101.884027, 35.200232], [-101.89305, 35.19724], [-101.89323, 35.20245], [-101.90223, 35.20251], [-101.902347, 35.205559], [-101.902364, 35.206003], [-101.90237, 35.20615], [-101.89782, 35.20615], [-101.89633, 35.20615], [-101.89345, 35.20612], [-101.88798, 35.20606], [-101.886082, 35.207547], [-101.88405, 35.20914], [-101.884051, 35.209216], [-101.88408, 35.21327], [-101.884023, 35.213267], [-101.8821, 35.21318], [-101.88073, 35.2133], [-101.8703, 35.21319], [-101.8664, 35.21316], [-101.866416, 35.211294], [-101.86645, 35.20733]]]}}, {"type": "Feature", "properties": {"area_id": 8655, "city": "Amarillo", "state": "TX", "city_survey": true, "cat": "Definitely Declining", "grade": "C", "label": "C", "res": true, "com": false, "ind": false, "holc_grade": "C"}, "geometry": {"type": "Polygon", "coordinates": [[[-101.86286, 35.20728], [-101.862868, 35.20728], [-101.866233, 35.207327], [-101.86645, 35.20733], [-101.866416, 35.211294], [-101.8664, 35.21316], [-101.8703, 35.21319], [-101.88073, 35.2133], [-101.8821, 35.21318], [-101.884023, 35.213267], [-101.88408, 35.21327], [-101.884044, 35.215145], [-101.88398, 35.21847], [-101.86641, 35.21856], [-101.866371, 35.217929], [-101.8662, 35.21517], [-101.86569, 35.21483], [-101.865, 35.21489], [-101.86299, 35.21452], [-101.86141, 35.21419], [-101.86275, 35.20818], [-101.86286, 35.207283], [-101.86286, 35.20728]]]}}, {"type": "Feature", "properties": {"area_id": 8656, "city": "Amarillo", "state": "TX", "city_survey": true, "cat": "Definitely Declining", "grade": "C", "label": "C", "res": true, "com": false, "ind": false, "holc_grade": "C"}, "geometry": {"type": "Polygon", "coordinates": [[[-101.85254, 35.20968], [-101.8505, 35.2095], [-101.8408, 35.20809], [-101.8417, 35.20396], [-101.847861, 35.20479], [-101.8489, 35.20493], [-101.84916, 35.20506], [-101.85464, 35.20495], [-101.8557, 35.20482], [-101.85576, 35.20709], [-101.8571, 35.20731], [-101.85999, 35.20724], [-101.86182, 35.20727], [-101.8614, 35.20773], [-101.854859, 35.209972], [-101.85466, 35.21004], [-101.85254, 35.20968]]]}}, {"type": "Feature", "properties": {"area_id": 8657, "city": "Amarillo", "state": "TX", "city_survey": true, "cat": "Definitely Declining", "grade": "C", "label": "C", "res": true, "com": false, "ind": false, "holc_grade": "C"}, "geometry": {"type": "Polygon", "coordinates": [[[-101.8877, 35.19704], [-101.88746, 35.19521], [-101.89309, 35.19526], [-101.89306, 35.196373], [-101.89305, 35.19676], [-101.884028, 35.199797], [-101.88384, 35.19986], [-101.883846, 35.199645], [-101.88391, 35.19715], [-101.8877, 35.19704]]]}}, {"type": "Feature", "properties": {"area_id": 8659, "city": "Amarillo", "state": "TX", "city_survey": true, "cat": "Definitely Declining", "grade": "C", "label": "C", "res": true, "com": false, "ind": false, "holc_grade": "C"}, "geometry": {"type": "Polygon", "coordinates": [[[-101.81322, 35.22192], [-101.80232, 35.22174], [-101.81115, 35.21303], [-101.81316, 35.213], [-101.81326, 35.21839], [-101.82682, 35.22022], [-101.82788, 35.21488], [-101.832852, 35.215595], [-101.83421, 35.21579], [-101.83458, 35.21404], [-101.83462, 35.21382], [-101.83824, 35.21433], [-101.83829, 35.21463], [-101.83677, 35.22196], [-101.83916, 35.22205], [-101.83931, 35.22454], [-101.83933, 35.22915], [-101.83172, 35.22921], [-101.83176, 35.22834], [-101.831, 35.22803], [-101.830937, 35.227876], [-101.83076, 35.22744], [-101.82907, 35.22738], [-101.82893, 35.22217], [-101.82489, 35.22211], [-101.823492, 35.222087], [-101.817596, 35.22199], [-101.81758, 35.22199], [-101.816725, 35.221976], [-101.81322, 35.22192]]]}}, {"type": "Feature", "properties": {"area_id": 8663, "city": "Amarillo", "state": "TX", "city_survey": true, "cat": "Definitely Declining", "grade": "C", "label": "C", "res": true, "com": false, "ind": false, "holc_grade": "C"}, "geometry": {"type": "Polygon", "coordinates": [[[-101.79523, 35.2145], [-101.79527, 35.22165], [-101.795276, 35.222024], [-101.795365, 35.227758], [-101.79539, 35.22935], [-101.79547, 35.23086], [-101.79537, 35.230859], [-101.77768, 35.23067], [-101.77764, 35.229369], [-101.77729, 35.21796], [-101.79523, 35.2145]]]}}, {"type": "Feature", "properties": {"area_id": 8667, "city": "Amarillo", "state": "TX", "city_survey": true, "cat": "Definitely Declining", "grade": "C", "label": "C", "res": true, "com": false, "ind": false, "holc_grade": "C"}, "geometry": {"type": "Polygon", "coordinates": [[[-101.81699, 35.20795], [-101.81861, 35.19976], [-101.82692, 35.20099], [-101.82662, 35.2021], [-101.82611, 35.20221], [-101.8254, 35.20518], [-101.82496, 35.20695], [-101.82569, 35.20732], [-101.82532, 35.20917], [-101.82404, 35.20903], [-101.81699, 35.20795]]]}}, {"type": "Feature", "properties": {"area_id": 8648, "city": "Amarillo", "state": "TX", "city_survey": true, "cat": "Hazardous", "grade": "D", "label": "D", "res": true, "com": false, "ind": false, "holc_grade": "D"}, "geometry": {"type": "Polygon", "coordinates": [[[-101.83062, 35.16519], [-101.83045, 35.17904], [-101.81317, 35.179719], [-101.81289, 35.17973], [-101.812904, 35.178355], [-101.81303, 35.1657], [-101.83062, 35.16519]]]}}, {"type": "Feature", "properties": {"area_id": 8654, "city": "Amarillo", "state": "TX", "city_survey": true, "cat": "Hazardous", "grade": "D", "label": "D", "res": true, "com": false, "ind": false, "holc_grade": "D"}, "geometry": {"type": "Polygon", "coordinates": [[[-101.89633, 35.20615], [-101.89782, 35.20615], [-101.89774, 35.21336], [-101.89336, 35.21322], [-101.89345, 35.20612], [-101.89633, 35.20615]]]}}, {"type": "Feature", "properties": {"area_id": 8658, "city": "Amarillo", "state": "TX", "city_survey": true, "cat": "Hazardous", "grade": "D", "label": "D", "res": true, "com": false, "ind": false, "holc_grade": "D"}, "geometry": {"type": "Polygon", "coordinates": [[[-101.86286, 35.207283], [-101.86275, 35.20818], [-101.86141, 35.21419], [-101.86299, 35.21452], [-101.865, 35.21489], [-101.86569, 35.21483], [-101.8662, 35.21517], [-101.866371, 35.217929], [-101.86641, 35.21856], [-101.88398, 35.21847], [-101.88406, 35.22164], [-101.87529, 35.22173], [-101.86986, 35.22187], [-101.86986, 35.22492], [-101.866312, 35.22498], [-101.8663, 35.22498], [-101.8663, 35.225004], [-101.866307, 35.228344], [-101.866309, 35.229249], [-101.86632, 35.23481], [-101.85771, 35.23488], [-101.84863, 35.23492], [-101.84865, 35.23616], [-101.847149, 35.236166], [-101.84337, 35.23618], [-101.84342, 35.22913], [-101.83933, 35.22915], [-101.83931, 35.22454], [-101.83916, 35.22205], [-101.83677, 35.22196], [-101.83829, 35.21463], [-101.83824, 35.21433], [-101.838131, 35.213673], [-101.83807, 35.21331], [-101.83705, 35.21296], [-101.839, 35.2036], [-101.8417, 35.20396], [-101.8408, 35.20809], [-101.8505, 35.2095], [-101.85254, 35.20968], [-101.85466, 35.21004], [-101.854859, 35.209972], [-101.8614, 35.20773], [-101.86182, 35.20727], [-101.86286, 35.20728], [-101.86286, 35.207283]]]}}, {"type": "Feature", "properties": {"area_id": 8660, "city": "Amarillo", "state": "TX", "city_survey": true, "cat": "Hazardous", "grade": "D", "label": "D", "res": true, "com": false, "ind": false, "holc_grade": "D"}, "geometry": {"type": "Polygon", "coordinates": [[[-101.823492, 35.222087], [-101.82489, 35.22211], [-101.82893, 35.22217], [-101.82907, 35.22738], [-101.83076, 35.22744], [-101.830937, 35.227876], [-101.831, 35.22803], [-101.83176, 35.22834], [-101.83172, 35.22921], [-101.830808, 35.229222], [-101.82339, 35.22932], [-101.823498, 35.236325], [-101.8235, 35.23644], [-101.81781, 35.2365], [-101.817807, 35.236336], [-101.81758, 35.22199], [-101.817596, 35.22199], [-101.823492, 35.222087]]]}}, {"type": "Feature", "properties": {"area_id": 8661, "city": "Amarillo", "state": "TX", "city_survey": true, "cat": "Hazardous", "grade": "D", "label": "D", "res": true, "com": false, "ind": false, "holc_grade": "D"}, "geometry": {"type": "Polygon", "coordinates": [[[-101.8341, 35.21397], [-101.83458, 35.21404], [-101.83421, 35.21579], [-101.832852, 35.215595], [-101.82788, 35.21488], [-101.82682, 35.22022], [-101.81326, 35.21839], [-101.81316, 35.213], [-101.81311, 35.2113], [-101.82688, 35.21283], [-101.82719, 35.21343], [-101.833111, 35.214281], [-101.83394, 35.2144], [-101.8341, 35.21397]]]}}, {"type": "Feature", "properties": {"area_id": 8662, "city": "Amarillo", "state": "TX", "city_survey": true, "cat": "Hazardous", "grade": "D", "label": "D", "res": true, "com": false, "ind": false, "holc_grade": "D"}, "geometry": {"type": "Polygon", "coordinates": [[[-101.80104, 35.22008], [-101.801, 35.21373], [-101.80336, 35.21305], [-101.81115, 35.21303], [-101.80232, 35.22174], [-101.81322, 35.22192], [-101.813223, 35.221991], [-101.8133, 35.22383], [-101.81074, 35.22387], [-101.8107, 35.22768], [-101.809066, 35.22769], [-101.80576, 35.22771], [-101.80599, 35.22932], [-101.79539, 35.22935], [-101.795365, 35.227758], [-101.795276, 35.222024], [-101.79527, 35.22165], [-101.795359, 35.22165], [-101.80136, 35.22165], [-101.8014, 35.22059], [-101.80104, 35.22008]]]}}, {"type": "Feature", "properties": {"area_id": 8664, "city": "Amarillo", "state": "TX", "city_survey": true, "cat": "Hazardous", "grade": "D", "label": "D", "res": true, "com": false, "ind": false, "holc_grade": "D"}, "geometry": {"type": "Polygon", "coordinates": [[[-101.77719, 35.21684], [-101.77724, 35.21112], [-101.79521, 35.21058], [-101.79511, 35.21362], [-101.77719, 35.21684]]]}}, {"type": "Feature", "properties": {"area_id": 8665, "city": "Amarillo", "state": "TX", "city_survey": true, "cat": "Hazardous", "grade": "D", "label": "D", "res": true, "com": false, "ind": false, "holc_grade": "D"}, "geometry": {"type": "Polygon", "coordinates": [[[-101.83483, 35.18647], [-101.83359, 35.19273], [-101.83195, 35.20071], [-101.82925, 35.20039], [-101.8332, 35.19043], [-101.83487, 35.18588], [-101.83483, 35.18647]]]}}, {"type": "Feature", "properties": {"area_id": 8666, "city": "Amarillo", "state": "TX", "city_survey": true, "cat": "Hazardous", "grade": "D", "label": "D", "res": true, "com": false, "ind": false, "holc_grade": "D"}, "geometry": {"type": "Polygon", "coordinates": [[[-101.79539, 35.17936], [-101.795379, 35.183054], [-101.79535, 35.19297], [-101.795419, 35.19297], [-101.81322, 35.19297], [-101.81281, 35.18367], [-101.813179, 35.183662], [-101.8348, 35.18319], [-101.831682, 35.192458], [-101.8315, 35.193], [-101.82866, 35.19302], [-101.82692, 35.20099], [-101.81861, 35.19976], [-101.81699, 35.20795], [-101.82404, 35.20903], [-101.82386, 35.21029], [-101.82193, 35.21004], [-101.82115, 35.21065], [-101.81624, 35.20994], [-101.814224, 35.209721], [-101.81357, 35.20965], [-101.81326, 35.20747], [-101.80191, 35.20763], [-101.80222, 35.20022], [-101.79551, 35.20019], [-101.795399, 35.202362], [-101.79527, 35.2049], [-101.78883, 35.20516], [-101.78683, 35.20394], [-101.77744, 35.20359], [-101.77752, 35.19807], [-101.77784, 35.18549], [-101.777933, 35.183051], [-101.778109, 35.178459], [-101.77811, 35.17843], [-101.778619, 35.178457], [-101.79539, 35.17936]]]}}, {"type": "Feature", "properties": {"area_id": 11182, "city": "Amarillo", "state": "TX", "city_survey": true, "cat": "Business", "grade": null, "label": "Business", "res": false, "com": true, "ind": false, "holc_grade": null}, "geometry": {"type": "Polygon", "coordinates": [[[-101.83195, 35.20071], [-101.831755, 35.201656], [-101.83156, 35.2026], [-101.839, 35.2036], [-101.83705, 35.21296], [-101.82778, 35.2117], [-101.82783, 35.21093], [-101.82738, 35.21037], [-101.82791, 35.2076], [-101.82723, 35.20742], [-101.82785, 35.20389], [-101.828908, 35.201245], [-101.82925, 35.20039], [-101.83195, 35.20071]]]}}]}