{"type": "FeatureCollection", "features": [{"type": "Feature", "geometry": {"type": "Point", "coordinates": [-93.50111111111111, 41.530277777777776]}, "properties": {"facility_name": "GENERAL MILLS OPERATION INC", "industry": null, "tri_facility_id": "50047GNRLM6101S"}}, {"type": "Feature", "geometry": {"type": "Point", "coordinates": [-93.666667, 41.55]}, "properties": {"facility_name": "RYKO SOLUTIONS INC", "industry": null, "tri_facility_id": "50111RYKMN11600"}}, {"type": "Feature", "geometry": {"type": "Point", "coordinates": [-93.68333333333334, 41.655277777777776]}, "properties": {"facility_name": "AMERICAN CONCRETE PRODUCTS", "industry": null, "tri_facility_id": "50131MRCNC5165N"}}, {"type": "Feature", "geometry": {"type": "Point", "coordinates": [-93.7362, 41.5568]}, "properties": {"facility_name": "B W JOHNSON MANUFACTURING CO", "industry": null, "tri_facility_id": "50265BWJHN1800F"}}, {"type": "Feature", "geometry": {"type": "Point", "coordinates": [-93.706667, 41.573056]}, "properties": {"facility_name": "DELAVAN INC GAS TURBINE PRODUCTS DIV", "industry": null, "tri_facility_id": "50265DLVNN8114T"}}, {"type": "Feature", "geometry": {"type": "Point", "coordinates": [-93.751389, 41.57]}, "properties": {"facility_name": "MID-CENTRAL PLASTICS INC", "industry": null, "tri_facility_id": "50265MDCNT2360G"}}, {"type": "Feature", "geometry": {"type": "Point", "coordinates": [-93.72166666666666, 41.56666666666667]}, "properties": {"facility_name": "CENTRAL  IOWA READY MIX WEST DES MOINES", "industry": null, "tri_facility_id": "50265MRCNC265S1"}}, {"type": "Feature", "geometry": {"type": "Point", "coordinates": [-93.7375, 41.558333]}, "properties": {"facility_name": "STEEL TREATING", "industry": null, "tri_facility_id": "50265STLTR2250F"}}, {"type": "Feature", "geometry": {"type": "Point", "coordinates": [-93.591167, 41.5827]}, "properties": {"facility_name": "KEMIN INDUSTRIES INC.", "industry": null, "tri_facility_id": "50301KMNNDBOX70"}}, {"type": "Feature", "geometry": {"type": "Point", "coordinates": [-93.697778, 41.556944]}, "properties": {"facility_name": "QUALITY MANUFACTURING CORP", "industry": null, "tri_facility_id": "50305MRDTH5701S"}}, {"type": "Feature", "geometry": {"type": "Point", "coordinates": [-93.570833, 41.585278]}, "properties": {"facility_name": "TITAN TIRE CORP", "industry": null, "tri_facility_id": "50306RMSTR2345E"}}, {"type": "Feature", "geometry": {"type": "Point", "coordinates": [-93.621389, 41.583333]}, "properties": {"facility_name": "B W JOHNSON MANUFACTURING CO", "industry": null, "tri_facility_id": "50309BWJHN209SW"}}, {"type": "Feature", "geometry": {"type": "Point", "coordinates": [-93.637164, 41.581239]}, "properties": {"facility_name": "DICO INC", "industry": null, "tri_facility_id": "50309DCNCX200SW"}}, {"type": "Feature", "geometry": {"type": "Point", "coordinates": [-93.640278, 41.585278]}, "properties": {"facility_name": "MEADOW GOLD DAIRIES INC", "industry": null, "tri_facility_id": "50309MDWGL1719W"}}, {"type": "Feature", "geometry": {"type": "Point", "coordinates": [-93.626667, 41.577778]}, "properties": {"facility_name": "PITT-DES MOINES INC", "industry": null, "tri_facility_id": "50309PTTDS921MU"}}, {"type": "Feature", "geometry": {"type": "Point", "coordinates": [-93.633222, 41.580748]}, "properties": {"facility_name": "QUALIS GROUP L.L.C.", "industry": null, "tri_facility_id": "50309QLSNC1340W"}}, {"type": "Feature", "geometry": {"type": "Point", "coordinates": [-93.72837, 41.602393]}, "properties": {"facility_name": "FAWN ENGINEERING CORP", "industry": null, "tri_facility_id": "50311FWNNG8040U"}}, {"type": "Feature", "geometry": {"type": "Point", "coordinates": [-93.58722222222222, 41.64555555555555]}, "properties": {"facility_name": "BARTON SOLVENTS INC DES MOINES", "industry": null, "tri_facility_id": "50313BRTNS1970N"}}, {"type": "Feature", "geometry": {"type": "Point", "coordinates": [-93.584094, 41.622231]}, "properties": {"facility_name": "CONSOLIDATED NUTRITION LC", "industry": null, "tri_facility_id": "50313CNTRL1946H"}}, {"type": "Feature", "geometry": {"type": "Point", "coordinates": [-93.583333, 41.666667]}, "properties": {"facility_name": "ADM ANIMAL NUTRITION", "industry": null, "tri_facility_id": "50313FDSPC1877N"}}, {"type": "Feature", "geometry": {"type": "Point", "coordinates": [-93.625, 41.645833]}, "properties": {"facility_name": "BRIDGESTONE AMERICAS TIRE OPERATIONS LLC", "industry": null, "tri_facility_id": "50313FRSTNSECON"}}, {"type": "Feature", "geometry": {"type": "Point", "coordinates": [-93.619057, 41.616268]}, "properties": {"facility_name": "EAGLE IRON WORKS", "industry": null, "tri_facility_id": "50313GLRNW129HO"}}, {"type": "Feature", "geometry": {"type": "Point", "coordinates": [-93.58416666666666, 41.65861111111111]}, "properties": {"facility_name": "BRENNTAG GREAT LAKES LLC", "industry": null, "tri_facility_id": "50313MLSLV1979N"}}, {"type": "Feature", "geometry": {"type": "Point", "coordinates": [-93.597941, 41.63685]}, "properties": {"facility_name": "AMERICAN NATIONAL CAN CO", "industry": null, "tri_facility_id": "50313MRCNN1500E"}}, {"type": "Feature", "geometry": {"type": "Point", "coordinates": [-93.58166666666666, 41.64861111111111]}, "properties": {"facility_name": "SAFETY-KLEEN SYSTEMS DES MOINES (DES)", "industry": null, "tri_facility_id": "50313SFTYK4704N"}}, {"type": "Feature", "geometry": {"type": "Point", "coordinates": [-93.618333, 41.62]}, "properties": {"facility_name": "HIRSH INDUSTRIES INC", "industry": null, "tri_facility_id": "50313STLWRFIRST"}}, {"type": "Feature", "geometry": {"type": "Point", "coordinates": [-93.588333, 41.634722]}, "properties": {"facility_name": "TONE'S SPICES BURNS PHILP FOOD", "industry": null, "tri_facility_id": "50313TNBRT4141D"}}, {"type": "Feature", "geometry": {"type": "Point", "coordinates": [-93.631, 41.6044]}, "properties": {"facility_name": "PEPSI-COLA GENERAL BOTTLERS INC", "industry": null, "tri_facility_id": "50314PPSCL111UN"}}, {"type": "Feature", "geometry": {"type": "Point", "coordinates": [-93.616667, 41.583333]}, "properties": {"facility_name": "PRAIRIE FARMS DAIRY INC", "industry": null, "tri_facility_id": "50314PRRFR17THU"}}, {"type": "Feature", "geometry": {"type": "Point", "coordinates": [-93.617778, 41.6025]}, "properties": {"facility_name": "IOWA PAINT TECH. & MANUFACTURING CENTER", "industry": null, "tri_facility_id": "50314WPNTM97IND"}}, {"type": "Feature", "geometry": {"type": "Point", "coordinates": [-93.639603, 41.6275]}, "properties": {"facility_name": "GARDNER GIBSON", "industry": null, "tri_facility_id": "50315GBSNH1623E"}}, {"type": "Feature", "geometry": {"type": "Point", "coordinates": [-93.616667, 41.575]}, "properties": {"facility_name": "REACO INC, BOB ALLEN COS INC", "industry": null, "tri_facility_id": "50315RCNCX214SW"}}, {"type": "Feature", "geometry": {"type": "Point", "coordinates": [-93.638889, 41.565278]}, "properties": {"facility_name": "WOODMARC", "industry": null, "tri_facility_id": "50315WDMRC1901B"}}, {"type": "Feature", "geometry": {"type": "Point", "coordinates": [-93.583333, 41.65]}, "properties": {"facility_name": "CONSTRUCTION PRODUCTS INC", "industry": null, "tri_facility_id": "50316CNTRC1625E"}}, {"type": "Feature", "geometry": {"type": "Point", "coordinates": [-93.584167, 41.624722]}, "properties": {"facility_name": "ADM POWER PLANT", "industry": null, "tri_facility_id": "50316DMXXX1942E"}}, {"type": "Feature", "geometry": {"type": "Point", "coordinates": [-93.59222222222222, 41.66416666666667]}, "properties": {"facility_name": "DEE ZEE INC", "industry": null, "tri_facility_id": "50316DZNCX1572N"}}, {"type": "Feature", "geometry": {"type": "Point", "coordinates": [-93.584167, 41.624722]}, "properties": {"facility_name": "ADM SOYBEAN PROCESSING", "industry": null, "tri_facility_id": "50316RCHRD1940E"}}, {"type": "Feature", "geometry": {"type": "Point", "coordinates": [-93.584167, 41.590556]}, "properties": {"facility_name": "EMCO ENTERPRISES INC", "industry": null, "tri_facility_id": "50316RCKSN1917D"}}, {"type": "Feature", "geometry": {"type": "Point", "coordinates": [-93.591389, 41.613611]}, "properties": {"facility_name": "TENSION ENVELOPE CORP", "industry": null, "tri_facility_id": "50316TNSNN2100E"}}, {"type": "Feature", "geometry": {"type": "Point", "coordinates": [-93.585556, 41.5875]}, "properties": {"facility_name": "SIEGWERK USA CO EAST FACILITY", "industry": null, "tri_facility_id": "50317CLRCN129SE"}}, {"type": "Feature", "geometry": {"type": "Point", "coordinates": [-93.556111, 41.575833]}, "properties": {"facility_name": "CARGILL INC", "industry": null, "tri_facility_id": "50317CRGLL3030S"}}, {"type": "Feature", "geometry": {"type": "Point", "coordinates": [-93.5375, 41.558333]}, "properties": {"facility_name": "DIAMOND ANIMAL HEALTH", "industry": null, "tri_facility_id": "50317DMNDS2538S"}}, {"type": "Feature", "geometry": {"type": "Point", "coordinates": [-93.569722, 41.590833]}, "properties": {"facility_name": "NER DATA PRODS INC", "industry": null, "tri_facility_id": "50317FRYCP2515D"}}, {"type": "Feature", "geometry": {"type": "Point", "coordinates": [-93.591667, 41.591667]}, "properties": {"facility_name": "BAYER CROPSCIENCE LP", "industry": null, "tri_facility_id": "50317GSTFS3124E"}}, {"type": "Feature", "geometry": {"type": "Point", "coordinates": [-93.545703, 41.5691]}, "properties": {"facility_name": "HELENA INDUSTRIES LLC", "industry": null, "tri_facility_id": "50317HLNCH3525V"}}, {"type": "Feature", "geometry": {"type": "Point", "coordinates": [-93.5031, 41.599228]}, "properties": {"facility_name": "KANE TOOL CO INC", "industry": null, "tri_facility_id": "50317KNTLC1101N"}}, {"type": "Feature", "geometry": {"type": "Point", "coordinates": [-93.579167, 41.593333]}, "properties": {"facility_name": "EMCO ENTERPRISES INC", "industry": null, "tri_facility_id": "50317MCSPC2121E"}}, {"type": "Feature", "geometry": {"type": "Point", "coordinates": [-93.587585, 41.581139]}, "properties": {"facility_name": "MONFORT INC", "industry": null, "tri_facility_id": "50317MNFRT1700M"}}, {"type": "Feature", "geometry": {"type": "Point", "coordinates": [-93.576155, 41.601909]}, "properties": {"facility_name": "ANDERSON ERICKSON DAIRY", "industry": null, "tri_facility_id": "50317NDRSN2229H"}}, {"type": "Feature", "geometry": {"type": "Point", "coordinates": [-93.584722, 41.583333]}, "properties": {"facility_name": "NATIONAL BY-PRODUCTS INC", "industry": null, "tri_facility_id": "50317NTNLB601SE"}}, {"type": "Feature", "geometry": {"type": "Point", "coordinates": [-93.581944, 41.608611]}, "properties": {"facility_name": "SMART INDUSTRIES CORP MFG", "industry": null, "tri_facility_id": "50317SMRTN1626D"}}, {"type": "Feature", "geometry": {"type": "Point", "coordinates": [-93.530556, 41.568333]}, "properties": {"facility_name": "SPARTECH LLC", "industry": null, "tri_facility_id": "50317TWNSN4400V"}}, {"type": "Feature", "geometry": {"type": "Point", "coordinates": [-93.586389, 41.580556]}, "properties": {"facility_name": "IOWA PACKING CO", "industry": null, "tri_facility_id": "50317WPCKN1801M"}}, {"type": "Feature", "geometry": {"type": "Point", "coordinates": [-93.653499, 41.562644]}, "properties": {"facility_name": "DELUXE CHECK PRINTERS INC", "industry": null, "tri_facility_id": "50321DLXCH2700B"}}, {"type": "Feature", "geometry": {"type": "Point", "coordinates": [-93.660556, 41.535]}, "properties": {"facility_name": "MAHLE-PARR MANUFACTURING INC", "industry": null, "tri_facility_id": "50321PRRMN3001M"}}, {"type": "Feature", "geometry": {"type": "Point", "coordinates": [-93.634722, 41.563056]}, "properties": {"facility_name": "CAPTIVE PLASTICS, LLC  SUB BERRY PLASTICS CORPORATION", "industry": null, "tri_facility_id": "50321STNCN2201B"}}, {"type": "Feature", "geometry": {"type": "Point", "coordinates": [-93.646667, 41.567222]}, "properties": {"facility_name": "ATLAS PRODUCTS INC (BASIC COATINGS)", "industry": null, "tri_facility_id": "50321TLSPR2124V"}}, {"type": "Feature", "geometry": {"type": "Point", "coordinates": [-93.75, 41.625]}, "properties": {"facility_name": "BOTTLING GROUP LLC D/B/A PEPSI BEVERAGES CO", "industry": null, "tri_facility_id": "50322PPSCL38251"}}]}