{"type": "FeatureCollection", "features": [{"type": "Feature", "geometry": {"type": "Point", "coordinates": [-117.378056, 47.753333]}, "properties": {"facility_name": "KAISER ALUMINUM & CHEMICAL CORP MEAD WORKS", "industry": null, "tri_facility_id": "99021KSRLME211H"}}, {"type": "Feature", "geometry": {"type": "Point", "coordinates": [-117.38, 47.65667]}, "properties": {"facility_name": "COLUMBIA PAINT & COATINGS CO", "industry": null, "tri_facility_id": "99202CLMBPN112H"}}, {"type": "Feature", "geometry": {"type": "Point", "coordinates": [-117.421667, 47.659444]}, "properties": {"facility_name": "ADM MILLING CO.  #438", "industry": null, "tri_facility_id": "99202DMCXXE2301"}}, {"type": "Feature", "geometry": {"type": "Point", "coordinates": [-117.39167, 47.66]}, "properties": {"facility_name": "FREEDOM MARINE ENGINEERING CORP", "industry": null, "tri_facility_id": "99202FRDMM1224E"}}, {"type": "Feature", "geometry": {"type": "Point", "coordinates": [-117.279389, 47.6773]}, "properties": {"facility_name": "LIQUID AIR CORP", "industry": null, "tri_facility_id": "99202LQDRCE4230"}}, {"type": "Feature", "geometry": {"type": "Point", "coordinates": [-117.354833, 47.656933]}, "properties": {"facility_name": "PEPSI-COLA OF SPOKANE", "industry": null, "tri_facility_id": "99202PPSCLE4014"}}, {"type": "Feature", "geometry": {"type": "Point", "coordinates": [-117.492944, 47.6336]}, "properties": {"facility_name": "ALLOY TRAILERS INC", "industry": null, "tri_facility_id": "99204LLYTRS3025"}}, {"type": "Feature", "geometry": {"type": "Point", "coordinates": [-117.5, 47.633333]}, "properties": {"facility_name": "R A PEARSON CO", "industry": null, "tri_facility_id": "99204RPRSNW8120"}}, {"type": "Feature", "geometry": {"type": "Point", "coordinates": [-117.338889, 47.673611]}, "properties": {"facility_name": "PURINA ANIMAL NUTRITION LLC - SPOKANE", "industry": null, "tri_facility_id": "99206PRNML4714E"}}, {"type": "Feature", "geometry": {"type": "Point", "coordinates": [-117.27694444444444, 47.66777777777777]}, "properties": {"facility_name": "SAFETY-KLEEN SYSTEMS (118301)", "industry": null, "tri_facility_id": "99206SFTYK9516E"}}, {"type": "Feature", "geometry": {"type": "Point", "coordinates": [-117.407778, 47.715833]}, "properties": {"facility_name": "DARIGOLD INC SPOKANE PLANT", "industry": null, "tri_facility_id": "99207DRGLDEAST3"}}, {"type": "Feature", "geometry": {"type": "Point", "coordinates": [-117.483333, 47.666667]}, "properties": {"facility_name": "BAYER CORP", "industry": null, "tri_facility_id": "99207HLLST3525N"}}, {"type": "Feature", "geometry": {"type": "Point", "coordinates": [-117.361133, 47.697483]}, "properties": {"facility_name": "ERGON ASPHALT & EMULSIONS INC. - SPOKANE HILLYARD", "industry": null, "tri_facility_id": "99207KCHMTN4327"}}, {"type": "Feature", "geometry": {"type": "Point", "coordinates": [-117.389444, 47.681111]}, "properties": {"facility_name": "METALLIC ARTS INC", "industry": null, "tri_facility_id": "99207MTLLCE1027"}}, {"type": "Feature", "geometry": {"type": "Point", "coordinates": [-117.355556, 47.7125]}, "properties": {"facility_name": "SAFEWAY WAREHOUSE INC", "industry": null, "tri_facility_id": "99207SFWYSN5707"}}, {"type": "Feature", "geometry": {"type": "Point", "coordinates": [-117.333611, 47.668333]}, "properties": {"facility_name": "TRAVIS PATTERN & FOUNDRY INC", "industry": null, "tri_facility_id": "99207TRVSPE1413"}}, {"type": "Feature", "geometry": {"type": "Point", "coordinates": [-117.35833333333333, 47.698055555555555]}, "properties": {"facility_name": "PHILLIPS 66 SPOKANE-PARKWATER TERMINAL", "industry": null, "tri_facility_id": "99212CNCPR6317E"}}, {"type": "Feature", "geometry": {"type": "Point", "coordinates": [-117.30555555555556, 47.660555555555554]}, "properties": {"facility_name": "CENTRAL PRE-MIX PARK ROAD", "industry": null, "tri_facility_id": "99212CNTRL82NPA"}}, {"type": "Feature", "geometry": {"type": "Point", "coordinates": [-117.33611111111111, 47.664722222222224]}, "properties": {"facility_name": "KNIFE RIVER SPOKANE PRESTRESS", "industry": null, "tri_facility_id": "99212CNTRL922NC"}}, {"type": "Feature", "geometry": {"type": "Point", "coordinates": [-117.324167, 47.676944]}, "properties": {"facility_name": "MIDDCO TOOL & EQUIPMENT CO INC", "industry": null, "tri_facility_id": "99212MDDCTN2401"}}, {"type": "Feature", "geometry": {"type": "Point", "coordinates": [-117.324167, 47.671667]}, "properties": {"facility_name": "MELCHER MANUFACTURING CO INC", "industry": null, "tri_facility_id": "99212MLCHRE6017"}}, {"type": "Feature", "geometry": {"type": "Point", "coordinates": [-117.279444, 47.6875]}, "properties": {"facility_name": "INLAND EMPIRE PAPER CO", "industry": null, "tri_facility_id": "99212NLNDMN3320"}}, {"type": "Feature", "geometry": {"type": "Point", "coordinates": [-117.301667, 47.657222]}, "properties": {"facility_name": "PILGRIM CANOPY CO", "industry": null, "tri_facility_id": "99212PLGRME7225"}}, {"type": "Feature", "geometry": {"type": "Point", "coordinates": [-117.31916666666666, 47.67944444444444]}, "properties": {"facility_name": "QUARRY TILE CO", "industry": null, "tri_facility_id": "99212QRRYT6328E"}}, {"type": "Feature", "geometry": {"type": "Point", "coordinates": [-117.323611, 47.665556]}, "properties": {"facility_name": "ASC MACHINE TOOLS INC", "industry": null, "tri_facility_id": "99212SCMCHNORTH"}}, {"type": "Feature", "geometry": {"type": "Point", "coordinates": [-117.331389, 47.664722]}, "properties": {"facility_name": "SUMMIT WINDOWS & PATIO DOOR SPOKANE", "industry": null, "tri_facility_id": "99212SMMTWE5414"}}, {"type": "Feature", "geometry": {"type": "Point", "coordinates": [-117.31722222222221, 47.66861111111111]}, "properties": {"facility_name": "PAR MONTANA SPOKANE TERMINAL", "industry": null, "tri_facility_id": "99212XXNMB6311E"}}, {"type": "Feature", "geometry": {"type": "Point", "coordinates": [-117.302222, 47.668889]}, "properties": {"facility_name": "BAYLINER MARINE CORP", "industry": null, "tri_facility_id": "99216BYLNRSPOKA"}}, {"type": "Feature", "geometry": {"type": "Point", "coordinates": [-117.416667, 47.666667]}, "properties": {"facility_name": "FOREMOST DAIRIES NORTHWEST BEVERAGE CO", "industry": null, "tri_facility_id": "99220CRNTNWEST4"}}, {"type": "Feature", "geometry": {"type": "Point", "coordinates": [-117.49638888888889, 47.61555555555556]}, "properties": {"facility_name": "OLYMPIC FOODS INC", "industry": null, "tri_facility_id": "99224LYMPC5625W"}}]}