{"type": "FeatureCollection", "features": [{"type": "Feature", "properties": {"area_id": 11036, "city": "Joplin", "state": "MO", "city_survey": false, "cat": "Average", "grade": null, "label": "Average", "res": true, "com": false, "ind": false, "holc_grade": null}, "geometry": {"type": "MultiPolygon", "coordinates": [[[[-94.49077, 37.08096], [-94.493912, 37.082022], [-94.49506, 37.08241], [-94.495024, 37.083848], [-94.4948, 37.0927], [-94.49051, 37.09274], [-94.49051, 37.09406], [-94.48541, 37.09404], [-94.48562, 37.09127], [-94.47937, 37.09117], [-94.48003, 37.08947], [-94.48048, 37.08708], [-94.48069, 37.08415], [-94.479677, 37.084186], [-94.479025, 37.084208], [-94.477273, 37.08427], [-94.47727, 37.08427], [-94.46734, 37.08409], [-94.46726, 37.0765], [-94.477601, 37.07646], [-94.47764, 37.07646], [-94.47774, 37.07992], [-94.48313, 37.07994], [-94.48604, 37.08017], [-94.48607, 37.07908], [-94.49077, 37.08096]]], [[[-94.49164, 37.09989], [-94.49233, 37.10045], [-94.49344, 37.10025], [-94.49451, 37.1009], [-94.49467, 37.10143], [-94.48872, 37.10791], [-94.48741, 37.10991], [-94.48408, 37.11318], [-94.47575, 37.11295], [-94.47579, 37.11049], [-94.48269, 37.11046], [-94.4831, 37.10608], [-94.48211, 37.10598], [-94.48256, 37.10166], [-94.48462, 37.10215], [-94.484689, 37.101012], [-94.48478, 37.0995], [-94.48597, 37.10025], [-94.48852, 37.09973], [-94.49024, 37.0995], [-94.490357, 37.099533], [-94.49164, 37.09989]]], [[[-94.51512, 37.04778], [-94.52035, 37.04789], [-94.52019, 37.04885], [-94.519853, 37.055173], [-94.51985, 37.05523], [-94.518813, 37.055149], [-94.51819, 37.0551], [-94.518188, 37.055135], [-94.517837, 37.062295], [-94.51783, 37.06244], [-94.52321, 37.06242], [-94.532028, 37.06275], [-94.53204, 37.06275], [-94.5317, 37.07376], [-94.531566, 37.073761], [-94.52705, 37.0738], [-94.52697, 37.07556], [-94.52248, 37.07554], [-94.522401, 37.076955], [-94.5224, 37.07698], [-94.526497, 37.077048], [-94.531419, 37.077129], [-94.53148, 37.07713], [-94.531146, 37.084563], [-94.53099, 37.08805], [-94.530976, 37.08805], [-94.52413, 37.08794], [-94.523812, 37.094295], [-94.52376, 37.09534], [-94.52169, 37.09538], [-94.52179, 37.09582], [-94.52079, 37.09578], [-94.520884, 37.094211], [-94.52114, 37.08991], [-94.52135, 37.08425], [-94.51572, 37.08415], [-94.51428, 37.08402], [-94.514486, 37.077394], [-94.51473, 37.06958], [-94.514134, 37.069572], [-94.51323, 37.06956], [-94.51318, 37.07495], [-94.50966, 37.07489], [-94.50963, 37.07386], [-94.50858, 37.07386], [-94.50882, 37.06931], [-94.50934, 37.06927], [-94.50942, 37.06558], [-94.51055, 37.06558], [-94.51055, 37.06242], [-94.50937, 37.06246], [-94.509376, 37.062233], [-94.50942, 37.06045], [-94.51368, 37.06055], [-94.514018, 37.055028], [-94.51402, 37.055], [-94.51481, 37.05485], [-94.51512, 37.04778]], [[-94.51762, 37.08059], [-94.5198, 37.08063], [-94.51982, 37.07786], [-94.51756, 37.07772], [-94.51762, 37.08059]]], [[[-94.51234, 37.08042], [-94.512193, 37.084023], [-94.51192, 37.09069], [-94.51103, 37.09048], [-94.51136, 37.08511], [-94.51073, 37.08507], [-94.510815, 37.084003], [-94.5111, 37.0804], [-94.51234, 37.08042]]], [[[-94.51538, 37.09082], [-94.515212, 37.094051], [-94.51494, 37.09926], [-94.512813, 37.099194], [-94.5127, 37.09919], [-94.5131, 37.09073], [-94.513202, 37.090734], [-94.51538, 37.09082]]]]}}, {"type": "Feature", "properties": {"area_id": 11033, "city": "Joplin", "state": "MO", "city_survey": false, "cat": "Better Homes", "grade": null, "label": "Better Homes", "res": true, "com": false, "ind": false, "holc_grade": null}, "geometry": {"type": "MultiPolygon", "coordinates": [[[[-94.48654, 37.07285], [-94.48654, 37.07633], [-94.47969, 37.07648], [-94.47998, 37.0726], [-94.48654, 37.07285]]], [[[-94.52135, 37.08425], [-94.52114, 37.08991], [-94.520884, 37.094211], [-94.52079, 37.09578], [-94.52179, 37.09582], [-94.52163, 37.09903], [-94.52258, 37.10007], [-94.52242, 37.10305], [-94.524, 37.10313], [-94.52379, 37.10696], [-94.5215, 37.10682], [-94.5203, 37.10351], [-94.51696, 37.10319], [-94.51735, 37.09934], [-94.51494, 37.09926], [-94.515212, 37.094051], [-94.51538, 37.09082], [-94.51572, 37.08415], [-94.52135, 37.08425]]]]}}, {"type": "Feature", "properties": {"area_id": 11037, "city": "Joplin", "state": "MO", "city_survey": false, "cat": "Business District", "grade": null, "label": "Business District", "res": false, "com": true, "ind": false, "holc_grade": null}, "geometry": {"type": "Polygon", "coordinates": [[[-94.51234, 37.08042], [-94.51312, 37.08044], [-94.51318, 37.07495], [-94.51323, 37.06956], [-94.514134, 37.069572], [-94.51473, 37.06958], [-94.514486, 37.077394], [-94.51428, 37.08402], [-94.51572, 37.08415], [-94.51538, 37.09082], [-94.513202, 37.090734], [-94.5131, 37.09073], [-94.51192, 37.09069], [-94.512193, 37.084023], [-94.51234, 37.08042]]]}}, {"type": "Feature", "properties": {"area_id": 11034, "city": "Joplin", "state": "MO", "city_survey": false, "cat": "Cheap", "grade": null, "label": "Cheap", "res": true, "com": false, "ind": false, "holc_grade": null}, "geometry": {"type": "MultiPolygon", "coordinates": [[[[-94.48872, 37.10791], [-94.49467, 37.10143], [-94.49434, 37.11321], [-94.48408, 37.11318], [-94.48741, 37.10991], [-94.48872, 37.10791]]], [[[-94.49965, 37.06925], [-94.50882, 37.06931], [-94.50858, 37.07386], [-94.50963, 37.07386], [-94.50966, 37.07489], [-94.51318, 37.07495], [-94.51312, 37.08044], [-94.51234, 37.08042], [-94.5111, 37.0804], [-94.510815, 37.084003], [-94.51073, 37.08507], [-94.51136, 37.08511], [-94.51103, 37.09048], [-94.511, 37.09106], [-94.5105, 37.09915], [-94.50769, 37.099], [-94.50795, 37.09504], [-94.50737, 37.09498], [-94.50716, 37.09643], [-94.5044, 37.09634], [-94.50446, 37.09502], [-94.49474, 37.09498], [-94.4948, 37.0927], [-94.495024, 37.083848], [-94.49506, 37.08241], [-94.49511, 37.08069], [-94.49894, 37.08027], [-94.49931, 37.07587], [-94.49965, 37.06925]]], [[[-94.51762, 37.08059], [-94.51756, 37.07772], [-94.51982, 37.07786], [-94.5198, 37.08063], [-94.51762, 37.08059]]], [[[-94.523211, 37.062387], [-94.52321, 37.06242], [-94.51783, 37.06244], [-94.517837, 37.062295], [-94.518188, 37.055135], [-94.51819, 37.0551], [-94.518813, 37.055149], [-94.51985, 37.05523], [-94.519853, 37.055173], [-94.52019, 37.04885], [-94.52382, 37.0489], [-94.523534, 37.055232], [-94.523211, 37.062387]]], [[[-94.530976, 37.08805], [-94.53099, 37.08805], [-94.54927, 37.0884], [-94.54914, 37.09138], [-94.55323, 37.09171], [-94.55323, 37.09565], [-94.54852, 37.09568], [-94.54375, 37.09571], [-94.543777, 37.095461], [-94.54415, 37.09201], [-94.53322, 37.09186], [-94.533118, 37.095415], [-94.53311, 37.09571], [-94.53072, 37.09561], [-94.53054, 37.10003], [-94.52773, 37.09982], [-94.52786, 37.09561], [-94.52376, 37.09534], [-94.523812, 37.094295], [-94.52413, 37.08794], [-94.530976, 37.08805]]]]}}, {"type": "Feature", "properties": {"area_id": 11035, "city": "Joplin", "state": "MO", "city_survey": false, "cat": "Negro", "grade": null, "label": "Negro", "res": true, "com": false, "ind": false, "holc_grade": null}, "geometry": {"type": "MultiPolygon", "coordinates": [[[[-94.54078, 37.07009], [-94.53606, 37.07007], [-94.53606, 37.06502], [-94.54078, 37.06485], [-94.54078, 37.07009]]], [[[-94.54525, 37.07382], [-94.54496, 37.07736], [-94.5396, 37.0773], [-94.53973, 37.07376], [-94.54525, 37.07382]]]]}}]}