{"type": "FeatureCollection", "features": [{"type": "Feature", "properties": {"area_id": 11204, "city": "Port Arthur", "state": "TX", "city_survey": false, "cat": "Security Improving", "grade": "A", "label": "Security Improving", "res": true, "com": false, "ind": false, "holc_grade": "A"}, "geometry": {"type": "Polygon", "coordinates": [[[-93.933697, 29.899655], [-93.93376, 29.8997], [-93.92944, 29.90508], [-93.939889, 29.912448], [-93.94304, 29.91467], [-93.94281, 29.91645], [-93.94183, 29.91734], [-93.94507, 29.91922], [-93.94597, 29.9212], [-93.94722, 29.92208], [-93.94533, 29.92416], [-93.945562, 29.925855], [-93.94558, 29.92599], [-93.944781, 29.926758], [-93.94296, 29.92851], [-93.942253, 29.928604], [-93.938201, 29.929145], [-93.93816, 29.92915], [-93.93031, 29.93022], [-93.9291, 29.92981], [-93.92555, 29.92939], [-93.92433, 29.92942], [-93.924128, 29.929308], [-93.92412, 29.929304], [-93.92078, 29.92746], [-93.917477, 29.924953], [-93.91688, 29.9245], [-93.91116, 29.92034], [-93.910616, 29.919654], [-93.908, 29.91636], [-93.90681, 29.91592], [-93.906171, 29.914023], [-93.90545, 29.911882], [-93.90512, 29.9109], [-93.90385, 29.9098], [-93.90151, 29.90425], [-93.900121, 29.903335], [-93.89987, 29.90317], [-93.90275, 29.90039], [-93.90913, 29.89476], [-93.91488, 29.88867], [-93.915297, 29.88892], [-93.91553, 29.88906], [-93.91595, 29.88855], [-93.916139, 29.887976], [-93.91621, 29.88776], [-93.916594, 29.887461], [-93.91666, 29.88741], [-93.925934, 29.894075], [-93.933697, 29.899655]]]}}, {"type": "Feature", "properties": {"area_id": 11201, "city": "Port Arthur", "state": "TX", "city_survey": false, "cat": "Security Stable", "grade": "B", "label": "Security Stable", "res": true, "com": false, "ind": false, "holc_grade": "B"}, "geometry": {"type": "Polygon", "coordinates": [[[-93.93531, 29.8744], [-93.936, 29.8736], [-93.93696, 29.87421], [-93.93764, 29.8735], [-93.94203, 29.87659], [-93.94059, 29.87822], [-93.94162, 29.87889], [-93.938657, 29.882022], [-93.93864, 29.88204], [-93.941113, 29.88376], [-93.945758, 29.886992], [-93.9459, 29.88709], [-93.94458, 29.88861], [-93.94436, 29.888466], [-93.94342, 29.88785], [-93.94181, 29.88972], [-93.942599, 29.890274], [-93.94275, 29.89038], [-93.93445, 29.898985], [-93.93376, 29.8997], [-93.933697, 29.899655], [-93.925934, 29.894075], [-93.91666, 29.88741], [-93.917, 29.88721], [-93.91766, 29.88657], [-93.917835, 29.886058], [-93.91792, 29.88581], [-93.918174, 29.885681], [-93.91877, 29.88538], [-93.91921, 29.88496], [-93.91954, 29.88418], [-93.92066, 29.88374], [-93.92131, 29.88304], [-93.92233, 29.88221], [-93.92331, 29.88186], [-93.923343, 29.881828], [-93.92636, 29.87882], [-93.92749, 29.87942], [-93.92828, 29.87866], [-93.92878, 29.879], [-93.931037, 29.876617], [-93.93327, 29.87426], [-93.93369, 29.87452], [-93.93437, 29.87375], [-93.93531, 29.8744]]]}}, {"type": "Feature", "properties": {"area_id": 11202, "city": "Port Arthur", "state": "TX", "city_survey": false, "cat": "Security Declining", "grade": "C", "label": "Security Declining", "res": true, "com": false, "ind": false, "holc_grade": "C"}, "geometry": {"type": "Polygon", "coordinates": [[[-93.94059, 29.87822], [-93.94203, 29.87659], [-93.94286, 29.87582], [-93.9418, 29.8751], [-93.9366, 29.87142], [-93.93842, 29.86937], [-93.94286, 29.87245], [-93.94241, 29.87288], [-93.95088, 29.87897], [-93.95151, 29.87905], [-93.95207, 29.87994], [-93.952228, 29.880199], [-93.95232, 29.88035], [-93.9459, 29.88709], [-93.945758, 29.886992], [-93.941113, 29.88376], [-93.93864, 29.88204], [-93.938657, 29.882022], [-93.94162, 29.87889], [-93.94059, 29.87822]]]}}, {"type": "Feature", "properties": {"area_id": 11203, "city": "Port Arthur", "state": "TX", "city_survey": false, "cat": "Security Hazardous", "grade": "D", "label": "Security Hazardous", "res": true, "com": false, "ind": false, "holc_grade": "D"}, "geometry": {"type": "MultiPolygon", "coordinates": [[[[-93.95238, 29.87991], [-93.95207, 29.87994], [-93.95151, 29.87905], [-93.95088, 29.87897], [-93.94241, 29.87288], [-93.94286, 29.87245], [-93.95027, 29.87754], [-93.95175, 29.87884], [-93.95238, 29.87991]]], [[[-93.9533, 29.87839], [-93.953238, 29.878881], [-93.95315, 29.87958], [-93.95285, 29.87952], [-93.952804, 29.879426], [-93.952487, 29.878781], [-93.95232, 29.87844], [-93.94517, 29.87336], [-93.945331, 29.87314], [-93.94588, 29.87239], [-93.945958, 29.872444], [-93.94693, 29.87311], [-93.94954, 29.8749], [-93.95604, 29.86795], [-93.956983, 29.866939], [-93.95729, 29.86661], [-93.957928, 29.873606], [-93.95794, 29.87374], [-93.95467, 29.87772], [-93.954441, 29.877832], [-93.9533, 29.87839]]]]}}, {"type": "Feature", "properties": {"area_id": 11205, "city": "Port Arthur", "state": "TX", "city_survey": false, "cat": "Commercial", "grade": null, "label": "Commercial", "res": false, "com": true, "ind": false, "holc_grade": null}, "geometry": {"type": "MultiPolygon", "coordinates": [[[[-93.94342, 29.87214], [-93.945149, 29.873346], [-93.94517, 29.87336], [-93.95232, 29.87844], [-93.952487, 29.878781], [-93.952804, 29.879426], [-93.95285, 29.87952], [-93.95315, 29.87958], [-93.952546, 29.879839], [-93.95238, 29.87991], [-93.95175, 29.87884], [-93.95027, 29.87754], [-93.94286, 29.87245], [-93.93842, 29.86937], [-93.9366, 29.87142], [-93.9418, 29.8751], [-93.94286, 29.87582], [-93.94203, 29.87659], [-93.93764, 29.8735], [-93.93696, 29.87421], [-93.936, 29.8736], [-93.93531, 29.8744], [-93.93437, 29.87375], [-93.93369, 29.87452], [-93.93327, 29.87426], [-93.931037, 29.876617], [-93.92878, 29.879], [-93.92828, 29.87866], [-93.93035, 29.87631], [-93.9299, 29.87588], [-93.929934, 29.875846], [-93.93206, 29.87371], [-93.93116, 29.87289], [-93.93239, 29.87145], [-93.93161, 29.87067], [-93.93195, 29.87023], [-93.93282, 29.86993], [-93.9334, 29.87029], [-93.93479, 29.86882], [-93.93517, 29.86915], [-93.93679, 29.86758], [-93.937492, 29.868027], [-93.93883, 29.86888], [-93.9393, 29.86841], [-93.94385, 29.87166], [-93.94342, 29.87214]]], [[[-93.94275, 29.89038], [-93.942599, 29.890274], [-93.94181, 29.88972], [-93.94342, 29.88785], [-93.94436, 29.888466], [-93.94458, 29.88861], [-93.94275, 29.89038]]], [[[-93.95007, 29.86638], [-93.95299, 29.86322], [-93.95362, 29.86366], [-93.95594, 29.8653], [-93.955416, 29.865835], [-93.95443, 29.86684], [-93.951964, 29.869351], [-93.95167, 29.86965], [-93.94969, 29.86824], [-93.95086, 29.86696], [-93.95007, 29.86638]]]]}}, {"type": "Feature", "properties": {"area_id": 11206, "city": "Port Arthur", "state": "TX", "city_survey": false, "cat": "Negro", "grade": null, "label": "Negro", "res": true, "com": false, "ind": false, "holc_grade": null}, "geometry": {"type": "Polygon", "coordinates": [[[-93.95604, 29.86134], [-93.956037, 29.861343], [-93.95362, 29.86366], [-93.95299, 29.86322], [-93.95007, 29.86638], [-93.95086, 29.86696], [-93.94969, 29.86824], [-93.95167, 29.86965], [-93.951964, 29.869351], [-93.95443, 29.86684], [-93.95604, 29.86795], [-93.94954, 29.8749], [-93.94693, 29.87311], [-93.9468, 29.87197], [-93.947105, 29.871182], [-93.94723, 29.87086], [-93.94638, 29.87169], [-93.94284, 29.86924], [-93.94362, 29.86845], [-93.94277, 29.8678], [-93.9423, 29.8637], [-93.94319, 29.8627], [-93.94579, 29.86458], [-93.951724, 29.858338], [-93.95176, 29.8583], [-93.95604, 29.86134]]]}}]}