{"type": "FeatureCollection", "features": [{"type": "Feature", "properties": {"area_id": 10429, "city": "Pensacola", "state": "FL", "city_survey": false, "cat": "Blighted", "grade": null, "label": "Blighted", "res": true, "com": false, "ind": false, "holc_grade": null}, "geometry": {"type": "MultiPolygon", "coordinates": [[[[-87.21089, 30.40731], [-87.21149, 30.4075], [-87.21222, 30.4075], [-87.21322, 30.40768], [-87.213245, 30.407789], [-87.215328, 30.416793], [-87.21575, 30.41862], [-87.21151, 30.4194], [-87.19814, 30.42186], [-87.194664, 30.422499], [-87.19341, 30.42273], [-87.19315, 30.42174], [-87.194067, 30.420883], [-87.19407, 30.42088], [-87.19415, 30.42025], [-87.1937, 30.4201], [-87.1952, 30.41889], [-87.19687, 30.41865], [-87.19785, 30.4182], [-87.19945, 30.41684], [-87.20031, 30.4158], [-87.2031, 30.41266], [-87.20408, 30.41222], [-87.20422, 30.41147], [-87.205627, 30.409448], [-87.20564, 30.40943], [-87.205653, 30.409421], [-87.2071, 30.40839], [-87.207844, 30.408124], [-87.20794, 30.40809], [-87.208533, 30.408168], [-87.20931, 30.40827], [-87.21001, 30.40792], [-87.21002, 30.40757], [-87.209612, 30.407527], [-87.20935, 30.4075], [-87.2089, 30.40738], [-87.20898, 30.40713], [-87.210153, 30.407241], [-87.21089, 30.40731]]], [[[-87.224023, 30.401915], [-87.22462, 30.40178], [-87.225, 30.40295], [-87.2258, 30.40276], [-87.22628, 30.40417], [-87.226292, 30.40417], [-87.226405, 30.404166], [-87.22649, 30.404164], [-87.22662, 30.40416], [-87.226604, 30.404372], [-87.226566, 30.404886], [-87.226112, 30.410963], [-87.22611, 30.41099], [-87.21734, 30.41258], [-87.21601, 30.40713], [-87.21725, 30.40707], [-87.21697, 30.40619], [-87.216986, 30.406181], [-87.217316, 30.405995], [-87.21743, 30.40593], [-87.21767, 30.40531], [-87.217601, 30.40495], [-87.21692, 30.4014], [-87.21737, 30.40134], [-87.21766, 30.40278], [-87.21798, 30.40284], [-87.21804, 30.40266], [-87.21768, 30.4007], [-87.218, 30.40069], [-87.21846, 30.40261], [-87.21874, 30.40276], [-87.21896, 30.40256], [-87.21834, 30.39989], [-87.21871, 30.39973], [-87.219296, 30.402584], [-87.21931, 30.40265], [-87.219686, 30.402687], [-87.21982, 30.4027], [-87.220275, 30.404495], [-87.22055, 30.40558], [-87.22093, 30.40576], [-87.22139, 30.40561], [-87.22189, 30.40482], [-87.221776, 30.404399], [-87.22138, 30.40293], [-87.2218, 30.40247], [-87.22203, 30.4027], [-87.2217, 30.40301], [-87.222024, 30.404424], [-87.22211, 30.4048], [-87.22249, 30.40482], [-87.22317, 30.4044], [-87.223412, 30.403871], [-87.22344, 30.40381], [-87.223127, 30.402388], [-87.2231, 30.402265], [-87.22307, 30.40213], [-87.224023, 30.401915]]]]}}, {"type": "Feature", "properties": {"area_id": 10428, "city": "Pensacola", "state": "FL", "city_survey": false, "cat": "Business", "grade": null, "label": "Business", "res": false, "com": true, "ind": false, "holc_grade": null}, "geometry": {"type": "Polygon", "coordinates": [[[-87.211771, 30.404085], [-87.211931, 30.404597], [-87.21219, 30.40542], [-87.212383, 30.40473], [-87.21243, 30.40456], [-87.21215, 30.40369], [-87.21251, 30.40377], [-87.21269, 30.40445], [-87.21311, 30.40435], [-87.21324, 30.40369], [-87.21335, 30.40331], [-87.213412, 30.403359], [-87.21389, 30.40374], [-87.21442, 30.40365], [-87.21476, 30.40328], [-87.21446, 30.40233], [-87.2147, 30.40217], [-87.21515, 30.40314], [-87.21569, 30.40362], [-87.215762, 30.403909], [-87.21631, 30.4061], [-87.21697, 30.40619], [-87.21725, 30.40707], [-87.21601, 30.40713], [-87.21734, 30.41258], [-87.21868, 30.4181], [-87.216685, 30.418454], [-87.21575, 30.41862], [-87.215328, 30.416793], [-87.213245, 30.407789], [-87.21322, 30.40768], [-87.21222, 30.4075], [-87.21149, 30.4075], [-87.21089, 30.40731], [-87.210153, 30.407241], [-87.20898, 30.40713], [-87.209254, 30.406983], [-87.20967, 30.40676], [-87.20962, 30.40619], [-87.2098, 30.406], [-87.20977, 30.4054], [-87.20922, 30.40503], [-87.20919, 30.40466], [-87.20956, 30.40427], [-87.21033, 30.405], [-87.21048, 30.40571], [-87.21069, 30.40558], [-87.21069, 30.40503], [-87.21024, 30.40393], [-87.20971, 30.40165], [-87.21082, 30.401299], [-87.2111, 30.40121], [-87.2117, 30.40386], [-87.211771, 30.404085]]]}}, {"type": "Feature", "properties": {"area_id": 10435, "city": "Pensacola", "state": "FL", "city_survey": false, "cat": "Cheap White Section", "grade": null, "label": "Cheap White Section", "res": true, "com": false, "ind": false, "holc_grade": null}, "geometry": {"type": "Polygon", "coordinates": [[[-87.247824, 30.416012], [-87.24769, 30.41601], [-87.250038, 30.421214], [-87.25009, 30.42133], [-87.242044, 30.426342], [-87.235073, 30.430684], [-87.23471, 30.43091], [-87.224948, 30.430562], [-87.22488, 30.43056], [-87.22496, 30.42777], [-87.231031, 30.423262], [-87.238052, 30.418048], [-87.2438, 30.41378], [-87.24861, 30.41451], [-87.24951, 30.41527], [-87.25215, 30.41533], [-87.25337, 30.41608], [-87.252181, 30.416065], [-87.249392, 30.416031], [-87.247824, 30.416012]]]}}, {"type": "Feature", "properties": {"area_id": 10431, "city": "Pensacola", "state": "FL", "city_survey": false, "cat": "Industrial", "grade": null, "label": "Industrial", "res": false, "com": false, "ind": true, "holc_grade": null}, "geometry": {"type": "Polygon", "coordinates": [[[-87.23384, 30.40046], [-87.23581, 30.39954], [-87.23705, 30.39983], [-87.2379, 30.39933], [-87.238023, 30.399388], [-87.23904, 30.39987], [-87.24006, 30.39956], [-87.24169, 30.40021], [-87.24368, 30.40013], [-87.24453, 30.40121], [-87.2455, 30.40132], [-87.24581, 30.40201], [-87.24674, 30.40209], [-87.2473, 30.40318], [-87.24817, 30.40316], [-87.24912, 30.40375], [-87.25019, 30.40354], [-87.25099, 30.4039], [-87.25191, 30.40369], [-87.25334, 30.40618], [-87.25541, 30.40645], [-87.25541, 30.40731], [-87.25643, 30.40863], [-87.25822, 30.41011], [-87.259121, 30.413183], [-87.25932, 30.41386], [-87.259248, 30.413987], [-87.25881, 30.41476], [-87.25572, 30.41633], [-87.25337, 30.41608], [-87.25215, 30.41533], [-87.24951, 30.41527], [-87.24861, 30.41451], [-87.2438, 30.41378], [-87.231716, 30.411709], [-87.22974, 30.41137], [-87.229228, 30.411316], [-87.226216, 30.411001], [-87.22611, 30.41099], [-87.226112, 30.410963], [-87.226566, 30.404886], [-87.226604, 30.404372], [-87.22662, 30.40416], [-87.226827, 30.404038], [-87.22792, 30.40339], [-87.22855, 30.40199], [-87.228854, 30.401662], [-87.22906, 30.40144], [-87.23105, 30.4013], [-87.23384, 30.40046]]]}}, {"type": "Feature", "properties": {"area_id": 10432, "city": "Pensacola", "state": "FL", "city_survey": false, "cat": "Negro Section", "grade": null, "label": "Negro Section", "res": true, "com": false, "ind": false, "holc_grade": null}, "geometry": {"type": "Polygon", "coordinates": [[[-87.22102, 30.4177], [-87.221581, 30.420605], [-87.22193, 30.42241], [-87.22379, 30.42218], [-87.22496, 30.42777], [-87.22244, 30.42823], [-87.21906, 30.428834], [-87.21802, 30.42902], [-87.21575, 30.41862], [-87.216685, 30.418454], [-87.21868, 30.4181], [-87.22102, 30.4177]]]}}, {"type": "Feature", "properties": {"area_id": 10433, "city": "Pensacola", "state": "FL", "city_survey": false, "cat": "Negro and White", "grade": null, "label": "Negro and White", "res": true, "com": false, "ind": false, "holc_grade": null}, "geometry": {"type": "MultiPolygon", "coordinates": [[[[-87.21802, 30.42902], [-87.21906, 30.428834], [-87.22244, 30.42823], [-87.22326, 30.43147], [-87.219805, 30.432065], [-87.210395, 30.433685], [-87.20508, 30.4346], [-87.20243, 30.42254], [-87.19836, 30.42323], [-87.19814, 30.42186], [-87.21151, 30.4194], [-87.21575, 30.41862], [-87.21802, 30.42902]]], [[[-87.22974, 30.41137], [-87.231716, 30.411709], [-87.2438, 30.41378], [-87.238052, 30.418048], [-87.231031, 30.423262], [-87.22496, 30.42777], [-87.22379, 30.42218], [-87.22193, 30.42241], [-87.221581, 30.420605], [-87.22102, 30.4177], [-87.21868, 30.4181], [-87.21734, 30.41258], [-87.22611, 30.41099], [-87.226216, 30.411001], [-87.229228, 30.411316], [-87.22974, 30.41137]]]]}}, {"type": "Feature", "properties": {"area_id": 10430, "city": "Pensacola", "state": "FL", "city_survey": false, "cat": "Residential", "grade": null, "label": "Residential", "res": true, "com": false, "ind": false, "holc_grade": null}, "geometry": {"type": "Polygon", "coordinates": [[[-87.19836, 30.42323], [-87.20243, 30.42254], [-87.20508, 30.4346], [-87.19893, 30.43572], [-87.1977, 30.435892], [-87.19363, 30.43646], [-87.19435, 30.43904], [-87.19031, 30.43972], [-87.18991, 30.43812], [-87.18736, 30.43536], [-87.18706, 30.4336], [-87.19259, 30.43432], [-87.19176, 30.43009], [-87.19183, 30.42896], [-87.19132, 30.4278], [-87.19087, 30.42744], [-87.19102, 30.42681], [-87.19061, 30.4261], [-87.18966, 30.42501], [-87.18952, 30.42407], [-87.18929, 30.42358], [-87.18953, 30.42282], [-87.18972, 30.42201], [-87.19169, 30.42196], [-87.19315, 30.42174], [-87.19341, 30.42273], [-87.194664, 30.422499], [-87.19814, 30.42186], [-87.19836, 30.42323]]]}}, {"type": "Feature", "properties": {"area_id": 10434, "city": "Pensacola", "state": "FL", "city_survey": false, "cat": "Sparsely Settled Negro & White", "grade": null, "label": "Sparsely Settled Negro & White", "res": true, "com": false, "ind": false, "holc_grade": null}, "geometry": {"type": "Polygon", "coordinates": [[[-87.22439, 30.4372], [-87.221127, 30.439355], [-87.213996, 30.444062], [-87.20205, 30.45195], [-87.199505, 30.450607], [-87.18854, 30.44482], [-87.19031, 30.43972], [-87.19435, 30.43904], [-87.19363, 30.43646], [-87.1977, 30.435892], [-87.19893, 30.43572], [-87.20508, 30.4346], [-87.210395, 30.433685], [-87.219805, 30.432065], [-87.22326, 30.43147], [-87.223753, 30.433969], [-87.22439, 30.4372]]]}}]}