{"type": "FeatureCollection", "features": [{"type": "Feature", "properties": {"area_id": 10340, "city": "Camden", "state": "AR", "city_survey": false, "cat": "Blighted District", "grade": "", "label": "Blighted District", "res": true, "com": false, "ind": false, "fill": "#833E3F", "GEOID10": "05103950600", "GISJOIN": "G0501030950600", "calc_area": 1567502.86083, "pct_tract": 0.04321}, "geometry": {"type": "MultiPolygon", "coordinates": [[[[-92.82511, 33.57996], [-92.82246, 33.57978], [-92.82126, 33.57939], [-92.82068, 33.57801], [-92.8209, 33.5725], [-92.82366, 33.57188], [-92.82725, 33.57207], [-92.83124, 33.57227], [-92.83375, 33.57301], [-92.83809, 33.57366], [-92.84261, 33.57476], [-92.8427, 33.57658], [-92.84248, 33.57771], [-92.84248, 33.57855], [-92.84251, 33.57924], [-92.84064, 33.5794], [-92.84058, 33.57976], [-92.83384, 33.57974], [-92.83381, 33.58022], [-92.83212, 33.58017], [-92.82511, 33.57996]]]]}}, {"type": "Feature", "properties": {"area_id": 10341, "city": "Camden", "state": "AR", "city_survey": false, "cat": "Second Best Residential Section", "grade": "", "label": "Second Best Residential Section", "res": true, "com": false, "ind": false, "fill": "#BAA745", "GEOID10": "05103950400", "GISJOIN": "G0501030950400", "calc_area": 403758.21247, "pct_tract": 0.04413}, "geometry": {"type": "MultiPolygon", "coordinates": [[[[-92.83202, 33.58618], [-92.83301, 33.5882], [-92.83338, 33.58895], [-92.83434, 33.59141], [-92.83285, 33.5924], [-92.8301, 33.59319], [-92.82798, 33.59312], [-92.82577, 33.58827], [-92.82674, 33.58795], [-92.83202, 33.58618]]]]}}, {"type": "Feature", "properties": {"area_id": 10341, "city": "Camden", "state": "AR", "city_survey": false, "cat": "Second Best Residential Section", "grade": "", "label": "Second Best Residential Section", "res": true, "com": false, "ind": false, "fill": "#BAA745", "GEOID10": "05103950600", "GISJOIN": "G0501030950600", "calc_area": 550823.95205, "pct_tract": 0.01518}, "geometry": {"type": "MultiPolygon", "coordinates": [[[[-92.83381, 33.58022], [-92.83384, 33.57974], [-92.84058, 33.57976], [-92.84064, 33.5794], [-92.84251, 33.57924], [-92.84248, 33.57855], [-92.84492, 33.57862], [-92.84418, 33.57975], [-92.84289, 33.58196], [-92.8425, 33.58226], [-92.84242, 33.58395], [-92.83617, 33.58402], [-92.83414, 33.58411], [-92.83193, 33.58486], [-92.83143, 33.58503], [-92.83118, 33.58512], [-92.83053, 33.58395], [-92.83024, 33.58343], [-92.83165, 33.58283], [-92.83182, 33.58127], [-92.83212, 33.58017], [-92.83381, 33.58022]]]]}}, {"type": "Feature", "properties": {"area_id": 10342, "city": "Camden", "state": "AR", "city_survey": false, "cat": "Business District", "grade": "", "label": "Business District", "res": false, "com": true, "ind": false, "fill": "#5D7397", "GEOID10": "05103950400", "GISJOIN": "G0501030950400", "calc_area": 192413.41192, "pct_tract": 0.02103}, "geometry": {"type": "MultiPolygon", "coordinates": [[[[-92.83183, 33.5858], [-92.83228, 33.58562], [-92.83287, 33.58539], [-92.83296, 33.58563], [-92.83438, 33.58561], [-92.83796, 33.58557], [-92.83793, 33.58626], [-92.84244, 33.58642], [-92.84237, 33.58671], [-92.84159, 33.58723], [-92.83516, 33.58717], [-92.83372, 33.58786], [-92.83301, 33.5882], [-92.83202, 33.58618], [-92.82674, 33.58795], [-92.826985, 33.58699], [-92.827011, 33.586981], [-92.8271, 33.58695], [-92.82738, 33.58686], [-92.82877, 33.58638], [-92.82971, 33.58607], [-92.829877, 33.586009], [-92.830382, 33.585829], [-92.83055, 33.58577], [-92.830716, 33.585708], [-92.831214, 33.585522], [-92.83138, 33.58546], [-92.831612, 33.58538], [-92.83183, 33.5858]]]]}}, {"type": "Feature", "properties": {"area_id": 10342, "city": "Camden", "state": "AR", "city_survey": false, "cat": "Business District", "grade": "", "label": "Business District", "res": false, "com": true, "ind": false, "fill": "#5D7397", "GEOID10": "05103950600", "GISJOIN": "G0501030950600", "calc_area": 74592.92867, "pct_tract": 0.00206}, "geometry": {"type": "MultiPolygon", "coordinates": [[[[-92.82699, 33.58697], [-92.82677, 33.58602], [-92.82787, 33.58484], [-92.83053, 33.58395], [-92.83118, 33.58512], [-92.83143, 33.58503], [-92.831612, 33.58538], [-92.83138, 33.58546], [-92.831214, 33.585522], [-92.830716, 33.585708], [-92.83055, 33.58577], [-92.830382, 33.585829], [-92.829877, 33.586009], [-92.82971, 33.58607], [-92.82877, 33.58638], [-92.82738, 33.58686], [-92.8271, 33.58695], [-92.827011, 33.586981], [-92.826985, 33.58699], [-92.82699, 33.58697]]]]}}, {"type": "Feature", "properties": {"area_id": 10343, "city": "Camden", "state": "AR", "city_survey": false, "cat": "Best Residential", "grade": "", "label": "Best Residential", "res": true, "com": false, "ind": false, "fill": "#739380", "GEOID10": "05103950400", "GISJOIN": "G0501030950400", "calc_area": 648710.22907, "pct_tract": 0.0709}, "geometry": {"type": "MultiPolygon", "coordinates": [[[[-92.8468, 33.58476], [-92.84449, 33.58472], [-92.84439, 33.5905], [-92.84317, 33.59052], [-92.84215, 33.59208], [-92.83589, 33.5921], [-92.83372, 33.58786], [-92.83516, 33.58717], [-92.84159, 33.58723], [-92.84237, 33.58671], [-92.84244, 33.58642], [-92.83793, 33.58626], [-92.83796, 33.58557], [-92.83438, 33.58561], [-92.83296, 33.58563], [-92.83287, 33.58539], [-92.83228, 33.58562], [-92.832093, 33.585214], [-92.832308, 33.58514], [-92.83254, 33.58506], [-92.832889, 33.584934], [-92.83293, 33.58492], [-92.833949, 33.584586], [-92.83397, 33.58458], [-92.83402, 33.58455], [-92.83429, 33.58444], [-92.834304, 33.584526], [-92.83433, 33.58468], [-92.834351, 33.584784], [-92.83437, 33.58487], [-92.83456, 33.58486], [-92.83587, 33.58476], [-92.83625, 33.58474], [-92.83788, 33.58463], [-92.837979, 33.584631], [-92.83798, 33.58463], [-92.8391, 33.58459], [-92.840202, 33.584554], [-92.84158, 33.58451], [-92.8432, 33.58453], [-92.84331, 33.58454], [-92.84455, 33.58461], [-92.845259, 33.584637], [-92.845275, 33.584637], [-92.845323, 33.584639], [-92.84534, 33.58464], [-92.845654, 33.584654], [-92.846596, 33.584697], [-92.846802, 33.584707], [-92.8468, 33.58476]]]]}}, {"type": "Feature", "properties": {"area_id": 10343, "city": "Camden", "state": "AR", "city_survey": false, "cat": "Best Residential", "grade": "", "label": "Best Residential", "res": true, "com": false, "ind": false, "fill": "#739380", "GEOID10": "05103950600", "GISJOIN": "G0501030950600", "calc_area": 303096.62621, "pct_tract": 0.00835}, "geometry": {"type": "MultiPolygon", "coordinates": [[[[-92.83193, 33.58486], [-92.83414, 33.58411], [-92.83617, 33.58402], [-92.84242, 33.58395], [-92.8425, 33.58226], [-92.84289, 33.58196], [-92.84418, 33.57975], [-92.84492, 33.57862], [-92.84739, 33.57865], [-92.84741, 33.58011], [-92.84722, 33.582], [-92.84687, 33.58291], [-92.846802, 33.584707], [-92.846596, 33.584697], [-92.845654, 33.584654], [-92.84534, 33.58464], [-92.845323, 33.584639], [-92.845275, 33.584637], [-92.845259, 33.584637], [-92.84455, 33.58461], [-92.84331, 33.58454], [-92.8432, 33.58453], [-92.84158, 33.58451], [-92.840202, 33.584554], [-92.8391, 33.58459], [-92.83798, 33.58463], [-92.837979, 33.584631], [-92.83788, 33.58463], [-92.83625, 33.58474], [-92.83587, 33.58476], [-92.83456, 33.58486], [-92.83437, 33.58487], [-92.834351, 33.584784], [-92.83433, 33.58468], [-92.834304, 33.584526], [-92.83429, 33.58444], [-92.83402, 33.58455], [-92.83397, 33.58458], [-92.833949, 33.584586], [-92.83293, 33.58492], [-92.832889, 33.584934], [-92.83254, 33.58506], [-92.832308, 33.58514], [-92.832093, 33.585214], [-92.83193, 33.58486]]]]}}, {"type": "Feature", "properties": {"area_id": 10344, "city": "Camden", "state": "AR", "city_survey": false, "cat": "Industrial", "grade": "", "label": "Industrial", "res": false, "com": false, "ind": true, "fill": "#444444", "GEOID10": "05103950600", "GISJOIN": "G0501030950600", "calc_area": 206676.58185, "pct_tract": 0.0057}, "geometry": {"type": "MultiPolygon", "coordinates": [[[[-92.83212, 33.58017], [-92.83182, 33.58127], [-92.83165, 33.58283], [-92.83024, 33.58343], [-92.83053, 33.58395], [-92.82787, 33.58484], [-92.82693, 33.58195], [-92.82511, 33.57996], [-92.83212, 33.58017]]]]}}]}