{"type": "FeatureCollection", "features": [{"type": "Feature", "geometry": {"type": "Point", "coordinates": [-96.914295, 32.934031]}, "properties": {"facility_name": "SOUTHWEST SANITARY DISTRIBUTING CO INC", "industry": null, "tri_facility_id": "75006STHWS2151H"}}, {"type": "Feature", "geometry": {"type": "Point", "coordinates": [-96.681944, 32.907778]}, "properties": {"facility_name": "AMPCO METAL INC, AMPCO DALLAS", "industry": null, "tri_facility_id": "75040MPCMT630SO"}}, {"type": "Feature", "geometry": {"type": "Point", "coordinates": [-96.675, 32.879167]}, "properties": {"facility_name": "SCHOLLE CORP", "industry": null, "tri_facility_id": "75040SCHLL3001K"}}, {"type": "Feature", "geometry": {"type": "Point", "coordinates": [-96.665088, 32.921016]}, "properties": {"facility_name": "MICRO QUALITY SEMICONDUCTOR INC", "industry": null, "tri_facility_id": "75040VRQLT1000N"}}, {"type": "Feature", "geometry": {"type": "Point", "coordinates": [-96.67972222222222, 32.886944444444445]}, "properties": {"facility_name": "A BRITE CO", "industry": null, "tri_facility_id": "75041BRTCX3217W"}}, {"type": "Feature", "geometry": {"type": "Point", "coordinates": [-96.672222, 32.889444]}, "properties": {"facility_name": "IFS INDUSTRIES INC", "industry": null, "tri_facility_id": "75041BTZLB2222L"}}, {"type": "Feature", "geometry": {"type": "Point", "coordinates": [-96.671111, 32.889444]}, "properties": {"facility_name": "ECOLAB INC.", "industry": null, "tri_facility_id": "75041CLBNC2305S"}}, {"type": "Feature", "geometry": {"type": "Point", "coordinates": [-96.68138888888889, 32.88777777777778]}, "properties": {"facility_name": "CIMCON FINISHING LP", "industry": null, "tri_facility_id": "75041CMCNN2406E"}}, {"type": "Feature", "geometry": {"type": "Point", "coordinates": [-96.660278, 32.874722]}, "properties": {"facility_name": "CARROLLCLEAN LLC", "industry": null, "tri_facility_id": "75041CRRLL2900W"}}, {"type": "Feature", "geometry": {"type": "Point", "coordinates": [-96.677222, 32.878889]}, "properties": {"facility_name": "DECKER FOOD CO", "industry": null, "tri_facility_id": "75041DCKRF3200W"}}, {"type": "Feature", "geometry": {"type": "Point", "coordinates": [-96.67750000000001, 32.88]}, "properties": {"facility_name": "FLEXTRONICS", "industry": null, "tri_facility_id": "75041FLXTR3233W"}}, {"type": "Feature", "geometry": {"type": "Point", "coordinates": [-96.670278, 32.875278]}, "properties": {"facility_name": "AMERICA'S BEVERAGE CO", "industry": null, "tri_facility_id": "75041GRLND2750O"}}, {"type": "Feature", "geometry": {"type": "Point", "coordinates": [-96.675, 32.895833]}, "properties": {"facility_name": "CASCADE DIE CASTING SOUTHWEST", "industry": null, "tri_facility_id": "75041JDCST2713I"}}, {"type": "Feature", "geometry": {"type": "Point", "coordinates": [-96.65944444444445, 32.874722222222225]}, "properties": {"facility_name": "MAPEI CORP", "industry": null, "tri_facility_id": "75041MPCRP151WA"}}, {"type": "Feature", "geometry": {"type": "Point", "coordinates": [-96.672778, 32.891667]}, "properties": {"facility_name": "ONA POLYMERS LLC", "industry": null, "tri_facility_id": "75041NNCRB2326L"}}, {"type": "Feature", "geometry": {"type": "Point", "coordinates": [-96.681389, 32.8925]}, "properties": {"facility_name": "INFRARED PRODUCTS-L-3", "industry": null, "tri_facility_id": "75041NTCDV3414H"}}, {"type": "Feature", "geometry": {"type": "Point", "coordinates": [-96.6625, 32.875]}, "properties": {"facility_name": "PECORA CORP", "industry": null, "tri_facility_id": "75041PCRCR2601O"}}, {"type": "Feature", "geometry": {"type": "Point", "coordinates": [-96.67500000000001, 32.8875]}, "properties": {"facility_name": "NEXEO SOLUTIONS LLC", "industry": null, "tri_facility_id": "75041SHLND3101W"}}, {"type": "Feature", "geometry": {"type": "Point", "coordinates": [-96.6893, 32.9035]}, "properties": {"facility_name": "SHERWIN-WILLIAMS CO", "industry": null, "tri_facility_id": "75041SHRWN2802W"}}, {"type": "Feature", "geometry": {"type": "Point", "coordinates": [-96.675556, 32.885]}, "properties": {"facility_name": "AMERICAN SILICON PRODS", "industry": null, "tri_facility_id": "75041SLCNM2613I"}}, {"type": "Feature", "geometry": {"type": "Point", "coordinates": [-96.669444, 32.880556]}, "properties": {"facility_name": "PRECISION SOLAR CONTROLS INC", "industry": null, "tri_facility_id": "75041SLCNM2985M"}}, {"type": "Feature", "geometry": {"type": "Point", "coordinates": [-96.679, 32.8787]}, "properties": {"facility_name": "TELSCO INDUSTRIES INC.", "industry": null, "tri_facility_id": "75041TLSCN3301W"}}, {"type": "Feature", "geometry": {"type": "Point", "coordinates": [-96.6675, 32.88055555555555]}, "properties": {"facility_name": "TEXAS CIRCUITRY INC", "industry": null, "tri_facility_id": "75041TXSCR2960M"}}, {"type": "Feature", "geometry": {"type": "Point", "coordinates": [-96.671667, 32.885]}, "properties": {"facility_name": "VADCO MARBLE OF DALLAS INC", "industry": null, "tri_facility_id": "75041VDCMR2525N"}}, {"type": "Feature", "geometry": {"type": "Point", "coordinates": [-96.685056, 32.9017]}, "properties": {"facility_name": "VARO INC ESD-KINGSLEY", "industry": null, "tri_facility_id": "75041VRNCX2800W"}}, {"type": "Feature", "geometry": {"type": "Point", "coordinates": [-96.657333, 32.9109]}, "properties": {"facility_name": "DALLAS PRECIOUS METAL PLATING", "industry": null, "tri_facility_id": "75042DLLSP1918P"}}, {"type": "Feature", "geometry": {"type": "Point", "coordinates": [-96.666111, 32.906111]}, "properties": {"facility_name": "SHERWIN-WILLIAMS CO", "industry": null, "tri_facility_id": "75042DSTNC701SH"}}, {"type": "Feature", "geometry": {"type": "Point", "coordinates": [-96.68555555555555, 32.9075]}, "properties": {"facility_name": "GARLAND MARBLE CO", "industry": null, "tri_facility_id": "75042GRLND3606A"}}, {"type": "Feature", "geometry": {"type": "Point", "coordinates": [-96.67305555555556, 32.91361111111111]}, "properties": {"facility_name": "JUMPKING TRAMPOLINES INC", "industry": null, "tri_facility_id": "75042JMPKN2912E"}}, {"type": "Feature", "geometry": {"type": "Point", "coordinates": [-96.6625, 32.908333]}, "properties": {"facility_name": "THE KRAFT HEINZ CO", "industry": null, "tri_facility_id": "75042KRFTN2340F"}}, {"type": "Feature", "geometry": {"type": "Point", "coordinates": [-96.696667, 32.904167]}, "properties": {"facility_name": "ALLAN PRODUCTS INC", "industry": null, "tri_facility_id": "75042LLNPR825SH"}}, {"type": "Feature", "geometry": {"type": "Point", "coordinates": [-96.6625, 32.913889]}, "properties": {"facility_name": "CONTINENTAL EMSCO PLANT 1", "industry": null, "tri_facility_id": "75042LTVNR2441F"}}, {"type": "Feature", "geometry": {"type": "Point", "coordinates": [-96.6625, 32.913889]}, "properties": {"facility_name": "CONTINENTAL EMSCO PLANT 2", "industry": null, "tri_facility_id": "75042LTVNR2735F"}}, {"type": "Feature", "geometry": {"type": "Point", "coordinates": [-96.6744, 32.9137]}, "properties": {"facility_name": "MICRON INDUSTRIES INC", "industry": null, "tri_facility_id": "75042MCRNN3057F"}}, {"type": "Feature", "geometry": {"type": "Point", "coordinates": [-96.685, 32.901666666666664]}, "properties": {"facility_name": "MICRON INDUSTRIES LLC", "industry": null, "tri_facility_id": "75042MCRNN369MA"}}, {"type": "Feature", "geometry": {"type": "Point", "coordinates": [-96.688626, 32.903623]}, "properties": {"facility_name": "HENRY CO", "industry": null, "tri_facility_id": "75042MNSYP3802M"}}, {"type": "Feature", "geometry": {"type": "Point", "coordinates": [-96.662222, 32.912778]}, "properties": {"facility_name": "MARMON MOTOR CO", "industry": null, "tri_facility_id": "75042MRMNMSHILO"}}, {"type": "Feature", "geometry": {"type": "Point", "coordinates": [-96.67472222222223, 32.913888888888884]}, "properties": {"facility_name": "MAXI SEAL HARNESS SYSTEMS", "industry": null, "tri_facility_id": "75042MXSLH11SJU"}}, {"type": "Feature", "geometry": {"type": "Point", "coordinates": [-96.6744, 32.9137]}, "properties": {"facility_name": "NUZINC INC", "industry": null, "tri_facility_id": "75042NZNCN3727M"}}, {"type": "Feature", "geometry": {"type": "Point", "coordinates": [-96.687778, 32.903611]}, "properties": {"facility_name": "ATOMIZED PRODUCTS GROUP INC.", "industry": null, "tri_facility_id": "75042QNLLN3838M"}}, {"type": "Feature", "geometry": {"type": "Point", "coordinates": [-96.685278, 32.904722]}, "properties": {"facility_name": "ARMSTRONG CONTAINERS INC", "industry": null, "tri_facility_id": "75042RMSTR3737M"}}, {"type": "Feature", "geometry": {"type": "Point", "coordinates": [-96.69083333333333, 32.90833333333333]}, "properties": {"facility_name": "SST TRUCK CO. LLC.", "industry": null, "tri_facility_id": "75042SSTTR4030F"}}, {"type": "Feature", "geometry": {"type": "Point", "coordinates": [-96.682222, 32.901389]}, "properties": {"facility_name": "E-SYSTEMS INC GARLAND DIV", "industry": null, "tri_facility_id": "75042SYSTM1200S"}}, {"type": "Feature", "geometry": {"type": "Point", "coordinates": [-96.674648, 32.911005]}, "properties": {"facility_name": "TEXAS PRECISION PLATING CO INC", "industry": null, "tri_facility_id": "75042TXSPR3002B"}}, {"type": "Feature", "geometry": {"type": "Point", "coordinates": [-96.695833, 32.904722]}, "properties": {"facility_name": "TEXAS OPTOELECTRONICS INC", "industry": null, "tri_facility_id": "75042TXSPT714SH"}}, {"type": "Feature", "geometry": {"type": "Point", "coordinates": [-96.667778, 32.903889]}, "properties": {"facility_name": "JOHNSON CONTROLS BATTERY GROUP, INC", "industry": null, "tri_facility_id": "75046JHNSN1111S"}}, {"type": "Feature", "geometry": {"type": "Point", "coordinates": [-96.659167, 32.9175]}, "properties": {"facility_name": "VARO INC OPTICAL SYSTEMS DIV", "industry": null, "tri_facility_id": "75046VRNCL2203W"}}, {"type": "Feature", "geometry": {"type": "Point", "coordinates": [-96.671667, 32.891111]}, "properties": {"facility_name": "PRAXAIR INC", "industry": null, "tri_facility_id": "75047NNCRB2225L"}}, {"type": "Feature", "geometry": {"type": "Point", "coordinates": [-96.85777777777777, 32.7425]}, "properties": {"facility_name": "PRATT & WHITNEY HAC", "industry": null, "tri_facility_id": "75051PRTTW537CA"}}, {"type": "Feature", "geometry": {"type": "Point", "coordinates": [-96.936667, 32.816389]}, "properties": {"facility_name": "AMERITEX CHEMICAL & COATINGS CO INC", "industry": null, "tri_facility_id": "75060KPPRS801LE"}}, {"type": "Feature", "geometry": {"type": "Point", "coordinates": [-96.934167, 32.814167]}, "properties": {"facility_name": "ITW POLYMERS SEALANTS NA", "industry": null, "tri_facility_id": "75060SCHNM111NN"}}, {"type": "Feature", "geometry": {"type": "Point", "coordinates": [-96.914379, 32.816442]}, "properties": {"facility_name": "BESTOLIFE CORP", "industry": null, "tri_facility_id": "75061BSTLF2222V"}}, {"type": "Feature", "geometry": {"type": "Point", "coordinates": [-96.918333, 32.822778]}, "properties": {"facility_name": "FRITO-LAY", "industry": null, "tri_facility_id": "75061FRTLY900NO"}}, {"type": "Feature", "geometry": {"type": "Point", "coordinates": [-96.9144, 32.8165]}, "properties": {"facility_name": "SHERMCO INDUSTRIES", "industry": null, "tri_facility_id": "75061GRNNL2425E"}}, {"type": "Feature", "geometry": {"type": "Point", "coordinates": [-96.8942, 32.8353]}, "properties": {"facility_name": "QUEMETCO METALS LTD INC", "industry": null, "tri_facility_id": "75061QMTCM2222V"}}, {"type": "Feature", "geometry": {"type": "Point", "coordinates": [-96.9375, 32.816111111111105]}, "properties": {"facility_name": "OWENS CORNING ROOFING & ASPHALT LLC IRVING", "industry": null, "tri_facility_id": "75061WNSCR201NN"}}, {"type": "Feature", "geometry": {"type": "Point", "coordinates": [-96.9303, 32.8436]}, "properties": {"facility_name": "NCH CORP MOHAWK LABS DIV", "industry": null, "tri_facility_id": "75062MHWKL2730C"}}, {"type": "Feature", "geometry": {"type": "Point", "coordinates": [-96.893828, 32.835301]}, "properties": {"facility_name": "IR TREADS INC DALLAS DIV", "industry": null, "tri_facility_id": "75062RTRDS3419R"}}, {"type": "Feature", "geometry": {"type": "Point", "coordinates": [-96.894111, 32.8353]}, "properties": {"facility_name": "FLINT INK CORP", "industry": null, "tri_facility_id": "75062SNCLR3413R"}}, {"type": "Feature", "geometry": {"type": "Point", "coordinates": [-96.928656, 32.836701]}, "properties": {"facility_name": "AMERICA'S BEVERAGE", "industry": null, "tri_facility_id": "75062THKRG1331E"}}, {"type": "Feature", "geometry": {"type": "Point", "coordinates": [-96.897577, 32.842114]}, "properties": {"facility_name": "FIRESTONE BUILDING PRODUCTS CO", "industry": null, "tri_facility_id": "75062THRML2100C"}}, {"type": "Feature", "geometry": {"type": "Point", "coordinates": [-96.9213888888889, 32.83861111111111]}, "properties": {"facility_name": "XETEL CORP", "industry": null, "tri_facility_id": "75062XTLCR2200C"}}, {"type": "Feature", "geometry": {"type": "Point", "coordinates": [-96.93416666666667, 32.83722222222222]}, "properties": {"facility_name": "EXXON MOBIL CORP IRVING TERMINAL", "industry": null, "tri_facility_id": "75062XXNCS1201E"}}, {"type": "Feature", "geometry": {"type": "Point", "coordinates": [-96.85, 32.6325]}, "properties": {"facility_name": "MCGRAW-HILL COMPANIES EDUCATIONAL & PROFESSIONAL", "industry": null, "tri_facility_id": "75115MCGRW220ED"}}, {"type": "Feature", "geometry": {"type": "Point", "coordinates": [-96.908333, 32.65]}, "properties": {"facility_name": "VICOM INC", "industry": null, "tri_facility_id": "75116VCMNC822DU"}}, {"type": "Feature", "geometry": {"type": "Point", "coordinates": [-96.824444, 32.629167]}, "properties": {"facility_name": "CONTINENTAL CABINETS MANUFACTU RING INC.", "industry": null, "tri_facility_id": "75134CNTNN3334N"}}, {"type": "Feature", "geometry": {"type": "Point", "coordinates": [-96.916944, 32.633611]}, "properties": {"facility_name": "STYLING TECHNOLOGIES CORP GENA LABORATORIES INC DIV", "industry": null, "tri_facility_id": "75137GNLBR1146S"}}, {"type": "Feature", "geometry": {"type": "Point", "coordinates": [-96.92083333333333, 32.64222222222222]}, "properties": {"facility_name": "PIONEER FROZEN FOODS", "industry": null, "tri_facility_id": "75137PNRFR627BI"}}, {"type": "Feature", "geometry": {"type": "Point", "coordinates": [-96.9225, 32.63916666666667]}, "properties": {"facility_name": "PRECISE CONNECTIONS INC", "industry": null, "tri_facility_id": "75137PRCSC1114E"}}, {"type": "Feature", "geometry": {"type": "Point", "coordinates": [-96.920905, 32.642001]}, "properties": {"facility_name": "DUNCANVILLE TX", "industry": null, "tri_facility_id": "75137QLTYC603BI"}}, {"type": "Feature", "geometry": {"type": "Point", "coordinates": [-96.7024, 32.636]}, "properties": {"facility_name": "CONSOLIDATED CASTING CORP", "industry": null, "tri_facility_id": "75141CNSLD1501S"}}, {"type": "Feature", "geometry": {"type": "Point", "coordinates": [-96.699167, 32.641111]}, "properties": {"facility_name": "GUARDSMAN PRODUCTS INC", "industry": null, "tri_facility_id": "75141GRDSM1834C"}}, {"type": "Feature", "geometry": {"type": "Point", "coordinates": [-96.699167, 32.641111]}, "properties": {"facility_name": "SNYDER GENERAL CORP", "industry": null, "tri_facility_id": "75141SNYDR302NI"}}, {"type": "Feature", "geometry": {"type": "Point", "coordinates": [-96.663409, 32.805756]}, "properties": {"facility_name": "PEPSI BOTTLING GROUP", "industry": null, "tri_facility_id": "75150PPSCL4532H"}}, {"type": "Feature", "geometry": {"type": "Point", "coordinates": [-96.805833, 32.785833]}, "properties": {"facility_name": "GRAPHIC ENGRAVING CO INC", "industry": null, "tri_facility_id": "75202GRPHC2001N"}}, {"type": "Feature", "geometry": {"type": "Point", "coordinates": [-96.77944444444444, 32.74333333333333]}, "properties": {"facility_name": "DAL-CHROME CO", "industry": null, "tri_facility_id": "75203DLCHR3044M"}}, {"type": "Feature", "geometry": {"type": "Point", "coordinates": [-96.801389, 32.751389]}, "properties": {"facility_name": "DELTA INDUSTRIES INC", "industry": null, "tri_facility_id": "75203DLTND1719E"}}, {"type": "Feature", "geometry": {"type": "Point", "coordinates": [-96.781389, 32.739722]}, "properties": {"facility_name": "DIXIE METALS CO", "industry": null, "tri_facility_id": "75203DXMTL3030M"}}, {"type": "Feature", "geometry": {"type": "Point", "coordinates": [-96.818889, 32.779722]}, "properties": {"facility_name": "OAK FARMS DAIRY", "industry": null, "tri_facility_id": "75203KFRMS1114N"}}, {"type": "Feature", "geometry": {"type": "Point", "coordinates": [-96.89527777777778, 32.89388888888889]}, "properties": {"facility_name": "LUXOTTICA OPTICAL MANUFACTURING N.A. DALLAS", "industry": null, "tri_facility_id": "75203LXTTC2465J"}}, {"type": "Feature", "geometry": {"type": "Point", "coordinates": [-96.80804, 32.744562]}, "properties": {"facility_name": "WESTROCK CONVERTING CO (DALLAS MILL)", "industry": null, "tri_facility_id": "75203RCKTN1100E"}}, {"type": "Feature", "geometry": {"type": "Point", "coordinates": [-96.815068, 32.748123]}, "properties": {"facility_name": "SCOTCH CORP", "industry": null, "tri_facility_id": "75203SCTCH617EA"}}, {"type": "Feature", "geometry": {"type": "Point", "coordinates": [-96.892778, 32.776111]}, "properties": {"facility_name": "HD SUPPLY CONSTRUCTION SUPPLY LTD. (TX139-6386)", "industry": null, "tri_facility_id": "75206GLTSC4900S"}}, {"type": "Feature", "geometry": {"type": "Point", "coordinates": [-96.79777777777778, 32.75944444444445]}, "properties": {"facility_name": "BUCKLEY OIL CO - DALLAS FACILITY", "industry": null, "tri_facility_id": "75207BCKLY1809R"}}, {"type": "Feature", "geometry": {"type": "Point", "coordinates": [-96.816667, 32.808333]}, "properties": {"facility_name": "CRODA INKS CORP", "industry": null, "tri_facility_id": "75207CRDNK327CO"}}, {"type": "Feature", "geometry": {"type": "Point", "coordinates": [-96.814722, 32.788889]}, "properties": {"facility_name": "PECK'S PRODUCTS CO", "industry": null, "tri_facility_id": "75207PCKSP1103S"}}, {"type": "Feature", "geometry": {"type": "Point", "coordinates": [-96.84777777777778, 32.80361111111111]}, "properties": {"facility_name": "AQUABLEND INC", "industry": null, "tri_facility_id": "75207QBLND4774A"}}, {"type": "Feature", "geometry": {"type": "Point", "coordinates": [-96.823611, 32.7875]}, "properties": {"facility_name": "SHEDD'S FOOD PRODUCTS INC", "industry": null, "tri_facility_id": "75207SHDDS1729I"}}, {"type": "Feature", "geometry": {"type": "Point", "coordinates": [-96.841626, 32.799543]}, "properties": {"facility_name": "STERLING ENGINEERED PRODUCTS INC", "industry": null, "tri_facility_id": "75207STRLN2555I"}}, {"type": "Feature", "geometry": {"type": "Point", "coordinates": [-96.823056, 32.778056]}, "properties": {"facility_name": "BLANKS COLOR IMAGING", "industry": null, "tri_facility_id": "75208BLNKS2343N"}}, {"type": "Feature", "geometry": {"type": "Point", "coordinates": [-96.850833, 32.773056]}, "properties": {"facility_name": "ECONOMY FORMS CORP", "industry": null, "tri_facility_id": "75208CNMYF1915W"}}, {"type": "Feature", "geometry": {"type": "Point", "coordinates": [-96.82527777777777, 32.771388888888886]}, "properties": {"facility_name": "DON'S BUILDING SUPPLY L.P.", "industry": null, "tri_facility_id": "75208DNSBL2327L"}}, {"type": "Feature", "geometry": {"type": "Point", "coordinates": [-96.832222, 32.7725]}, "properties": {"facility_name": "OAK CLIFF PLATING", "industry": null, "tri_facility_id": "75208KCLFF2330N"}}, {"type": "Feature", "geometry": {"type": "Point", "coordinates": [-96.75, 32.791666666666664]}, "properties": {"facility_name": "MICKEY TRUCK BODIES INC", "industry": null, "tri_facility_id": "75208MCKYT511WC"}}, {"type": "Feature", "geometry": {"type": "Point", "coordinates": [-96.824167, 32.771389]}, "properties": {"facility_name": "ATLAS MFG CO", "industry": null, "tri_facility_id": "75208TLSMN2321B"}}, {"type": "Feature", "geometry": {"type": "Point", "coordinates": [-96.831572, 32.836386]}, "properties": {"facility_name": "COCA-COLA DALLAS", "industry": null, "tri_facility_id": "75209CCCLS6445L"}}, {"type": "Feature", "geometry": {"type": "Point", "coordinates": [-96.841111, 32.848056]}, "properties": {"facility_name": "ASTRAEA AVIATION SVCS INC (DBA DALFORT AVIATION)", "industry": null, "tri_facility_id": "75209DLFRT7701L"}}, {"type": "Feature", "geometry": {"type": "Point", "coordinates": [-96.836111, 32.843333]}, "properties": {"facility_name": "ASSOCIATED AIR CENTER INC", "industry": null, "tri_facility_id": "75209SSCTD7201L"}}, {"type": "Feature", "geometry": {"type": "Point", "coordinates": [-96.834722, 32.840556]}, "properties": {"facility_name": "RAYTHEON CO LEMMON AVENUE", "industry": null, "tri_facility_id": "75209TXSNS6000L"}}, {"type": "Feature", "geometry": {"type": "Point", "coordinates": [-96.877778, 32.719444]}, "properties": {"facility_name": "HALLIBURTON ENERGY SERVICES INC", "industry": null, "tri_facility_id": "75211DRSSR3400W"}}, {"type": "Feature", "geometry": {"type": "Point", "coordinates": [-96.8825, 32.683056]}, "properties": {"facility_name": "BRAKE PARTS INC", "industry": null, "tri_facility_id": "75211FRCTN5108C"}}, {"type": "Feature", "geometry": {"type": "Point", "coordinates": [-96.9166, 32.7475]}, "properties": {"facility_name": "TRIUMPH AEROSTRUCTURES-VOUGHT INEGRATED PROGRAMS DIV", "industry": null, "tri_facility_id": "75211SNVLW9314W"}}, {"type": "Feature", "geometry": {"type": "Point", "coordinates": [-96.885448, 32.720125]}, "properties": {"facility_name": "STANDARD MFG CO INC", "industry": null, "tri_facility_id": "75211STNDR4012W"}}, {"type": "Feature", "geometry": {"type": "Point", "coordinates": [-96.93611111111112, 32.72527777777778]}, "properties": {"facility_name": "EXELON CORP MOUNTAIN CREEK STEAM ELECTRIC STATION", "industry": null, "tri_facility_id": "75211XLNCR2233A"}}, {"type": "Feature", "geometry": {"type": "Point", "coordinates": [-96.89611111111111, 32.775555555555556]}, "properties": {"facility_name": "CHEMCENTRAL DALLAS", "industry": null, "tri_facility_id": "75212CHMCN2500V"}}, {"type": "Feature", "geometry": {"type": "Point", "coordinates": [-96.9, 32.775]}, "properties": {"facility_name": "CMC STEEL FABRICATORS INC. DBA CMC REBAR", "industry": null, "tri_facility_id": "75212CMTST4846S"}}, {"type": "Feature", "geometry": {"type": "Point", "coordinates": [-96.89611111111111, 32.774166666666666]}, "properties": {"facility_name": "SEEGOTT INC CRON", "industry": null, "tri_facility_id": "75212CRNCH2400V"}}, {"type": "Feature", "geometry": {"type": "Point", "coordinates": [-96.922778, 32.778333]}, "properties": {"facility_name": "DALLAS WOODCRAFT CO LP", "industry": null, "tri_facility_id": "75212DLLSW2829S"}}, {"type": "Feature", "geometry": {"type": "Point", "coordinates": [-96.90305555555557, 32.77611111111111]}, "properties": {"facility_name": "HARCROS CHEMICALS INC", "industry": null, "tri_facility_id": "75212HRCRS2627W"}}, {"type": "Feature", "geometry": {"type": "Point", "coordinates": [-96.89194444444445, 32.77777777777778]}, "properties": {"facility_name": "TERIS LLC (DBA HEAT TREATMENT SERVICES)", "industry": null, "tri_facility_id": "75212HTNRG4460S"}}, {"type": "Feature", "geometry": {"type": "Point", "coordinates": [-96.8735, 32.777]}, "properties": {"facility_name": "ENGINEERED POLYMER SOLUTIONS INC (DBA VALSPAR COATINGS)", "industry": null, "tri_facility_id": "75212LLLYN2518C"}}, {"type": "Feature", "geometry": {"type": "Point", "coordinates": [-96.885, 32.770278]}, "properties": {"facility_name": "KELVION PRODUCTS INC. - DALLAS", "industry": null, "tri_facility_id": "75212MDNST4020L"}}, {"type": "Feature", "geometry": {"type": "Point", "coordinates": [-96.875, 32.78]}, "properties": {"facility_name": "MURMUR CORP", "industry": null, "tri_facility_id": "75212MRMRC2823N"}}, {"type": "Feature", "geometry": {"type": "Point", "coordinates": [-96.88416666666667, 32.77444444444444]}, "properties": {"facility_name": "GLOBAL DALLAS TERMINAL", "industry": null, "tri_facility_id": "75212MTVNT3900S"}}, {"type": "Feature", "geometry": {"type": "Point", "coordinates": [-96.838585, 32.777901]}, "properties": {"facility_name": "QDT LTD", "industry": null, "tri_facility_id": "75212QDTLT1000S"}}, {"type": "Feature", "geometry": {"type": "Point", "coordinates": [-96.8779, 32.7816]}, "properties": {"facility_name": "QUALITY SAUSAGE CO", "industry": null, "tri_facility_id": "75212QLTYS1925L"}}, {"type": "Feature", "geometry": {"type": "Point", "coordinates": [-96.884167, 32.771667]}, "properties": {"facility_name": "ROACH PAINT CO INC", "industry": null, "tri_facility_id": "75212RCHPN2121F"}}, {"type": "Feature", "geometry": {"type": "Point", "coordinates": [-96.882778, 32.769722]}, "properties": {"facility_name": "THERMO-SERV INC", "industry": null, "tri_facility_id": "75212THRMS3901P"}}, {"type": "Feature", "geometry": {"type": "Point", "coordinates": [-96.835601, 32.777404]}, "properties": {"facility_name": "TRINITY BRASS COPPER CO INC", "industry": null, "tri_facility_id": "75212TRNTY2920S"}}, {"type": "Feature", "geometry": {"type": "Point", "coordinates": [-96.779722, 32.7575]}, "properties": {"facility_name": "BWAY CORP", "industry": null, "tri_facility_id": "75215BRCKW3301S"}}, {"type": "Feature", "geometry": {"type": "Point", "coordinates": [-96.759177, 32.743354]}, "properties": {"facility_name": "HILAND DAIRY FOODS LLC", "industry": null, "tri_facility_id": "75215BRDNN5327S"}}, {"type": "Feature", "geometry": {"type": "Point", "coordinates": [-96.778582, 32.754205]}, "properties": {"facility_name": "OCCIDENTAL CHEMICAL CORP", "industry": null, "tri_facility_id": "75215CCDNT1100L"}}, {"type": "Feature", "geometry": {"type": "Point", "coordinates": [-96.773339, 32.776318]}, "properties": {"facility_name": "MARTIN SPROCKET & GEAR INC", "industry": null, "tri_facility_id": "75215MRTNF2944O"}}, {"type": "Feature", "geometry": {"type": "Point", "coordinates": [-96.791667, 32.758333]}, "properties": {"facility_name": "UNION CARBIDE CORP LINDE DIV", "industry": null, "tri_facility_id": "75215NNCRB1001F"}}, {"type": "Feature", "geometry": {"type": "Point", "coordinates": [-96.773056, 32.752778]}, "properties": {"facility_name": "PROCTER & GAMBLE MFG CO", "industry": null, "tri_facility_id": "75215PRCTR1301M"}}, {"type": "Feature", "geometry": {"type": "Point", "coordinates": [-96.786371, 32.769478]}, "properties": {"facility_name": "TEXAS NAMEPLATE CO INC", "industry": null, "tri_facility_id": "75215TXSNM1900S"}}, {"type": "Feature", "geometry": {"type": "Point", "coordinates": [-96.782222, 32.769167]}, "properties": {"facility_name": "SOUTHWESTERN GRAPHIC SYSTEMS INC", "industry": null, "tri_facility_id": "75215WLSNN1702S"}}, {"type": "Feature", "geometry": {"type": "Point", "coordinates": [-96.75277777777778, 32.713055555555556]}, "properties": {"facility_name": "TAMKO BUILDING PRODUCTS INC", "industry": null, "tri_facility_id": "75216TMKRF7910C"}}, {"type": "Feature", "geometry": {"type": "Point", "coordinates": [-96.780278, 32.7425]}, "properties": {"facility_name": "DARLING INTERNATIONAL INC", "industry": null, "tri_facility_id": "75216VLCRN1240S"}}, {"type": "Feature", "geometry": {"type": "Point", "coordinates": [-96.687222, 32.716667]}, "properties": {"facility_name": "DAL-TILE CORP DALLAS MANUFACTURING", "industry": null, "tri_facility_id": "75217DLTLC7834H"}}, {"type": "Feature", "geometry": {"type": "Point", "coordinates": [-96.679167, 32.720833]}, "properties": {"facility_name": "DURO METAL MANUFACTURING", "industry": null, "tri_facility_id": "75217DRMTL410HI"}}, {"type": "Feature", "geometry": {"type": "Point", "coordinates": [-96.690278, 32.702778]}, "properties": {"facility_name": "MASTER HALCO INC", "industry": null, "tri_facility_id": "75217MSTRH8008C"}}, {"type": "Feature", "geometry": {"type": "Point", "coordinates": [-96.818554, 32.802016]}, "properties": {"facility_name": "JOHNSTON PRINTING CO", "industry": null, "tri_facility_id": "75219JHNST3910H"}}, {"type": "Feature", "geometry": {"type": "Point", "coordinates": [-96.889344, 32.875201]}, "properties": {"facility_name": "CRAIN CHEMICAL CO INC", "industry": null, "tri_facility_id": "75220CRNCH2630A"}}, {"type": "Feature", "geometry": {"type": "Point", "coordinates": [-96.879401, 32.870839]}, "properties": {"facility_name": "FUTURE FOAM INC", "industry": null, "tri_facility_id": "75220GNRLF10726"}}, {"type": "Feature", "geometry": {"type": "Point", "coordinates": [-96.876667, 32.8675]}, "properties": {"facility_name": "BODYCOTE HINDERLITER SOUTHWEST INC", "industry": null, "tri_facility_id": "75220HNDRL10530"}}, {"type": "Feature", "geometry": {"type": "Point", "coordinates": [-96.885833, 32.873333]}, "properties": {"facility_name": "CENTURY PRODS INC", "industry": null, "tri_facility_id": "75220MCCRM2643B"}}, {"type": "Feature", "geometry": {"type": "Point", "coordinates": [-96.87944444444443, 32.87111111111111]}, "properties": {"facility_name": "EMF CO INC", "industry": null, "tri_facility_id": "75220MFCNC10725"}}, {"type": "Feature", "geometry": {"type": "Point", "coordinates": [-96.89027777777778, 32.91111111111111]}, "properties": {"facility_name": "AMERICAN PCB CO", "industry": null, "tri_facility_id": "75220MRCNP10859"}}, {"type": "Feature", "geometry": {"type": "Point", "coordinates": [-96.87805555555555, 32.87777777777778]}, "properties": {"facility_name": "M&S SYSTEMS LP A DELAWARE LP", "industry": null, "tri_facility_id": "75220MSSYS2861C"}}, {"type": "Feature", "geometry": {"type": "Point", "coordinates": [-96.888611, 32.872222]}, "properties": {"facility_name": "POLY-FLEX", "industry": null, "tri_facility_id": "75220PLYFL2607B"}}, {"type": "Feature", "geometry": {"type": "Point", "coordinates": [-96.88305555555554, 32.87]}, "properties": {"facility_name": "R & L PLATING CO", "industry": null, "tri_facility_id": "75220RLPLT10535"}}, {"type": "Feature", "geometry": {"type": "Point", "coordinates": [-96.85, 32.85]}, "properties": {"facility_name": "ROYAL CHEMICAL CO", "industry": null, "tri_facility_id": "75220RYLCH2851R"}}, {"type": "Feature", "geometry": {"type": "Point", "coordinates": [-96.85, 32.85]}, "properties": {"facility_name": "ROYAL CHEMICAL CO", "industry": null, "tri_facility_id": "75220RYLCH2929S"}}, {"type": "Feature", "geometry": {"type": "Point", "coordinates": [-96.886111, 32.877222]}, "properties": {"facility_name": "SAMUEL BINGHAM CO", "industry": null, "tri_facility_id": "75220SMLBN2656P"}}, {"type": "Feature", "geometry": {"type": "Point", "coordinates": [-96.87638888888888, 32.862500000000004]}, "properties": {"facility_name": "SUNBELT CHEMICALS CORP", "industry": null, "tri_facility_id": "75220SNBLT2929S"}}, {"type": "Feature", "geometry": {"type": "Point", "coordinates": [-96.915278, 32.874444]}, "properties": {"facility_name": "TECHNICAL CHEMICAL CO", "industry": null, "tri_facility_id": "75220TCHNC10737"}}, {"type": "Feature", "geometry": {"type": "Point", "coordinates": [-96.875915, 32.861174]}, "properties": {"facility_name": "PETRA CHEMICAL CO-DALLAS PLANT", "industry": null, "tri_facility_id": "75220THDLC2929S"}}, {"type": "Feature", "geometry": {"type": "Point", "coordinates": [-96.883017, 32.872797]}, "properties": {"facility_name": "WESTVACO CORP, ENVELOPE DIV", "industry": null, "tri_facility_id": "75220WSTVC10700"}}, {"type": "Feature", "geometry": {"type": "Point", "coordinates": [-96.7699, 32.8312]}, "properties": {"facility_name": "COCA-COLA BOTTLING CO OF N TEXAS", "industry": null, "tri_facility_id": "75221CCCLB6011L"}}, {"type": "Feature", "geometry": {"type": "Point", "coordinates": [-96.781111, 32.755278]}, "properties": {"facility_name": "DRESSER INDUSTRIES  INC GUIBERSON DIV", "industry": null, "tri_facility_id": "75221DRSSR1000F"}}, {"type": "Feature", "geometry": {"type": "Point", "coordinates": [-96.742222, 32.697222]}, "properties": {"facility_name": "DIVERSEY CORP", "industry": null, "tri_facility_id": "75222DBSCH8770S"}}, {"type": "Feature", "geometry": {"type": "Point", "coordinates": [-96.758889, 32.801667]}, "properties": {"facility_name": "BUELL DOOR CO", "industry": null, "tri_facility_id": "75223BLLDR1420S"}}, {"type": "Feature", "geometry": {"type": "Point", "coordinates": [-96.758333, 32.783333]}, "properties": {"facility_name": "SOUTHERN FOODS GROUP, LLC D/B/A SCHEPPS DAIRY", "industry": null, "tri_facility_id": "75223SCHPP3114S"}}, {"type": "Feature", "geometry": {"type": "Point", "coordinates": [-96.873889, 32.717778]}, "properties": {"facility_name": "AC MOLDING COMPOUNDS", "industry": null, "tri_facility_id": "75224PLSTC2700S"}}, {"type": "Feature", "geometry": {"type": "Point", "coordinates": [-96.758889, 32.801667]}, "properties": {"facility_name": "BUELL DOOR CO", "industry": null, "tri_facility_id": "75226BLLDR4001E"}}, {"type": "Feature", "geometry": {"type": "Point", "coordinates": [-96.769315, 32.783804]}, "properties": {"facility_name": "CABELL'S DAIRY INC", "industry": null, "tri_facility_id": "75226CBLLS4017C"}}, {"type": "Feature", "geometry": {"type": "Point", "coordinates": [-96.764167, 32.765]}, "properties": {"facility_name": "PILGRIM'S PRIDE CORP DALLAS PROCESSING PLANT", "industry": null, "tri_facility_id": "75226PLGRM2411F"}}, {"type": "Feature", "geometry": {"type": "Point", "coordinates": [-96.7763, 32.7824]}, "properties": {"facility_name": "SPARKLETTS DRINKING WATER CORP", "industry": null, "tri_facility_id": "75226SPRKL1801S"}}, {"type": "Feature", "geometry": {"type": "Point", "coordinates": [-96.679722, 32.781389]}, "properties": {"facility_name": "COCA-COLA BOTTLING CO OF NORTH TEXAS", "industry": null, "tri_facility_id": "75227CCCLB8161M"}}, {"type": "Feature", "geometry": {"type": "Point", "coordinates": [-96.67777777777778, 32.780277777777776]}, "properties": {"facility_name": "FIRST CO", "industry": null, "tri_facility_id": "75227FRSTP8273M"}}, {"type": "Feature", "geometry": {"type": "Point", "coordinates": [-96.6763888888889, 32.77444444444444]}, "properties": {"facility_name": "MASTER-HALCO", "industry": null, "tri_facility_id": "75227MSTRH8431H"}}, {"type": "Feature", "geometry": {"type": "Point", "coordinates": [-96.679167, 32.776389]}, "properties": {"facility_name": "ATLAS ARCHITECTURAL METALS INC", "industry": null, "tri_facility_id": "75227TLSRC8240L"}}, {"type": "Feature", "geometry": {"type": "Point", "coordinates": [-96.66611111111112, 32.85583333333334]}, "properties": {"facility_name": "OCEANIC SYSTEMS INC", "industry": null, "tri_facility_id": "75228CNCSY11839"}}, {"type": "Feature", "geometry": {"type": "Point", "coordinates": [-96.66611111111112, 32.85583333333334]}, "properties": {"facility_name": "OCEANIC SYSTEMS INC", "industry": null, "tri_facility_id": "75228CNCSY1199S"}}, {"type": "Feature", "geometry": {"type": "Point", "coordinates": [-96.660739, 32.860437]}, "properties": {"facility_name": "HOOVER SYSTEMS INC", "industry": null, "tri_facility_id": "75228CSTCL12118"}}, {"type": "Feature", "geometry": {"type": "Point", "coordinates": [-96.660278, 32.858056]}, "properties": {"facility_name": "SUN CHEMICAL CORP US INK DIV", "industry": null, "tri_facility_id": "75228NTDST12010"}}, {"type": "Feature", "geometry": {"type": "Point", "coordinates": [-96.66575, 32.858]}, "properties": {"facility_name": "ENVIRONMENTAL INKS & COATINGS", "industry": null, "tri_facility_id": "75228NVRNM11910"}}, {"type": "Feature", "geometry": {"type": "Point", "coordinates": [-96.674249, 32.855487]}, "properties": {"facility_name": "PLASTICAN INC A DIV OF BWAY CORP", "industry": null, "tri_facility_id": "75228PLSTC2651S"}}, {"type": "Feature", "geometry": {"type": "Point", "coordinates": [-96.88944444444445, 32.8925]}, "properties": {"facility_name": "CUSTOM CRETE - JOE FIELD", "industry": null, "tri_facility_id": "75229CCMFG2624J"}}, {"type": "Feature", "geometry": {"type": "Point", "coordinates": [-96.908333, 32.883333]}, "properties": {"facility_name": "HENSLEY INDUSTRIES INC", "industry": null, "tri_facility_id": "75229GHHNS2108J"}}, {"type": "Feature", "geometry": {"type": "Point", "coordinates": [-96.897222, 32.902778]}, "properties": {"facility_name": "MULTI-PLATE CIRCUITS INC.", "industry": null, "tri_facility_id": "75229MLTPL2362L"}}, {"type": "Feature", "geometry": {"type": "Point", "coordinates": [-96.895501, 32.901644]}, "properties": {"facility_name": "UNITED ELCHEM INDUSTRIES INC", "industry": null, "tri_facility_id": "75229NTDLC11535"}}, {"type": "Feature", "geometry": {"type": "Point", "coordinates": [-96.8888888888889, 32.907222222222224]}, "properties": {"facility_name": "ROBINSON-NUGENT INC", "industry": null, "tri_facility_id": "75229RBNSN2640T"}}, {"type": "Feature", "geometry": {"type": "Point", "coordinates": [-96.897222, 32.841667]}, "properties": {"facility_name": "USSERY PRINTING CO INC", "industry": null, "tri_facility_id": "75229SSRYP3402C"}}, {"type": "Feature", "geometry": {"type": "Point", "coordinates": [-96.885, 32.900556]}, "properties": {"facility_name": "CONNECTOR SERVICE CORP", "industry": null, "tri_facility_id": "75229VRLND2731S"}}, {"type": "Feature", "geometry": {"type": "Point", "coordinates": [-96.87694444444443, 32.716944444444444]}, "properties": {"facility_name": "AIRGAS USA LLC", "industry": null, "tri_facility_id": "75233RGSST3415B"}}, {"type": "Feature", "geometry": {"type": "Point", "coordinates": [-96.866667, 32.716667]}, "properties": {"facility_name": "QUAKER OATS CO DALLAS PLANT", "industry": null, "tri_facility_id": "75233THQKR2822G"}}, {"type": "Feature", "geometry": {"type": "Point", "coordinates": [-96.86805555555554, 32.718333333333334]}, "properties": {"facility_name": "TEXAS FIBERS", "industry": null, "tri_facility_id": "75233TXSFB2929G"}}, {"type": "Feature", "geometry": {"type": "Point", "coordinates": [-96.884208, 32.831192]}, "properties": {"facility_name": "INX INTERNATIONAL INK CO", "industry": null, "tri_facility_id": "75234CMPRN1234R"}}, {"type": "Feature", "geometry": {"type": "Point", "coordinates": [-96.914167, 32.922222]}, "properties": {"facility_name": "EAGLE CREST FOODS INC", "industry": null, "tri_facility_id": "75234GLCRS1925V"}}, {"type": "Feature", "geometry": {"type": "Point", "coordinates": [-96.916111, 32.92]}, "properties": {"facility_name": "EXIDE CORP", "industry": null, "tri_facility_id": "75234GNBNC1880V"}}, {"type": "Feature", "geometry": {"type": "Point", "coordinates": [-96.931722, 32.9157]}, "properties": {"facility_name": "LASTING PRODUCTS INC", "industry": null, "tri_facility_id": "75234LSTNG2115W"}}, {"type": "Feature", "geometry": {"type": "Point", "coordinates": [-96.9025, 32.92833333333333]}, "properties": {"facility_name": "OMEGA LABORATORIES", "industry": null, "tri_facility_id": "75234MGLBR13515"}}, {"type": "Feature", "geometry": {"type": "Point", "coordinates": [-96.891667, 32.9125]}, "properties": {"facility_name": "NATIONAL BANNER CO INC", "industry": null, "tri_facility_id": "75234NTNLB11938"}}, {"type": "Feature", "geometry": {"type": "Point", "coordinates": [-96.905278, 32.9175]}, "properties": {"facility_name": "STANLEY BLACK & DECKER", "industry": null, "tri_facility_id": "75234NTNLH12827"}}, {"type": "Feature", "geometry": {"type": "Point", "coordinates": [-96.8981, 32.9281]}, "properties": {"facility_name": "SUPERIOR PRODS CO", "industry": null, "tri_facility_id": "75234SPRRP13525"}}, {"type": "Feature", "geometry": {"type": "Point", "coordinates": [-96.94194444444445, 32.92972222222222]}, "properties": {"facility_name": "THERMALLOY INC", "industry": null, "tri_facility_id": "75234THRML2021W"}}, {"type": "Feature", "geometry": {"type": "Point", "coordinates": [-96.8925, 32.915278]}, "properties": {"facility_name": "WELLMARK INTERNATIONAL (DBA CENTRAL LIFE SCIENCES)", "industry": null, "tri_facility_id": "75234ZCNCR12200"}}, {"type": "Feature", "geometry": {"type": "Point", "coordinates": [-96.835556, 32.826667]}, "properties": {"facility_name": "B C WILLIAMS INDUSTRIES INC", "industry": null, "tri_facility_id": "75235BCWLL6000D"}}, {"type": "Feature", "geometry": {"type": "Point", "coordinates": [-96.8375, 32.819444]}, "properties": {"facility_name": "BORDEN INC SOUTHWEST SNACKS", "industry": null, "tri_facility_id": "75235BRDNN6333D"}}, {"type": "Feature", "geometry": {"type": "Point", "coordinates": [-96.84416666666667, 32.84111111111111]}, "properties": {"facility_name": "GULFSTREAM AEROSPACE SERVICES CORP.", "industry": null, "tri_facility_id": "75235GLFST744AV"}}, {"type": "Feature", "geometry": {"type": "Point", "coordinates": [-96.845556, 32.8325]}, "properties": {"facility_name": "JONES-BLAIR CO", "industry": null, "tri_facility_id": "75235JNSBL2728E"}}, {"type": "Feature", "geometry": {"type": "Point", "coordinates": [-96.844444, 32.840556]}, "properties": {"facility_name": "KC AVIATION INC", "industry": null, "tri_facility_id": "75235KCVTN7350C"}}, {"type": "Feature", "geometry": {"type": "Point", "coordinates": [-96.83055555555555, 32.816111111111105]}, "properties": {"facility_name": "LOFLAND DALLAS", "industry": null, "tri_facility_id": "75235LFLND5219M"}}, {"type": "Feature", "geometry": {"type": "Point", "coordinates": [-96.850048, 32.825823]}, "properties": {"facility_name": "OLIVER RUBBER CO", "industry": null, "tri_facility_id": "75235LNGML6820F"}}, {"type": "Feature", "geometry": {"type": "Point", "coordinates": [-96.8298, 32.7963]}, "properties": {"facility_name": "THERMAL SOLUTIONS MANUFACTURING INC", "industry": null, "tri_facility_id": "75235MNGMM5522M"}}, {"type": "Feature", "geometry": {"type": "Point", "coordinates": [-96.849722, 32.836389]}, "properties": {"facility_name": "MORRELL PLATING CO", "industry": null, "tri_facility_id": "75235MRRLL2712A"}}, {"type": "Feature", "geometry": {"type": "Point", "coordinates": [-96.831944, 32.811667]}, "properties": {"facility_name": "RED STAR YEAST", "industry": null, "tri_facility_id": "75235RDSTR2306A"}}, {"type": "Feature", "geometry": {"type": "Point", "coordinates": [-96.860833, 32.841667]}, "properties": {"facility_name": "US PLATING LP", "industry": null, "tri_facility_id": "75235SPLTN2501B"}}, {"type": "Feature", "geometry": {"type": "Point", "coordinates": [-96.86176, 32.821601]}, "properties": {"facility_name": "UTL CORP", "industry": null, "tri_facility_id": "75235TLCRP1508W"}}, {"type": "Feature", "geometry": {"type": "Point", "coordinates": [-96.829669, 32.81545]}, "properties": {"facility_name": "TRINITY INDUSTRIES INC PLANT  74", "industry": null, "tri_facility_id": "75235TRNTY5101M"}}, {"type": "Feature", "geometry": {"type": "Point", "coordinates": [-96.851167, 32.8187]}, "properties": {"facility_name": "TEER PLATING CO INC", "industry": null, "tri_facility_id": "75235TRPLT611WY"}}, {"type": "Feature", "geometry": {"type": "Point", "coordinates": [-96.860339, 32.821671]}, "properties": {"facility_name": "TAYLOR PUBLISHING CO", "industry": null, "tri_facility_id": "75235TYLRP1550W"}}, {"type": "Feature", "geometry": {"type": "Point", "coordinates": [-96.858333, 32.854167]}, "properties": {"facility_name": "GE ENGINE SERVICES-DALLAS LP", "industry": null, "tri_facility_id": "75235VLLXX3412P"}}, {"type": "Feature", "geometry": {"type": "Point", "coordinates": [-96.8375, 32.816667]}, "properties": {"facility_name": "DALLAS AIRMOTIVE INC.", "industry": null, "tri_facility_id": "75235VLLXX6114F"}}, {"type": "Feature", "geometry": {"type": "Point", "coordinates": [-96.86638888888888, 32.845]}, "properties": {"facility_name": "VAREL MANUFACTURING INTERNATIONAL", "industry": null, "tri_facility_id": "75235VRLMN9230D"}}, {"type": "Feature", "geometry": {"type": "Point", "coordinates": [-96.842944, 32.8311]}, "properties": {"facility_name": "WILLIAMSON PRINTING CORP", "industry": null, "tri_facility_id": "75235WLLMS6700D"}}, {"type": "Feature", "geometry": {"type": "Point", "coordinates": [-96.918445, 32.702384]}, "properties": {"facility_name": "DATA DOCUMENTS INC  DATA LABEL DIV", "industry": null, "tri_facility_id": "75236DTDCM3403D"}}, {"type": "Feature", "geometry": {"type": "Point", "coordinates": [-96.90111111111112, 32.69972222222222]}, "properties": {"facility_name": "FRITO-LAY INC", "industry": null, "tri_facility_id": "75236FRTLY3433M"}}, {"type": "Feature", "geometry": {"type": "Point", "coordinates": [-96.913333, 32.694722]}, "properties": {"facility_name": "GENERAL MAGNETIC CO", "industry": null, "tri_facility_id": "75236GNRLM5252I"}}, {"type": "Feature", "geometry": {"type": "Point", "coordinates": [-96.900556, 32.686667]}, "properties": {"facility_name": "IONICS AHLFINGER WATER CO", "industry": null, "tri_facility_id": "75236HLFNG4740B"}}, {"type": "Feature", "geometry": {"type": "Point", "coordinates": [-96.91805555555555, 32.69944444444444]}, "properties": {"facility_name": "UNIVAR USA INC DALLAS DAN MORTON FACILITY", "industry": null, "tri_facility_id": "75236HSTNS3636D"}}, {"type": "Feature", "geometry": {"type": "Point", "coordinates": [-96.9175, 32.705556]}, "properties": {"facility_name": "WHITEWAVE FOODS DALLAS", "industry": null, "tri_facility_id": "75236MRCNF3333D"}}, {"type": "Feature", "geometry": {"type": "Point", "coordinates": [-96.91555555555556, 32.6975]}, "properties": {"facility_name": "MISSION FOODS CORP", "industry": null, "tri_facility_id": "75236MSSNF4000D"}}, {"type": "Feature", "geometry": {"type": "Point", "coordinates": [-96.898611, 32.686944]}, "properties": {"facility_name": "TNPC DALLAS FACILITY", "industry": null, "tri_facility_id": "75236PRCCH4722B"}}, {"type": "Feature", "geometry": {"type": "Point", "coordinates": [-96.9, 32.6875]}, "properties": {"facility_name": "CARPENTER CO", "industry": null, "tri_facility_id": "75236RCRPN4443B"}}, {"type": "Feature", "geometry": {"type": "Point", "coordinates": [-96.908333, 32.6875]}, "properties": {"facility_name": "REDDY ICE-DALLAS (311)", "industry": null, "tri_facility_id": "75236RDDYC4320D"}}, {"type": "Feature", "geometry": {"type": "Point", "coordinates": [-96.894444, 32.7]}, "properties": {"facility_name": "ASSOCIATED SPRING", "industry": null, "tri_facility_id": "75236SSCTD3443M"}}, {"type": "Feature", "geometry": {"type": "Point", "coordinates": [-96.880556, 32.698333]}, "properties": {"facility_name": "DOLCO PACKAGING CORP", "industry": null, "tri_facility_id": "75237DLCPC4700S"}}, {"type": "Feature", "geometry": {"type": "Point", "coordinates": [-96.88583333333334, 32.68694444444444]}, "properties": {"facility_name": "FUJIKOKI AMERICA INC", "industry": null, "tri_facility_id": "75237FJKKM4040B"}}, {"type": "Feature", "geometry": {"type": "Point", "coordinates": [-96.88694444444445, 32.68444444444444]}, "properties": {"facility_name": "TYSON PREPARED FOODS DALLAS FACILITY", "industry": null, "tri_facility_id": "75237KPRRS4114M"}}, {"type": "Feature", "geometry": {"type": "Point", "coordinates": [-96.885556, 32.683056]}, "properties": {"facility_name": "H.B.FULLER", "industry": null, "tri_facility_id": "75237SWFTD4920G"}}, {"type": "Feature", "geometry": {"type": "Point", "coordinates": [-96.875556, 32.684167]}, "properties": {"facility_name": "VIRGINIA KMP CORP", "industry": null, "tri_facility_id": "75237VRGNK4100P"}}, {"type": "Feature", "geometry": {"type": "Point", "coordinates": [-96.8739, 32.6651]}, "properties": {"facility_name": "W/S PRECISION FINISHING CORP", "industry": null, "tri_facility_id": "75237WSPRC4138S"}}, {"type": "Feature", "geometry": {"type": "Point", "coordinates": [-96.69444444444444, 32.8875]}, "properties": {"facility_name": "K&S INTERCONNECT INC", "industry": null, "tri_facility_id": "75238CMPRT10365"}}, {"type": "Feature", "geometry": {"type": "Point", "coordinates": [-96.683056, 32.883611]}, "properties": {"facility_name": "DAP GLOBAL INC", "industry": null, "tri_facility_id": "75238DPNCX13555"}}, {"type": "Feature", "geometry": {"type": "Point", "coordinates": [-96.69361111111111, 32.897777777777776]}, "properties": {"facility_name": "EAGLE CIRCUITS INC.", "industry": null, "tri_facility_id": "75238GLCRC10820"}}, {"type": "Feature", "geometry": {"type": "Point", "coordinates": [-96.70027777777779, 32.89416666666666]}, "properties": {"facility_name": "AMERICAN PRODUCTS CO", "industry": null, "tri_facility_id": "75238MRCNP10741"}}, {"type": "Feature", "geometry": {"type": "Point", "coordinates": [-96.703389, 32.8912]}, "properties": {"facility_name": "MARLOW INDUSTRIES INC", "industry": null, "tri_facility_id": "75238MRLWN10451"}}, {"type": "Feature", "geometry": {"type": "Point", "coordinates": [-96.69277777777778, 32.8975]}, "properties": {"facility_name": "ONE SOURCE GROUP", "industry": null, "tri_facility_id": "75238MSLTN10810"}}, {"type": "Feature", "geometry": {"type": "Point", "coordinates": [-96.713138, 32.894501]}, "properties": {"facility_name": "SIGNGRAPHICS", "industry": null, "tri_facility_id": "75238SGNGR10011"}}, {"type": "Feature", "geometry": {"type": "Point", "coordinates": [-96.694444, 32.895278]}, "properties": {"facility_name": "SANDENVENDO AMERICA", "industry": null, "tri_facility_id": "75238SNDNN10710"}}, {"type": "Feature", "geometry": {"type": "Point", "coordinates": [-96.69277777777778, 32.902499999999996]}, "properties": {"facility_name": "UNIVAR SOLUTIONS USA INC DALLAS", "industry": null, "tri_facility_id": "75238VNWTR10889"}}, {"type": "Feature", "geometry": {"type": "Point", "coordinates": [-96.740278, 32.695]}, "properties": {"facility_name": "OCCIDENTAL CHEMICAL CORP", "industry": null, "tri_facility_id": "75239CCDNT8800S"}}, {"type": "Feature", "geometry": {"type": "Point", "coordinates": [-96.805, 32.79]}, "properties": {"facility_name": "CRANE PLUMBING", "industry": null, "tri_facility_id": "75239CRNPL8290S"}}, {"type": "Feature", "geometry": {"type": "Point", "coordinates": [-96.749024, 32.705961]}, "properties": {"facility_name": "VERSUM MATERIALS US LLC", "industry": null, "tri_facility_id": "75239SHLND8201S"}}, {"type": "Feature", "geometry": {"type": "Point", "coordinates": [-96.704722, 32.907222]}, "properties": {"facility_name": "CLARK MOULDING", "industry": null, "tri_facility_id": "75243CLRKM11587"}}, {"type": "Feature", "geometry": {"type": "Point", "coordinates": [-96.70027777777779, 32.903055555555554]}, "properties": {"facility_name": "BRENNTAG SOUTHWEST INC DALLAS", "industry": null, "tri_facility_id": "75243DLLS011344"}}, {"type": "Feature", "geometry": {"type": "Point", "coordinates": [-96.7538888888889, 32.930277777777775]}, "properties": {"facility_name": "DRS NIS LLC", "industry": null, "tri_facility_id": "75243DRSNF13532"}}, {"type": "Feature", "geometry": {"type": "Point", "coordinates": [-96.745, 32.93111111111111]}, "properties": {"facility_name": "OLIVER SALES CO", "industry": null, "tri_facility_id": "75243LVRSL13445"}}, {"type": "Feature", "geometry": {"type": "Point", "coordinates": [-96.708333, 32.905556]}, "properties": {"facility_name": "PECORA CORP", "industry": null, "tri_facility_id": "75243PCRCR11501"}}, {"type": "Feature", "geometry": {"type": "Point", "coordinates": [-96.755, 32.93194444444444]}, "properties": {"facility_name": "DALLAS CHEMICAL CENTER", "industry": null, "tri_facility_id": "75243RLQDL13546"}}, {"type": "Feature", "geometry": {"type": "Point", "coordinates": [-96.7625, 32.92916666666667]}, "properties": {"facility_name": "RAYTHEON CO", "industry": null, "tri_facility_id": "75243RYTHN13510"}}, {"type": "Feature", "geometry": {"type": "Point", "coordinates": [-96.764722, 32.926944]}, "properties": {"facility_name": "PHOTRONICS-TOPPAN TEXAS INC", "industry": null, "tri_facility_id": "75243TPPNP13536"}}, {"type": "Feature", "geometry": {"type": "Point", "coordinates": [-96.75, 32.93]}, "properties": {"facility_name": "TRIQUINT SEMICONDUCTOR TEXAS LP", "industry": null, "tri_facility_id": "75243TRQNT13512"}}, {"type": "Feature", "geometry": {"type": "Point", "coordinates": [-96.7625, 32.929167]}, "properties": {"facility_name": "TEXAS INSTRUMENTS INC", "industry": null, "tri_facility_id": "75243TXSNS13500"}}, {"type": "Feature", "geometry": {"type": "Point", "coordinates": [-96.7561, 32.9091]}, "properties": {"facility_name": "TEXAS INSTRUMENTS INC", "industry": null, "tri_facility_id": "75243TXSNS8505F"}}, {"type": "Feature", "geometry": {"type": "Point", "coordinates": [-96.707778, 32.895278]}, "properties": {"facility_name": "VARO INC", "industry": null, "tri_facility_id": "75243VRNCX11477"}}, {"type": "Feature", "geometry": {"type": "Point", "coordinates": [-96.833333, 32.932778]}, "properties": {"facility_name": "BIRD LIFE DESIGN", "industry": null, "tri_facility_id": "75244BRDLF4450A"}}, {"type": "Feature", "geometry": {"type": "Point", "coordinates": [-96.829722, 32.931111]}, "properties": {"facility_name": "SIKA - DALLAS TX", "industry": null, "tri_facility_id": "75244RMXNC13524"}}, {"type": "Feature", "geometry": {"type": "Point", "coordinates": [-96.77833333333334, 32.79222222222222]}, "properties": {"facility_name": "SOURCEONE HEALTHCARE TECHNOLOGIES INC", "industry": null, "tri_facility_id": "75246SRCNH3910G"}}, {"type": "Feature", "geometry": {"type": "Point", "coordinates": [-96.8892, 32.8106]}, "properties": {"facility_name": "BESTOLIFE CORP", "industry": null, "tri_facility_id": "75247BSTLF1340M"}}, {"type": "Feature", "geometry": {"type": "Point", "coordinates": [-96.884444, 32.806667]}, "properties": {"facility_name": "ECCO CHEMICALS INC", "industry": null, "tri_facility_id": "75247CCCHM8505D"}}, {"type": "Feature", "geometry": {"type": "Point", "coordinates": [-96.87666666666667, 32.794444444444444]}, "properties": {"facility_name": "CONTINENTAL BATTERY MANUFACTURING CORP", "industry": null, "tri_facility_id": "75247CNTNN4919W"}}, {"type": "Feature", "geometry": {"type": "Point", "coordinates": [-96.8676, 32.8034]}, "properties": {"facility_name": "ZENECA SPECIALTY INKS CONVERTERS INKS", "industry": null, "tri_facility_id": "75247CNVRT5117N"}}, {"type": "Feature", "geometry": {"type": "Point", "coordinates": [-96.898222, 32.8081]}, "properties": {"facility_name": "CIRCLE T FOODS CO INC", "industry": null, "tri_facility_id": "75247CRCLT4560L"}}, {"type": "Feature", "geometry": {"type": "Point", "coordinates": [-96.8298, 32.7963]}, "properties": {"facility_name": "DECIBEL PRODUCTS", "industry": null, "tri_facility_id": "75247DCBLP3184Q"}}, {"type": "Feature", "geometry": {"type": "Point", "coordinates": [-96.895556, 32.815]}, "properties": {"facility_name": "DELUXE CHECK PRINTERS INC", "industry": null, "tri_facility_id": "75247DLXCH9125V"}}, {"type": "Feature", "geometry": {"type": "Point", "coordinates": [-96.851111, 32.846944]}, "properties": {"facility_name": "DUPONT DALLAS REFINISH SERVICE CENTER", "industry": null, "tri_facility_id": "75247DPNTD8510A"}}, {"type": "Feature", "geometry": {"type": "Point", "coordinates": [-96.89, 32.823333]}, "properties": {"facility_name": "G P PLASTICS CORP", "industry": null, "tri_facility_id": "75247GPPLS904RE"}}, {"type": "Feature", "geometry": {"type": "Point", "coordinates": [-96.891944, 32.814444]}, "properties": {"facility_name": "HERITAGE PRESS", "industry": null, "tri_facility_id": "75247HRTGP8939P"}}, {"type": "Feature", "geometry": {"type": "Point", "coordinates": [-96.879155, 32.836985]}, "properties": {"facility_name": "LEHIGH PRESS DALLAS", "industry": null, "tri_facility_id": "75247LHGHP1515R"}}, {"type": "Feature", "geometry": {"type": "Point", "coordinates": [-96.879167, 32.830833]}, "properties": {"facility_name": "MARY KAY INC.", "industry": null, "tri_facility_id": "75247MRYKY1330R"}}, {"type": "Feature", "geometry": {"type": "Point", "coordinates": [-96.885556, 32.804444]}, "properties": {"facility_name": "MESTEK INC", "industry": null, "tri_facility_id": "75247MSTKN4830T"}}, {"type": "Feature", "geometry": {"type": "Point", "coordinates": [-96.881111, 32.834444]}, "properties": {"facility_name": "MATERIALS TECHNOLOGIES CO", "industry": null, "tri_facility_id": "75247MTRLS9224K"}}, {"type": "Feature", "geometry": {"type": "Point", "coordinates": [-96.877582, 32.814388]}, "properties": {"facility_name": "MATTHEWS INTERNATIONAL CORP", "industry": null, "tri_facility_id": "75247MTTHW7715S"}}, {"type": "Feature", "geometry": {"type": "Point", "coordinates": [-96.916111, 32.817778]}, "properties": {"facility_name": "US GYPSUM CO", "industry": null, "tri_facility_id": "75247NTDST255RE"}}, {"type": "Feature", "geometry": {"type": "Point", "coordinates": [-96.89222222222223, 32.81083333333333]}, "properties": {"facility_name": "TEXAS BIT LESTON ASPHLAT PLANT", "industry": null, "tri_facility_id": "75247PCTXS4525L"}}, {"type": "Feature", "geometry": {"type": "Point", "coordinates": [-96.870111, 32.8179]}, "properties": {"facility_name": "QUEMETCO METALS LTD INC", "industry": null, "tri_facility_id": "75247QMTCM1340M"}}, {"type": "Feature", "geometry": {"type": "Point", "coordinates": [-96.8854, 32.8276]}, "properties": {"facility_name": "SQUARE D CO", "industry": null, "tri_facility_id": "75247SQRDC1111R"}}, {"type": "Feature", "geometry": {"type": "Point", "coordinates": [-96.886944, 32.821667]}, "properties": {"facility_name": "ATRIUM COMPANIES DALLAS", "industry": null, "tri_facility_id": "75247THTRM9001A"}}, {"type": "Feature", "geometry": {"type": "Point", "coordinates": [-96.885321, 32.808001]}, "properties": {"facility_name": "TRINITY INDUSTRIES INC PLANT NO 54", "industry": null, "tri_facility_id": "75247TRNTY4001I"}}, {"type": "Feature", "geometry": {"type": "Point", "coordinates": [-96.881111, 32.833333]}, "properties": {"facility_name": "AUTO WAX CO", "industry": null, "tri_facility_id": "75247TWXCN1300R"}}, {"type": "Feature", "geometry": {"type": "Point", "coordinates": [-96.86361111111111, 32.803888888888885]}, "properties": {"facility_name": "VALVOLINE DIRECT MARKET DALLAS", "industry": null, "tri_facility_id": "75247VLVLN3116Q"}}, {"type": "Feature", "geometry": {"type": "Point", "coordinates": [-96.8794, 32.8134]}, "properties": {"facility_name": "OVERWRAPS PACKAGING LP", "industry": null, "tri_facility_id": "75247VRWRP9008G"}}, {"type": "Feature", "geometry": {"type": "Point", "coordinates": [-96.8825, 32.82777777777778]}, "properties": {"facility_name": "PROLEC-GE WAUKESHA", "industry": null, "tri_facility_id": "75247WKSHL911GV"}}, {"type": "Feature", "geometry": {"type": "Point", "coordinates": [-96.86305555555555, 32.77777777777778]}, "properties": {"facility_name": "BMIC LLC", "industry": null, "tri_facility_id": "75265BLDNG2600S"}}, {"type": "Feature", "geometry": {"type": "Point", "coordinates": [-96.841944, 32.749444]}, "properties": {"facility_name": "BRYCE-DIXICO", "industry": null, "tri_facility_id": "75265DXCNC1300S"}}, {"type": "Feature", "geometry": {"type": "Point", "coordinates": [-96.909444, 32.924444]}, "properties": {"facility_name": "BROCKWAY STANDARD INC  THOMPSON", "industry": null, "tri_facility_id": "75381BRCKW13401"}}]}