{"type": "FeatureCollection", "features": [{"type": "Feature", "properties": {"area_id": 11005, "city": "Aberdeen", "state": "SD", "city_survey": false, "cat": "Better Residential Section", "grade": null, "label": "Better Residential Section", "res": true, "com": false, "ind": false, "holc_grade": null}, "geometry": {"type": "Polygon", "coordinates": [[[-98.4925, 45.48121], [-98.48438, 45.48114], [-98.48424, 45.47374], [-98.4924, 45.47386], [-98.4925, 45.48121]]]}}, {"type": "Feature", "properties": {"area_id": 11006, "city": "Aberdeen", "state": "SD", "city_survey": false, "cat": "Better Residential Section", "grade": null, "label": "Better Residential Section", "res": true, "com": false, "ind": false, "holc_grade": null}, "geometry": {"type": "Polygon", "coordinates": [[[-98.49238, 45.46782], [-98.492395, 45.470729], [-98.4924, 45.47174], [-98.49101, 45.47178], [-98.49094, 45.47327], [-98.48939, 45.4733], [-98.489423, 45.470732], [-98.48946, 45.46779], [-98.49238, 45.46782]]]}}, {"type": "Feature", "properties": {"area_id": 11007, "city": "Aberdeen", "state": "SD", "city_survey": false, "cat": "Better Residential Section", "grade": null, "label": "Better Residential Section", "res": true, "com": false, "ind": false, "holc_grade": null}, "geometry": {"type": "Polygon", "coordinates": [[[-98.50388, 45.46125], [-98.50219, 45.46124], [-98.50221, 45.46025], [-98.50077, 45.46026], [-98.50094, 45.45797], [-98.50397, 45.45803], [-98.50388, 45.46125]]]}}, {"type": "Feature", "properties": {"area_id": 11008, "city": "Aberdeen", "state": "SD", "city_survey": false, "cat": "Better Residential Section", "grade": null, "label": "Better Residential Section", "res": true, "com": false, "ind": false, "holc_grade": null}, "geometry": {"type": "Polygon", "coordinates": [[[-98.48875, 45.45619], [-98.48875, 45.45602], [-98.48876, 45.45468], [-98.49249, 45.45476], [-98.4925, 45.45603], [-98.49387, 45.45601], [-98.493859, 45.457088], [-98.49385, 45.45806], [-98.49384, 45.46012], [-98.48952, 45.46013], [-98.48956, 45.45799], [-98.489576, 45.457062], [-98.48959, 45.45623], [-98.48875, 45.45619]]]}}, {"type": "Feature", "properties": {"area_id": 11009, "city": "Aberdeen", "state": "SD", "city_survey": false, "cat": "Better Residential Section", "grade": null, "label": "Better Residential Section", "res": true, "com": false, "ind": false, "holc_grade": null}, "geometry": {"type": "Polygon", "coordinates": [[[-98.48799, 45.45228], [-98.488, 45.45279], [-98.48605, 45.45274], [-98.48544, 45.45202], [-98.48551, 45.44907], [-98.48879, 45.44911], [-98.48876, 45.44829], [-98.49235, 45.44826], [-98.49243, 45.45225], [-98.48799, 45.45228]]]}}, {"type": "Feature", "properties": {"area_id": 11010, "city": "Aberdeen", "state": "SD", "city_survey": false, "cat": "Better Residential Section", "grade": null, "label": "Better Residential Section", "res": true, "com": false, "ind": false, "holc_grade": null}, "geometry": {"type": "Polygon", "coordinates": [[[-98.48519, 45.45254], [-98.48508, 45.457047], [-98.48503, 45.45908], [-98.48498, 45.46104], [-98.47937, 45.46104], [-98.4793, 45.45792], [-98.48058, 45.45797], [-98.480583, 45.457015], [-98.4806, 45.4525], [-98.48519, 45.45254]]]}}, {"type": "Feature", "properties": {"area_id": 11011, "city": "Aberdeen", "state": "SD", "city_survey": false, "cat": "Better Residential Section", "grade": null, "label": "Better Residential Section", "res": true, "com": false, "ind": false, "holc_grade": null}, "geometry": {"type": "Polygon", "coordinates": [[[-98.47469, 45.46119], [-98.4733, 45.46132], [-98.47325, 45.46267], [-98.473222, 45.46267], [-98.46945, 45.46266], [-98.46711, 45.46265], [-98.46713, 45.46217], [-98.462238, 45.462179], [-98.46173, 45.46218], [-98.4633, 45.46138], [-98.463349, 45.461343], [-98.46458, 45.46042], [-98.46557, 45.45917], [-98.4717, 45.45915], [-98.473227, 45.459145], [-98.47466, 45.45914], [-98.47469, 45.46119]]]}}, {"type": "Feature", "properties": {"area_id": 11013, "city": "Aberdeen", "state": "SD", "city_survey": false, "cat": "Business, Jobbing, Manufacturing and Railroad", "grade": null, "label": "Business, Jobbing, Manufacturing and Railroad", "res": false, "com": true, "ind": true, "holc_grade": null}, "geometry": {"type": "Polygon", "coordinates": [[[-98.48875, 45.45619], [-98.488755, 45.457057], [-98.48876, 45.45795], [-98.48956, 45.45799], [-98.48952, 45.46013], [-98.48953, 45.4622], [-98.48953, 45.46414], [-98.49244, 45.46419], [-98.4924, 45.46317], [-98.49385, 45.46315], [-98.49385, 45.4622], [-98.49384, 45.46012], [-98.49385, 45.45806], [-98.494265, 45.458056], [-98.49491, 45.45805], [-98.49492, 45.45609], [-98.4964, 45.45619], [-98.49643, 45.45888], [-98.49675, 45.45949], [-98.49678, 45.4622], [-98.49817, 45.46219], [-98.49816, 45.4632], [-98.51001, 45.46317], [-98.51003, 45.46381], [-98.50807, 45.46426], [-98.50574, 45.46426], [-98.505747, 45.464898], [-98.50577, 45.46683], [-98.49535, 45.46675], [-98.49532, 45.46786], [-98.49463, 45.46785], [-98.49379, 45.46784], [-98.493786, 45.46784], [-98.49238, 45.46782], [-98.49247, 45.46665], [-98.48881, 45.46669], [-98.488738, 45.470731], [-98.48872, 45.47174], [-98.48793, 45.47174], [-98.48795, 45.47083], [-98.48721, 45.47085], [-98.48721, 45.470714], [-98.48721, 45.47051], [-98.48795, 45.47054], [-98.48797, 45.46891], [-98.48707, 45.46893], [-98.48709, 45.46858], [-98.48719, 45.46667], [-98.48524, 45.46669], [-98.48477, 45.46696], [-98.479302, 45.466997], [-98.47455, 45.46703], [-98.474511, 45.46607], [-98.47451, 45.46604], [-98.474501, 45.465829], [-98.47443, 45.464181], [-98.47443, 45.46417], [-98.4763, 45.46414], [-98.48501, 45.46404], [-98.485, 45.46306], [-98.48498, 45.46104], [-98.48503, 45.45908], [-98.48648, 45.45897], [-98.48649, 45.45789], [-98.48725, 45.45791], [-98.487269, 45.457047], [-98.48729, 45.45606], [-98.48875, 45.45602], [-98.48875, 45.45619]]]}}, {"type": "Feature", "properties": {"area_id": 11014, "city": "Aberdeen", "state": "SD", "city_survey": false, "cat": "Decadent Section", "grade": null, "label": "Decadent Section", "res": true, "com": false, "ind": false, "holc_grade": null}, "geometry": {"type": "MultiPolygon", "coordinates": [[[[-98.4853, 45.4686], [-98.4853, 45.46794], [-98.485149, 45.467937], [-98.48081, 45.46784], [-98.479302, 45.467859], [-98.47453, 45.46792], [-98.47319, 45.46796], [-98.47322, 45.46886], [-98.47183, 45.46896], [-98.47164, 45.47369], [-98.46432, 45.47372], [-98.46436, 45.46652], [-98.46938, 45.46655], [-98.46936, 45.46756], [-98.4725, 45.46619], [-98.472732, 45.466148], [-98.47327, 45.46605], [-98.47451, 45.46604], [-98.474511, 45.46607], [-98.47455, 45.46703], [-98.479302, 45.466997], [-98.48477, 45.46696], [-98.48524, 45.46669], [-98.48719, 45.46667], [-98.48709, 45.46858], [-98.48656, 45.468586], [-98.4853, 45.4686]]], [[[-98.47248, 45.46574], [-98.46947, 45.46583], [-98.46945, 45.46266], [-98.473222, 45.46267], [-98.47325, 45.46267], [-98.4741, 45.46267], [-98.473301, 45.464185], [-98.47248, 45.46574]]], [[[-98.47701, 45.46311], [-98.485, 45.46306], [-98.48501, 45.46404], [-98.4763, 45.46414], [-98.47674, 45.46365], [-98.47701, 45.46311]]], [[[-98.48953, 45.46414], [-98.48953, 45.4622], [-98.49385, 45.4622], [-98.49385, 45.46315], [-98.4924, 45.46317], [-98.49244, 45.46419], [-98.48953, 45.46414]]], [[[-98.49463, 45.46785], [-98.49495, 45.4683], [-98.49484, 45.47389], [-98.49373, 45.47386], [-98.493761, 45.470739], [-98.493769, 45.469906], [-98.493778, 45.469082], [-98.493783, 45.468539], [-98.49379, 45.46784], [-98.49463, 45.46785]]], [[[-98.49817, 45.46219], [-98.51, 45.46208], [-98.51001, 45.46317], [-98.49816, 45.4632], [-98.49817, 45.46219]]]]}}, {"type": "Feature", "properties": {"area_id": 11012, "city": "Aberdeen", "state": "SD", "city_survey": false, "cat": "Future Possibilities Due to Improvement at Mocassin Creek and Parking Program", "grade": null, "label": "Future Possibilities Due to Improvement at Mocassin Creek and Parking Program", "res": true, "com": false, "ind": false, "holc_grade": null}, "geometry": {"type": "Polygon", "coordinates": [[[-98.47255, 45.44837], [-98.47432, 45.44611], [-98.47508, 45.44533], [-98.47529, 45.44471], [-98.475394, 45.444712], [-98.47768, 45.44476], [-98.47773, 45.44709], [-98.47916, 45.44707], [-98.47905, 45.45255], [-98.47476, 45.45257], [-98.474711, 45.456937], [-98.47471, 45.45699], [-98.473191, 45.456974], [-98.47179, 45.45696], [-98.4717, 45.45915], [-98.46557, 45.45917], [-98.46458, 45.46042], [-98.463349, 45.461343], [-98.4633, 45.46138], [-98.46173, 45.46218], [-98.45908, 45.46218], [-98.45913, 45.45921], [-98.46029, 45.45921], [-98.46017, 45.4575], [-98.46465, 45.4575], [-98.46479, 45.45551], [-98.46745, 45.45548], [-98.46748, 45.45206], [-98.472318, 45.451971], [-98.47237, 45.45197], [-98.472311, 45.451259], [-98.47225, 45.45052], [-98.47223, 45.44943], [-98.47255, 45.44837]]]}}]}