{"type": "FeatureCollection", "features": [{"type": "Feature", "geometry": {"type": "Point", "coordinates": [-69.637778, 44.571389]}, "properties": {"facility_name": "CHINET CO MACHINE SHOP", "industry": null, "tri_facility_id": "04901KYSFBUPPER"}}, {"type": "Feature", "geometry": {"type": "Point", "coordinates": [-69.65444444444445, 44.50944444444445]}, "properties": {"facility_name": "MID-STATE MACHINE PRODUCTS", "industry": null, "tri_facility_id": "04901MDSTT1501V"}}, {"type": "Feature", "geometry": {"type": "Point", "coordinates": [-69.625, 44.558333]}, "properties": {"facility_name": "KIMBERLY-CLARK TISSUE CO", "industry": null, "tri_facility_id": "04901SCTTP14BEN"}}]}