{"type": "FeatureCollection", "features": [{"type": "Feature", "properties": {"area_id": 817, "city": "San Jose", "state": "CA", "city_survey": true, "cat": "Best", "grade": "A", "label": "A1", "res": true, "com": false, "ind": false, "holc_grade": "A"}, "geometry": {"type": "Polygon", "coordinates": [[[-121.93517, 37.326988], [-121.93525, 37.3283], [-121.938021, 37.333172], [-121.93823, 37.33354], [-121.93619, 37.33499], [-121.934192, 37.336068], [-121.933, 37.33671], [-121.93134, 37.33529], [-121.93018, 37.33408], [-121.927179, 37.336544], [-121.92716, 37.33656], [-121.927794, 37.337053], [-121.92792, 37.33715], [-121.927916, 37.337153], [-121.92412, 37.33994], [-121.92048, 37.33682], [-121.924118, 37.334007], [-121.92414, 37.33399], [-121.92039, 37.33087], [-121.92316, 37.32884], [-121.92687, 37.33189], [-121.92782, 37.33118], [-121.93142, 37.32846], [-121.9321, 37.32785], [-121.932029, 37.327048], [-121.932025, 37.327], [-121.932019, 37.326935], [-121.93201, 37.32683], [-121.93516, 37.32683], [-121.93517, 37.326988]]]}}, {"type": "Feature", "properties": {"area_id": 840, "city": "San Jose", "state": "CA", "city_survey": true, "cat": "Best", "grade": "A", "label": "A2", "res": true, "com": false, "ind": false, "holc_grade": "A"}, "geometry": {"type": "Polygon", "coordinates": [[[-121.86754, 37.33513], [-121.86723, 37.33421], [-121.86741, 37.33292], [-121.87026, 37.33155], [-121.87243, 37.33443], [-121.870286, 37.335515], [-121.86911, 37.33611], [-121.86846, 37.33701], [-121.868396, 37.336897], [-121.86794, 37.33609], [-121.86754, 37.33513]]]}}, {"type": "Feature", "properties": {"area_id": 814, "city": "San Jose", "state": "CA", "city_survey": true, "cat": "Still Desirable", "grade": "B", "label": "B1", "res": true, "com": false, "ind": false, "holc_grade": "B"}, "geometry": {"type": "Polygon", "coordinates": [[[-121.95347, 37.34547], [-121.95335, 37.345519], [-121.951603, 37.34623], [-121.95126, 37.34637], [-121.95175, 37.3473], [-121.951725, 37.347309], [-121.94932, 37.34813], [-121.949272, 37.348064], [-121.94898, 37.34766], [-121.94489, 37.34911], [-121.94434, 37.34813], [-121.94556, 37.34773], [-121.945, 37.34683], [-121.94329, 37.34734], [-121.94251, 37.34604], [-121.94485, 37.34521], [-121.94609, 37.34719], [-121.94833, 37.346413], [-121.94949, 37.34601], [-121.9493, 37.34572], [-121.952882, 37.3444], [-121.95291, 37.34439], [-121.952973, 37.344512], [-121.95347, 37.34547]]]}}, {"type": "Feature", "properties": {"area_id": 816, "city": "San Jose", "state": "CA", "city_survey": true, "cat": "Still Desirable", "grade": "B", "label": "B2", "res": true, "com": false, "ind": false, "holc_grade": "B"}, "geometry": {"type": "Polygon", "coordinates": [[[-121.933, 37.33671], [-121.934192, 37.336068], [-121.93619, 37.33499], [-121.93823, 37.33354], [-121.940551, 37.337728], [-121.94135, 37.33917], [-121.93914, 37.33996], [-121.94105, 37.34336], [-121.93939, 37.34398], [-121.938255, 37.344335], [-121.93683, 37.34478], [-121.93682, 37.34478], [-121.93603, 37.34388], [-121.93469, 37.34296], [-121.93468, 37.34297], [-121.93409, 37.34346], [-121.93407, 37.34345], [-121.93117, 37.34255], [-121.93117, 37.34256], [-121.93114, 37.34255], [-121.93128, 37.34364], [-121.93128, 37.34365], [-121.93139, 37.34436], [-121.92835, 37.34353], [-121.92801, 37.34419], [-121.92532, 37.343261], [-121.92381, 37.34274], [-121.9196, 37.33922], [-121.91827, 37.34004], [-121.91703, 37.33888], [-121.9183, 37.33813], [-121.919127, 37.337633], [-121.920052, 37.337077], [-121.92048, 37.33682], [-121.92412, 37.33994], [-121.927916, 37.337153], [-121.92792, 37.33715], [-121.927794, 37.337053], [-121.92716, 37.33656], [-121.927179, 37.336544], [-121.93018, 37.33408], [-121.93134, 37.33529], [-121.933, 37.33671]]]}}, {"type": "Feature", "properties": {"area_id": 818, "city": "San Jose", "state": "CA", "city_survey": true, "cat": "Still Desirable", "grade": "B", "label": "B3", "res": true, "com": false, "ind": false, "holc_grade": "B"}, "geometry": {"type": "MultiPolygon", "coordinates": [[[[-121.92102, 37.32679], [-121.92316, 37.32884], [-121.92039, 37.33087], [-121.92414, 37.33399], [-121.924118, 37.334007], [-121.92048, 37.33682], [-121.920052, 37.337077], [-121.919127, 37.337633], [-121.9183, 37.33813], [-121.917765, 37.337655], [-121.91338, 37.33376], [-121.91475, 37.33291], [-121.91279, 37.33121], [-121.9127, 37.32754], [-121.91365, 37.32695], [-121.91442, 37.32735], [-121.91522, 37.32665], [-121.916173, 37.327415], [-121.91674, 37.32787], [-121.92087, 37.32435], [-121.92247, 37.32558], [-121.92102, 37.32679]]], [[[-121.932019, 37.326935], [-121.932025, 37.327], [-121.932029, 37.327048], [-121.9321, 37.32785], [-121.93142, 37.32846], [-121.92782, 37.33118], [-121.9255, 37.32936], [-121.92628, 37.32889], [-121.92562, 37.32821], [-121.927065, 37.326944], [-121.92708, 37.32693], [-121.93201, 37.32683], [-121.932019, 37.326935]]]]}}, {"type": "Feature", "properties": {"area_id": 826, "city": "San Jose", "state": "CA", "city_survey": true, "cat": "Still Desirable", "grade": "B", "label": "B4", "res": true, "com": false, "ind": false, "holc_grade": "B"}, "geometry": {"type": "Polygon", "coordinates": [[[-121.89634, 37.34395], [-121.896356, 37.343944], [-121.89876, 37.34311], [-121.90116, 37.34621], [-121.90012, 37.34672], [-121.90054, 37.34723], [-121.89929, 37.34786], [-121.89927, 37.34787], [-121.89927, 37.34786], [-121.896971, 37.34482], [-121.89632, 37.34396], [-121.89634, 37.34395]]]}}, {"type": "Feature", "properties": {"area_id": 839, "city": "San Jose", "state": "CA", "city_survey": true, "cat": "Still Desirable", "grade": "B", "label": "B5", "res": true, "com": false, "ind": false, "holc_grade": "B"}, "geometry": {"type": "Polygon", "coordinates": [[[-121.86948, 37.32788], [-121.87289, 37.33244], [-121.873909, 37.333798], [-121.87634, 37.33704], [-121.87908, 37.34073], [-121.873379, 37.343295], [-121.87288, 37.34352], [-121.87188, 37.34293], [-121.87119, 37.34274], [-121.87098, 37.3425], [-121.87033, 37.3411], [-121.870247, 37.340664], [-121.870024, 37.339492], [-121.869905, 37.338869], [-121.86989, 37.33879], [-121.86946, 37.33795], [-121.86851, 37.33726], [-121.868474, 37.337082], [-121.86846, 37.33701], [-121.86911, 37.33611], [-121.870286, 37.335515], [-121.87243, 37.33443], [-121.87026, 37.33155], [-121.86741, 37.33292], [-121.86829, 37.33028], [-121.8683, 37.32959], [-121.868262, 37.329504], [-121.86786, 37.3286], [-121.867901, 37.328582], [-121.86948, 37.32788]]]}}, {"type": "Feature", "properties": {"area_id": 845, "city": "San Jose", "state": "CA", "city_survey": true, "cat": "Still Desirable", "grade": "B", "label": "B6", "res": true, "com": false, "ind": false, "holc_grade": "B"}, "geometry": {"type": "Polygon", "coordinates": [[[-121.90202, 37.31648], [-121.90147, 37.31701], [-121.89782, 37.31691], [-121.89814, 37.31355], [-121.89735, 37.31269], [-121.89891, 37.31164], [-121.90058, 37.31391], [-121.90151, 37.3136], [-121.90231, 37.31582], [-121.90202, 37.31648]]]}}, {"type": "Feature", "properties": {"area_id": 847, "city": "San Jose", "state": "CA", "city_survey": true, "cat": "Still Desirable", "grade": "B", "label": "B7", "res": true, "com": false, "ind": false, "holc_grade": "B"}, "geometry": {"type": "Polygon", "coordinates": [[[-121.88037, 37.29245], [-121.880602, 37.292369], [-121.88964, 37.28921], [-121.89181, 37.29268], [-121.89579, 37.29101], [-121.89623, 37.2906], [-121.89781, 37.28999], [-121.89903, 37.29186], [-121.89974, 37.29363], [-121.900779, 37.295261], [-121.90081, 37.29531], [-121.90155, 37.29493], [-121.90209, 37.301376], [-121.90209, 37.30138], [-121.90411, 37.30117], [-121.90482, 37.30226], [-121.90547, 37.30412], [-121.90648, 37.30601], [-121.906494, 37.306006], [-121.90755, 37.30571], [-121.9105, 37.30424], [-121.91118, 37.30552], [-121.91053, 37.30722], [-121.90957, 37.308], [-121.90794, 37.30904], [-121.90716, 37.30997], [-121.9067, 37.30939], [-121.902962, 37.311083], [-121.90288, 37.31112], [-121.90142, 37.30898], [-121.90086, 37.30862], [-121.900828, 37.308576], [-121.89917, 37.30631], [-121.899445, 37.306173], [-121.9013, 37.30525], [-121.89946, 37.30272], [-121.897414, 37.30369], [-121.89659, 37.30408], [-121.89216, 37.30677], [-121.89132, 37.30735], [-121.88928, 37.30553], [-121.88742, 37.30396], [-121.88637, 37.30373], [-121.88572, 37.30373], [-121.88572, 37.30346], [-121.88705, 37.30332], [-121.88994, 37.30202], [-121.88905, 37.30041], [-121.89003, 37.29996], [-121.889998, 37.299914], [-121.88533, 37.29311], [-121.88295, 37.29422], [-121.880885, 37.294521], [-121.88055, 37.29457], [-121.88025, 37.29299], [-121.88037, 37.29245]]]}}, {"type": "Feature", "properties": {"area_id": 848, "city": "San Jose", "state": "CA", "city_survey": true, "cat": "Definitely Declining", "grade": "C", "label": null, "res": true, "com": false, "ind": false, "holc_grade": "C"}, "geometry": {"type": "Polygon", "coordinates": [[[-121.880885, 37.294521], [-121.88295, 37.29422], [-121.88533, 37.29311], [-121.889998, 37.299914], [-121.89003, 37.29996], [-121.88905, 37.30041], [-121.887011, 37.301207], [-121.88571, 37.301716], [-121.88478, 37.30208], [-121.884538, 37.301723], [-121.88133, 37.297], [-121.880861, 37.296367], [-121.88053, 37.29592], [-121.88055, 37.29457], [-121.880885, 37.294521]]]}}, {"type": "Feature", "properties": {"area_id": 849, "city": "San Jose", "state": "CA", "city_survey": true, "cat": "Definitely Declining", "grade": "C", "label": null, "res": true, "com": false, "ind": false, "holc_grade": "C"}, "geometry": {"type": "Polygon", "coordinates": [[[-121.904943, 37.293413], [-121.90495, 37.29341], [-121.904951, 37.293423], [-121.905395, 37.297876], [-121.90543, 37.29823], [-121.90917, 37.29771], [-121.90926, 37.29816], [-121.90876, 37.29984], [-121.90879, 37.30064], [-121.90905, 37.30116], [-121.90992, 37.30272], [-121.910483, 37.304195], [-121.9105, 37.30424], [-121.90755, 37.30571], [-121.906494, 37.306006], [-121.90648, 37.30601], [-121.90547, 37.30412], [-121.90482, 37.30226], [-121.90411, 37.30117], [-121.90209, 37.30138], [-121.90209, 37.301376], [-121.90155, 37.29493], [-121.904809, 37.293473], [-121.904943, 37.293413]]]}}, {"type": "Feature", "properties": {"area_id": 813, "city": "San Jose", "state": "CA", "city_survey": true, "cat": "Definitely Declining", "grade": "C", "label": "C1", "res": true, "com": false, "ind": false, "holc_grade": "C"}, "geometry": {"type": "Polygon", "coordinates": [[[-121.95383, 37.34748], [-121.953885, 37.347564], [-121.95504, 37.34934], [-121.955404, 37.349263], [-121.95542, 37.34926], [-121.95662, 37.3512], [-121.956572, 37.351217], [-121.954345, 37.351982], [-121.95179, 37.35286], [-121.94614, 37.35481], [-121.94382, 37.35085], [-121.949643, 37.348733], [-121.94968, 37.34872], [-121.94932, 37.34813], [-121.951725, 37.347309], [-121.95175, 37.3473], [-121.95221, 37.34811], [-121.95383, 37.34748]]]}}, {"type": "Feature", "properties": {"area_id": 835, "city": "San Jose", "state": "CA", "city_survey": true, "cat": "Definitely Declining", "grade": "C", "label": "C10", "res": true, "com": false, "ind": false, "holc_grade": "C"}, "geometry": {"type": "Polygon", "coordinates": [[[-121.86544, 37.35178], [-121.864382, 37.352578], [-121.8643, 37.35264], [-121.86606, 37.35446], [-121.86316, 37.35639], [-121.86161, 37.35484], [-121.86071, 37.35548], [-121.85909, 37.35635], [-121.8566, 37.35395], [-121.856702, 37.353898], [-121.85907, 37.35268], [-121.862504, 37.350759], [-121.8637, 37.35009], [-121.86544, 37.35178]]]}}, {"type": "Feature", "properties": {"area_id": 821, "city": "San Jose", "state": "CA", "city_survey": true, "cat": "Definitely Declining", "grade": "C", "label": "C11", "res": true, "com": false, "ind": false, "holc_grade": "C"}, "geometry": {"type": "Polygon", "coordinates": [[[-121.91385, 37.3259], [-121.91375, 37.3235], [-121.92526, 37.32344], [-121.92521, 37.32681], [-121.92547, 37.32707], [-121.92316, 37.32884], [-121.92102, 37.32679], [-121.92247, 37.32558], [-121.92087, 37.32435], [-121.91674, 37.32787], [-121.916173, 37.327415], [-121.91522, 37.32665], [-121.91442, 37.32735], [-121.91365, 37.32695], [-121.9127, 37.32754], [-121.911726, 37.328092], [-121.9109, 37.32856], [-121.91104, 37.331], [-121.90741, 37.33115], [-121.90712, 37.32692], [-121.91163, 37.326773], [-121.91173, 37.32677], [-121.911642, 37.326006], [-121.91164, 37.32599], [-121.913791, 37.325902], [-121.91385, 37.3259]]]}}, {"type": "Feature", "properties": {"area_id": 842, "city": "San Jose", "state": "CA", "city_survey": true, "cat": "Definitely Declining", "grade": "C", "label": "C12", "res": true, "com": false, "ind": false, "holc_grade": "C"}, "geometry": {"type": "Polygon", "coordinates": [[[-121.88318, 37.32745], [-121.884152, 37.328939], [-121.88444, 37.32938], [-121.88318, 37.32996], [-121.88501, 37.33251], [-121.883928, 37.333], [-121.88355, 37.333172], [-121.88062, 37.3345], [-121.8828, 37.33737], [-121.88608, 37.33576], [-121.88711, 37.33712], [-121.880565, 37.340062], [-121.87908, 37.34073], [-121.87634, 37.33704], [-121.873909, 37.333798], [-121.87289, 37.33244], [-121.88031, 37.32883], [-121.88318, 37.32745]]]}}, {"type": "Feature", "properties": {"area_id": 844, "city": "San Jose", "state": "CA", "city_survey": true, "cat": "Definitely Declining", "grade": "C", "label": "C13", "res": true, "com": false, "ind": false, "holc_grade": "C"}, "geometry": {"type": "MultiPolygon", "coordinates": [[[[-121.88742, 37.30396], [-121.88928, 37.30553], [-121.89132, 37.30735], [-121.89029, 37.30789], [-121.89157, 37.30913], [-121.89193, 37.30989], [-121.89282, 37.30936], [-121.89409, 37.30856], [-121.8952, 37.30808], [-121.89693, 37.30994], [-121.89292, 37.31245], [-121.88956, 37.3142], [-121.88836, 37.31326], [-121.88796, 37.31181], [-121.88824, 37.31064], [-121.88903, 37.30916], [-121.8891, 37.30835], [-121.88863, 37.30726], [-121.88756, 37.30623], [-121.88625, 37.30509], [-121.88572, 37.30373], [-121.88637, 37.30373], [-121.88742, 37.30396]]], [[[-121.89672, 37.31158], [-121.89782, 37.31092], [-121.89915, 37.31101], [-121.90149, 37.31118], [-121.90282, 37.3132], [-121.90398, 37.3126], [-121.90383, 37.3137], [-121.9033, 37.31559], [-121.9024, 37.31645], [-121.90172, 37.31745], [-121.9018, 37.31791], [-121.90068, 37.31788], [-121.89953, 37.31794], [-121.89923, 37.31801], [-121.89187, 37.31769], [-121.892, 37.31431], [-121.89442, 37.31302], [-121.89672, 37.31158]], [[-121.90058, 37.31391], [-121.89891, 37.31164], [-121.89735, 37.31269], [-121.89814, 37.31355], [-121.89782, 37.31691], [-121.90147, 37.31701], [-121.90202, 37.31648], [-121.90231, 37.31582], [-121.90151, 37.3136], [-121.90058, 37.31391]]]]}}, {"type": "Feature", "properties": {"area_id": 841, "city": "San Jose", "state": "CA", "city_survey": true, "cat": "Definitely Declining", "grade": "C", "label": "C14", "res": true, "com": false, "ind": false, "holc_grade": "C"}, "geometry": {"type": "Polygon", "coordinates": [[[-121.86084, 37.31611], [-121.86117, 37.31371], [-121.86296, 37.31543], [-121.86652, 37.31293], [-121.870036, 37.318105], [-121.87154, 37.32032], [-121.86633, 37.32272], [-121.86445, 37.32055], [-121.861941, 37.321645], [-121.861877, 37.321673], [-121.86186, 37.32168], [-121.862323, 37.322134], [-121.864, 37.32378], [-121.86579, 37.32563], [-121.86688, 37.3251], [-121.86731, 37.32567], [-121.8727, 37.32319], [-121.87444, 37.32533], [-121.87515, 37.32505], [-121.875201, 37.325125], [-121.87622, 37.32662], [-121.87734, 37.32611], [-121.87843, 37.32762], [-121.87921, 37.32733], [-121.88031, 37.32883], [-121.87289, 37.33244], [-121.86948, 37.32788], [-121.867901, 37.328582], [-121.86786, 37.3286], [-121.86733, 37.32807], [-121.8669, 37.32711], [-121.86633, 37.32675], [-121.86552, 37.32663], [-121.86455, 37.32667], [-121.86369, 37.32699], [-121.86324, 37.32737], [-121.86279, 37.32766], [-121.86215, 37.32771], [-121.86163, 37.3273], [-121.86006, 37.32495], [-121.86003, 37.32267], [-121.86039, 37.3203], [-121.860406, 37.320149], [-121.86084, 37.31611]]]}}, {"type": "Feature", "properties": {"area_id": 846, "city": "San Jose", "state": "CA", "city_survey": true, "cat": "Definitely Declining", "grade": "C", "label": "C15", "res": true, "com": false, "ind": false, "holc_grade": "C"}, "geometry": {"type": "Polygon", "coordinates": [[[-121.8952, 37.30808], [-121.89409, 37.30856], [-121.89282, 37.30936], [-121.89193, 37.30989], [-121.89157, 37.30913], [-121.89029, 37.30789], [-121.89132, 37.30735], [-121.89216, 37.30677], [-121.89659, 37.30408], [-121.89752, 37.30499], [-121.89868, 37.30646], [-121.89917, 37.30631], [-121.900828, 37.308576], [-121.90086, 37.30862], [-121.90142, 37.30898], [-121.90288, 37.31112], [-121.902962, 37.311083], [-121.9067, 37.30939], [-121.90716, 37.30997], [-121.90663, 37.31115], [-121.9059, 37.31172], [-121.90413, 37.31234], [-121.904028, 37.312517], [-121.90398, 37.3126], [-121.90282, 37.3132], [-121.90149, 37.31118], [-121.89915, 37.31101], [-121.89782, 37.31092], [-121.897194, 37.31023], [-121.89693, 37.30994], [-121.8952, 37.30808]]]}}, {"type": "Feature", "properties": {"area_id": 815, "city": "San Jose", "state": "CA", "city_survey": true, "cat": "Definitely Declining", "grade": "C", "label": "C2", "res": true, "com": false, "ind": false, "holc_grade": "C"}, "geometry": {"type": "Polygon", "coordinates": [[[-121.9493, 37.34572], [-121.94949, 37.34601], [-121.94833, 37.346413], [-121.94609, 37.34719], [-121.94485, 37.34521], [-121.94251, 37.34604], [-121.94329, 37.34734], [-121.945, 37.34683], [-121.94556, 37.34773], [-121.94434, 37.34813], [-121.94489, 37.34911], [-121.943182, 37.349686], [-121.94314, 37.3497], [-121.94176, 37.34746], [-121.93949, 37.34819], [-121.93734, 37.34545], [-121.93533, 37.34477], [-121.93128, 37.34364], [-121.93114, 37.34255], [-121.93117, 37.34256], [-121.93117, 37.34255], [-121.93407, 37.34345], [-121.93409, 37.34346], [-121.93468, 37.34297], [-121.93469, 37.34296], [-121.93603, 37.34388], [-121.93682, 37.34478], [-121.93683, 37.34478], [-121.938255, 37.344335], [-121.93939, 37.34398], [-121.94105, 37.34336], [-121.94106, 37.34335], [-121.9444, 37.3421], [-121.94406, 37.34138], [-121.9453, 37.34094], [-121.94665, 37.34336], [-121.95008, 37.34214], [-121.95126, 37.34156], [-121.952136, 37.343063], [-121.95291, 37.34439], [-121.952882, 37.3444], [-121.9493, 37.34572]]]}}, {"type": "Feature", "properties": {"area_id": 819, "city": "San Jose", "state": "CA", "city_survey": true, "cat": "Definitely Declining", "grade": "C", "label": "C3", "res": true, "com": false, "ind": false, "holc_grade": "C"}, "geometry": {"type": "Polygon", "coordinates": [[[-121.91338, 37.33376], [-121.917765, 37.337655], [-121.9183, 37.33813], [-121.91703, 37.33888], [-121.91827, 37.34004], [-121.9196, 37.33922], [-121.92381, 37.34274], [-121.92532, 37.343261], [-121.92801, 37.34419], [-121.92835, 37.34353], [-121.93139, 37.34436], [-121.93132, 37.34527], [-121.9319, 37.34919], [-121.92516, 37.34598], [-121.92423, 37.34653], [-121.922944, 37.345377], [-121.92008, 37.34281], [-121.918182, 37.344116], [-121.91761, 37.34451], [-121.91539, 37.3425], [-121.915416, 37.34248], [-121.916, 37.34204], [-121.914004, 37.340185], [-121.90995, 37.33642], [-121.90987, 37.33635], [-121.91338, 37.33376]]]}}, {"type": "Feature", "properties": {"area_id": 825, "city": "San Jose", "state": "CA", "city_survey": true, "cat": "Definitely Declining", "grade": "C", "label": "C4", "res": true, "com": false, "ind": false, "holc_grade": "C"}, "geometry": {"type": "Polygon", "coordinates": [[[-121.89632, 37.34396], [-121.89632, 37.34395], [-121.89584, 37.34332], [-121.895881, 37.343307], [-121.900684, 37.341783], [-121.90211, 37.34133], [-121.90221, 37.34165], [-121.90236, 37.34315], [-121.90319, 37.34442], [-121.90486, 37.34619], [-121.90628, 37.34709], [-121.90786, 37.3478], [-121.90937, 37.34943], [-121.90989, 37.35023], [-121.90923, 37.350546], [-121.9034, 37.35334], [-121.89927, 37.34787], [-121.90054, 37.34723], [-121.90012, 37.34672], [-121.90116, 37.34621], [-121.89876, 37.34311], [-121.896356, 37.343944], [-121.89634, 37.34395], [-121.89632, 37.34396]]]}}, {"type": "Feature", "properties": {"area_id": 827, "city": "San Jose", "state": "CA", "city_survey": true, "cat": "Definitely Declining", "grade": "C", "label": "C5", "res": true, "com": false, "ind": false, "holc_grade": "C"}, "geometry": {"type": "Polygon", "coordinates": [[[-121.89427, 37.34392], [-121.89584, 37.34332], [-121.89632, 37.34395], [-121.89632, 37.34396], [-121.896971, 37.34482], [-121.89927, 37.34786], [-121.89927, 37.34787], [-121.9034, 37.35334], [-121.90661, 37.35773], [-121.90349, 37.35921], [-121.90085, 37.35564], [-121.900811, 37.355659], [-121.89755, 37.35722], [-121.89534, 37.35422], [-121.89643, 37.35369], [-121.89541, 37.35242], [-121.897639, 37.3514], [-121.89871, 37.35091], [-121.894908, 37.345801], [-121.89368, 37.34415], [-121.89427, 37.34392]], [[-121.89945, 37.35377], [-121.90057, 37.35322], [-121.89974, 37.35215], [-121.89862, 37.35269], [-121.89945, 37.35377]]]}}, {"type": "Feature", "properties": {"area_id": 831, "city": "San Jose", "state": "CA", "city_survey": true, "cat": "Definitely Declining", "grade": "C", "label": "C6", "res": true, "com": false, "ind": false, "holc_grade": "C"}, "geometry": {"type": "Polygon", "coordinates": [[[-121.882586, 37.348752], [-121.88419, 37.3509], [-121.88273, 37.35161], [-121.88436, 37.35376], [-121.88579, 37.35308], [-121.88731, 37.35518], [-121.88352, 37.35696], [-121.878751, 37.350572], [-121.87875, 37.35057], [-121.87917707035098, 37.350369783919966], [-121.879035, 37.350437], [-121.879221, 37.350349], [-121.879247, 37.350337], [-121.87941, 37.35026], [-121.879567, 37.350184], [-121.88257, 37.34873], [-121.882586, 37.348752]]]}}, {"type": "Feature", "properties": {"area_id": 832, "city": "San Jose", "state": "CA", "city_survey": true, "cat": "Definitely Declining", "grade": "C", "label": "C7", "res": true, "com": false, "ind": false, "holc_grade": "C"}, "geometry": {"type": "Polygon", "coordinates": [[[-121.87433, 37.34586], [-121.87442, 37.34582], [-121.87569, 37.34526], [-121.879409, 37.350259], [-121.87941, 37.35026], [-121.879247, 37.350337], [-121.87875, 37.35057], [-121.878751, 37.350572], [-121.88352, 37.35696], [-121.88731, 37.35518], [-121.887328, 37.355203], [-121.89061, 37.35949], [-121.884905, 37.362316], [-121.87791, 37.36578], [-121.87614, 37.36462], [-121.874572, 37.363376], [-121.87454, 37.36335], [-121.87401, 37.36246], [-121.87363, 37.36147], [-121.87365, 37.36063], [-121.873897, 37.359874], [-121.87412, 37.35919], [-121.87414, 37.35826], [-121.873893, 37.356648], [-121.87388, 37.35656], [-121.874177, 37.352808], [-121.87418, 37.35277], [-121.874181, 37.352763], [-121.87428, 37.35222], [-121.87405, 37.35118], [-121.87361, 37.35035], [-121.87357, 37.34902], [-121.873725, 37.348526], [-121.873763, 37.348407], [-121.87424, 37.34689], [-121.87433, 37.34586]]]}}, {"type": "Feature", "properties": {"area_id": 829, "city": "San Jose", "state": "CA", "city_survey": true, "cat": "Definitely Declining", "grade": "C", "label": "C8", "res": true, "com": false, "ind": false, "holc_grade": "C"}, "geometry": {"type": "Polygon", "coordinates": [[[-121.8914, 37.3413], [-121.88617, 37.34377], [-121.8851, 37.34426], [-121.88618, 37.34573], [-121.885152, 37.346219], [-121.88183, 37.3478], [-121.88257, 37.34873], [-121.879567, 37.350184], [-121.87941, 37.35026], [-121.879409, 37.350259], [-121.87569, 37.34526], [-121.87917, 37.34353], [-121.87886, 37.3432], [-121.881842, 37.341777], [-121.88915, 37.33829], [-121.8914, 37.3413]]]}}, {"type": "Feature", "properties": {"area_id": 833, "city": "San Jose", "state": "CA", "city_survey": true, "cat": "Definitely Declining", "grade": "C", "label": "C9", "res": true, "com": false, "ind": false, "holc_grade": "C"}, "geometry": {"type": "MultiPolygon", "coordinates": [[[[-121.87188, 37.34293], [-121.87288, 37.34352], [-121.86601, 37.34656], [-121.86553, 37.34586], [-121.87098, 37.3425], [-121.87119, 37.34274], [-121.87188, 37.34293]]], [[[-121.87424, 37.34689], [-121.873763, 37.348407], [-121.873725, 37.348526], [-121.87357, 37.34902], [-121.87361, 37.35035], [-121.873589, 37.350355], [-121.87146, 37.35082], [-121.86921, 37.35235], [-121.86588, 37.34918], [-121.87382, 37.34527], [-121.874178, 37.345598], [-121.87442, 37.34582], [-121.87433, 37.34586], [-121.87424, 37.34689]]]]}}, {"type": "Feature", "properties": {"area_id": 812, "city": "San Jose", "state": "CA", "city_survey": true, "cat": "Hazardous", "grade": "D", "label": "D1", "res": true, "com": false, "ind": false, "holc_grade": "D"}, "geometry": {"type": "Polygon", "coordinates": [[[-121.93936, 37.35059], [-121.939876, 37.351436], [-121.94027, 37.35208], [-121.94382, 37.35085], [-121.94614, 37.35481], [-121.95179, 37.35286], [-121.952279, 37.35375], [-121.9552, 37.35907], [-121.95167, 37.36001], [-121.95144, 37.3597], [-121.95041, 37.36001], [-121.94982, 37.35918], [-121.94891, 37.35952], [-121.94833, 37.35867], [-121.9475, 37.35898], [-121.94715, 37.35762], [-121.94647, 37.35595], [-121.94486, 37.35641], [-121.944809, 37.356277], [-121.944566, 37.35565], [-121.9445, 37.35548], [-121.94189, 37.35623], [-121.941586, 37.355705], [-121.940686, 37.354147], [-121.94004, 37.35303], [-121.9393, 37.35168], [-121.939279, 37.35165], [-121.936, 37.34697], [-121.93669, 37.34673], [-121.93936, 37.35059]]]}}, {"type": "Feature", "properties": {"area_id": 836, "city": "San Jose", "state": "CA", "city_survey": true, "cat": "Hazardous", "grade": "D", "label": "D10", "res": true, "com": false, "ind": false, "holc_grade": "D"}, "geometry": {"type": "Polygon", "coordinates": [[[-121.86268, 37.34263], [-121.862729, 37.345087], [-121.86275, 37.34613], [-121.86068, 37.34703], [-121.86178, 37.34866], [-121.860921, 37.349057], [-121.854714, 37.35193], [-121.85467, 37.35195], [-121.8532, 37.35055], [-121.853199, 37.35039], [-121.85317, 37.34531], [-121.855893, 37.343706], [-121.85755, 37.34273], [-121.85942, 37.34463], [-121.86268, 37.34263]]]}}, {"type": "Feature", "properties": {"area_id": 843, "city": "San Jose", "state": "CA", "city_survey": true, "cat": "Hazardous", "grade": "D", "label": "D11", "res": true, "com": false, "ind": false, "holc_grade": "D"}, "geometry": {"type": "MultiPolygon", "coordinates": [[[[-121.892, 37.31431], [-121.89187, 37.31769], [-121.89923, 37.31801], [-121.89953, 37.31794], [-121.90068, 37.31788], [-121.9018, 37.31791], [-121.90195, 37.31824], [-121.902332, 37.318737], [-121.902422, 37.318853], [-121.90265, 37.31915], [-121.902745, 37.320804], [-121.90275, 37.32089], [-121.902653, 37.320942], [-121.89622, 37.32439], [-121.89099, 37.32706], [-121.89111, 37.32738], [-121.89301, 37.32865], [-121.892712, 37.328784], [-121.88829, 37.330768], [-121.88755, 37.3311], [-121.88611, 37.329963], [-121.885696, 37.329636], [-121.88503, 37.32911], [-121.88444, 37.32938], [-121.884152, 37.328939], [-121.88318, 37.32745], [-121.883891, 37.327137], [-121.8852, 37.32656], [-121.88204, 37.32184], [-121.88052, 37.32057], [-121.88203, 37.31971], [-121.88386, 37.32224], [-121.88652, 37.32613], [-121.88808, 37.3254], [-121.88528, 37.32136], [-121.88346, 37.31889], [-121.88445, 37.31832], [-121.887961, 37.316346], [-121.88799, 37.31633], [-121.892, 37.31431]]], [[[-121.88318, 37.32745], [-121.88031, 37.32883], [-121.87921, 37.32733], [-121.87843, 37.32762], [-121.87734, 37.32611], [-121.87622, 37.32662], [-121.875201, 37.325125], [-121.87515, 37.32505], [-121.87444, 37.32533], [-121.8727, 37.32319], [-121.87334, 37.32284], [-121.87258, 37.32191], [-121.86659, 37.32465], [-121.86688, 37.3251], [-121.86579, 37.32563], [-121.864, 37.32378], [-121.86633, 37.32272], [-121.87154, 37.32032], [-121.870036, 37.318105], [-121.86652, 37.31293], [-121.86551, 37.31135], [-121.86755, 37.31005], [-121.867858, 37.310318], [-121.86854, 37.31091], [-121.87164, 37.30896], [-121.87702, 37.30637], [-121.87716, 37.30644], [-121.87778, 37.31189], [-121.87856, 37.31308], [-121.88161, 37.31101], [-121.88097, 37.30994], [-121.880852, 37.306889], [-121.88083, 37.30633], [-121.88057, 37.30431], [-121.88572, 37.30373], [-121.88625, 37.30509], [-121.88756, 37.30623], [-121.88863, 37.30726], [-121.8891, 37.30835], [-121.88903, 37.30916], [-121.88824, 37.31064], [-121.88796, 37.31181], [-121.88836, 37.31326], [-121.88956, 37.3142], [-121.88719, 37.315543], [-121.88273, 37.31807], [-121.87887, 37.31401], [-121.87745, 37.31461], [-121.88141, 37.31887], [-121.87958, 37.31991], [-121.87459, 37.31599], [-121.87458, 37.315994], [-121.873819, 37.316292], [-121.87293, 37.31664], [-121.873111, 37.316805], [-121.87511, 37.31863], [-121.879787, 37.322947], [-121.87979, 37.32295], [-121.88127, 37.32506], [-121.88318, 37.32745]]]]}}, {"type": "Feature", "properties": {"area_id": 824, "city": "San Jose", "state": "CA", "city_survey": true, "cat": "Hazardous", "grade": "D", "label": "D2", "res": true, "com": false, "ind": false, "holc_grade": "D"}, "geometry": {"type": "Polygon", "coordinates": [[[-121.91053, 37.35125], [-121.90989, 37.35023], [-121.90937, 37.34943], [-121.90786, 37.3478], [-121.90628, 37.34709], [-121.90486, 37.34619], [-121.90319, 37.34442], [-121.90236, 37.34315], [-121.9053, 37.34114], [-121.90732, 37.34296], [-121.90851, 37.3422], [-121.91181, 37.34511], [-121.91374, 37.34371], [-121.91876, 37.348372], [-121.91992, 37.34945], [-121.91175, 37.35507], [-121.91113, 37.35446], [-121.911123, 37.354406], [-121.911051, 37.353879], [-121.91098, 37.35335], [-121.91053, 37.35125]]]}}, {"type": "Feature", "properties": {"area_id": 828, "city": "San Jose", "state": "CA", "city_survey": true, "cat": "Hazardous", "grade": "D", "label": "D3", "res": true, "com": false, "ind": false, "holc_grade": "D"}, "geometry": {"type": "Polygon", "coordinates": [[[-121.89206, 37.34099], [-121.893406, 37.342774], [-121.89427, 37.34392], [-121.89368, 37.34415], [-121.894908, 37.345801], [-121.89871, 37.35091], [-121.897639, 37.3514], [-121.89541, 37.35242], [-121.89643, 37.35369], [-121.89534, 37.35422], [-121.893894, 37.352086], [-121.89387, 37.35205], [-121.89275, 37.35248], [-121.887994, 37.346184], [-121.88617, 37.34377], [-121.8914, 37.3413], [-121.89206, 37.34099]]]}}, {"type": "Feature", "properties": {"area_id": 830, "city": "San Jose", "state": "CA", "city_survey": true, "cat": "Hazardous", "grade": "D", "label": "D4", "res": true, "com": false, "ind": false, "holc_grade": "D"}, "geometry": {"type": "Polygon", "coordinates": [[[-121.8901, 37.35099], [-121.88915, 37.35148], [-121.89071, 37.353593], [-121.89073, 37.35362], [-121.88965, 37.35415], [-121.89284, 37.35843], [-121.89393, 37.35791], [-121.898124, 37.36359], [-121.8987, 37.36437], [-121.8922, 37.3674], [-121.89149, 37.36338], [-121.891461, 37.363016], [-121.89121, 37.35989], [-121.89096, 37.35932], [-121.89155, 37.35903], [-121.888314, 37.354735], [-121.88672, 37.35262], [-121.88626, 37.35284], [-121.8847, 37.35067], [-121.88419, 37.3509], [-121.882586, 37.348752], [-121.88257, 37.34873], [-121.88183, 37.3478], [-121.885152, 37.346219], [-121.88618, 37.34573], [-121.886904, 37.346702], [-121.8901, 37.35099]]]}}, {"type": "Feature", "properties": {"area_id": 820, "city": "San Jose", "state": "CA", "city_survey": true, "cat": "Hazardous", "grade": "D", "label": "D5", "res": true, "com": false, "ind": false, "holc_grade": "D"}, "geometry": {"type": "Polygon", "coordinates": [[[-121.91163, 37.33228], [-121.91338, 37.33376], [-121.90987, 37.33635], [-121.90995, 37.33642], [-121.909263, 37.336848], [-121.90926, 37.33685], [-121.90896599999991, 37.336578272727195], [-121.909255, 37.336841], [-121.908958, 37.336571], [-121.90893, 37.336545], [-121.90461, 37.33256], [-121.91163, 37.33228]]]}}, {"type": "Feature", "properties": {"area_id": 834, "city": "San Jose", "state": "CA", "city_survey": true, "cat": "Hazardous", "grade": "D", "label": "D6", "res": true, "com": false, "ind": false, "holc_grade": "D"}, "geometry": {"type": "Polygon", "coordinates": [[[-121.86071, 37.35548], [-121.86161, 37.35484], [-121.86316, 37.35639], [-121.86073, 37.35795], [-121.859093, 37.356353], [-121.85909, 37.35635], [-121.86071, 37.35548]]]}}, {"type": "Feature", "properties": {"area_id": 822, "city": "San Jose", "state": "CA", "city_survey": true, "cat": "Hazardous", "grade": "D", "label": "D7", "res": true, "com": false, "ind": false, "holc_grade": "D"}, "geometry": {"type": "Polygon", "coordinates": [[[-121.93184, 37.31623], [-121.931843, 37.317052], [-121.931844, 37.317126], [-121.931855, 37.319856], [-121.93187, 37.32345], [-121.94057, 37.32336], [-121.94054, 37.32693], [-121.93516, 37.32683], [-121.93201, 37.32683], [-121.92708, 37.32693], [-121.926896, 37.326946], [-121.92547, 37.32707], [-121.92521, 37.32681], [-121.92526, 37.32344], [-121.91375, 37.3235], [-121.91375, 37.323489], [-121.913747, 37.323307], [-121.91364, 37.31644], [-121.914461, 37.316421], [-121.917748, 37.316346], [-121.92371, 37.31621], [-121.931837, 37.31623], [-121.93184, 37.31623]]]}}, {"type": "Feature", "properties": {"area_id": 823, "city": "San Jose", "state": "CA", "city_survey": true, "cat": "Hazardous", "grade": "D", "label": "D8", "res": true, "com": false, "ind": false, "holc_grade": "D"}, "geometry": {"type": "Polygon", "coordinates": [[[-121.91164, 37.3256], [-121.90351, 37.32583], [-121.90337, 37.32385], [-121.90755, 37.32366], [-121.90739, 37.32188], [-121.90855, 37.32184], [-121.9085, 37.32099], [-121.91116, 37.32086], [-121.91095, 37.31479], [-121.91364, 37.31472], [-121.91364, 37.31644], [-121.913747, 37.323307], [-121.91375, 37.323489], [-121.91375, 37.3235], [-121.91385, 37.3259], [-121.913791, 37.325902], [-121.91164, 37.32599], [-121.91164, 37.3256]]]}}, {"type": "Feature", "properties": {"area_id": 838, "city": "San Jose", "state": "CA", "city_survey": true, "cat": "Hazardous", "grade": "D", "label": "D9", "res": true, "com": false, "ind": false, "holc_grade": "D"}, "geometry": {"type": "Polygon", "coordinates": [[[-121.870247, 37.340664], [-121.87033, 37.3411], [-121.87098, 37.3425], [-121.86553, 37.34586], [-121.86453, 37.344228], [-121.86447, 37.34413], [-121.864233, 37.343416], [-121.86387, 37.34232], [-121.86387, 37.34029], [-121.86851, 37.33726], [-121.86946, 37.33795], [-121.86989, 37.33879], [-121.869905, 37.338869], [-121.870024, 37.339492], [-121.870247, 37.340664]]]}}, {"type": "Feature", "properties": {"area_id": 11150, "city": "San Jose", "state": "CA", "city_survey": true, "cat": "Commercial", "grade": null, "label": "Commercial", "res": false, "com": true, "ind": false, "holc_grade": null}, "geometry": {"type": "MultiPolygon", "coordinates": [[[[-121.856702, 37.353898], [-121.8566, 37.35395], [-121.855504, 37.352815], [-121.85467, 37.35195], [-121.854714, 37.35193], [-121.860921, 37.349057], [-121.86178, 37.34866], [-121.86274, 37.349375], [-121.8637, 37.35009], [-121.862504, 37.350759], [-121.85907, 37.35268], [-121.856702, 37.353898]]], [[[-121.86601, 37.34656], [-121.87152, 37.34412], [-121.872378, 37.344807], [-121.87328, 37.34553], [-121.86588, 37.34918], [-121.865257, 37.348182], [-121.86465, 37.34721], [-121.86601, 37.34656]]], [[[-121.86688, 37.3251], [-121.86659, 37.32465], [-121.86957, 37.32329], [-121.87258, 37.32191], [-121.87334, 37.32284], [-121.8727, 37.32319], [-121.87018, 37.32435], [-121.86731, 37.32567], [-121.86688, 37.3251]]], [[[-121.89672, 37.31158], [-121.89442, 37.31302], [-121.892, 37.31431], [-121.88799, 37.31633], [-121.887961, 37.316346], [-121.88445, 37.31832], [-121.88346, 37.31889], [-121.88528, 37.32136], [-121.88808, 37.3254], [-121.88652, 37.32613], [-121.88386, 37.32224], [-121.88203, 37.31971], [-121.88052, 37.32057], [-121.879998, 37.320203], [-121.87958, 37.31991], [-121.88141, 37.31887], [-121.87745, 37.31461], [-121.87887, 37.31401], [-121.88273, 37.31807], [-121.88719, 37.315543], [-121.88956, 37.3142], [-121.89292, 37.31245], [-121.89693, 37.30994], [-121.897194, 37.31023], [-121.89782, 37.31092], [-121.89672, 37.31158]]], [[[-121.89239, 37.328988], [-121.89893, 37.33399], [-121.89622, 37.33672], [-121.89803, 37.33816], [-121.896717, 37.339176], [-121.894232, 37.341097], [-121.89291, 37.34212], [-121.89206, 37.34099], [-121.8914, 37.3413], [-121.88915, 37.33829], [-121.8874, 37.33913], [-121.886361, 37.338165], [-121.88585, 37.33769], [-121.88711, 37.33712], [-121.88608, 37.33576], [-121.88402, 37.33296], [-121.88501, 37.33251], [-121.88318, 37.32996], [-121.88444, 37.32938], [-121.88503, 37.32911], [-121.885696, 37.329636], [-121.88611, 37.329963], [-121.88755, 37.3311], [-121.88829, 37.330768], [-121.89234, 37.32895], [-121.89239, 37.328988]]], [[[-121.89917, 37.30631], [-121.89868, 37.30646], [-121.89752, 37.30499], [-121.89659, 37.30408], [-121.897414, 37.30369], [-121.89946, 37.30272], [-121.90035, 37.30394], [-121.9013, 37.30525], [-121.899445, 37.306173], [-121.89917, 37.30631]]], [[[-121.9127, 37.32754], [-121.91279, 37.33121], [-121.91475, 37.33291], [-121.91338, 37.33376], [-121.91163, 37.33228], [-121.90461, 37.33256], [-121.905719, 37.331773], [-121.90737, 37.3306], [-121.90741, 37.33115], [-121.91104, 37.331], [-121.9109, 37.32856], [-121.911726, 37.328092], [-121.9127, 37.32754]]], [[[-121.9319, 37.34919], [-121.93132, 37.34527], [-121.93139, 37.34436], [-121.93128, 37.34365], [-121.93128, 37.34364], [-121.93533, 37.34477], [-121.93734, 37.34545], [-121.93949, 37.34819], [-121.93857, 37.34835], [-121.940458, 37.351227], [-121.94046, 37.35123], [-121.94346, 37.35027], [-121.943408, 37.350177], [-121.94314, 37.3497], [-121.943182, 37.349686], [-121.94489, 37.34911], [-121.94898, 37.34766], [-121.949272, 37.348064], [-121.94932, 37.34813], [-121.94968, 37.34872], [-121.949643, 37.348733], [-121.94382, 37.35085], [-121.94027, 37.35208], [-121.939876, 37.351436], [-121.93936, 37.35059], [-121.93669, 37.34673], [-121.936, 37.34697], [-121.93468, 37.34744], [-121.93335, 37.34886], [-121.9319, 37.34919]]]]}}, {"type": "Feature", "properties": {"area_id": 11149, "city": "San Jose", "state": "CA", "city_survey": true, "cat": "Industrial", "grade": null, "label": "Industrial", "res": false, "com": false, "ind": true, "holc_grade": null}, "geometry": {"type": "MultiPolygon", "coordinates": [[[[-121.86387, 37.34029], [-121.86387, 37.34232], [-121.864233, 37.343416], [-121.86447, 37.34413], [-121.86453, 37.344228], [-121.86553, 37.34586], [-121.86601, 37.34656], [-121.86465, 37.34721], [-121.865257, 37.348182], [-121.86588, 37.34918], [-121.86921, 37.35235], [-121.866261, 37.354325], [-121.86606, 37.35446], [-121.8643, 37.35264], [-121.864382, 37.352578], [-121.86544, 37.35178], [-121.8637, 37.35009], [-121.86274, 37.349375], [-121.86178, 37.34866], [-121.86068, 37.34703], [-121.86275, 37.34613], [-121.862729, 37.345087], [-121.86268, 37.34263], [-121.85942, 37.34463], [-121.85755, 37.34273], [-121.86109, 37.34041], [-121.862048, 37.341181], [-121.86222, 37.34132], [-121.86387, 37.34029]]], [[[-121.881843, 37.341778], [-121.87886, 37.3432], [-121.87917, 37.34353], [-121.87569, 37.34526], [-121.87442, 37.34582], [-121.874178, 37.345598], [-121.87382, 37.34527], [-121.87328, 37.34553], [-121.872378, 37.344807], [-121.87152, 37.34412], [-121.87288, 37.34352], [-121.873379, 37.343295], [-121.87908, 37.34073], [-121.880566, 37.340063], [-121.88585, 37.33769], [-121.886361, 37.338165], [-121.8874, 37.33913], [-121.881843, 37.341778]]], [[[-121.87459, 37.31599], [-121.87958, 37.31991], [-121.879998, 37.320203], [-121.88052, 37.32057], [-121.88204, 37.32184], [-121.8852, 37.32656], [-121.883891, 37.327137], [-121.88318, 37.32745], [-121.88127, 37.32506], [-121.87979, 37.32295], [-121.879787, 37.322947], [-121.87511, 37.31863], [-121.873111, 37.316805], [-121.87293, 37.31664], [-121.873819, 37.316292], [-121.87458, 37.315994], [-121.87459, 37.31599]]], [[[-121.89393, 37.35791], [-121.89284, 37.35843], [-121.88965, 37.35415], [-121.89073, 37.35362], [-121.89071, 37.353593], [-121.88915, 37.35148], [-121.8901, 37.35099], [-121.886904, 37.346702], [-121.88618, 37.34573], [-121.8851, 37.34426], [-121.88617, 37.34377], [-121.887994, 37.346184], [-121.89275, 37.35248], [-121.89387, 37.35205], [-121.893894, 37.352086], [-121.89534, 37.35422], [-121.89755, 37.35722], [-121.89501, 37.35937], [-121.89393, 37.35791]]], [[[-121.89096, 37.35932], [-121.89061, 37.35949], [-121.887328, 37.355203], [-121.88731, 37.35518], [-121.88579, 37.35308], [-121.88626, 37.35284], [-121.88672, 37.35262], [-121.888314, 37.354735], [-121.89155, 37.35903], [-121.89096, 37.35932]]], [[[-121.91364, 37.31472], [-121.91095, 37.31479], [-121.91116, 37.32086], [-121.9085, 37.32099], [-121.90855, 37.32184], [-121.90739, 37.32188], [-121.90755, 37.32366], [-121.90337, 37.32385], [-121.90351, 37.32583], [-121.91164, 37.3256], [-121.91164, 37.32599], [-121.911642, 37.326006], [-121.91173, 37.32677], [-121.91163, 37.326773], [-121.90712, 37.32692], [-121.90737, 37.3306], [-121.905719, 37.331773], [-121.90461, 37.33256], [-121.90893, 37.336545], [-121.90926, 37.33685], [-121.909263, 37.336848], [-121.90995, 37.33642], [-121.914004, 37.340185], [-121.916, 37.34204], [-121.915416, 37.34248], [-121.91539, 37.3425], [-121.91761, 37.34451], [-121.918182, 37.344116], [-121.92008, 37.34281], [-121.922944, 37.345377], [-121.92423, 37.34653], [-121.923644, 37.346927], [-121.91992, 37.34945], [-121.91876, 37.348372], [-121.91374, 37.34371], [-121.91181, 37.34511], [-121.90851, 37.3422], [-121.90732, 37.34296], [-121.9053, 37.34114], [-121.90236, 37.34315], [-121.90221, 37.34165], [-121.90211, 37.34133], [-121.900684, 37.341783], [-121.895881, 37.343307], [-121.89584, 37.34332], [-121.89427, 37.34392], [-121.893405, 37.342775], [-121.89291, 37.34212], [-121.894232, 37.341097], [-121.896717, 37.339176], [-121.89803, 37.33816], [-121.89622, 37.33672], [-121.89893, 37.33399], [-121.89239, 37.328988], [-121.89234, 37.32895], [-121.892711, 37.328784], [-121.89301, 37.32865], [-121.89111, 37.32738], [-121.89099, 37.32706], [-121.89622, 37.32439], [-121.902653, 37.320942], [-121.90275, 37.32089], [-121.902745, 37.320804], [-121.90265, 37.31915], [-121.902422, 37.318853], [-121.902332, 37.318737], [-121.90195, 37.31824], [-121.9018, 37.31791], [-121.90172, 37.31745], [-121.9024, 37.31645], [-121.9033, 37.31559], [-121.90383, 37.3137], [-121.90398, 37.3126], [-121.904028, 37.312517], [-121.90413, 37.31234], [-121.9059, 37.31172], [-121.90663, 37.31115], [-121.906932, 37.311118], [-121.907545, 37.311054], [-121.90815, 37.31099], [-121.913475, 37.310884], [-121.91369, 37.31088], [-121.91364, 37.31472]]]]}}]}