{"type": "FeatureCollection", "features": [{"type": "Feature", "geometry": {"type": "Point", "coordinates": [-72.716667, 41.616667]}, "properties": {"facility_name": "STANCHEM INC", "industry": null, "tri_facility_id": "06023STNCH401BE"}}, {"type": "Feature", "geometry": {"type": "Point", "coordinates": [-72.85694444444444, 41.753055555555555]}, "properties": {"facility_name": "FARMINGTON READY MIX INC", "industry": null, "tri_facility_id": "06032FRMNG164BR"}}, {"type": "Feature", "geometry": {"type": "Point", "coordinates": [-72.863056, 41.7075]}, "properties": {"facility_name": "HAMILTON SUNDSTRAND CORP", "industry": null, "tri_facility_id": "06032HMLTN1690N"}}, {"type": "Feature", "geometry": {"type": "Point", "coordinates": [-72.852778, 41.702222]}, "properties": {"facility_name": "STANLEY ACCESS TECHS", "industry": null, "tri_facility_id": "06032STNLYROUTE"}}, {"type": "Feature", "geometry": {"type": "Point", "coordinates": [-72.82666666666667, 41.703611111111115]}, "properties": {"facility_name": "TILCON CONNECTICUT INC", "industry": null, "tri_facility_id": "06032TLCNC322CO"}}, {"type": "Feature", "geometry": {"type": "Point", "coordinates": [-72.74083333333333, 41.632222222222225]}, "properties": {"facility_name": "DEBURRING LABORATORIES INC.", "industry": null, "tri_facility_id": "06037DBRRN73WDL"}}, {"type": "Feature", "geometry": {"type": "Point", "coordinates": [-72.74972222222222, 41.63333333333333]}, "properties": {"facility_name": "HOKE INC NEW ENGLAND DIV", "industry": null, "tri_facility_id": "06037HKNCN76FUL"}}, {"type": "Feature", "geometry": {"type": "Point", "coordinates": [-72.7461, 41.6399]}, "properties": {"facility_name": "HOKE INC NEW ENGLAND DIV", "industry": null, "tri_facility_id": "06037HKNCN93DEM"}}, {"type": "Feature", "geometry": {"type": "Point", "coordinates": [-72.75, 41.65]}, "properties": {"facility_name": "BODYCOTE THERMAL PROCESSING", "industry": null, "tri_facility_id": "06037LNDBR675CH"}}, {"type": "Feature", "geometry": {"type": "Point", "coordinates": [-72.7363, 41.6472]}, "properties": {"facility_name": "ASSA ABLOY ACCESS & EGRESS HARDWARE GROUP - CORBIN RUSSWIN", "industry": null, "tri_facility_id": "06037MHRTN225EP"}}, {"type": "Feature", "geometry": {"type": "Point", "coordinates": [-72.761111, 41.636111]}, "properties": {"facility_name": "ARKEMA INC.", "industry": null, "tri_facility_id": "06037RHMNDOLDBR"}}, {"type": "Feature", "geometry": {"type": "Point", "coordinates": [-72.766667, 41.631944]}, "properties": {"facility_name": "INDALEX INC", "industry": null, "tri_facility_id": "06037SCLMN500FO"}}, {"type": "Feature", "geometry": {"type": "Point", "coordinates": [-72.75194444444445, 41.629444444444445]}, "properties": {"facility_name": "TRI-STAR INDUSTRIES INC", "industry": null, "tri_facility_id": "06037TRSTR101MA"}}, {"type": "Feature", "geometry": {"type": "Point", "coordinates": [-72.71222222222222, 41.717222222222226]}, "properties": {"facility_name": "TILCON CONNECTICUT INC", "industry": null, "tri_facility_id": "06040TLCNC301HA"}}, {"type": "Feature", "geometry": {"type": "Point", "coordinates": [-72.758333, 41.6575]}, "properties": {"facility_name": "OKAY INDUSTRIES INC", "industry": null, "tri_facility_id": "06050KYNDS200EL"}}, {"type": "Feature", "geometry": {"type": "Point", "coordinates": [-72.75833333333334, 41.666666666666664]}, "properties": {"facility_name": "PETER PAUL ELECTRONICS CO INC", "industry": null, "tri_facility_id": "06050PTRPL480JO"}}, {"type": "Feature", "geometry": {"type": "Point", "coordinates": [-72.762222, 41.653056]}, "properties": {"facility_name": "REFLEXITE CORP", "industry": null, "tri_facility_id": "06050RFLXT315SO"}}, {"type": "Feature", "geometry": {"type": "Point", "coordinates": [-72.7942, 41.668861]}, "properties": {"facility_name": "STANLEY WORKS HARDWARE DIV", "industry": null, "tri_facility_id": "06050THSTN195LA"}}, {"type": "Feature", "geometry": {"type": "Point", "coordinates": [-72.798611, 41.67]}, "properties": {"facility_name": "STANLEY WORKS HAND TOOLS DIV.", "industry": null, "tri_facility_id": "06050THSTN600MY"}}, {"type": "Feature", "geometry": {"type": "Point", "coordinates": [-72.83277777777778, 41.668055555555554]}, "properties": {"facility_name": "TILCON CONNECTICUT INC.", "industry": null, "tri_facility_id": "06050TLCNC642BL"}}, {"type": "Feature", "geometry": {"type": "Point", "coordinates": [-72.7786, 41.6779]}, "properties": {"facility_name": "TORRINGTON CO", "industry": null, "tri_facility_id": "06050TRRNG37BOO"}}, {"type": "Feature", "geometry": {"type": "Point", "coordinates": [-72.821389, 41.656944]}, "properties": {"facility_name": "ACME-MONACO CORP", "industry": null, "tri_facility_id": "06051CMMNC75WIN"}}, {"type": "Feature", "geometry": {"type": "Point", "coordinates": [-72.76277777777777, 41.65361111111111]}, "properties": {"facility_name": "COMMERCIAL FOUNDRY COS", "industry": null, "tri_facility_id": "06051CMMRC326SS"}}, {"type": "Feature", "geometry": {"type": "Point", "coordinates": [-72.773611, 41.660278]}, "properties": {"facility_name": "CREED MONARCH INC", "industry": null, "tri_facility_id": "06051CRDMN1PUCC"}}, {"type": "Feature", "geometry": {"type": "Point", "coordinates": [-72.75, 41.658333]}, "properties": {"facility_name": "DEBURRING LABORATORIES INC", "industry": null, "tri_facility_id": "06051DBRRN365JO"}}, {"type": "Feature", "geometry": {"type": "Point", "coordinates": [-72.768889, 41.656944]}, "properties": {"facility_name": "GUIDA DAIRY", "industry": null, "tri_facility_id": "06051GDSBR433PA"}}, {"type": "Feature", "geometry": {"type": "Point", "coordinates": [-72.752778, 41.654167]}, "properties": {"facility_name": "EM COATING SERVICES", "industry": null, "tri_facility_id": "06051MCRPRONEJO"}}, {"type": "Feature", "geometry": {"type": "Point", "coordinates": [-72.754167, 41.672222]}, "properties": {"facility_name": "MARSAM METAL FINISHING CO.", "industry": null, "tri_facility_id": "06051MCRST206NE"}}, {"type": "Feature", "geometry": {"type": "Point", "coordinates": [-72.7552, 41.6687]}, "properties": {"facility_name": "METALFORM CO INC.", "industry": null, "tri_facility_id": "06051MTLFR555JO"}}, {"type": "Feature", "geometry": {"type": "Point", "coordinates": [-72.769722, 41.665556]}, "properties": {"facility_name": "PAPE ELECTROPLATING CO. LLC", "industry": null, "tri_facility_id": "06051PPLCT410JO"}}, {"type": "Feature", "geometry": {"type": "Point", "coordinates": [-72.770833, 41.645833]}, "properties": {"facility_name": "PARKER HANNIFIN FLUID CONTROL DIV", "industry": null, "tri_facility_id": "06051SKNNR95EDG"}}, {"type": "Feature", "geometry": {"type": "Point", "coordinates": [-72.773056, 41.653611]}, "properties": {"facility_name": "ASSOCIATED PLATING CO", "industry": null, "tri_facility_id": "06051SSCTD50PET"}}, {"type": "Feature", "geometry": {"type": "Point", "coordinates": [-72.770833, 41.670833]}, "properties": {"facility_name": "ITT CANNON RF PRODS", "industry": null, "tri_facility_id": "06051TTSLC585EM"}}, {"type": "Feature", "geometry": {"type": "Point", "coordinates": [-72.768333, 41.685278]}, "properties": {"facility_name": "WINSLOW AUTOMATICS INC.", "industry": null, "tri_facility_id": "06051WNSLW23STC"}}, {"type": "Feature", "geometry": {"type": "Point", "coordinates": [-72.7992, 41.6663]}, "properties": {"facility_name": "COLD METAL PRODUCTS INC", "industry": null, "tri_facility_id": "06053CLDMT65BUR"}}, {"type": "Feature", "geometry": {"type": "Point", "coordinates": [-72.803889, 41.668333]}, "properties": {"facility_name": "ACME PACKAGING CORP NEW BRITAIN", "industry": null, "tri_facility_id": "06053NFRMP1303C"}}, {"type": "Feature", "geometry": {"type": "Point", "coordinates": [-72.8586, 41.6723]}, "properties": {"facility_name": "GENERAL ELECTRIC CO", "industry": null, "tri_facility_id": "06062GNRLL41WOO"}}, {"type": "Feature", "geometry": {"type": "Point", "coordinates": [-72.862778, 41.664444]}, "properties": {"facility_name": "JOB PLATING CO INC", "industry": null, "tri_facility_id": "06062THJBP138EA"}}, {"type": "Feature", "geometry": {"type": "Point", "coordinates": [-72.852778, 41.705]}, "properties": {"facility_name": "TOPPER & GRIGGS INC", "industry": null, "tri_facility_id": "06062TPPRG339CO"}}, {"type": "Feature", "geometry": {"type": "Point", "coordinates": [-72.870278, 41.695556]}, "properties": {"facility_name": "WASLEY PRODUCTS INC", "industry": null, "tri_facility_id": "06062WSLYPSPRIN"}}, {"type": "Feature", "geometry": {"type": "Point", "coordinates": [-72.728611, 41.7275]}, "properties": {"facility_name": "ABBOTT BALL CO INC", "industry": null, "tri_facility_id": "06110BBTTBRAILR"}}, {"type": "Feature", "geometry": {"type": "Point", "coordinates": [-72.716667, 41.733333]}, "properties": {"facility_name": "TRIUMPH ENGINE CONTROL SYSTEMS LLC", "industry": null, "tri_facility_id": "06110CHNDLCHART"}}, {"type": "Feature", "geometry": {"type": "Point", "coordinates": [-72.7208, 41.7375]}, "properties": {"facility_name": "COLT'S MANUFACTURING CO LLC", "industry": null, "tri_facility_id": "06110CLTND545NE"}}, {"type": "Feature", "geometry": {"type": "Point", "coordinates": [-72.7255, 41.7241]}, "properties": {"facility_name": "HARTFORD COMPRESSORS  INC", "industry": null, "tri_facility_id": "06110DNHMB179SO"}}, {"type": "Feature", "geometry": {"type": "Point", "coordinates": [-72.733333, 41.726111]}, "properties": {"facility_name": "DANAHER TOOL GROUP", "industry": null, "tri_facility_id": "06110HLKRM31BRO"}}, {"type": "Feature", "geometry": {"type": "Point", "coordinates": [-72.723889, 41.733889]}, "properties": {"facility_name": "HAR-CONN CHROME CO", "industry": null, "tri_facility_id": "06110HRCNN603NE"}}, {"type": "Feature", "geometry": {"type": "Point", "coordinates": [-72.71833333333333, 41.737500000000004]}, "properties": {"facility_name": "NUTMEG CHROME CORP", "industry": null, "tri_facility_id": "06110NTMGC111VA"}}, {"type": "Feature", "geometry": {"type": "Point", "coordinates": [-72.728889, 41.726944]}, "properties": {"facility_name": "WIREMOLD CO", "industry": null, "tri_facility_id": "06110THWRM60WOO"}}, {"type": "Feature", "geometry": {"type": "Point", "coordinates": [-72.75, 41.708333]}, "properties": {"facility_name": "COMPONENT TECHNOLOGIES INC", "industry": null, "tri_facility_id": "06111CMPNN68HOL"}}, {"type": "Feature", "geometry": {"type": "Point", "coordinates": [-72.709167, 41.719722]}, "properties": {"facility_name": "CUSTOM METAL CRAFTERS INC", "industry": null, "tri_facility_id": "06111CSTMM815NO"}}, {"type": "Feature", "geometry": {"type": "Point", "coordinates": [-72.73, 41.660278]}, "properties": {"facility_name": "HANWHA AEROSPACE USA LLC", "industry": null, "tri_facility_id": "06111CVLTL275RI"}}, {"type": "Feature", "geometry": {"type": "Point", "coordinates": [-72.750848, 41.672482]}, "properties": {"facility_name": "MTU AERO ENGINE COMPONENTS INC", "industry": null, "tri_facility_id": "06111CVLTL665NE"}}, {"type": "Feature", "geometry": {"type": "Point", "coordinates": [-72.71805555555555, 41.72166666666667]}, "properties": {"facility_name": "ADVANCED ADHESIVE SYSTEMS INC", "industry": null, "tri_facility_id": "06111DVNCD681NM"}}, {"type": "Feature", "geometry": {"type": "Point", "coordinates": [-72.746667, 41.705833]}, "properties": {"facility_name": "FENN MANUFACTURING CO", "industry": null, "tri_facility_id": "06111FNNMFFENNR"}}, {"type": "Feature", "geometry": {"type": "Point", "coordinates": [-72.752778, 41.704167]}, "properties": {"facility_name": "SAPUTO CHEESE USA INC.", "industry": null, "tri_facility_id": "06111HPHDN100MI"}}, {"type": "Feature", "geometry": {"type": "Point", "coordinates": [-72.720833, 41.695833]}, "properties": {"facility_name": "KEENEY MANUFACTURING CO INC", "industry": null, "tri_facility_id": "06111KNYMN1170M"}}, {"type": "Feature", "geometry": {"type": "Point", "coordinates": [-72.718056, 41.721667]}, "properties": {"facility_name": "LOCTITE CORP", "industry": null, "tri_facility_id": "06111LCTTC705NO"}}, {"type": "Feature", "geometry": {"type": "Point", "coordinates": [-72.7125, 41.723056]}, "properties": {"facility_name": "LOCTITE CORP", "industry": null, "tri_facility_id": "06111LCTTC825NO"}}, {"type": "Feature", "geometry": {"type": "Point", "coordinates": [-72.73083333333334, 41.72138888888889]}, "properties": {"facility_name": "INTERNATIONAL BRIDGE & IRON CO", "industry": null, "tri_facility_id": "06111NTRNT90DAY"}}, {"type": "Feature", "geometry": {"type": "Point", "coordinates": [-72.75, 41.683333]}, "properties": {"facility_name": "BEACON INDUSTRIES INC", "industry": null, "tri_facility_id": "06111TLNTC549CE"}}, {"type": "Feature", "geometry": {"type": "Point", "coordinates": [-72.738889, 41.705556]}, "properties": {"facility_name": "TORRINGTON CO", "industry": null, "tri_facility_id": "06111TRRNG475WI"}}, {"type": "Feature", "geometry": {"type": "Point", "coordinates": [-72.713889, 41.606667]}, "properties": {"facility_name": "BONDED TECH", "industry": null, "tri_facility_id": "06416BNDDTALCAP"}}, {"type": "Feature", "geometry": {"type": "Point", "coordinates": [-72.706667, 41.616111]}, "properties": {"facility_name": "AEROSPACE TECHNIQUES INC", "industry": null, "tri_facility_id": "06416RSPCT5PASC"}}]}