{"type": "FeatureCollection", "features": [{"type": "Feature", "properties": {"area_id": 5365, "city": "Racine", "state": "WI", "city_survey": true, "cat": "Best", "grade": "A", "label": "A1", "res": true, "com": false, "ind": false, "holc_grade": "A"}, "geometry": {"type": "Polygon", "coordinates": [[[-87.78124, 42.75247], [-87.78418, 42.75243], [-87.78379, 42.75382], [-87.78343, 42.75546], [-87.783422, 42.755493], [-87.78317, 42.75653], [-87.78278, 42.76054], [-87.78257, 42.76276], [-87.78216, 42.76639], [-87.77725, 42.76639], [-87.77739, 42.763988], [-87.77741, 42.76364], [-87.777439, 42.76359], [-87.777608, 42.763301], [-87.777777, 42.76301], [-87.778017, 42.762599], [-87.77822, 42.76225], [-87.77827, 42.7619], [-87.778481, 42.761389], [-87.77895, 42.76025], [-87.77906, 42.7597], [-87.779058, 42.759646], [-87.77905, 42.75934], [-87.77916, 42.75902], [-87.77912, 42.7585], [-87.77925, 42.75807], [-87.77924, 42.75769], [-87.77959, 42.75675], [-87.78019, 42.7554], [-87.780748, 42.754119], [-87.7808, 42.754], [-87.78092, 42.75375], [-87.78124, 42.75247]]]}}, {"type": "Feature", "properties": {"area_id": 5362, "city": "Racine", "state": "WI", "city_survey": true, "cat": "Still Desirable", "grade": "B", "label": "B1", "res": true, "com": false, "ind": false, "holc_grade": "B"}, "geometry": {"type": "Polygon", "coordinates": [[[-87.78413, 42.75154], [-87.78444, 42.75128], [-87.78608, 42.75123], [-87.787119, 42.751363], [-87.78717, 42.75137], [-87.79193, 42.75133], [-87.7969, 42.75128], [-87.79692, 42.75545], [-87.78966, 42.75549], [-87.787146, 42.755469], [-87.78614, 42.75546], [-87.786139, 42.755495], [-87.78589, 42.76275], [-87.78257, 42.76276], [-87.78278, 42.76054], [-87.78317, 42.75653], [-87.783422, 42.755493], [-87.78343, 42.75546], [-87.78379, 42.75382], [-87.78418, 42.75243], [-87.78124, 42.75247], [-87.781355, 42.751779], [-87.78139, 42.75157], [-87.781429, 42.75157], [-87.78413, 42.75154]]]}}, {"type": "Feature", "properties": {"area_id": 5356, "city": "Racine", "state": "WI", "city_survey": true, "cat": "Still Desirable", "grade": "B", "label": "B10", "res": true, "com": false, "ind": false, "holc_grade": "B"}, "geometry": {"type": "Polygon", "coordinates": [[[-87.816454, 42.689638], [-87.82336, 42.68951], [-87.82341, 42.6906], [-87.82398, 42.69033], [-87.82607, 42.69], [-87.82609, 42.69367], [-87.82507, 42.69362], [-87.82113, 42.6933], [-87.81977, 42.69311], [-87.81652, 42.69318], [-87.816475, 42.692118], [-87.81637, 42.68964], [-87.816454, 42.689638]]]}}, {"type": "Feature", "properties": {"area_id": 5361, "city": "Racine", "state": "WI", "city_survey": true, "cat": "Still Desirable", "grade": "B", "label": "B2", "res": true, "com": false, "ind": false, "holc_grade": "B"}, "geometry": {"type": "MultiPolygon", "coordinates": [[[[-87.78265, 42.74237], [-87.78287, 42.7424], [-87.78273, 42.74671], [-87.78243, 42.74671], [-87.78265, 42.74237]]], [[[-87.791797, 42.747702], [-87.79188, 42.7477], [-87.79699, 42.74765], [-87.79689, 42.74908], [-87.7969, 42.75128], [-87.79193, 42.75133], [-87.78717, 42.75137], [-87.787119, 42.751363], [-87.78608, 42.75123], [-87.78444, 42.75128], [-87.78413, 42.75154], [-87.78482, 42.74941], [-87.78491, 42.74777], [-87.78684, 42.74783], [-87.787095, 42.747823], [-87.790206, 42.747743], [-87.791797, 42.747702]]]]}}, {"type": "Feature", "properties": {"area_id": 5337, "city": "Racine", "state": "WI", "city_survey": true, "cat": "Still Desirable", "grade": "B", "label": "B3", "res": true, "com": false, "ind": false, "holc_grade": "B"}, "geometry": {"type": "Polygon", "coordinates": [[[-87.826185, 42.720193], [-87.82633, 42.72488], [-87.82635, 42.726], [-87.82143, 42.72605], [-87.82028, 42.72606], [-87.81922, 42.72607], [-87.819189, 42.724516], [-87.81915, 42.72252], [-87.81856, 42.72254], [-87.818552, 42.72023], [-87.81853, 42.71379], [-87.826045, 42.71376], [-87.82609, 42.71376], [-87.82614, 42.71875], [-87.826185, 42.720193]]]}}, {"type": "Feature", "properties": {"area_id": 5336, "city": "Racine", "state": "WI", "city_survey": true, "cat": "Still Desirable", "grade": "B", "label": "B4", "res": true, "com": false, "ind": false, "holc_grade": "B"}, "geometry": {"type": "Polygon", "coordinates": [[[-87.83626, 42.720138], [-87.83634, 42.72591], [-87.83118, 42.72596], [-87.83111, 42.72492], [-87.82633, 42.72488], [-87.826185, 42.720193], [-87.82614, 42.71875], [-87.82738, 42.71875], [-87.82738, 42.71912], [-87.83346, 42.71905], [-87.83348, 42.71875], [-87.836, 42.718723], [-87.83624, 42.71872], [-87.83626, 42.720138]]]}}, {"type": "Feature", "properties": {"area_id": 5369, "city": "Racine", "state": "WI", "city_survey": true, "cat": "Still Desirable", "grade": "B", "label": "B5", "res": true, "com": false, "ind": false, "holc_grade": "B"}, "geometry": {"type": "Polygon", "coordinates": [[[-87.81099, 42.70427], [-87.81542, 42.7001], [-87.81546, 42.70431], [-87.81549, 42.707902], [-87.8155, 42.70904], [-87.8111, 42.70942], [-87.811094, 42.709025], [-87.81102, 42.70427], [-87.81099, 42.70427]]]}}, {"type": "Feature", "properties": {"area_id": 5352, "city": "Racine", "state": "WI", "city_survey": true, "cat": "Still Desirable", "grade": "B", "label": "B6", "res": true, "com": false, "ind": false, "holc_grade": "B"}, "geometry": {"type": "MultiPolygon", "coordinates": [[[[-87.81099, 42.70427], [-87.80613, 42.70431], [-87.80608, 42.69709], [-87.80795, 42.69709], [-87.80798, 42.69709], [-87.81123, 42.69709], [-87.81126, 42.69709], [-87.81542, 42.69709], [-87.81542, 42.7001], [-87.81099, 42.70427]]], [[[-87.8192, 42.69578], [-87.81833, 42.696897], [-87.81825, 42.697], [-87.81758, 42.69701], [-87.81638, 42.69706], [-87.816386, 42.696906], [-87.81647, 42.69481], [-87.8192, 42.69578]]]]}}, {"type": "Feature", "properties": {"area_id": 5367, "city": "Racine", "state": "WI", "city_survey": true, "cat": "Still Desirable", "grade": "B", "label": "B8", "res": true, "com": false, "ind": false, "holc_grade": "B"}, "geometry": {"type": "Polygon", "coordinates": [[[-87.84335, 42.75174], [-87.843464, 42.75529], [-87.84347, 42.75547], [-87.836441, 42.754956], [-87.83636, 42.75495], [-87.836353, 42.754752], [-87.83624, 42.75154], [-87.84335, 42.75174]]]}}, {"type": "Feature", "properties": {"area_id": 5368, "city": "Racine", "state": "WI", "city_survey": true, "cat": "Still Desirable", "grade": "B", "label": "B9", "res": true, "com": false, "ind": false, "holc_grade": "B"}, "geometry": {"type": "Polygon", "coordinates": [[[-87.84016, 42.73302], [-87.83859, 42.73662], [-87.84594, 42.73695], [-87.846019, 42.736928], [-87.84627, 42.73686], [-87.846269, 42.737132], [-87.84625, 42.74255], [-87.83633, 42.74226], [-87.83609, 42.742304], [-87.836, 42.74232], [-87.83736, 42.73852], [-87.83812, 42.7369], [-87.83605, 42.73683], [-87.83127, 42.73622], [-87.831258, 42.735958], [-87.83113, 42.73316], [-87.8398, 42.73297], [-87.84016, 42.73302]]]}}, {"type": "Feature", "properties": {"area_id": 5363, "city": "Racine", "state": "WI", "city_survey": true, "cat": "Definitely Declining", "grade": "C", "label": "C1", "res": true, "com": false, "ind": false, "holc_grade": "C"}, "geometry": {"type": "Polygon", "coordinates": [[[-87.79692, 42.75545], [-87.798683, 42.755473], [-87.8016, 42.75551], [-87.80204, 42.75748], [-87.79882, 42.75752], [-87.78966, 42.75757], [-87.78959, 42.7628], [-87.78589, 42.76275], [-87.786139, 42.755495], [-87.78614, 42.75546], [-87.787146, 42.755469], [-87.78966, 42.75549], [-87.79692, 42.75545]]]}}, {"type": "Feature", "properties": {"area_id": 5353, "city": "Racine", "state": "WI", "city_survey": true, "cat": "Definitely Declining", "grade": "C", "label": "C10", "res": true, "com": false, "ind": false, "holc_grade": "C"}, "geometry": {"type": "Polygon", "coordinates": [[[-87.80834, 42.70763], [-87.80618, 42.70688], [-87.80613, 42.70431], [-87.81099, 42.70427], [-87.81102, 42.70427], [-87.811094, 42.709025], [-87.8111, 42.70942], [-87.8111, 42.70943], [-87.806746, 42.709808], [-87.80672, 42.70981], [-87.806778, 42.709733], [-87.807292, 42.709045], [-87.80767, 42.70854], [-87.80834, 42.70763]]]}}, {"type": "Feature", "properties": {"area_id": 5359, "city": "Racine", "state": "WI", "city_survey": true, "cat": "Definitely Declining", "grade": "C", "label": "C11", "res": true, "com": false, "ind": false, "holc_grade": "C"}, "geometry": {"type": "Polygon", "coordinates": [[[-87.79045, 42.70444], [-87.7926, 42.7044], [-87.79254, 42.71079], [-87.78927, 42.71077], [-87.7893, 42.71544], [-87.78942, 42.72225], [-87.789366, 42.723094], [-87.78927, 42.72461], [-87.78931, 42.7246], [-87.78931, 42.72463], [-87.77974, 42.72478], [-87.77977, 42.72435], [-87.78099, 42.72435], [-87.78105, 42.71845], [-87.78238, 42.71843], [-87.78233, 42.71197], [-87.78351, 42.70765], [-87.78806, 42.70758], [-87.789201, 42.70758], [-87.79052, 42.70758], [-87.79045, 42.70444]]]}}, {"type": "Feature", "properties": {"area_id": 5355, "city": "Racine", "state": "WI", "city_survey": true, "cat": "Definitely Declining", "grade": "C", "label": "C12", "res": true, "com": false, "ind": false, "holc_grade": "C"}, "geometry": {"type": "MultiPolygon", "coordinates": [[[[-87.79779, 42.69309], [-87.79981, 42.68857], [-87.80589, 42.68848], [-87.806078, 42.696993], [-87.80608, 42.69709], [-87.80613, 42.70431], [-87.80609, 42.70431], [-87.8014, 42.70431], [-87.79662, 42.70434], [-87.796506, 42.70137], [-87.79634, 42.69702], [-87.79643, 42.69678], [-87.79779, 42.69309]]], [[[-87.811258, 42.696949], [-87.81126, 42.69709], [-87.81123, 42.69709], [-87.80798, 42.69709], [-87.807981, 42.696977], [-87.80801, 42.69316], [-87.81121, 42.69313], [-87.811258, 42.696949]]]]}}, {"type": "Feature", "properties": {"area_id": 5338, "city": "Racine", "state": "WI", "city_survey": true, "cat": "Definitely Declining", "grade": "C", "label": "C13", "res": true, "com": false, "ind": false, "holc_grade": "C"}, "geometry": {"type": "Polygon", "coordinates": [[[-87.836, 42.718723], [-87.83348, 42.71875], [-87.83346, 42.71905], [-87.82738, 42.71912], [-87.82738, 42.71875], [-87.82614, 42.71875], [-87.82609, 42.71376], [-87.82612, 42.71109], [-87.82614, 42.70827], [-87.83586, 42.70719], [-87.835862, 42.707241], [-87.83624, 42.71872], [-87.836, 42.718723]]]}}, {"type": "Feature", "properties": {"area_id": 5366, "city": "Racine", "state": "WI", "city_survey": true, "cat": "Definitely Declining", "grade": "C", "label": "C14", "res": true, "com": false, "ind": false, "holc_grade": "C"}, "geometry": {"type": "Polygon", "coordinates": [[[-87.8134, 42.74454], [-87.81668, 42.74453], [-87.81668, 42.74785], [-87.81353, 42.74785], [-87.8134, 42.74454]]]}}, {"type": "Feature", "properties": {"area_id": 5370, "city": "Racine", "state": "WI", "city_survey": true, "cat": "Definitely Declining", "grade": "C", "label": "C15", "res": true, "com": false, "ind": false, "holc_grade": "C"}, "geometry": {"type": "Polygon", "coordinates": [[[-87.79052, 42.70758], [-87.789201, 42.70758], [-87.78806, 42.70758], [-87.78794, 42.70448], [-87.789161, 42.704461], [-87.79045, 42.70444], [-87.79052, 42.70758]]]}}, {"type": "Feature", "properties": {"area_id": 5344, "city": "Racine", "state": "WI", "city_survey": true, "cat": "Definitely Declining", "grade": "C", "label": "C2", "res": true, "com": false, "ind": false, "holc_grade": "C"}, "geometry": {"type": "Polygon", "coordinates": [[[-87.80698, 42.73707], [-87.80619, 42.73788], [-87.80478, 42.73791], [-87.805, 42.74631], [-87.8068, 42.74708], [-87.806801, 42.74712], [-87.80688, 42.74998], [-87.80692, 42.75544], [-87.801682, 42.755509], [-87.8016, 42.75551], [-87.798683, 42.755473], [-87.79692, 42.75545], [-87.7969, 42.75128], [-87.79689, 42.74908], [-87.79699, 42.74765], [-87.79188, 42.7477], [-87.791797, 42.747702], [-87.790206, 42.747743], [-87.787095, 42.747823], [-87.78684, 42.74783], [-87.78491, 42.74777], [-87.78484, 42.74667], [-87.78273, 42.74671], [-87.78287, 42.7424], [-87.78867, 42.74241], [-87.79052, 42.74233], [-87.7978, 42.74227], [-87.79796, 42.74418], [-87.798485, 42.745736], [-87.79849, 42.74575], [-87.798744, 42.745738], [-87.7991, 42.74572], [-87.799171, 42.74572], [-87.80029, 42.74572], [-87.800268, 42.744701], [-87.80022, 42.74244], [-87.80303, 42.74244], [-87.802841, 42.735487], [-87.80281, 42.73434], [-87.803119, 42.734328], [-87.80361, 42.73431], [-87.80698, 42.73707]]]}}, {"type": "Feature", "properties": {"area_id": 5343, "city": "Racine", "state": "WI", "city_survey": true, "cat": "Definitely Declining", "grade": "C", "label": "C3", "res": true, "com": false, "ind": false, "holc_grade": "C"}, "geometry": {"type": "Polygon", "coordinates": [[[-87.80038, 42.73122], [-87.80139, 42.73122], [-87.80135, 42.73146], [-87.80178, 42.73185], [-87.8023, 42.73181], [-87.80294, 42.73155], [-87.80368, 42.73166], [-87.804007, 42.732036], [-87.80401, 42.73204], [-87.80446, 42.73235], [-87.80511, 42.73255], [-87.8056, 42.7327], [-87.80644, 42.73286], [-87.80651, 42.73386], [-87.8077, 42.73358], [-87.81497, 42.73359], [-87.81502, 42.73415], [-87.81509, 42.73513], [-87.81571, 42.73618], [-87.81735, 42.73696], [-87.80698, 42.73707], [-87.80361, 42.73431], [-87.802042, 42.733027], [-87.8003, 42.7316], [-87.80038, 42.73122]]]}}, {"type": "Feature", "properties": {"area_id": 5342, "city": "Racine", "state": "WI", "city_survey": true, "cat": "Definitely Declining", "grade": "C", "label": "C4", "res": true, "com": false, "ind": false, "holc_grade": "C"}, "geometry": {"type": "Polygon", "coordinates": [[[-87.79643, 42.72413], [-87.796674, 42.724119], [-87.79752, 42.72408], [-87.79805, 42.72403], [-87.79919, 42.7239], [-87.79997, 42.72373], [-87.80059, 42.72368], [-87.80111, 42.72336], [-87.80183, 42.72321], [-87.80247, 42.72307], [-87.80263, 42.72294], [-87.80347, 42.72347], [-87.80532, 42.72149], [-87.80684, 42.7223], [-87.80539, 42.72424], [-87.80503, 42.72502], [-87.80489, 42.72584], [-87.80484, 42.72698], [-87.8043, 42.72806], [-87.80354, 42.72883], [-87.80256, 42.72902], [-87.80199, 42.72895], [-87.80152, 42.72886], [-87.80123, 42.72904], [-87.80135, 42.72956], [-87.80168, 42.73008], [-87.80175, 42.73063], [-87.80142, 42.73103], [-87.80139, 42.73122], [-87.80038, 42.73122], [-87.8003, 42.7316], [-87.79871, 42.7316], [-87.79852, 42.73042], [-87.79816, 42.72939], [-87.79814, 42.72682], [-87.79757, 42.7268], [-87.79733, 42.72649], [-87.79788, 42.72609], [-87.79783, 42.72591], [-87.797081, 42.726], [-87.79691, 42.72602], [-87.79643, 42.72413]]]}}, {"type": "Feature", "properties": {"area_id": 5340, "city": "Racine", "state": "WI", "city_survey": true, "cat": "Definitely Declining", "grade": "C", "label": "C5", "res": true, "com": false, "ind": false, "holc_grade": "C"}, "geometry": {"type": "MultiPolygon", "coordinates": [[[[-87.80532, 42.72621], [-87.80532, 42.72609], [-87.80603, 42.72605], [-87.80608, 42.72623], [-87.80665, 42.72635], [-87.80708, 42.72602], [-87.8081, 42.72546], [-87.80898, 42.72527], [-87.80972, 42.72523], [-87.80974, 42.72616], [-87.81271, 42.72614], [-87.812873, 42.729993], [-87.81288, 42.73015], [-87.81257, 42.73012], [-87.81197, 42.73029], [-87.81188, 42.73237], [-87.81164, 42.73241], [-87.81121, 42.73213], [-87.81095, 42.73185], [-87.81024, 42.73141], [-87.80967, 42.73117], [-87.80905, 42.73099], [-87.80827, 42.7311], [-87.80779, 42.73132], [-87.80751, 42.73157], [-87.806871, 42.731481], [-87.80449, 42.73115], [-87.80487, 42.73084], [-87.80518, 42.73038], [-87.805161, 42.73006], [-87.80515, 42.72988], [-87.80492, 42.7294], [-87.80475, 42.72925], [-87.80472, 42.72904], [-87.80496, 42.72895], [-87.80522, 42.72869], [-87.80546, 42.7283], [-87.80558, 42.72795], [-87.80563, 42.72773], [-87.8057, 42.72741], [-87.80551, 42.72717], [-87.805468, 42.726856], [-87.80546, 42.7268], [-87.80534, 42.72644], [-87.80532, 42.72621]]], [[[-87.81915, 42.72252], [-87.819189, 42.724516], [-87.81922, 42.72607], [-87.82028, 42.72606], [-87.82143, 42.72605], [-87.82162, 42.72949], [-87.820311, 42.729502], [-87.81632, 42.72954], [-87.81632, 42.72914], [-87.81575, 42.72912], [-87.81495, 42.72736], [-87.81575, 42.72591], [-87.81746, 42.72591], [-87.81706, 42.72483], [-87.81685, 42.72425], [-87.81661, 42.72317], [-87.816567, 42.722668], [-87.81656, 42.72258], [-87.81856, 42.72254], [-87.81915, 42.72252]]]]}}, {"type": "Feature", "properties": {"area_id": 5341, "city": "Racine", "state": "WI", "city_survey": true, "cat": "Definitely Declining", "grade": "C", "label": "C6", "res": true, "com": false, "ind": false, "holc_grade": "C"}, "geometry": {"type": "Polygon", "coordinates": [[[-87.80713, 42.72455], [-87.80734, 42.72445], [-87.80943, 42.72259], [-87.81397, 42.72258], [-87.81399, 42.7261], [-87.81271, 42.72614], [-87.80974, 42.72616], [-87.80972, 42.72523], [-87.80898, 42.72527], [-87.8081, 42.72546], [-87.80708, 42.72602], [-87.80665, 42.72635], [-87.80608, 42.72623], [-87.80603, 42.72605], [-87.80713, 42.72455]]]}}, {"type": "Feature", "properties": {"area_id": 5339, "city": "Racine", "state": "WI", "city_survey": true, "cat": "Definitely Declining", "grade": "C", "label": "C7", "res": true, "com": false, "ind": false, "holc_grade": "C"}, "geometry": {"type": "Polygon", "coordinates": [[[-87.82609, 42.71376], [-87.826045, 42.71376], [-87.81853, 42.71379], [-87.818552, 42.72023], [-87.81856, 42.72254], [-87.81656, 42.72258], [-87.816547, 42.720239], [-87.81654, 42.719], [-87.81649, 42.71079], [-87.8173, 42.71079], [-87.81737, 42.71089], [-87.81768, 42.7111], [-87.8182, 42.71121], [-87.82602, 42.711092], [-87.82612, 42.71109], [-87.82609, 42.71376]]]}}, {"type": "Feature", "properties": {"area_id": 5347, "city": "Racine", "state": "WI", "city_survey": true, "cat": "Definitely Declining", "grade": "C", "label": "C8", "res": true, "com": false, "ind": false, "holc_grade": "C"}, "geometry": {"type": "Polygon", "coordinates": [[[-87.80325, 42.71659], [-87.803355, 42.716741], [-87.803373, 42.716766], [-87.80364, 42.71715], [-87.80337, 42.71779], [-87.802938, 42.71843], [-87.80285, 42.71856], [-87.80288, 42.718562], [-87.80515, 42.71871], [-87.805148, 42.718731], [-87.80506, 42.71958], [-87.80488, 42.72007], [-87.80022, 42.71981], [-87.80017, 42.71843], [-87.80108, 42.71843], [-87.80115, 42.71768], [-87.8011, 42.71686], [-87.80166, 42.71686], [-87.803168, 42.716604], [-87.80325, 42.71659]]]}}, {"type": "Feature", "properties": {"area_id": 5348, "city": "Racine", "state": "WI", "city_survey": true, "cat": "Definitely Declining", "grade": "C", "label": "C9", "res": true, "com": false, "ind": false, "holc_grade": "C"}, "geometry": {"type": "Polygon", "coordinates": [[[-87.81542, 42.69709], [-87.816057, 42.69707], [-87.81638, 42.69706], [-87.81758, 42.69701], [-87.81635, 42.6987], [-87.81647, 42.70899], [-87.816471, 42.709047], [-87.81649, 42.71079], [-87.81654, 42.719], [-87.816194, 42.718745], [-87.81471, 42.71765], [-87.81179, 42.71585], [-87.80955, 42.71458], [-87.80862, 42.71433], [-87.80772, 42.71426], [-87.80482, 42.71425], [-87.804539, 42.714252], [-87.80344, 42.71426], [-87.80187, 42.71444], [-87.80195, 42.71236], [-87.80551, 42.71236], [-87.806279, 42.71074], [-87.80672, 42.70981], [-87.806746, 42.709808], [-87.8111, 42.70943], [-87.8111, 42.70942], [-87.8155, 42.70904], [-87.81549, 42.707902], [-87.81546, 42.70431], [-87.81542, 42.7001], [-87.81542, 42.69709]]]}}, {"type": "Feature", "properties": {"area_id": 5364, "city": "Racine", "state": "WI", "city_survey": true, "cat": "Hazardous", "grade": "D", "label": "D1", "res": true, "com": false, "ind": false, "holc_grade": "D"}, "geometry": {"type": "Polygon", "coordinates": [[[-87.79518, 42.76995], [-87.79511, 42.76466], [-87.79192, 42.76465], [-87.79189, 42.76282], [-87.78959, 42.7628], [-87.78966, 42.75757], [-87.79882, 42.75752], [-87.80204, 42.75748], [-87.805107, 42.770028], [-87.80512, 42.77008], [-87.8036, 42.770027], [-87.80284, 42.77], [-87.79518, 42.76995]]]}}, {"type": "Feature", "properties": {"area_id": 5350, "city": "Racine", "state": "WI", "city_survey": true, "cat": "Hazardous", "grade": "D", "label": "D10", "res": true, "com": false, "ind": false, "holc_grade": "D"}, "geometry": {"type": "Polygon", "coordinates": [[[-87.83581, 42.70162], [-87.835859, 42.707134], [-87.83586, 42.70719], [-87.82614, 42.70827], [-87.826139, 42.708181], [-87.82609, 42.70162], [-87.83581, 42.70162]]]}}, {"type": "Feature", "properties": {"area_id": 5360, "city": "Racine", "state": "WI", "city_survey": true, "cat": "Hazardous", "grade": "D", "label": "D2", "res": true, "com": false, "ind": false, "holc_grade": "D"}, "geometry": {"type": "Polygon", "coordinates": [[[-87.79856, 42.73437], [-87.79856, 42.737792], [-87.79856, 42.740346], [-87.79856, 42.740482], [-87.79856, 42.74217], [-87.79875, 42.74402], [-87.7991, 42.74572], [-87.798744, 42.745738], [-87.79849, 42.74575], [-87.798485, 42.745736], [-87.79796, 42.74418], [-87.7978, 42.74227], [-87.79052, 42.74233], [-87.78867, 42.74241], [-87.78287, 42.7424], [-87.782839, 42.740486], [-87.78282, 42.73936], [-87.78073, 42.73931], [-87.78021, 42.73859], [-87.78007, 42.73805], [-87.78254, 42.73803], [-87.78256, 42.73686], [-87.78199, 42.73376], [-87.78439, 42.73428], [-87.78534, 42.73423], [-87.78591, 42.73398], [-87.78636, 42.73339], [-87.78646, 42.73283], [-87.78629, 42.7326], [-87.798485, 42.73249], [-87.79851, 42.73249], [-87.798517, 42.732747], [-87.79856, 42.73437]]]}}, {"type": "Feature", "properties": {"area_id": 5345, "city": "Racine", "state": "WI", "city_survey": true, "cat": "Hazardous", "grade": "D", "label": "D3", "res": true, "com": false, "ind": false, "holc_grade": "D"}, "geometry": {"type": "Polygon", "coordinates": [[[-87.797081, 42.726], [-87.79783, 42.72591], [-87.79788, 42.72609], [-87.79733, 42.72649], [-87.79757, 42.7268], [-87.79814, 42.72682], [-87.79816, 42.72939], [-87.79852, 42.73042], [-87.79871, 42.7316], [-87.8003, 42.7316], [-87.802042, 42.733027], [-87.80361, 42.73431], [-87.803119, 42.734328], [-87.80281, 42.73434], [-87.79856, 42.73437], [-87.798517, 42.732747], [-87.79851, 42.73249], [-87.79842, 42.731947], [-87.79837, 42.73165], [-87.79691, 42.72602], [-87.797081, 42.726]]]}}, {"type": "Feature", "properties": {"area_id": 5346, "city": "Racine", "state": "WI", "city_survey": true, "cat": "Hazardous", "grade": "D", "label": "D4", "res": true, "com": false, "ind": false, "holc_grade": "D"}, "geometry": {"type": "MultiPolygon", "coordinates": [[[[-87.79842, 42.71502], [-87.79915, 42.71489], [-87.79937, 42.7153], [-87.80141, 42.7153], [-87.80146, 42.71562], [-87.80103, 42.71564], [-87.8011, 42.71686], [-87.80115, 42.71768], [-87.80108, 42.71843], [-87.80017, 42.71843], [-87.80022, 42.71981], [-87.80488, 42.72007], [-87.80426, 42.72063], [-87.80376, 42.72133], [-87.80222, 42.72236], [-87.8012, 42.72288], [-87.79887, 42.72346], [-87.79659, 42.72355], [-87.79635, 42.72356], [-87.7963, 42.72356], [-87.79626, 42.72358], [-87.79556, 42.72381], [-87.79535, 42.72414], [-87.79521, 42.72456], [-87.79086, 42.72456], [-87.79281, 42.72225], [-87.79418, 42.71998], [-87.79487, 42.71869], [-87.795466, 42.717638], [-87.79666, 42.71553], [-87.79689, 42.71529], [-87.79842, 42.71502]]], [[[-87.79643, 42.72413], [-87.79691, 42.72602], [-87.79597, 42.72601], [-87.795797, 42.724561], [-87.79578, 42.72442], [-87.795864, 42.724382], [-87.79643, 42.72413]]]]}}, {"type": "Feature", "properties": {"area_id": 5358, "city": "Racine", "state": "WI", "city_survey": true, "cat": "Hazardous", "grade": "D", "label": "D5", "res": true, "com": false, "ind": false, "holc_grade": "D"}, "geometry": {"type": "Polygon", "coordinates": [[[-87.79662, 42.70434], [-87.796598, 42.70785], [-87.796584, 42.710126], [-87.79658, 42.71081], [-87.796411, 42.710815], [-87.7937, 42.7109], [-87.79373, 42.7126], [-87.79316, 42.71363], [-87.7929, 42.71419], [-87.79263, 42.71553], [-87.79195, 42.71845], [-87.79147, 42.72151], [-87.79102, 42.72266], [-87.79086, 42.72456], [-87.789382, 42.724598], [-87.78931, 42.7246], [-87.78927, 42.72461], [-87.789366, 42.723094], [-87.78942, 42.72225], [-87.7893, 42.71544], [-87.78927, 42.71077], [-87.79254, 42.71079], [-87.7926, 42.7044], [-87.7926, 42.70437], [-87.794767, 42.704354], [-87.79662, 42.70434]]]}}, {"type": "Feature", "properties": {"area_id": 5349, "city": "Racine", "state": "WI", "city_survey": true, "cat": "Hazardous", "grade": "D", "label": "D6", "res": true, "com": false, "ind": false, "holc_grade": "D"}, "geometry": {"type": "Polygon", "coordinates": [[[-87.80672, 42.70981], [-87.806279, 42.71074], [-87.80551, 42.71236], [-87.80195, 42.71236], [-87.80187, 42.71444], [-87.79915, 42.71489], [-87.79842, 42.71502], [-87.79845, 42.71234], [-87.79962, 42.71234], [-87.799572, 42.710487], [-87.79957, 42.7104], [-87.80672, 42.70981]]]}}, {"type": "Feature", "properties": {"area_id": 5354, "city": "Racine", "state": "WI", "city_survey": true, "cat": "Hazardous", "grade": "D", "label": "D7", "res": true, "com": false, "ind": false, "holc_grade": "D"}, "geometry": {"type": "Polygon", "coordinates": [[[-87.80609, 42.70431], [-87.80613, 42.70431], [-87.80618, 42.70688], [-87.80834, 42.70763], [-87.80767, 42.70854], [-87.80615, 42.70794], [-87.80615, 42.70763], [-87.8018, 42.70764], [-87.8018, 42.70693], [-87.80142, 42.70696], [-87.8014, 42.70431], [-87.80609, 42.70431]]]}}, {"type": "Feature", "properties": {"area_id": 5357, "city": "Racine", "state": "WI", "city_survey": true, "cat": "Hazardous", "grade": "D", "label": "D8", "res": true, "com": false, "ind": false, "holc_grade": "D"}, "geometry": {"type": "Polygon", "coordinates": [[[-87.79094, 42.69287], [-87.79094, 42.6925], [-87.79156, 42.69178], [-87.79249, 42.69088], [-87.79503, 42.68892], [-87.79553, 42.68808], [-87.796, 42.687], [-87.79626, 42.68612], [-87.79662, 42.68534], [-87.79684, 42.68494], [-87.796991, 42.684781], [-87.79724, 42.68452], [-87.79745, 42.68375], [-87.79764, 42.68329], [-87.79859, 42.68245], [-87.79905, 42.68174], [-87.8029, 42.6817], [-87.79981, 42.68857], [-87.79779, 42.69309], [-87.79643, 42.69678], [-87.79636, 42.69376], [-87.79529, 42.6939], [-87.79439, 42.69392], [-87.79306, 42.69372], [-87.79168, 42.69341], [-87.791434, 42.69321], [-87.79125, 42.69306], [-87.79094, 42.69287]]]}}, {"type": "Feature", "properties": {"area_id": 5351, "city": "Racine", "state": "WI", "city_survey": true, "cat": "Hazardous", "grade": "D", "label": "D9", "res": true, "com": false, "ind": false, "holc_grade": "D"}, "geometry": {"type": "Polygon", "coordinates": [[[-87.81635, 42.6987], [-87.81758, 42.69701], [-87.81825, 42.697], [-87.82612, 42.69692], [-87.82609, 42.70162], [-87.826139, 42.708181], [-87.82614, 42.70827], [-87.82612, 42.71109], [-87.82602, 42.711092], [-87.8182, 42.71121], [-87.81768, 42.7111], [-87.81737, 42.71089], [-87.8173, 42.71079], [-87.81649, 42.71079], [-87.816471, 42.709047], [-87.81647, 42.70899], [-87.81635, 42.6987]]]}}, {"type": "Feature", "properties": {"area_id": 11215, "city": "Racine", "state": "WI", "city_survey": true, "cat": "Commercial", "grade": null, "label": "Commercial", "res": false, "com": true, "ind": false, "holc_grade": null}, "geometry": {"type": "MultiPolygon", "coordinates": [[[[-87.79851, 42.73249], [-87.798485, 42.73249], [-87.78629, 42.7326], [-87.78646, 42.73283], [-87.78636, 42.73339], [-87.78591, 42.73398], [-87.78534, 42.73423], [-87.78439, 42.73428], [-87.78199, 42.73376], [-87.780611, 42.733534], [-87.77973, 42.73339], [-87.77998, 42.73265], [-87.77997, 42.73225], [-87.779626, 42.73139], [-87.77959, 42.7313], [-87.779625, 42.731295], [-87.78108, 42.73111], [-87.78107, 42.72937], [-87.78125, 42.72901], [-87.78113, 42.72846], [-87.78091, 42.72791], [-87.78036, 42.72731], [-87.77977, 42.72679], [-87.77955, 42.72637], [-87.779564, 42.725975], [-87.77957, 42.7258], [-87.77974, 42.72478], [-87.78927, 42.72463], [-87.789255, 42.725702], [-87.789249, 42.726167], [-87.78923, 42.7275], [-87.78788, 42.72755], [-87.78709, 42.72774], [-87.78699, 42.72777], [-87.78577, 42.72802], [-87.78479, 42.7293], [-87.78483, 42.73048], [-87.78507, 42.73113], [-87.7854, 42.73167], [-87.785977, 42.73167], [-87.78617, 42.73167], [-87.79837, 42.73165], [-87.79842, 42.731947], [-87.79851, 42.73249]]], [[[-87.79246, 42.70133], [-87.7965, 42.70127], [-87.796504, 42.70137], [-87.79662, 42.70434], [-87.794767, 42.704354], [-87.7926, 42.70437], [-87.7926, 42.7044], [-87.79079, 42.70443], [-87.790789, 42.704327], [-87.79077, 42.70204], [-87.79076, 42.70012], [-87.79264, 42.70006], [-87.79246, 42.70133]]], [[[-87.79487, 42.71869], [-87.79418, 42.71998], [-87.79281, 42.72225], [-87.79086, 42.72456], [-87.79092, 42.72389], [-87.79186, 42.72274], [-87.79276, 42.7211], [-87.79374, 42.71958], [-87.79432, 42.71846], [-87.79507, 42.71698], [-87.795611, 42.716253], [-87.79623, 42.71542], [-87.79689, 42.71529], [-87.79666, 42.71553], [-87.795466, 42.717638], [-87.79487, 42.71869]]], [[[-87.8108, 42.74117], [-87.81026, 42.74063], [-87.80909, 42.73949], [-87.80665, 42.73741], [-87.80698, 42.73707], [-87.80823, 42.73706], [-87.8088, 42.73801], [-87.8117, 42.7409], [-87.81186, 42.7412], [-87.8108, 42.74117]]]]}}, {"type": "Feature", "properties": {"area_id": 11216, "city": "Racine", "state": "WI", "city_survey": true, "cat": "Industrial", "grade": null, "label": "Industrial", "res": false, "com": false, "ind": true, "holc_grade": null}, "geometry": {"type": "MultiPolygon", "coordinates": [[[[-87.79198, 42.72995], [-87.79309, 42.72953], [-87.7942, 42.72879], [-87.79441, 42.72837], [-87.79551, 42.72735], [-87.79604, 42.72663], [-87.79597, 42.72601], [-87.79691, 42.72602], [-87.79837, 42.73165], [-87.78617, 42.73167], [-87.78566, 42.73063], [-87.78542, 42.72984], [-87.78545, 42.72948], [-87.78612, 42.72835], [-87.78706, 42.72823], [-87.79044, 42.73031], [-87.79198, 42.72995]]], [[[-87.791261, 42.693317], [-87.79168, 42.69341], [-87.79306, 42.69372], [-87.79439, 42.69392], [-87.79529, 42.6939], [-87.79636, 42.69376], [-87.79643, 42.69678], [-87.79634, 42.69702], [-87.7965, 42.70127], [-87.79246, 42.70133], [-87.79264, 42.70006], [-87.79076, 42.70012], [-87.79077, 42.70204], [-87.78896, 42.70177], [-87.78732, 42.7016], [-87.78621, 42.70156], [-87.7865, 42.70068], [-87.786526, 42.699881], [-87.78654, 42.69944], [-87.787231, 42.699413], [-87.78807, 42.69938], [-87.78832, 42.69906], [-87.78832, 42.69711], [-87.788564, 42.696503], [-87.78892, 42.69562], [-87.7901, 42.69358], [-87.79043, 42.6933], [-87.79114, 42.69329], [-87.791261, 42.693317]]], [[[-87.78927, 42.7246], [-87.789382, 42.724597], [-87.79086, 42.72456], [-87.79521, 42.72456], [-87.79537, 42.72656], [-87.795292, 42.726871], [-87.79527, 42.72696], [-87.795145, 42.727065], [-87.79379, 42.7282], [-87.793784, 42.728209], [-87.7936, 42.72851], [-87.792677, 42.728956], [-87.79186, 42.72935], [-87.7908, 42.7295], [-87.789957, 42.729431], [-87.7897, 42.72941], [-87.789654, 42.729361], [-87.78883, 42.72848], [-87.78709, 42.72774], [-87.78788, 42.72755], [-87.78923, 42.7275], [-87.789249, 42.726167], [-87.789255, 42.725702], [-87.78927, 42.72463], [-87.78927, 42.7246]]], [[[-87.8014, 42.70431], [-87.80142, 42.70696], [-87.8018, 42.70693], [-87.8018, 42.70764], [-87.80615, 42.70763], [-87.80615, 42.70794], [-87.80767, 42.70854], [-87.807292, 42.709045], [-87.806778, 42.709733], [-87.80672, 42.70981], [-87.79957, 42.7104], [-87.799572, 42.710487], [-87.79962, 42.71234], [-87.79845, 42.71234], [-87.79842, 42.71502], [-87.79689, 42.71529], [-87.79623, 42.71542], [-87.795611, 42.716253], [-87.79507, 42.71698], [-87.79432, 42.71846], [-87.79374, 42.71958], [-87.79276, 42.7211], [-87.79186, 42.72274], [-87.79092, 42.72389], [-87.79102, 42.72266], [-87.79147, 42.72151], [-87.79195, 42.71845], [-87.79263, 42.71553], [-87.7929, 42.71419], [-87.79316, 42.71363], [-87.79373, 42.7126], [-87.7937, 42.7109], [-87.796411, 42.710815], [-87.79658, 42.71081], [-87.796584, 42.710126], [-87.796598, 42.70785], [-87.79662, 42.70434], [-87.8014, 42.70431]]], [[[-87.802839, 42.735487], [-87.8029, 42.73784], [-87.80303, 42.74244], [-87.80022, 42.74244], [-87.800268, 42.744701], [-87.80029, 42.74572], [-87.799171, 42.74572], [-87.7991, 42.74572], [-87.79875, 42.74402], [-87.79856, 42.74217], [-87.79856, 42.740482], [-87.79856, 42.740346], [-87.79856, 42.737792], [-87.79856, 42.73778], [-87.79856, 42.73437], [-87.80281, 42.73434], [-87.802839, 42.735487]]], [[[-87.80619, 42.73788], [-87.80665, 42.73741], [-87.80909, 42.73949], [-87.81026, 42.74063], [-87.80485, 42.74053], [-87.80478, 42.73791], [-87.80619, 42.73788]]]]}}]}