{"type": "FeatureCollection", "features": [{"type": "Feature", "properties": {"area_id": 10333, "city": "Fort Smith", "state": "AR", "city_survey": false, "cat": "Best Residential Section", "grade": null, "label": "Best Residential Section", "res": true, "com": false, "ind": false, "holc_grade": null}, "geometry": {"type": "MultiPolygon", "coordinates": [[[[-94.37561, 35.35236], [-94.37666, 35.35238], [-94.37822, 35.35195], [-94.378, 35.3617], [-94.37709, 35.37072], [-94.372627, 35.37072], [-94.37261, 35.37072], [-94.36979, 35.37072], [-94.36987, 35.36973], [-94.35901, 35.36994], [-94.35962, 35.35792], [-94.3614, 35.35791], [-94.36209, 35.3583], [-94.36288, 35.35771], [-94.36803, 35.35698], [-94.368919, 35.356035], [-94.37024, 35.35463], [-94.37194, 35.35413], [-94.37246, 35.35331], [-94.37344, 35.35277], [-94.37561, 35.35236]]], [[[-94.40381, 35.36846], [-94.41101, 35.36857], [-94.41131, 35.36807], [-94.41138, 35.36658], [-94.414, 35.36666], [-94.41369, 35.37225], [-94.41192, 35.3722], [-94.411915, 35.372328], [-94.41172, 35.37721], [-94.40839, 35.37699], [-94.40822, 35.37796], [-94.40934, 35.37851], [-94.40629, 35.38203], [-94.40347, 35.38601], [-94.403196, 35.386008], [-94.40168, 35.385997], [-94.401668, 35.385997], [-94.400841, 35.385972], [-94.40166455476479, 35.38599689585142], [-94.398714, 35.385977], [-94.39637, 35.38596], [-94.396375, 35.38587], [-94.39678, 35.37854], [-94.39763, 35.37851], [-94.398, 35.37707], [-94.372463, 35.3769], [-94.3724, 35.3769], [-94.372528, 35.374355], [-94.37264, 35.37214], [-94.38153, 35.37256], [-94.38598, 35.37222], [-94.39046, 35.37175], [-94.39266, 35.37254], [-94.39686, 35.37336], [-94.39799, 35.3741], [-94.39912, 35.37483], [-94.399122, 35.374752], [-94.39914, 35.374183], [-94.399231, 35.37131], [-94.399269, 35.370087], [-94.39929, 35.36943], [-94.399298, 35.36943], [-94.40177, 35.3694], [-94.4018, 35.37134], [-94.40374, 35.37134], [-94.40381, 35.36846]]]]}}, {"type": "Feature", "properties": {"area_id": 10331, "city": "Fort Smith", "state": "AR", "city_survey": false, "cat": "Blighted District", "grade": null, "label": "Blighted District", "res": true, "com": false, "ind": false, "holc_grade": null}, "geometry": {"type": "MultiPolygon", "coordinates": [[[[-94.4051, 35.39338], [-94.40496, 35.39523], [-94.40591, 35.39531], [-94.396976, 35.404113], [-94.39226, 35.40876], [-94.38279, 35.41748], [-94.37542, 35.42268], [-94.3709, 35.42277], [-94.37087, 35.42473], [-94.369, 35.42407], [-94.36785, 35.42293], [-94.3671, 35.4205], [-94.36683, 35.41793], [-94.36459, 35.41305], [-94.36469, 35.41186], [-94.36367, 35.41131], [-94.363503, 35.411072], [-94.36303, 35.4104], [-94.36313, 35.40912], [-94.36143, 35.40744], [-94.36102, 35.40636], [-94.36007, 35.40218], [-94.35803, 35.39775], [-94.3577, 35.39448], [-94.35854, 35.39047], [-94.36153, 35.38801], [-94.36248, 35.38543], [-94.36214, 35.38388], [-94.36543, 35.38071], [-94.36809, 35.37815], [-94.372419, 35.378043], [-94.37253, 35.37804], [-94.372231, 35.3853], [-94.37223, 35.38532], [-94.37664, 35.38549], [-94.37892, 35.38549], [-94.37888, 35.38906], [-94.3832, 35.3892], [-94.3832, 35.389203], [-94.383068, 35.391519], [-94.38303, 35.39219], [-94.383041, 35.392191], [-94.38469, 35.39227], [-94.38466, 35.39285], [-94.38961, 35.39304], [-94.38972, 35.39238], [-94.39416, 35.39246], [-94.39416, 35.39307], [-94.39603, 35.39313], [-94.3962, 35.39263], [-94.39736, 35.39266], [-94.39732, 35.39324], [-94.398776, 35.393266], [-94.4051, 35.39338]]], [[[-94.41145, 35.40888], [-94.41505, 35.40935], [-94.41553, 35.41199], [-94.41463, 35.4132], [-94.41277, 35.41372], [-94.41108, 35.41437], [-94.40784, 35.41394], [-94.40688, 35.41489], [-94.40657, 35.42267], [-94.40248, 35.42241], [-94.40206, 35.4298], [-94.38417, 35.4295], [-94.37961, 35.42557], [-94.38746, 35.41934], [-94.4072, 35.40455], [-94.41123, 35.40477], [-94.4107, 35.40801], [-94.41145, 35.40888]]], [[[-94.410372, 35.395899], [-94.41226, 35.39731], [-94.40262, 35.40514], [-94.402547, 35.404761], [-94.402465, 35.404336], [-94.40221, 35.40301], [-94.410135, 35.396087], [-94.41036, 35.39589], [-94.410372, 35.395899]]], [[[-94.42452, 35.36713], [-94.42676, 35.36929], [-94.43053, 35.37123], [-94.43196, 35.37394], [-94.43142, 35.38333], [-94.42741, 35.38319], [-94.42113, 35.38311], [-94.42157, 35.36835], [-94.4216, 35.3673], [-94.42452, 35.36713]]]]}}, {"type": "Feature", "properties": {"area_id": 10332, "city": "Fort Smith", "state": "AR", "city_survey": false, "cat": "Business District", "grade": null, "label": "Business District", "res": false, "com": true, "ind": false, "holc_grade": null}, "geometry": {"type": "Polygon", "coordinates": [[[-94.40934, 35.37851], [-94.40822, 35.37796], [-94.40839, 35.37699], [-94.41172, 35.37721], [-94.41169, 35.37809], [-94.41695, 35.38155], [-94.41984, 35.382629], [-94.42113, 35.38311], [-94.42741, 35.38319], [-94.42754, 35.38504], [-94.43131, 35.38493], [-94.43131, 35.38831], [-94.43067, 35.38967], [-94.429941, 35.39046], [-94.4285, 35.39202], [-94.428254, 35.391855], [-94.42096, 35.38697], [-94.42052, 35.38668], [-94.419794, 35.386651], [-94.418512, 35.386601], [-94.406522, 35.38613], [-94.40347, 35.38601], [-94.40629, 35.38203], [-94.40934, 35.37851]]]}}, {"type": "Feature", "properties": {"area_id": 11599, "city": "Fort Smith", "state": "AR", "city_survey": false, "cat": "Industrial", "grade": null, "label": "Industrial", "res": false, "com": false, "ind": true, "holc_grade": null}, "geometry": {"type": "MultiPolygon", "coordinates": [[[[-94.41968, 35.39614], [-94.42153, 35.39747], [-94.422311, 35.397992], [-94.4234, 35.39872], [-94.42274, 35.40132], [-94.42168, 35.40494], [-94.42065, 35.40724], [-94.41994, 35.40852], [-94.4107, 35.40801], [-94.41123, 35.40477], [-94.4072, 35.40455], [-94.407679, 35.404189], [-94.41197, 35.40095], [-94.41535, 35.40097], [-94.41968, 35.39614]]], [[[-94.4072, 35.40455], [-94.38414, 35.42197], [-94.37996, 35.42202], [-94.379964, 35.421948], [-94.38011, 35.41937], [-94.38239, 35.41776], [-94.39226, 35.40876], [-94.39695, 35.40414], [-94.40038, 35.40427], [-94.40248, 35.4044], [-94.402547, 35.404755], [-94.40262, 35.40514], [-94.40354, 35.40439], [-94.406741, 35.40453], [-94.4072, 35.40455]]]]}}, {"type": "Feature", "properties": {"area_id": 10335, "city": "Fort Smith", "state": "AR", "city_survey": false, "cat": "Second Best Residential Section", "grade": null, "label": "Second Best Residential Section", "res": true, "com": false, "ind": false, "holc_grade": null}, "geometry": {"type": "MultiPolygon", "coordinates": [[[[-94.39118, 35.35026], [-94.39542, 35.35826], [-94.39537, 35.36073], [-94.39728, 35.36376], [-94.39861, 35.37064], [-94.39799, 35.3741], [-94.39686, 35.37336], [-94.39266, 35.37254], [-94.39046, 35.37175], [-94.38598, 35.37222], [-94.38153, 35.37256], [-94.37264, 35.37214], [-94.372528, 35.374355], [-94.3724, 35.3769], [-94.372448, 35.377322], [-94.37253, 35.37804], [-94.372419, 35.378043], [-94.36809, 35.37815], [-94.36543, 35.38071], [-94.35924, 35.37838], [-94.35839, 35.37458], [-94.3586, 35.37077], [-94.36979, 35.37072], [-94.37261, 35.37072], [-94.372627, 35.37072], [-94.37709, 35.37072], [-94.378, 35.3617], [-94.37822, 35.35195], [-94.378209, 35.351646], [-94.378147, 35.349901], [-94.378135, 35.349582], [-94.37813, 35.34944], [-94.378259, 35.349448], [-94.39118, 35.35026]]], [[[-94.406522, 35.38613], [-94.418512, 35.386601], [-94.419794, 35.386651], [-94.42052, 35.38668], [-94.42096, 35.38697], [-94.41389, 35.39457], [-94.412705, 35.393802], [-94.40744, 35.39039], [-94.40737, 35.39349], [-94.4051, 35.39338], [-94.398776, 35.393266], [-94.39732, 35.39324], [-94.39736, 35.39266], [-94.3962, 35.39263], [-94.39644, 35.39141], [-94.38608, 35.39147], [-94.38618, 35.38922], [-94.383201, 35.3892], [-94.3832, 35.3892], [-94.37888, 35.38906], [-94.37892, 35.38549], [-94.37664, 35.38549], [-94.376641, 35.385424], [-94.37674, 35.3782], [-94.38557, 35.37818], [-94.38686, 35.37848], [-94.39678, 35.37854], [-94.396375, 35.38587], [-94.39637, 35.38596], [-94.398714, 35.385977], [-94.40168, 35.385997], [-94.403196, 35.386008], [-94.40347, 35.38601], [-94.406522, 35.38613]]], [[[-94.41728, 35.36069], [-94.41728, 35.3683], [-94.421505, 35.368349], [-94.42157, 35.36835], [-94.42113, 35.38311], [-94.41984, 35.382629], [-94.41695, 35.38155], [-94.41169, 35.37809], [-94.41172, 35.37721], [-94.411915, 35.372328], [-94.41192, 35.3722], [-94.41369, 35.37225], [-94.414, 35.36666], [-94.41138, 35.36658], [-94.41131, 35.36807], [-94.41101, 35.36857], [-94.40381, 35.36846], [-94.403916, 35.364488], [-94.40412, 35.35688], [-94.41261, 35.35714], [-94.41272, 35.36047], [-94.412977, 35.360482], [-94.41728, 35.36069]]]]}}]}