{"type": "FeatureCollection", "features": [{"type": "Feature", "properties": {"area_id": 6504, "city": "Wheeling", "state": "WV", "city_survey": true, "cat": "Best", "grade": "A", "label": "A1", "res": true, "com": false, "ind": false, "holc_grade": "A"}, "geometry": {"type": "Polygon", "coordinates": [[[-80.69692, 40.07803], [-80.69785, 40.07891], [-80.69764, 40.08], [-80.69762, 40.08069], [-80.69754, 40.08085], [-80.69736, 40.08197], [-80.696904, 40.082042], [-80.69566, 40.08224], [-80.69559, 40.08246], [-80.69602, 40.08294], [-80.69651, 40.08384], [-80.69659, 40.08442], [-80.69708, 40.08539], [-80.69755, 40.08655], [-80.69786, 40.08764], [-80.69789, 40.08791], [-80.6979, 40.08868], [-80.69755, 40.08962], [-80.69751, 40.09058], [-80.697443, 40.091121], [-80.6974, 40.09147], [-80.69715, 40.0918], [-80.69661, 40.09226], [-80.69633, 40.09275], [-80.69621, 40.09331], [-80.69627, 40.09377], [-80.693194, 40.093928], [-80.69295, 40.09394], [-80.69042, 40.09099], [-80.68972, 40.09041], [-80.68874, 40.08942], [-80.68995, 40.08838], [-80.69043, 40.08754], [-80.69115, 40.08696], [-80.69179, 40.08594], [-80.69259, 40.08433], [-80.69242, 40.08373], [-80.69221, 40.08327], [-80.69244, 40.08226], [-80.69255, 40.08151], [-80.69232, 40.08143], [-80.6915, 40.08183], [-80.69035, 40.08215], [-80.6892, 40.08251], [-80.68719, 40.08234], [-80.6875, 40.08105], [-80.6877, 40.08065], [-80.68805, 40.07936], [-80.69052, 40.07895], [-80.69205, 40.07809], [-80.69266, 40.07791], [-80.69318, 40.07777], [-80.69408, 40.07752], [-80.69547, 40.07707], [-80.69635, 40.07705], [-80.696374, 40.077187], [-80.69644, 40.07756], [-80.69692, 40.07803]]]}}, {"type": "Feature", "properties": {"area_id": 6506, "city": "Wheeling", "state": "WV", "city_survey": true, "cat": "Best", "grade": "A", "label": "A2", "res": true, "com": false, "ind": false, "holc_grade": "A"}, "geometry": {"type": "Polygon", "coordinates": [[[-80.67756, 40.06374], [-80.67815, 40.06459], [-80.678226, 40.064724], [-80.67843, 40.06508], [-80.67997, 40.06764], [-80.68105, 40.06978], [-80.681245, 40.070122], [-80.68246, 40.07225], [-80.68177, 40.07258], [-80.68027, 40.07263], [-80.67918, 40.07021], [-80.67509, 40.07149], [-80.67385, 40.07071], [-80.67169, 40.06956], [-80.67302, 40.06809], [-80.67452, 40.06709], [-80.67342, 40.06619], [-80.67167, 40.06474], [-80.66986, 40.06292], [-80.66934, 40.06228], [-80.67086, 40.06207], [-80.67236, 40.0613], [-80.67335, 40.06077], [-80.67407, 40.06005], [-80.674617, 40.060626], [-80.67521, 40.06125], [-80.67756, 40.06374]]]}}, {"type": "Feature", "properties": {"area_id": 6509, "city": "Wheeling", "state": "WV", "city_survey": true, "cat": "Best", "grade": "A", "label": "A3", "res": true, "com": false, "ind": false, "holc_grade": "A"}, "geometry": {"type": "Polygon", "coordinates": [[[-80.67158, 40.05705], [-80.67072, 40.05646], [-80.67014, 40.05609], [-80.66974, 40.05659], [-80.66925, 40.0568], [-80.66844, 40.05712], [-80.66777, 40.05722], [-80.66709, 40.05736], [-80.66654, 40.05656], [-80.66689, 40.05638], [-80.667, 40.05584], [-80.66696, 40.05519], [-80.66667, 40.05458], [-80.66613, 40.05395], [-80.6646, 40.05474], [-80.66429, 40.05478], [-80.66257, 40.05234], [-80.66261, 40.0521], [-80.66289, 40.05165], [-80.66324, 40.05141], [-80.66399, 40.05125], [-80.66448, 40.05096], [-80.66488, 40.05056], [-80.665, 40.05015], [-80.66575, 40.04999], [-80.66623, 40.05051], [-80.66677, 40.05106], [-80.66747, 40.05149], [-80.66887, 40.05194], [-80.66957, 40.05249], [-80.66992, 40.05263], [-80.67009, 40.0528], [-80.67078, 40.05301], [-80.67163, 40.05324], [-80.67253, 40.05323], [-80.6736, 40.05316], [-80.67467, 40.05322], [-80.67536, 40.05342], [-80.6762, 40.05358], [-80.67668, 40.05381], [-80.67724, 40.05408], [-80.67774, 40.0543], [-80.67834, 40.05476], [-80.67894, 40.05507], [-80.67954, 40.05569], [-80.67975, 40.05589], [-80.67988, 40.05614], [-80.67831, 40.05647], [-80.6755, 40.05723], [-80.6766, 40.05875], [-80.67664, 40.05894], [-80.67484, 40.05959], [-80.674097, 40.060034], [-80.67407, 40.06005], [-80.67367, 40.059553], [-80.67337, 40.05918], [-80.67158, 40.05705]]]}}, {"type": "Feature", "properties": {"area_id": 6499, "city": "Wheeling", "state": "WV", "city_survey": true, "cat": "Still Desirable", "grade": "B", "label": "B1", "res": true, "com": false, "ind": false, "holc_grade": "B"}, "geometry": {"type": "Polygon", "coordinates": [[[-80.70357, 40.12266], [-80.70351, 40.12301], [-80.70269, 40.1229], [-80.69996, 40.12319], [-80.69956, 40.12312], [-80.69941, 40.12216], [-80.69979, 40.12194], [-80.69966, 40.12007], [-80.69912, 40.11616], [-80.70102, 40.11601], [-80.70157, 40.12024], [-80.70152, 40.12175], [-80.70194, 40.12178], [-80.7035, 40.12157], [-80.70357, 40.12266]]]}}, {"type": "Feature", "properties": {"area_id": 6500, "city": "Wheeling", "state": "WV", "city_survey": true, "cat": "Still Desirable", "grade": "B", "label": "B2", "res": true, "com": false, "ind": false, "holc_grade": "B"}, "geometry": {"type": "Polygon", "coordinates": [[[-80.69849, 40.11489], [-80.69805, 40.11449], [-80.69764, 40.11483], [-80.69717, 40.11501], [-80.69749, 40.11807], [-80.69787, 40.12135], [-80.69793, 40.12282], [-80.69715, 40.12272], [-80.69682, 40.12151], [-80.69645, 40.12002], [-80.69628, 40.11891], [-80.69608, 40.11681], [-80.69601, 40.1158], [-80.69588, 40.11533], [-80.69697, 40.11453], [-80.69718, 40.11446], [-80.69732, 40.11184], [-80.69822, 40.11168], [-80.69804, 40.11308], [-80.69817, 40.11334], [-80.70009, 40.11316], [-80.70169, 40.11307], [-80.7024, 40.11306], [-80.70239, 40.11472], [-80.69849, 40.11489]]]}}, {"type": "Feature", "properties": {"area_id": 6505, "city": "Wheeling", "state": "WV", "city_survey": true, "cat": "Still Desirable", "grade": "B", "label": "B3", "res": true, "com": false, "ind": false, "holc_grade": "B"}, "geometry": {"type": "Polygon", "coordinates": [[[-80.67997, 40.06764], [-80.67843, 40.06508], [-80.67928, 40.06483], [-80.68002, 40.06445], [-80.68097, 40.064], [-80.68204, 40.06364], [-80.68331, 40.06314], [-80.68371, 40.06372], [-80.68383, 40.0643], [-80.68375, 40.06518], [-80.68333, 40.06573], [-80.6831, 40.06593], [-80.6828, 40.06711], [-80.68263, 40.06812], [-80.68276, 40.06895], [-80.68306, 40.06988], [-80.68345, 40.07077], [-80.684, 40.07146], [-80.68493, 40.07237], [-80.6863, 40.07352], [-80.68721, 40.07401], [-80.68854, 40.07503], [-80.68932, 40.07555], [-80.689784, 40.075712], [-80.68995, 40.07577], [-80.6901, 40.07577], [-80.69014, 40.07721], [-80.69021, 40.07852], [-80.69071, 40.07838], [-80.69217, 40.07768], [-80.69312, 40.07741], [-80.69318, 40.07777], [-80.69266, 40.07791], [-80.69205, 40.07809], [-80.69052, 40.07895], [-80.68805, 40.07936], [-80.6877, 40.08065], [-80.6875, 40.08105], [-80.68719, 40.08234], [-80.68626, 40.08227], [-80.68584, 40.0822], [-80.68453, 40.08403], [-80.6823, 40.08273], [-80.68194, 40.08291], [-80.68162, 40.08316], [-80.68143, 40.0835], [-80.68111, 40.08358], [-80.68029, 40.08319], [-80.67869, 40.08214], [-80.6781, 40.0821], [-80.67776, 40.08188], [-80.67759, 40.0812], [-80.677477, 40.080086], [-80.67738, 40.07913], [-80.67808, 40.07872], [-80.679, 40.07839], [-80.67816, 40.07709], [-80.67962, 40.07653], [-80.6804, 40.07605], [-80.68133, 40.07565], [-80.68082, 40.07462], [-80.68019, 40.07475], [-80.67932, 40.07298], [-80.68027, 40.07263], [-80.68177, 40.07258], [-80.68246, 40.07225], [-80.681245, 40.070122], [-80.68105, 40.06978], [-80.67997, 40.06764]]]}}, {"type": "Feature", "properties": {"area_id": 6510, "city": "Wheeling", "state": "WV", "city_survey": true, "cat": "Still Desirable", "grade": "B", "label": "B4", "res": true, "com": false, "ind": false, "holc_grade": "B"}, "geometry": {"type": "Polygon", "coordinates": [[[-80.66488, 40.05056], [-80.66448, 40.05096], [-80.66399, 40.05125], [-80.66324, 40.05141], [-80.66289, 40.05165], [-80.66261, 40.0521], [-80.66257, 40.05234], [-80.66429, 40.05478], [-80.6646, 40.05474], [-80.66613, 40.05395], [-80.66667, 40.05458], [-80.66696, 40.05519], [-80.667, 40.05584], [-80.66689, 40.05638], [-80.66654, 40.05656], [-80.66449, 40.05729], [-80.66279, 40.058], [-80.66238, 40.05756], [-80.66177, 40.05647], [-80.66135, 40.05598], [-80.66086, 40.05588], [-80.65985, 40.05609], [-80.65913, 40.05631], [-80.65869, 40.05599], [-80.65816, 40.05522], [-80.65776, 40.05435], [-80.65751, 40.05318], [-80.65743, 40.05247], [-80.65749, 40.05174], [-80.65772, 40.05088], [-80.65776, 40.05032], [-80.65791, 40.04962], [-80.65838, 40.04956], [-80.65922, 40.04978], [-80.65977, 40.04995], [-80.66067, 40.04997], [-80.66143, 40.0501], [-80.66247, 40.05026], [-80.66337, 40.05039], [-80.66428, 40.0503], [-80.66466, 40.0503], [-80.665, 40.05015], [-80.66488, 40.05056]]]}}, {"type": "Feature", "properties": {"area_id": 6498, "city": "Wheeling", "state": "WV", "city_survey": true, "cat": "Definitely Declining", "grade": "C", "label": "C1", "res": true, "com": false, "ind": false, "holc_grade": "C"}, "geometry": {"type": "Polygon", "coordinates": [[[-80.69844, 40.12587], [-80.69793, 40.12282], [-80.69787, 40.12135], [-80.69749, 40.11807], [-80.69717, 40.11501], [-80.69764, 40.11483], [-80.69805, 40.11449], [-80.69849, 40.11489], [-80.70239, 40.11472], [-80.70268, 40.11619], [-80.70327, 40.11912], [-80.7035, 40.12157], [-80.70194, 40.12178], [-80.70152, 40.12175], [-80.70157, 40.12024], [-80.70102, 40.11601], [-80.69912, 40.11616], [-80.69966, 40.12007], [-80.69979, 40.12194], [-80.69941, 40.12216], [-80.69956, 40.12312], [-80.69996, 40.12319], [-80.70269, 40.1229], [-80.70351, 40.12301], [-80.70335, 40.12388], [-80.70318, 40.12761], [-80.70322, 40.129663], [-80.70325, 40.1312], [-80.70335, 40.13348], [-80.69962, 40.13364], [-80.69909, 40.13091], [-80.69888, 40.12989], [-80.698766, 40.129122], [-80.698581, 40.127869], [-80.698513, 40.127409], [-80.69833, 40.12617], [-80.69844, 40.12587]]]}}, {"type": "Feature", "properties": {"area_id": 6501, "city": "Wheeling", "state": "WV", "city_survey": true, "cat": "Definitely Declining", "grade": "C", "label": "C2", "res": true, "com": false, "ind": false, "holc_grade": "C"}, "geometry": {"type": "Polygon", "coordinates": [[[-80.69925, 40.10741], [-80.69992, 40.10622], [-80.7008, 40.10445], [-80.70216, 40.10468], [-80.70331, 40.10488], [-80.70273, 40.10624], [-80.70237, 40.10745], [-80.7022, 40.10836], [-80.70214, 40.10903], [-80.70214, 40.11004], [-80.70224, 40.11154], [-80.7024, 40.11306], [-80.70169, 40.11307], [-80.70009, 40.11316], [-80.69817, 40.11334], [-80.69804, 40.11308], [-80.69822, 40.11168], [-80.69732, 40.11184], [-80.69741, 40.11098], [-80.69754, 40.10991], [-80.69792, 40.10879], [-80.69829, 40.10817], [-80.69878, 40.10725], [-80.69925, 40.10741]]]}}, {"type": "Feature", "properties": {"area_id": 6519, "city": "Wheeling", "state": "WV", "city_survey": true, "cat": "Definitely Declining", "grade": "C", "label": "C3", "res": true, "com": false, "ind": false, "holc_grade": "C"}, "geometry": {"type": "Polygon", "coordinates": [[[-80.72925, 40.0704], [-80.72909, 40.06977], [-80.72877, 40.06919], [-80.72853, 40.06818], [-80.72854, 40.06729], [-80.7287, 40.06726], [-80.72913, 40.06722], [-80.72943, 40.06738], [-80.72953, 40.06767], [-80.72965, 40.06852], [-80.72995, 40.06923], [-80.73035, 40.06993], [-80.73091, 40.07045], [-80.73174, 40.07099], [-80.73564, 40.07218], [-80.735593, 40.072272], [-80.73477, 40.0739], [-80.73625, 40.0744], [-80.73513, 40.07603], [-80.73499, 40.07658], [-80.7347, 40.07762], [-80.73446, 40.07851], [-80.73429, 40.07907], [-80.73537, 40.07922], [-80.73297, 40.08189], [-80.73251, 40.08204], [-80.73201, 40.08204], [-80.73168, 40.0818], [-80.73151, 40.08121], [-80.73147, 40.08066], [-80.73149, 40.07982], [-80.73157, 40.07887], [-80.73149, 40.07806], [-80.73141, 40.07681], [-80.73131, 40.07585], [-80.73119, 40.07523], [-80.73102, 40.07444], [-80.73071, 40.07377], [-80.7304, 40.07293], [-80.73005, 40.07234], [-80.729828, 40.071696], [-80.72975, 40.07147], [-80.72925, 40.0704]]]}}, {"type": "Feature", "properties": {"area_id": 6517, "city": "Wheeling", "state": "WV", "city_survey": true, "cat": "Definitely Declining", "grade": "C", "label": "C4", "res": true, "com": false, "ind": false, "holc_grade": "C"}, "geometry": {"type": "Polygon", "coordinates": [[[-80.715, 40.06619], [-80.71457, 40.06424], [-80.71641, 40.06407], [-80.71789, 40.06391], [-80.71985, 40.06376], [-80.72047, 40.06746], [-80.720149, 40.067479], [-80.71795, 40.06761], [-80.71762, 40.066035], [-80.7176, 40.06594], [-80.715, 40.06619]]]}}, {"type": "Feature", "properties": {"area_id": 6515, "city": "Wheeling", "state": "WV", "city_survey": true, "cat": "Definitely Declining", "grade": "C", "label": "C5", "res": true, "com": false, "ind": false, "holc_grade": "C"}, "geometry": {"type": "Polygon", "coordinates": [[[-80.72034, 40.0603], [-80.72003, 40.06], [-80.72051, 40.05939], [-80.72163, 40.05739], [-80.72191, 40.05733], [-80.72315, 40.05771], [-80.72397, 40.058], [-80.72342, 40.05918], [-80.72256, 40.06056], [-80.72216, 40.06134], [-80.72034, 40.0603]]]}}, {"type": "Feature", "properties": {"area_id": 6521, "city": "Wheeling", "state": "WV", "city_survey": true, "cat": "Definitely Declining", "grade": "C", "label": "C6", "res": true, "com": false, "ind": false, "holc_grade": "C"}, "geometry": {"type": "Polygon", "coordinates": [[[-80.718568, 40.03226], [-80.71932, 40.03236], [-80.72014, 40.03248], [-80.72122, 40.03255], [-80.72302, 40.03278], [-80.72203, 40.03379], [-80.72117, 40.0346], [-80.72058, 40.03533], [-80.72024, 40.0362], [-80.72024, 40.03694], [-80.72039, 40.03777], [-80.72019, 40.03833], [-80.72001, 40.03853], [-80.71786, 40.03794], [-80.7147, 40.03717], [-80.71461, 40.03612], [-80.71486, 40.03512], [-80.71509, 40.0341], [-80.7151, 40.03245], [-80.71535, 40.03224], [-80.716, 40.03225], [-80.71673, 40.0324], [-80.71754, 40.03228], [-80.71803, 40.032249], [-80.71834, 40.03223], [-80.718568, 40.03226]]]}}, {"type": "Feature", "properties": {"area_id": 6507, "city": "Wheeling", "state": "WV", "city_survey": true, "cat": "Definitely Declining", "grade": "C", "label": "C7", "res": true, "com": false, "ind": false, "holc_grade": "C"}, "geometry": {"type": "Polygon", "coordinates": [[[-80.69654, 40.07037], [-80.69715, 40.07031], [-80.69761, 40.07056], [-80.69785, 40.07095], [-80.697945, 40.071533], [-80.69801, 40.07193], [-80.69791, 40.07241], [-80.69761, 40.07321], [-80.69734, 40.0744], [-80.69763, 40.07516], [-80.69806, 40.07545], [-80.698087, 40.075451], [-80.69884, 40.07549], [-80.69987, 40.07523], [-80.70133, 40.07463], [-80.70261, 40.07426], [-80.7032, 40.0741], [-80.70312, 40.0752], [-80.70704, 40.07586], [-80.70755, 40.07597], [-80.71118, 40.07811], [-80.71147, 40.0784], [-80.71076, 40.07871], [-80.71033, 40.0788], [-80.70947, 40.07869], [-80.70793, 40.07839], [-80.70639, 40.07821], [-80.70567, 40.07824], [-80.70445, 40.0784], [-80.70392, 40.07823], [-80.70209, 40.0777], [-80.70071, 40.07744], [-80.70006, 40.07743], [-80.69802, 40.07725], [-80.696553, 40.077074], [-80.69635, 40.07705], [-80.69547, 40.07707], [-80.69408, 40.07752], [-80.69318, 40.07777], [-80.69312, 40.07741], [-80.69217, 40.07768], [-80.69207, 40.0773], [-80.69198, 40.0769], [-80.69209, 40.07631], [-80.6923, 40.07558], [-80.69234, 40.07506], [-80.69202, 40.07442], [-80.69217, 40.07407], [-80.69321, 40.07255], [-80.69458, 40.07145], [-80.694587, 40.071445], [-80.69576, 40.07068], [-80.69654, 40.07037]]]}}, {"type": "Feature", "properties": {"area_id": 6514, "city": "Wheeling", "state": "WV", "city_survey": true, "cat": "Definitely Declining", "grade": "C", "label": "C8", "res": true, "com": false, "ind": false, "holc_grade": "C"}, "geometry": {"type": "Polygon", "coordinates": [[[-80.69842, 40.07141], [-80.69855, 40.07105], [-80.69842, 40.07047], [-80.69811, 40.0697], [-80.69781, 40.06889], [-80.69734, 40.06811], [-80.69711, 40.06784], [-80.6969, 40.06747], [-80.69635, 40.06702], [-80.6958, 40.06674], [-80.69455, 40.06643], [-80.69374, 40.06636], [-80.69338, 40.06644], [-80.69287, 40.06677], [-80.69224, 40.06736], [-80.69178, 40.0679], [-80.69139, 40.06819], [-80.69092, 40.06863], [-80.69053, 40.069], [-80.69025, 40.06985], [-80.6898, 40.07031], [-80.68889, 40.07126], [-80.6878, 40.07235], [-80.68742, 40.07356], [-80.68645, 40.07305], [-80.68507, 40.0719], [-80.68407, 40.07074], [-80.68368, 40.06993], [-80.68331, 40.06864], [-80.68317, 40.06803], [-80.68317, 40.06738], [-80.68338, 40.06676], [-80.68362, 40.06613], [-80.68402, 40.06547], [-80.68426, 40.06474], [-80.68425, 40.06425], [-80.68401, 40.0631], [-80.68439, 40.06312], [-80.68553, 40.06322], [-80.6866, 40.06333], [-80.68761, 40.06338], [-80.68954, 40.06353], [-80.69153, 40.06365], [-80.69349, 40.06378], [-80.69486, 40.06378], [-80.69629, 40.06387], [-80.69842, 40.06403], [-80.69971, 40.06416], [-80.70042, 40.06427], [-80.70036, 40.06605], [-80.70218, 40.06755], [-80.70283, 40.07235], [-80.703017, 40.073352], [-80.70305, 40.07353], [-80.70296, 40.07377], [-80.70146, 40.07413], [-80.70069, 40.07443], [-80.69997, 40.07481], [-80.69912, 40.0751], [-80.699051, 40.075103], [-80.698794, 40.075113], [-80.69861, 40.07512], [-80.6983, 40.07502], [-80.69803, 40.07465], [-80.69807, 40.07384], [-80.69812, 40.07323], [-80.6984, 40.07252], [-80.698403, 40.0725], [-80.69849, 40.07193], [-80.69842, 40.07141]]]}}, {"type": "Feature", "properties": {"area_id": 6511, "city": "Wheeling", "state": "WV", "city_survey": true, "cat": "Definitely Declining", "grade": "C", "label": "C9", "res": true, "com": false, "ind": false, "holc_grade": "C"}, "geometry": {"type": "Polygon", "coordinates": [[[-80.65533, 40.04596], [-80.65392, 40.04666], [-80.653, 40.04712], [-80.65215, 40.04737], [-80.64969, 40.04834], [-80.64845, 40.04874], [-80.6474, 40.04886], [-80.64721, 40.04888], [-80.64629, 40.04888], [-80.64463, 40.04878], [-80.64459, 40.04792], [-80.64446, 40.04705], [-80.64425, 40.04621], [-80.64393, 40.04524], [-80.64379, 40.04437], [-80.64576, 40.04423], [-80.64728, 40.04423], [-80.64905, 40.04429], [-80.64988, 40.04324], [-80.65032, 40.04242], [-80.65062, 40.04193], [-80.65109, 40.04155], [-80.65148, 40.04125], [-80.65206, 40.04059], [-80.65263, 40.04005], [-80.6537, 40.03979], [-80.65444, 40.03974], [-80.65486, 40.03979], [-80.65513, 40.0395], [-80.65507, 40.03883], [-80.65513, 40.03835], [-80.65528, 40.03728], [-80.6554, 40.03587], [-80.65553, 40.03409], [-80.65564, 40.03374], [-80.65651, 40.03423], [-80.65698, 40.0345], [-80.65827, 40.03491], [-80.65929, 40.03508], [-80.66039, 40.03534], [-80.6611, 40.03537], [-80.66209, 40.03543], [-80.66291, 40.03574], [-80.66347, 40.03612], [-80.66403, 40.03693], [-80.66415, 40.03748], [-80.66398, 40.03879], [-80.66368, 40.03911], [-80.66283, 40.03998], [-80.66213, 40.04022], [-80.66153, 40.04076], [-80.66073, 40.04106], [-80.65969, 40.04181], [-80.65871, 40.04277], [-80.65855, 40.04346], [-80.65919, 40.04375], [-80.65959, 40.04403], [-80.66097, 40.04534], [-80.66146, 40.04573], [-80.66257, 40.04693], [-80.6637, 40.04786], [-80.66434, 40.04861], [-80.665076, 40.049331], [-80.66575, 40.04999], [-80.665, 40.05015], [-80.66466, 40.0503], [-80.66428, 40.0503], [-80.66337, 40.05039], [-80.66247, 40.05026], [-80.66143, 40.0501], [-80.66067, 40.04997], [-80.65977, 40.04995], [-80.65922, 40.04978], [-80.65838, 40.04956], [-80.65858, 40.04836], [-80.65799, 40.04803], [-80.65781, 40.04788], [-80.657701, 40.047794], [-80.65664, 40.04696], [-80.65533, 40.04596]]]}}, {"type": "Feature", "properties": {"area_id": 6502, "city": "Wheeling", "state": "WV", "city_survey": true, "cat": "Hazardous", "grade": "D", "label": "D1", "res": true, "com": false, "ind": false, "holc_grade": "D"}, "geometry": {"type": "Polygon", "coordinates": [[[-80.7056, 40.100382], [-80.70515, 40.10119], [-80.70436, 40.10271], [-80.70388, 40.10367], [-80.70281, 40.10348], [-80.70265, 40.10364], [-80.70216, 40.10468], [-80.7008, 40.10445], [-80.69992, 40.10622], [-80.69925, 40.10741], [-80.69878, 40.10725], [-80.69805, 40.10698], [-80.698031, 40.106974], [-80.69736, 40.10677], [-80.69887, 40.10387], [-80.69962, 40.10232], [-80.7007, 40.10257], [-80.701696, 40.101785], [-80.702746, 40.100957], [-80.70297, 40.10078], [-80.703485, 40.100768], [-80.70382, 40.10076], [-80.70393, 40.100661], [-80.70502, 40.09968], [-80.70583, 40.09997], [-80.7056, 40.100382]]]}}, {"type": "Feature", "properties": {"area_id": 6503, "city": "Wheeling", "state": "WV", "city_survey": true, "cat": "Hazardous", "grade": "D", "label": "D2", "res": true, "com": false, "ind": false, "holc_grade": "D"}, "geometry": {"type": "Polygon", "coordinates": [[[-80.68899, 40.09322], [-80.6879, 40.09288], [-80.68691, 40.09262], [-80.68755, 40.09017], [-80.6874, 40.09008], [-80.68459, 40.09034], [-80.68215, 40.08985], [-80.68002, 40.08793], [-80.68037, 40.08798], [-80.68133, 40.08836], [-80.68214, 40.08846], [-80.6863, 40.08953], [-80.68874, 40.08942], [-80.68972, 40.09041], [-80.68899, 40.09322]]]}}, {"type": "Feature", "properties": {"area_id": 6508, "city": "Wheeling", "state": "WV", "city_survey": true, "cat": "Hazardous", "grade": "D", "label": "D3", "res": true, "com": false, "ind": false, "holc_grade": "D"}, "geometry": {"type": "Polygon", "coordinates": [[[-80.71648, 40.08254], [-80.7148, 40.082], [-80.71374, 40.08143], [-80.71297, 40.08096], [-80.71119, 40.0793], [-80.71072, 40.07888], [-80.71033, 40.0788], [-80.71076, 40.07871], [-80.71147, 40.0784], [-80.71118, 40.07811], [-80.70755, 40.07597], [-80.70704, 40.07586], [-80.70312, 40.0752], [-80.7032, 40.0741], [-80.70345, 40.07404], [-80.70392, 40.07408], [-80.70727, 40.07458], [-80.70942, 40.07465], [-80.71035, 40.07472], [-80.71103, 40.07503], [-80.71179, 40.07554], [-80.71266, 40.0762], [-80.71354, 40.07776], [-80.71396, 40.07818], [-80.714245, 40.078902], [-80.71458, 40.07975], [-80.71662, 40.08066], [-80.71812, 40.08115], [-80.71791, 40.0815], [-80.717512, 40.081831], [-80.71685, 40.08238], [-80.71648, 40.08254]]]}}, {"type": "Feature", "properties": {"area_id": 6518, "city": "Wheeling", "state": "WV", "city_survey": true, "cat": "Hazardous", "grade": "D", "label": "D4", "res": true, "com": false, "ind": false, "holc_grade": "D"}, "geometry": {"type": "Polygon", "coordinates": [[[-80.71219, 40.06448], [-80.71223, 40.06349], [-80.71286, 40.06273], [-80.71341, 40.06231], [-80.71447, 40.06211], [-80.71626, 40.06193], [-80.71782, 40.0617], [-80.71943, 40.06161], [-80.71985, 40.06376], [-80.71789, 40.06391], [-80.71641, 40.06407], [-80.71457, 40.06424], [-80.715, 40.06619], [-80.7176, 40.06594], [-80.71762, 40.066035], [-80.71795, 40.06761], [-80.720149, 40.067479], [-80.72047, 40.06746], [-80.72083, 40.06745], [-80.72095, 40.06821], [-80.721025, 40.068892], [-80.72116, 40.07011], [-80.72125, 40.0707], [-80.721856, 40.070654], [-80.72231, 40.07062], [-80.7224, 40.07156], [-80.72255, 40.07203], [-80.722619, 40.072459], [-80.7227, 40.07296], [-80.72297, 40.07417], [-80.72398, 40.07408], [-80.72376, 40.07239], [-80.7254, 40.07229], [-80.72555, 40.0731], [-80.72581, 40.07393], [-80.72597, 40.07493], [-80.72618, 40.07566], [-80.72653, 40.07673], [-80.7269, 40.07782], [-80.7273, 40.07906], [-80.72749, 40.08036], [-80.72743, 40.08111], [-80.72718, 40.08196], [-80.72718, 40.08262], [-80.72706, 40.08295], [-80.72681, 40.08365], [-80.72634, 40.08454], [-80.72569, 40.08428], [-80.72523, 40.08387], [-80.7242, 40.08349], [-80.72417, 40.08293], [-80.72375, 40.08168], [-80.72335, 40.08046], [-80.72303, 40.07985], [-80.72263, 40.07945], [-80.722535, 40.079318], [-80.72152, 40.07791], [-80.72005, 40.07677], [-80.71887, 40.07619], [-80.7161, 40.07493], [-80.71523, 40.07449], [-80.71431, 40.07412], [-80.71347, 40.07358], [-80.71355, 40.07315], [-80.71354, 40.07288], [-80.71339, 40.07249], [-80.71292, 40.07192], [-80.7122, 40.07032], [-80.70934, 40.07113], [-80.70908, 40.0703], [-80.70923, 40.06962], [-80.7097, 40.0683], [-80.710485, 40.068192], [-80.710686, 40.068164], [-80.71086, 40.06814], [-80.711013, 40.067765], [-80.71137, 40.06689], [-80.71213, 40.06512], [-80.71219, 40.06448]]]}}, {"type": "Feature", "properties": {"area_id": 6520, "city": "Wheeling", "state": "WV", "city_survey": true, "cat": "Hazardous", "grade": "D", "label": "D5", "res": true, "com": false, "ind": false, "holc_grade": "D"}, "geometry": {"type": "Polygon", "coordinates": [[[-80.73174, 40.07099], [-80.73091, 40.07045], [-80.73035, 40.06993], [-80.72995, 40.06923], [-80.72965, 40.06852], [-80.72953, 40.06767], [-80.72943, 40.06738], [-80.72913, 40.06722], [-80.7287, 40.06726], [-80.72854, 40.06729], [-80.72837, 40.0651], [-80.73177, 40.06474], [-80.73203, 40.06602], [-80.73601, 40.06547], [-80.73668, 40.06719], [-80.73717, 40.06842], [-80.73757, 40.06903], [-80.7378, 40.06989], [-80.7378, 40.07072], [-80.737954, 40.072321], [-80.73797, 40.07249], [-80.73792, 40.07346], [-80.73771, 40.07472], [-80.73753, 40.0763], [-80.73667, 40.07741], [-80.73604, 40.0784], [-80.73537, 40.07922], [-80.73429, 40.07907], [-80.73446, 40.07851], [-80.7347, 40.07762], [-80.73499, 40.07658], [-80.73513, 40.07603], [-80.73625, 40.0744], [-80.73477, 40.0739], [-80.735593, 40.072272], [-80.73564, 40.07218], [-80.73174, 40.07099]]]}}, {"type": "Feature", "properties": {"area_id": 6516, "city": "Wheeling", "state": "WV", "city_survey": true, "cat": "Hazardous", "grade": "D", "label": "D6", "res": true, "com": false, "ind": false, "holc_grade": "D"}, "geometry": {"type": "Polygon", "coordinates": [[[-80.729027, 40.032957], [-80.7291, 40.03298], [-80.72881, 40.03356], [-80.72872, 40.03408], [-80.72832, 40.03553], [-80.7276, 40.03712], [-80.72726, 40.03816], [-80.72701, 40.03937], [-80.72687, 40.04051], [-80.72664, 40.04151], [-80.72661, 40.04232], [-80.72663, 40.04307], [-80.72679, 40.04381], [-80.72688, 40.04478], [-80.72697, 40.04682], [-80.72691, 40.04746], [-80.72708, 40.04817], [-80.72736, 40.04884], [-80.72774, 40.04945], [-80.7279, 40.0503], [-80.72806, 40.05163], [-80.72801, 40.05287], [-80.72775, 40.05471], [-80.72744, 40.05647], [-80.72689, 40.05801], [-80.72631, 40.0591], [-80.7257, 40.06025], [-80.72489, 40.06074], [-80.72444, 40.06174], [-80.72386, 40.06236], [-80.72247, 40.06154], [-80.72216, 40.06134], [-80.72256, 40.06056], [-80.72342, 40.05918], [-80.72397, 40.058], [-80.72315, 40.05771], [-80.72191, 40.05733], [-80.72163, 40.05739], [-80.72051, 40.05939], [-80.72003, 40.06], [-80.719888, 40.05989], [-80.71931, 40.05944], [-80.719138, 40.059327], [-80.71803, 40.0586], [-80.71888, 40.05703], [-80.71968, 40.05586], [-80.7203, 40.05481], [-80.72099, 40.05389], [-80.72115, 40.05358], [-80.71979, 40.05326], [-80.72003, 40.05231], [-80.71758, 40.052], [-80.71762, 40.0511], [-80.71526, 40.05044], [-80.7153, 40.04817], [-80.71618, 40.04896], [-80.71683, 40.04914], [-80.71751, 40.04914], [-80.71791, 40.04929], [-80.71812, 40.04969], [-80.71892, 40.0499], [-80.71964, 40.04998], [-80.71997, 40.04919], [-80.72037, 40.04851], [-80.7206, 40.04797], [-80.72085, 40.04714], [-80.72108, 40.04503], [-80.72023, 40.04463], [-80.72036, 40.04247], [-80.72063, 40.04238], [-80.72164, 40.04249], [-80.72185, 40.04123], [-80.72182, 40.04041], [-80.72157, 40.03934], [-80.72146, 40.0379], [-80.72155, 40.0371], [-80.72148, 40.03656], [-80.72119, 40.03585], [-80.7213, 40.03546], [-80.72236, 40.03439], [-80.7227, 40.03392], [-80.72369, 40.03284], [-80.724361, 40.032856], [-80.72541, 40.03288], [-80.72673, 40.03288], [-80.727093, 40.032856], [-80.7278, 40.03281], [-80.72868, 40.03285], [-80.729027, 40.032957]]]}}, {"type": "Feature", "properties": {"area_id": 6512, "city": "Wheeling", "state": "WV", "city_survey": true, "cat": "Hazardous", "grade": "D", "label": "D7", "res": true, "com": false, "ind": false, "holc_grade": "D"}, "geometry": {"type": "Polygon", "coordinates": [[[-80.65718, 40.04846], [-80.657153, 40.048472], [-80.65581, 40.04906], [-80.65477, 40.04958], [-80.65414, 40.05009], [-80.65336, 40.05047], [-80.65226, 40.05089], [-80.65123, 40.05113], [-80.64978, 40.05136], [-80.64842, 40.04977], [-80.6474, 40.04886], [-80.64845, 40.04874], [-80.64969, 40.04834], [-80.65215, 40.04737], [-80.653, 40.04712], [-80.65392, 40.04666], [-80.65533, 40.04596], [-80.65664, 40.04696], [-80.657701, 40.047794], [-80.65781, 40.04788], [-80.65718, 40.04846]]]}}, {"type": "Feature", "properties": {"area_id": 6513, "city": "Wheeling", "state": "WV", "city_survey": true, "cat": "Hazardous", "grade": "D", "label": "D8", "res": true, "com": false, "ind": false, "holc_grade": "D"}, "geometry": {"type": "Polygon", "coordinates": [[[-80.66254, 40.04616], [-80.66112, 40.0449], [-80.65973, 40.04343], [-80.65952, 40.04293], [-80.6599, 40.04244], [-80.66043, 40.04229], [-80.6611, 40.04197], [-80.6618, 40.0414], [-80.66226, 40.041], [-80.66281, 40.04072], [-80.66355, 40.04111], [-80.66437, 40.04161], [-80.66526, 40.04242], [-80.6657, 40.04347], [-80.66635, 40.0449], [-80.66694, 40.04602], [-80.66815, 40.04829], [-80.66678, 40.04919], [-80.666193, 40.049658], [-80.66614, 40.0497], [-80.665868, 40.049443], [-80.66395, 40.04763], [-80.66254, 40.04616]]]}}]}