{"type": "FeatureCollection", "features": [{"type": "Feature", "geometry": {"type": "Point", "coordinates": [-80.726667, 40.058889]}, "properties": {"facility_name": "BLUE RIBBON PAINT CO", "industry": null, "tri_facility_id": "26003BLRBB2321M"}}, {"type": "Feature", "geometry": {"type": "Point", "coordinates": [-80.701944, 40.103889]}, "properties": {"facility_name": "CENTRE FOUNDRY & MACHINE CO", "industry": null, "tri_facility_id": "26003CNTRF74WAR"}}, {"type": "Feature", "geometry": {"type": "Point", "coordinates": [-80.717778, 40.081111]}, "properties": {"facility_name": "CORONET FOODS INC EAST", "industry": null, "tri_facility_id": "26003CRNTF225MC"}}, {"type": "Feature", "geometry": {"type": "Point", "coordinates": [-80.667222, 40.036667]}, "properties": {"facility_name": "CUSTOM MARBLE CORP", "industry": null, "tri_facility_id": "26003CSTMM90ECO"}}, {"type": "Feature", "geometry": {"type": "Point", "coordinates": [-80.68444444444445, 40.07888888888889]}, "properties": {"facility_name": "HUBCO BRONZE LLC", "industry": null, "tri_facility_id": "26003HBCBR3INDU"}}, {"type": "Feature", "geometry": {"type": "Point", "coordinates": [-80.7125, 40.058333]}, "properties": {"facility_name": "HUBCO BRONZE INC.", "industry": null, "tri_facility_id": "26003HBCNC21418"}}, {"type": "Feature", "geometry": {"type": "Point", "coordinates": [-80.7212, 40.0606]}, "properties": {"facility_name": "HESS CO INDUSTRIES OF WV INC", "industry": null, "tri_facility_id": "26003HSSCN7020T"}}, {"type": "Feature", "geometry": {"type": "Point", "coordinates": [-80.711389, 40.061944]}, "properties": {"facility_name": "OHIO VALLEY STEEL CO FABRICATION DIV", "industry": null, "tri_facility_id": "26003HVLLY20THS"}}, {"type": "Feature", "geometry": {"type": "Point", "coordinates": [-80.665556, 40.047778]}, "properties": {"facility_name": "OHIO VALLEY STEEL CO BUMGARDNER FNDY DIV", "industry": null, "tri_facility_id": "26003HVLLYCOMMU"}}, {"type": "Feature", "geometry": {"type": "Point", "coordinates": [-80.726111, 40.053333]}, "properties": {"facility_name": "POSI CLEAN INC", "industry": null, "tri_facility_id": "26003PSCLN33RDC"}}, {"type": "Feature", "geometry": {"type": "Point", "coordinates": [-80.7038888888889, 40.114444444444445]}, "properties": {"facility_name": "POSITECH INTERNATIONAL INC", "industry": null, "tri_facility_id": "26003PSTCH170NO"}}, {"type": "Feature", "geometry": {"type": "Point", "coordinates": [-80.70777777777778, 40.075]}, "properties": {"facility_name": "SAFETY-KLEEN SYSTEMS WHEELING (WHE)", "industry": null, "tri_facility_id": "26003SFTYK10IND"}}, {"type": "Feature", "geometry": {"type": "Point", "coordinates": [-80.72638888888889, 40.11083333333333]}, "properties": {"facility_name": "SWISHER INTERNATIONAL INC", "industry": null, "tri_facility_id": "26003SWSHR4000W"}}, {"type": "Feature", "geometry": {"type": "Point", "coordinates": [-80.71722222222222, 40.07805555555556]}, "properties": {"facility_name": "WHEELING MACHINE & FOUNDRY CO", "industry": null, "tri_facility_id": "26003WHLDN98PEN"}}, {"type": "Feature", "geometry": {"type": "Point", "coordinates": [-80.722222, 40.055556]}, "properties": {"facility_name": "WHEELING-PITTSBURGH STEEL CORP LABELLE PLANT", "industry": null, "tri_facility_id": "26003WHLNG31STS"}}, {"type": "Feature", "geometry": {"type": "Point", "coordinates": [-80.73055555555555, 40.019999999999996]}, "properties": {"facility_name": "SHOEMAKER MINE", "industry": null, "tri_facility_id": "26031CNSLDRTE2X"}}, {"type": "Feature", "geometry": {"type": "Point", "coordinates": [-80.733333, 40.008333]}, "properties": {"facility_name": "LACLEDE STEEL BENWOOD", "industry": null, "tri_facility_id": "26031LCLDS8THMC"}}]}