{"type": "FeatureCollection", "features": [{"type": "Feature", "geometry": {"type": "Point", "coordinates": [-119.698056, 36.816111]}, "properties": {"facility_name": "ANO-TECH METAL FINISHING INC", "industry": null, "tri_facility_id": "93612TMFNC807LI"}}, {"type": "Feature", "geometry": {"type": "Point", "coordinates": [-119.7, 36.816667]}, "properties": {"facility_name": "VALLEY CHROME PLATING INC.", "industry": null, "tri_facility_id": "93612VLLYC1000H"}}, {"type": "Feature", "geometry": {"type": "Point", "coordinates": [-119.80888888888889, 36.75]}, "properties": {"facility_name": "PRODUCERS DAIRY FOODS INC.", "industry": null, "tri_facility_id": "93701PRDCR250EB"}}, {"type": "Feature", "geometry": {"type": "Point", "coordinates": [-119.834564, 36.7442]}, "properties": {"facility_name": "CUSTOM CHEMICIDES", "industry": null, "tri_facility_id": "93706CSTMC88NHU"}}, {"type": "Feature", "geometry": {"type": "Point", "coordinates": [-119.791667, 36.728056]}, "properties": {"facility_name": "CALIFORNIA DAIRIES INC FRESNO", "industry": null, "tri_facility_id": "93706DNSHC755FS"}}, {"type": "Feature", "geometry": {"type": "Point", "coordinates": [-119.81833333333333, 36.71527777777778]}, "properties": {"facility_name": "DARLING INTERNATIONAL INC.", "industry": null, "tri_facility_id": "93706DRLNG795WE"}}, {"type": "Feature", "geometry": {"type": "Point", "coordinates": [-119.78055555555555, 36.69166666666666]}, "properties": {"facility_name": "FRESNO CHERRY AVENUE", "industry": null, "tri_facility_id": "93706FSTRF2960S"}}, {"type": "Feature", "geometry": {"type": "Point", "coordinates": [-119.833333, 36.717778]}, "properties": {"facility_name": "GOLDEN STATE VINTNERS", "industry": null, "tri_facility_id": "93706GLDNS7409W"}}, {"type": "Feature", "geometry": {"type": "Point", "coordinates": [-119.79694444444445, 36.69638888888888]}, "properties": {"facility_name": "MISSION FOODS - FRESNO", "industry": null, "tri_facility_id": "93706MSSNF2849E"}}, {"type": "Feature", "geometry": {"type": "Point", "coordinates": [-119.772222, 36.709167]}, "properties": {"facility_name": "AMETEK INC", "industry": null, "tri_facility_id": "93706MTKNC2510S"}}, {"type": "Feature", "geometry": {"type": "Point", "coordinates": [-119.818333, 36.715278]}, "properties": {"facility_name": "DARLING INTERNATIONAL INC", "industry": null, "tri_facility_id": "93706PTRSN2354S"}}, {"type": "Feature", "geometry": {"type": "Point", "coordinates": [-119.821389, 36.716667]}, "properties": {"facility_name": "FOSTER FARMS BELGRAVIA PLANT", "industry": null, "tri_facility_id": "93706ZCKYF900WB"}}, {"type": "Feature", "geometry": {"type": "Point", "coordinates": [-119.791667, 36.708333]}, "properties": {"facility_name": "TRILLIUM PUMPS USA INC.", "industry": null, "tri_facility_id": "93707PBDYF2494S"}}, {"type": "Feature", "geometry": {"type": "Point", "coordinates": [-119.865, 36.8]}, "properties": {"facility_name": "BUCKNER BY STORM", "industry": null, "tri_facility_id": "93711BCKNR4381N"}}, {"type": "Feature", "geometry": {"type": "Point", "coordinates": [-119.7828, 36.733]}, "properties": {"facility_name": "WILBUR-ELLIS CO FRESNO", "industry": null, "tri_facility_id": "93715WLBRL2903S"}}, {"type": "Feature", "geometry": {"type": "Point", "coordinates": [-119.775778, 36.7178]}, "properties": {"facility_name": "ATAPCO OFFICE PRODUCTS GROUP", "industry": null, "tri_facility_id": "93721GLBWS2851E"}}, {"type": "Feature", "geometry": {"type": "Point", "coordinates": [-119.78416666666666, 36.723888888888894]}, "properties": {"facility_name": "MODERN CUSTOM FABRICATION INC", "industry": null, "tri_facility_id": "93721TQSTR2421E"}}, {"type": "Feature", "geometry": {"type": "Point", "coordinates": [-119.771538, 36.71896]}, "properties": {"facility_name": "ZACKY FARMS, TURKEY PLANT", "industry": null, "tri_facility_id": "93721ZCKYF2222S"}}, {"type": "Feature", "geometry": {"type": "Point", "coordinates": [-119.85138888888888, 36.7875]}, "properties": {"facility_name": "FOSTER DAIRY FARMS", "industry": null, "tri_facility_id": "93722FSTRF3380W"}}, {"type": "Feature", "geometry": {"type": "Point", "coordinates": [-119.853611, 36.797222]}, "properties": {"facility_name": "MODERN WELDING CO OF CALIFORNIA", "industry": null, "tri_facility_id": "93722MDRNW4141N"}}, {"type": "Feature", "geometry": {"type": "Point", "coordinates": [-119.875, 36.808333]}, "properties": {"facility_name": "MERZON IND", "industry": null, "tri_facility_id": "93722MRZNN4385W"}}, {"type": "Feature", "geometry": {"type": "Point", "coordinates": [-119.766667, 36.708333]}, "properties": {"facility_name": "CANANDAIGUA WINE CO INC CRIBARI  WINERY", "industry": null, "tri_facility_id": "93725BCRBR3223E"}}, {"type": "Feature", "geometry": {"type": "Point", "coordinates": [-119.736, 36.685833]}, "properties": {"facility_name": "ADM PACKAGED OILS", "industry": null, "tri_facility_id": "93725DMPCK3390S"}}, {"type": "Feature", "geometry": {"type": "Point", "coordinates": [-119.786944, 36.711944]}, "properties": {"facility_name": "FMC CORP FRESNO PLANT", "industry": null, "tri_facility_id": "93725FMCCR2501S"}}, {"type": "Feature", "geometry": {"type": "Point", "coordinates": [-119.690278, 36.677222]}, "properties": {"facility_name": "TESSENDERLO KERLEY INC FRESNO PLANT", "industry": null, "tri_facility_id": "93725GFRML5427E"}}, {"type": "Feature", "geometry": {"type": "Point", "coordinates": [-119.7475, 36.700278]}, "properties": {"facility_name": "DSM NUTRITIONAL PRODUCTS INC", "industry": null, "tri_facility_id": "93725HFFMN4539E"}}, {"type": "Feature", "geometry": {"type": "Point", "coordinates": [-119.736667, 36.704167]}, "properties": {"facility_name": "KP IRON FOUNDRY", "industry": null, "tri_facility_id": "93725KPRNF2660S"}}, {"type": "Feature", "geometry": {"type": "Point", "coordinates": [-119.72472222222223, 36.68222222222222]}, "properties": {"facility_name": "MICHELMAN INC", "industry": null, "tri_facility_id": "93725MCHLM3744E"}}, {"type": "Feature", "geometry": {"type": "Point", "coordinates": [-119.758244, 36.6923]}, "properties": {"facility_name": "PEPSI-COLA CO", "industry": null, "tri_facility_id": "93725PPSCL1150E"}}, {"type": "Feature", "geometry": {"type": "Point", "coordinates": [-119.75, 36.708333]}, "properties": {"facility_name": "RANCHERS COTTON OIL", "industry": null, "tri_facility_id": "93725RNCHR2691S"}}, {"type": "Feature", "geometry": {"type": "Point", "coordinates": [-119.76861111111111, 36.70027777777778]}, "properties": {"facility_name": "SANGER BOATS INC", "industry": null, "tri_facility_id": "93725SNGRB3316E"}}, {"type": "Feature", "geometry": {"type": "Point", "coordinates": [-119.75138888888888, 36.71888888888889]}, "properties": {"facility_name": "UNIVAR USA INC- FRESNO", "industry": null, "tri_facility_id": "93725VNWTR4465E"}}, {"type": "Feature", "geometry": {"type": "Point", "coordinates": [-119.71805555555555, 36.764722222222225]}, "properties": {"facility_name": "CMB INDUSTRIES", "industry": null, "tri_facility_id": "93727CMBND1550N"}}, {"type": "Feature", "geometry": {"type": "Point", "coordinates": [-119.683333, 36.783333]}, "properties": {"facility_name": "DUNCAN ENTERPRISES", "industry": null, "tri_facility_id": "93727DNCNN5673E"}}, {"type": "Feature", "geometry": {"type": "Point", "coordinates": [-119.693592, 36.777106]}, "properties": {"facility_name": "DANTEL INC", "industry": null, "tri_facility_id": "93727DNTLN2991N"}}, {"type": "Feature", "geometry": {"type": "Point", "coordinates": [-119.698333, 36.756389]}, "properties": {"facility_name": "E & J GALLO WINERY FRESNO", "industry": null, "tri_facility_id": "93727JGLLW5610O"}}, {"type": "Feature", "geometry": {"type": "Point", "coordinates": [-119.69388888888889, 36.77611111111111]}, "properties": {"facility_name": "CMC STEEL FABRICATORS INC (DBA CMC REBAR FRESNO)", "industry": null, "tri_facility_id": "93727LWLLS2914N"}}, {"type": "Feature", "geometry": {"type": "Point", "coordinates": [-119.71916666666667, 36.7825]}, "properties": {"facility_name": "US FOREST SERVICE FRESNO AIRTANKER BASE", "industry": null, "tri_facility_id": "93727SFRST2307N"}}, {"type": "Feature", "geometry": {"type": "Point", "coordinates": [-119.69833333333334, 36.756388888888885]}, "properties": {"facility_name": "CALIFORNIA NATURAL COLOR", "industry": null, "tri_facility_id": "93727SNJQN5631E"}}, {"type": "Feature", "geometry": {"type": "Point", "coordinates": [-119.73472222222222, 36.77916666666667]}, "properties": {"facility_name": "SUNRISE MEDICAL (US) LLC", "industry": null, "tri_facility_id": "93727SNRSM2842B"}}, {"type": "Feature", "geometry": {"type": "Point", "coordinates": [-119.845278, 36.751389]}, "properties": {"facility_name": "CRAYCROFT BRICK CO", "industry": null, "tri_facility_id": "93728CRYCR2301W"}}, {"type": "Feature", "geometry": {"type": "Point", "coordinates": [-119.82944444444443, 36.761944444444445]}, "properties": {"facility_name": "PACIFIC COAST ANODIZING INC", "industry": null, "tri_facility_id": "93728PCFCC1616W"}}, {"type": "Feature", "geometry": {"type": "Point", "coordinates": [-119.744387, 36.703497]}, "properties": {"facility_name": "CHAMPION PARTS INC", "industry": null, "tri_facility_id": "93745CHMPN2696S"}}, {"type": "Feature", "geometry": {"type": "Point", "coordinates": [-119.716944, 36.699722]}, "properties": {"facility_name": "VITRO FLAT GLASS LLC", "industry": null, "tri_facility_id": "93745PPGND3333S"}}]}