{"type": "FeatureCollection", "features": [{"type": "Feature", "properties": {"area_id": 10479, "city": "Greater Anderson", "state": "SC", "city_survey": false, "cat": "Wholesale", "grade": null, "label": "Wholesale", "res": false, "com": true, "ind": false, "fill": "#245468", "GEOID10": "45007012300", "GISJOIN": "G4500070012300", "calc_area": 41559.69669, "pct_tract": 0.0051}, "geometry": {"type": "MultiPolygon", "coordinates": [[[[-82.65035, 34.50139], [-82.65027, 34.50122], [-82.651329, 34.501078], [-82.651368, 34.501228], [-82.651372, 34.501244], [-82.65035, 34.50139]]], [[[-82.64881, 34.50513], [-82.64594, 34.50557], [-82.645857, 34.505136], [-82.646025, 34.505103], [-82.646377, 34.505025], [-82.646651, 34.504945], [-82.647263, 34.504719], [-82.648718, 34.504466], [-82.64881, 34.50513]]], [[[-82.6517, 34.50724], [-82.65128, 34.50585], [-82.6516, 34.50578], [-82.65135, 34.50515], [-82.65219, 34.50501], [-82.652241, 34.505002], [-82.652246, 34.505022], [-82.652452, 34.505774], [-82.652572, 34.506216], [-82.652717, 34.507064], [-82.6517, 34.50724]]]]}}, {"type": "Feature", "properties": {"area_id": 10479, "city": "Greater Anderson", "state": "SC", "city_survey": false, "cat": "Wholesale", "grade": null, "label": "Wholesale", "res": false, "com": true, "ind": false, "fill": "#245468", "GEOID10": "45007000900", "GISJOIN": "G4500070000900", "calc_area": 47263.37936, "pct_tract": 0.01251}, "geometry": {"type": "MultiPolygon", "coordinates": [[[[-82.65507, 34.50618], [-82.65461, 34.50684], [-82.65339, 34.50759], [-82.65284, 34.50762], [-82.65274, 34.50706], [-82.652717, 34.507064], [-82.652572, 34.506216], [-82.652452, 34.505774], [-82.652246, 34.505022], [-82.652241, 34.505002], [-82.65275, 34.50492], [-82.653466, 34.50503], [-82.653551, 34.505087], [-82.653888, 34.505305], [-82.65507, 34.50618]]]]}}, {"type": "Feature", "properties": {"area_id": 10479, "city": "Greater Anderson", "state": "SC", "city_survey": false, "cat": "Wholesale", "grade": null, "label": "Wholesale", "res": false, "com": true, "ind": false, "fill": "#245468", "GEOID10": "45007000700", "GISJOIN": "G4500070000700", "calc_area": 24110.72403, "pct_tract": 0.00312}, "geometry": {"type": "MultiPolygon", "coordinates": [[[[-82.65601, 34.49904], [-82.6561, 34.49937], [-82.65641, 34.50059], [-82.65656, 34.50117], [-82.6561, 34.50107], [-82.65566, 34.50033], [-82.65528, 34.50019], [-82.65567, 34.49985], [-82.65575, 34.49943], [-82.65601, 34.49904]]], [[[-82.65139, 34.50107], [-82.6514, 34.50124], [-82.651372, 34.501244], [-82.651368, 34.501228], [-82.651329, 34.501078], [-82.65139, 34.50107]]], [[[-82.65293, 34.50104], [-82.65239, 34.5011], [-82.65234, 34.50054], [-82.65279, 34.50048], [-82.65324, 34.50041], [-82.65326, 34.50097], [-82.65341, 34.50094], [-82.65329, 34.50165], [-82.65307, 34.50167], [-82.65293, 34.50104]]], [[[-82.65678, 34.50255], [-82.65694, 34.50316], [-82.6562, 34.50342], [-82.6561, 34.50262], [-82.65678, 34.50255]]], [[[-82.65353, 34.50504], [-82.653888, 34.505305], [-82.653551, 34.505087], [-82.653466, 34.50503], [-82.65353, 34.50504]]]]}}, {"type": "Feature", "properties": {"area_id": 10479, "city": "Greater Anderson", "state": "SC", "city_survey": false, "cat": "Wholesale", "grade": null, "label": "Wholesale", "res": false, "com": true, "ind": false, "fill": "#245468", "GEOID10": "45007000600", "GISJOIN": "G4500070000600", "calc_area": 3691.77241, "pct_tract": 0.00062}, "geometry": {"type": "MultiPolygon", "coordinates": [[[[-82.64581, 34.50489], [-82.6472, 34.50466], [-82.64871, 34.50441], [-82.648718, 34.504466], [-82.647263, 34.504719], [-82.646651, 34.504945], [-82.646377, 34.505025], [-82.646025, 34.505103], [-82.645857, 34.505136], [-82.64581, 34.50489]]]]}}, {"type": "Feature", "properties": {"area_id": 10480, "city": "Greater Anderson", "state": "SC", "city_survey": false, "cat": "Business", "grade": null, "label": "Business", "res": false, "com": true, "ind": false, "fill": "#2c6650", "GEOID10": "45007012300", "GISJOIN": "G4500070012300", "calc_area": 184427.78444, "pct_tract": 0.02264}, "geometry": {"type": "MultiPolygon", "coordinates": [[[[-82.65219, 34.50501], [-82.65135, 34.50515], [-82.6516, 34.50578], [-82.65128, 34.50585], [-82.65068, 34.50592], [-82.65073, 34.50625], [-82.64973, 34.50644], [-82.64936, 34.50503], [-82.64881, 34.50513], [-82.648718, 34.504466], [-82.648767, 34.504457], [-82.648609, 34.503751], [-82.648461, 34.503075], [-82.648387, 34.502742], [-82.64833, 34.50238], [-82.6491, 34.50229], [-82.64891, 34.50159], [-82.64881, 34.50022], [-82.64951, 34.50012], [-82.649509, 34.500116], [-82.649649, 34.500109], [-82.651186, 34.499894], [-82.651213, 34.499998], [-82.651319, 34.501041], [-82.651329, 34.501078], [-82.65027, 34.50122], [-82.65035, 34.50139], [-82.651372, 34.501244], [-82.651388, 34.501305], [-82.6515, 34.501911], [-82.651629, 34.502604], [-82.651722, 34.503105], [-82.651771, 34.503286], [-82.651936, 34.503958], [-82.652022, 34.504242], [-82.65219, 34.50501]]], [[[-82.65106, 34.50761], [-82.65141, 34.50908], [-82.65057, 34.50947], [-82.65013, 34.50769], [-82.65106, 34.50761]]]]}}, {"type": "Feature", "properties": {"area_id": 10480, "city": "Greater Anderson", "state": "SC", "city_survey": false, "cat": "Business", "grade": null, "label": "Business", "res": false, "com": true, "ind": false, "fill": "#2c6650", "GEOID10": "45007000200", "GISJOIN": "G4500070000200", "calc_area": 7101.95248, "pct_tract": 0.00142}, "geometry": {"type": "MultiPolygon", "coordinates": [[[[-82.64831, 34.51223], [-82.64761, 34.5133], [-82.64685, 34.51303], [-82.64777, 34.51227], [-82.64831, 34.51223]]], [[[-82.65523, 34.5189], [-82.65501, 34.51838], [-82.655023, 34.518377], [-82.655238, 34.51887], [-82.655249, 34.518895], [-82.65523, 34.5189]]]]}}, {"type": "Feature", "properties": {"area_id": 10480, "city": "Greater Anderson", "state": "SC", "city_survey": false, "cat": "Business", "grade": null, "label": "Business", "res": false, "com": true, "ind": false, "fill": "#2c6650", "GEOID10": "45007000900", "GISJOIN": "G4500070000900", "calc_area": 5592.9919, "pct_tract": 0.00148}, "geometry": {"type": "MultiPolygon", "coordinates": [[[[-82.65602, 34.51814], [-82.65623, 34.51862], [-82.655249, 34.518895], [-82.655238, 34.51887], [-82.655023, 34.518377], [-82.65602, 34.51814]]]]}}, {"type": "Feature", "properties": {"area_id": 10480, "city": "Greater Anderson", "state": "SC", "city_survey": false, "cat": "Business", "grade": null, "label": "Business", "res": false, "com": true, "ind": false, "fill": "#2c6650", "GEOID10": "45007000700", "GISJOIN": "G4500070000700", "calc_area": 81983.36263, "pct_tract": 0.01062}, "geometry": {"type": "MultiPolygon", "coordinates": [[[[-82.65575, 34.49943], [-82.65567, 34.49985], [-82.65528, 34.50019], [-82.6549, 34.50018], [-82.65541, 34.49983], [-82.65575, 34.49943]]], [[[-82.6565, 34.49936], [-82.65678, 34.50053], [-82.65641, 34.50059], [-82.6561, 34.49937], [-82.6565, 34.49936]]], [[[-82.64921, 34.49879], [-82.65024, 34.49856], [-82.65033, 34.49925], [-82.65107, 34.49912], [-82.6513, 34.50042], [-82.65276, 34.50016], [-82.65279, 34.50048], [-82.65234, 34.50054], [-82.65239, 34.5011], [-82.65293, 34.50104], [-82.65307, 34.50167], [-82.65348, 34.50371], [-82.65196, 34.50396], [-82.652022, 34.504242], [-82.651936, 34.503958], [-82.651771, 34.503286], [-82.651722, 34.503105], [-82.651629, 34.502604], [-82.6515, 34.501911], [-82.651388, 34.501305], [-82.651372, 34.501244], [-82.6514, 34.50124], [-82.65139, 34.50107], [-82.651329, 34.501078], [-82.651319, 34.501041], [-82.651213, 34.499998], [-82.651186, 34.499894], [-82.649649, 34.500109], [-82.649509, 34.500116], [-82.64921, 34.49879]]]]}}, {"type": "Feature", "properties": {"area_id": 10480, "city": "Greater Anderson", "state": "SC", "city_survey": false, "cat": "Business", "grade": null, "label": "Business", "res": false, "com": true, "ind": false, "fill": "#2c6650", "GEOID10": "45007000600", "GISJOIN": "G4500070000600", "calc_area": 21102.97331, "pct_tract": 0.00357}, "geometry": {"type": "MultiPolygon", "coordinates": [[[[-82.64871, 34.50441], [-82.6472, 34.50466], [-82.64712, 34.50398], [-82.64704, 34.50328], [-82.64844, 34.50308], [-82.648387, 34.502742], [-82.648461, 34.503075], [-82.648609, 34.503751], [-82.648767, 34.504457], [-82.648718, 34.504466], [-82.64871, 34.50441]]]]}}, {"type": "Feature", "properties": {"area_id": 10481, "city": "Greater Anderson", "state": "SC", "city_survey": false, "cat": "Best Negro Residential", "grade": null, "label": "Best Negro Residential", "res": true, "com": false, "ind": false, "fill": "#c0a738", "GEOID10": "45007000200", "GISJOIN": "G4500070000200", "calc_area": 37473.20051, "pct_tract": 0.00751}, "geometry": {"type": "MultiPolygon", "coordinates": [[[[-82.64304, 34.51063], [-82.64573, 34.51005], [-82.64584, 34.51049], [-82.64441, 34.51094], [-82.64437, 34.51077], [-82.64344, 34.51094], [-82.64317, 34.51084], [-82.64304, 34.51063]]], [[[-82.65127, 34.51812], [-82.65198, 34.51824], [-82.65243, 34.51821], [-82.65349, 34.5181], [-82.65361, 34.51857], [-82.65271, 34.51883], [-82.65183, 34.51888], [-82.65198, 34.51918], [-82.65152, 34.51939], [-82.65159, 34.52003], [-82.65105, 34.52015], [-82.65072, 34.51951], [-82.65054, 34.51915], [-82.65067, 34.51884], [-82.65158, 34.51884], [-82.6517, 34.51875], [-82.65127, 34.51812]]]]}}, {"type": "Feature", "properties": {"area_id": 10481, "city": "Greater Anderson", "state": "SC", "city_survey": false, "cat": "Best Negro Residential", "grade": null, "label": "Best Negro Residential", "res": true, "com": false, "ind": false, "fill": "#c0a738", "GEOID10": "45007000900", "GISJOIN": "G4500070000900", "calc_area": 120836.62032, "pct_tract": 0.03198}, "geometry": {"type": "MultiPolygon", "coordinates": [[[[-82.65759, 34.51571], [-82.65554, 34.5161], [-82.65522, 34.5152], [-82.6576, 34.51477], [-82.65759, 34.51455], [-82.65879, 34.51411], [-82.65894, 34.51433], [-82.65952, 34.51415], [-82.65997, 34.515], [-82.65949, 34.5153], [-82.66005, 34.51574], [-82.66118, 34.51728], [-82.6602, 34.51754], [-82.65792, 34.51814], [-82.65733, 34.51729], [-82.65709, 34.51654], [-82.65796, 34.51588], [-82.65759, 34.51571]]]]}}, {"type": "Feature", "properties": {"area_id": 10481, "city": "Greater Anderson", "state": "SC", "city_survey": false, "cat": "Best Negro Residential", "grade": null, "label": "Best Negro Residential", "res": true, "com": false, "ind": false, "fill": "#c0a738", "GEOID10": "45007000700", "GISJOIN": "G4500070000700", "calc_area": 163276.49151, "pct_tract": 0.02115}, "geometry": {"type": "MultiPolygon", "coordinates": [[[[-82.65247, 34.49802], [-82.6536, 34.49775], [-82.65445, 34.49745], [-82.65437, 34.49699], [-82.65474, 34.49673], [-82.65482, 34.49642], [-82.65354, 34.49651], [-82.6534, 34.49579], [-82.65179, 34.49579], [-82.65153, 34.49455], [-82.65162, 34.49389], [-82.65288, 34.49375], [-82.65345, 34.49392], [-82.65425, 34.49486], [-82.65467, 34.49579], [-82.65528, 34.49579], [-82.65616, 34.49583], [-82.65719, 34.4957], [-82.65833, 34.49526], [-82.65887, 34.49581], [-82.65787, 34.49624], [-82.65713, 34.49681], [-82.65665, 34.49733], [-82.65651, 34.49789], [-82.65611, 34.49849], [-82.65516, 34.49925], [-82.65442, 34.49953], [-82.65264, 34.49972], [-82.6525, 34.49901], [-82.65268, 34.49898], [-82.65247, 34.49802]], [[-82.65544, 34.49668], [-82.65457, 34.49802], [-82.65468, 34.49869], [-82.65592, 34.49852], [-82.65544, 34.49668]]]]}}, {"type": "Feature", "properties": {"area_id": 10481, "city": "Greater Anderson", "state": "SC", "city_survey": false, "cat": "Best Negro Residential", "grade": null, "label": "Best Negro Residential", "res": true, "com": false, "ind": false, "fill": "#c0a738", "GEOID10": "45007000600", "GISJOIN": "G4500070000600", "calc_area": 419234.50575, "pct_tract": 0.07088}, "geometry": {"type": "MultiPolygon", "coordinates": [[[[-82.63791, 34.49054], [-82.63809, 34.49052], [-82.64239, 34.48994], [-82.64244, 34.49026], [-82.64273, 34.49055], [-82.64357, 34.49067], [-82.6456, 34.49053], [-82.64584, 34.49139], [-82.64491, 34.49152], [-82.64521, 34.49267], [-82.64416, 34.49284], [-82.64407, 34.49263], [-82.6431, 34.493], [-82.64318, 34.49342], [-82.63893, 34.49377], [-82.63883, 34.49419], [-82.63873, 34.49475], [-82.63718, 34.49512], [-82.6365, 34.49528], [-82.63572, 34.4952], [-82.63572, 34.49484], [-82.6368, 34.49434], [-82.63767, 34.4941], [-82.63814, 34.49369], [-82.63883, 34.49365], [-82.6387, 34.49292], [-82.63791, 34.49054]]], [[[-82.64162, 34.496], [-82.64223, 34.49587], [-82.64202, 34.49498], [-82.64358, 34.49474], [-82.64405, 34.49706], [-82.6437, 34.49717], [-82.64339, 34.49714], [-82.64199, 34.49738], [-82.64162, 34.496]]], [[[-82.63583, 34.50216], [-82.63506, 34.50194], [-82.63442, 34.50182], [-82.63357, 34.50172], [-82.63409, 34.50092], [-82.63527, 34.50106], [-82.63567, 34.50114], [-82.63758, 34.50197], [-82.63925, 34.4999], [-82.64345, 34.50249], [-82.64282, 34.50255], [-82.64183, 34.50237], [-82.63977, 34.50256], [-82.6388, 34.50373], [-82.63698, 34.50272], [-82.63583, 34.50216]]]]}}, {"type": "Feature", "properties": {"area_id": 10482, "city": "Greater Anderson", "state": "SC", "city_survey": false, "cat": "Best Residential", "grade": null, "label": "Best Residential", "res": true, "com": false, "ind": false, "fill": "#6c566e", "GEOID10": "45007012300", "GISJOIN": "G4500070012300", "calc_area": 107309.86297, "pct_tract": 0.01317}, "geometry": {"type": "MultiPolygon", "coordinates": [[[[-82.63753, 34.51202], [-82.637511, 34.512037], [-82.637449, 34.512053], [-82.637398, 34.512066], [-82.637018, 34.512122], [-82.63753, 34.51202]]], [[[-82.636684, 34.512189], [-82.636678, 34.512191], [-82.636676, 34.51219], [-82.636684, 34.512189]]], [[[-82.63753, 34.51202], [-82.642369, 34.510972], [-82.642348, 34.510988], [-82.642165, 34.511051], [-82.641958, 34.51111], [-82.641752, 34.511155], [-82.640533, 34.5114], [-82.640404, 34.511451], [-82.64023, 34.511454], [-82.639933, 34.51153], [-82.639363, 34.511649], [-82.638559, 34.511818], [-82.637635, 34.512005], [-82.637602, 34.512014], [-82.637549, 34.512027], [-82.63753, 34.51202]]], [[[-82.65057, 34.50947], [-82.65141, 34.50908], [-82.651468, 34.509128], [-82.651414, 34.509146], [-82.651216, 34.509215], [-82.650382, 34.509665], [-82.650155, 34.509882], [-82.650153, 34.509878], [-82.65057, 34.50947]]], [[[-82.64388, 34.50955], [-82.64345, 34.50767], [-82.64505, 34.50743], [-82.64553, 34.50608], [-82.64709, 34.50586], [-82.6472, 34.50659], [-82.64799, 34.50879], [-82.648056, 34.508911], [-82.646713, 34.509123], [-82.645443, 34.509326], [-82.644802, 34.509424], [-82.643897, 34.509563], [-82.64383, 34.509572], [-82.64388, 34.50955]]], [[[-82.64293, 34.51034], [-82.643221, 34.510024], [-82.643053, 34.510231], [-82.642907, 34.510392], [-82.642746, 34.510585], [-82.64293, 34.51034]]]]}}, {"type": "Feature", "properties": {"area_id": 10482, "city": "Greater Anderson", "state": "SC", "city_survey": false, "cat": "Best Residential", "grade": null, "label": "Best Residential", "res": true, "com": false, "ind": false, "fill": "#6c566e", "GEOID10": "45007000200", "GISJOIN": "G4500070000200", "calc_area": 1260136.59528, "pct_tract": 0.25265}, "geometry": {"type": "MultiPolygon", "coordinates": [[[[-82.637018, 34.512122], [-82.637398, 34.512066], [-82.637449, 34.512053], [-82.637511, 34.512037], [-82.63473, 34.51453], [-82.634, 34.51486], [-82.63319, 34.51321], [-82.63395, 34.51286], [-82.63442, 34.51264], [-82.636676, 34.51219], [-82.636678, 34.512191], [-82.636684, 34.512189], [-82.637018, 34.512122]]], [[[-82.65672, 34.52259], [-82.65566, 34.51995], [-82.6536, 34.52039], [-82.65101, 34.521], [-82.65008, 34.5208], [-82.65008, 34.52029], [-82.64828, 34.52067], [-82.64651, 34.52121], [-82.64507, 34.52102], [-82.64526, 34.52042], [-82.64476, 34.51894], [-82.64453, 34.51798], [-82.64478, 34.5173], [-82.64303, 34.51689], [-82.6419, 34.51641], [-82.64188, 34.51601], [-82.64174, 34.51567], [-82.63986, 34.51502], [-82.6407, 34.51324], [-82.637549, 34.512027], [-82.637602, 34.512014], [-82.637635, 34.512005], [-82.638559, 34.511818], [-82.639363, 34.511649], [-82.639933, 34.51153], [-82.64023, 34.511454], [-82.640404, 34.511451], [-82.640533, 34.5114], [-82.641752, 34.511155], [-82.641958, 34.51111], [-82.642165, 34.511051], [-82.642348, 34.510988], [-82.642369, 34.510972], [-82.64247, 34.51095], [-82.642746, 34.510585], [-82.642907, 34.510392], [-82.643053, 34.510231], [-82.643221, 34.510024], [-82.64351, 34.50971], [-82.64383, 34.509572], [-82.643897, 34.509563], [-82.644802, 34.509424], [-82.645443, 34.509326], [-82.646713, 34.509123], [-82.648056, 34.508911], [-82.64918, 34.51098], [-82.64955, 34.51047], [-82.650153, 34.509878], [-82.650155, 34.509882], [-82.650382, 34.509665], [-82.651216, 34.509215], [-82.651414, 34.509146], [-82.651631, 34.509918], [-82.651844, 34.510672], [-82.65186, 34.510731], [-82.65213, 34.511326], [-82.652386, 34.511932], [-82.652473, 34.51214], [-82.652783, 34.512881], [-82.653207, 34.513893], [-82.653659, 34.51496], [-82.65372, 34.515105], [-82.653822, 34.515374], [-82.654001, 34.51585], [-82.654465, 34.517082], [-82.654505, 34.517188], [-82.654912, 34.518121], [-82.65501, 34.51838], [-82.65523, 34.5189], [-82.655249, 34.518895], [-82.655491, 34.519448], [-82.65553, 34.519548], [-82.655764, 34.520145], [-82.656011, 34.520778], [-82.656402, 34.521783], [-82.656655, 34.522358], [-82.656723, 34.522512], [-82.656955, 34.52304], [-82.65672, 34.52259]], [[-82.65243, 34.51821], [-82.65198, 34.51824], [-82.65127, 34.51812], [-82.6517, 34.51875], [-82.65158, 34.51884], [-82.65067, 34.51884], [-82.65054, 34.51915], [-82.65072, 34.51951], [-82.65105, 34.52015], [-82.65159, 34.52003], [-82.65152, 34.51939], [-82.65198, 34.51918], [-82.65183, 34.51888], [-82.65271, 34.51883], [-82.65361, 34.51857], [-82.65349, 34.5181], [-82.65243, 34.51821]], [[-82.64831, 34.51223], [-82.64777, 34.51227], [-82.64756, 34.51169], [-82.64722, 34.51074], [-82.64664, 34.51088], [-82.64634, 34.50965], [-82.64562, 34.50979], [-82.64573, 34.51005], [-82.64304, 34.51063], [-82.64317, 34.51084], [-82.64344, 34.51094], [-82.64437, 34.51077], [-82.64441, 34.51094], [-82.64584, 34.51049], [-82.64601, 34.51107], [-82.64528, 34.51126], [-82.64566, 34.51248], [-82.64685, 34.51303], [-82.64761, 34.5133], [-82.64831, 34.51223]]], [[[-82.6591, 34.52714], [-82.658604, 34.526192], [-82.659352, 34.52741], [-82.659572, 34.527747], [-82.659574, 34.52775], [-82.6591, 34.52714]]]]}}, {"type": "Feature", "properties": {"area_id": 10482, "city": "Greater Anderson", "state": "SC", "city_survey": false, "cat": "Best Residential", "grade": null, "label": "Best Residential", "res": true, "com": false, "ind": false, "fill": "#6c566e", "GEOID10": "45007001000", "GISJOIN": "G4500070001000", "calc_area": 3241.46307, "pct_tract": 0.00056}, "geometry": {"type": "MultiPolygon", "coordinates": [[[[-82.66844, 34.52646], [-82.66695, 34.52693], [-82.666865, 34.526957], [-82.666933, 34.526807], [-82.666946, 34.526678], [-82.666935, 34.526638], [-82.668232, 34.526377], [-82.668392, 34.526343], [-82.66844, 34.52646]]]]}}, {"type": "Feature", "properties": {"area_id": 10482, "city": "Greater Anderson", "state": "SC", "city_survey": false, "cat": "Best Residential", "grade": null, "label": "Best Residential", "res": true, "com": false, "ind": false, "fill": "#6c566e", "GEOID10": "45007000900", "GISJOIN": "G4500070000900", "calc_area": 1081262.30436, "pct_tract": 0.28615}, "geometry": {"type": "MultiPolygon", "coordinates": [[[[-82.656955, 34.52304], [-82.656723, 34.522512], [-82.656655, 34.522358], [-82.656402, 34.521783], [-82.656011, 34.520778], [-82.655764, 34.520145], [-82.65553, 34.519548], [-82.655491, 34.519448], [-82.655249, 34.518895], [-82.65623, 34.51862], [-82.65792, 34.51814], [-82.6602, 34.51754], [-82.66069, 34.51786], [-82.66081, 34.51833], [-82.66425, 34.51734], [-82.66428, 34.5165], [-82.66485, 34.51636], [-82.66493, 34.51692], [-82.66515, 34.5176], [-82.66611, 34.52007], [-82.66814, 34.51952], [-82.66748, 34.52038], [-82.66702, 34.52077], [-82.66695, 34.52125], [-82.66781, 34.52146], [-82.66729, 34.52365], [-82.668392, 34.526343], [-82.668232, 34.526377], [-82.666935, 34.526638], [-82.666946, 34.526678], [-82.666933, 34.526807], [-82.666865, 34.526957], [-82.66446, 34.52773], [-82.66105, 34.52776], [-82.66108, 34.52861], [-82.66053, 34.52898], [-82.659574, 34.52775], [-82.659572, 34.527747], [-82.659352, 34.52741], [-82.658604, 34.526192], [-82.656955, 34.52304]]], [[[-82.65339, 34.51072], [-82.65366, 34.51123], [-82.65356, 34.51274], [-82.65447, 34.51459], [-82.65408, 34.51592], [-82.654912, 34.518121], [-82.654505, 34.517188], [-82.654465, 34.517082], [-82.654001, 34.51585], [-82.653822, 34.515374], [-82.65372, 34.515105], [-82.653659, 34.51496], [-82.653207, 34.513893], [-82.652783, 34.512881], [-82.652473, 34.51214], [-82.652386, 34.511932], [-82.65213, 34.511326], [-82.65186, 34.510731], [-82.651844, 34.510672], [-82.651631, 34.509918], [-82.651414, 34.509146], [-82.651468, 34.509128], [-82.65339, 34.51072]]]]}}, {"type": "Feature", "properties": {"area_id": 10482, "city": "Greater Anderson", "state": "SC", "city_survey": false, "cat": "Best Residential", "grade": null, "label": "Best Residential", "res": true, "com": false, "ind": false, "fill": "#6c566e", "GEOID10": "45007000700", "GISJOIN": "G4500070000700", "calc_area": 174659.47662, "pct_tract": 0.02262}, "geometry": {"type": "MultiPolygon", "coordinates": [[[[-82.64914, 34.49486], [-82.64927, 34.49562], [-82.64951, 34.49682], [-82.648714, 34.496977], [-82.6487, 34.496915], [-82.648419, 34.495784], [-82.648244, 34.494979], [-82.64914, 34.49486]]], [[[-82.66013, 34.50281], [-82.65902, 34.5025], [-82.65929, 34.50223], [-82.65905, 34.50038], [-82.65867, 34.50046], [-82.65854, 34.49992], [-82.66037, 34.49932], [-82.66273, 34.49954], [-82.66269, 34.50017], [-82.66292, 34.50106], [-82.66305, 34.50187], [-82.66426, 34.50309], [-82.66264, 34.50294], [-82.66285, 34.50365], [-82.66042, 34.50358], [-82.66013, 34.50281]]]]}}, {"type": "Feature", "properties": {"area_id": 10482, "city": "Greater Anderson", "state": "SC", "city_survey": false, "cat": "Best Residential", "grade": null, "label": "Best Residential", "res": true, "com": false, "ind": false, "fill": "#6c566e", "GEOID10": "45007000600", "GISJOIN": "G4500070000600", "calc_area": 329609.3766, "pct_tract": 0.05573}, "geometry": {"type": "MultiPolygon", "coordinates": [[[[-82.64804, 34.49711], [-82.64838, 34.49894], [-82.64838, 34.49956], [-82.64778, 34.49966], [-82.64785, 34.50001], [-82.64718, 34.4998], [-82.64688, 34.49919], [-82.64639, 34.49727], [-82.64626, 34.49729], [-82.64589, 34.49535], [-82.64673, 34.49523], [-82.64659, 34.49469], [-82.6463, 34.49351], [-82.64605, 34.49253], [-82.64689, 34.4924], [-82.64756, 34.49507], [-82.648244, 34.494979], [-82.648419, 34.495784], [-82.6487, 34.496915], [-82.648714, 34.496977], [-82.64804, 34.49711]]], [[[-82.6396, 34.4995], [-82.63925, 34.4999], [-82.63762, 34.49889], [-82.63728, 34.49938], [-82.63537, 34.49838], [-82.63614, 34.4973], [-82.63342, 34.49587], [-82.63548, 34.49608], [-82.63553, 34.49581], [-82.63685, 34.49593], [-82.63718, 34.49512], [-82.63853, 34.49544], [-82.6382, 34.49653], [-82.6394, 34.49714], [-82.64238, 34.49888], [-82.64247, 34.49949], [-82.6431, 34.49983], [-82.64497, 34.50086], [-82.64289, 34.50074], [-82.64188, 34.50049], [-82.64054, 34.50002], [-82.6396, 34.4995]]]]}}, {"type": "Feature", "properties": {"area_id": 10483, "city": "Greater Anderson", "state": "SC", "city_survey": false, "cat": "Blighted Residential", "grade": null, "label": "Blighted Residential", "res": true, "com": false, "ind": false, "fill": "#7d7766", "GEOID10": "45007012300", "GISJOIN": "G4500070012300", "calc_area": 407909.7823, "pct_tract": 0.05008}, "geometry": {"type": "MultiPolygon", "coordinates": [[[[-82.62634, 34.50425], [-82.6267, 34.50372], [-82.63111, 34.50492], [-82.63137, 34.50488], [-82.63177, 34.50397], [-82.63432, 34.50463], [-82.63535, 34.5061], [-82.63623, 34.50659], [-82.63566, 34.50742], [-82.63648, 34.50786], [-82.63575, 34.50867], [-82.63461, 34.50909], [-82.63404, 34.50969], [-82.63353, 34.50997], [-82.62957, 34.50851], [-82.62606, 34.50648], [-82.62634, 34.50425]]]]}}, {"type": "Feature", "properties": {"area_id": 10483, "city": "Greater Anderson", "state": "SC", "city_survey": false, "cat": "Blighted Residential", "grade": null, "label": "Blighted Residential", "res": true, "com": false, "ind": false, "fill": "#7d7766", "GEOID10": "45007000700", "GISJOIN": "G4500070000700", "calc_area": 570554.6745, "pct_tract": 0.07389}, "geometry": {"type": "MultiPolygon", "coordinates": [[[[-82.6565, 34.49936], [-82.6561, 34.49937], [-82.65601, 34.49904], [-82.65575, 34.49943], [-82.65541, 34.49983], [-82.6549, 34.50018], [-82.65324, 34.50041], [-82.65279, 34.50048], [-82.65276, 34.50016], [-82.65264, 34.49972], [-82.65442, 34.49953], [-82.65516, 34.49925], [-82.65611, 34.49849], [-82.65651, 34.49789], [-82.65665, 34.49733], [-82.65713, 34.49681], [-82.65787, 34.49624], [-82.65887, 34.49581], [-82.65833, 34.49526], [-82.65719, 34.4957], [-82.65616, 34.49583], [-82.65528, 34.49579], [-82.65467, 34.49579], [-82.65425, 34.49486], [-82.65345, 34.49392], [-82.65288, 34.49375], [-82.65252, 34.49159], [-82.65193, 34.49107], [-82.65201, 34.48899], [-82.65232, 34.48904], [-82.65404, 34.48931], [-82.65529, 34.49013], [-82.65549, 34.49088], [-82.65791, 34.49065], [-82.66169, 34.49276], [-82.66379, 34.49447], [-82.66246, 34.49533], [-82.66177, 34.49542], [-82.6601, 34.49598], [-82.65921, 34.49661], [-82.6586, 34.4974], [-82.65802, 34.49851], [-82.65773, 34.4997], [-82.6577, 34.50051], [-82.65745, 34.50051], [-82.6575, 34.49978], [-82.6565, 34.49936]]]]}}, {"type": "Feature", "properties": {"area_id": 10484, "city": "Greater Anderson", "state": "SC", "city_survey": false, "cat": "Industrial", "grade": null, "label": "Industrial", "res": false, "com": false, "ind": true, "fill": "#4e5952", "GEOID10": "45007012300", "GISJOIN": "G4500070012300", "calc_area": 295468.61373, "pct_tract": 0.03627}, "geometry": {"type": "MultiPolygon", "coordinates": [[[[-82.63177, 34.50397], [-82.63137, 34.50488], [-82.63111, 34.50492], [-82.6267, 34.50372], [-82.6258, 34.50356], [-82.62595, 34.50248], [-82.6253, 34.50217], [-82.62488, 34.50131], [-82.624678, 34.499416], [-82.625394, 34.499507], [-82.625872, 34.499532], [-82.62615, 34.499536], [-82.626337, 34.499544], [-82.626752, 34.499595], [-82.627167, 34.499691], [-82.627476, 34.499796], [-82.629801, 34.500788], [-82.630557, 34.501105], [-82.631821, 34.501633], [-82.632107, 34.501717], [-82.632388, 34.50177], [-82.632682, 34.501811], [-82.632705, 34.501812], [-82.63177, 34.50397]]], [[[-82.64147, 34.50519], [-82.64091, 34.50491], [-82.641047, 34.504889], [-82.641089, 34.504911], [-82.641441, 34.505076], [-82.641844, 34.505233], [-82.642197, 34.505325], [-82.64147, 34.50519]]], [[[-82.64594, 34.50557], [-82.64601, 34.50578], [-82.64367, 34.50606], [-82.64363, 34.50639], [-82.64292, 34.50652], [-82.642556, 34.505408], [-82.643012, 34.505455], [-82.643523, 34.505451], [-82.643743, 34.505432], [-82.644067, 34.505388], [-82.644646, 34.505292], [-82.645829, 34.505141], [-82.645857, 34.505136], [-82.64594, 34.50557]]], [[[-82.65219, 34.50501], [-82.652022, 34.504242], [-82.652029, 34.504266], [-82.652139, 34.504629], [-82.652146, 34.504655], [-82.652241, 34.505002], [-82.65219, 34.50501]]]]}}, {"type": "Feature", "properties": {"area_id": 10484, "city": "Greater Anderson", "state": "SC", "city_survey": false, "cat": "Industrial", "grade": null, "label": "Industrial", "res": false, "com": false, "ind": true, "fill": "#4e5952", "GEOID10": "45007000900", "GISJOIN": "G4500070000900", "calc_area": 695686.41745, "pct_tract": 0.18411}, "geometry": {"type": "MultiPolygon", "coordinates": [[[[-82.658, 34.51031], [-82.65897, 34.51293], [-82.65711, 34.51324], [-82.65676, 34.51174], [-82.65656, 34.5106], [-82.658, 34.51031]]], [[[-82.67157, 34.5223], [-82.67116, 34.52224], [-82.67125, 34.52197], [-82.66951, 34.52169], [-82.66969, 34.52112], [-82.66977, 34.52026], [-82.66964, 34.51878], [-82.66921, 34.51806], [-82.66843, 34.51795], [-82.6683, 34.51723], [-82.66759, 34.51738], [-82.66729, 34.51706], [-82.66576, 34.51669], [-82.66432, 34.51576], [-82.66329, 34.51509], [-82.66281, 34.51511], [-82.66232, 34.51459], [-82.66071, 34.51517], [-82.65859, 34.51017], [-82.65784, 34.50841], [-82.65719, 34.5089], [-82.6554, 34.5092], [-82.65345, 34.50828], [-82.65284, 34.50762], [-82.65339, 34.50759], [-82.65461, 34.50684], [-82.65507, 34.50618], [-82.653888, 34.505305], [-82.65416, 34.505481], [-82.655086, 34.506094], [-82.656269, 34.506886], [-82.657334, 34.507663], [-82.657721, 34.507946], [-82.659054, 34.508912], [-82.661409, 34.510517], [-82.663699, 34.512078], [-82.665682, 34.51346], [-82.665773, 34.513521], [-82.666256, 34.513827], [-82.668603, 34.515434], [-82.668682, 34.515491], [-82.669132, 34.515801], [-82.670154, 34.516501], [-82.671277, 34.51727], [-82.674222, 34.519321], [-82.674501, 34.519514], [-82.67157, 34.5223]]], [[[-82.65275, 34.50492], [-82.652241, 34.505002], [-82.652146, 34.504655], [-82.652139, 34.504629], [-82.652029, 34.504266], [-82.652723, 34.504546], [-82.652999, 34.504718], [-82.653466, 34.50503], [-82.65275, 34.50492]]], [[[-82.67001, 34.52309], [-82.67092, 34.52321], [-82.67071, 34.52628], [-82.67006, 34.5257], [-82.67023, 34.52413], [-82.67015, 34.52353], [-82.67001, 34.52309]]]]}}, {"type": "Feature", "properties": {"area_id": 10484, "city": "Greater Anderson", "state": "SC", "city_survey": false, "cat": "Industrial", "grade": null, "label": "Industrial", "res": false, "com": false, "ind": true, "fill": "#4e5952", "GEOID10": "45007000800", "GISJOIN": "G4500070000800", "calc_area": 699970.33296, "pct_tract": 0.15144}, "geometry": {"type": "MultiPolygon", "coordinates": [[[[-82.67162, 34.50504], [-82.6719, 34.50526], [-82.67182, 34.50643], [-82.67249, 34.51047], [-82.67286, 34.51134], [-82.67428, 34.51339], [-82.67472, 34.51415], [-82.67563, 34.51509], [-82.67624, 34.5169], [-82.67576, 34.51823], [-82.6746, 34.51942], [-82.674501, 34.519514], [-82.674222, 34.519321], [-82.671277, 34.51727], [-82.670154, 34.516501], [-82.669132, 34.515801], [-82.668682, 34.515491], [-82.668603, 34.515434], [-82.666256, 34.513827], [-82.666278, 34.513806], [-82.666362, 34.513758], [-82.666194, 34.513665], [-82.665978, 34.513507], [-82.66587, 34.513396], [-82.665753, 34.513243], [-82.665718, 34.513198], [-82.665689, 34.512943], [-82.665599, 34.512309], [-82.665559, 34.512143], [-82.665533, 34.512033], [-82.665443, 34.511472], [-82.665312, 34.511014], [-82.665367, 34.511018], [-82.665681, 34.511037], [-82.666492, 34.511154], [-82.666813, 34.511187], [-82.667145, 34.511149], [-82.667432, 34.511064], [-82.667708, 34.510888], [-82.668018, 34.510597], [-82.668185, 34.510376], [-82.668213, 34.510339], [-82.668286, 34.510243], [-82.668303, 34.510212], [-82.668436, 34.509981], [-82.668566, 34.509669], [-82.668638, 34.509494], [-82.668852, 34.509001], [-82.668934, 34.508813], [-82.669051, 34.508595], [-82.66928, 34.508316], [-82.669361, 34.508237], [-82.669501, 34.5081], [-82.669678, 34.507941], [-82.66977, 34.507772], [-82.669785, 34.507613], [-82.66979, 34.507561], [-82.6697, 34.5071], [-82.669633, 34.506672], [-82.669633, 34.506429], [-82.669696, 34.506289], [-82.669844, 34.506063], [-82.669981, 34.505912], [-82.670225, 34.505707], [-82.670548, 34.505412], [-82.670845, 34.505162], [-82.671144, 34.504956], [-82.671143, 34.504951], [-82.671296, 34.504773], [-82.67162, 34.50504]]]]}}, {"type": "Feature", "properties": {"area_id": 10484, "city": "Greater Anderson", "state": "SC", "city_survey": false, "cat": "Industrial", "grade": null, "label": "Industrial", "res": false, "com": false, "ind": true, "fill": "#4e5952", "GEOID10": "45007000700", "GISJOIN": "G4500070000700", "calc_area": 1420080.03019, "pct_tract": 0.18391}, "geometry": {"type": "MultiPolygon", "coordinates": [[[[-82.64827, 34.47999], [-82.64927, 34.47952], [-82.6523, 34.4791], [-82.65321, 34.47955], [-82.65303, 34.48017], [-82.65293, 34.48119], [-82.65202, 34.48143], [-82.65134, 34.48135], [-82.65162, 34.48165], [-82.65187, 34.48296], [-82.65253, 34.4862], [-82.65236, 34.4871], [-82.65293, 34.48844], [-82.65232, 34.48904], [-82.65201, 34.48899], [-82.64973, 34.48876], [-82.647661, 34.488927], [-82.647681, 34.488713], [-82.647712, 34.488481], [-82.64776, 34.488122], [-82.647865, 34.487578], [-82.647882, 34.487458], [-82.6479, 34.487215], [-82.647897, 34.486973], [-82.647862, 34.486476], [-82.647854, 34.486404], [-82.6477, 34.48357], [-82.647631, 34.482268], [-82.64764, 34.482139], [-82.647678, 34.481708], [-82.647711, 34.481386], [-82.647749, 34.481141], [-82.647775, 34.48102], [-82.647844, 34.480779], [-82.647885, 34.480661], [-82.647907, 34.480604], [-82.64827, 34.47999]]], [[[-82.65544, 34.49668], [-82.65592, 34.49852], [-82.65468, 34.49869], [-82.65457, 34.49802], [-82.65544, 34.49668]]], [[[-82.65811, 34.50047], [-82.65854, 34.50151], [-82.65884, 34.50249], [-82.65678, 34.50255], [-82.65656, 34.50117], [-82.65641, 34.50059], [-82.65678, 34.50053], [-82.65745, 34.50051], [-82.6577, 34.50051], [-82.65811, 34.50047]]], [[[-82.65196, 34.50396], [-82.65348, 34.50371], [-82.65443, 34.50368], [-82.6544, 34.50416], [-82.6562, 34.50342], [-82.65694, 34.50316], [-82.65781, 34.50278], [-82.65832, 34.50269], [-82.65843, 34.5031], [-82.65951, 34.50331], [-82.66025, 34.50361], [-82.66053, 34.50396], [-82.66082, 34.50445], [-82.66157, 34.5047], [-82.66335, 34.50471], [-82.66448, 34.50465], [-82.6676, 34.50429], [-82.67001, 34.50455], [-82.67128, 34.50476], [-82.671296, 34.504773], [-82.671143, 34.504951], [-82.671144, 34.504956], [-82.670845, 34.505162], [-82.670548, 34.505412], [-82.670225, 34.505707], [-82.669981, 34.505912], [-82.669844, 34.506063], [-82.669696, 34.506289], [-82.669633, 34.506429], [-82.669633, 34.506672], [-82.6697, 34.5071], [-82.66979, 34.507561], [-82.669785, 34.507613], [-82.66977, 34.507772], [-82.669678, 34.507941], [-82.669501, 34.5081], [-82.669361, 34.508237], [-82.66928, 34.508316], [-82.669051, 34.508595], [-82.668934, 34.508813], [-82.668852, 34.509001], [-82.668638, 34.509494], [-82.668566, 34.509669], [-82.668436, 34.509981], [-82.668303, 34.510212], [-82.668286, 34.510243], [-82.668213, 34.510339], [-82.668185, 34.510376], [-82.668018, 34.510597], [-82.667708, 34.510888], [-82.667432, 34.511064], [-82.667145, 34.511149], [-82.666813, 34.511187], [-82.666492, 34.511154], [-82.665681, 34.511037], [-82.665367, 34.511018], [-82.665312, 34.511014], [-82.665443, 34.511472], [-82.665533, 34.512033], [-82.665559, 34.512143], [-82.665599, 34.512309], [-82.665689, 34.512943], [-82.665718, 34.513198], [-82.665753, 34.513243], [-82.66587, 34.513396], [-82.665978, 34.513507], [-82.666194, 34.513665], [-82.666362, 34.513758], [-82.666278, 34.513806], [-82.666256, 34.513827], [-82.665773, 34.513521], [-82.665682, 34.51346], [-82.663699, 34.512078], [-82.661409, 34.510517], [-82.659054, 34.508912], [-82.657721, 34.507946], [-82.657334, 34.507663], [-82.656269, 34.506886], [-82.655086, 34.506094], [-82.65416, 34.505481], [-82.653888, 34.505305], [-82.65353, 34.50504], [-82.653466, 34.50503], [-82.652999, 34.504718], [-82.652723, 34.504546], [-82.652029, 34.504266], [-82.652022, 34.504242], [-82.65196, 34.50396]]]]}}, {"type": "Feature", "properties": {"area_id": 10484, "city": "Greater Anderson", "state": "SC", "city_survey": false, "cat": "Industrial", "grade": null, "label": "Industrial", "res": false, "com": false, "ind": true, "fill": "#4e5952", "GEOID10": "45007000600", "GISJOIN": "G4500070000600", "calc_area": 420514.30359, "pct_tract": 0.0711}, "geometry": {"type": "MultiPolygon", "coordinates": [[[[-82.6476, 34.48169], [-82.64749, 34.48131], [-82.647907, 34.480604], [-82.647885, 34.480661], [-82.647844, 34.480779], [-82.647775, 34.48102], [-82.647749, 34.481141], [-82.647711, 34.481386], [-82.647678, 34.481708], [-82.64764, 34.482139], [-82.647631, 34.482268], [-82.6476, 34.48169]]], [[[-82.64762, 34.48893], [-82.64789, 34.48707], [-82.647854, 34.486404], [-82.647862, 34.486476], [-82.647897, 34.486973], [-82.6479, 34.487215], [-82.647882, 34.487458], [-82.647865, 34.487578], [-82.64776, 34.488122], [-82.647712, 34.488481], [-82.647681, 34.488713], [-82.647661, 34.488927], [-82.64762, 34.48893]]], [[[-82.64521, 34.50216], [-82.64538, 34.50296], [-82.64365, 34.50319], [-82.64379, 34.50281], [-82.64345, 34.50249], [-82.64521, 34.50216]]], [[[-82.62443, 34.4971], [-82.62421, 34.49589], [-82.6268, 34.49663], [-82.62744, 34.49643], [-82.62757, 34.4968], [-82.63177, 34.49565], [-82.63352, 34.49762], [-82.63289, 34.49963], [-82.63287, 34.50143], [-82.632705, 34.501812], [-82.632682, 34.501811], [-82.632388, 34.50177], [-82.632107, 34.501717], [-82.631821, 34.501633], [-82.630557, 34.501105], [-82.629801, 34.500788], [-82.627476, 34.499796], [-82.627167, 34.499691], [-82.626752, 34.499595], [-82.626337, 34.499544], [-82.62615, 34.499536], [-82.625872, 34.499532], [-82.625394, 34.499507], [-82.62539, 34.499363], [-82.625363, 34.499237], [-82.625277, 34.499088], [-82.625105, 34.49888], [-82.624856, 34.498651], [-82.624577, 34.498228], [-82.624557, 34.498152], [-82.62454, 34.498126], [-82.62443, 34.4971]]], [[[-82.64374, 34.50448], [-82.64567, 34.5042], [-82.64712, 34.50398], [-82.6472, 34.50466], [-82.64581, 34.50489], [-82.645857, 34.505136], [-82.645829, 34.505141], [-82.644646, 34.505292], [-82.644067, 34.505388], [-82.643743, 34.505432], [-82.643523, 34.505451], [-82.643012, 34.505455], [-82.642556, 34.505408], [-82.64255, 34.50539], [-82.642197, 34.505325], [-82.641844, 34.505233], [-82.641441, 34.505076], [-82.641089, 34.504911], [-82.641047, 34.504889], [-82.64374, 34.50448]]]]}}, {"type": "Feature", "properties": {"area_id": 10484, "city": "Greater Anderson", "state": "SC", "city_survey": false, "cat": "Industrial", "grade": null, "label": "Industrial", "res": false, "com": false, "ind": true, "fill": "#4e5952", "GEOID10": "45007000500", "GISJOIN": "G4500070000500", "calc_area": 5338.92483, "pct_tract": 0.00067}, "geometry": {"type": "MultiPolygon", "coordinates": [[[[-82.62454, 34.498126], [-82.624557, 34.498152], [-82.624577, 34.498228], [-82.624856, 34.498651], [-82.625105, 34.49888], [-82.625277, 34.499088], [-82.625363, 34.499237], [-82.62539, 34.499363], [-82.625394, 34.499507], [-82.624678, 34.499416], [-82.62454, 34.498126]]]]}}, {"type": "Feature", "properties": {"area_id": 10485, "city": "Greater Anderson", "state": "SC", "city_survey": false, "cat": "Fair Residential", "grade": null, "label": "Fair Residential", "res": true, "com": false, "ind": false, "fill": "#c17563", "GEOID10": "45007012300", "GISJOIN": "G4500070012300", "calc_area": 926214.56694, "pct_tract": 0.11371}, "geometry": {"type": "MultiPolygon", "coordinates": [[[[-82.64951, 34.50012], [-82.64881, 34.50022], [-82.64891, 34.50159], [-82.6491, 34.50229], [-82.64833, 34.50238], [-82.648387, 34.502742], [-82.648384, 34.502729], [-82.648316, 34.50239], [-82.64818, 34.501713], [-82.648075, 34.501141], [-82.648046, 34.50103], [-82.647951, 34.500654], [-82.647883, 34.500344], [-82.649349, 34.500125], [-82.649453, 34.500119], [-82.649509, 34.500116], [-82.64951, 34.50012]]], [[[-82.63091, 34.51125], [-82.63183, 34.51075], [-82.63264, 34.51058], [-82.63353, 34.50997], [-82.63404, 34.50969], [-82.63461, 34.50909], [-82.63575, 34.50867], [-82.63648, 34.50786], [-82.63566, 34.50742], [-82.63623, 34.50659], [-82.63535, 34.5061], [-82.63432, 34.50463], [-82.63177, 34.50397], [-82.632705, 34.501812], [-82.633481, 34.50185], [-82.634204, 34.501898], [-82.63468, 34.501969], [-82.63509, 34.502053], [-82.63556, 34.502191], [-82.635854, 34.502296], [-82.636623, 34.502624], [-82.636936, 34.502786], [-82.638965, 34.503823], [-82.641047, 34.504889], [-82.64091, 34.50491], [-82.64147, 34.50519], [-82.642197, 34.505325], [-82.642491, 34.505401], [-82.642556, 34.505408], [-82.64292, 34.50652], [-82.64363, 34.50639], [-82.64367, 34.50606], [-82.64601, 34.50578], [-82.64594, 34.50557], [-82.64881, 34.50513], [-82.64936, 34.50503], [-82.64973, 34.50644], [-82.65073, 34.50625], [-82.65108, 34.50735], [-82.6517, 34.50724], [-82.652717, 34.507064], [-82.652719, 34.507077], [-82.652765, 34.507346], [-82.652935, 34.508147], [-82.653091, 34.508886], [-82.652897, 34.508921], [-82.651604, 34.509081], [-82.651468, 34.509128], [-82.65141, 34.50908], [-82.65106, 34.50761], [-82.65013, 34.50769], [-82.65057, 34.50947], [-82.650153, 34.509878], [-82.650069, 34.509678], [-82.649971, 34.509395], [-82.649731, 34.508647], [-82.648214, 34.508886], [-82.648056, 34.508911], [-82.64799, 34.50879], [-82.6472, 34.50659], [-82.64709, 34.50586], [-82.64553, 34.50608], [-82.64505, 34.50743], [-82.64345, 34.50767], [-82.64388, 34.50955], [-82.64383, 34.509572], [-82.643727, 34.509585], [-82.643583, 34.509655], [-82.64347, 34.509717], [-82.643221, 34.510024], [-82.64293, 34.51034], [-82.642746, 34.510585], [-82.642513, 34.510862], [-82.642369, 34.510972], [-82.63753, 34.51202], [-82.637018, 34.512122], [-82.637005, 34.512124], [-82.636755, 34.512161], [-82.636684, 34.512189], [-82.636676, 34.51219], [-82.635151, 34.51153], [-82.634373, 34.511212], [-82.633792, 34.510983], [-82.632816, 34.510573], [-82.632416, 34.51084], [-82.631482, 34.511557], [-82.631434, 34.511591], [-82.63091, 34.51125]]]]}}, {"type": "Feature", "properties": {"area_id": 10485, "city": "Greater Anderson", "state": "SC", "city_survey": false, "cat": "Fair Residential", "grade": null, "label": "Fair Residential", "res": true, "com": false, "ind": false, "fill": "#c17563", "GEOID10": "45007000200", "GISJOIN": "G4500070000200", "calc_area": 184657.79977, "pct_tract": 0.03702}, "geometry": {"type": "MultiPolygon", "coordinates": [[[[-82.64634, 34.50965], [-82.64664, 34.51088], [-82.64601, 34.51107], [-82.64584, 34.51049], [-82.64573, 34.51005], [-82.64562, 34.50979], [-82.64634, 34.50965]]], [[[-82.64756, 34.51169], [-82.64777, 34.51227], [-82.64685, 34.51303], [-82.64566, 34.51248], [-82.64756, 34.51169]]], [[[-82.63986, 34.51502], [-82.64174, 34.51567], [-82.64188, 34.51601], [-82.6419, 34.51641], [-82.64303, 34.51689], [-82.64478, 34.5173], [-82.64453, 34.51798], [-82.64476, 34.51894], [-82.64387, 34.51875], [-82.64208, 34.5178], [-82.64, 34.51651], [-82.63938, 34.51597], [-82.63986, 34.51502]]], [[[-82.63442, 34.51264], [-82.63395, 34.51286], [-82.63297, 34.51216], [-82.63177, 34.51181], [-82.631434, 34.511591], [-82.631482, 34.511557], [-82.632416, 34.51084], [-82.632816, 34.510573], [-82.633792, 34.510983], [-82.634373, 34.511212], [-82.635151, 34.51153], [-82.636676, 34.51219], [-82.63442, 34.51264]]], [[[-82.636684, 34.512189], [-82.636755, 34.512161], [-82.637005, 34.512124], [-82.637018, 34.512122], [-82.636684, 34.512189]]], [[[-82.64247, 34.51095], [-82.642369, 34.510972], [-82.642513, 34.510862], [-82.642746, 34.510585], [-82.64247, 34.51095]]], [[[-82.64351, 34.50971], [-82.643221, 34.510024], [-82.64347, 34.509717], [-82.643583, 34.509655], [-82.643727, 34.509585], [-82.64383, 34.509572], [-82.64351, 34.50971]]], [[[-82.64955, 34.51047], [-82.64918, 34.51098], [-82.648056, 34.508911], [-82.648214, 34.508886], [-82.649731, 34.508647], [-82.649971, 34.509395], [-82.650069, 34.509678], [-82.650153, 34.509878], [-82.64955, 34.51047]]], [[[-82.65501, 34.51838], [-82.654912, 34.518121], [-82.65494, 34.518185], [-82.655023, 34.518377], [-82.65501, 34.51838]]]]}}, {"type": "Feature", "properties": {"area_id": 10485, "city": "Greater Anderson", "state": "SC", "city_survey": false, "cat": "Fair Residential", "grade": null, "label": "Fair Residential", "res": true, "com": false, "ind": false, "fill": "#c17563", "GEOID10": "45007001000", "GISJOIN": "G4500070001000", "calc_area": 1272.4916, "pct_tract": 0.00022}, "geometry": {"type": "MultiPolygon", "coordinates": [[[[-82.66844, 34.52646], [-82.668392, 34.526343], [-82.668964, 34.52622], [-82.66923, 34.526162], [-82.669999, 34.526003], [-82.669999, 34.526029], [-82.66844, 34.52646]]]]}}, {"type": "Feature", "properties": {"area_id": 10485, "city": "Greater Anderson", "state": "SC", "city_survey": false, "cat": "Fair Residential", "grade": null, "label": "Fair Residential", "res": true, "com": false, "ind": false, "fill": "#c17563", "GEOID10": "45007000900", "GISJOIN": "G4500070000900", "calc_area": 787044.07085, "pct_tract": 0.20829}, "geometry": {"type": "MultiPolygon", "coordinates": [[[[-82.65408, 34.51592], [-82.65447, 34.51459], [-82.65356, 34.51274], [-82.65366, 34.51123], [-82.65339, 34.51072], [-82.651468, 34.509128], [-82.651604, 34.509081], [-82.652897, 34.508921], [-82.653091, 34.508886], [-82.652935, 34.508147], [-82.652765, 34.507346], [-82.652719, 34.507077], [-82.652717, 34.507064], [-82.65274, 34.50706], [-82.65284, 34.50762], [-82.65345, 34.50828], [-82.6554, 34.5092], [-82.65719, 34.5089], [-82.65784, 34.50841], [-82.65859, 34.51017], [-82.66071, 34.51517], [-82.66232, 34.51459], [-82.66281, 34.51511], [-82.66329, 34.51509], [-82.66432, 34.51576], [-82.66576, 34.51669], [-82.66729, 34.51706], [-82.66759, 34.51738], [-82.6683, 34.51723], [-82.66843, 34.51795], [-82.66921, 34.51806], [-82.66964, 34.51878], [-82.66977, 34.52026], [-82.66969, 34.52112], [-82.66951, 34.52169], [-82.67125, 34.52197], [-82.67116, 34.52224], [-82.67092, 34.52321], [-82.67001, 34.52309], [-82.67015, 34.52353], [-82.67023, 34.52413], [-82.67006, 34.5257], [-82.67003, 34.52602], [-82.669999, 34.526029], [-82.669999, 34.526003], [-82.66923, 34.526162], [-82.668964, 34.52622], [-82.668392, 34.526343], [-82.66729, 34.52365], [-82.66781, 34.52146], [-82.66695, 34.52125], [-82.66702, 34.52077], [-82.66748, 34.52038], [-82.66814, 34.51952], [-82.66611, 34.52007], [-82.66515, 34.5176], [-82.66493, 34.51692], [-82.66485, 34.51636], [-82.66428, 34.5165], [-82.66425, 34.51734], [-82.66081, 34.51833], [-82.66069, 34.51786], [-82.6602, 34.51754], [-82.66118, 34.51728], [-82.66005, 34.51574], [-82.65949, 34.5153], [-82.65997, 34.515], [-82.65952, 34.51415], [-82.65894, 34.51433], [-82.65879, 34.51411], [-82.65759, 34.51455], [-82.6576, 34.51477], [-82.65522, 34.5152], [-82.65554, 34.5161], [-82.65759, 34.51571], [-82.65796, 34.51588], [-82.65709, 34.51654], [-82.65733, 34.51729], [-82.65792, 34.51814], [-82.65623, 34.51862], [-82.65602, 34.51814], [-82.655023, 34.518377], [-82.65494, 34.518185], [-82.654912, 34.518121], [-82.65408, 34.51592]], [[-82.65711, 34.51324], [-82.65897, 34.51293], [-82.658, 34.51031], [-82.65656, 34.5106], [-82.65676, 34.51174], [-82.65711, 34.51324]]]]}}, {"type": "Feature", "properties": {"area_id": 10485, "city": "Greater Anderson", "state": "SC", "city_survey": false, "cat": "Fair Residential", "grade": null, "label": "Fair Residential", "res": true, "com": false, "ind": false, "fill": "#c17563", "GEOID10": "45007000800", "GISJOIN": "G4500070000800", "calc_area": 4985.91511, "pct_tract": 0.00108}, "geometry": {"type": "MultiPolygon", "coordinates": [[[[-82.6717, 34.50372], [-82.67186, 34.50447], [-82.67162, 34.50504], [-82.671296, 34.504773], [-82.671401, 34.504651], [-82.671429, 34.504553], [-82.671465, 34.504421], [-82.671472, 34.504115], [-82.671442, 34.503881], [-82.67138, 34.503652], [-82.67132, 34.503436], [-82.671268, 34.50328], [-82.6717, 34.50372]]]]}}, {"type": "Feature", "properties": {"area_id": 10485, "city": "Greater Anderson", "state": "SC", "city_survey": false, "cat": "Fair Residential", "grade": null, "label": "Fair Residential", "res": true, "com": false, "ind": false, "fill": "#c17563", "GEOID10": "45007000700", "GISJOIN": "G4500070000700", "calc_area": 1325195.2668, "pct_tract": 0.17162}, "geometry": {"type": "MultiPolygon", "coordinates": [[[[-82.6565, 34.49936], [-82.6575, 34.49978], [-82.65745, 34.50051], [-82.65678, 34.50053], [-82.6565, 34.49936]]], [[[-82.6561, 34.50262], [-82.6562, 34.50342], [-82.6544, 34.50416], [-82.65443, 34.50368], [-82.65348, 34.50371], [-82.65307, 34.50167], [-82.65329, 34.50165], [-82.65341, 34.50094], [-82.65326, 34.50097], [-82.65324, 34.50041], [-82.6549, 34.50018], [-82.65528, 34.50019], [-82.65566, 34.50033], [-82.6561, 34.50107], [-82.65656, 34.50117], [-82.65678, 34.50255], [-82.6561, 34.50262]]], [[[-82.64973, 34.48876], [-82.65201, 34.48899], [-82.65193, 34.49107], [-82.65252, 34.49159], [-82.65288, 34.49375], [-82.65162, 34.49389], [-82.65153, 34.49455], [-82.65179, 34.49579], [-82.6534, 34.49579], [-82.65354, 34.49651], [-82.65482, 34.49642], [-82.65474, 34.49673], [-82.65437, 34.49699], [-82.65445, 34.49745], [-82.6536, 34.49775], [-82.65247, 34.49802], [-82.65268, 34.49898], [-82.6525, 34.49901], [-82.65264, 34.49972], [-82.65276, 34.50016], [-82.6513, 34.50042], [-82.65107, 34.49912], [-82.65033, 34.49925], [-82.65024, 34.49856], [-82.64921, 34.49879], [-82.649509, 34.500116], [-82.649453, 34.500119], [-82.649418, 34.499829], [-82.649337, 34.499421], [-82.649216, 34.499013], [-82.649155, 34.49883], [-82.649107, 34.498682], [-82.648934, 34.497929], [-82.648714, 34.496977], [-82.64951, 34.49682], [-82.64927, 34.49562], [-82.64914, 34.49486], [-82.648244, 34.494979], [-82.648243, 34.494974], [-82.648239, 34.49496], [-82.647993, 34.493829], [-82.647846, 34.493193], [-82.647693, 34.492525], [-82.647671, 34.492397], [-82.647653, 34.492298], [-82.647629, 34.492049], [-82.647629, 34.491294], [-82.647624, 34.490891], [-82.647634, 34.490198], [-82.647649, 34.489061], [-82.647656, 34.488982], [-82.647661, 34.488927], [-82.64973, 34.48876]]], [[[-82.6477, 34.48357], [-82.647854, 34.486404], [-82.64782, 34.486104], [-82.647757, 34.485274], [-82.647743, 34.485113], [-82.647722, 34.484894], [-82.647648, 34.484053], [-82.647626, 34.483606], [-82.647624, 34.483574], [-82.6477, 34.48357]]], [[[-82.67128, 34.50476], [-82.67001, 34.50455], [-82.6676, 34.50429], [-82.66448, 34.50465], [-82.66335, 34.50471], [-82.66157, 34.5047], [-82.66082, 34.50445], [-82.66053, 34.50396], [-82.66025, 34.50361], [-82.65951, 34.50331], [-82.65843, 34.5031], [-82.65832, 34.50269], [-82.65781, 34.50278], [-82.65694, 34.50316], [-82.65678, 34.50255], [-82.65884, 34.50249], [-82.65854, 34.50151], [-82.65811, 34.50047], [-82.6577, 34.50051], [-82.65773, 34.4997], [-82.65802, 34.49851], [-82.6586, 34.4974], [-82.65921, 34.49661], [-82.6601, 34.49598], [-82.66177, 34.49542], [-82.66246, 34.49533], [-82.66379, 34.49447], [-82.66459, 34.49745], [-82.66584, 34.49727], [-82.66644, 34.49848], [-82.66809, 34.49927], [-82.66914, 34.50014], [-82.67103, 34.50071], [-82.67115, 34.50316], [-82.671268, 34.50328], [-82.67132, 34.503436], [-82.67138, 34.503652], [-82.671442, 34.503881], [-82.671472, 34.504115], [-82.671465, 34.504421], [-82.671429, 34.504553], [-82.671401, 34.504651], [-82.671296, 34.504773], [-82.67128, 34.50476]], [[-82.66285, 34.50365], [-82.66264, 34.50294], [-82.66426, 34.50309], [-82.66305, 34.50187], [-82.66292, 34.50106], [-82.66269, 34.50017], [-82.66273, 34.49954], [-82.66037, 34.49932], [-82.65854, 34.49992], [-82.65867, 34.50046], [-82.65905, 34.50038], [-82.65929, 34.50223], [-82.65902, 34.5025], [-82.66013, 34.50281], [-82.66042, 34.50358], [-82.66285, 34.50365]]]]}}, {"type": "Feature", "properties": {"area_id": 10485, "city": "Greater Anderson", "state": "SC", "city_survey": false, "cat": "Fair Residential", "grade": null, "label": "Fair Residential", "res": true, "com": false, "ind": false, "fill": "#c17563", "GEOID10": "45007000600", "GISJOIN": "G4500070000600", "calc_area": 1316380.0038, "pct_tract": 0.22257}, "geometry": {"type": "MultiPolygon", "coordinates": [[[[-82.64844, 34.50308], [-82.64704, 34.50328], [-82.64712, 34.50398], [-82.64567, 34.5042], [-82.64538, 34.50296], [-82.64521, 34.50216], [-82.64345, 34.50249], [-82.63925, 34.4999], [-82.6396, 34.4995], [-82.64054, 34.50002], [-82.64188, 34.50049], [-82.64289, 34.50074], [-82.64497, 34.50086], [-82.6431, 34.49983], [-82.64247, 34.49949], [-82.64238, 34.49888], [-82.6394, 34.49714], [-82.6382, 34.49653], [-82.63853, 34.49544], [-82.63718, 34.49512], [-82.63873, 34.49475], [-82.63883, 34.49419], [-82.63893, 34.49377], [-82.64318, 34.49342], [-82.6431, 34.493], [-82.64407, 34.49263], [-82.64416, 34.49284], [-82.64521, 34.49267], [-82.64491, 34.49152], [-82.64584, 34.49139], [-82.6456, 34.49053], [-82.64357, 34.49067], [-82.64273, 34.49055], [-82.64244, 34.49026], [-82.64239, 34.48994], [-82.63809, 34.49052], [-82.63803, 34.49013], [-82.64226, 34.48968], [-82.64521, 34.48935], [-82.64487, 34.488], [-82.64431, 34.48555], [-82.64408, 34.48464], [-82.64457, 34.4845], [-82.64461, 34.48412], [-82.64507, 34.48375], [-82.64619, 34.48364], [-82.647624, 34.483574], [-82.647626, 34.483606], [-82.647648, 34.484053], [-82.647722, 34.484894], [-82.647743, 34.485113], [-82.647757, 34.485274], [-82.64782, 34.486104], [-82.647854, 34.486404], [-82.64789, 34.48707], [-82.64762, 34.48893], [-82.647661, 34.488927], [-82.647656, 34.488982], [-82.647649, 34.489061], [-82.647634, 34.490198], [-82.647624, 34.490891], [-82.647629, 34.491294], [-82.647629, 34.492049], [-82.647653, 34.492298], [-82.647671, 34.492397], [-82.647693, 34.492525], [-82.647846, 34.493193], [-82.647993, 34.493829], [-82.648239, 34.49496], [-82.648243, 34.494974], [-82.648244, 34.494979], [-82.64756, 34.49507], [-82.64689, 34.4924], [-82.64605, 34.49253], [-82.6463, 34.49351], [-82.64391, 34.4937], [-82.6441, 34.49504], [-82.64659, 34.49469], [-82.64673, 34.49523], [-82.64589, 34.49535], [-82.64626, 34.49729], [-82.64639, 34.49727], [-82.64688, 34.49919], [-82.64718, 34.4998], [-82.64785, 34.50001], [-82.64778, 34.49966], [-82.64838, 34.49956], [-82.64838, 34.49894], [-82.64804, 34.49711], [-82.648714, 34.496977], [-82.648934, 34.497929], [-82.649107, 34.498682], [-82.649155, 34.49883], [-82.649216, 34.499013], [-82.649337, 34.499421], [-82.649418, 34.499829], [-82.649453, 34.500119], [-82.649349, 34.500125], [-82.647883, 34.500344], [-82.647951, 34.500654], [-82.648046, 34.50103], [-82.648075, 34.501141], [-82.64818, 34.501713], [-82.648316, 34.50239], [-82.648384, 34.502729], [-82.648387, 34.502742], [-82.64844, 34.50308]], [[-82.64339, 34.49714], [-82.6437, 34.49717], [-82.64405, 34.49706], [-82.64358, 34.49474], [-82.64202, 34.49498], [-82.64223, 34.49587], [-82.64162, 34.496], [-82.64199, 34.49738], [-82.64339, 34.49714]]], [[[-82.63287, 34.50143], [-82.63289, 34.49963], [-82.63352, 34.49762], [-82.63177, 34.49565], [-82.62757, 34.4968], [-82.62744, 34.49643], [-82.62802, 34.49595], [-82.63045, 34.49524], [-82.63194, 34.49468], [-82.632, 34.49429], [-82.63274, 34.49441], [-82.63264, 34.49502], [-82.63572, 34.49484], [-82.63572, 34.4952], [-82.6365, 34.49528], [-82.63718, 34.49512], [-82.63685, 34.49593], [-82.63553, 34.49581], [-82.63548, 34.49608], [-82.63342, 34.49587], [-82.63614, 34.4973], [-82.63537, 34.49838], [-82.63728, 34.49938], [-82.63762, 34.49889], [-82.63925, 34.4999], [-82.63758, 34.50197], [-82.63567, 34.50114], [-82.63527, 34.50106], [-82.63409, 34.50092], [-82.63357, 34.50172], [-82.63442, 34.50182], [-82.63506, 34.50194], [-82.63583, 34.50216], [-82.63698, 34.50272], [-82.6388, 34.50373], [-82.63977, 34.50256], [-82.64183, 34.50237], [-82.64282, 34.50255], [-82.64345, 34.50249], [-82.64379, 34.50281], [-82.64365, 34.50319], [-82.64374, 34.50448], [-82.641047, 34.504889], [-82.638965, 34.503823], [-82.636936, 34.502786], [-82.636623, 34.502624], [-82.635854, 34.502296], [-82.63556, 34.502191], [-82.63509, 34.502053], [-82.63468, 34.501969], [-82.634204, 34.501898], [-82.633481, 34.50185], [-82.632705, 34.501812], [-82.63287, 34.50143]]], [[[-82.64255, 34.50539], [-82.642556, 34.505408], [-82.642491, 34.505401], [-82.642197, 34.505325], [-82.64255, 34.50539]]]]}}]}