{"type": "FeatureCollection", "features": [{"type": "Feature", "geometry": {"type": "Point", "coordinates": [-82.654716, 34.495888]}, "properties": {"facility_name": "CULP WOVEN VELVETS", "industry": null, "tri_facility_id": "29621CLPWV414WE"}}, {"type": "Feature", "geometry": {"type": "Point", "coordinates": [-82.6188, 34.5364]}, "properties": {"facility_name": "METROMONT MATERIALS", "industry": null, "tri_facility_id": "29621MTRMNPEARM"}}, {"type": "Feature", "geometry": {"type": "Point", "coordinates": [-82.677222, 34.468611]}, "properties": {"facility_name": "SCHMID LABORATORIES INC", "industry": null, "tri_facility_id": "29622SCHMDUSHWY"}}, {"type": "Feature", "geometry": {"type": "Point", "coordinates": [-82.662778, 34.435]}, "properties": {"facility_name": "OWENS CORNING VETROTEX LLC - STARR SC", "industry": null, "tri_facility_id": "29622WNSCRHIGHW"}}, {"type": "Feature", "geometry": {"type": "Point", "coordinates": [-82.7125, 34.540833]}, "properties": {"facility_name": "VYTECH INDUSTRIES INC", "industry": null, "tri_facility_id": "29623STFFRPEARM"}}, {"type": "Feature", "geometry": {"type": "Point", "coordinates": [-82.683333, 34.45]}, "properties": {"facility_name": "FIRST QUALITY TISSUE SE", "industry": null, "tri_facility_id": "29624BSFCRMASTE"}}, {"type": "Feature", "geometry": {"type": "Point", "coordinates": [-82.655, 34.479167]}, "properties": {"facility_name": "HEXCEL REINFORCEMENTS CORP", "industry": null, "tri_facility_id": "29624CLRKS2200S"}}, {"type": "Feature", "geometry": {"type": "Point", "coordinates": [-82.660278, 34.446667]}, "properties": {"facility_name": "TRUE TEMPER HARDWARE CO, ANDERSON PLANT", "industry": null, "tri_facility_id": "29624TRTMPROUTE"}}, {"type": "Feature", "geometry": {"type": "Point", "coordinates": [-82.677778, 34.445833]}, "properties": {"facility_name": "ELECTROLUX CONSUMER PRODUCTS INC.", "industry": null, "tri_facility_id": "29624WCRFR101MA"}}, {"type": "Feature", "geometry": {"type": "Point", "coordinates": [-82.641111, 34.483889]}, "properties": {"facility_name": "WOODSIDE MILLS HAYNSWORTH PLANT", "industry": null, "tri_facility_id": "29624WDSDM2115S"}}, {"type": "Feature", "geometry": {"type": "Point", "coordinates": [-82.681944, 34.525]}, "properties": {"facility_name": "APACHE PRODUCTS", "industry": null, "tri_facility_id": "29625GLNRV107SE"}}, {"type": "Feature", "geometry": {"type": "Point", "coordinates": [-82.68166666666667, 34.53055555555555]}, "properties": {"facility_name": "EAGLE POLYISO", "industry": null, "tri_facility_id": "29625GLPLY105SE"}}, {"type": "Feature", "geometry": {"type": "Point", "coordinates": [-82.71861111111112, 34.551944444444445]}, "properties": {"facility_name": "INERGY AUTOMOTIVE SYSTEMS USA LLC", "industry": null, "tri_facility_id": "29625NRGYT51ALD"}}, {"type": "Feature", "geometry": {"type": "Point", "coordinates": [-82.697222, 34.548611]}, "properties": {"facility_name": "PLASTIC OMNIUM AUTO EXTERIORS LLC - ANDERSON", "industry": null, "tri_facility_id": "29625PLSTC5100O"}}, {"type": "Feature", "geometry": {"type": "Point", "coordinates": [-82.688889, 34.541667]}, "properties": {"facility_name": "SPRINGS INDUSTRIES - WAMSUTTA PLANT", "industry": null, "tri_facility_id": "29625SPRNGHWY28"}}, {"type": "Feature", "geometry": {"type": "Point", "coordinates": [-82.70333333333333, 34.46416666666667]}, "properties": {"facility_name": "MICHELIN NA INC-STARR FACILITY", "industry": null, "tri_facility_id": "29626MCHLN1BIBW"}}]}