{"type": "FeatureCollection", "features": [{"type": "Feature", "geometry": {"type": "Point", "coordinates": [-91.55916666666667, 42.01694444444444]}, "properties": {"facility_name": "AKER PLASTICS", "industry": null, "tri_facility_id": "52302CDRMN46018"}}, {"type": "Feature", "geometry": {"type": "Point", "coordinates": [-91.581111, 42.032778]}, "properties": {"facility_name": "PRINCE AGRI PRODUCTS INC", "industry": null, "tri_facility_id": "52302PRNCG28237"}}, {"type": "Feature", "geometry": {"type": "Point", "coordinates": [-91.664167, 41.976111]}, "properties": {"facility_name": "NORAND CORP", "industry": null, "tri_facility_id": "52401NRNDC550SE"}}, {"type": "Feature", "geometry": {"type": "Point", "coordinates": [-91.672222, 41.980556]}, "properties": {"facility_name": "QUAKER MANUFACTURING LLC", "industry": null, "tri_facility_id": "52401QKRTS418SE"}}, {"type": "Feature", "geometry": {"type": "Point", "coordinates": [-91.656, 41.995458]}, "properties": {"facility_name": "CEDARAPIDS INC", "industry": null, "tri_facility_id": "52402CDRRP91616"}}, {"type": "Feature", "geometry": {"type": "Point", "coordinates": [-91.6375, 41.934999999999995]}, "properties": {"facility_name": "INTERNATIONAL PAPER CO CEDAR RIVER MILL", "industry": null, "tri_facility_id": "52402CDRRV4600C"}}, {"type": "Feature", "geometry": {"type": "Point", "coordinates": [-91.666667, 41.984167]}, "properties": {"facility_name": "CARGILL INC", "industry": null, "tri_facility_id": "52402CRGLL4116T"}}, {"type": "Feature", "geometry": {"type": "Point", "coordinates": [-91.668889, 41.996111]}, "properties": {"facility_name": "HAWKEYE RUBBER MANUFACTURING CO", "industry": null, "tri_facility_id": "52402HWKYR915SH"}}, {"type": "Feature", "geometry": {"type": "Point", "coordinates": [-91.63555555555556, 42.01083333333333]}, "properties": {"facility_name": "KILBORN PHOTO PRODUCTS INC", "industry": null, "tri_facility_id": "52402KLBRN29111"}}, {"type": "Feature", "geometry": {"type": "Point", "coordinates": [-91.6713888888889, 41.99527777777778]}, "properties": {"facility_name": "ELECTRO-COATINGS OF IOWA INC.", "industry": null, "tri_facility_id": "52402LCTRC911SH"}}, {"type": "Feature", "geometry": {"type": "Point", "coordinates": [-91.656716, 41.99518]}, "properties": {"facility_name": "RALSTON FOODS", "industry": null, "tri_facility_id": "52402NTNLT1515H"}}, {"type": "Feature", "geometry": {"type": "Point", "coordinates": [-91.665833, 42.014722]}, "properties": {"facility_name": "PICKWICK CO", "industry": null, "tri_facility_id": "52402PCKWC1870M"}}, {"type": "Feature", "geometry": {"type": "Point", "coordinates": [-91.655833, 42.031389]}, "properties": {"facility_name": "VIGORTONE AG PRODUCTS INC", "industry": null, "tri_facility_id": "52402VGRTN5264C"}}, {"type": "Feature", "geometry": {"type": "Point", "coordinates": [-91.68055555555556, 41.95138888888889]}, "properties": {"facility_name": "IOWA SPECIALTIES INC", "industry": null, "tri_facility_id": "52404BLSTC82427"}}, {"type": "Feature", "geometry": {"type": "Point", "coordinates": [-91.683333, 41.9]}, "properties": {"facility_name": "COCA-COLA BOTTLING CO OF MID AMERICA", "industry": null, "tri_facility_id": "52404CCCLB85188"}}, {"type": "Feature", "geometry": {"type": "Point", "coordinates": [-91.680019, 41.914329]}, "properties": {"facility_name": "CARFRAE MEAT CO INC", "industry": null, "tri_facility_id": "52404CRFRM90066"}}, {"type": "Feature", "geometry": {"type": "Point", "coordinates": [-91.685, 41.965278]}, "properties": {"facility_name": "CARGILL INC.", "industry": null, "tri_facility_id": "52404CRGLL11031"}}, {"type": "Feature", "geometry": {"type": "Point", "coordinates": [-91.6875, 41.957778]}, "properties": {"facility_name": "CRYOVAC", "industry": null, "tri_facility_id": "52404CRYVC1125W"}}, {"type": "Feature", "geometry": {"type": "Point", "coordinates": [-91.688611, 41.925]}, "properties": {"facility_name": "ADM CORN PROCESSING", "industry": null, "tri_facility_id": "52404DMCRN1350W"}}, {"type": "Feature", "geometry": {"type": "Point", "coordinates": [-91.681944, 41.927222]}, "properties": {"facility_name": "DW SCREW MACHINE PRODS", "industry": null, "tri_facility_id": "52404DWPRD56256"}}, {"type": "Feature", "geometry": {"type": "Point", "coordinates": [-91.639444, 41.938889]}, "properties": {"facility_name": "DANISCO US INC", "industry": null, "tri_facility_id": "52404GNNCR10004"}}, {"type": "Feature", "geometry": {"type": "Point", "coordinates": [-91.667975, 41.936851]}, "properties": {"facility_name": "HUBBARD MILLING CO", "industry": null, "tri_facility_id": "52404HBBRD330HA"}}, {"type": "Feature", "geometry": {"type": "Point", "coordinates": [-91.69222222222223, 41.909444444444446]}, "properties": {"facility_name": "HIGHWAY EQUIPMENT CO", "industry": null, "tri_facility_id": "52404HGHWY13376"}}, {"type": "Feature", "geometry": {"type": "Point", "coordinates": [-91.685111, 41.9174]}, "properties": {"facility_name": "J.E. ADAMS INDUSTRIES", "industry": null, "tri_facility_id": "52404JDMSN10256"}}, {"type": "Feature", "geometry": {"type": "Point", "coordinates": [-91.690278, 41.924444]}, "properties": {"facility_name": "KLINGER PAINT CO INC", "industry": null, "tri_facility_id": "52404KLNGR5555H"}}, {"type": "Feature", "geometry": {"type": "Point", "coordinates": [-91.67583333333334, 41.900277777777774]}, "properties": {"facility_name": "KLEIN TOOLS INC", "industry": null, "tri_facility_id": "52404KLNTL82006"}}, {"type": "Feature", "geometry": {"type": "Point", "coordinates": [-91.66944444444445, 41.97277777777778]}, "properties": {"facility_name": "LAND O'LAKES FARMLAND FEED", "industry": null, "tri_facility_id": "52404LNDLK3721J"}}, {"type": "Feature", "geometry": {"type": "Point", "coordinates": [-91.683056, 41.949167]}, "properties": {"facility_name": "MID-CONTINENT BOTTLERS INC", "industry": null, "tri_facility_id": "52404MDCNT19512"}}, {"type": "Feature", "geometry": {"type": "Point", "coordinates": [-91.658333, 41.928056]}, "properties": {"facility_name": "MIDLAND FORGE DIV", "industry": null, "tri_facility_id": "52404MDLND10150"}}, {"type": "Feature", "geometry": {"type": "Point", "coordinates": [-91.668056, 41.969722]}, "properties": {"facility_name": "MENDELL CO", "industry": null, "tri_facility_id": "52404MNDLL801FI"}}, {"type": "Feature", "geometry": {"type": "Point", "coordinates": [-91.6863888888889, 41.94555555555555]}, "properties": {"facility_name": "AMERICAN RAILCAR COATINGS", "industry": null, "tri_facility_id": "52404MRCNR3130S"}}, {"type": "Feature", "geometry": {"type": "Point", "coordinates": [-91.681389, 41.952222]}, "properties": {"facility_name": "NISSEN CORP", "industry": null, "tri_facility_id": "52404NSSNC93027"}}, {"type": "Feature", "geometry": {"type": "Point", "coordinates": [-91.695556, 41.954444]}, "properties": {"facility_name": "APACHE HOSE & BELTING CO INC", "industry": null, "tri_facility_id": "52404PCHHS25151"}}, {"type": "Feature", "geometry": {"type": "Point", "coordinates": [-91.6925, 41.928056]}, "properties": {"facility_name": "PMX INDUSTRIES INC", "industry": null, "tri_facility_id": "52404PMXND5300W"}}, {"type": "Feature", "geometry": {"type": "Point", "coordinates": [-91.6388888888889, 41.943888888888885]}, "properties": {"facility_name": "PRAIRIE CREEK GENERATING STATION", "industry": null, "tri_facility_id": "52404PRRCR3300C"}}, {"type": "Feature", "geometry": {"type": "Point", "coordinates": [-91.63583333333334, 41.93083333333333]}, "properties": {"facility_name": "H J HEINZ CO LP QUALITY CHEF FOODS DIV", "industry": null, "tri_facility_id": "52404QLTYC4601C"}}, {"type": "Feature", "geometry": {"type": "Point", "coordinates": [-91.6568, 41.931]}, "properties": {"facility_name": "GOSS GRAPHIC SYSTEMS INC", "industry": null, "tri_facility_id": "52404RCKWL4700B"}}, {"type": "Feature", "geometry": {"type": "Point", "coordinates": [-91.656778, 41.9709]}, "properties": {"facility_name": "IOWA IRON WORKS INC", "industry": null, "tri_facility_id": "52404WRNWR40012"}}, {"type": "Feature", "geometry": {"type": "Point", "coordinates": [-91.736434, 41.946911]}, "properties": {"facility_name": "WAYNE MFG CO", "industry": null, "tri_facility_id": "52404WYNMN5051W"}}, {"type": "Feature", "geometry": {"type": "Point", "coordinates": [-91.675278, 41.981111]}, "properties": {"facility_name": "HUBBARD ICE & FUEL CO", "industry": null, "tri_facility_id": "52405HBBRD11241"}}, {"type": "Feature", "geometry": {"type": "Point", "coordinates": [-91.682222, 41.976944]}, "properties": {"facility_name": "HIGHWAY EQUIPMENT CO", "industry": null, "tri_facility_id": "52405HGHWY616DA"}}, {"type": "Feature", "geometry": {"type": "Point", "coordinates": [-91.65, 41.983333]}, "properties": {"facility_name": "SWISS VALLEY FARMS CO", "industry": null, "tri_facility_id": "52405SWSSV133FA"}}, {"type": "Feature", "geometry": {"type": "Point", "coordinates": [-91.666667, 41.971944]}, "properties": {"facility_name": "CEDAR MFG CO INC", "industry": null, "tri_facility_id": "52406CDRMN9102N"}}, {"type": "Feature", "geometry": {"type": "Point", "coordinates": [-91.666667, 41.971944]}, "properties": {"facility_name": "CEDAR RAPIDS MEATS INC", "industry": null, "tri_facility_id": "52406CDRRP16THA"}}, {"type": "Feature", "geometry": {"type": "Point", "coordinates": [-91.680833, 41.958333]}, "properties": {"facility_name": "EVERGREEN PACKAGING EQUIPMENT", "industry": null, "tri_facility_id": "52406CHRRY24006"}}, {"type": "Feature", "geometry": {"type": "Point", "coordinates": [-91.644444, 41.970278]}, "properties": {"facility_name": "CARGILL INC CORN MILLING", "industry": null, "tri_facility_id": "52406CRGLL17101"}}, {"type": "Feature", "geometry": {"type": "Point", "coordinates": [-91.7125, 41.936111]}, "properties": {"facility_name": "GENERAL MILLS OPERATIONS INC", "industry": null, "tri_facility_id": "52406GNRLM4800E"}}, {"type": "Feature", "geometry": {"type": "Point", "coordinates": [-91.637703, 42.006114]}, "properties": {"facility_name": "LEFEBURE A DE LA RUE CO", "industry": null, "tri_facility_id": "52406NTRNN30829"}}, {"type": "Feature", "geometry": {"type": "Point", "coordinates": [-91.666667, 41.971111]}, "properties": {"facility_name": "INGREDION INC", "industry": null, "tri_facility_id": "52406PNFRD1001F"}}, {"type": "Feature", "geometry": {"type": "Point", "coordinates": [-91.663611, 41.979722]}, "properties": {"facility_name": "PEPSI-COLA BOTTLING CO, OF CEDAR RAPIDS", "industry": null, "tri_facility_id": "52406PPSCL400SI"}}, {"type": "Feature", "geometry": {"type": "Point", "coordinates": [-91.666667, 41.983333]}, "properties": {"facility_name": "AB MAURI FOODS INC", "industry": null, "tri_facility_id": "52406RSHPR1000W"}}, {"type": "Feature", "geometry": {"type": "Point", "coordinates": [-91.678333, 41.940833]}, "properties": {"facility_name": "SCHNEIDER ELECTRIC USA INC", "industry": null, "tri_facility_id": "52406SQRDC3700S"}}, {"type": "Feature", "geometry": {"type": "Point", "coordinates": [-91.679722, 41.980833]}, "properties": {"facility_name": "DIAMOND V MILLS LLC", "industry": null, "tri_facility_id": "52407DMNDV436GA"}}, {"type": "Feature", "geometry": {"type": "Point", "coordinates": [-91.6261, 42.0278]}, "properties": {"facility_name": "ROCKWELL COLLINS INC -C AVENUE FACILITY", "industry": null, "tri_facility_id": "52498RCKWL400CO"}}, {"type": "Feature", "geometry": {"type": "Point", "coordinates": [-91.645556, 42.012222]}, "properties": {"facility_name": "ROCKWELL COLLINS INC - 35TH STREET FACILITY", "industry": null, "tri_facility_id": "52498RCKWL85535"}}]}