{"type": "FeatureCollection", "features": [{"type": "Feature", "properties": {"area_id": 3145, "city": "Lima", "state": "OH", "city_survey": true, "cat": "Best", "grade": "A", "label": "A1", "res": true, "com": false, "ind": false, "holc_grade": "A"}, "geometry": {"type": "Polygon", "coordinates": [[[-84.13636, 40.73397], [-84.137184, 40.734024], [-84.13742, 40.73404], [-84.13845, 40.73396], [-84.14022, 40.734], [-84.14034, 40.73542], [-84.14035, 40.73697], [-84.1423, 40.73692], [-84.14668, 40.73686], [-84.146778, 40.736866], [-84.14841, 40.73697], [-84.15083, 40.73699], [-84.15524, 40.73693], [-84.15533, 40.74076], [-84.14705, 40.74111], [-84.14715, 40.742], [-84.14715, 40.74291], [-84.146864, 40.742961], [-84.14546, 40.74321], [-84.14497, 40.74316], [-84.14434, 40.7432], [-84.14405, 40.74315], [-84.14345, 40.74321], [-84.1429, 40.74337], [-84.14258, 40.74335], [-84.14137, 40.74319], [-84.14057, 40.74317], [-84.13956, 40.74299], [-84.13883, 40.74307], [-84.13779, 40.74295], [-84.137261, 40.742944], [-84.13612, 40.74293], [-84.13297, 40.74295], [-84.13293, 40.74275], [-84.13289, 40.74071], [-84.132919, 40.740097], [-84.13295, 40.73944], [-84.137257, 40.739468], [-84.13764, 40.73947], [-84.13761, 40.73746], [-84.137224, 40.737455], [-84.13598, 40.73744], [-84.13594, 40.734], [-84.13636, 40.73397]]]}}, {"type": "Feature", "properties": {"area_id": 3138, "city": "Lima", "state": "OH", "city_survey": true, "cat": "Still Desirable", "grade": "B", "label": "B1", "res": true, "com": false, "ind": false, "holc_grade": "B"}, "geometry": {"type": "Polygon", "coordinates": [[[-84.11013, 40.74992], [-84.11125, 40.74986], [-84.11418, 40.74979], [-84.11823, 40.74971], [-84.11822, 40.75099], [-84.12067, 40.75101], [-84.12074, 40.75293], [-84.1207, 40.75429], [-84.12074, 40.75763], [-84.108547, 40.757875], [-84.10829, 40.75788], [-84.10823, 40.75709], [-84.10816, 40.75362], [-84.10829, 40.75121], [-84.108505, 40.751208], [-84.11014, 40.75119], [-84.11013, 40.74992]]]}}, {"type": "Feature", "properties": {"area_id": 3140, "city": "Lima", "state": "OH", "city_survey": true, "cat": "Still Desirable", "grade": "B", "label": "B2", "res": true, "com": false, "ind": false, "holc_grade": "B"}, "geometry": {"type": "Polygon", "coordinates": [[[-84.11126, 40.74352], [-84.113, 40.74354], [-84.11303, 40.74419], [-84.113379, 40.744186], [-84.11782, 40.74413], [-84.12301, 40.74416], [-84.124482, 40.744133], [-84.12678, 40.74409], [-84.12887, 40.74412], [-84.13305, 40.74522], [-84.13631, 40.74609], [-84.1362, 40.74631], [-84.13628, 40.74861], [-84.13552, 40.74857], [-84.13463, 40.74865], [-84.13279, 40.74878], [-84.13255, 40.74853], [-84.13248, 40.74823], [-84.13252, 40.74743], [-84.12971, 40.74745], [-84.12974, 40.74942], [-84.124524, 40.749401], [-84.12411, 40.7494], [-84.122414, 40.749488], [-84.12198, 40.74951], [-84.12072, 40.74894], [-84.11826, 40.74764], [-84.11645, 40.74678], [-84.1164, 40.746758], [-84.11357, 40.74554], [-84.11338, 40.745483], [-84.11196, 40.74506], [-84.11134, 40.74486], [-84.11126, 40.74352]]]}}, {"type": "Feature", "properties": {"area_id": 3141, "city": "Lima", "state": "OH", "city_survey": true, "cat": "Still Desirable", "grade": "B", "label": "B3", "res": true, "com": false, "ind": false, "holc_grade": "B"}, "geometry": {"type": "Polygon", "coordinates": [[[-84.11782, 40.74413], [-84.113379, 40.744186], [-84.11303, 40.74419], [-84.113, 40.74354], [-84.113, 40.7412], [-84.113334, 40.741195], [-84.11722, 40.74114], [-84.124517, 40.741234], [-84.12736, 40.74127], [-84.12735, 40.74364], [-84.12887, 40.74412], [-84.12678, 40.74409], [-84.124482, 40.744133], [-84.12301, 40.74416], [-84.11782, 40.74413]]]}}, {"type": "Feature", "properties": {"area_id": 3142, "city": "Lima", "state": "OH", "city_survey": true, "cat": "Still Desirable", "grade": "B", "label": "B4", "res": true, "com": false, "ind": false, "holc_grade": "B"}, "geometry": {"type": "Polygon", "coordinates": [[[-84.12197, 40.73756], [-84.12426, 40.7375], [-84.124505, 40.737496], [-84.12624, 40.73747], [-84.12733, 40.73745], [-84.12733, 40.7381], [-84.12733, 40.7394], [-84.13055, 40.73936], [-84.130561, 40.740082], [-84.13057, 40.7407], [-84.12733, 40.7407], [-84.12736, 40.74127], [-84.124517, 40.741234], [-84.11722, 40.74114], [-84.113334, 40.741195], [-84.113, 40.7412], [-84.11301, 40.73819], [-84.11301, 40.73627], [-84.113393, 40.73627], [-84.11885, 40.73627], [-84.11882, 40.73759], [-84.12197, 40.73756]]]}}, {"type": "Feature", "properties": {"area_id": 3148, "city": "Lima", "state": "OH", "city_survey": true, "cat": "Still Desirable", "grade": "B", "label": "B5", "res": true, "com": false, "ind": false, "holc_grade": "B"}, "geometry": {"type": "Polygon", "coordinates": [[[-84.13742, 40.73404], [-84.137184, 40.734024], [-84.13636, 40.73397], [-84.13594, 40.734], [-84.13598, 40.73744], [-84.13182, 40.7374], [-84.13125, 40.7374], [-84.13123, 40.73801], [-84.12733, 40.7381], [-84.12733, 40.73745], [-84.12624, 40.73747], [-84.124505, 40.737496], [-84.12426, 40.7375], [-84.12197, 40.73756], [-84.11882, 40.73759], [-84.11885, 40.73627], [-84.11887, 40.73497], [-84.11905, 40.73484], [-84.12001, 40.73491], [-84.12017, 40.73534], [-84.12142, 40.73546], [-84.12246, 40.73538], [-84.12255, 40.73355], [-84.1237, 40.73342], [-84.12557, 40.73342], [-84.12612, 40.73346], [-84.12656, 40.73352], [-84.12725, 40.7335], [-84.127558, 40.733483], [-84.13171, 40.73326], [-84.13229, 40.73323], [-84.13226, 40.73291], [-84.137168, 40.73291], [-84.13743, 40.73291], [-84.13742, 40.73404]]]}}, {"type": "Feature", "properties": {"area_id": 3146, "city": "Lima", "state": "OH", "city_survey": true, "cat": "Still Desirable", "grade": "B", "label": "B6", "res": true, "com": false, "ind": false, "holc_grade": "B"}, "geometry": {"type": "Polygon", "coordinates": [[[-84.13751, 40.73025], [-84.13807, 40.7301], [-84.1412, 40.73014], [-84.14186, 40.73021], [-84.14197, 40.73022], [-84.14316, 40.73023], [-84.143514, 40.730255], [-84.143697, 40.730268], [-84.14487, 40.73035], [-84.14487, 40.73042], [-84.14487, 40.73052], [-84.14489, 40.73119], [-84.14491, 40.73395], [-84.14022, 40.734], [-84.13845, 40.73396], [-84.13742, 40.73404], [-84.13743, 40.73291], [-84.13743, 40.73281], [-84.137326, 40.730435], [-84.13732, 40.73029], [-84.13751, 40.73025]]]}}, {"type": "Feature", "properties": {"area_id": 3158, "city": "Lima", "state": "OH", "city_survey": true, "cat": "Still Desirable", "grade": "B", "label": "B7", "res": true, "com": false, "ind": false, "holc_grade": "B"}, "geometry": {"type": "Polygon", "coordinates": [[[-84.075931, 40.730606], [-84.07627, 40.73079], [-84.07601, 40.73136], [-84.075547, 40.731787], [-84.07524, 40.73207], [-84.07456, 40.73242], [-84.07383, 40.73275], [-84.07282, 40.73343], [-84.0716, 40.73456], [-84.07113, 40.7348], [-84.07056, 40.7348], [-84.06992, 40.7347], [-84.06956, 40.73452], [-84.06873, 40.73411], [-84.06784, 40.7339], [-84.06707, 40.73384], [-84.06531, 40.73375], [-84.06469, 40.73365], [-84.06418, 40.73342], [-84.06363, 40.73316], [-84.0622, 40.73273], [-84.06175, 40.73274], [-84.06118, 40.73276], [-84.06103, 40.73257], [-84.060972, 40.730849], [-84.06096, 40.73049], [-84.06136, 40.73037], [-84.06152, 40.73042], [-84.06324, 40.73047], [-84.06469, 40.73047], [-84.06536, 40.73043], [-84.06728, 40.73033], [-84.07434, 40.73036], [-84.075557, 40.730408], [-84.07612, 40.73043], [-84.07592, 40.7306], [-84.075931, 40.730606]]]}}, {"type": "Feature", "properties": {"area_id": 3136, "city": "Lima", "state": "OH", "city_survey": true, "cat": "Definitely Declining", "grade": "C", "label": "C1", "res": true, "com": false, "ind": false, "holc_grade": "C"}, "geometry": {"type": "Polygon", "coordinates": [[[-84.10123, 40.76489], [-84.10094, 40.76436], [-84.10042, 40.76347], [-84.10012, 40.76273], [-84.09984, 40.76163], [-84.09969, 40.76085], [-84.09979, 40.76044], [-84.10007, 40.75979], [-84.10019, 40.75941], [-84.10384, 40.75923], [-84.10572, 40.75923], [-84.10838, 40.75928], [-84.108593, 40.759277], [-84.1117, 40.75923], [-84.11504, 40.75926], [-84.11508, 40.76057], [-84.11617, 40.76062], [-84.11734, 40.76059], [-84.11747, 40.76274], [-84.10895, 40.76291], [-84.109002, 40.770125], [-84.10901, 40.77117], [-84.1124, 40.77448], [-84.11457, 40.77684], [-84.11612, 40.7782], [-84.11989, 40.78148], [-84.1225, 40.7841], [-84.11895, 40.78431], [-84.11494, 40.78441], [-84.11242, 40.78446], [-84.11249, 40.7864], [-84.11245, 40.78802], [-84.108851, 40.788056], [-84.1085, 40.78806], [-84.1084, 40.78407], [-84.10831, 40.78245], [-84.10835, 40.7801], [-84.10839, 40.77835], [-84.10841, 40.77632], [-84.10837, 40.77442], [-84.1084, 40.77243], [-84.10837, 40.7713], [-84.10634, 40.76925], [-84.10375, 40.76935], [-84.10219, 40.76941], [-84.10126, 40.76938], [-84.101533, 40.769085], [-84.10274, 40.76778], [-84.10371, 40.7668], [-84.10123, 40.76489]]]}}, {"type": "Feature", "properties": {"area_id": 3156, "city": "Lima", "state": "OH", "city_survey": true, "cat": "Definitely Declining", "grade": "C", "label": "C10", "res": true, "com": false, "ind": false, "holc_grade": "C"}, "geometry": {"type": "Polygon", "coordinates": [[[-84.09721, 40.7239], [-84.09722, 40.724059], [-84.09734, 40.72606], [-84.09733, 40.72959], [-84.097291, 40.730358], [-84.09728, 40.73058], [-84.09609, 40.73063], [-84.09611, 40.73524], [-84.09233, 40.73523], [-84.0924, 40.73067], [-84.08982, 40.7307], [-84.089819, 40.730497], [-84.0898, 40.72521], [-84.089752, 40.724086], [-84.08975, 40.72404], [-84.09721, 40.7239]]]}}, {"type": "Feature", "properties": {"area_id": 3159, "city": "Lima", "state": "OH", "city_survey": true, "cat": "Definitely Declining", "grade": "C", "label": "C11", "res": true, "com": false, "ind": false, "holc_grade": "C"}, "geometry": {"type": "Polygon", "coordinates": [[[-84.08509, 40.71244], [-84.08508, 40.71159], [-84.08514, 40.70949], [-84.08596, 40.70948], [-84.08693, 40.70953], [-84.09047, 40.70939], [-84.09114, 40.71208], [-84.09215, 40.71367], [-84.09262, 40.7145], [-84.09413, 40.71662], [-84.09953, 40.71657], [-84.09974, 40.71657], [-84.10202, 40.71652], [-84.10205, 40.7222], [-84.10214, 40.72388], [-84.10148, 40.72389], [-84.10141, 40.72389], [-84.09917, 40.724], [-84.09864, 40.723973], [-84.09721, 40.7239], [-84.08975, 40.72404], [-84.08968, 40.72134], [-84.08972, 40.71921], [-84.08852, 40.71926], [-84.0886, 40.7171], [-84.08523, 40.71709], [-84.085255, 40.716841], [-84.08533, 40.7161], [-84.08509, 40.71244]]]}}, {"type": "Feature", "properties": {"area_id": 3162, "city": "Lima", "state": "OH", "city_survey": true, "cat": "Definitely Declining", "grade": "C", "label": "C12", "res": true, "com": false, "ind": false, "holc_grade": "C"}, "geometry": {"type": "Polygon", "coordinates": [[[-84.08243, 40.71664], [-84.082442, 40.716859], [-84.08246, 40.7172], [-84.08276, 40.71829], [-84.08281, 40.71955], [-84.08278, 40.72099], [-84.08018, 40.72091], [-84.080132, 40.716852], [-84.08013, 40.71664], [-84.08243, 40.71664]]]}}, {"type": "Feature", "properties": {"area_id": 3161, "city": "Lima", "state": "OH", "city_survey": true, "cat": "Definitely Declining", "grade": "C", "label": "C13", "res": true, "com": false, "ind": false, "holc_grade": "C"}, "geometry": {"type": "Polygon", "coordinates": [[[-84.12315, 40.70834], [-84.123147, 40.708605], [-84.12311, 40.71223], [-84.11919, 40.71449], [-84.11684, 40.71548], [-84.11544, 40.71578], [-84.11504, 40.71572], [-84.11524, 40.71506], [-84.11623, 40.71261], [-84.11784, 40.70963], [-84.11829, 40.708575], [-84.11842, 40.70827], [-84.12315, 40.70834]]]}}, {"type": "Feature", "properties": {"area_id": 3139, "city": "Lima", "state": "OH", "city_survey": true, "cat": "Definitely Declining", "grade": "C", "label": "C2", "res": true, "com": false, "ind": false, "holc_grade": "C"}, "geometry": {"type": "Polygon", "coordinates": [[[-84.13252, 40.74743], [-84.13248, 40.74823], [-84.13255, 40.74853], [-84.13279, 40.74878], [-84.13265, 40.7492], [-84.13268, 40.75098], [-84.13273, 40.7516], [-84.12794, 40.75168], [-84.12794, 40.752044], [-84.12794, 40.75251], [-84.1304, 40.75366], [-84.13406, 40.75497], [-84.14075, 40.75856], [-84.1404, 40.75894], [-84.13738, 40.75889], [-84.13142, 40.75896], [-84.12839, 40.75906], [-84.12789, 40.759062], [-84.12294, 40.75908], [-84.122937, 40.758888], [-84.12289, 40.75632], [-84.12271, 40.75428], [-84.12271, 40.75247], [-84.12259, 40.75093], [-84.12067, 40.75101], [-84.11822, 40.75099], [-84.11823, 40.74971], [-84.11826, 40.74764], [-84.12072, 40.74894], [-84.12198, 40.74951], [-84.122414, 40.749488], [-84.12411, 40.7494], [-84.124524, 40.749401], [-84.12974, 40.74942], [-84.12971, 40.74745], [-84.13252, 40.74743]]]}}, {"type": "Feature", "properties": {"area_id": 3137, "city": "Lima", "state": "OH", "city_survey": true, "cat": "Definitely Declining", "grade": "C", "label": "C3", "res": true, "com": false, "ind": false, "holc_grade": "C"}, "geometry": {"type": "Polygon", "coordinates": [[[-84.11338, 40.745483], [-84.11357, 40.74554], [-84.1164, 40.746758], [-84.11645, 40.74678], [-84.11826, 40.74764], [-84.11823, 40.74971], [-84.11418, 40.74979], [-84.11125, 40.74986], [-84.11013, 40.74992], [-84.11014, 40.75119], [-84.108505, 40.751208], [-84.10829, 40.75121], [-84.10816, 40.75362], [-84.10823, 40.75709], [-84.10829, 40.75788], [-84.10838, 40.75928], [-84.10572, 40.75923], [-84.10384, 40.75923], [-84.10019, 40.75941], [-84.10047, 40.75851], [-84.10089, 40.75727], [-84.10121, 40.75657], [-84.10137, 40.75604], [-84.10145, 40.75565], [-84.10149, 40.75515], [-84.1015, 40.75437], [-84.10159, 40.75269], [-84.10166, 40.75183], [-84.1017, 40.75118], [-84.10341, 40.75117], [-84.10343, 40.75048], [-84.10338, 40.74981], [-84.10338, 40.749], [-84.10336, 40.74824], [-84.10338, 40.74747], [-84.10419, 40.74749], [-84.10422, 40.7484], [-84.10415, 40.74967], [-84.10422, 40.75156], [-84.10625, 40.75159], [-84.10628, 40.75085], [-84.10625, 40.74952], [-84.10626, 40.74887], [-84.10628, 40.74794], [-84.10622, 40.74648], [-84.10625, 40.74553], [-84.10672, 40.74548], [-84.10843, 40.74546], [-84.108481, 40.74546], [-84.1113, 40.74545], [-84.111307, 40.745342], [-84.11134, 40.74486], [-84.11196, 40.74506], [-84.11338, 40.745483]]]}}, {"type": "Feature", "properties": {"area_id": 3144, "city": "Lima", "state": "OH", "city_survey": true, "cat": "Definitely Declining", "grade": "C", "label": "C4", "res": true, "com": false, "ind": false, "holc_grade": "C"}, "geometry": {"type": "Polygon", "coordinates": [[[-84.13883, 40.74307], [-84.13956, 40.74299], [-84.14057, 40.74317], [-84.14137, 40.74319], [-84.14258, 40.74335], [-84.1429, 40.74337], [-84.14345, 40.74321], [-84.14405, 40.74315], [-84.14434, 40.7432], [-84.14497, 40.74316], [-84.14546, 40.74321], [-84.146864, 40.742961], [-84.14715, 40.74291], [-84.14712, 40.74432], [-84.14715, 40.74728], [-84.14783, 40.74736], [-84.15385, 40.74717], [-84.15388, 40.74988], [-84.15395, 40.7502], [-84.15406, 40.7505], [-84.147026, 40.748717], [-84.14475, 40.74814], [-84.13903, 40.74674], [-84.13631, 40.74609], [-84.13305, 40.74522], [-84.13304, 40.74329], [-84.13297, 40.74295], [-84.13612, 40.74293], [-84.137261, 40.742944], [-84.13779, 40.74295], [-84.13883, 40.74307]]]}}, {"type": "Feature", "properties": {"area_id": 3152, "city": "Lima", "state": "OH", "city_survey": true, "cat": "Definitely Declining", "grade": "C", "label": "C5", "res": true, "com": false, "ind": false, "holc_grade": "C"}, "geometry": {"type": "Polygon", "coordinates": [[[-84.14186, 40.73021], [-84.14216, 40.72817], [-84.14213, 40.72643], [-84.14216, 40.72535], [-84.14241, 40.72475], [-84.143, 40.72395], [-84.14344, 40.72342], [-84.14649, 40.71873], [-84.14691, 40.71873], [-84.14712, 40.71866], [-84.1481, 40.71826], [-84.14871, 40.7182], [-84.15171, 40.71807], [-84.1519, 40.71846], [-84.15218, 40.72378], [-84.15211, 40.72408], [-84.149949, 40.726002], [-84.144983, 40.73042], [-84.14487, 40.73052], [-84.14487, 40.73042], [-84.14487, 40.73035], [-84.143697, 40.730268], [-84.143514, 40.730255], [-84.14316, 40.73023], [-84.14197, 40.73022], [-84.14186, 40.73021]]]}}, {"type": "Feature", "properties": {"area_id": 3147, "city": "Lima", "state": "OH", "city_survey": true, "cat": "Definitely Declining", "grade": "C", "label": "C6", "res": true, "com": false, "ind": false, "holc_grade": "C"}, "geometry": {"type": "Polygon", "coordinates": [[[-84.13686, 40.73013], [-84.13712, 40.73018], [-84.13751, 40.73025], [-84.13732, 40.73029], [-84.137326, 40.730435], [-84.13743, 40.73281], [-84.13743, 40.73291], [-84.137168, 40.73291], [-84.13226, 40.73291], [-84.132362, 40.730428], [-84.13237, 40.73024], [-84.13686, 40.73013]]]}}, {"type": "Feature", "properties": {"area_id": 3149, "city": "Lima", "state": "OH", "city_survey": true, "cat": "Definitely Declining", "grade": "C", "label": "C7", "res": true, "com": false, "ind": false, "holc_grade": "C"}, "geometry": {"type": "Polygon", "coordinates": [[[-84.10592, 40.73039], [-84.10587, 40.72659], [-84.10951, 40.72651], [-84.11357, 40.72654], [-84.11804, 40.7265], [-84.11825, 40.73055], [-84.12, 40.73062], [-84.11934, 40.73152], [-84.119394, 40.732129], [-84.119514, 40.733485], [-84.11953, 40.73366], [-84.11986, 40.73369], [-84.11987, 40.73418], [-84.12001, 40.73491], [-84.11905, 40.73484], [-84.11887, 40.73497], [-84.11885, 40.73627], [-84.113393, 40.73627], [-84.11301, 40.73627], [-84.11301, 40.73819], [-84.10856, 40.73807], [-84.10856, 40.73664], [-84.10849, 40.73564], [-84.10788, 40.73599], [-84.1075, 40.73601], [-84.107497, 40.735378], [-84.10749, 40.73411], [-84.10581, 40.73413], [-84.10592, 40.73039]]]}}, {"type": "Feature", "properties": {"area_id": 3155, "city": "Lima", "state": "OH", "city_survey": true, "cat": "Definitely Declining", "grade": "C", "label": "C8", "res": true, "com": false, "ind": false, "holc_grade": "C"}, "geometry": {"type": "Polygon", "coordinates": [[[-84.101478, 40.724035], [-84.10144, 40.72661], [-84.10415, 40.72663], [-84.10432, 40.72962], [-84.101547, 40.72974], [-84.09879, 40.72986], [-84.098784, 40.730348], [-84.09878, 40.73066], [-84.09886, 40.73107], [-84.10124, 40.730967], [-84.10278, 40.7309], [-84.10378, 40.73095], [-84.10436, 40.73097], [-84.10442, 40.7321], [-84.10442, 40.73266], [-84.10428, 40.73323], [-84.10426, 40.73437], [-84.10284, 40.73442], [-84.101104, 40.734461], [-84.09988, 40.73449], [-84.09884, 40.73451], [-84.09836, 40.73456], [-84.09836, 40.73786], [-84.09672, 40.73863], [-84.094639, 40.739918], [-84.09441, 40.74006], [-84.09371, 40.73947], [-84.09254, 40.73877], [-84.091807, 40.738214], [-84.09109, 40.73767], [-84.09042, 40.737355], [-84.08956, 40.73695], [-84.08941, 40.73735], [-84.08941, 40.739], [-84.08936, 40.74004], [-84.08926, 40.74036], [-84.08892, 40.74049], [-84.08277, 40.74052], [-84.08264, 40.73527], [-84.08267, 40.73431], [-84.08276, 40.73374], [-84.08298, 40.73322], [-84.08341, 40.73277], [-84.08341, 40.73276], [-84.08548, 40.73058], [-84.085767, 40.730545], [-84.08614, 40.7305], [-84.08621, 40.72837], [-84.08612, 40.72674], [-84.08612, 40.7241], [-84.087569, 40.724079], [-84.08956, 40.72405], [-84.08975, 40.72404], [-84.089752, 40.724086], [-84.0898, 40.72521], [-84.089819, 40.730497], [-84.08982, 40.7307], [-84.0924, 40.73067], [-84.09233, 40.73523], [-84.09611, 40.73524], [-84.09609, 40.73063], [-84.09728, 40.73058], [-84.097291, 40.730358], [-84.09733, 40.72959], [-84.09734, 40.72606], [-84.09722, 40.724059], [-84.09721, 40.7239], [-84.09864, 40.723973], [-84.09917, 40.724], [-84.10141, 40.72389], [-84.10148, 40.72389], [-84.101478, 40.724035]]]}}, {"type": "Feature", "properties": {"area_id": 3157, "city": "Lima", "state": "OH", "city_survey": true, "cat": "Definitely Declining", "grade": "C", "label": "C9", "res": true, "com": false, "ind": false, "holc_grade": "C"}, "geometry": {"type": "Polygon", "coordinates": [[[-84.07612, 40.73043], [-84.07936, 40.73046], [-84.0794, 40.72831], [-84.07934, 40.72384], [-84.08251, 40.72394], [-84.082568, 40.730558], [-84.08257, 40.73073], [-84.08247, 40.73125], [-84.08256, 40.73186], [-84.08282, 40.73238], [-84.08341, 40.73277], [-84.08298, 40.73322], [-84.08276, 40.73374], [-84.08267, 40.73431], [-84.08264, 40.73527], [-84.08277, 40.74052], [-84.07765, 40.74055], [-84.07758, 40.73819], [-84.075587, 40.738269], [-84.07506, 40.73829], [-84.07205, 40.73829], [-84.07219, 40.73708], [-84.07178, 40.73654], [-84.07286, 40.73551], [-84.07419, 40.73463], [-84.07419, 40.73366], [-84.07436, 40.73277], [-84.07456, 40.73242], [-84.07524, 40.73207], [-84.075547, 40.731787], [-84.07601, 40.73136], [-84.07627, 40.73079], [-84.075931, 40.730606], [-84.07592, 40.7306], [-84.07612, 40.73043]]]}}, {"type": "Feature", "properties": {"area_id": 3153, "city": "Lima", "state": "OH", "city_survey": true, "cat": "Hazardous", "grade": "D", "label": "D1", "res": true, "com": false, "ind": false, "holc_grade": "D"}, "geometry": {"type": "Polygon", "coordinates": [[[-84.09349, 40.74526], [-84.093545, 40.745257], [-84.09952, 40.74498], [-84.09944, 40.74666], [-84.09942, 40.74749], [-84.10085, 40.74757], [-84.10083, 40.75144], [-84.10074, 40.75223], [-84.10017, 40.75232], [-84.09932, 40.75233], [-84.09881, 40.75224], [-84.09841, 40.75226], [-84.09843, 40.75562], [-84.09847, 40.75761], [-84.09846, 40.75907], [-84.09752, 40.75913], [-84.097526, 40.759398], [-84.09755, 40.76055], [-84.09763, 40.76175], [-84.09758, 40.7632], [-84.09739, 40.76438], [-84.09698, 40.76665], [-84.09554, 40.76671], [-84.09412, 40.76672], [-84.09398, 40.76318], [-84.09119, 40.76332], [-84.0888, 40.76331], [-84.08883, 40.76037], [-84.08883, 40.75894], [-84.08883, 40.75805], [-84.08725, 40.75814], [-84.08559, 40.75815], [-84.08559, 40.75606], [-84.085528, 40.753972], [-84.08552, 40.75369], [-84.08897, 40.75313], [-84.089, 40.74823], [-84.089283, 40.748211], [-84.08929, 40.74821], [-84.0895, 40.74824], [-84.08966, 40.74841], [-84.08981, 40.74895], [-84.09, 40.74928], [-84.09024, 40.74941], [-84.09046, 40.74948], [-84.0911, 40.74928], [-84.09145, 40.74921], [-84.09168, 40.74926], [-84.09195, 40.74944], [-84.09225, 40.74982], [-84.0926, 40.75004], [-84.09435, 40.75041], [-84.09476, 40.75041], [-84.09508, 40.75021], [-84.09525, 40.74977], [-84.09528, 40.7492], [-84.09495, 40.74863], [-84.09438, 40.74791], [-84.09384, 40.74718], [-84.09354, 40.74656], [-84.09342, 40.74568], [-84.093452, 40.745485], [-84.09349, 40.74526]]]}}, {"type": "Feature", "properties": {"area_id": 3154, "city": "Lima", "state": "OH", "city_survey": true, "cat": "Hazardous", "grade": "D", "label": "D2", "res": true, "com": false, "ind": false, "holc_grade": "D"}, "geometry": {"type": "Polygon", "coordinates": [[[-84.09109, 40.73767], [-84.091807, 40.738214], [-84.09254, 40.73877], [-84.09371, 40.73947], [-84.09441, 40.74006], [-84.094639, 40.739918], [-84.09672, 40.73863], [-84.09836, 40.73786], [-84.09836, 40.738185], [-84.09836, 40.74072], [-84.09956, 40.74076], [-84.09949, 40.74219], [-84.09948, 40.74319], [-84.09956, 40.74421], [-84.09952, 40.74498], [-84.093545, 40.745257], [-84.09349, 40.74526], [-84.09213, 40.74526], [-84.08792, 40.74562], [-84.08701, 40.74449], [-84.08668, 40.74385], [-84.08648, 40.74346], [-84.08605, 40.74312], [-84.08546, 40.74287], [-84.08473, 40.74282], [-84.08456, 40.74255], [-84.08418, 40.74248], [-84.07765, 40.7427], [-84.07765, 40.74055], [-84.08277, 40.74052], [-84.08892, 40.74049], [-84.08926, 40.74036], [-84.08936, 40.74004], [-84.08941, 40.739], [-84.08941, 40.73735], [-84.08956, 40.73695], [-84.09042, 40.737355], [-84.09109, 40.73767]]]}}, {"type": "Feature", "properties": {"area_id": 3143, "city": "Lima", "state": "OH", "city_survey": true, "cat": "Hazardous", "grade": "D", "label": "D3", "res": true, "com": false, "ind": false, "holc_grade": "D"}, "geometry": {"type": "Polygon", "coordinates": [[[-84.13764, 40.73947], [-84.137257, 40.739468], [-84.13295, 40.73944], [-84.132919, 40.740097], [-84.13289, 40.74071], [-84.13293, 40.74275], [-84.13297, 40.74295], [-84.13304, 40.74329], [-84.13305, 40.74522], [-84.12887, 40.74412], [-84.12735, 40.74364], [-84.12736, 40.74127], [-84.12733, 40.7407], [-84.13057, 40.7407], [-84.130561, 40.740082], [-84.13055, 40.73936], [-84.12733, 40.7394], [-84.12733, 40.7381], [-84.13123, 40.73801], [-84.13125, 40.7374], [-84.13182, 40.7374], [-84.13598, 40.73744], [-84.137224, 40.737455], [-84.13761, 40.73746], [-84.13764, 40.73947]]]}}, {"type": "Feature", "properties": {"area_id": 3151, "city": "Lima", "state": "OH", "city_survey": true, "cat": "Hazardous", "grade": "D", "label": "D4", "res": true, "com": false, "ind": false, "holc_grade": "D"}, "geometry": {"type": "Polygon", "coordinates": [[[-84.13706, 40.7288], [-84.13707, 40.72782], [-84.13728, 40.72545], [-84.14112, 40.72591], [-84.14213, 40.72643], [-84.14216, 40.72817], [-84.14186, 40.73021], [-84.1412, 40.73014], [-84.13807, 40.7301], [-84.13751, 40.73025], [-84.13712, 40.73018], [-84.13706, 40.7288]]]}}, {"type": "Feature", "properties": {"area_id": 3150, "city": "Lima", "state": "OH", "city_survey": true, "cat": "Hazardous", "grade": "D", "label": "D5", "res": true, "com": false, "ind": false, "holc_grade": "D"}, "geometry": {"type": "Polygon", "coordinates": [[[-84.11153, 40.72402], [-84.11163, 40.7232], [-84.11158, 40.72259], [-84.11175, 40.72054], [-84.11298, 40.72052], [-84.113262, 40.720534], [-84.11359, 40.72055], [-84.11363, 40.72399], [-84.12292, 40.72475], [-84.12547, 40.72472], [-84.12556, 40.72498], [-84.12556, 40.725133], [-84.12556, 40.72564], [-84.12538, 40.72707], [-84.12493, 40.72808], [-84.12425, 40.72876], [-84.1219, 40.72792], [-84.11901, 40.72655], [-84.11804, 40.7265], [-84.11357, 40.72654], [-84.10951, 40.72651], [-84.10587, 40.72659], [-84.10595, 40.72482], [-84.105983, 40.724009], [-84.10599, 40.72383], [-84.11153, 40.72402]]]}}, {"type": "Feature", "properties": {"area_id": 3160, "city": "Lima", "state": "OH", "city_survey": true, "cat": "Hazardous", "grade": "D", "label": "D6", "res": true, "com": false, "ind": false, "holc_grade": "D"}, "geometry": {"type": "Polygon", "coordinates": [[[-84.10857, 40.70346], [-84.10852, 40.70698], [-84.108522, 40.708521], [-84.10853, 40.71341], [-84.1087, 40.71585], [-84.1081, 40.71669], [-84.108054, 40.716774], [-84.10418, 40.72388], [-84.10214, 40.72388], [-84.10205, 40.7222], [-84.10202, 40.71652], [-84.09974, 40.71657], [-84.09953, 40.71657], [-84.09971, 40.71588], [-84.09978, 40.71045], [-84.09985, 40.70626], [-84.09986, 40.70486], [-84.09988, 40.70364], [-84.09972, 40.7019], [-84.10692, 40.70194], [-84.108225, 40.701995], [-84.10857, 40.70201], [-84.10857, 40.70346]]]}}, {"type": "Feature", "properties": {"area_id": 11324, "city": "Lima", "state": "OH", "city_survey": true, "cat": "Industrial and Commercial", "grade": null, "label": "Industrial and Commercial", "res": false, "com": true, "ind": true, "holc_grade": null}, "geometry": {"type": "Polygon", "coordinates": [[[-84.11648, 40.71215], [-84.11623, 40.71261], [-84.11524, 40.71506], [-84.11504, 40.71572], [-84.115, 40.715813], [-84.114083, 40.71795], [-84.113293, 40.71979], [-84.11298, 40.72052], [-84.11175, 40.72054], [-84.11158, 40.72259], [-84.11163, 40.7232], [-84.11153, 40.72402], [-84.10599, 40.72383], [-84.105983, 40.724009], [-84.10595, 40.72482], [-84.10587, 40.72659], [-84.10592, 40.73039], [-84.10581, 40.73413], [-84.10749, 40.73411], [-84.107497, 40.735378], [-84.1075, 40.73601], [-84.10788, 40.73599], [-84.10849, 40.73564], [-84.10856, 40.73664], [-84.10856, 40.73807], [-84.11301, 40.73819], [-84.113, 40.7412], [-84.113, 40.74354], [-84.11126, 40.74352], [-84.11134, 40.74486], [-84.111307, 40.745342], [-84.1113, 40.74545], [-84.108481, 40.74546], [-84.10843, 40.74546], [-84.10672, 40.74548], [-84.10625, 40.74553], [-84.10622, 40.74648], [-84.10628, 40.74794], [-84.10626, 40.74887], [-84.10625, 40.74952], [-84.10628, 40.75085], [-84.10625, 40.75159], [-84.10422, 40.75156], [-84.10415, 40.74967], [-84.10422, 40.7484], [-84.10419, 40.74749], [-84.10338, 40.74747], [-84.10336, 40.74824], [-84.10338, 40.749], [-84.10338, 40.74981], [-84.10343, 40.75048], [-84.10341, 40.75117], [-84.1017, 40.75118], [-84.10166, 40.75183], [-84.10159, 40.75269], [-84.1015, 40.75437], [-84.10149, 40.75515], [-84.10145, 40.75565], [-84.10137, 40.75604], [-84.10121, 40.75657], [-84.10089, 40.75727], [-84.10047, 40.75851], [-84.10019, 40.75941], [-84.10007, 40.75979], [-84.09979, 40.76044], [-84.09969, 40.76085], [-84.09984, 40.76163], [-84.09849, 40.76673], [-84.09791, 40.766699], [-84.09698, 40.76665], [-84.09739, 40.76438], [-84.09758, 40.7632], [-84.09763, 40.76175], [-84.09755, 40.76055], [-84.097526, 40.759398], [-84.09752, 40.75913], [-84.09846, 40.75907], [-84.09847, 40.75761], [-84.09843, 40.75562], [-84.09841, 40.75226], [-84.09881, 40.75224], [-84.09932, 40.75233], [-84.10017, 40.75232], [-84.10074, 40.75223], [-84.10083, 40.75144], [-84.10085, 40.74757], [-84.09942, 40.74749], [-84.09944, 40.74666], [-84.09952, 40.74498], [-84.09956, 40.74421], [-84.09948, 40.74319], [-84.09949, 40.74219], [-84.09956, 40.74076], [-84.09836, 40.74072], [-84.09836, 40.738185], [-84.09836, 40.73786], [-84.09836, 40.73456], [-84.09884, 40.73451], [-84.09988, 40.73449], [-84.101104, 40.734461], [-84.10284, 40.73442], [-84.10426, 40.73437], [-84.10428, 40.73323], [-84.10442, 40.73266], [-84.10442, 40.7321], [-84.10436, 40.73097], [-84.10378, 40.73095], [-84.10278, 40.7309], [-84.10124, 40.730967], [-84.09886, 40.73107], [-84.09878, 40.73066], [-84.098784, 40.730348], [-84.09879, 40.72986], [-84.101547, 40.72974], [-84.10432, 40.72962], [-84.10415, 40.72663], [-84.10144, 40.72661], [-84.101478, 40.724035], [-84.10148, 40.72389], [-84.10214, 40.72388], [-84.10418, 40.72388], [-84.108054, 40.716774], [-84.1081, 40.71669], [-84.1087, 40.71585], [-84.11103, 40.7119], [-84.11648, 40.71215]]]}}]}