{"type": "FeatureCollection", "features": [{"type": "Feature", "geometry": {"type": "Point", "coordinates": [-104.56027777777777, 38.2725]}, "properties": {"facility_name": "SAFETY-KLEEN SYSTEMS PUEBLO (PUE) (605204)", "industry": null, "tri_facility_id": "81001SFTYK2841E"}}, {"type": "Feature", "geometry": {"type": "Point", "coordinates": [-104.5975, 38.280278]}, "properties": {"facility_name": "SUMMIT PRESSED BRICK & TILE CO", "industry": null, "tri_facility_id": "81001SMMTP13THE"}}, {"type": "Feature", "geometry": {"type": "Point", "coordinates": [-104.612222, 38.229444]}, "properties": {"facility_name": "ABC-NACO", "industry": null, "tri_facility_id": "81002BCRLC2300S"}}, {"type": "Feature", "geometry": {"type": "Point", "coordinates": [-104.60111111111111, 38.24]}, "properties": {"facility_name": "HARSCO METALS - PUEBLO", "industry": null, "tri_facility_id": "81002HRSHC11HAR"}}, {"type": "Feature", "geometry": {"type": "Point", "coordinates": [-104.61972222222222, 38.26694444444444]}, "properties": {"facility_name": "ERGON ASPHALT PARTNERS LP - PUEBLO", "industry": null, "tri_facility_id": "81002KCHPR510WD"}}, {"type": "Feature", "geometry": {"type": "Point", "coordinates": [-104.6075, 38.232778]}, "properties": {"facility_name": "EVRAZ ROCKY MOUNTAIN STEEL", "industry": null, "tri_facility_id": "81004CFSTL225CA"}}, {"type": "Feature", "geometry": {"type": "Point", "coordinates": [-104.603889, 38.233333]}, "properties": {"facility_name": "PEPSI-COLA BOTTLING CO", "industry": null, "tri_facility_id": "81004PPSCL1900S"}}, {"type": "Feature", "geometry": {"type": "Point", "coordinates": [-104.57305555555556, 38.24583333333334]}, "properties": {"facility_name": "MISSION FOODS PUEBLO", "industry": null, "tri_facility_id": "81006MSSNF2110S"}}, {"type": "Feature", "geometry": {"type": "Point", "coordinates": [-104.57527777777777, 38.20805555555556]}, "properties": {"facility_name": "PUBLIC SERVICE CO OF COLORADO COMANCHE STATION", "industry": null, "tri_facility_id": "81006PBLCS2005L"}}]}