{"type": "FeatureCollection", "features": [{"type": "Feature", "properties": {"area_id": 9083, "city": "Austin", "state": "TX", "city_survey": true, "cat": "Best", "grade": "A", "label": "A", "res": true, "com": false, "ind": false, "holc_grade": "A"}, "geometry": {"type": "Polygon", "coordinates": [[[-97.747, 30.23926], [-97.746975, 30.239458], [-97.74689, 30.24014], [-97.74651, 30.24114], [-97.74499, 30.24288], [-97.744974, 30.243007], [-97.74494, 30.243281], [-97.74486, 30.24393], [-97.744468, 30.244611], [-97.744282, 30.244933], [-97.74399, 30.24544], [-97.743556, 30.246279], [-97.74327, 30.24683], [-97.743175, 30.246986], [-97.742455, 30.248171], [-97.74245, 30.24818], [-97.74184, 30.2494], [-97.74126, 30.25003], [-97.74078, 30.25055], [-97.740544, 30.250809], [-97.74036, 30.25101], [-97.74024, 30.25163], [-97.73986, 30.25182], [-97.73954, 30.25136], [-97.73824, 30.25082], [-97.7372, 30.25035], [-97.73622, 30.24991], [-97.735805, 30.249731], [-97.734, 30.24895], [-97.73276, 30.24854], [-97.73191, 30.24816], [-97.73077, 30.24786], [-97.73001, 30.2475], [-97.73096, 30.24663], [-97.731401, 30.245925], [-97.73235, 30.24441], [-97.73314, 30.24326], [-97.735209, 30.244227], [-97.73742, 30.24526], [-97.74156, 30.23863], [-97.74304, 30.23615], [-97.74257, 30.23592], [-97.742783, 30.235743], [-97.7431, 30.23548], [-97.74737, 30.23895], [-97.74728, 30.23931], [-97.747, 30.23926]]]}}, {"type": "Feature", "properties": {"area_id": 9090, "city": "Austin", "state": "TX", "city_survey": true, "cat": "Best", "grade": "A", "label": "A", "res": true, "com": false, "ind": false, "holc_grade": "A"}, "geometry": {"type": "Polygon", "coordinates": [[[-97.72573, 30.29293], [-97.72735, 30.29114], [-97.7285, 30.289], [-97.72866, 30.28923], [-97.73132, 30.28948], [-97.732645, 30.289674], [-97.7331, 30.28974], [-97.73404, 30.29033], [-97.73447, 30.29081], [-97.73438, 30.29155], [-97.73403, 30.2919], [-97.73345, 30.29259], [-97.73687, 30.29527], [-97.73748, 30.29442], [-97.737541, 30.294317], [-97.73812, 30.29335], [-97.742738, 30.295547], [-97.74287, 30.29561], [-97.73913, 30.30134], [-97.739043, 30.301301], [-97.73454, 30.29926], [-97.733657, 30.300581], [-97.73045, 30.30538], [-97.72681, 30.30369], [-97.72654, 30.30393], [-97.72328, 30.30219], [-97.7226, 30.30307], [-97.72116, 30.30237], [-97.72163, 30.30172], [-97.72242, 30.29968], [-97.72623, 30.30167], [-97.72839, 30.2982], [-97.72331, 30.2958], [-97.723328, 30.295741], [-97.72338, 30.29557], [-97.72416, 30.29467], [-97.72573, 30.29293]]]}}, {"type": "Feature", "properties": {"area_id": 9093, "city": "Austin", "state": "TX", "city_survey": true, "cat": "Best", "grade": "A", "label": "A", "res": true, "com": false, "ind": false, "holc_grade": "A"}, "geometry": {"type": "Polygon", "coordinates": [[[-97.76551, 30.2866], [-97.76744, 30.28783], [-97.768449, 30.288431], [-97.76857, 30.288504], [-97.769423, 30.289012], [-97.770589, 30.289707], [-97.77197, 30.29053], [-97.776, 30.29174], [-97.77853, 30.29261], [-97.78065, 30.29349], [-97.78357, 30.29516], [-97.7849, 30.29628], [-97.784031, 30.297407], [-97.78322, 30.29846], [-97.78087, 30.30123], [-97.77986, 30.3035], [-97.77894, 30.30653], [-97.77875, 30.307175], [-97.77869, 30.30738], [-97.77853, 30.30891], [-97.77821, 30.31052], [-97.77818, 30.31208], [-97.77796, 30.31389], [-97.777775, 30.32091], [-97.77777, 30.32108], [-97.7778, 30.32493], [-97.77805, 30.32646], [-97.77805, 30.327199], [-97.77805, 30.3286], [-97.77894, 30.33087], [-97.77932, 30.33179], [-97.77901, 30.332949], [-97.778264, 30.335733], [-97.777869, 30.337208], [-97.77644, 30.34254], [-97.769728, 30.341896], [-97.765174, 30.341459], [-97.760445, 30.341005], [-97.7582, 30.34079], [-97.757699, 30.337787], [-97.757537, 30.336815], [-97.75753, 30.33677], [-97.75997, 30.3336], [-97.75465, 30.33087], [-97.75573, 30.32201], [-97.75601, 30.32007], [-97.756162, 30.320142], [-97.76282, 30.32329], [-97.768635, 30.314316], [-97.76941, 30.31312], [-97.762708, 30.310258], [-97.76044, 30.30929], [-97.76377, 30.30352], [-97.75886, 30.30131], [-97.75835, 30.30218], [-97.758234, 30.302146], [-97.75791, 30.30205], [-97.75788, 30.29882], [-97.75785, 30.29756], [-97.75816, 30.29655], [-97.75845, 30.29502], [-97.7581, 30.29499], [-97.7574, 30.29762], [-97.75674, 30.29819], [-97.75566, 30.30013], [-97.75265, 30.29871], [-97.75129, 30.29827], [-97.75129, 30.29759], [-97.75091, 30.29671], [-97.75094, 30.29548], [-97.75107, 30.29434], [-97.75173, 30.29423], [-97.75249, 30.29316], [-97.75332, 30.29215], [-97.7549, 30.2922], [-97.75604, 30.29237], [-97.75668, 30.29103], [-97.75617, 30.28971], [-97.75617, 30.289391], [-97.75617, 30.28859], [-97.75636, 30.28676], [-97.753914, 30.285875], [-97.7526, 30.2854], [-97.75191, 30.28664], [-97.75094, 30.28772], [-97.7511, 30.2881], [-97.751023, 30.28841], [-97.75097, 30.28862], [-97.74765, 30.28837], [-97.74736, 30.29204], [-97.74635, 30.29278], [-97.74603, 30.29349], [-97.74651, 30.29406], [-97.74746, 30.29499], [-97.74819, 30.29543], [-97.74879, 30.29628], [-97.74892, 30.29702], [-97.74888, 30.29786], [-97.748519, 30.298158], [-97.74831, 30.29833], [-97.7476, 30.29786], [-97.74375, 30.29603], [-97.743772, 30.295857], [-97.74426, 30.29201], [-97.744657, 30.287934], [-97.74515, 30.28288], [-97.7447, 30.28272], [-97.744768, 30.28253], [-97.74716, 30.27584], [-97.74809, 30.27609], [-97.74901, 30.27637], [-97.749952, 30.276424], [-97.750205, 30.276439], [-97.7504, 30.27645], [-97.75151, 30.27686], [-97.751487, 30.276928], [-97.75129, 30.27752], [-97.75186, 30.27907], [-97.75478, 30.28107], [-97.75693, 30.28274], [-97.75835, 30.28299], [-97.76336, 30.28556], [-97.76381, 30.285778], [-97.76551, 30.2866]]]}}, {"type": "Feature", "properties": {"area_id": 9081, "city": "Austin", "state": "TX", "city_survey": true, "cat": "Still Desirable", "grade": "B", "label": "B", "res": true, "com": false, "ind": false, "holc_grade": "B"}, "geometry": {"type": "Polygon", "coordinates": [[[-97.75074, 30.25717], [-97.75269, 30.25789], [-97.75468, 30.2586], [-97.75708, 30.25931], [-97.757726, 30.259516], [-97.75909, 30.25995], [-97.76113, 30.26092], [-97.7629, 30.26191], [-97.76454, 30.2629], [-97.76616, 30.26371], [-97.7658, 30.26411], [-97.765848, 30.264161], [-97.76622, 30.264558], [-97.76718, 30.26558], [-97.76572, 30.26602], [-97.765003, 30.265179], [-97.76491, 30.26507], [-97.76414, 30.2644], [-97.76334, 30.26356], [-97.76077, 30.26209], [-97.75924, 30.26135], [-97.7588, 30.26117], [-97.75703, 30.2607], [-97.75702, 30.260698], [-97.75545, 30.26033], [-97.75005, 30.25826], [-97.75074, 30.25717]]]}}, {"type": "Feature", "properties": {"area_id": 9082, "city": "Austin", "state": "TX", "city_survey": true, "cat": "Still Desirable", "grade": "B", "label": "B", "res": true, "com": false, "ind": false, "holc_grade": "B"}, "geometry": {"type": "Polygon", "coordinates": [[[-97.747694, 30.239775], [-97.74785, 30.23995], [-97.749335, 30.240544], [-97.7504, 30.24097], [-97.75151, 30.24147], [-97.752436, 30.24192], [-97.75256, 30.24198], [-97.751057, 30.245837], [-97.75076, 30.2466], [-97.74948, 30.24974], [-97.74746, 30.2555], [-97.74515, 30.26138], [-97.74416, 30.26045], [-97.74439, 30.25941], [-97.74416, 30.25837], [-97.7434, 30.25692], [-97.74325, 30.25549], [-97.74274, 30.25459], [-97.74195, 30.25418], [-97.74109, 30.25358], [-97.740779, 30.253204], [-97.74008, 30.25236], [-97.73986, 30.25182], [-97.74024, 30.25163], [-97.74036, 30.25101], [-97.740544, 30.250809], [-97.74078, 30.25055], [-97.74126, 30.25003], [-97.74184, 30.2494], [-97.74245, 30.24818], [-97.742455, 30.248171], [-97.743175, 30.246986], [-97.74327, 30.24683], [-97.743556, 30.246279], [-97.74399, 30.24544], [-97.744282, 30.244933], [-97.744468, 30.244611], [-97.74486, 30.24393], [-97.74494, 30.243281], [-97.744974, 30.243007], [-97.74499, 30.24288], [-97.74651, 30.24114], [-97.74689, 30.24014], [-97.746975, 30.239458], [-97.747, 30.23926], [-97.74728, 30.23931], [-97.747674, 30.239753], [-97.747694, 30.239775]]]}}, {"type": "Feature", "properties": {"area_id": 9085, "city": "Austin", "state": "TX", "city_survey": true, "cat": "Still Desirable", "grade": "B", "label": "B", "res": true, "com": false, "ind": false, "holc_grade": "B"}, "geometry": {"type": "Polygon", "coordinates": [[[-97.714091, 30.253427], [-97.71498, 30.25157], [-97.72009, 30.25352], [-97.72056, 30.25257], [-97.72994, 30.25583], [-97.72986, 30.25622], [-97.73379, 30.2576], [-97.73398, 30.25725], [-97.737286, 30.258378], [-97.73773, 30.25853], [-97.73664, 30.26136], [-97.736518, 30.261315], [-97.73585, 30.26107], [-97.73145, 30.25966], [-97.72791, 30.25836], [-97.721221, 30.255948], [-97.71715, 30.25448], [-97.714578, 30.253607], [-97.71447, 30.25357], [-97.71409, 30.25343], [-97.714091, 30.253427]]]}}, {"type": "Feature", "properties": {"area_id": 9088, "city": "Austin", "state": "TX", "city_survey": true, "cat": "Still Desirable", "grade": "B", "label": "B", "res": true, "com": false, "ind": false, "holc_grade": "B"}, "geometry": {"type": "Polygon", "coordinates": [[[-97.73359, 30.27946], [-97.733617, 30.279384], [-97.73364, 30.27932], [-97.7357, 30.27371], [-97.73839, 30.27454], [-97.73881, 30.27478], [-97.73869, 30.27522], [-97.7415, 30.27598], [-97.74179, 30.27546], [-97.74253, 30.27567], [-97.74052, 30.28132], [-97.739563, 30.281061], [-97.739329, 30.280998], [-97.73867, 30.28082], [-97.737416, 30.280484], [-97.73566, 30.280014], [-97.73359, 30.27946]]]}}, {"type": "Feature", "properties": {"area_id": 9089, "city": "Austin", "state": "TX", "city_survey": true, "cat": "Still Desirable", "grade": "B", "label": "B", "res": true, "com": false, "ind": false, "holc_grade": "B"}, "geometry": {"type": "Polygon", "coordinates": [[[-97.74201, 30.28182], [-97.7447, 30.28272], [-97.74515, 30.28288], [-97.744657, 30.287934], [-97.74426, 30.29201], [-97.743772, 30.295857], [-97.74375, 30.29603], [-97.74287, 30.29561], [-97.742738, 30.295547], [-97.73812, 30.29335], [-97.737541, 30.294317], [-97.73748, 30.29442], [-97.73403, 30.2919], [-97.73438, 30.29155], [-97.73447, 30.29081], [-97.73441, 30.28947], [-97.734639, 30.28948], [-97.73793, 30.28963], [-97.73802, 30.28854], [-97.74036, 30.28865], [-97.7403, 30.28766], [-97.74155, 30.287716], [-97.74163, 30.28772], [-97.74179, 30.285244], [-97.741999, 30.281985], [-97.74201, 30.28182]]]}}, {"type": "Feature", "properties": {"area_id": 9092, "city": "Austin", "state": "TX", "city_survey": true, "cat": "Still Desirable", "grade": "B", "label": "B", "res": true, "com": false, "ind": false, "holc_grade": "B"}, "geometry": {"type": "Polygon", "coordinates": [[[-97.73454, 30.29926], [-97.739043, 30.301301], [-97.73913, 30.30134], [-97.74287, 30.29561], [-97.74375, 30.29603], [-97.7476, 30.29786], [-97.74611, 30.30024], [-97.74407, 30.3035], [-97.74245, 30.30271], [-97.741392, 30.304405], [-97.74137, 30.30444], [-97.739689, 30.303535], [-97.73825, 30.30276], [-97.738233, 30.302787], [-97.73529, 30.30733], [-97.732619, 30.311609], [-97.73152, 30.31337], [-97.7296, 30.31253], [-97.72948, 30.3127], [-97.72641, 30.31142], [-97.72232, 30.31792], [-97.7269, 30.31998], [-97.7285, 30.31767], [-97.73083, 30.31869], [-97.73106, 30.31834], [-97.73108, 30.318351], [-97.733438, 30.319583], [-97.73347, 30.3196], [-97.73768, 30.31372], [-97.737779, 30.313563], [-97.740566, 30.309145], [-97.742279, 30.306431], [-97.74308, 30.30516], [-97.748314, 30.307686], [-97.74936, 30.30819], [-97.750348, 30.306911], [-97.75112, 30.30591], [-97.75242, 30.30378], [-97.75425, 30.3046], [-97.75652, 30.30491], [-97.75502, 30.30736], [-97.75743, 30.30764], [-97.757322, 30.308342], [-97.757225, 30.308975], [-97.7568, 30.31175], [-97.7555, 30.31175], [-97.75487, 30.31676], [-97.7517, 30.31077], [-97.752673, 30.30811], [-97.75268, 30.30809], [-97.751569, 30.307777], [-97.75151, 30.30776], [-97.748898, 30.311381], [-97.74496, 30.31684], [-97.742486, 30.315813], [-97.74166, 30.31547], [-97.739403, 30.31888], [-97.739, 30.31949], [-97.739689, 30.326985], [-97.740425, 30.334994], [-97.74049, 30.3357], [-97.739739, 30.335332], [-97.7372, 30.33409], [-97.72722, 30.32906], [-97.72519, 30.32783], [-97.726128, 30.326282], [-97.72817, 30.32291], [-97.72136, 30.31979], [-97.72028, 30.3216], [-97.71933, 30.32116], [-97.71344, 30.3184], [-97.71553, 30.31531], [-97.715471, 30.314961], [-97.71534, 30.31419], [-97.715049, 30.314052], [-97.711898, 30.312552], [-97.710718, 30.31199], [-97.70809, 30.31074], [-97.709937, 30.30923], [-97.71116, 30.30823], [-97.712495, 30.305885], [-97.71325, 30.30456], [-97.7194, 30.29502], [-97.71651, 30.2936], [-97.716634, 30.293382], [-97.71848, 30.29012], [-97.71981, 30.29075], [-97.71918, 30.28673], [-97.71879, 30.2844], [-97.72696, 30.28301], [-97.726971, 30.282994], [-97.729737, 30.27913], [-97.730178, 30.278514], [-97.73031, 30.27833], [-97.732221, 30.278984], [-97.73256, 30.2791], [-97.73229, 30.28006], [-97.73083, 30.28479], [-97.72979, 30.28802], [-97.72903, 30.28854], [-97.7285, 30.289], [-97.72735, 30.29114], [-97.72573, 30.29293], [-97.72416, 30.29467], [-97.72338, 30.29557], [-97.723328, 30.295741], [-97.72331, 30.2958], [-97.72307, 30.29671], [-97.72275, 30.29816], [-97.72242, 30.29968], [-97.72163, 30.30172], [-97.72116, 30.30237], [-97.7226, 30.30307], [-97.72328, 30.30219], [-97.72654, 30.30393], [-97.72681, 30.30369], [-97.73045, 30.30538], [-97.733657, 30.300581], [-97.73454, 30.29926]], [[-97.71781, 30.30743], [-97.71594, 30.31047], [-97.71604, 30.31099], [-97.720707, 30.31303], [-97.72073, 30.31304], [-97.721201, 30.312305], [-97.721321, 30.312117], [-97.722739, 30.309903], [-97.72285, 30.30973], [-97.71781, 30.30743]]]}}, {"type": "Feature", "properties": {"area_id": 9095, "city": "Austin", "state": "TX", "city_survey": true, "cat": "Still Desirable", "grade": "B", "label": "B", "res": true, "com": false, "ind": false, "holc_grade": "B"}, "geometry": {"type": "Polygon", "coordinates": [[[-97.74999, 30.27169], [-97.7505, 30.27041], [-97.751212, 30.270622], [-97.755, 30.27175], [-97.75664, 30.27248], [-97.75893, 30.2732], [-97.76146, 30.27407], [-97.76297, 30.27473], [-97.76399, 30.27517], [-97.76477, 30.27551], [-97.76565, 30.27561], [-97.76655, 30.276], [-97.76708, 30.27584], [-97.7677, 30.27773], [-97.76738, 30.27905], [-97.76653, 30.28066], [-97.76611, 30.28175], [-97.75968, 30.27866], [-97.758871, 30.280099], [-97.75851, 30.28074], [-97.764618, 30.283558], [-97.76511, 30.283785], [-97.76523, 30.28384], [-97.76558, 30.284], [-97.76589, 30.28457], [-97.76668, 30.28523], [-97.77064, 30.28733], [-97.77112, 30.28788], [-97.77213, 30.28837], [-97.77349, 30.28898], [-97.77197, 30.29053], [-97.770589, 30.289707], [-97.769423, 30.289012], [-97.76857, 30.288504], [-97.768449, 30.288431], [-97.76744, 30.28783], [-97.76551, 30.2866], [-97.76381, 30.285778], [-97.76336, 30.28556], [-97.75835, 30.28299], [-97.75693, 30.28274], [-97.75478, 30.28107], [-97.75186, 30.27907], [-97.75129, 30.27752], [-97.751487, 30.276928], [-97.75151, 30.27686], [-97.7504, 30.27645], [-97.750205, 30.276439], [-97.749952, 30.276424], [-97.74901, 30.27637], [-97.74809, 30.27609], [-97.74716, 30.27584], [-97.74721, 30.2757], [-97.74756, 30.27472], [-97.74861, 30.27504], [-97.74999, 30.27169]]]}}, {"type": "Feature", "properties": {"area_id": 9084, "city": "Austin", "state": "TX", "city_survey": true, "cat": "Definitely Declining", "grade": "C", "label": "C", "res": true, "com": false, "ind": false, "holc_grade": "C"}, "geometry": {"type": "Polygon", "coordinates": [[[-97.74109, 30.26033], [-97.74258, 30.26151], [-97.74356, 30.26214], [-97.74546, 30.26261], [-97.74692, 30.26354], [-97.74955, 30.26422], [-97.75021, 30.26441], [-97.74983, 30.26504], [-97.74924, 30.26485], [-97.74888, 30.26573], [-97.74983, 30.2663], [-97.750515, 30.26656], [-97.75091, 30.26671], [-97.75173, 30.26728], [-97.75319, 30.26838], [-97.75588, 30.26931], [-97.75822, 30.27015], [-97.76029, 30.27106], [-97.7631, 30.27223], [-97.76515, 30.27343], [-97.76708, 30.27584], [-97.76655, 30.276], [-97.76565, 30.27561], [-97.76477, 30.27551], [-97.76399, 30.27517], [-97.76297, 30.27473], [-97.76146, 30.27407], [-97.75893, 30.2732], [-97.75664, 30.27248], [-97.755, 30.27175], [-97.751212, 30.270622], [-97.7505, 30.27041], [-97.74999, 30.27169], [-97.74861, 30.27504], [-97.74756, 30.27472], [-97.74721, 30.2757], [-97.74716, 30.27584], [-97.744768, 30.28253], [-97.7447, 30.28272], [-97.74201, 30.28182], [-97.741911, 30.281787], [-97.741061, 30.281501], [-97.74052, 30.28132], [-97.74253, 30.27567], [-97.74298, 30.274513], [-97.74494, 30.26947], [-97.74689, 30.26406], [-97.74312, 30.26317], [-97.73995, 30.2621], [-97.736098, 30.272623], [-97.7357, 30.27371], [-97.73364, 30.27932], [-97.733617, 30.279384], [-97.73359, 30.27946], [-97.73256, 30.2791], [-97.732221, 30.278984], [-97.73031, 30.27833], [-97.73085, 30.27677], [-97.732683, 30.271838], [-97.73298, 30.27104], [-97.73576, 30.26367], [-97.73664, 30.26136], [-97.73773, 30.25853], [-97.737286, 30.258378], [-97.73398, 30.25725], [-97.73379, 30.2576], [-97.72986, 30.25622], [-97.72994, 30.25583], [-97.72056, 30.25257], [-97.72009, 30.25352], [-97.71498, 30.25157], [-97.714091, 30.253427], [-97.71409, 30.25343], [-97.71269, 30.25299], [-97.712702, 30.252962], [-97.7136, 30.25087], [-97.71525, 30.25087], [-97.71715, 30.25094], [-97.71853, 30.25105], [-97.71926, 30.25073], [-97.72047, 30.24946], [-97.72155, 30.24821], [-97.72272, 30.24739], [-97.72394, 30.2472], [-97.72518, 30.2473], [-97.72629, 30.24762], [-97.72759, 30.2479], [-97.72856, 30.24849], [-97.72948, 30.2487], [-97.73029, 30.24886], [-97.7317, 30.24914], [-97.73314, 30.24958], [-97.73337, 30.25007], [-97.73418, 30.25033], [-97.73554, 30.2508], [-97.736095, 30.251074], [-97.738884, 30.252449], [-97.73921, 30.25261], [-97.74028, 30.25348], [-97.740537, 30.253975], [-97.74081, 30.2545], [-97.740819, 30.254577], [-97.74115, 30.25758], [-97.74109, 30.26033]]]}}, {"type": "Feature", "properties": {"area_id": 9080, "city": "Austin", "state": "TX", "city_survey": true, "cat": "Hazardous", "grade": "D", "label": "D", "res": true, "com": false, "ind": false, "holc_grade": "D"}, "geometry": {"type": "Polygon", "coordinates": [[[-97.75864, 30.23982], [-97.75828, 30.24025], [-97.7595, 30.24082], [-97.758996, 30.241819], [-97.75796, 30.24387], [-97.76353, 30.24567], [-97.76331, 30.24625], [-97.76439, 30.24673], [-97.76424, 30.24707], [-97.766706, 30.247753], [-97.76673, 30.24776], [-97.766886, 30.247617], [-97.768838, 30.245827], [-97.770362, 30.24443], [-97.77046, 30.24434], [-97.77492, 30.2472], [-97.769964, 30.254862], [-97.76589, 30.26116], [-97.76574, 30.26178], [-97.7662, 30.26195], [-97.76616, 30.26371], [-97.76454, 30.2629], [-97.7629, 30.26191], [-97.76113, 30.26092], [-97.75909, 30.25995], [-97.757726, 30.259516], [-97.75708, 30.25931], [-97.75468, 30.2586], [-97.75269, 30.25789], [-97.75074, 30.25717], [-97.75097, 30.25677], [-97.747494, 30.255512], [-97.74746, 30.2555], [-97.74948, 30.24974], [-97.75076, 30.2466], [-97.751057, 30.245837], [-97.75256, 30.24198], [-97.752436, 30.24192], [-97.75151, 30.24147], [-97.752818, 30.239998], [-97.75311, 30.23967], [-97.753713, 30.238895], [-97.75427, 30.23818], [-97.75775, 30.23991], [-97.758, 30.23958], [-97.75864, 30.23982]]]}}, {"type": "Feature", "properties": {"area_id": 9086, "city": "Austin", "state": "TX", "city_survey": true, "cat": "Hazardous", "grade": "D", "label": "D", "res": true, "com": false, "ind": false, "holc_grade": "D"}, "geometry": {"type": "Polygon", "coordinates": [[[-97.71269, 30.25299], [-97.71409, 30.25343], [-97.71447, 30.25357], [-97.714578, 30.253607], [-97.71715, 30.25448], [-97.721221, 30.255948], [-97.72791, 30.25836], [-97.73145, 30.25966], [-97.73585, 30.26107], [-97.736518, 30.261315], [-97.73664, 30.26136], [-97.73576, 30.26367], [-97.73298, 30.27104], [-97.732683, 30.271838], [-97.73085, 30.27677], [-97.73031, 30.27833], [-97.730178, 30.278514], [-97.729737, 30.27913], [-97.726971, 30.282994], [-97.72696, 30.28301], [-97.71879, 30.2844], [-97.71845, 30.28446], [-97.718383, 30.284474], [-97.71479, 30.28523], [-97.70905, 30.28608], [-97.7084, 30.2848], [-97.7087, 30.28305], [-97.708915, 30.281773], [-97.70919, 30.28014], [-97.709461, 30.278981], [-97.70984, 30.27736], [-97.710841, 30.275568], [-97.711068, 30.275162], [-97.71122, 30.27489], [-97.71211, 30.27283], [-97.71276, 30.27159], [-97.71147, 30.2713], [-97.70999, 30.2713], [-97.70801, 30.27489], [-97.70573, 30.27301], [-97.70746, 30.26971], [-97.70845, 30.26775], [-97.70929, 30.26587], [-97.71078, 30.2651], [-97.710112, 30.264853], [-97.70905, 30.26446], [-97.70791, 30.26437], [-97.708042, 30.263991], [-97.709, 30.26125], [-97.70979, 30.25899], [-97.71162, 30.25514], [-97.71269, 30.25299]]]}}, {"type": "Feature", "properties": {"area_id": 9087, "city": "Austin", "state": "TX", "city_survey": true, "cat": "Hazardous", "grade": "D", "label": "D", "res": true, "com": false, "ind": false, "holc_grade": "D"}, "geometry": {"type": "Polygon", "coordinates": [[[-97.74312, 30.26317], [-97.7425, 30.2651], [-97.73988, 30.27202], [-97.739437, 30.272276], [-97.73943, 30.27228], [-97.73839, 30.27454], [-97.7357, 30.27371], [-97.736098, 30.272623], [-97.73995, 30.2621], [-97.74312, 30.26317]]]}}, {"type": "Feature", "properties": {"area_id": 9091, "city": "Austin", "state": "TX", "city_survey": true, "cat": "Hazardous", "grade": "D", "label": "D", "res": true, "com": false, "ind": false, "holc_grade": "D"}, "geometry": {"type": "Polygon", "coordinates": [[[-97.74245, 30.30271], [-97.74407, 30.3035], [-97.74611, 30.30024], [-97.74943, 30.302103], [-97.75242, 30.30378], [-97.75112, 30.30591], [-97.750348, 30.306911], [-97.74936, 30.30819], [-97.748314, 30.307686], [-97.74308, 30.30516], [-97.742156, 30.304771], [-97.74137, 30.30444], [-97.741392, 30.304405], [-97.74245, 30.30271]]]}}, {"type": "Feature", "properties": {"area_id": 9094, "city": "Austin", "state": "TX", "city_survey": true, "cat": "Hazardous", "grade": "D", "label": "D", "res": true, "com": false, "ind": false, "holc_grade": "D"}, "geometry": {"type": "Polygon", "coordinates": [[[-97.75113, 30.28903], [-97.75097, 30.28955], [-97.75097, 30.28988], [-97.7504, 30.29064], [-97.74999, 30.29108], [-97.74952, 30.29135], [-97.74879, 30.2916], [-97.74736, 30.29204], [-97.74765, 30.28837], [-97.75097, 30.28862], [-97.75113, 30.28903]]]}}, {"type": "Feature", "properties": {"area_id": 9096, "city": "Austin", "state": "TX", "city_survey": true, "cat": "Hazardous", "grade": "D", "label": "D", "res": true, "com": false, "ind": false, "holc_grade": "D"}, "geometry": {"type": "Polygon", "coordinates": [[[-97.76611, 30.28175], [-97.765907, 30.282232], [-97.76523, 30.28384], [-97.76511, 30.283785], [-97.764618, 30.283558], [-97.75851, 30.28074], [-97.758871, 30.280099], [-97.75968, 30.27866], [-97.76611, 30.28175]]]}}, {"type": "Feature", "properties": {"area_id": 9097, "city": "Austin", "state": "TX", "city_survey": true, "cat": "Hazardous", "grade": "D", "label": "D", "res": true, "com": false, "ind": false, "holc_grade": "D"}, "geometry": {"type": "Polygon", "coordinates": [[[-97.76973, 30.28474], [-97.77125, 30.28263], [-97.77232, 30.28326], [-97.77327, 30.2837], [-97.77391, 30.28383], [-97.77403, 30.2843], [-97.77378, 30.28506], [-97.77264, 30.28624], [-97.76973, 30.28474]]]}}]}