{"type": "FeatureCollection", "features": [{"type": "Feature", "geometry": {"type": "Point", "coordinates": [-84.56666666666666, 39.41111111111111]}, "properties": {"facility_name": "CITY OF HAMILTON MUNCIPAL ELECTRIC PLANT", "industry": null, "tri_facility_id": "45011CTYFH960NT"}}, {"type": "Feature", "geometry": {"type": "Point", "coordinates": [-84.547778, 39.3825]}, "properties": {"facility_name": "DIEBOLD INC", "industry": null, "tri_facility_id": "45011DBLDN1550G"}}, {"type": "Feature", "geometry": {"type": "Point", "coordinates": [-84.553189, 39.380224]}, "properties": {"facility_name": "HAMILTON CASTER & MANUFACTURING CO", "industry": null, "tri_facility_id": "45011HMLTN1637D"}}, {"type": "Feature", "geometry": {"type": "Point", "coordinates": [-84.55, 39.391667]}, "properties": {"facility_name": "HAMILTON BRASS & ALUMINUM CASTINGS CO", "industry": null, "tri_facility_id": "45011HMLTN706SE"}}, {"type": "Feature", "geometry": {"type": "Point", "coordinates": [-84.556968, 39.403508]}, "properties": {"facility_name": "KORNYLAK CORP", "industry": null, "tri_facility_id": "45011KRNYL400HE"}}, {"type": "Feature", "geometry": {"type": "Point", "coordinates": [-84.49666666666667, 39.42666666666666]}, "properties": {"facility_name": "PACIFIC MANUFACTURING", "industry": null, "tri_facility_id": "45011PCFCM8955S"}}, {"type": "Feature", "geometry": {"type": "Point", "coordinates": [-84.4925, 39.33722222222222]}, "properties": {"facility_name": "PACIFIC INDUSTRIES AIR CONTROL INC", "industry": null, "tri_facility_id": "45011PCFCN8935S"}}, {"type": "Feature", "geometry": {"type": "Point", "coordinates": [-84.548611, 39.385833]}, "properties": {"facility_name": "PEPSI-COLA BOTTLING CO", "industry": null, "tri_facility_id": "45011PPSCLERIEE"}}, {"type": "Feature", "geometry": {"type": "Point", "coordinates": [-84.526667, 39.430833]}, "properties": {"facility_name": "ARMCO STEEL CO LP HAMILTON PLANT", "industry": null, "tri_facility_id": "45011RMCNC401AU"}}, {"type": "Feature", "geometry": {"type": "Point", "coordinates": [-84.553889, 39.390278]}, "properties": {"facility_name": "HAMILTON-STEVENS GROUP INC", "industry": null, "tri_facility_id": "45012HMLTN9THWA"}}, {"type": "Feature", "geometry": {"type": "Point", "coordinates": [-84.5475, 39.387222]}, "properties": {"facility_name": "MOSLER INC", "industry": null, "tri_facility_id": "45012MSLRN1561G"}}, {"type": "Feature", "geometry": {"type": "Point", "coordinates": [-84.55, 39.375]}, "properties": {"facility_name": "SOUTHWESTERN OHIO STEEL INC", "industry": null, "tri_facility_id": "45012STHWS903BE"}}, {"type": "Feature", "geometry": {"type": "Point", "coordinates": [-84.563056, 39.399722]}, "properties": {"facility_name": "MOHAWK FINE PAPERS INC - BECKETT MILL", "industry": null, "tri_facility_id": "45012THBCK400DA"}}, {"type": "Feature", "geometry": {"type": "Point", "coordinates": [-84.491944, 39.351111]}, "properties": {"facility_name": "VIBRA FINISH CO", "industry": null, "tri_facility_id": "45012VBRFN8491S"}}, {"type": "Feature", "geometry": {"type": "Point", "coordinates": [-84.563611, 39.413611]}, "properties": {"facility_name": "SMART PAPERS HOLDINGS LLC", "industry": null, "tri_facility_id": "45013CHMPN601NO"}}, {"type": "Feature", "geometry": {"type": "Point", "coordinates": [-84.563056, 39.399722]}, "properties": {"facility_name": "ASSOCIATED RACK CORP ACCURATE RACK CO", "industry": null, "tri_facility_id": "45013SSCTD253ED"}}, {"type": "Feature", "geometry": {"type": "Point", "coordinates": [-84.5, 39.335]}, "properties": {"facility_name": "BRAZING CONCEPTS", "industry": null, "tri_facility_id": "45014BRZNG371PR"}}, {"type": "Feature", "geometry": {"type": "Point", "coordinates": [-84.49861111111112, 39.355000000000004]}, "properties": {"facility_name": "FLINT GROUP N.A. CORP", "industry": null, "tri_facility_id": "45014CLRRS575QU"}}, {"type": "Feature", "geometry": {"type": "Point", "coordinates": [-84.49277777777777, 39.330555555555556]}, "properties": {"facility_name": "CALVARY INDUSTRIES INC.", "industry": null, "tri_facility_id": "45014CLVRY9233S"}}, {"type": "Feature", "geometry": {"type": "Point", "coordinates": [-84.598001, 39.323339]}, "properties": {"facility_name": "CINCINNATI WATER WORKS, BOLTON TREATMENT PLANT", "industry": null, "tri_facility_id": "45014CNCNN6800E"}}, {"type": "Feature", "geometry": {"type": "Point", "coordinates": [-84.546111, 39.329722]}, "properties": {"facility_name": "GENERAL POLYMERS CORP", "industry": null, "tri_facility_id": "45014GNRLP9461L"}}, {"type": "Feature", "geometry": {"type": "Point", "coordinates": [-84.541667, 39.357778]}, "properties": {"facility_name": "USALCO FAIRFIELD PLANT LLC", "industry": null, "tri_facility_id": "45014MRCNC3700D"}}, {"type": "Feature", "geometry": {"type": "Point", "coordinates": [-84.519722, 39.335556]}, "properties": {"facility_name": "PACIFIC INDUSTRIES USA INC", "industry": null, "tri_facility_id": "45014PCFCN8870N"}}, {"type": "Feature", "geometry": {"type": "Point", "coordinates": [-84.533333, 39.35]}, "properties": {"facility_name": "PLAS-TANKS INDUSTRIES INC", "industry": null, "tri_facility_id": "45014PLSTN5011F"}}, {"type": "Feature", "geometry": {"type": "Point", "coordinates": [-84.4875, 39.313889]}, "properties": {"facility_name": "PELLA ENTRY SYSTEMS", "industry": null, "tri_facility_id": "45014PSNDS7100D"}}, {"type": "Feature", "geometry": {"type": "Point", "coordinates": [-84.492778, 39.330278]}, "properties": {"facility_name": "SELECTIVE COATINGS & INKS INC", "industry": null, "tri_facility_id": "45014SLCTV9217S"}}, {"type": "Feature", "geometry": {"type": "Point", "coordinates": [-84.51388888888889, 39.34111111111111]}, "properties": {"facility_name": "UNIVAR SOLUTIONS USA INC. - HAMILTON", "industry": null, "tri_facility_id": "45015CHMCN12STA"}}, {"type": "Feature", "geometry": {"type": "Point", "coordinates": [-84.504216, 39.343966]}, "properties": {"facility_name": "CONNECTOR MANUFACTURING CO", "industry": null, "tri_facility_id": "45015CNNCT3501S"}}, {"type": "Feature", "geometry": {"type": "Point", "coordinates": [-84.55, 39.35]}, "properties": {"facility_name": "FUTURE FINISHES INC", "industry": null, "tri_facility_id": "45015FTRFN40STA"}}, {"type": "Feature", "geometry": {"type": "Point", "coordinates": [-84.513889, 39.345833]}, "properties": {"facility_name": "GE ENGINE SERVICES ACSC/C SYMMES ROAD", "industry": null, "tri_facility_id": "45015GCSCC3024S"}}, {"type": "Feature", "geometry": {"type": "Point", "coordinates": [-84.536832, 39.36589]}, "properties": {"facility_name": "DUBOIS CHEMICALS INC. - HAMILTON OH (EAGLE)", "industry": null, "tri_facility_id": "45015GLCHM2550B"}}, {"type": "Feature", "geometry": {"type": "Point", "coordinates": [-84.50694444444444, 39.34527777777778]}, "properties": {"facility_name": "JACKSONLEA", "industry": null, "tri_facility_id": "45015JCKSN344SY"}}, {"type": "Feature", "geometry": {"type": "Point", "coordinates": [-84.506389, 39.338056]}, "properties": {"facility_name": "UFP HAMILTON LLC", "industry": null, "tri_facility_id": "45015NVRSL115DI"}}, {"type": "Feature", "geometry": {"type": "Point", "coordinates": [-84.56138888888889, 39.39944444444444]}, "properties": {"facility_name": "PLAS-TANKS INDUSTRIES INC.", "industry": null, "tri_facility_id": "45015PLSTN39STA"}}, {"type": "Feature", "geometry": {"type": "Point", "coordinates": [-84.49388888888889, 39.325833333333335]}, "properties": {"facility_name": "THYSSENKRUPP BILSTEIN OF AMERICA", "industry": null, "tri_facility_id": "45015THYSS8685B"}}, {"type": "Feature", "geometry": {"type": "Point", "coordinates": [-84.51083333333334, 39.342222222222226]}, "properties": {"facility_name": "TERRY ASPHALT MATERIALS INC", "industry": null, "tri_facility_id": "45015TRRYH8STAN"}}, {"type": "Feature", "geometry": {"type": "Point", "coordinates": [-84.5, 39.35138888888889]}, "properties": {"facility_name": "VALEO CLIMATE CONTROL", "industry": null, "tri_facility_id": "45015VLCLM3620S"}}]}