{"type": "FeatureCollection", "features": [{"type": "Feature", "properties": {"area_id": 10345, "city": "Batesville", "state": "AR", "city_survey": false, "cat": "Blighted District", "grade": "", "label": "Blighted District", "res": true, "com": false, "ind": false, "fill": "#742C25", "GEOID10": "05063490300", "GISJOIN": "G0500630490300", "calc_area": 697150.31454, "pct_tract": 0.01144}, "geometry": {"type": "MultiPolygon", "coordinates": [[[[-91.64076, 35.77413], [-91.64085, 35.77182], [-91.64091, 35.771784], [-91.640888, 35.772585], [-91.640877, 35.77296], [-91.640858, 35.773548], [-91.640836, 35.774084], [-91.640836, 35.774086], [-91.64076, 35.77413]]], [[[-91.63137, 35.77143], [-91.63136, 35.77333], [-91.63197, 35.77334], [-91.63197, 35.77418], [-91.63137, 35.77545], [-91.63135, 35.77661], [-91.62723, 35.77659], [-91.62722, 35.77341], [-91.62319, 35.77332], [-91.62296, 35.76934], [-91.624249, 35.769363], [-91.624356, 35.769383], [-91.624506, 35.769404], [-91.624537, 35.769406], [-91.624679, 35.769416], [-91.624896, 35.769425], [-91.62606, 35.769446], [-91.627324, 35.769473], [-91.627476, 35.769476], [-91.627617, 35.769478], [-91.62865, 35.769495], [-91.628737, 35.769497], [-91.63009, 35.769521], [-91.63138, 35.769533], [-91.63137, 35.77143]]], [[[-91.62871, 35.77943], [-91.62891, 35.77681], [-91.63604, 35.77692], [-91.63573, 35.78056], [-91.63291, 35.78057], [-91.63135, 35.78007], [-91.63173, 35.77925], [-91.63056, 35.77893], [-91.63011, 35.77978], [-91.62871, 35.77943]]]]}}, {"type": "Feature", "properties": {"area_id": 10345, "city": "Batesville", "state": "AR", "city_survey": false, "cat": "Blighted District", "grade": "", "label": "Blighted District", "res": true, "com": false, "ind": false, "fill": "#742C25", "GEOID10": "05063490500", "GISJOIN": "G0500630490500", "calc_area": 60500.65806, "pct_tract": 0.00155}, "geometry": {"type": "MultiPolygon", "coordinates": [[[[-91.64078, 35.76961], [-91.64082, 35.76867], [-91.63829, 35.76857], [-91.63836, 35.76658], [-91.64057, 35.76662], [-91.64101, 35.76662], [-91.64101, 35.76642], [-91.641097, 35.766422], [-91.641089, 35.766614], [-91.64108, 35.76681], [-91.641053, 35.767397], [-91.641045, 35.767594], [-91.641043, 35.767686], [-91.641036, 35.767802], [-91.641003, 35.768426], [-91.640993, 35.768634], [-91.640974, 35.768976], [-91.640957, 35.769615], [-91.64078, 35.76961]]], [[[-91.63138, 35.76949], [-91.63138, 35.769533], [-91.63009, 35.769521], [-91.628737, 35.769497], [-91.62865, 35.769495], [-91.627617, 35.769478], [-91.627476, 35.769476], [-91.627324, 35.769473], [-91.62606, 35.769446], [-91.624896, 35.769425], [-91.624679, 35.769416], [-91.624537, 35.769406], [-91.624506, 35.769404], [-91.624356, 35.769383], [-91.624249, 35.769363], [-91.63138, 35.76949]]]]}}, {"type": "Feature", "properties": {"area_id": 10345, "city": "Batesville", "state": "AR", "city_survey": false, "cat": "Blighted District", "grade": "", "label": "Blighted District", "res": true, "com": false, "ind": false, "fill": "#742C25", "GEOID10": "05063490200", "GISJOIN": "G0500630490200", "calc_area": 202065.537, "pct_tract": 0.0049}, "geometry": {"type": "MultiPolygon", "coordinates": [[[[-91.64375, 35.76969], [-91.64334, 35.76968], [-91.642923, 35.769669], [-91.64311, 35.769669], [-91.643263, 35.76967], [-91.643371, 35.769671], [-91.643695, 35.769675], [-91.643753, 35.769676], [-91.64375, 35.76969]]], [[[-91.64359, 35.77018], [-91.64423, 35.7698], [-91.644418, 35.769682], [-91.644469, 35.769683], [-91.644636, 35.769685], [-91.644691, 35.769685], [-91.644858, 35.769687], [-91.644873, 35.769687], [-91.64539, 35.7703], [-91.64434, 35.77096], [-91.64498, 35.77169], [-91.640836, 35.774086], [-91.640836, 35.774084], [-91.640858, 35.773548], [-91.640877, 35.77296], [-91.640888, 35.772585], [-91.64091, 35.771784], [-91.64359, 35.77018]]], [[[-91.65499, 35.77288], [-91.65469, 35.77252], [-91.65442, 35.7722], [-91.655604, 35.771558], [-91.655968, 35.771993], [-91.656154, 35.772215], [-91.656165, 35.772228], [-91.65499, 35.77288]]], [[[-91.64625, 35.77682], [-91.64649, 35.77708], [-91.65032, 35.77504], [-91.65014, 35.77723], [-91.64772, 35.77725], [-91.64768, 35.77807], [-91.64693, 35.77843], [-91.64518, 35.77971], [-91.64521, 35.77776], [-91.64555, 35.77707], [-91.64625, 35.77682]]], [[[-91.66054, 35.77927], [-91.66045, 35.78018], [-91.65896, 35.78018], [-91.65904, 35.77925], [-91.66054, 35.77927]]]]}}, {"type": "Feature", "properties": {"area_id": 10345, "city": "Batesville", "state": "AR", "city_survey": false, "cat": "Blighted District", "grade": "", "label": "Blighted District", "res": true, "com": false, "ind": false, "fill": "#742C25", "GEOID10": "05063490600", "GISJOIN": "G0500630490600", "calc_area": 380339.95064, "pct_tract": 0.01483}, "geometry": {"type": "MultiPolygon", "coordinates": [[[[-91.640957, 35.769615], [-91.640974, 35.768976], [-91.640993, 35.768634], [-91.641003, 35.768426], [-91.641036, 35.767802], [-91.641043, 35.767686], [-91.641045, 35.767594], [-91.641053, 35.767397], [-91.64108, 35.76681], [-91.641089, 35.766614], [-91.641097, 35.766422], [-91.64445, 35.76651], [-91.64421, 35.76758], [-91.64397, 35.76872], [-91.643753, 35.769676], [-91.643695, 35.769675], [-91.643371, 35.769671], [-91.643263, 35.76967], [-91.64311, 35.769669], [-91.642923, 35.769669], [-91.640957, 35.769615]]], [[[-91.65577, 35.7679], [-91.65472, 35.76662], [-91.65444, 35.76621], [-91.65453, 35.76568], [-91.65586, 35.76594], [-91.6575, 35.76602], [-91.65982, 35.76553], [-91.66037, 35.76542], [-91.66246, 35.76576], [-91.66249, 35.76605], [-91.66105, 35.7676], [-91.6573, 35.76974], [-91.65577, 35.7679]]], [[[-91.64447, 35.76965], [-91.64485, 35.76966], [-91.644873, 35.769687], [-91.644858, 35.769687], [-91.644691, 35.769685], [-91.644636, 35.769685], [-91.644469, 35.769683], [-91.644418, 35.769682], [-91.64447, 35.76965]]], [[[-91.65805, 35.77023], [-91.66103, 35.77407], [-91.65989, 35.77471], [-91.65728, 35.77161], [-91.656165, 35.772228], [-91.656154, 35.772215], [-91.655968, 35.771993], [-91.655604, 35.771558], [-91.65805, 35.77023]]], [[[-91.66191, 35.77929], [-91.66327, 35.77932], [-91.66324, 35.78025], [-91.66185, 35.78023], [-91.66191, 35.77929]]]]}}, {"type": "Feature", "properties": {"area_id": 10346, "city": "Batesville", "state": "AR", "city_survey": false, "cat": "Second Best Residential Section", "grade": "", "label": "Second Best Residential Section", "res": true, "com": false, "ind": false, "fill": "#8F7F4B", "GEOID10": "05063490200", "GISJOIN": "G0500630490200", "calc_area": 102372.66598, "pct_tract": 0.00248}, "geometry": {"type": "MultiPolygon", "coordinates": [[[[-91.65092, 35.77302], [-91.64958, 35.77139], [-91.653542, 35.769156], [-91.65358, 35.7692], [-91.653714, 35.769355], [-91.654117, 35.76982], [-91.654252, 35.769975], [-91.654365, 35.770106], [-91.654706, 35.7705], [-91.65482, 35.770632], [-91.654901, 35.770726], [-91.655049, 35.770897], [-91.65092, 35.77302]]], [[[-91.65835, 35.77564], [-91.658, 35.77523], [-91.658538, 35.774978], [-91.658722, 35.775193], [-91.658831, 35.77532], [-91.65835, 35.77564]]]]}}, {"type": "Feature", "properties": {"area_id": 10346, "city": "Batesville", "state": "AR", "city_survey": false, "cat": "Second Best Residential Section", "grade": "", "label": "Second Best Residential Section", "res": true, "com": false, "ind": false, "fill": "#8F7F4B", "GEOID10": "05063490600", "GISJOIN": "G0500630490600", "calc_area": 117772.07455, "pct_tract": 0.00459}, "geometry": {"type": "MultiPolygon", "coordinates": [[[[-91.64494, 35.76565], [-91.65057, 35.76578], [-91.65053, 35.76682], [-91.64494, 35.76665], [-91.64494, 35.76565]]], [[[-91.65577, 35.7679], [-91.6573, 35.76974], [-91.655049, 35.770897], [-91.654901, 35.770726], [-91.65482, 35.770632], [-91.654706, 35.7705], [-91.654365, 35.770106], [-91.654252, 35.769975], [-91.654117, 35.76982], [-91.653714, 35.769355], [-91.65358, 35.7692], [-91.653542, 35.769156], [-91.65577, 35.7679]]], [[[-91.65894, 35.77479], [-91.65916, 35.7751], [-91.658831, 35.77532], [-91.658722, 35.775193], [-91.658538, 35.774978], [-91.65894, 35.77479]]]]}}, {"type": "Feature", "properties": {"area_id": 10347, "city": "Batesville", "state": "AR", "city_survey": false, "cat": "Best Residential Section", "grade": "", "label": "Best Residential Section", "res": true, "com": false, "ind": false, "fill": "#4E6144", "GEOID10": "05063490300", "GISJOIN": "G0500630490300", "calc_area": 12579.14355, "pct_tract": 0.00021}, "geometry": {"type": "MultiPolygon", "coordinates": [[[[-91.64072, 35.77703], [-91.64073, 35.77582], [-91.64001, 35.77582], [-91.64005, 35.77446], [-91.64005, 35.77431], [-91.64069, 35.77429], [-91.64076, 35.77413], [-91.640836, 35.774086], [-91.640831, 35.774172], [-91.640826, 35.77428], [-91.640814, 35.774439], [-91.640808, 35.774528], [-91.640802, 35.774615], [-91.640788, 35.774849], [-91.640787, 35.774879], [-91.640786, 35.774968], [-91.640785, 35.775025], [-91.640785, 35.775033], [-91.640787, 35.775231], [-91.640788, 35.775297], [-91.640788, 35.775402], [-91.640788, 35.775717], [-91.640789, 35.775823], [-91.640789, 35.77595], [-91.640789, 35.776331], [-91.64079, 35.776459], [-91.640788, 35.77664], [-91.640784, 35.777031], [-91.64072, 35.77703]]]]}}, {"type": "Feature", "properties": {"area_id": 10347, "city": "Batesville", "state": "AR", "city_survey": false, "cat": "Best Residential Section", "grade": "", "label": "Best Residential Section", "res": true, "com": false, "ind": false, "fill": "#4E6144", "GEOID10": "05063490200", "GISJOIN": "G0500630490200", "calc_area": 536729.01722, "pct_tract": 0.01303}, "geometry": {"type": "MultiPolygon", "coordinates": [[[[-91.64958, 35.77139], [-91.65092, 35.77302], [-91.65118, 35.77346], [-91.65028, 35.77394], [-91.64921, 35.77451], [-91.64944, 35.77494], [-91.64555, 35.77707], [-91.640784, 35.777031], [-91.640788, 35.77664], [-91.64079, 35.776459], [-91.640789, 35.776331], [-91.640789, 35.77595], [-91.640789, 35.775823], [-91.640788, 35.775717], [-91.640788, 35.775402], [-91.640788, 35.775297], [-91.640787, 35.775231], [-91.640785, 35.775033], [-91.640785, 35.775025], [-91.640786, 35.774968], [-91.640787, 35.774879], [-91.640788, 35.774849], [-91.640802, 35.774615], [-91.640808, 35.774528], [-91.640814, 35.774439], [-91.640826, 35.77428], [-91.640831, 35.774172], [-91.640836, 35.774086], [-91.64498, 35.77169], [-91.64434, 35.77096], [-91.64539, 35.7703], [-91.644873, 35.769687], [-91.644914, 35.769688], [-91.645252, 35.769691], [-91.646266, 35.7697], [-91.646605, 35.769703], [-91.646647, 35.769703], [-91.646776, 35.769704], [-91.646819, 35.769705], [-91.647152, 35.769709], [-91.648153, 35.769722], [-91.648486, 35.769726], [-91.648563, 35.769726], [-91.648794, 35.769729], [-91.648871, 35.76973], [-91.648996, 35.769731], [-91.649374, 35.769737], [-91.6495, 35.769739], [-91.649711, 35.769743], [-91.649893, 35.769747], [-91.650345, 35.769751], [-91.650557, 35.769754], [-91.650627, 35.769715], [-91.650838, 35.7696], [-91.650909, 35.769562], [-91.651088, 35.769461], [-91.651321, 35.769331], [-91.651626, 35.769154], [-91.651805, 35.769052], [-91.652025, 35.768926], [-91.652687, 35.768551], [-91.652908, 35.768426], [-91.652999, 35.768526], [-91.653044, 35.768578], [-91.653446, 35.769044], [-91.653542, 35.769156], [-91.64958, 35.77139]]], [[[-91.64423, 35.7698], [-91.64424, 35.769681], [-91.644418, 35.769682], [-91.64423, 35.7698]]]]}}, {"type": "Feature", "properties": {"area_id": 10347, "city": "Batesville", "state": "AR", "city_survey": false, "cat": "Best Residential Section", "grade": "", "label": "Best Residential Section", "res": true, "com": false, "ind": false, "fill": "#4E6144", "GEOID10": "05063490600", "GISJOIN": "G0500630490600", "calc_area": 119231.01226, "pct_tract": 0.00465}, "geometry": {"type": "MultiPolygon", "coordinates": [[[[-91.64432, 35.76874], [-91.65034, 35.76879], [-91.65046, 35.76898], [-91.65472, 35.76662], [-91.65577, 35.7679], [-91.653542, 35.769156], [-91.653446, 35.769044], [-91.653044, 35.768578], [-91.652999, 35.768526], [-91.652908, 35.768426], [-91.652687, 35.768551], [-91.652025, 35.768926], [-91.651805, 35.769052], [-91.651626, 35.769154], [-91.651321, 35.769331], [-91.651088, 35.769461], [-91.650909, 35.769562], [-91.650838, 35.7696], [-91.650627, 35.769715], [-91.650557, 35.769754], [-91.650345, 35.769751], [-91.649893, 35.769747], [-91.649711, 35.769743], [-91.6495, 35.769739], [-91.649374, 35.769737], [-91.648996, 35.769731], [-91.648871, 35.76973], [-91.648794, 35.769729], [-91.648563, 35.769726], [-91.648486, 35.769726], [-91.648153, 35.769722], [-91.647152, 35.769709], [-91.646819, 35.769705], [-91.646776, 35.769704], [-91.646647, 35.769703], [-91.646605, 35.769703], [-91.646266, 35.7697], [-91.645252, 35.769691], [-91.644914, 35.769688], [-91.644873, 35.769687], [-91.64485, 35.76966], [-91.64447, 35.76965], [-91.644418, 35.769682], [-91.64424, 35.769681], [-91.64432, 35.76874]]]]}}, {"type": "Feature", "properties": {"area_id": 10348, "city": "Batesville", "state": "AR", "city_survey": false, "cat": "Business District", "grade": "", "label": "Business District", "res": false, "com": true, "ind": false, "fill": "#686A6D", "GEOID10": "05063490300", "GISJOIN": "G0500630490300", "calc_area": 472996.15567, "pct_tract": 0.00776}, "geometry": {"type": "MultiPolygon", "coordinates": [[[[-91.64085, 35.77182], [-91.64076, 35.77413], [-91.64069, 35.77429], [-91.64005, 35.77431], [-91.64005, 35.77446], [-91.63805, 35.77448], [-91.63531, 35.77437], [-91.63535, 35.77661], [-91.63135, 35.77661], [-91.63137, 35.77545], [-91.63197, 35.77418], [-91.63197, 35.77334], [-91.63136, 35.77333], [-91.63137, 35.77143], [-91.63537, 35.77148], [-91.6354, 35.769585], [-91.636493, 35.769604], [-91.636901, 35.769611], [-91.637172, 35.769617], [-91.637307, 35.769621], [-91.637985, 35.769627], [-91.638257, 35.76963], [-91.638529, 35.769632], [-91.639347, 35.769639], [-91.63962, 35.769642], [-91.640615, 35.769643], [-91.640956, 35.769639], [-91.640957, 35.770282], [-91.640949, 35.770602], [-91.640947, 35.770662], [-91.640915, 35.77163], [-91.640911, 35.771758], [-91.64091, 35.771784], [-91.64085, 35.77182]]], [[[-91.63056, 35.77893], [-91.63173, 35.77925], [-91.63135, 35.78007], [-91.63011, 35.77978], [-91.63056, 35.77893]]]]}}, {"type": "Feature", "properties": {"area_id": 10348, "city": "Batesville", "state": "AR", "city_survey": false, "cat": "Business District", "grade": "", "label": "Business District", "res": false, "com": true, "ind": false, "fill": "#686A6D", "GEOID10": "05063490500", "GISJOIN": "G0500630490500", "calc_area": 129313.31882, "pct_tract": 0.00331}, "geometry": {"type": "MultiPolygon", "coordinates": [[[[-91.6354, 35.76957], [-91.63607, 35.76948], [-91.63608, 35.76576], [-91.64058, 35.76587], [-91.64057, 35.76662], [-91.63836, 35.76658], [-91.63829, 35.76857], [-91.64082, 35.76867], [-91.64078, 35.76961], [-91.640957, 35.769615], [-91.640956, 35.769639], [-91.640615, 35.769643], [-91.63962, 35.769642], [-91.639347, 35.769639], [-91.638529, 35.769632], [-91.638257, 35.76963], [-91.637985, 35.769627], [-91.637307, 35.769621], [-91.637172, 35.769617], [-91.636901, 35.769611], [-91.636493, 35.769604], [-91.6354, 35.769585], [-91.6354, 35.76957]]]]}}, {"type": "Feature", "properties": {"area_id": 10348, "city": "Batesville", "state": "AR", "city_survey": false, "cat": "Business District", "grade": "", "label": "Business District", "res": false, "com": true, "ind": false, "fill": "#686A6D", "GEOID10": "05063490200", "GISJOIN": "G0500630490200", "calc_area": 274371.28414, "pct_tract": 0.00666}, "geometry": {"type": "MultiPolygon", "coordinates": [[[[-91.64334, 35.76968], [-91.64359, 35.77018], [-91.64091, 35.771784], [-91.640911, 35.771758], [-91.640915, 35.77163], [-91.640947, 35.770662], [-91.640949, 35.770602], [-91.640957, 35.770282], [-91.640956, 35.769639], [-91.6416, 35.769647], [-91.641732, 35.76965], [-91.642129, 35.769662], [-91.642262, 35.769666], [-91.642309, 35.769666], [-91.64245, 35.769667], [-91.642498, 35.769668], [-91.642651, 35.769668], [-91.642923, 35.769669], [-91.64334, 35.76968]]], [[[-91.64944, 35.77494], [-91.64921, 35.77451], [-91.65028, 35.77394], [-91.65032, 35.77504], [-91.64649, 35.77708], [-91.64625, 35.77682], [-91.64555, 35.77707], [-91.64944, 35.77494]]], [[[-91.66045, 35.78018], [-91.66054, 35.77927], [-91.65904, 35.77925], [-91.65911, 35.77748], [-91.65592, 35.77745], [-91.65448, 35.77595], [-91.65469, 35.77252], [-91.65499, 35.77288], [-91.656165, 35.772228], [-91.656288, 35.772373], [-91.65669, 35.772849], [-91.656771, 35.772944], [-91.656827, 35.773006], [-91.656961, 35.77316], [-91.657361, 35.773621], [-91.657363, 35.773624], [-91.657498, 35.773779], [-91.657636, 35.773937], [-91.65805, 35.774413], [-91.658189, 35.774572], [-91.658195, 35.774578], [-91.658322, 35.774727], [-91.658538, 35.774978], [-91.658, 35.77523], [-91.65835, 35.77564], [-91.658831, 35.77532], [-91.658856, 35.775349], [-91.65894, 35.775452], [-91.658988, 35.775508], [-91.659322, 35.775898], [-91.659393, 35.775979], [-91.65953, 35.776135], [-91.659666, 35.776295], [-91.660077, 35.776778], [-91.660138, 35.776849], [-91.660213, 35.77694], [-91.660307, 35.777057], [-91.660413, 35.777176], [-91.660485, 35.777256], [-91.660563, 35.77735], [-91.660623, 35.777449], [-91.660655, 35.777556], [-91.660663, 35.77767], [-91.660652, 35.778028], [-91.660651, 35.778079], [-91.660639, 35.778338], [-91.660635, 35.778527], [-91.660634, 35.778529], [-91.660609, 35.779105], [-91.660601, 35.779297], [-91.660593, 35.779487], [-91.66057, 35.78006], [-91.660565, 35.780184], [-91.66045, 35.78018]]]]}}, {"type": "Feature", "properties": {"area_id": 10348, "city": "Batesville", "state": "AR", "city_survey": false, "cat": "Business District", "grade": "", "label": "Business District", "res": false, "com": true, "ind": false, "fill": "#686A6D", "GEOID10": "05063490600", "GISJOIN": "G0500630490600", "calc_area": 481160.46361, "pct_tract": 0.01876}, "geometry": {"type": "MultiPolygon", "coordinates": [[[[-91.64421, 35.76758], [-91.64491, 35.76759], [-91.64494, 35.76665], [-91.65053, 35.76682], [-91.65034, 35.76879], [-91.64432, 35.76874], [-91.64397, 35.76872], [-91.64421, 35.76758]]], [[[-91.642923, 35.769669], [-91.642651, 35.769668], [-91.642498, 35.769668], [-91.64245, 35.769667], [-91.642309, 35.769666], [-91.642262, 35.769666], [-91.642129, 35.769662], [-91.641732, 35.76965], [-91.6416, 35.769647], [-91.640956, 35.769639], [-91.640957, 35.769615], [-91.642923, 35.769669]]], [[[-91.65728, 35.77161], [-91.65989, 35.77471], [-91.66103, 35.77407], [-91.66174, 35.77485], [-91.66839, 35.77505], [-91.66839, 35.7776], [-91.6638, 35.77753], [-91.66378, 35.78024], [-91.66324, 35.78025], [-91.66327, 35.77932], [-91.66191, 35.77929], [-91.66185, 35.78023], [-91.660565, 35.780184], [-91.66057, 35.78006], [-91.660593, 35.779487], [-91.660601, 35.779297], [-91.660609, 35.779105], [-91.660634, 35.778529], [-91.660635, 35.778527], [-91.660639, 35.778338], [-91.660651, 35.778079], [-91.660652, 35.778028], [-91.660663, 35.77767], [-91.660655, 35.777556], [-91.660623, 35.777449], [-91.660563, 35.77735], [-91.660485, 35.777256], [-91.660413, 35.777176], [-91.660307, 35.777057], [-91.660213, 35.77694], [-91.660138, 35.776849], [-91.660077, 35.776778], [-91.659666, 35.776295], [-91.65953, 35.776135], [-91.659393, 35.775979], [-91.659322, 35.775898], [-91.658988, 35.775508], [-91.65894, 35.775452], [-91.658856, 35.775349], [-91.658831, 35.77532], [-91.65916, 35.7751], [-91.65894, 35.77479], [-91.658538, 35.774978], [-91.658322, 35.774727], [-91.658195, 35.774578], [-91.658189, 35.774572], [-91.65805, 35.774413], [-91.657636, 35.773937], [-91.657498, 35.773779], [-91.657363, 35.773624], [-91.657361, 35.773621], [-91.656961, 35.77316], [-91.656827, 35.773006], [-91.656771, 35.772944], [-91.65669, 35.772849], [-91.656288, 35.772373], [-91.656165, 35.772228], [-91.65728, 35.77161]]]]}}]}