{"type": "FeatureCollection", "features": [{"type": "Feature", "properties": {"area_id": 3948, "city": "Mobile", "state": "AL", "city_survey": true, "cat": "Best", "grade": "A", "label": "A1", "res": true, "com": false, "ind": false, "holc_grade": "A"}, "geometry": {"type": "Polygon", "coordinates": [[[-88.09139, 30.69082], [-88.09262, 30.69137], [-88.09223, 30.69243], [-88.09222, 30.69245], [-88.09099, 30.69195], [-88.09139, 30.69082]]]}}, {"type": "Feature", "properties": {"area_id": 3929, "city": "Mobile", "state": "AL", "city_survey": true, "cat": "Best", "grade": "A", "label": "A2", "res": true, "com": false, "ind": false, "holc_grade": "A"}, "geometry": {"type": "Polygon", "coordinates": [[[-88.08466, 30.69201], [-88.08466, 30.69408], [-88.08314, 30.69411], [-88.08314, 30.69406], [-88.08309, 30.69216], [-88.08337, 30.69214], [-88.08466, 30.69201]]]}}, {"type": "Feature", "properties": {"area_id": 3926, "city": "Mobile", "state": "AL", "city_survey": true, "cat": "Best", "grade": "A", "label": "A3", "res": true, "com": false, "ind": false, "holc_grade": "A"}, "geometry": {"type": "Polygon", "coordinates": [[[-88.07712, 30.69122], [-88.07713, 30.6904], [-88.07713, 30.69035], [-88.07824, 30.69032], [-88.07824, 30.69038], [-88.07813, 30.6917], [-88.07735, 30.69163], [-88.07726, 30.69357], [-88.07612, 30.69351], [-88.07608, 30.69351], [-88.07578, 30.69269], [-88.07563, 30.69223], [-88.07569, 30.692], [-88.07569, 30.69165], [-88.07545, 30.69119], [-88.07712, 30.69122]]]}}, {"type": "Feature", "properties": {"area_id": 7175, "city": "Mobile", "state": "AL", "city_survey": true, "cat": "Best", "grade": "A", "label": "A4", "res": true, "com": false, "ind": false, "holc_grade": "A"}, "geometry": {"type": "Polygon", "coordinates": [[[-88.0892, 30.68416], [-88.0886, 30.68416], [-88.0886, 30.68225], [-88.08926, 30.68218], [-88.0892, 30.68416]]]}}, {"type": "Feature", "properties": {"area_id": 3938, "city": "Mobile", "state": "AL", "city_survey": true, "cat": "Best", "grade": "A", "label": "A5", "res": true, "com": false, "ind": false, "holc_grade": "A"}, "geometry": {"type": "Polygon", "coordinates": [[[-88.08499, 30.6793], [-88.0853, 30.67942], [-88.08756, 30.67948], [-88.08925, 30.67946], [-88.08925, 30.68001], [-88.08953, 30.68034], [-88.08794, 30.68048], [-88.08497, 30.6804], [-88.08499, 30.6793]]]}}, {"type": "Feature", "properties": {"area_id": 3933, "city": "Mobile", "state": "AL", "city_survey": true, "cat": "Best", "grade": "A", "label": "A6", "res": true, "com": false, "ind": false, "holc_grade": "A"}, "geometry": {"type": "Polygon", "coordinates": [[[-88.07864, 30.68011], [-88.08088, 30.67944], [-88.08057, 30.68105], [-88.07851, 30.6813], [-88.07857, 30.68051], [-88.07864, 30.68011]]]}}, {"type": "Feature", "properties": {"area_id": 3920, "city": "Mobile", "state": "AL", "city_survey": true, "cat": "Still Desirable", "grade": "B", "label": null, "res": true, "com": false, "ind": false, "holc_grade": "B"}, "geometry": {"type": "Polygon", "coordinates": [[[-88.0617, 30.68746], [-88.06176, 30.68631], [-88.06295, 30.68628], [-88.06289, 30.68743], [-88.0617, 30.68746]]]}}, {"type": "Feature", "properties": {"area_id": 3921, "city": "Mobile", "state": "AL", "city_survey": true, "cat": "Still Desirable", "grade": "B", "label": null, "res": true, "com": false, "ind": false, "holc_grade": "B"}, "geometry": {"type": "Polygon", "coordinates": [[[-88.06832, 30.68587], [-88.06699, 30.68587], [-88.06725, 30.6838], [-88.06871, 30.68398], [-88.06832, 30.68587]]]}}, {"type": "Feature", "properties": {"area_id": 3922, "city": "Mobile", "state": "AL", "city_survey": true, "cat": "Still Desirable", "grade": "B", "label": null, "res": true, "com": false, "ind": false, "holc_grade": "B"}, "geometry": {"type": "Polygon", "coordinates": [[[-88.06461, 30.68206], [-88.06402, 30.68102], [-88.06553, 30.68097], [-88.06571, 30.68025], [-88.06711, 30.68038], [-88.06693, 30.68135], [-88.06589, 30.68153], [-88.06586, 30.68189], [-88.06461, 30.68206]]]}}, {"type": "Feature", "properties": {"area_id": 3923, "city": "Mobile", "state": "AL", "city_survey": true, "cat": "Still Desirable", "grade": "B", "label": null, "res": true, "com": false, "ind": false, "holc_grade": "B"}, "geometry": {"type": "Polygon", "coordinates": [[[-88.0699, 30.68067], [-88.07016, 30.68107], [-88.07269, 30.68036], [-88.072687, 30.680427], [-88.07259, 30.6823], [-88.07259, 30.68235], [-88.07254, 30.68343], [-88.07138, 30.68335], [-88.07138, 30.6833], [-88.0715, 30.68183], [-88.07061, 30.68194], [-88.07043, 30.68173], [-88.06948, 30.68206], [-88.06936, 30.68153], [-88.069328, 30.681465], [-88.06899, 30.68078], [-88.0699, 30.68067]]]}}, {"type": "Feature", "properties": {"area_id": 3945, "city": "Mobile", "state": "AL", "city_survey": true, "cat": "Still Desirable", "grade": "B", "label": null, "res": true, "com": false, "ind": false, "holc_grade": "B"}, "geometry": {"type": "Polygon", "coordinates": [[[-88.08643, 30.67532], [-88.0865, 30.67564], [-88.086993, 30.675877], [-88.08731, 30.67603], [-88.08726, 30.6764], [-88.08771, 30.67634], [-88.08767, 30.67658], [-88.086, 30.67726], [-88.08721, 30.67726], [-88.08719, 30.67783], [-88.08534, 30.67781], [-88.08534, 30.6773], [-88.08472, 30.67693], [-88.084676, 30.676647], [-88.08458, 30.67603], [-88.08643, 30.67532]]]}}, {"type": "Feature", "properties": {"area_id": 3951, "city": "Mobile", "state": "AL", "city_survey": true, "cat": "Still Desirable", "grade": "B", "label": null, "res": true, "com": false, "ind": false, "holc_grade": "B"}, "geometry": {"type": "Polygon", "coordinates": [[[-88.08557, 30.69188], [-88.08714, 30.69182], [-88.087174, 30.697068], [-88.08718, 30.69807], [-88.08573, 30.69756], [-88.085713, 30.697049], [-88.08561, 30.694], [-88.08557, 30.69188]]]}}, {"type": "Feature", "properties": {"area_id": 3949, "city": "Mobile", "state": "AL", "city_survey": true, "cat": "Still Desirable", "grade": "B", "label": "B1", "res": true, "com": false, "ind": false, "holc_grade": "B"}, "geometry": {"type": "Polygon", "coordinates": [[[-88.09223, 30.69243], [-88.09262, 30.69137], [-88.09139, 30.69082], [-88.09153, 30.68777], [-88.09394, 30.68809], [-88.09525, 30.68856], [-88.09665, 30.68924], [-88.09607, 30.69085], [-88.09548, 30.69368], [-88.09222, 30.69245], [-88.09223, 30.69243]]]}}, {"type": "Feature", "properties": {"area_id": 3935, "city": "Mobile", "state": "AL", "city_survey": true, "cat": "Still Desirable", "grade": "B", "label": "B2", "res": true, "com": false, "ind": false, "holc_grade": "B"}, "geometry": {"type": "Polygon", "coordinates": [[[-88.07728, 30.67891], [-88.07465, 30.67964], [-88.07439, 30.67923], [-88.07418, 30.6793], [-88.07384, 30.67846], [-88.07439, 30.67825], [-88.07427, 30.67666], [-88.0751, 30.67666], [-88.07515, 30.67615], [-88.07684, 30.67619], [-88.07681, 30.6784], [-88.07736, 30.67825], [-88.07728, 30.67891]]]}}, {"type": "Feature", "properties": {"area_id": 3934, "city": "Mobile", "state": "AL", "city_survey": true, "cat": "Still Desirable", "grade": "B", "label": "B3", "res": true, "com": false, "ind": false, "holc_grade": "B"}, "geometry": {"type": "Polygon", "coordinates": [[[-88.0829, 30.67631], [-88.082883, 30.67725], [-88.08288, 30.67741], [-88.08184, 30.67783], [-88.08184, 30.67898], [-88.08217, 30.67906], [-88.08205, 30.68128], [-88.081523, 30.681372], [-88.08062, 30.68153], [-88.08056, 30.68212], [-88.07848, 30.68207], [-88.07851, 30.6813], [-88.08057, 30.68105], [-88.08088, 30.67944], [-88.07864, 30.68011], [-88.07857, 30.68051], [-88.07771, 30.68067], [-88.0775, 30.68156], [-88.07619, 30.68151], [-88.07622, 30.68102], [-88.07709, 30.681], [-88.07712, 30.68023], [-88.077268, 30.679005], [-88.07728, 30.67891], [-88.07736, 30.67825], [-88.07758, 30.67819], [-88.07777, 30.67817], [-88.07786, 30.67633], [-88.07861, 30.67628], [-88.07881, 30.67627], [-88.07869, 30.67766], [-88.07945, 30.67766], [-88.07969, 30.67805], [-88.081518, 30.677534], [-88.08178, 30.67746], [-88.08195, 30.67629], [-88.0829, 30.67631]]]}}, {"type": "Feature", "properties": {"area_id": 7176, "city": "Mobile", "state": "AL", "city_survey": true, "cat": "Still Desirable", "grade": "B", "label": "B4", "res": true, "com": false, "ind": false, "holc_grade": "B"}, "geometry": {"type": "Polygon", "coordinates": [[[-88.08419, 30.68457], [-88.08421, 30.68619], [-88.08287, 30.68631], [-88.08279, 30.68618], [-88.08288, 30.68312], [-88.08243, 30.68307], [-88.08294, 30.68069], [-88.08407, 30.68074], [-88.08422, 30.67867], [-88.08461, 30.67872], [-88.08461, 30.67844], [-88.08532, 30.6786], [-88.0853, 30.67942], [-88.08499, 30.6793], [-88.08497, 30.6804], [-88.08492, 30.68367], [-88.08535, 30.68381], [-88.08537, 30.68412], [-88.08749, 30.68414], [-88.08756, 30.68351], [-88.08799, 30.68342], [-88.08794, 30.68048], [-88.08953, 30.68034], [-88.08946, 30.68103], [-88.08946, 30.68104], [-88.08929, 30.68105], [-88.08926, 30.68218], [-88.0886, 30.68225], [-88.0886, 30.68416], [-88.0886, 30.68543], [-88.08832, 30.68551], [-88.088352, 30.686048], [-88.08844, 30.68754], [-88.08652, 30.68758], [-88.08652, 30.686186], [-88.08652, 30.68455], [-88.08419, 30.68457]]]}}, {"type": "Feature", "properties": {"area_id": 3931, "city": "Mobile", "state": "AL", "city_survey": true, "cat": "Still Desirable", "grade": "B", "label": "B5", "res": true, "com": false, "ind": false, "holc_grade": "B"}, "geometry": {"type": "Polygon", "coordinates": [[[-88.08314, 30.68736], [-88.08329, 30.68785], [-88.0838, 30.68792], [-88.08407, 30.69083], [-88.08344, 30.69094], [-88.08337, 30.69214], [-88.08309, 30.69216], [-88.08309, 30.69211], [-88.08226, 30.69214], [-88.08205, 30.68767], [-88.08231, 30.68754], [-88.08314, 30.68736]]]}}, {"type": "Feature", "properties": {"area_id": 3925, "city": "Mobile", "state": "AL", "city_survey": true, "cat": "Still Desirable", "grade": "B", "label": "B6", "res": true, "com": false, "ind": false, "holc_grade": "B"}, "geometry": {"type": "MultiPolygon", "coordinates": [[[[-88.07712, 30.69122], [-88.07545, 30.69119], [-88.07513, 30.68993], [-88.07447, 30.68983], [-88.07441, 30.68952], [-88.07326, 30.68942], [-88.0734, 30.68767], [-88.07367, 30.68767], [-88.07373, 30.68726], [-88.0753, 30.68716], [-88.07539, 30.68769], [-88.07605, 30.68774], [-88.07608, 30.68938], [-88.07715, 30.68958], [-88.07715, 30.68963], [-88.07713, 30.69035], [-88.07713, 30.6904], [-88.07712, 30.69122]]], [[[-88.07459, 30.69343], [-88.07441, 30.69267], [-88.07578, 30.69269], [-88.07608, 30.69351], [-88.07459, 30.69343]]]]}}, {"type": "Feature", "properties": {"area_id": 3924, "city": "Mobile", "state": "AL", "city_survey": true, "cat": "Still Desirable", "grade": "B", "label": "B7", "res": true, "com": false, "ind": false, "holc_grade": "B"}, "geometry": {"type": "Polygon", "coordinates": [[[-88.07046, 30.68976], [-88.07105, 30.68979], [-88.07103, 30.69062], [-88.06901, 30.6905], [-88.0691, 30.68952], [-88.06809, 30.68945], [-88.068, 30.68878], [-88.06818, 30.68853], [-88.06829, 30.68802], [-88.07049, 30.68815], [-88.07046, 30.68976]]]}}, {"type": "Feature", "properties": {"area_id": 3947, "city": "Mobile", "state": "AL", "city_survey": true, "cat": "Still Desirable", "grade": "B", "label": "B8", "res": true, "com": false, "ind": false, "holc_grade": "B"}, "geometry": {"type": "Polygon", "coordinates": [[[-88.0945, 30.68304], [-88.09447, 30.68596], [-88.09269, 30.68575], [-88.09121, 30.68545], [-88.09011, 30.68519], [-88.0901, 30.68406], [-88.09019, 30.68406], [-88.09233, 30.68404], [-88.09236, 30.6834], [-88.09209, 30.6834], [-88.09221, 30.6826], [-88.09263, 30.68253], [-88.09263, 30.68306], [-88.09322, 30.68306], [-88.09322, 30.68258], [-88.09367, 30.68245], [-88.09373, 30.68207], [-88.09456, 30.68209], [-88.0945, 30.68304]]]}}, {"type": "Feature", "properties": {"area_id": 3941, "city": "Mobile", "state": "AL", "city_survey": true, "cat": "Definitely Declining", "grade": "C", "label": null, "res": true, "com": false, "ind": false, "holc_grade": "C"}, "geometry": {"type": "Polygon", "coordinates": [[[-88.07786, 30.67633], [-88.07777, 30.67817], [-88.07758, 30.67819], [-88.07736, 30.67825], [-88.07681, 30.6784], [-88.07684, 30.67619], [-88.07786, 30.67633]]]}}, {"type": "Feature", "properties": {"area_id": 3942, "city": "Mobile", "state": "AL", "city_survey": true, "cat": "Definitely Declining", "grade": "C", "label": null, "res": true, "com": false, "ind": false, "holc_grade": "C"}, "geometry": {"type": "Polygon", "coordinates": [[[-88.08078, 30.67437], [-88.081434, 30.674585], [-88.08154, 30.67462], [-88.08171, 30.67623], [-88.08195, 30.67629], [-88.08178, 30.67746], [-88.081518, 30.677534], [-88.07969, 30.67805], [-88.07945, 30.67766], [-88.07869, 30.67766], [-88.07881, 30.67627], [-88.07917, 30.67615], [-88.07962, 30.67719], [-88.08102, 30.67703], [-88.080762, 30.675222], [-88.08076, 30.67521], [-88.08078, 30.67437]]]}}, {"type": "Feature", "properties": {"area_id": 3939, "city": "Mobile", "state": "AL", "city_survey": true, "cat": "Definitely Declining", "grade": "C", "label": "C1", "res": true, "com": false, "ind": false, "holc_grade": "C"}, "geometry": {"type": "Polygon", "coordinates": [[[-88.06876, 30.67109], [-88.069119, 30.671123], [-88.07159, 30.67135], [-88.07164, 30.67099], [-88.07363, 30.67113], [-88.07356, 30.67438], [-88.07292, 30.6743], [-88.072912, 30.674395], [-88.07285, 30.67511], [-88.07344, 30.67511], [-88.07351, 30.67614], [-88.07515, 30.67615], [-88.0751, 30.67666], [-88.07427, 30.67666], [-88.07439, 30.67825], [-88.07384, 30.67846], [-88.07418, 30.6793], [-88.07439, 30.67923], [-88.07465, 30.67964], [-88.07269, 30.68036], [-88.07016, 30.68107], [-88.0699, 30.68067], [-88.06899, 30.68078], [-88.06809, 30.679], [-88.067846, 30.678981], [-88.06746, 30.67895], [-88.0666, 30.67859], [-88.06687, 30.67647], [-88.067206, 30.67371], [-88.0675, 30.67129], [-88.06859, 30.67133], [-88.06876, 30.67109]]]}}, {"type": "Feature", "properties": {"area_id": 3927, "city": "Mobile", "state": "AL", "city_survey": true, "cat": "Definitely Declining", "grade": "C", "label": "C2", "res": true, "com": false, "ind": false, "holc_grade": "C"}, "geometry": {"type": "Polygon", "coordinates": [[[-88.08184, 30.67898], [-88.08184, 30.67783], [-88.083, 30.67806], [-88.08288, 30.67865], [-88.08422, 30.67867], [-88.08407, 30.68074], [-88.08294, 30.68069], [-88.08243, 30.68307], [-88.08288, 30.68312], [-88.08279, 30.68618], [-88.08226, 30.68639], [-88.082266, 30.686536], [-88.08231, 30.68754], [-88.08205, 30.68767], [-88.08226, 30.69214], [-88.08309, 30.69211], [-88.08309, 30.69216], [-88.08314, 30.69406], [-88.08314, 30.69411], [-88.08318, 30.69536], [-88.078684, 30.695724], [-88.0775, 30.69582], [-88.07659, 30.69417], [-88.07655, 30.6941], [-88.07612, 30.69351], [-88.07726, 30.69357], [-88.07735, 30.69163], [-88.07813, 30.6917], [-88.07824, 30.69038], [-88.07824, 30.69032], [-88.07713, 30.69035], [-88.07715, 30.68963], [-88.07715, 30.68958], [-88.07608, 30.68938], [-88.07605, 30.68774], [-88.07539, 30.68769], [-88.0753, 30.68716], [-88.07373, 30.68726], [-88.07367, 30.68767], [-88.0734, 30.68767], [-88.07293, 30.68767], [-88.07293, 30.68726], [-88.07106, 30.68729], [-88.071069, 30.687174], [-88.07138, 30.68335], [-88.07254, 30.68343], [-88.07259, 30.68235], [-88.07259, 30.6823], [-88.07296, 30.68228], [-88.07316, 30.68136], [-88.07712, 30.68023], [-88.07709, 30.681], [-88.07622, 30.68102], [-88.07619, 30.68151], [-88.0775, 30.68156], [-88.07771, 30.68067], [-88.07857, 30.68051], [-88.07851, 30.6813], [-88.07848, 30.68207], [-88.08056, 30.68212], [-88.08062, 30.68153], [-88.081523, 30.681372], [-88.08205, 30.68128], [-88.08217, 30.67906], [-88.08184, 30.67898]], [[-88.07298, 30.68555], [-88.0726, 30.6855], [-88.0726, 30.68514], [-88.07188, 30.68516], [-88.07168, 30.68629], [-88.07301, 30.68624], [-88.07298, 30.68555]], [[-88.07991, 30.68399], [-88.07994, 30.68289], [-88.07723, 30.68268], [-88.07729, 30.68401], [-88.07991, 30.68399]], [[-88.08175, 30.6904], [-88.08153, 30.68931], [-88.08152, 30.68926], [-88.08181, 30.68912], [-88.08175, 30.6882], [-88.081144, 30.68847], [-88.08009, 30.68894], [-88.08009, 30.68997], [-88.08039, 30.68982], [-88.08039, 30.68987], [-88.08038, 30.69083], [-88.0811, 30.690602], [-88.08174, 30.6904], [-88.08175, 30.6904]]]}}, {"type": "Feature", "properties": {"area_id": 3919, "city": "Mobile", "state": "AL", "city_survey": true, "cat": "Definitely Declining", "grade": "C", "label": "C3", "res": true, "com": false, "ind": false, "holc_grade": "C"}, "geometry": {"type": "Polygon", "coordinates": [[[-88.05543, 30.68166], [-88.05618, 30.68172], [-88.05609, 30.68275], [-88.05728, 30.68279], [-88.05849, 30.68229], [-88.0587, 30.68107], [-88.05828, 30.68097], [-88.05837, 30.67992], [-88.05754, 30.67982], [-88.05757, 30.67915], [-88.05736, 30.67907], [-88.05742, 30.67815], [-88.05926, 30.67851], [-88.05947, 30.67883], [-88.05918, 30.67997], [-88.06092, 30.6802], [-88.06111, 30.67905], [-88.06312, 30.67928], [-88.06339, 30.67895], [-88.06416, 30.67895], [-88.06416, 30.67851], [-88.06419, 30.67813], [-88.06405, 30.67741], [-88.06568, 30.67759], [-88.0658, 30.67708], [-88.06636, 30.67695], [-88.06648, 30.67655], [-88.06687, 30.67647], [-88.0666, 30.67859], [-88.06746, 30.67895], [-88.067846, 30.678981], [-88.06809, 30.679], [-88.06899, 30.68078], [-88.069328, 30.681465], [-88.06936, 30.68153], [-88.06948, 30.68206], [-88.07043, 30.68173], [-88.07061, 30.68194], [-88.0715, 30.68183], [-88.07138, 30.6833], [-88.07138, 30.68335], [-88.071069, 30.687174], [-88.07106, 30.68729], [-88.07106, 30.68735], [-88.07106, 30.68738], [-88.0707, 30.68735], [-88.07049, 30.68815], [-88.06829, 30.68802], [-88.06818, 30.68853], [-88.068, 30.68878], [-88.06809, 30.68945], [-88.0691, 30.68952], [-88.06901, 30.6905], [-88.07103, 30.69062], [-88.07103, 30.69129], [-88.07183, 30.69134], [-88.0718, 30.69062], [-88.07296, 30.69067], [-88.07326, 30.68942], [-88.07441, 30.68952], [-88.07447, 30.68983], [-88.07513, 30.68993], [-88.07545, 30.69119], [-88.07569, 30.69165], [-88.07569, 30.692], [-88.07563, 30.69223], [-88.07578, 30.69269], [-88.07441, 30.69267], [-88.07459, 30.69343], [-88.07608, 30.69351], [-88.07612, 30.69351], [-88.07655, 30.6941], [-88.07659, 30.69417], [-88.07655, 30.69415], [-88.07548, 30.69412], [-88.07557, 30.69578], [-88.07433, 30.69532], [-88.07406, 30.69272], [-88.07174, 30.69282], [-88.0718, 30.69512], [-88.071652, 30.69635], [-88.07165, 30.69637], [-88.07513, 30.69844], [-88.07501, 30.69995], [-88.07263, 30.69985], [-88.0726, 30.69931], [-88.06975, 30.69923], [-88.06987, 30.69806], [-88.06957, 30.69811], [-88.06969, 30.69601], [-88.0702, 30.69612], [-88.0702, 30.695519], [-88.0702, 30.69466], [-88.06856, 30.6942], [-88.0688, 30.69364], [-88.06693, 30.69285], [-88.06699, 30.69218], [-88.065169, 30.692146], [-88.06428, 30.69213], [-88.06122, 30.69101], [-88.06128, 30.69029], [-88.05605, 30.68973], [-88.055, 30.68733], [-88.05747, 30.68676], [-88.05766, 30.68678], [-88.06113, 30.68668], [-88.0612, 30.68574], [-88.05883, 30.68561], [-88.0588, 30.68533], [-88.05465, 30.68663], [-88.05385, 30.68503], [-88.05344, 30.68513], [-88.05353, 30.68577], [-88.053413, 30.685806], [-88.05311, 30.6859], [-88.05258, 30.6847], [-88.052609, 30.684268], [-88.05273, 30.68247], [-88.05234, 30.68235], [-88.05249, 30.68122], [-88.05329, 30.68137], [-88.05344, 30.68035], [-88.053631, 30.680368], [-88.05448, 30.68045], [-88.05439, 30.68094], [-88.05555, 30.68122], [-88.05543, 30.68166]], [[-88.06232, 30.68832], [-88.06238, 30.68781], [-88.06048, 30.68781], [-88.06051, 30.68843], [-88.06232, 30.68832]], [[-88.06289, 30.68743], [-88.06295, 30.68628], [-88.06176, 30.68631], [-88.0617, 30.68746], [-88.06289, 30.68743]], [[-88.06571, 30.68025], [-88.06553, 30.68097], [-88.06402, 30.68102], [-88.06461, 30.68206], [-88.06586, 30.68189], [-88.06589, 30.68153], [-88.06693, 30.68135], [-88.06711, 30.68038], [-88.06571, 30.68025]], [[-88.06675, 30.68694], [-88.065749, 30.686903], [-88.06538, 30.68689], [-88.0652, 30.68871], [-88.065566, 30.68861], [-88.06586, 30.68853], [-88.06604, 30.68769], [-88.06669, 30.68769], [-88.066716, 30.687371], [-88.06675, 30.68694]], [[-88.06702, 30.68296], [-88.06704, 30.682177], [-88.06705, 30.68176], [-88.06595, 30.68217], [-88.065973, 30.68252], [-88.06601, 30.68309], [-88.066255, 30.683058], [-88.06702, 30.68296]], [[-88.06871, 30.68398], [-88.06725, 30.6838], [-88.06699, 30.68587], [-88.06832, 30.68587], [-88.06871, 30.68398]]]}}, {"type": "Feature", "properties": {"area_id": 7177, "city": "Mobile", "state": "AL", "city_survey": true, "cat": "Definitely Declining", "grade": "C", "label": "C4", "res": true, "com": false, "ind": false, "holc_grade": "C"}, "geometry": {"type": "Polygon", "coordinates": [[[-88.08287, 30.68631], [-88.08421, 30.68619], [-88.08419, 30.68457], [-88.08652, 30.68455], [-88.08652, 30.686186], [-88.08652, 30.68758], [-88.08844, 30.68754], [-88.088352, 30.686048], [-88.08832, 30.68551], [-88.0886, 30.68543], [-88.09011, 30.68519], [-88.09121, 30.68545], [-88.09269, 30.68575], [-88.09447, 30.68596], [-88.09555, 30.68624], [-88.09542, 30.68676], [-88.09538, 30.68692], [-88.09659, 30.6871], [-88.09684, 30.68715], [-88.09665, 30.68924], [-88.09525, 30.68856], [-88.09394, 30.68809], [-88.09153, 30.68777], [-88.09139, 30.69082], [-88.09099, 30.69195], [-88.09013, 30.69164], [-88.0886, 30.69182], [-88.0886, 30.696778], [-88.0886, 30.69826], [-88.08846, 30.69832], [-88.08775, 30.69841], [-88.08718, 30.69807], [-88.087174, 30.697068], [-88.08714, 30.69182], [-88.08557, 30.69188], [-88.08561, 30.694], [-88.08466, 30.69408], [-88.08466, 30.69201], [-88.08337, 30.69214], [-88.08344, 30.69094], [-88.08407, 30.69083], [-88.0838, 30.68792], [-88.08329, 30.68785], [-88.08314, 30.68736], [-88.08231, 30.68754], [-88.082266, 30.686536], [-88.08226, 30.68639], [-88.08279, 30.68618], [-88.08287, 30.68631]], [[-88.08523, 30.69047], [-88.08738, 30.69051], [-88.08745, 30.68791], [-88.08514, 30.68791], [-88.08523, 30.69047]], [[-88.09083, 30.68888], [-88.09106, 30.68885], [-88.09108, 30.6878], [-88.09018, 30.6878], [-88.09018, 30.69001], [-88.09075, 30.68997], [-88.09083, 30.68888]]]}}, {"type": "Feature", "properties": {"area_id": 7178, "city": "Mobile", "state": "AL", "city_survey": true, "cat": "Definitely Declining", "grade": "C", "label": "C5", "res": true, "com": false, "ind": false, "holc_grade": "C"}, "geometry": {"type": "Polygon", "coordinates": [[[-88.09495, 30.69479], [-88.09548, 30.69368], [-88.09607, 30.69085], [-88.09665, 30.68924], [-88.09684, 30.68715], [-88.0978, 30.68734], [-88.09883, 30.68728], [-88.0994, 30.68737], [-88.099381, 30.695085], [-88.09937, 30.69927], [-88.09919, 30.69945], [-88.098369, 30.698844], [-88.09816, 30.69869], [-88.096458, 30.698117], [-88.09605, 30.69798], [-88.096085, 30.697866], [-88.09684, 30.69541], [-88.09495, 30.69479]]]}}, {"type": "Feature", "properties": {"area_id": 3944, "city": "Mobile", "state": "AL", "city_survey": true, "cat": "Definitely Declining", "grade": "C", "label": "C6", "res": true, "com": false, "ind": false, "holc_grade": "C"}, "geometry": {"type": "Polygon", "coordinates": [[[-88.08728, 30.66344], [-88.088192, 30.663107], [-88.08832, 30.66306], [-88.088019, 30.664157], [-88.0879, 30.66459], [-88.089, 30.66508], [-88.08826, 30.66571], [-88.08817, 30.66707], [-88.08773, 30.66715], [-88.0877, 30.67195], [-88.09102, 30.672], [-88.09183, 30.67238], [-88.092, 30.67246], [-88.09209, 30.67376], [-88.092403, 30.674455], [-88.09254, 30.67476], [-88.09209, 30.67499], [-88.09221, 30.67627], [-88.09537, 30.67628], [-88.09806, 30.67629], [-88.09792, 30.67688], [-88.09792, 30.67765], [-88.09702, 30.67755], [-88.09595, 30.6776], [-88.09601, 30.67933], [-88.09468, 30.67936], [-88.09456, 30.68209], [-88.09373, 30.68207], [-88.09367, 30.68245], [-88.09322, 30.68258], [-88.09322, 30.68306], [-88.09263, 30.68306], [-88.09263, 30.68253], [-88.09221, 30.6826], [-88.09209, 30.6834], [-88.09236, 30.6834], [-88.09233, 30.68404], [-88.09019, 30.68406], [-88.0901, 30.68406], [-88.09007, 30.68112], [-88.09007, 30.68101], [-88.08952, 30.68104], [-88.08946, 30.68104], [-88.08946, 30.68103], [-88.08953, 30.68034], [-88.08925, 30.68001], [-88.08925, 30.67946], [-88.08756, 30.67948], [-88.0853, 30.67942], [-88.08532, 30.6786], [-88.08461, 30.67844], [-88.08464, 30.67786], [-88.08401, 30.67811], [-88.08382, 30.67772], [-88.08369, 30.67742], [-88.083673, 30.676981], [-88.08361, 30.67536], [-88.08219, 30.67538], [-88.08217, 30.67355], [-88.08394, 30.67348], [-88.08394, 30.67217], [-88.08475, 30.67207], [-88.08468, 30.67073], [-88.08443, 30.6707], [-88.08443, 30.66946], [-88.08354, 30.66942], [-88.083572, 30.667632], [-88.08359, 30.66664], [-88.08633, 30.66423], [-88.087059, 30.663624], [-88.08728, 30.66344]], [[-88.0874, 30.67438], [-88.08729, 30.67472], [-88.08648, 30.67485], [-88.08643, 30.67532], [-88.08458, 30.67603], [-88.084676, 30.676647], [-88.08472, 30.67693], [-88.08534, 30.6773], [-88.08534, 30.67781], [-88.08719, 30.67783], [-88.08721, 30.67726], [-88.086, 30.67726], [-88.08767, 30.67658], [-88.08778, 30.67701], [-88.09178, 30.67705], [-88.09183, 30.6763], [-88.09109, 30.67638], [-88.09111, 30.67579], [-88.08997, 30.67581], [-88.089704, 30.675147], [-88.0895, 30.67464], [-88.08954, 30.6743], [-88.0874, 30.67438]]]}}, {"type": "Feature", "properties": {"area_id": 3913, "city": "Mobile", "state": "AL", "city_survey": true, "cat": "Definitely Declining", "grade": "C", "label": "C7", "res": true, "com": false, "ind": false, "holc_grade": "C"}, "geometry": {"type": "MultiPolygon", "coordinates": [[[[-88.04966, 30.66952], [-88.04901, 30.66942], [-88.04922, 30.66827], [-88.05377, 30.66893], [-88.05525, 30.66898], [-88.05534, 30.66837], [-88.055511, 30.668397], [-88.05944, 30.66901], [-88.058908, 30.672723], [-88.0587, 30.67417], [-88.05677, 30.67391], [-88.05656, 30.67491], [-88.05718, 30.67506], [-88.05703, 30.67606], [-88.05641, 30.67601], [-88.0562, 30.6766], [-88.05504, 30.67655], [-88.05484, 30.67785], [-88.05602, 30.67808], [-88.05602, 30.67895], [-88.05635, 30.67907], [-88.05626, 30.68007], [-88.05525, 30.67992], [-88.05528, 30.67913], [-88.05469, 30.67892], [-88.05448, 30.68045], [-88.053631, 30.680368], [-88.05344, 30.68035], [-88.05433, 30.67422], [-88.05409, 30.67419], [-88.0543, 30.67233], [-88.05097, 30.67189], [-88.050986, 30.671786], [-88.05124, 30.67016], [-88.05011, 30.67003], [-88.05011, 30.66959], [-88.04966, 30.66952]]], [[[-88.05457, 30.66724], [-88.05296, 30.66701], [-88.0526, 30.66748], [-88.04911, 30.66713], [-88.04913, 30.66658], [-88.05101, 30.66529], [-88.05457, 30.66579], [-88.05424, 30.6663], [-88.05502, 30.66644], [-88.05457, 30.66724]]], [[[-88.065626, 30.66069], [-88.06592, 30.66075], [-88.06585, 30.66152], [-88.0643, 30.66142], [-88.06423, 30.66177], [-88.0614, 30.66158], [-88.06126, 30.66201], [-88.05853, 30.66165], [-88.059268, 30.660173], [-88.05939, 30.65993], [-88.059603, 30.659952], [-88.06449, 30.66046], [-88.065626, 30.66069]]]]}}, {"type": "Feature", "properties": {"area_id": 3946, "city": "Mobile", "state": "AL", "city_survey": true, "cat": "Hazardous", "grade": "D", "label": "D1", "res": true, "com": false, "ind": false, "holc_grade": "D"}, "geometry": {"type": "Polygon", "coordinates": [[[-88.0908, 30.66249], [-88.091844, 30.662495], [-88.09303, 30.6625], [-88.0932, 30.6637], [-88.09324, 30.66463], [-88.09263, 30.66491], [-88.09259, 30.66579], [-88.0927, 30.66896], [-88.09595, 30.67068], [-88.09637, 30.67052], [-88.09786, 30.67091], [-88.097937, 30.672989], [-88.09806, 30.67629], [-88.09537, 30.67628], [-88.09538, 30.67418], [-88.09582, 30.67395], [-88.095856, 30.673568], [-88.09594, 30.67269], [-88.09455, 30.6731], [-88.092, 30.67246], [-88.09183, 30.67238], [-88.09102, 30.672], [-88.0877, 30.67195], [-88.08773, 30.66715], [-88.08817, 30.66707], [-88.08826, 30.66571], [-88.089, 30.66508], [-88.0879, 30.66459], [-88.088019, 30.664157], [-88.08832, 30.66306], [-88.0908, 30.66249]]]}}, {"type": "Feature", "properties": {"area_id": 3912, "city": "Mobile", "state": "AL", "city_survey": true, "cat": "Hazardous", "grade": "D", "label": "D2", "res": true, "com": false, "ind": false, "holc_grade": "D"}, "geometry": {"type": "MultiPolygon", "coordinates": [[[[-88.05773, 30.66018], [-88.057, 30.66078], [-88.057124, 30.66083], [-88.05785, 30.66112], [-88.05674, 30.66319], [-88.05607, 30.66294], [-88.05457, 30.66579], [-88.05101, 30.66529], [-88.05524, 30.66247], [-88.05075, 30.66086], [-88.05089, 30.66078], [-88.05134, 30.66061], [-88.05198, 30.65998], [-88.05374, 30.65845], [-88.056853, 30.6598], [-88.05773, 30.66018]]], [[[-88.0643, 30.66142], [-88.06585, 30.66152], [-88.0658, 30.66169], [-88.06649, 30.66181], [-88.0664, 30.66223], [-88.0671, 30.66229], [-88.06696, 30.6637], [-88.06817, 30.6639], [-88.06813, 30.6684], [-88.06706, 30.66834], [-88.06689, 30.66899], [-88.06326, 30.66868], [-88.06364, 30.66576], [-88.06172, 30.66551], [-88.0617, 30.66589], [-88.05959, 30.66564], [-88.05908, 30.66845], [-88.05687, 30.66821], [-88.05683, 30.66798], [-88.05611, 30.66788], [-88.05621, 30.66649], [-88.05712, 30.66396], [-88.05828, 30.66409], [-88.05782, 30.66279], [-88.05853, 30.66165], [-88.06126, 30.66201], [-88.0614, 30.66158], [-88.06423, 30.66177], [-88.0643, 30.66142]]], [[[-88.05891, 30.65968], [-88.06181, 30.65786], [-88.06031, 30.65756], [-88.06185, 30.65453], [-88.06528, 30.65476], [-88.06245, 30.65703], [-88.063753, 30.657176], [-88.06718, 30.65756], [-88.06597, 30.65972], [-88.06504, 30.65962], [-88.06449, 30.66046], [-88.059603, 30.659952], [-88.05939, 30.65993], [-88.05876, 30.65987], [-88.05891, 30.65968]]], [[[-88.06767, 30.66993], [-88.07001, 30.670185], [-88.07171, 30.67037], [-88.07164, 30.67099], [-88.07159, 30.67135], [-88.069119, 30.671123], [-88.06876, 30.67109], [-88.06859, 30.67133], [-88.0675, 30.67129], [-88.06767, 30.66993]]]]}}, {"type": "Feature", "properties": {"area_id": 3918, "city": "Mobile", "state": "AL", "city_survey": true, "cat": "Hazardous", "grade": "D", "label": "D3", "res": true, "com": false, "ind": false, "holc_grade": "D"}, "geometry": {"type": "Polygon", "coordinates": [[[-88.05543, 30.68166], [-88.05555, 30.68122], [-88.05439, 30.68094], [-88.05448, 30.68045], [-88.05469, 30.67892], [-88.05528, 30.67913], [-88.05525, 30.67992], [-88.05626, 30.68007], [-88.05635, 30.67907], [-88.05602, 30.67895], [-88.05602, 30.67808], [-88.05484, 30.67785], [-88.05504, 30.67655], [-88.0562, 30.6766], [-88.05641, 30.67601], [-88.05703, 30.67606], [-88.05718, 30.67506], [-88.05656, 30.67491], [-88.05677, 30.67391], [-88.0587, 30.67417], [-88.05831, 30.67675], [-88.05846, 30.67683], [-88.06405, 30.67741], [-88.06419, 30.67813], [-88.06416, 30.67851], [-88.06416, 30.67895], [-88.06339, 30.67895], [-88.06312, 30.67928], [-88.06111, 30.67905], [-88.05947, 30.67883], [-88.05926, 30.67851], [-88.05742, 30.67815], [-88.05736, 30.67907], [-88.05757, 30.67915], [-88.05754, 30.67982], [-88.05837, 30.67992], [-88.05828, 30.68097], [-88.0587, 30.68107], [-88.05849, 30.68229], [-88.05728, 30.68279], [-88.05735, 30.68181], [-88.05618, 30.68172], [-88.05543, 30.68166]]]}}, {"type": "Feature", "properties": {"area_id": 3943, "city": "Mobile", "state": "AL", "city_survey": true, "cat": "Hazardous", "grade": "D", "label": "D4", "res": true, "com": false, "ind": false, "holc_grade": "D"}, "geometry": {"type": "Polygon", "coordinates": [[[-88.07997, 30.65709], [-88.07995, 30.66198], [-88.08081, 30.66206], [-88.080813, 30.662555], [-88.08085, 30.66824], [-88.08359, 30.66664], [-88.083572, 30.667632], [-88.08354, 30.66942], [-88.08287, 30.66946], [-88.0828, 30.66922], [-88.08154, 30.66922], [-88.08154, 30.67462], [-88.081434, 30.674585], [-88.08078, 30.67437], [-88.08076, 30.67521], [-88.080762, 30.675222], [-88.08102, 30.67703], [-88.07962, 30.67719], [-88.07917, 30.67615], [-88.07881, 30.67627], [-88.07861, 30.67628], [-88.078056, 30.674994], [-88.07805, 30.67498], [-88.0776, 30.67486], [-88.07743, 30.67226], [-88.07952, 30.67165], [-88.07964, 30.67214], [-88.08069, 30.67228], [-88.08076, 30.67141], [-88.07845, 30.67077], [-88.07833, 30.66928], [-88.07643, 30.66926], [-88.07636, 30.6648], [-88.07256, 30.6649], [-88.07223, 30.66476], [-88.07225, 30.66415], [-88.071477, 30.664137], [-88.06857, 30.66409], [-88.06817, 30.6639], [-88.068293, 30.660961], [-88.0683, 30.6608], [-88.072131, 30.661347], [-88.07313, 30.66149], [-88.07498, 30.65652], [-88.07997, 30.65709]]]}}, {"type": "Feature", "properties": {"area_id": 3916, "city": "Mobile", "state": "AL", "city_survey": true, "cat": "Hazardous", "grade": "D", "label": "D5", "res": true, "com": false, "ind": false, "holc_grade": "D"}, "geometry": {"type": "Polygon", "coordinates": [[[-88.0543, 30.67233], [-88.05409, 30.67419], [-88.05433, 30.67422], [-88.05344, 30.68035], [-88.05329, 30.68137], [-88.05249, 30.68122], [-88.05234, 30.68235], [-88.05273, 30.68247], [-88.052609, 30.684268], [-88.05258, 30.6847], [-88.05311, 30.6859], [-88.05172, 30.68628], [-88.05115, 30.68482], [-88.04934, 30.68541], [-88.04981, 30.68664], [-88.04173, 30.68927], [-88.041741, 30.688608], [-88.04176, 30.68753], [-88.03948, 30.68738], [-88.04022, 30.68081], [-88.0412, 30.68107], [-88.04239, 30.67322], [-88.04782, 30.66832], [-88.04922, 30.66827], [-88.04901, 30.66942], [-88.04966, 30.66952], [-88.05011, 30.66959], [-88.05011, 30.67003], [-88.05124, 30.67016], [-88.050986, 30.671786], [-88.05097, 30.67189], [-88.0543, 30.67233]], [[-88.04209, 30.68459], [-88.043143, 30.684268], [-88.04467, 30.6838], [-88.043224, 30.683578], [-88.04233, 30.68344], [-88.04209, 30.68459]]]}}, {"type": "Feature", "properties": {"area_id": 3915, "city": "Mobile", "state": "AL", "city_survey": true, "cat": "Hazardous", "grade": "D", "label": "D6", "res": true, "com": false, "ind": false, "holc_grade": "D"}, "geometry": {"type": "MultiPolygon", "coordinates": [[[[-88.0702, 30.69612], [-88.06969, 30.69601], [-88.06957, 30.69811], [-88.06987, 30.69806], [-88.06975, 30.69923], [-88.0726, 30.69931], [-88.07263, 30.69985], [-88.07261, 30.70009], [-88.07277, 30.70099], [-88.07265, 30.70334], [-88.072572, 30.7034], [-88.07244, 30.7035], [-88.07215, 30.7036], [-88.07196, 30.70383], [-88.071815, 30.703664], [-88.07028, 30.70191], [-88.06814, 30.70111], [-88.06799, 30.7015], [-88.06797, 30.7063], [-88.06578, 30.70748], [-88.060754, 30.706024], [-88.06036, 30.70591], [-88.05708, 30.70395], [-88.05621, 30.70679], [-88.055552, 30.707031], [-88.05449, 30.70742], [-88.05224, 30.70657], [-88.050676, 30.707456], [-88.04991, 30.70789], [-88.049, 30.70726], [-88.04589, 30.7005], [-88.046994, 30.700119], [-88.0485, 30.6996], [-88.04814, 30.698991], [-88.04798, 30.69872], [-88.046353, 30.699233], [-88.04506, 30.69964], [-88.04287, 30.6953], [-88.044399, 30.694836], [-88.04689, 30.69408], [-88.0472, 30.69483], [-88.0482, 30.69461], [-88.05055, 30.69526], [-88.05067, 30.69469], [-88.04843, 30.69383], [-88.04798, 30.69326], [-88.05395, 30.69118], [-88.0549, 30.69328], [-88.056675, 30.692599], [-88.05675, 30.69257], [-88.05632, 30.69126], [-88.05901, 30.69216], [-88.059516, 30.691137], [-88.05953, 30.69111], [-88.05815, 30.69062], [-88.05801, 30.69026], [-88.05605, 30.68973], [-88.06128, 30.69029], [-88.06122, 30.69101], [-88.06428, 30.69213], [-88.064274, 30.692417], [-88.06426, 30.69306], [-88.064988, 30.693424], [-88.06552, 30.69369], [-88.06602, 30.69322], [-88.06818, 30.69453], [-88.068211, 30.694362], [-88.06826, 30.6941], [-88.06856, 30.6942], [-88.0702, 30.69466], [-88.0702, 30.695519], [-88.0702, 30.69612]], [[-88.06814, 30.70111], [-88.06771, 30.70009], [-88.06545, 30.69921], [-88.06502, 30.69996], [-88.06814, 30.70111]], [[-88.05304, 30.69919], [-88.0538, 30.70103], [-88.05452, 30.70082], [-88.0549, 30.69704], [-88.05887, 30.69831], [-88.05922, 30.69751], [-88.054735, 30.695944], [-88.05461, 30.6959], [-88.054289, 30.696572], [-88.05304, 30.69919]]], [[[-88.05306, 30.68897], [-88.05257, 30.68808], [-88.04644, 30.69031], [-88.04597, 30.68935], [-88.05374, 30.68674], [-88.05518, 30.68983], [-88.05403, 30.68944], [-88.05363, 30.68877], [-88.05306, 30.68897]]], [[[-88.04652, 30.69272], [-88.04604, 30.69174], [-88.04685, 30.69144], [-88.04682, 30.69096], [-88.05053, 30.68956], [-88.05073, 30.69003], [-88.05231, 30.6895], [-88.05275, 30.69043], [-88.04652, 30.69272]]], [[[-88.0612, 30.68574], [-88.06113, 30.68668], [-88.05766, 30.68678], [-88.05747, 30.68676], [-88.055, 30.68733], [-88.05464, 30.68664], [-88.05465, 30.68663], [-88.0588, 30.68533], [-88.05883, 30.68561], [-88.0612, 30.68574]]], [[[-88.07659, 30.69417], [-88.0775, 30.69582], [-88.078419, 30.700213], [-88.07859, 30.70103], [-88.07797, 30.70113], [-88.077744, 30.700916], [-88.07759, 30.70077], [-88.07513, 30.69844], [-88.07165, 30.69637], [-88.071652, 30.69635], [-88.0718, 30.69512], [-88.07433, 30.69532], [-88.07557, 30.69578], [-88.07548, 30.69412], [-88.07655, 30.69415], [-88.07659, 30.69417]]], [[[-88.07168, 30.68629], [-88.07188, 30.68516], [-88.0726, 30.68514], [-88.0726, 30.6855], [-88.07298, 30.68555], [-88.07301, 30.68624], [-88.07168, 30.68629]]], [[[-88.08038, 30.69083], [-88.08039, 30.68987], [-88.081073, 30.689535], [-88.08153, 30.68931], [-88.08175, 30.6904], [-88.08174, 30.6904], [-88.0811, 30.690602], [-88.08038, 30.69083]]]]}}, {"type": "Feature", "properties": {"area_id": 11298, "city": "Mobile", "state": "AL", "city_survey": true, "cat": "Industrial and Commercial", "grade": null, "label": "Industrial and Commercial", "res": false, "com": true, "ind": true, "holc_grade": null}, "geometry": {"type": "MultiPolygon", "coordinates": [[[[-88.05876, 30.65987], [-88.05939, 30.65993], [-88.059268, 30.660173], [-88.05853, 30.66165], [-88.05782, 30.66279], [-88.05828, 30.66409], [-88.05712, 30.66396], [-88.05621, 30.66649], [-88.05611, 30.66788], [-88.05683, 30.66798], [-88.05687, 30.66821], [-88.05908, 30.66845], [-88.06326, 30.66868], [-88.06689, 30.66899], [-88.06706, 30.66834], [-88.06813, 30.6684], [-88.06842, 30.67001], [-88.06767, 30.66993], [-88.0675, 30.67129], [-88.067211, 30.673711], [-88.0672, 30.6738], [-88.063604, 30.673285], [-88.06329, 30.67324], [-88.06386, 30.67003], [-88.05937, 30.66948], [-88.05944, 30.66901], [-88.055511, 30.668397], [-88.05534, 30.66837], [-88.05525, 30.66898], [-88.05377, 30.66893], [-88.04922, 30.66827], [-88.04782, 30.66832], [-88.04239, 30.67322], [-88.0412, 30.68107], [-88.04022, 30.68081], [-88.03948, 30.68738], [-88.04176, 30.68753], [-88.041741, 30.688608], [-88.04173, 30.68927], [-88.04449, 30.68837], [-88.04981, 30.68664], [-88.04934, 30.68541], [-88.05115, 30.68482], [-88.05172, 30.68628], [-88.05311, 30.6859], [-88.053413, 30.685806], [-88.05353, 30.68577], [-88.05344, 30.68513], [-88.05385, 30.68503], [-88.05465, 30.68663], [-88.05464, 30.68664], [-88.055, 30.68733], [-88.05605, 30.68973], [-88.05801, 30.69026], [-88.05815, 30.69062], [-88.05953, 30.69111], [-88.059516, 30.691137], [-88.05901, 30.69216], [-88.05632, 30.69126], [-88.05675, 30.69257], [-88.056675, 30.692599], [-88.0549, 30.69328], [-88.05395, 30.69118], [-88.04798, 30.69326], [-88.04843, 30.69383], [-88.05067, 30.69469], [-88.05055, 30.69526], [-88.0482, 30.69461], [-88.0472, 30.69483], [-88.04689, 30.69408], [-88.044399, 30.694836], [-88.04287, 30.6953], [-88.04506, 30.69964], [-88.046353, 30.699233], [-88.04798, 30.69872], [-88.04814, 30.698991], [-88.0485, 30.6996], [-88.046994, 30.700119], [-88.04589, 30.7005], [-88.049, 30.70726], [-88.04991, 30.70789], [-88.05055, 30.70753], [-88.05217, 30.70883], [-88.04095, 30.709148], [-88.04089, 30.70915], [-88.040679, 30.709016], [-88.04026, 30.70875], [-88.039909, 30.706606], [-88.039768, 30.70574], [-88.039563, 30.704489], [-88.038943, 30.7007], [-88.038942, 30.700691], [-88.038929, 30.700614], [-88.038915, 30.700529], [-88.038905, 30.700469], [-88.03867, 30.69903], [-88.038358, 30.697362], [-88.03751, 30.69283], [-88.0372, 30.69277], [-88.03687, 30.69029], [-88.03693, 30.68651], [-88.03748, 30.68468], [-88.037585, 30.68291], [-88.037718, 30.680678], [-88.03786, 30.67828], [-88.03711, 30.67539], [-88.03435, 30.67133], [-88.03501, 30.67061], [-88.035039, 30.670469], [-88.035084, 30.670256], [-88.035247, 30.669476], [-88.035278, 30.669328], [-88.035536, 30.668094], [-88.035617, 30.667706], [-88.035746, 30.667092], [-88.035815, 30.666759], [-88.03583, 30.66669], [-88.035903, 30.666641], [-88.03649, 30.66624], [-88.0381, 30.66609], [-88.03883, 30.6662], [-88.03978, 30.66666], [-88.04062, 30.66702], [-88.04139, 30.66685], [-88.0434, 30.66573], [-88.04387, 30.66565], [-88.04599, 30.66443], [-88.04748, 30.66325], [-88.04822, 30.66284], [-88.04896, 30.66235], [-88.05016, 30.66124], [-88.05075, 30.66086], [-88.05524, 30.66247], [-88.05101, 30.66529], [-88.04913, 30.66658], [-88.04911, 30.66713], [-88.0526, 30.66748], [-88.05296, 30.66701], [-88.05457, 30.66724], [-88.05502, 30.66644], [-88.05424, 30.6663], [-88.05457, 30.66579], [-88.05607, 30.66294], [-88.05674, 30.66319], [-88.05785, 30.66112], [-88.057124, 30.66083], [-88.057, 30.66078], [-88.05773, 30.66018], [-88.058341, 30.659996], [-88.058689, 30.659891], [-88.05876, 30.65987]], [[-88.04597, 30.68935], [-88.04644, 30.69031], [-88.05257, 30.68808], [-88.05306, 30.68897], [-88.05363, 30.68877], [-88.05403, 30.68944], [-88.05518, 30.68983], [-88.05374, 30.68674], [-88.04597, 30.68935]], [[-88.04604, 30.69174], [-88.04652, 30.69272], [-88.05275, 30.69043], [-88.05231, 30.6895], [-88.05073, 30.69003], [-88.05053, 30.68956], [-88.04682, 30.69096], [-88.04685, 30.69144], [-88.04604, 30.69174]]], [[[-88.04467, 30.6838], [-88.043143, 30.684268], [-88.04304, 30.6843], [-88.04209, 30.68459], [-88.04233, 30.68344], [-88.043224, 30.683578], [-88.04467, 30.6838]]], [[[-88.0538, 30.70103], [-88.05304, 30.69919], [-88.054289, 30.696572], [-88.05461, 30.6959], [-88.054735, 30.695944], [-88.05922, 30.69751], [-88.05887, 30.69831], [-88.0549, 30.69704], [-88.05452, 30.70082], [-88.0538, 30.70103]]], [[[-88.05728, 30.68279], [-88.05609, 30.68275], [-88.05618, 30.68172], [-88.05735, 30.68181], [-88.05728, 30.68279]]], [[[-88.06092, 30.6802], [-88.05918, 30.67997], [-88.05947, 30.67883], [-88.06111, 30.67905], [-88.06092, 30.6802]]], [[[-88.06146, 30.68781], [-88.06238, 30.68781], [-88.06232, 30.68832], [-88.06138, 30.68838], [-88.06051, 30.68843], [-88.06048, 30.68781], [-88.06146, 30.68781]]], [[[-88.06818, 30.69453], [-88.06602, 30.69322], [-88.06552, 30.69369], [-88.064988, 30.693424], [-88.06426, 30.69306], [-88.064274, 30.692417], [-88.06428, 30.69213], [-88.065169, 30.692146], [-88.06699, 30.69218], [-88.06693, 30.69285], [-88.0688, 30.69364], [-88.06856, 30.6942], [-88.06826, 30.6941], [-88.068211, 30.694362], [-88.06818, 30.69453]]], [[[-88.06545, 30.69921], [-88.06679, 30.69973], [-88.06771, 30.70009], [-88.06814, 30.70111], [-88.06626, 30.70042], [-88.06502, 30.69996], [-88.06545, 30.69921]]], [[[-88.066716, 30.687371], [-88.06669, 30.68769], [-88.06604, 30.68769], [-88.06586, 30.68853], [-88.065566, 30.68861], [-88.0652, 30.68871], [-88.06538, 30.68689], [-88.065749, 30.686903], [-88.06675, 30.68694], [-88.066716, 30.687371]]], [[[-88.06705, 30.68176], [-88.06704, 30.682177], [-88.06702, 30.68296], [-88.066255, 30.683058], [-88.06601, 30.68309], [-88.065973, 30.68252], [-88.06595, 30.68217], [-88.06705, 30.68176]]], [[[-88.07106, 30.68729], [-88.07293, 30.68726], [-88.07293, 30.68767], [-88.0734, 30.68767], [-88.07326, 30.68942], [-88.07296, 30.69067], [-88.0718, 30.69062], [-88.07183, 30.69134], [-88.07103, 30.69129], [-88.07103, 30.69062], [-88.07105, 30.68979], [-88.07046, 30.68976], [-88.07049, 30.68815], [-88.0707, 30.68735], [-88.07106, 30.68738], [-88.07106, 30.68735], [-88.07106, 30.68729]]], [[[-88.07728, 30.67891], [-88.077268, 30.679005], [-88.07712, 30.68023], [-88.07486, 30.68088], [-88.07316, 30.68136], [-88.07296, 30.68228], [-88.07259, 30.6823], [-88.072687, 30.680427], [-88.07269, 30.68036], [-88.07465, 30.67964], [-88.07728, 30.67891]]], [[[-88.07757, 30.6701], [-88.07845, 30.67077], [-88.08076, 30.67141], [-88.08069, 30.67228], [-88.07964, 30.67214], [-88.07952, 30.67165], [-88.07743, 30.67226], [-88.07526, 30.67199], [-88.07486, 30.67076], [-88.0758, 30.6699], [-88.07757, 30.6701]]], [[[-88.07729, 30.68401], [-88.07723, 30.68268], [-88.07901, 30.68282], [-88.07994, 30.68289], [-88.07991, 30.68399], [-88.07834, 30.684], [-88.07729, 30.68401]]], [[[-88.08181, 30.68912], [-88.08152, 30.68926], [-88.08153, 30.68931], [-88.081073, 30.689535], [-88.08039, 30.68987], [-88.08039, 30.68982], [-88.08009, 30.68997], [-88.08009, 30.68894], [-88.081144, 30.68847], [-88.08175, 30.6882], [-88.08181, 30.68912]]], [[[-88.08219, 30.67538], [-88.08361, 30.67536], [-88.083673, 30.676981], [-88.08369, 30.67742], [-88.08382, 30.67772], [-88.08401, 30.67811], [-88.08464, 30.67786], [-88.08461, 30.67844], [-88.08461, 30.67872], [-88.08422, 30.67867], [-88.08288, 30.67865], [-88.083, 30.67806], [-88.08184, 30.67783], [-88.08288, 30.67741], [-88.082883, 30.67725], [-88.0829, 30.67631], [-88.08195, 30.67629], [-88.08171, 30.67623], [-88.08154, 30.67462], [-88.08154, 30.67359], [-88.08217, 30.67355], [-88.08219, 30.67538]]], [[[-88.0895, 30.67464], [-88.089704, 30.675147], [-88.08997, 30.67581], [-88.09111, 30.67579], [-88.09109, 30.67638], [-88.09183, 30.6763], [-88.09178, 30.67705], [-88.08778, 30.67701], [-88.08767, 30.67658], [-88.08771, 30.67634], [-88.08726, 30.6764], [-88.08731, 30.67603], [-88.086993, 30.675877], [-88.0865, 30.67564], [-88.08643, 30.67532], [-88.08648, 30.67485], [-88.08729, 30.67472], [-88.0874, 30.67438], [-88.08954, 30.6743], [-88.0895, 30.67464]]], [[[-88.09108, 30.6878], [-88.09106, 30.68885], [-88.09083, 30.68888], [-88.09075, 30.68997], [-88.09018, 30.69001], [-88.09018, 30.6878], [-88.09108, 30.6878]]]]}}]}