{"type": "FeatureCollection", "features": [{"type": "Feature", "properties": {"area_id": 10233, "city": "Brattleboro", "state": "VT", "city_survey": false, "cat": "#1 Best Residential", "grade": null, "label": "#1 Best Residential", "res": true, "com": false, "ind": false, "holc_grade": null}, "geometry": {"type": "Polygon", "coordinates": [[[-72.56365, 42.85262], [-72.56483, 42.85253], [-72.56581, 42.85234], [-72.56651, 42.85199], [-72.5673, 42.85199], [-72.56831, 42.85179], [-72.56921, 42.8517], [-72.57156, 42.85103], [-72.57458, 42.85108], [-72.57551, 42.85083], [-72.57608, 42.85012], [-72.57646, 42.84989], [-72.57838, 42.85021], [-72.57928, 42.85], [-72.58214, 42.84957], [-72.58296, 42.84962], [-72.58351, 42.84994], [-72.58427, 42.85], [-72.584451, 42.850105], [-72.58472, 42.85026], [-72.58559, 42.85038], [-72.58663, 42.85208], [-72.58663, 42.85266], [-72.58626, 42.85281], [-72.58612, 42.85312], [-72.58554, 42.85343], [-72.58524, 42.85396], [-72.584883, 42.85413], [-72.58436, 42.85438], [-72.58325, 42.85444], [-72.58178, 42.85404], [-72.58036, 42.8531], [-72.57958, 42.85229], [-72.57887, 42.85201], [-72.57719, 42.85333], [-72.57684, 42.85335], [-72.57563, 42.85269], [-72.57464, 42.85334], [-72.5739, 42.85485], [-72.57251, 42.85645], [-72.57139, 42.85705], [-72.57033, 42.8573], [-72.56902, 42.85729], [-72.56829, 42.85687], [-72.568, 42.85651], [-72.5668, 42.85611], [-72.5659, 42.8564], [-72.56429, 42.85748], [-72.56285, 42.85797], [-72.56152, 42.85865], [-72.56045, 42.85893], [-72.55951, 42.8597], [-72.55941, 42.86211], [-72.55918, 42.86261], [-72.55567, 42.86322], [-72.55508, 42.86287], [-72.55477, 42.862], [-72.55497, 42.86035], [-72.55508, 42.85889], [-72.555538, 42.857595], [-72.55565, 42.85728], [-72.555845, 42.856982], [-72.55629, 42.8563], [-72.556261, 42.856024], [-72.55622, 42.85564], [-72.55648, 42.8549], [-72.556877, 42.854584], [-72.55712, 42.85439], [-72.55754, 42.85345], [-72.55783, 42.8534], [-72.55831, 42.85465], [-72.55855, 42.85478], [-72.55957, 42.85452], [-72.5593, 42.85388], [-72.55946, 42.85376], [-72.559746, 42.85375], [-72.56032, 42.85373], [-72.560395, 42.853445], [-72.56051, 42.85301], [-72.56166, 42.8531], [-72.56365, 42.85262]]]}}, {"type": "Feature", "properties": {"area_id": 10232, "city": "Brattleboro", "state": "VT", "city_survey": false, "cat": "#2 Residential", "grade": null, "label": "#2 Residential", "res": true, "com": false, "ind": false, "holc_grade": null}, "geometry": {"type": "MultiPolygon", "coordinates": [[[[-72.55689, 42.84648], [-72.55827, 42.84454], [-72.55865, 42.84278], [-72.55944, 42.84083], [-72.55983, 42.84064], [-72.56042, 42.8407], [-72.56156, 42.8405], [-72.56222, 42.84021], [-72.56458, 42.83802], [-72.56547, 42.83741], [-72.56625, 42.83717], [-72.56711, 42.83752], [-72.568, 42.8393], [-72.56942, 42.84118], [-72.57054, 42.84211], [-72.57194, 42.84261], [-72.57369, 42.84296], [-72.57593, 42.84354], [-72.57617, 42.84398], [-72.57622, 42.84509], [-72.57574, 42.84683], [-72.57492, 42.84754], [-72.57412, 42.84764], [-72.57229, 42.84744], [-72.57008, 42.84784], [-72.5688, 42.84681], [-72.56759, 42.84601], [-72.56683, 42.84598], [-72.56605, 42.8463], [-72.56542, 42.84697], [-72.56488, 42.84651], [-72.56431, 42.84642], [-72.56351, 42.84664], [-72.56218, 42.84791], [-72.56136, 42.84843], [-72.56079, 42.8488], [-72.56005, 42.84908], [-72.55956, 42.8496], [-72.55934, 42.8498], [-72.559, 42.84976], [-72.55888, 42.84959], [-72.55813, 42.85001], [-72.55785, 42.84929], [-72.55707, 42.84821], [-72.55676, 42.84795], [-72.55664, 42.84731], [-72.55689, 42.84648]]], [[[-72.55907, 42.85296], [-72.55884, 42.85248], [-72.56099, 42.85169], [-72.56117, 42.8514], [-72.5611, 42.85121], [-72.56096, 42.85111], [-72.56053, 42.85079], [-72.56121, 42.85011], [-72.5617, 42.85007], [-72.56198, 42.85023], [-72.56283, 42.85028], [-72.56586, 42.85001], [-72.56648, 42.85009], [-72.5671, 42.84985], [-72.56765, 42.84981], [-72.56794, 42.85022], [-72.56826, 42.85091], [-72.56864, 42.85114], [-72.56874, 42.85149], [-72.56831, 42.85179], [-72.5673, 42.85199], [-72.56651, 42.85199], [-72.56581, 42.85234], [-72.56483, 42.85253], [-72.56365, 42.85262], [-72.56166, 42.8531], [-72.56051, 42.85301], [-72.55997, 42.85289], [-72.55907, 42.85296]]]]}}, {"type": "Feature", "properties": {"area_id": 10231, "city": "Brattleboro", "state": "VT", "city_survey": false, "cat": "#3 Residential", "grade": null, "label": "#3 Residential", "res": true, "com": false, "ind": false, "holc_grade": null}, "geometry": {"type": "MultiPolygon", "coordinates": [[[[-72.55456, 42.83275], [-72.55567, 42.8322], [-72.55739, 42.83254], [-72.55805, 42.833], [-72.5584, 42.83413], [-72.55878, 42.83451], [-72.56005, 42.83431], [-72.56186, 42.83464], [-72.56322, 42.83516], [-72.56445, 42.83648], [-72.56487, 42.83704], [-72.56458, 42.83802], [-72.56222, 42.84021], [-72.56156, 42.8405], [-72.56042, 42.8407], [-72.55983, 42.84064], [-72.55944, 42.84083], [-72.55865, 42.84278], [-72.55827, 42.84454], [-72.55689, 42.84648], [-72.55664, 42.84731], [-72.55637, 42.84715], [-72.55632, 42.84686], [-72.55627, 42.8453], [-72.55586, 42.84466], [-72.55542, 42.84429], [-72.55426, 42.8437], [-72.55359, 42.84307], [-72.55349, 42.84256], [-72.55333, 42.84109], [-72.55298, 42.84025], [-72.55282, 42.8394], [-72.55309, 42.83853], [-72.55323, 42.83832], [-72.55346, 42.83763], [-72.55422, 42.83678], [-72.55438, 42.8362], [-72.55427, 42.83518], [-72.55418, 42.83368], [-72.55441, 42.83347], [-72.55456, 42.83275]]], [[[-72.56005, 42.84908], [-72.56079, 42.8488], [-72.56136, 42.84843], [-72.56218, 42.84791], [-72.56351, 42.84664], [-72.56431, 42.84642], [-72.56488, 42.84651], [-72.56542, 42.84697], [-72.56737, 42.84871], [-72.56818, 42.84926], [-72.56794, 42.85022], [-72.56765, 42.84981], [-72.5671, 42.84985], [-72.56745, 42.84971], [-72.56593, 42.84946], [-72.56454, 42.84896], [-72.56408, 42.84877], [-72.56384, 42.84824], [-72.56322, 42.84814], [-72.5629, 42.84828], [-72.56235, 42.84896], [-72.56192, 42.84911], [-72.56136, 42.84909], [-72.56069, 42.84909], [-72.56012, 42.84926], [-72.55987, 42.84964], [-72.55986, 42.85035], [-72.55948, 42.8508], [-72.55866, 42.85119], [-72.55822, 42.85122], [-72.55837, 42.85063], [-72.55914, 42.84994], [-72.559, 42.84976], [-72.55934, 42.8498], [-72.55956, 42.8496], [-72.56005, 42.84908]]], [[[-72.57005, 42.85139], [-72.57057, 42.85086], [-72.57143, 42.84934], [-72.57281, 42.84866], [-72.57425, 42.84888], [-72.57489, 42.84881], [-72.57538, 42.84931], [-72.57703, 42.84974], [-72.57795, 42.84975], [-72.5786, 42.84954], [-72.57928, 42.85], [-72.57838, 42.85021], [-72.57646, 42.84989], [-72.57608, 42.85012], [-72.57551, 42.85083], [-72.57458, 42.85108], [-72.57156, 42.85103], [-72.56921, 42.8517], [-72.56831, 42.85179], [-72.56874, 42.85149], [-72.56864, 42.85114], [-72.56878, 42.85122], [-72.56943, 42.85146], [-72.57005, 42.85139]]]]}}, {"type": "Feature", "properties": {"area_id": 10230, "city": "Brattleboro", "state": "VT", "city_survey": false, "cat": "Industrial", "grade": null, "label": "Industrial", "res": false, "com": false, "ind": true, "holc_grade": null}, "geometry": {"type": "MultiPolygon", "coordinates": [[[[-72.55095, 42.84489], [-72.54899, 42.84359], [-72.54712, 42.84251], [-72.54614, 42.83875], [-72.54542, 42.83587], [-72.54671, 42.83482], [-72.547228, 42.834076], [-72.54823, 42.83264], [-72.55006, 42.832], [-72.55195, 42.83166], [-72.55467, 42.8315], [-72.55423, 42.83355], [-72.55418, 42.83368], [-72.55376, 42.83502], [-72.55351, 42.83575], [-72.5531, 42.83615], [-72.55303, 42.8366], [-72.55278, 42.83693], [-72.55243, 42.83836], [-72.55228, 42.8401], [-72.55222, 42.8424], [-72.55242, 42.84403], [-72.55276, 42.84448], [-72.55392, 42.8455], [-72.55724, 42.85055], [-72.55692, 42.85064], [-72.5571, 42.85099], [-72.555977, 42.851479], [-72.55579, 42.85156], [-72.55549, 42.85119], [-72.554961, 42.850189], [-72.55429, 42.84892], [-72.55415, 42.84827], [-72.55409, 42.84749], [-72.554069, 42.84747], [-72.5533, 42.84674], [-72.55189, 42.84527], [-72.55095, 42.84489]]], [[[-72.56198, 42.85023], [-72.5617, 42.85007], [-72.56121, 42.85011], [-72.56053, 42.85079], [-72.56096, 42.85111], [-72.55984, 42.85159], [-72.55835, 42.85181], [-72.55822, 42.85122], [-72.55866, 42.85119], [-72.55948, 42.8508], [-72.55986, 42.85035], [-72.55987, 42.84964], [-72.56012, 42.84926], [-72.56069, 42.84909], [-72.56136, 42.84909], [-72.56192, 42.84911], [-72.56235, 42.84896], [-72.5629, 42.84828], [-72.56322, 42.84814], [-72.56384, 42.84824], [-72.56408, 42.84877], [-72.56454, 42.84896], [-72.56593, 42.84946], [-72.56745, 42.84971], [-72.5671, 42.84985], [-72.56648, 42.85009], [-72.56586, 42.85001], [-72.56283, 42.85028], [-72.56198, 42.85023]]], [[[-72.56759, 42.84601], [-72.5688, 42.84681], [-72.57008, 42.84784], [-72.57229, 42.84744], [-72.57412, 42.84764], [-72.57547, 42.84779], [-72.57861, 42.84812], [-72.57938, 42.84889], [-72.57934, 42.84931], [-72.5786, 42.84954], [-72.57795, 42.84975], [-72.57703, 42.84974], [-72.57538, 42.84931], [-72.57489, 42.84881], [-72.57425, 42.84888], [-72.57281, 42.84866], [-72.57143, 42.84934], [-72.57057, 42.85086], [-72.57005, 42.85139], [-72.56943, 42.85146], [-72.56878, 42.85122], [-72.56864, 42.85114], [-72.56826, 42.85091], [-72.56794, 42.85022], [-72.56818, 42.84926], [-72.56737, 42.84871], [-72.56542, 42.84697], [-72.56605, 42.8463], [-72.56683, 42.84598], [-72.56759, 42.84601]]]]}}, {"type": "Feature", "properties": {"area_id": 10229, "city": "Brattleboro", "state": "VT", "city_survey": false, "cat": "Trading", "grade": null, "label": "Trading", "res": false, "com": true, "ind": false, "holc_grade": null}, "geometry": {"type": "Polygon", "coordinates": [[[-72.5593, 42.85388], [-72.55957, 42.85452], [-72.55855, 42.85478], [-72.55831, 42.85465], [-72.55783, 42.8534], [-72.55767, 42.853], [-72.55708, 42.8522], [-72.556832, 42.851932], [-72.55683, 42.85193], [-72.55683, 42.851929], [-72.55689, 42.85176], [-72.55721, 42.85119], [-72.5571, 42.85099], [-72.55692, 42.85064], [-72.55724, 42.85055], [-72.55755, 42.85046], [-72.55752, 42.84991], [-72.55722, 42.84966], [-72.55665, 42.84889], [-72.55614, 42.84794], [-72.55676, 42.84795], [-72.55707, 42.84821], [-72.55785, 42.84929], [-72.55813, 42.85001], [-72.55888, 42.84959], [-72.559, 42.84976], [-72.55914, 42.84994], [-72.55837, 42.85063], [-72.55822, 42.85122], [-72.55835, 42.85181], [-72.55984, 42.85159], [-72.56096, 42.85111], [-72.5611, 42.85121], [-72.56117, 42.8514], [-72.56099, 42.85169], [-72.55884, 42.85248], [-72.55907, 42.85296], [-72.55997, 42.85289], [-72.56051, 42.85301], [-72.560395, 42.853445], [-72.56032, 42.85373], [-72.559746, 42.85375], [-72.55946, 42.85376], [-72.5593, 42.85388]]]}}]}