{"type": "FeatureCollection", "features": [{"type": "Feature", "properties": {"area_id": 909, "city": "Durham", "state": "NC", "city_survey": true, "cat": "Best", "grade": "A", "label": "A1", "res": true, "com": false, "ind": false, "holc_grade": "A"}, "geometry": {"type": "Polygon", "coordinates": [[[-78.92081, 36.015421], [-78.9208, 36.01638], [-78.9229, 36.01644], [-78.93248, 36.01682], [-78.93639, 36.01693], [-78.93632, 36.01854], [-78.93242, 36.01839], [-78.93237, 36.02126], [-78.93023, 36.02207], [-78.93037, 36.01831], [-78.92221, 36.01801], [-78.92224, 36.01733], [-78.91968, 36.01726], [-78.91968, 36.01538], [-78.92076, 36.015418], [-78.92081, 36.01542], [-78.92081, 36.015421]]]}}, {"type": "Feature", "properties": {"area_id": 905, "city": "Durham", "state": "NC", "city_survey": true, "cat": "Best", "grade": "A", "label": "A2", "res": true, "com": false, "ind": false, "holc_grade": "A"}, "geometry": {"type": "Polygon", "coordinates": [[[-78.91241, 36.00295], [-78.91254, 36.00287], [-78.9124, 36.00341], [-78.912399, 36.003451], [-78.91239, 36.00409], [-78.91228, 36.00563], [-78.9121, 36.00707], [-78.91214, 36.00791], [-78.91239, 36.00883], [-78.91233, 36.00962], [-78.912362, 36.009621], [-78.91263, 36.00963], [-78.91263, 36.009658], [-78.91265, 36.01161], [-78.91241, 36.01173], [-78.91211, 36.01171], [-78.91174, 36.01183], [-78.91159, 36.01234], [-78.91157, 36.01329], [-78.91143, 36.01411], [-78.91122, 36.01429], [-78.910837, 36.014322], [-78.91013, 36.01438], [-78.91017, 36.01551], [-78.910129, 36.016919], [-78.91012, 36.01721], [-78.90496, 36.01723], [-78.90496, 36.016888], [-78.90496, 36.01626], [-78.90524, 36.01602], [-78.90566, 36.016], [-78.90606, 36.01588], [-78.90618, 36.01567], [-78.90651, 36.00522], [-78.90896, 36.00483], [-78.9089, 36.00391], [-78.909067, 36.003429], [-78.90907, 36.00342], [-78.90936, 36.00312], [-78.91241, 36.00295]]]}}, {"type": "Feature", "properties": {"area_id": 902, "city": "Durham", "state": "NC", "city_survey": true, "cat": "Best", "grade": "A", "label": "A3", "res": true, "com": false, "ind": false, "holc_grade": "A"}, "geometry": {"type": "Polygon", "coordinates": [[[-78.88964, 36.01452], [-78.88873, 36.01424], [-78.88847, 36.01392], [-78.88857, 36.01206], [-78.88934, 36.01049], [-78.8897, 36.01015], [-78.89025, 36.0099], [-78.89154, 36.00955], [-78.89259, 36.00941], [-78.89386, 36.00947], [-78.89475, 36.00968], [-78.89498, 36.00992], [-78.89503, 36.01129], [-78.89481, 36.01206], [-78.89444, 36.01262], [-78.89332, 36.01301], [-78.89225, 36.013], [-78.89186, 36.01323], [-78.89164, 36.01376], [-78.89125, 36.01429], [-78.89095, 36.01447], [-78.89061, 36.01461], [-78.88964, 36.01452]]]}}, {"type": "Feature", "properties": {"area_id": 898, "city": "Durham", "state": "NC", "city_survey": true, "cat": "Best", "grade": "A", "label": "A4", "res": true, "com": false, "ind": false, "holc_grade": "A"}, "geometry": {"type": "Polygon", "coordinates": [[[-78.930223, 35.999704], [-78.93085, 35.9997], [-78.93076, 36.00284], [-78.930067, 36.002825], [-78.92934, 36.00281], [-78.92934, 35.999934], [-78.92934, 35.99971], [-78.930223, 35.999704]]]}}, {"type": "Feature", "properties": {"area_id": 916, "city": "Durham", "state": "NC", "city_survey": true, "cat": "Best", "grade": "A", "label": "A5", "res": true, "com": false, "ind": false, "holc_grade": "A"}, "geometry": {"type": "Polygon", "coordinates": [[[-78.920438, 35.979409], [-78.92024, 35.98076], [-78.91967, 35.98193], [-78.91817, 35.98334], [-78.91702, 35.98383], [-78.91604, 35.98393], [-78.91574, 35.98465], [-78.91555, 35.98696], [-78.91512, 35.98723], [-78.91435, 35.98726], [-78.91436, 35.98719], [-78.9134, 35.98717], [-78.91338, 35.98587], [-78.91303, 35.98436], [-78.91277, 35.98407], [-78.91215, 35.98376], [-78.90999, 35.98345], [-78.90975, 35.98332], [-78.90886, 35.98324], [-78.90872, 35.98309], [-78.90874, 35.98221], [-78.90871, 35.98192], [-78.90872, 35.98055], [-78.90897, 35.97923], [-78.90992, 35.97809], [-78.91133, 35.97638], [-78.9123, 35.97527], [-78.91315, 35.97455], [-78.920696, 35.977188], [-78.92076, 35.97721], [-78.920438, 35.979409]]]}}, {"type": "Feature", "properties": {"area_id": 910, "city": "Durham", "state": "NC", "city_survey": true, "cat": "Still Desirable", "grade": "B", "label": "B1", "res": true, "com": false, "ind": false, "holc_grade": "B"}, "geometry": {"type": "Polygon", "coordinates": [[[-78.93037, 36.01831], [-78.93023, 36.02207], [-78.92962, 36.02232], [-78.92213, 36.02218], [-78.92221, 36.01801], [-78.93037, 36.01831]]]}}, {"type": "Feature", "properties": {"area_id": 908, "city": "Durham", "state": "NC", "city_survey": true, "cat": "Still Desirable", "grade": "B", "label": "B2", "res": true, "com": false, "ind": false, "holc_grade": "B"}, "geometry": {"type": "Polygon", "coordinates": [[[-78.93248, 36.01548], [-78.93248, 36.016073], [-78.93248, 36.01682], [-78.9229, 36.01644], [-78.922945, 36.015658], [-78.92298, 36.01504], [-78.93248, 36.01548]]]}}, {"type": "Feature", "properties": {"area_id": 903, "city": "Durham", "state": "NC", "city_survey": true, "cat": "Still Desirable", "grade": "B", "label": "B3", "res": true, "com": false, "ind": false, "holc_grade": "B"}, "geometry": {"type": "Polygon", "coordinates": [[[-78.89502, 36.00331], [-78.89532, 36.00353], [-78.89534, 36.003819], [-78.89537, 36.00425], [-78.89563, 36.00496], [-78.90008, 36.00505], [-78.90063, 36.0052], [-78.90106, 36.00543], [-78.90132, 36.00566], [-78.89928, 36.00806], [-78.89927, 36.00806], [-78.89726, 36.00809], [-78.89681, 36.00823], [-78.896762, 36.008903], [-78.89673, 36.00934], [-78.89658, 36.0095], [-78.895976, 36.009511], [-78.89548, 36.00952], [-78.895, 36.00842], [-78.89461, 36.00806], [-78.89415, 36.00785], [-78.8932, 36.00779], [-78.89293, 36.00761], [-78.8929, 36.0072], [-78.893979, 36.003609], [-78.89409, 36.00324], [-78.89502, 36.00331]]]}}, {"type": "Feature", "properties": {"area_id": 912, "city": "Durham", "state": "NC", "city_survey": true, "cat": "Still Desirable", "grade": "B", "label": "B4", "res": true, "com": false, "ind": false, "holc_grade": "B"}, "geometry": {"type": "Polygon", "coordinates": [[[-78.89642, 35.99472], [-78.89605, 35.99477], [-78.89571, 35.99471], [-78.89439, 35.99427], [-78.89401, 35.99418], [-78.893916, 35.994246], [-78.89381, 35.99432], [-78.893793, 35.994389], [-78.893766, 35.994504], [-78.89376, 35.99453], [-78.89392, 35.99472], [-78.89509, 35.99528], [-78.89537, 35.99542], [-78.89539, 35.99573], [-78.89513, 35.99602], [-78.89474, 35.99624], [-78.89406, 35.9963], [-78.8932, 35.99622], [-78.89305, 35.99602], [-78.89304, 35.99542], [-78.89289, 35.99516], [-78.89247, 35.99504], [-78.89171, 35.99491], [-78.89148, 35.99471], [-78.89157, 35.99438], [-78.89174, 35.99421], [-78.89211, 35.99415], [-78.89283, 35.99418], [-78.8939, 35.99334], [-78.89429, 35.9927], [-78.89454, 35.99263], [-78.895041, 35.992929], [-78.89709, 35.99415], [-78.89642, 35.99472]]]}}, {"type": "Feature", "properties": {"area_id": 913, "city": "Durham", "state": "NC", "city_survey": true, "cat": "Still Desirable", "grade": "B", "label": "B5", "res": true, "com": false, "ind": false, "holc_grade": "B"}, "geometry": {"type": "Polygon", "coordinates": [[[-78.88234, 35.99029], [-78.88233, 35.99223], [-78.88189, 35.99234], [-78.88143, 35.99225], [-78.8813, 35.99174], [-78.88136, 35.98988], [-78.88155, 35.98971], [-78.88192, 35.98962], [-78.88226, 35.98967], [-78.88234, 35.99029]]]}}, {"type": "Feature", "properties": {"area_id": 896, "city": "Durham", "state": "NC", "city_survey": true, "cat": "Still Desirable", "grade": "B", "label": "B6", "res": true, "com": false, "ind": false, "holc_grade": "B"}, "geometry": {"type": "Polygon", "coordinates": [[[-78.914308, 35.992509], [-78.91069, 35.99249], [-78.91025, 35.99641], [-78.9089, 35.9969], [-78.90759, 35.99693], [-78.90757, 35.9956], [-78.90765, 35.99538], [-78.90822, 35.99484], [-78.90859, 35.98929], [-78.90888, 35.98914], [-78.90954, 35.98895], [-78.90979, 35.98871], [-78.91023, 35.98709], [-78.9134, 35.98717], [-78.91436, 35.98719], [-78.91435, 35.98726], [-78.914377, 35.989257], [-78.91442, 35.99251], [-78.914308, 35.992509]]]}}, {"type": "Feature", "properties": {"area_id": 906, "city": "Durham", "state": "NC", "city_survey": true, "cat": "Definitely Declining", "grade": "C", "label": "C1", "res": true, "com": false, "ind": false, "holc_grade": "C"}, "geometry": {"type": "Polygon", "coordinates": [[[-78.91974, 36.00639], [-78.919797, 36.006406], [-78.92228, 36.0071], [-78.92213, 36.00887], [-78.92315, 36.00905], [-78.92297, 36.0101], [-78.92423, 36.01013], [-78.92421, 36.01044], [-78.9261, 36.01049], [-78.92701, 36.00757], [-78.92752, 36.00768], [-78.92837, 36.00794], [-78.92908, 36.00827], [-78.93001, 36.00892], [-78.93079, 36.00955], [-78.93128, 36.01029], [-78.9326, 36.01192], [-78.9332, 36.01272], [-78.93338, 36.01307], [-78.93419, 36.01428], [-78.93508, 36.01513], [-78.93526, 36.01518], [-78.936048, 36.015665], [-78.93643, 36.0159], [-78.93639, 36.01693], [-78.93248, 36.01682], [-78.93248, 36.016073], [-78.93248, 36.01548], [-78.92298, 36.01504], [-78.922945, 36.015658], [-78.9229, 36.01644], [-78.9208, 36.01638], [-78.92081, 36.015421], [-78.92081, 36.01542], [-78.92076, 36.015418], [-78.91968, 36.01538], [-78.91968, 36.01726], [-78.91911, 36.01724], [-78.91895, 36.0199], [-78.917777, 36.019842], [-78.91589, 36.01975], [-78.91611, 36.01518], [-78.91741, 36.01522], [-78.91752, 36.01264], [-78.91299, 36.01252], [-78.91289, 36.01399], [-78.91277, 36.01497], [-78.91283, 36.0155], [-78.91276, 36.0172], [-78.91362, 36.01742], [-78.91368, 36.01798], [-78.9146, 36.01974], [-78.91413, 36.02002], [-78.91237, 36.0187], [-78.90997, 36.0186], [-78.90998, 36.01812], [-78.91012, 36.01721], [-78.910129, 36.016919], [-78.91017, 36.01551], [-78.91013, 36.01438], [-78.910837, 36.014322], [-78.91122, 36.01429], [-78.91143, 36.01411], [-78.91157, 36.01329], [-78.91159, 36.01234], [-78.91174, 36.01183], [-78.91211, 36.01171], [-78.91241, 36.01173], [-78.91265, 36.01161], [-78.91263, 36.009658], [-78.91263, 36.00963], [-78.91946, 36.00987], [-78.91974, 36.00639]]]}}, {"type": "Feature", "properties": {"area_id": 904, "city": "Durham", "state": "NC", "city_survey": true, "cat": "Definitely Declining", "grade": "C", "label": "C2", "res": true, "com": false, "ind": false, "holc_grade": "C"}, "geometry": {"type": "Polygon", "coordinates": [[[-78.893168, 36.002989], [-78.89409, 36.00324], [-78.893979, 36.003609], [-78.8929, 36.0072], [-78.89293, 36.00761], [-78.8932, 36.00779], [-78.89415, 36.00785], [-78.89461, 36.00806], [-78.895, 36.00842], [-78.89548, 36.00952], [-78.895976, 36.009511], [-78.89658, 36.0095], [-78.89673, 36.00934], [-78.896762, 36.008903], [-78.89681, 36.00823], [-78.89726, 36.00809], [-78.89927, 36.00806], [-78.89928, 36.00806], [-78.90132, 36.00566], [-78.903023, 36.005676], [-78.90565, 36.0057], [-78.90564, 36.00445], [-78.905768, 36.00445], [-78.90824, 36.00444], [-78.90823, 36.00224], [-78.9113, 36.00216], [-78.91192, 36.00233], [-78.91247, 36.00264], [-78.91254, 36.00287], [-78.91241, 36.00295], [-78.90936, 36.00312], [-78.90907, 36.00342], [-78.909067, 36.003429], [-78.9089, 36.00391], [-78.90896, 36.00483], [-78.90651, 36.00522], [-78.90618, 36.01567], [-78.90606, 36.01588], [-78.90566, 36.016], [-78.90524, 36.01602], [-78.90496, 36.01626], [-78.90496, 36.016888], [-78.90496, 36.01723], [-78.90222, 36.01725], [-78.902218, 36.01682], [-78.9022, 36.0124], [-78.89604, 36.0124], [-78.89597, 36.01632], [-78.895931, 36.016366], [-78.8958, 36.01652], [-78.895161, 36.016622], [-78.8943, 36.01676], [-78.89384, 36.01694], [-78.8933, 36.01748], [-78.89288, 36.01819], [-78.89259, 36.01857], [-78.892588, 36.018572], [-78.89238, 36.01879], [-78.89215, 36.01934], [-78.89183, 36.02263], [-78.8919, 36.02302], [-78.8919, 36.02655], [-78.88914, 36.02673], [-78.8891, 36.02462], [-78.88874, 36.02171], [-78.88855, 36.02051], [-78.8883, 36.01888], [-78.88791, 36.01759], [-78.88727, 36.01667], [-78.88564, 36.01453], [-78.885444, 36.014163], [-78.88532, 36.01393], [-78.88476, 36.0125], [-78.88392, 36.01097], [-78.88309, 36.00972], [-78.88256, 36.00833], [-78.88285, 36.00781], [-78.8848, 36.0069], [-78.88628, 36.00617], [-78.88731, 36.00556], [-78.88833, 36.00484], [-78.88899, 36.00422], [-78.88927, 36.0035], [-78.889281, 36.003377], [-78.88933, 36.00283], [-78.89101, 36.00271], [-78.89262, 36.00284], [-78.893168, 36.002989]], [[-78.89186, 36.01323], [-78.89225, 36.013], [-78.89332, 36.01301], [-78.89444, 36.01262], [-78.89481, 36.01206], [-78.89503, 36.01129], [-78.89498, 36.00992], [-78.89475, 36.00968], [-78.89386, 36.00947], [-78.89259, 36.00941], [-78.89154, 36.00955], [-78.89025, 36.0099], [-78.8897, 36.01015], [-78.88934, 36.01049], [-78.88857, 36.01206], [-78.88847, 36.01392], [-78.88873, 36.01424], [-78.88964, 36.01452], [-78.89061, 36.01461], [-78.89095, 36.01447], [-78.89125, 36.01429], [-78.89164, 36.01376], [-78.89186, 36.01323]]]}}, {"type": "Feature", "properties": {"area_id": 911, "city": "Durham", "state": "NC", "city_survey": true, "cat": "Definitely Declining", "grade": "C", "label": "C3", "res": true, "com": false, "ind": false, "holc_grade": "C"}, "geometry": {"type": "Polygon", "coordinates": [[[-78.87466, 35.98346], [-78.87408, 35.98312], [-78.87309, 35.98278], [-78.87198, 35.98234], [-78.87152, 35.98202], [-78.87149, 35.98153], [-78.8717, 35.98105], [-78.87197, 35.98082], [-78.87272, 35.98116], [-78.87348, 35.98141], [-78.87516, 35.98166], [-78.87543, 35.98177], [-78.87573, 35.98189], [-78.87629, 35.98211], [-78.87931, 35.98295], [-78.881, 35.98356], [-78.88191, 35.98417], [-78.88208, 35.98461], [-78.88206, 35.98532], [-78.88204, 35.98591], [-78.88207, 35.98631], [-78.88213, 35.98732], [-78.88244, 35.989], [-78.88227, 35.98933], [-78.88226, 35.98967], [-78.88192, 35.98962], [-78.88155, 35.98971], [-78.88136, 35.98988], [-78.8813, 35.99174], [-78.88143, 35.99225], [-78.88189, 35.99234], [-78.88233, 35.99223], [-78.88233, 35.99255], [-78.88233, 35.99271], [-78.88232, 35.99353], [-78.88229, 35.99395], [-78.88239, 35.99411], [-78.88567, 35.99416], [-78.885975, 35.994138], [-78.88703, 35.99406], [-78.88938, 35.99406], [-78.89174, 35.99421], [-78.89157, 35.99438], [-78.89148, 35.99471], [-78.89171, 35.99491], [-78.89247, 35.99504], [-78.89289, 35.99516], [-78.89304, 35.99542], [-78.89305, 35.99602], [-78.8932, 35.99622], [-78.89406, 35.9963], [-78.89474, 35.99624], [-78.89513, 35.99602], [-78.89539, 35.99573], [-78.89537, 35.99542], [-78.89509, 35.99528], [-78.89392, 35.99472], [-78.89376, 35.99453], [-78.893766, 35.994504], [-78.893793, 35.994389], [-78.89381, 35.99432], [-78.893916, 35.994246], [-78.89401, 35.99418], [-78.89439, 35.99427], [-78.89571, 35.99471], [-78.89605, 35.99477], [-78.89642, 35.99472], [-78.89709, 35.99415], [-78.89762, 35.9945], [-78.89825, 35.99483], [-78.89817, 35.99527], [-78.89817, 35.99611], [-78.89828, 35.99704], [-78.89853, 35.99774], [-78.89901, 35.99817], [-78.90015, 35.99874], [-78.90149, 35.99891], [-78.90234, 35.99906], [-78.90277, 35.9992], [-78.90342, 35.99937], [-78.90383, 35.99978], [-78.90399, 36.00035], [-78.90404, 36.00086], [-78.90395, 36.00128], [-78.9036, 36.00194], [-78.902485, 36.003759], [-78.90132, 36.00566], [-78.90106, 36.00543], [-78.90063, 36.0052], [-78.90008, 36.00505], [-78.89563, 36.00496], [-78.89537, 36.00425], [-78.89534, 36.003819], [-78.89532, 36.00353], [-78.89502, 36.00331], [-78.89409, 36.00324], [-78.893168, 36.002989], [-78.89262, 36.00284], [-78.89306, 36.0002], [-78.89285, 36.00001], [-78.89243, 35.9999], [-78.88992, 35.99979], [-78.88963, 35.99952], [-78.88956, 35.99911], [-78.88892, 35.99757], [-78.88873, 35.99738], [-78.88845, 35.99736], [-78.88793, 35.99744], [-78.88749, 35.99798], [-78.88688, 35.99806], [-78.88583, 35.99848], [-78.885, 35.99862], [-78.88335, 35.99841], [-78.88275, 35.99816], [-78.8822, 35.99813], [-78.88144, 35.99832], [-78.88053, 35.9987], [-78.880316, 35.998736], [-78.87882, 35.99899], [-78.87709, 35.99943], [-78.87669, 35.9996], [-78.87521, 35.99927], [-78.87502, 35.99887], [-78.87499, 35.99849], [-78.87511, 35.99749], [-78.87517, 35.99539], [-78.875, 35.99445], [-78.87465, 35.99161], [-78.87464, 35.99021], [-78.874714, 35.988864], [-78.87483, 35.98675], [-78.87477, 35.98608], [-78.87466, 35.98346]]]}}, {"type": "Feature", "properties": {"area_id": 895, "city": "Durham", "state": "NC", "city_survey": true, "cat": "Definitely Declining", "grade": "C", "label": "C4", "res": true, "com": false, "ind": false, "holc_grade": "C"}, "geometry": {"type": "Polygon", "coordinates": [[[-78.9112, 35.99937], [-78.90934, 35.99831], [-78.90904, 35.99793], [-78.90891, 35.99734], [-78.9089, 35.9969], [-78.91025, 35.99641], [-78.91069, 35.99249], [-78.914308, 35.992509], [-78.91442, 35.99251], [-78.91453, 35.996], [-78.91682, 35.99567], [-78.91814, 35.99643], [-78.91881, 35.99668], [-78.91948, 35.99668], [-78.92021, 35.99643], [-78.92152, 35.99526], [-78.9228, 35.99538], [-78.92331, 35.99432], [-78.92437, 35.99438], [-78.923574, 35.996184], [-78.92332, 35.99676], [-78.92342, 35.99691], [-78.9265, 35.99775], [-78.93018, 35.99847], [-78.93006, 35.99938], [-78.92416, 35.99819], [-78.923974, 35.998185], [-78.92313, 35.99816], [-78.92019, 35.99841], [-78.91939, 35.99876], [-78.91756, 36.00102], [-78.91764, 36.00134], [-78.91788, 36.0015], [-78.92288, 36.00341], [-78.92521, 36.00359], [-78.92791, 36.00417], [-78.92932, 36.0048], [-78.929931, 36.005284], [-78.93004, 36.00537], [-78.9308, 36.00667], [-78.93129, 36.00725], [-78.931769, 36.007569], [-78.93207, 36.00777], [-78.93144, 36.00926], [-78.92983, 36.00803], [-78.92832, 36.00727], [-78.9268, 36.00678], [-78.92475, 36.0064], [-78.92248, 36.00603], [-78.91931, 36.00507], [-78.91578, 36.00325], [-78.91562, 36.00293], [-78.91569, 36.00214], [-78.91412, 36.00127], [-78.91424, 35.99994], [-78.914083, 35.999644], [-78.91406, 35.9996], [-78.91358, 35.99939], [-78.9112, 35.99937]]]}}, {"type": "Feature", "properties": {"area_id": 893, "city": "Durham", "state": "NC", "city_survey": true, "cat": "Definitely Declining", "grade": "C", "label": "C5", "res": true, "com": false, "ind": false, "holc_grade": "C"}, "geometry": {"type": "Polygon", "coordinates": [[[-78.91555, 35.98696], [-78.91574, 35.98465], [-78.91604, 35.98393], [-78.91702, 35.98383], [-78.91817, 35.98334], [-78.91967, 35.98193], [-78.92024, 35.98076], [-78.92025, 35.98075], [-78.920283, 35.980751], [-78.92371, 35.98084], [-78.93056, 35.98123], [-78.93186, 35.98146], [-78.93358, 35.98222], [-78.93387, 35.98258], [-78.93354, 35.98465], [-78.933, 35.98748], [-78.93267, 35.99027], [-78.93197, 35.99132], [-78.93136, 35.99172], [-78.92999, 35.99186], [-78.92622, 35.99208], [-78.922215, 35.992008], [-78.92174, 35.992], [-78.92215, 35.99113], [-78.92248, 35.9888], [-78.92293, 35.9871], [-78.919, 35.98706], [-78.91767, 35.98739], [-78.917, 35.98781], [-78.91657, 35.98851], [-78.915762, 35.989289], [-78.915751, 35.989299], [-78.91548, 35.98956], [-78.91508, 35.99145], [-78.91474, 35.99224], [-78.91442, 35.99251], [-78.914377, 35.989257], [-78.91435, 35.98726], [-78.91512, 35.98723], [-78.91555, 35.98696]]]}}, {"type": "Feature", "properties": {"area_id": 897, "city": "Durham", "state": "NC", "city_survey": true, "cat": "Definitely Declining", "grade": "C", "label": "C6", "res": true, "com": false, "ind": false, "holc_grade": "C"}, "geometry": {"type": "Polygon", "coordinates": [[[-78.91023, 35.98709], [-78.90979, 35.98871], [-78.90954, 35.98895], [-78.90888, 35.98914], [-78.90859, 35.98929], [-78.90822, 35.99484], [-78.90765, 35.99538], [-78.90757, 35.9956], [-78.90759, 35.99693], [-78.90709, 35.99681], [-78.90684, 35.9966], [-78.90648, 35.99594], [-78.90594, 35.99556], [-78.90529, 35.99493], [-78.90516, 35.99429], [-78.90541, 35.99378], [-78.90654, 35.99193], [-78.90681, 35.99111], [-78.9069, 35.99003], [-78.9071, 35.98919], [-78.90734, 35.98864], [-78.90772, 35.98806], [-78.90913, 35.98548], [-78.90936, 35.98462], [-78.90924, 35.98387], [-78.90886, 35.98324], [-78.90975, 35.98332], [-78.90999, 35.98345], [-78.91215, 35.98376], [-78.91277, 35.98407], [-78.91303, 35.98436], [-78.91338, 35.98587], [-78.9134, 35.98717], [-78.91023, 35.98709]]]}}, {"type": "Feature", "properties": {"area_id": 901, "city": "Durham", "state": "NC", "city_survey": true, "cat": "Definitely Declining", "grade": "C", "label": "C7", "res": true, "com": false, "ind": false, "holc_grade": "C"}, "geometry": {"type": "Polygon", "coordinates": [[[-78.8969, 35.97442], [-78.89691, 35.97287], [-78.90022, 35.97292], [-78.90159, 35.97314], [-78.90299, 35.97342], [-78.90474, 35.97404], [-78.90475, 35.97405], [-78.90327, 35.97585], [-78.90265, 35.97608], [-78.90216, 35.97644], [-78.90165, 35.97661], [-78.90158, 35.977], [-78.901194, 35.978019], [-78.90059, 35.97961], [-78.89973, 35.98242], [-78.89985, 35.9825], [-78.90286, 35.98221], [-78.90322, 35.98226], [-78.90357, 35.98248], [-78.903553, 35.982689], [-78.90352, 35.98308], [-78.90276, 35.98308], [-78.90187, 35.98322], [-78.89769, 35.98325], [-78.89756, 35.98293], [-78.897564, 35.982827], [-78.89757, 35.98267], [-78.89768, 35.98228], [-78.89744, 35.98179], [-78.89712, 35.98157], [-78.89578, 35.98103], [-78.89531, 35.98077], [-78.89541, 35.97987], [-78.89609, 35.97798], [-78.896323, 35.977187], [-78.89661, 35.97621], [-78.8969, 35.97442]]]}}, {"type": "Feature", "properties": {"area_id": 907, "city": "Durham", "state": "NC", "city_survey": true, "cat": "Hazardous", "grade": "D", "label": "D1", "res": true, "com": false, "ind": false, "holc_grade": "D"}, "geometry": {"type": "Polygon", "coordinates": [[[-78.91368, 36.01798], [-78.91362, 36.01742], [-78.91276, 36.0172], [-78.91283, 36.0155], [-78.91277, 36.01497], [-78.91289, 36.01399], [-78.91299, 36.01252], [-78.91752, 36.01264], [-78.91741, 36.01522], [-78.91611, 36.01518], [-78.91589, 36.01975], [-78.9146, 36.01974], [-78.91368, 36.01798]]]}}, {"type": "Feature", "properties": {"area_id": 914, "city": "Durham", "state": "NC", "city_survey": true, "cat": "Hazardous", "grade": "D", "label": "D2", "res": true, "com": false, "ind": false, "holc_grade": "D"}, "geometry": {"type": "Polygon", "coordinates": [[[-78.88144, 35.99832], [-78.8822, 35.99813], [-78.88275, 35.99816], [-78.88335, 35.99841], [-78.885, 35.99862], [-78.88583, 35.99848], [-78.88688, 35.99806], [-78.88749, 35.99798], [-78.88793, 35.99744], [-78.88845, 35.99736], [-78.88873, 35.99738], [-78.88892, 35.99757], [-78.88956, 35.99911], [-78.88963, 35.99952], [-78.88992, 35.99979], [-78.89243, 35.9999], [-78.89285, 36.00001], [-78.89306, 36.0002], [-78.89262, 36.00284], [-78.89101, 36.00271], [-78.88933, 36.00283], [-78.88675, 36.0032], [-78.8846, 36.00343], [-78.88188, 36.00353], [-78.87968, 36.00344], [-78.87841, 36.00339], [-78.878114, 36.003427], [-78.87622, 36.00366], [-78.87607, 36.0025], [-78.8762, 36.00035], [-78.87635, 35.99984], [-78.87669, 35.9996], [-78.87709, 35.99943], [-78.87882, 35.99899], [-78.880316, 35.998736], [-78.88053, 35.9987], [-78.88144, 35.99832]]]}}, {"type": "Feature", "properties": {"area_id": 915, "city": "Durham", "state": "NC", "city_survey": true, "cat": "Hazardous", "grade": "D", "label": "D3", "res": true, "com": false, "ind": false, "holc_grade": "D"}, "geometry": {"type": "Polygon", "coordinates": [[[-78.88244, 35.989], [-78.88213, 35.98732], [-78.88207, 35.98631], [-78.88204, 35.98591], [-78.88206, 35.98532], [-78.88208, 35.98461], [-78.88191, 35.98417], [-78.881, 35.98356], [-78.87931, 35.98295], [-78.87629, 35.98211], [-78.87573, 35.98189], [-78.87543, 35.98177], [-78.87516, 35.98166], [-78.87348, 35.98141], [-78.87272, 35.98116], [-78.87197, 35.98082], [-78.87203, 35.9802], [-78.87239, 35.97943], [-78.87272, 35.97845], [-78.87273, 35.97818], [-78.8742, 35.97848], [-78.87551, 35.97885], [-78.87683, 35.97935], [-78.87804, 35.97993], [-78.87845, 35.98015], [-78.87954, 35.9805], [-78.87976, 35.98065], [-78.88272, 35.98192], [-78.883365, 35.982247], [-78.88351, 35.98232], [-78.88423, 35.98255], [-78.8923, 35.98618], [-78.89344, 35.98673], [-78.89418, 35.98746], [-78.89438, 35.98795], [-78.89488, 35.98863], [-78.89537, 35.98939], [-78.89566, 35.98996], [-78.89599, 35.9906], [-78.89606, 35.99113], [-78.89586, 35.99134], [-78.89548, 35.99153], [-78.89393, 35.99061], [-78.89298, 35.99018], [-78.89268, 35.99016], [-78.89243, 35.9903], [-78.89221, 35.99059], [-78.89213, 35.99087], [-78.89229, 35.99122], [-78.89365, 35.992], [-78.89454, 35.99263], [-78.89429, 35.9927], [-78.8939, 35.99334], [-78.89283, 35.99418], [-78.89211, 35.99415], [-78.89174, 35.99421], [-78.88938, 35.99406], [-78.88703, 35.99406], [-78.885975, 35.994138], [-78.88567, 35.99416], [-78.88239, 35.99411], [-78.88229, 35.99395], [-78.88232, 35.99353], [-78.88233, 35.99271], [-78.88233, 35.99255], [-78.88254, 35.99235], [-78.88304, 35.99216], [-78.88503, 35.99211], [-78.88592, 35.99206], [-78.886066, 35.991969], [-78.88613, 35.99193], [-78.88627, 35.99147], [-78.88626, 35.99053], [-78.886199, 35.990458], [-78.88614, 35.99039], [-78.88244, 35.989]]]}}, {"type": "Feature", "properties": {"area_id": 899, "city": "Durham", "state": "NC", "city_survey": true, "cat": "Hazardous", "grade": "D", "label": "D4", "res": true, "com": false, "ind": false, "holc_grade": "D"}, "geometry": {"type": "Polygon", "coordinates": [[[-78.93513, 36.008], [-78.93668, 36.00846], [-78.93728, 36.008662], [-78.93772, 36.00881], [-78.93883, 36.00936], [-78.93959, 36.00996], [-78.94009, 36.01062], [-78.94059, 36.01307], [-78.9404, 36.01381], [-78.93962, 36.01489], [-78.93909, 36.01534], [-78.9382, 36.01557], [-78.93757, 36.0155], [-78.93649, 36.01512], [-78.93551, 36.01456], [-78.93443, 36.01331], [-78.933053, 36.01122], [-78.93298, 36.01111], [-78.93144, 36.00926], [-78.93207, 36.00777], [-78.933174, 36.007783], [-78.93373, 36.00779], [-78.93513, 36.008]]]}}, {"type": "Feature", "properties": {"area_id": 894, "city": "Durham", "state": "NC", "city_survey": true, "cat": "Hazardous", "grade": "D", "label": "D5", "res": true, "com": false, "ind": false, "holc_grade": "D"}, "geometry": {"type": "Polygon", "coordinates": [[[-78.915762, 35.989289], [-78.91657, 35.98851], [-78.917, 35.98781], [-78.91767, 35.98739], [-78.919, 35.98706], [-78.92293, 35.9871], [-78.92248, 35.9888], [-78.92215, 35.99113], [-78.92174, 35.992], [-78.920306, 35.991946], [-78.919847, 35.991929], [-78.91587, 35.99178], [-78.91592, 35.99408], [-78.91875, 35.99465], [-78.91906, 35.99342], [-78.92174, 35.99418], [-78.92331, 35.99432], [-78.9228, 35.99538], [-78.92152, 35.99526], [-78.92021, 35.99643], [-78.91948, 35.99668], [-78.91881, 35.99668], [-78.91814, 35.99643], [-78.91682, 35.99567], [-78.91453, 35.996], [-78.91442, 35.99251], [-78.91474, 35.99224], [-78.91508, 35.99145], [-78.91548, 35.98956], [-78.915751, 35.989299], [-78.915762, 35.989289]]]}}, {"type": "Feature", "properties": {"area_id": 900, "city": "Durham", "state": "NC", "city_survey": true, "cat": "Hazardous", "grade": "D", "label": "D6", "res": true, "com": false, "ind": false, "holc_grade": "D"}, "geometry": {"type": "Polygon", "coordinates": [[[-78.896323, 35.977187], [-78.89609, 35.97798], [-78.89541, 35.97987], [-78.89531, 35.98077], [-78.89578, 35.98103], [-78.89712, 35.98157], [-78.89744, 35.98179], [-78.89768, 35.98228], [-78.89757, 35.98267], [-78.897564, 35.982827], [-78.89756, 35.98293], [-78.89769, 35.98325], [-78.90187, 35.98322], [-78.90276, 35.98308], [-78.90352, 35.98308], [-78.903553, 35.982689], [-78.90357, 35.98248], [-78.90322, 35.98226], [-78.90286, 35.98221], [-78.89985, 35.9825], [-78.89973, 35.98242], [-78.90059, 35.97961], [-78.901194, 35.978019], [-78.90158, 35.977], [-78.90165, 35.97661], [-78.90216, 35.97644], [-78.90265, 35.97608], [-78.90327, 35.97585], [-78.90475, 35.97405], [-78.90474, 35.97404], [-78.90823, 35.97575], [-78.908202, 35.979515], [-78.9082, 35.97979], [-78.90797, 35.98074], [-78.90791, 35.98166], [-78.907968, 35.98198], [-78.90816, 35.98303], [-78.90875, 35.9843], [-78.90881, 35.98505], [-78.908766, 35.985125], [-78.90796, 35.986477], [-78.9069, 35.988255], [-78.90648, 35.98896], [-78.90562, 35.99097], [-78.90387, 35.9934], [-78.90351, 35.99363], [-78.90325, 35.9937], [-78.90038, 35.99219], [-78.89916, 35.99136], [-78.89879, 35.99075], [-78.89781, 35.98958], [-78.89748, 35.98913], [-78.89682, 35.98817], [-78.89636, 35.98738], [-78.89468, 35.98594], [-78.892665, 35.985073], [-78.89096, 35.98434], [-78.88681, 35.9828], [-78.88219, 35.98077], [-78.88314, 35.97909], [-78.88344, 35.97892], [-78.88414, 35.9791], [-78.88561, 35.97917], [-78.88654, 35.97913], [-78.88783, 35.9787], [-78.89015, 35.97745], [-78.88949, 35.9759], [-78.88944, 35.97547], [-78.88891, 35.97415], [-78.88903, 35.97296], [-78.88936, 35.97224], [-78.88967, 35.97175], [-78.89034, 35.97177], [-78.8943, 35.97252], [-78.89342, 35.97522], [-78.893436, 35.975225], [-78.89661, 35.97621], [-78.896323, 35.977187]]]}}, {"type": "Feature", "properties": {"area_id": 11348, "city": "Durham", "state": "NC", "city_survey": true, "cat": "Industrial and Commercial", "grade": null, "label": "Industrial and Commercial", "res": false, "com": true, "ind": true, "holc_grade": null}, "geometry": {"type": "Polygon", "coordinates": [[[-78.90875, 35.9843], [-78.90816, 35.98303], [-78.90872, 35.98309], [-78.90886, 35.98324], [-78.90924, 35.98387], [-78.90936, 35.98462], [-78.90913, 35.98548], [-78.90772, 35.98806], [-78.90734, 35.98864], [-78.9071, 35.98919], [-78.9069, 35.99003], [-78.90681, 35.99111], [-78.90654, 35.99193], [-78.90541, 35.99378], [-78.90516, 35.99429], [-78.90529, 35.99493], [-78.90594, 35.99556], [-78.90648, 35.99594], [-78.90684, 35.9966], [-78.90709, 35.99681], [-78.90759, 35.99693], [-78.9089, 35.9969], [-78.90891, 35.99734], [-78.90904, 35.99793], [-78.90934, 35.99831], [-78.9112, 35.99937], [-78.91358, 35.99939], [-78.91406, 35.9996], [-78.914083, 35.999644], [-78.91424, 35.99994], [-78.91412, 36.00127], [-78.91569, 36.00214], [-78.91562, 36.00293], [-78.91578, 36.00325], [-78.91931, 36.00507], [-78.92248, 36.00603], [-78.92475, 36.0064], [-78.9268, 36.00678], [-78.92832, 36.00727], [-78.92983, 36.00803], [-78.93144, 36.00926], [-78.93298, 36.01111], [-78.933053, 36.01122], [-78.93443, 36.01331], [-78.93551, 36.01456], [-78.93649, 36.01512], [-78.93757, 36.0155], [-78.937384, 36.015726], [-78.937115, 36.016051], [-78.93639, 36.01693], [-78.93643, 36.0159], [-78.936048, 36.015665], [-78.93526, 36.01518], [-78.93508, 36.01513], [-78.93419, 36.01428], [-78.93338, 36.01307], [-78.9332, 36.01272], [-78.9326, 36.01192], [-78.93128, 36.01029], [-78.93079, 36.00955], [-78.93001, 36.00892], [-78.92908, 36.00827], [-78.92837, 36.00794], [-78.92752, 36.00768], [-78.92701, 36.00757], [-78.9261, 36.01049], [-78.92421, 36.01044], [-78.92423, 36.01013], [-78.92297, 36.0101], [-78.92315, 36.00905], [-78.92213, 36.00887], [-78.92228, 36.0071], [-78.919797, 36.006406], [-78.91974, 36.00639], [-78.91766, 36.00547], [-78.91582, 36.00464], [-78.91386, 36.00355], [-78.912618, 36.002737], [-78.91247, 36.00264], [-78.91192, 36.00233], [-78.9113, 36.00216], [-78.90823, 36.00224], [-78.90811, 36.00139], [-78.90738, 36.00076], [-78.90595, 36.00315], [-78.90572, 36.00386], [-78.90564, 36.004449], [-78.90564, 36.00445], [-78.90565, 36.0057], [-78.903023, 36.005676], [-78.90132, 36.00566], [-78.902485, 36.003759], [-78.9036, 36.00194], [-78.90395, 36.00128], [-78.90404, 36.00086], [-78.90399, 36.00035], [-78.90383, 35.99978], [-78.90342, 35.99937], [-78.90277, 35.9992], [-78.90234, 35.99906], [-78.90149, 35.99891], [-78.90015, 35.99874], [-78.89901, 35.99817], [-78.89853, 35.99774], [-78.89828, 35.99704], [-78.89817, 35.99611], [-78.89817, 35.99527], [-78.89825, 35.99483], [-78.89762, 35.9945], [-78.89709, 35.99415], [-78.895041, 35.992929], [-78.89454, 35.99263], [-78.89365, 35.992], [-78.89229, 35.99122], [-78.89213, 35.99087], [-78.89221, 35.99059], [-78.89243, 35.9903], [-78.89268, 35.99016], [-78.89298, 35.99018], [-78.89393, 35.99061], [-78.89548, 35.99153], [-78.89586, 35.99134], [-78.89606, 35.99113], [-78.89599, 35.9906], [-78.89566, 35.98996], [-78.89537, 35.98939], [-78.89488, 35.98863], [-78.89438, 35.98795], [-78.89418, 35.98746], [-78.89344, 35.98673], [-78.8923, 35.98618], [-78.88423, 35.98255], [-78.88351, 35.98232], [-78.883365, 35.982247], [-78.88272, 35.98192], [-78.88123, 35.98128], [-78.881876, 35.980927], [-78.8822, 35.98075], [-78.88219, 35.98077], [-78.88408, 35.9816], [-78.88681, 35.9828], [-78.89096, 35.98434], [-78.892665, 35.985073], [-78.89468, 35.98594], [-78.89636, 35.98738], [-78.89682, 35.98817], [-78.89748, 35.98913], [-78.89781, 35.98958], [-78.89879, 35.99075], [-78.89916, 35.99136], [-78.90038, 35.99219], [-78.90325, 35.9937], [-78.90351, 35.99363], [-78.90387, 35.9934], [-78.90562, 35.99097], [-78.90648, 35.98896], [-78.9069, 35.988255], [-78.90796, 35.986477], [-78.908766, 35.985125], [-78.90881, 35.98505], [-78.90875, 35.9843]]]}}]}