{"type": "FeatureCollection", "features": [{"type": "Feature", "geometry": {"type": "Point", "coordinates": [-78.891667, 36.0]}, "properties": {"facility_name": "GOLDEN BELT MANUFACTURING CO", "industry": null, "tri_facility_id": "27701GLDNB807EA"}}, {"type": "Feature", "geometry": {"type": "Point", "coordinates": [-78.899444, 35.995556]}, "properties": {"facility_name": "TECSTAR INC", "industry": null, "tri_facility_id": "27701HNYWL921HO"}}, {"type": "Feature", "geometry": {"type": "Point", "coordinates": [-78.908611, 35.998333]}, "properties": {"facility_name": "LIGGETT GROUP INC", "industry": null, "tri_facility_id": "27701LGGTTWESTM"}}, {"type": "Feature", "geometry": {"type": "Point", "coordinates": [-78.8887, 35.9899]}, "properties": {"facility_name": "FEDERAL PAPER BOARD CO INC", "industry": null, "tri_facility_id": "27702FDRLP923FR"}}, {"type": "Feature", "geometry": {"type": "Point", "coordinates": [-78.88027777777778, 35.97972222222222]}, "properties": {"facility_name": "BRENNTAG MID-SOUTH", "industry": null, "tri_facility_id": "27702STHCH2000E"}}, {"type": "Feature", "geometry": {"type": "Point", "coordinates": [-78.899444, 35.984444]}, "properties": {"facility_name": "SOUTHERN STATES DURHAM FEED MILL", "industry": null, "tri_facility_id": "27702STHRN901MA"}}, {"type": "Feature", "geometry": {"type": "Point", "coordinates": [-78.8436111111111, 35.92611111111111]}, "properties": {"facility_name": "EATON CORP", "industry": null, "tri_facility_id": "27703CTLRH2933S"}}, {"type": "Feature", "geometry": {"type": "Point", "coordinates": [-78.86777777777777, 35.975833333333334]}, "properties": {"facility_name": "IPS STRUCTURAL ADHESIVES INC.", "industry": null, "tri_facility_id": "27703PSCRP6ELLI"}}, {"type": "Feature", "geometry": {"type": "Point", "coordinates": [-78.872222, 36.052778]}, "properties": {"facility_name": "MITSUBISHI SEMICONDUCTOR, AMERICA INC", "industry": null, "tri_facility_id": "27704MTSBSTHREE"}}, {"type": "Feature", "geometry": {"type": "Point", "coordinates": [-78.96666666666667, 36.016666666666666]}, "properties": {"facility_name": "TRIUMPH BOATS INC", "industry": null, "tri_facility_id": "27705TRMPH100GO"}}, {"type": "Feature", "geometry": {"type": "Point", "coordinates": [-78.973944, 35.9942]}, "properties": {"facility_name": "IBM CORP", "industry": null, "tri_facility_id": "27709BMXXX3039C"}}, {"type": "Feature", "geometry": {"type": "Point", "coordinates": [-78.8981, 35.9987]}, "properties": {"facility_name": "DUPONT", "industry": null, "tri_facility_id": "27709DPNTR14TWA"}}, {"type": "Feature", "geometry": {"type": "Point", "coordinates": [-78.8981, 35.9987]}, "properties": {"facility_name": "WECK", "industry": null, "tri_facility_id": "27709DWRDW100WE"}}, {"type": "Feature", "geometry": {"type": "Point", "coordinates": [-78.892222, 35.982]}, "properties": {"facility_name": "GLAXO WELLCOME INC", "industry": null, "tri_facility_id": "27709GLXNC5MOOR"}}, {"type": "Feature", "geometry": {"type": "Point", "coordinates": [-78.8981, 35.9987]}, "properties": {"facility_name": "WOLFSPEED INC. (RTP)", "industry": null, "tri_facility_id": "27709GMCRL3026C"}}, {"type": "Feature", "geometry": {"type": "Point", "coordinates": [-78.8981, 35.9987]}, "properties": {"facility_name": "LITESPEC OPTICAL FIBER LLC", "industry": null, "tri_facility_id": "27709LTSPC76ALE"}}, {"type": "Feature", "geometry": {"type": "Point", "coordinates": [-78.8981, 35.9987]}, "properties": {"facility_name": "MICROELECTRONICS CENTER OF, NORTH CAROLINA", "industry": null, "tri_facility_id": "27709MCRLC3021C"}}, {"type": "Feature", "geometry": {"type": "Point", "coordinates": [-78.8981, 35.9987]}, "properties": {"facility_name": "NORTEL NORTHERN TELECOM", "industry": null, "tri_facility_id": "27709NRTHR4001E"}}, {"type": "Feature", "geometry": {"type": "Point", "coordinates": [-78.8981, 35.9987]}, "properties": {"facility_name": "SCM METAL PRODUCTS INC", "industry": null, "tri_facility_id": "27709SCMMT2601W"}}, {"type": "Feature", "geometry": {"type": "Point", "coordinates": [-78.8981, 35.9987]}, "properties": {"facility_name": "SUMITOMO ELECTRIC LIGHTWAVE CORP", "industry": null, "tri_facility_id": "27709SMTML78ALE"}}, {"type": "Feature", "geometry": {"type": "Point", "coordinates": [-78.85, 36.066667]}, "properties": {"facility_name": "CORMETECH INC", "industry": null, "tri_facility_id": "27712CRMTC5000I"}}, {"type": "Feature", "geometry": {"type": "Point", "coordinates": [-78.882323, 35.954745]}, "properties": {"facility_name": "FOAM DESIGN INC", "industry": null, "tri_facility_id": "27713FMDSG2425S"}}, {"type": "Feature", "geometry": {"type": "Point", "coordinates": [-78.906667, 35.9375]}, "properties": {"facility_name": "HYDRO SERVICE & SUPPLIES INC", "industry": null, "tri_facility_id": "27713HYDRS513UN"}}]}