{"type": "FeatureCollection", "features": [{"type": "Feature", "properties": {"area_id": 10130, "city": "Alva", "state": "OK", "city_survey": false, "cat": "Better Residential Section", "grade": null, "label": "Better Residential Section", "res": true, "com": false, "ind": false, "holc_grade": null}, "geometry": {"type": "Polygon", "coordinates": [[[-98.67516, 36.80478], [-98.670102, 36.804808], [-98.66796, 36.80482], [-98.66796, 36.8032], [-98.66255, 36.80316], [-98.6625, 36.80482], [-98.65701, 36.80486], [-98.65296, 36.80495], [-98.65308, 36.79758], [-98.65271, 36.79396], [-98.66341, 36.79368], [-98.666011, 36.793746], [-98.67557, 36.79399], [-98.67516, 36.80478]]]}}, {"type": "Feature", "properties": {"area_id": 10129, "city": "Alva", "state": "OK", "city_survey": false, "cat": "Blighted Section", "grade": null, "label": "Blighted Section", "res": true, "com": false, "ind": false, "holc_grade": null}, "geometry": {"type": "MultiPolygon", "coordinates": [[[[-98.66214, 36.8056], [-98.66205, 36.80802], [-98.65839, 36.80784], [-98.65851, 36.80726], [-98.65689, 36.80733], [-98.65701, 36.80486], [-98.6625, 36.80482], [-98.66248, 36.8056], [-98.66214, 36.8056]]], [[[-98.66796, 36.80482], [-98.670102, 36.804808], [-98.67516, 36.80478], [-98.68032, 36.80475], [-98.68043, 36.81026], [-98.67807, 36.81017], [-98.67789, 36.80968], [-98.67689, 36.80968], [-98.67689, 36.81019], [-98.67487, 36.81026], [-98.67482, 36.80855], [-98.67007, 36.80866], [-98.67012, 36.80562], [-98.670102, 36.80562], [-98.66796, 36.80562], [-98.66796, 36.80482]]]]}}, {"type": "Feature", "properties": {"area_id": 10127, "city": "Alva", "state": "OK", "city_survey": false, "cat": "Business Section", "grade": null, "label": "Business Section", "res": false, "com": true, "ind": false, "holc_grade": null}, "geometry": {"type": "Polygon", "coordinates": [[[-98.6625, 36.80482], [-98.66255, 36.80316], [-98.66796, 36.8032], [-98.66796, 36.80482], [-98.66796, 36.80562], [-98.66248, 36.8056], [-98.6625, 36.80482]]]}}, {"type": "Feature", "properties": {"area_id": 10128, "city": "Alva", "state": "OK", "city_survey": false, "cat": "Industrial Section", "grade": null, "label": "Industrial Section", "res": false, "com": false, "ind": true, "holc_grade": null}, "geometry": {"type": "Polygon", "coordinates": [[[-98.67007, 36.80866], [-98.666782, 36.808705], [-98.66203, 36.80877], [-98.66205, 36.80802], [-98.66214, 36.8056], [-98.66248, 36.8056], [-98.66796, 36.80562], [-98.670102, 36.80562], [-98.67012, 36.80562], [-98.67007, 36.80866]]]}}]}