{"type": "FeatureCollection", "features": [{"type": "Feature", "properties": {"area_id": 7889, "city": "Brockton", "state": "MA", "city_survey": true, "cat": "Best", "grade": "A", "label": "A1", "res": true, "com": false, "ind": false, "holc_grade": "A"}, "geometry": {"type": "MultiPolygon", "coordinates": [[[[-71.0504, 42.07302], [-71.04803, 42.07349], [-71.04785, 42.07285], [-71.04765, 42.07219], [-71.0476, 42.0719], [-71.04744, 42.07143], [-71.04766, 42.0714], [-71.04984, 42.07099], [-71.05015, 42.07209], [-71.05027, 42.07252], [-71.0504, 42.07302]]], [[[-71.05547, 42.08699], [-71.05529, 42.08637], [-71.05528, 42.08606], [-71.05498, 42.08487], [-71.05469, 42.08382], [-71.05466, 42.08356], [-71.05447, 42.08297], [-71.05444, 42.08278], [-71.05431, 42.0825], [-71.05392, 42.08102], [-71.05368, 42.08015], [-71.05355, 42.07969], [-71.05352, 42.07927], [-71.05333, 42.07865], [-71.05328, 42.07836], [-71.0532, 42.07815], [-71.05305, 42.07758], [-71.05296, 42.07726], [-71.05291, 42.07695], [-71.0528, 42.07667], [-71.05277, 42.07643], [-71.0526, 42.07591], [-71.05239, 42.07527], [-71.05226, 42.07472], [-71.05207, 42.07419], [-71.05184, 42.07342], [-71.05178, 42.0732], [-71.05172, 42.07297], [-71.05178, 42.07295], [-71.05246, 42.07282], [-71.0536, 42.07265], [-71.05437, 42.07253], [-71.05565, 42.07235], [-71.05568, 42.0729], [-71.05576, 42.07318], [-71.05594, 42.07401], [-71.05614, 42.07486], [-71.05621, 42.07544], [-71.0563, 42.076], [-71.05638, 42.07637], [-71.05648, 42.07665], [-71.05665, 42.07679], [-71.05686, 42.07685], [-71.05723, 42.07686], [-71.05766, 42.07688], [-71.05828, 42.07692], [-71.05857, 42.07687], [-71.0594, 42.07672], [-71.06019, 42.07662], [-71.06069, 42.07654], [-71.06112, 42.07649], [-71.06141, 42.07802], [-71.06079, 42.07816], [-71.06013, 42.07825], [-71.05845, 42.07853], [-71.05789, 42.07859], [-71.05749, 42.07868], [-71.05767, 42.07944], [-71.05791, 42.08031], [-71.05799, 42.0807], [-71.05801, 42.081], [-71.05818, 42.08155], [-71.05831, 42.08212], [-71.05836, 42.08243], [-71.05849, 42.08288], [-71.05873, 42.08386], [-71.0589, 42.08433], [-71.05924, 42.08428], [-71.0598, 42.08421], [-71.06025, 42.08417], [-71.06064, 42.08413], [-71.06121, 42.08409], [-71.06254, 42.08386], [-71.06255, 42.08394], [-71.0627, 42.08501], [-71.06284, 42.08514], [-71.06294, 42.08562], [-71.06316, 42.08652], [-71.06359, 42.0883], [-71.063747, 42.089111], [-71.06376, 42.08918], [-71.06386, 42.08977], [-71.064, 42.09019], [-71.06138, 42.0905], [-71.06139, 42.09055], [-71.06112, 42.09051], [-71.05993, 42.09023], [-71.05771, 42.08977], [-71.056, 42.08949], [-71.05595, 42.08934], [-71.0559, 42.08897], [-71.055557, 42.087537], [-71.05555, 42.08751], [-71.05551, 42.08725], [-71.05547, 42.08699]]]]}}, {"type": "Feature", "properties": {"area_id": 7896, "city": "Brockton", "state": "MA", "city_survey": true, "cat": "Best", "grade": "A", "label": "A2", "res": true, "com": false, "ind": false, "holc_grade": "A"}, "geometry": {"type": "Polygon", "coordinates": [[[-71.04428, 42.08535], [-71.04414, 42.08458], [-71.04368, 42.0829], [-71.04318, 42.08119], [-71.04216, 42.08125], [-71.04088, 42.08145], [-71.039, 42.08169], [-71.03777, 42.0818], [-71.03783, 42.08242], [-71.03792, 42.08272], [-71.03803, 42.08323], [-71.03813, 42.08377], [-71.03819, 42.08444], [-71.03745, 42.08458], [-71.0374, 42.08378], [-71.03731, 42.08358], [-71.03721, 42.08308], [-71.03712, 42.08261], [-71.03704, 42.08201], [-71.03697, 42.08144], [-71.03689, 42.08092], [-71.0368, 42.08019], [-71.03783, 42.08006], [-71.03758, 42.07881], [-71.03741, 42.07779], [-71.03853, 42.07767], [-71.03999, 42.07751], [-71.03999, 42.07774], [-71.04019, 42.07879], [-71.04027, 42.07923], [-71.04034, 42.07959], [-71.04042, 42.07972], [-71.04238, 42.07941], [-71.044143, 42.079232], [-71.04416, 42.07923], [-71.04493, 42.08271], [-71.04545, 42.08269], [-71.04685, 42.08256], [-71.04739, 42.08249], [-71.04846, 42.08224], [-71.04901, 42.08208], [-71.04902, 42.0823], [-71.04961, 42.08361], [-71.05002, 42.0846], [-71.05016, 42.08504], [-71.05035, 42.08553], [-71.04974, 42.08566], [-71.04799, 42.08593], [-71.04639, 42.08614], [-71.046075, 42.086177], [-71.04451, 42.08636], [-71.04428, 42.08535]]]}}, {"type": "Feature", "properties": {"area_id": 7892, "city": "Brockton", "state": "MA", "city_survey": true, "cat": "Still Desirable", "grade": "B", "label": "B1", "res": true, "com": false, "ind": false, "holc_grade": "B"}, "geometry": {"type": "Polygon", "coordinates": [[[-71.02739, 42.05639], [-71.02834, 42.05712], [-71.02846, 42.05725], [-71.0291, 42.05748], [-71.02914, 42.05755], [-71.029111, 42.057592], [-71.02789, 42.059336], [-71.02709, 42.06048], [-71.02651, 42.06116], [-71.02576, 42.06174], [-71.02663, 42.06279], [-71.02723, 42.06343], [-71.02818, 42.06424], [-71.02915, 42.06513], [-71.02976, 42.06567], [-71.03011, 42.0661], [-71.03044, 42.06645], [-71.03059, 42.06676], [-71.0308, 42.06693], [-71.03168, 42.06779], [-71.03183, 42.0679], [-71.03215, 42.06813], [-71.03266, 42.06836], [-71.03279, 42.06846], [-71.03286, 42.0687], [-71.03293, 42.06927], [-71.03305, 42.06956], [-71.03321, 42.07009], [-71.033308, 42.070577], [-71.03344, 42.07123], [-71.03371, 42.07232], [-71.03385, 42.07276], [-71.03392, 42.07329], [-71.03418, 42.07432], [-71.03433, 42.07498], [-71.03441, 42.07547], [-71.03455, 42.07597], [-71.03475, 42.07738], [-71.03422, 42.07757], [-71.03341, 42.07771], [-71.03235, 42.0779], [-71.032052, 42.077945], [-71.03155, 42.07802], [-71.0313, 42.07666], [-71.03102, 42.07528], [-71.03076, 42.0745], [-71.03074, 42.07417], [-71.03059, 42.07359], [-71.03026, 42.07197], [-71.03013, 42.07166], [-71.029985, 42.071188], [-71.02949, 42.06958], [-71.02933, 42.06866], [-71.02921, 42.06826], [-71.02893, 42.06771], [-71.028714, 42.067338], [-71.02804, 42.06618], [-71.02777, 42.06556], [-71.02692, 42.0657], [-71.02553, 42.06601], [-71.024109, 42.06634], [-71.02299, 42.0666], [-71.0218, 42.06688], [-71.02108, 42.06695], [-71.02059, 42.06706], [-71.02048, 42.06641], [-71.0204, 42.0661], [-71.02032, 42.06586], [-71.02027, 42.06526], [-71.01984, 42.06376], [-71.0181, 42.06411], [-71.01662, 42.06444], [-71.01631, 42.06447], [-71.0156, 42.06277], [-71.01523, 42.06275], [-71.01488, 42.06201], [-71.01354, 42.06232], [-71.0134, 42.06181], [-71.01342, 42.06095], [-71.01342, 42.0606], [-71.01343, 42.05992], [-71.01329, 42.05928], [-71.01297, 42.05827], [-71.01292, 42.05793], [-71.0128, 42.05785], [-71.01294, 42.05774], [-71.01336, 42.05769], [-71.01363, 42.05762], [-71.01404, 42.05748], [-71.01432, 42.05848], [-71.01461, 42.05939], [-71.01503, 42.06048], [-71.01744, 42.06002], [-71.01817, 42.05991], [-71.01819, 42.05985], [-71.01814, 42.05962], [-71.0179, 42.05896], [-71.01752, 42.05789], [-71.01729, 42.05711], [-71.01713, 42.05673], [-71.0178, 42.05613], [-71.01824, 42.05569], [-71.01976, 42.05426], [-71.01977, 42.05403], [-71.01968, 42.0538], [-71.01957, 42.05341], [-71.01951, 42.05325], [-71.01934, 42.05294], [-71.01935, 42.05276], [-71.01926, 42.05263], [-71.01903, 42.05212], [-71.0186, 42.05126], [-71.01842, 42.05105], [-71.01836, 42.05075], [-71.01806, 42.05039], [-71.01763, 42.04982], [-71.01706, 42.04903], [-71.01684, 42.04868], [-71.01678, 42.04841], [-71.01675, 42.04804], [-71.01668, 42.04704], [-71.01662, 42.04646], [-71.01882, 42.04647], [-71.02058, 42.04657], [-71.02118, 42.04659], [-71.02174, 42.04664], [-71.02184, 42.04747], [-71.02196, 42.04781], [-71.02199, 42.0481], [-71.02208, 42.04851], [-71.02223, 42.04905], [-71.0225, 42.05052], [-71.02266, 42.05125], [-71.02272, 42.05155], [-71.02276, 42.05184], [-71.02292, 42.05267], [-71.02295, 42.05313], [-71.02447, 42.05422], [-71.02484, 42.05456], [-71.02509, 42.05469], [-71.025435, 42.054935], [-71.02561, 42.05506], [-71.02614, 42.05549], [-71.02739, 42.05639]]]}}, {"type": "Feature", "properties": {"area_id": 7888, "city": "Brockton", "state": "MA", "city_survey": true, "cat": "Still Desirable", "grade": "B", "label": "B2", "res": true, "com": false, "ind": false, "holc_grade": "B"}, "geometry": {"type": "Polygon", "coordinates": [[[-71.05534, 42.07129], [-71.05603, 42.07117], [-71.05677, 42.0711], [-71.05725, 42.07107], [-71.05789, 42.07099], [-71.05831, 42.07091], [-71.05878, 42.07085], [-71.05904, 42.07084], [-71.05963, 42.0708], [-71.05991, 42.07074], [-71.06076, 42.07056], [-71.06135, 42.07047], [-71.06204, 42.07039], [-71.06284, 42.07028], [-71.06337, 42.07021], [-71.06376, 42.07017], [-71.06482, 42.07003], [-71.06552, 42.06999], [-71.06586, 42.07], [-71.06586, 42.070608], [-71.06586, 42.07106], [-71.06581, 42.07169], [-71.06575, 42.07195], [-71.06578, 42.07231], [-71.06575, 42.07263], [-71.06565, 42.07479], [-71.0656, 42.07503], [-71.06556, 42.07665], [-71.06556, 42.07944], [-71.06547, 42.07973], [-71.06547, 42.08006], [-71.06544, 42.08034], [-71.06548, 42.08209], [-71.06543, 42.08275], [-71.06538, 42.08331], [-71.06537, 42.08397], [-71.06528, 42.0856], [-71.06524, 42.08629], [-71.06515, 42.08752], [-71.06509, 42.08795], [-71.065037, 42.089315], [-71.06503, 42.0895], [-71.06498, 42.09094], [-71.06441, 42.09102], [-71.06438, 42.09111], [-71.06444, 42.0915], [-71.0645, 42.09184], [-71.06183, 42.09215], [-71.06167, 42.09148], [-71.0616, 42.09122], [-71.06143, 42.09086], [-71.0614, 42.09067], [-71.06139, 42.09055], [-71.06138, 42.0905], [-71.064, 42.09019], [-71.06386, 42.08977], [-71.06376, 42.08918], [-71.063747, 42.089111], [-71.06359, 42.0883], [-71.06316, 42.08652], [-71.06294, 42.08562], [-71.06284, 42.08514], [-71.0627, 42.08501], [-71.06255, 42.08394], [-71.06254, 42.08386], [-71.06225, 42.08217], [-71.06203, 42.08108], [-71.06182, 42.07996], [-71.06141, 42.07802], [-71.06112, 42.07649], [-71.06109, 42.07632], [-71.06026, 42.07262], [-71.05997, 42.07152], [-71.05911, 42.07169], [-71.05867, 42.07175], [-71.05776, 42.07193], [-71.05724, 42.07206], [-71.05693, 42.07208], [-71.05661, 42.07215], [-71.05565, 42.07235], [-71.05437, 42.07253], [-71.0536, 42.07265], [-71.05246, 42.07282], [-71.05178, 42.07295], [-71.05172, 42.07297], [-71.05138, 42.07306], [-71.05045, 42.07321], [-71.0504, 42.07302], [-71.05027, 42.07252], [-71.05015, 42.07209], [-71.05044, 42.07208], [-71.05068, 42.07204], [-71.05099, 42.07198], [-71.05174, 42.07182], [-71.05259, 42.0717], [-71.05299, 42.07161], [-71.053894, 42.071499], [-71.05494, 42.07137], [-71.05534, 42.07129]]]}}, {"type": "Feature", "properties": {"area_id": 7895, "city": "Brockton", "state": "MA", "city_survey": true, "cat": "Still Desirable", "grade": "B", "label": "B3", "res": true, "com": false, "ind": false, "holc_grade": "B"}, "geometry": {"type": "Polygon", "coordinates": [[[-71.043178, 42.075244], [-71.04339, 42.07574], [-71.04366, 42.07692], [-71.044067, 42.078802], [-71.04416, 42.07923], [-71.044143, 42.079232], [-71.04238, 42.07941], [-71.04042, 42.07972], [-71.04034, 42.07959], [-71.04027, 42.07923], [-71.04019, 42.07879], [-71.03999, 42.07774], [-71.03999, 42.07751], [-71.03853, 42.07767], [-71.03741, 42.07779], [-71.03758, 42.07881], [-71.03783, 42.08006], [-71.0368, 42.08019], [-71.03689, 42.08092], [-71.03697, 42.08144], [-71.03704, 42.08201], [-71.03712, 42.08261], [-71.03721, 42.08308], [-71.03731, 42.08358], [-71.0374, 42.08378], [-71.03745, 42.08458], [-71.03819, 42.08444], [-71.03813, 42.08377], [-71.03803, 42.08323], [-71.03792, 42.08272], [-71.03783, 42.08242], [-71.03777, 42.0818], [-71.039, 42.08169], [-71.04088, 42.08145], [-71.04216, 42.08125], [-71.04318, 42.08119], [-71.04368, 42.0829], [-71.04414, 42.08458], [-71.04428, 42.08535], [-71.04451, 42.08636], [-71.046075, 42.086177], [-71.04639, 42.08614], [-71.04799, 42.08593], [-71.04974, 42.08566], [-71.05035, 42.08553], [-71.05056, 42.08591], [-71.051, 42.08706], [-71.05127, 42.08785], [-71.051318, 42.088046], [-71.05147, 42.08866], [-71.05162, 42.08923], [-71.05071, 42.08931], [-71.04938, 42.08952], [-71.048664, 42.089631], [-71.04744, 42.08982], [-71.04647, 42.08995], [-71.04542, 42.09006], [-71.04445, 42.09021], [-71.04369, 42.09031], [-71.0431, 42.09033], [-71.04287, 42.09029], [-71.04257, 42.09009], [-71.04223, 42.08978], [-71.04204, 42.08967], [-71.04176, 42.08962], [-71.04146, 42.08964], [-71.04117, 42.08967], [-71.04101, 42.08977], [-71.04088, 42.08971], [-71.04066, 42.08974], [-71.04021, 42.08994], [-71.03984, 42.09008], [-71.03953, 42.09011], [-71.039394, 42.090116], [-71.03908, 42.09013], [-71.038411, 42.090144], [-71.03383, 42.09024], [-71.03294, 42.0905], [-71.03224, 42.09069], [-71.03168, 42.09078], [-71.03049, 42.09094], [-71.02889, 42.09112], [-71.028886, 42.091107], [-71.02839, 42.08947], [-71.02838, 42.08783], [-71.02742, 42.08774], [-71.02638, 42.08707], [-71.02534, 42.08643], [-71.02511, 42.08629], [-71.02483, 42.08633], [-71.02474, 42.0863], [-71.02449, 42.08621], [-71.02439, 42.08559], [-71.02395, 42.08546], [-71.02379, 42.08485], [-71.02353, 42.08387], [-71.02432, 42.0838], [-71.02426, 42.08321], [-71.02436, 42.08316], [-71.0259, 42.08302], [-71.02603, 42.0829], [-71.02595, 42.08184], [-71.0258, 42.08137], [-71.02578, 42.08101], [-71.02553, 42.08048], [-71.0245, 42.08055], [-71.02442, 42.07908], [-71.02442, 42.07884], [-71.0246, 42.07879], [-71.02539, 42.07875], [-71.02633, 42.0786], [-71.02718, 42.07844], [-71.02769, 42.07839], [-71.028246, 42.078352], [-71.02946, 42.07827], [-71.03019, 42.07819], [-71.03084, 42.0781], [-71.03155, 42.07802], [-71.032052, 42.077945], [-71.03235, 42.0779], [-71.03341, 42.07771], [-71.03422, 42.07757], [-71.03475, 42.07738], [-71.03681, 42.07656], [-71.03788, 42.07617], [-71.04138, 42.07471], [-71.04232, 42.07491], [-71.04289, 42.07502], [-71.043052, 42.075051], [-71.0431, 42.07506], [-71.043178, 42.075244]]]}}, {"type": "Feature", "properties": {"area_id": 7891, "city": "Brockton", "state": "MA", "city_survey": true, "cat": "Definitely Declining", "grade": "C", "label": "C1", "res": true, "com": false, "ind": false, "holc_grade": "C"}, "geometry": {"type": "Polygon", "coordinates": [[[-71.053279, 42.051709], [-71.05384, 42.05166], [-71.05395, 42.05225], [-71.05402, 42.05284], [-71.05419, 42.05463], [-71.05426, 42.05499], [-71.05429, 42.05612], [-71.053, 42.05667], [-71.05154, 42.05727], [-71.04945, 42.05807], [-71.04704, 42.05898], [-71.04662, 42.05911], [-71.045707, 42.059427], [-71.04489, 42.05971], [-71.04291, 42.06036], [-71.0416, 42.06087], [-71.04144, 42.06097], [-71.04155, 42.06133], [-71.04158, 42.06176], [-71.04161, 42.06236], [-71.04168, 42.06292], [-71.04179, 42.06436], [-71.04188, 42.06579], [-71.04179, 42.06702], [-71.04176, 42.0671], [-71.04156, 42.06713], [-71.0413, 42.06713], [-71.04114, 42.06718], [-71.04099, 42.06724], [-71.04083, 42.06739], [-71.04075, 42.0675], [-71.04083, 42.06767], [-71.04103, 42.06786], [-71.04115, 42.06801], [-71.04112, 42.06816], [-71.04089, 42.06848], [-71.04088, 42.06866], [-71.04082, 42.06888], [-71.0409, 42.06906], [-71.04112, 42.06914], [-71.04169, 42.06935], [-71.04185, 42.06934], [-71.04208, 42.06948], [-71.04218, 42.06962], [-71.04221, 42.06977], [-71.04252, 42.07007], [-71.04289, 42.07024], [-71.04359, 42.07048], [-71.04384, 42.07049], [-71.04397, 42.07037], [-71.04408, 42.07037], [-71.04416, 42.07044], [-71.04419, 42.07058], [-71.04431, 42.07064], [-71.04454, 42.07053], [-71.0447, 42.07052], [-71.0448, 42.07049], [-71.04502, 42.07027], [-71.04514, 42.07027], [-71.04538, 42.07032], [-71.045642, 42.070534], [-71.04571, 42.07059], [-71.04512, 42.07098], [-71.04416, 42.07185], [-71.04407, 42.071819], [-71.043768, 42.071712], [-71.04208, 42.07112], [-71.04066, 42.07056], [-71.03889, 42.06978], [-71.03842, 42.06973], [-71.03784, 42.06978], [-71.037444, 42.069821], [-71.03726, 42.06984], [-71.03684, 42.06991], [-71.036649, 42.069971], [-71.03659, 42.06999], [-71.0369, 42.07116], [-71.03626, 42.07365], [-71.03625, 42.07393], [-71.03681, 42.07656], [-71.03475, 42.07738], [-71.03455, 42.07597], [-71.03441, 42.07547], [-71.03433, 42.07498], [-71.03418, 42.07432], [-71.03392, 42.07329], [-71.03385, 42.07276], [-71.03371, 42.07232], [-71.03344, 42.07123], [-71.033308, 42.070577], [-71.03321, 42.07009], [-71.03305, 42.06956], [-71.03293, 42.06927], [-71.03286, 42.0687], [-71.03279, 42.06846], [-71.03266, 42.06836], [-71.03215, 42.06813], [-71.03183, 42.0679], [-71.03168, 42.06779], [-71.0308, 42.06693], [-71.03059, 42.06676], [-71.03044, 42.06645], [-71.03011, 42.0661], [-71.02976, 42.06567], [-71.02915, 42.06513], [-71.02818, 42.06424], [-71.02723, 42.06343], [-71.02663, 42.06279], [-71.02576, 42.06174], [-71.02651, 42.06116], [-71.02709, 42.06048], [-71.02789, 42.059336], [-71.029111, 42.057592], [-71.02914, 42.05755], [-71.0291, 42.05748], [-71.02846, 42.05725], [-71.02834, 42.05712], [-71.02739, 42.05639], [-71.02614, 42.05549], [-71.02561, 42.05506], [-71.025767, 42.055047], [-71.026948, 42.054945], [-71.02701, 42.05494], [-71.02738, 42.0549], [-71.02946, 42.05468], [-71.03141, 42.05444], [-71.03191, 42.05439], [-71.03365, 42.05419], [-71.03512, 42.05401], [-71.03558, 42.05392], [-71.03636, 42.05383], [-71.03751, 42.0537], [-71.03803, 42.05363], [-71.03926, 42.05353], [-71.04016, 42.05339], [-71.04079, 42.05335], [-71.04164, 42.05324], [-71.0437, 42.05306], [-71.044215, 42.052992], [-71.04461, 42.05294], [-71.04553, 42.0529], [-71.04574, 42.05286], [-71.04688, 42.0527], [-71.05076, 42.05209], [-71.05099, 42.05202], [-71.05199, 42.05192], [-71.053075, 42.051735], [-71.05316, 42.05172], [-71.053279, 42.051709]]]}}, {"type": "Feature", "properties": {"area_id": 7894, "city": "Brockton", "state": "MA", "city_survey": true, "cat": "Definitely Declining", "grade": "C", "label": "C10", "res": true, "com": false, "ind": false, "holc_grade": "C"}, "geometry": {"type": "Polygon", "coordinates": [[[-71.01715, 42.06571], [-71.01661, 42.06482], [-71.01631, 42.06447], [-71.01662, 42.06444], [-71.0181, 42.06411], [-71.01984, 42.06376], [-71.02027, 42.06526], [-71.02032, 42.06586], [-71.0204, 42.0661], [-71.02048, 42.06641], [-71.02059, 42.06706], [-71.02108, 42.06695], [-71.0218, 42.06688], [-71.02299, 42.0666], [-71.024109, 42.06634], [-71.02553, 42.06601], [-71.02692, 42.0657], [-71.02777, 42.06556], [-71.02804, 42.06618], [-71.028714, 42.067338], [-71.02893, 42.06771], [-71.02921, 42.06826], [-71.02933, 42.06866], [-71.02949, 42.06958], [-71.029985, 42.071188], [-71.03013, 42.07166], [-71.03026, 42.07197], [-71.03059, 42.07359], [-71.03074, 42.07417], [-71.03076, 42.0745], [-71.03102, 42.07528], [-71.0313, 42.07666], [-71.03155, 42.07802], [-71.03084, 42.0781], [-71.03019, 42.07819], [-71.02946, 42.07827], [-71.028246, 42.078352], [-71.02769, 42.07839], [-71.02718, 42.07844], [-71.02633, 42.0786], [-71.02539, 42.07875], [-71.0246, 42.07879], [-71.02442, 42.07884], [-71.02442, 42.07908], [-71.0245, 42.08055], [-71.0234, 42.08064], [-71.02327, 42.08029], [-71.0231, 42.07983], [-71.02288, 42.07913], [-71.02278, 42.0784], [-71.022754, 42.078221], [-71.02263, 42.07738], [-71.022082, 42.077291], [-71.02195, 42.07727], [-71.02132, 42.07734], [-71.02025, 42.07747], [-71.020067, 42.076639], [-71.01963, 42.07466], [-71.01949, 42.07365], [-71.01911, 42.07375], [-71.01818, 42.07388], [-71.017084, 42.073958], [-71.01706, 42.07396], [-71.01672, 42.07267], [-71.01634, 42.07125], [-71.01589, 42.06972], [-71.015441, 42.068289], [-71.0154, 42.06816], [-71.01481, 42.06637], [-71.01463, 42.06556], [-71.01446, 42.06534], [-71.01435, 42.06506], [-71.01423, 42.06464], [-71.01519, 42.06442], [-71.01552, 42.06538], [-71.01557, 42.06587], [-71.01606, 42.06711], [-71.01625, 42.06763], [-71.016348, 42.068072], [-71.01639, 42.06826], [-71.01677, 42.06914], [-71.01704, 42.0697], [-71.01738, 42.07035], [-71.01833, 42.07018], [-71.01867, 42.07007], [-71.01838, 42.06916], [-71.017854, 42.067766], [-71.01775, 42.06749], [-71.01736, 42.06628], [-71.01715, 42.06571]]]}}, {"type": "Feature", "properties": {"area_id": 7890, "city": "Brockton", "state": "MA", "city_survey": true, "cat": "Definitely Declining", "grade": "C", "label": "C2", "res": true, "com": false, "ind": false, "holc_grade": "C"}, "geometry": {"type": "Polygon", "coordinates": [[[-71.0458, 42.06706], [-71.04528, 42.06604], [-71.04713, 42.06566], [-71.04871, 42.06532], [-71.049284, 42.065207], [-71.05085, 42.0649], [-71.05246, 42.06453], [-71.05407, 42.06414], [-71.05589, 42.06373], [-71.05726, 42.06345], [-71.05974, 42.06386], [-71.06021, 42.0639], [-71.0624, 42.06421], [-71.06322, 42.06435], [-71.06477, 42.06452], [-71.06788, 42.06488], [-71.06917, 42.06677], [-71.06953, 42.06721], [-71.06714, 42.06918], [-71.06626, 42.06979], [-71.06586, 42.07], [-71.06552, 42.06999], [-71.06482, 42.07003], [-71.06376, 42.07017], [-71.06337, 42.07021], [-71.06284, 42.07028], [-71.06204, 42.07039], [-71.06135, 42.07047], [-71.06076, 42.07056], [-71.05991, 42.07074], [-71.05963, 42.0708], [-71.05904, 42.07084], [-71.05878, 42.07085], [-71.05831, 42.07091], [-71.05789, 42.07099], [-71.05725, 42.07107], [-71.05677, 42.0711], [-71.05603, 42.07117], [-71.05534, 42.07129], [-71.05494, 42.07137], [-71.053894, 42.071499], [-71.05299, 42.07161], [-71.05259, 42.0717], [-71.05174, 42.07182], [-71.05099, 42.07198], [-71.05068, 42.07204], [-71.050374, 42.07077], [-71.05033, 42.07059], [-71.05017, 42.06958], [-71.05011, 42.069564], [-71.04911, 42.0693], [-71.04852, 42.06909], [-71.04823, 42.068995], [-71.04639, 42.06839], [-71.04616, 42.06782], [-71.0458, 42.06706]]]}}, {"type": "Feature", "properties": {"area_id": 7887, "city": "Brockton", "state": "MA", "city_survey": true, "cat": "Definitely Declining", "grade": "C", "label": "C3", "res": true, "com": false, "ind": false, "holc_grade": "C"}, "geometry": {"type": "Polygon", "coordinates": [[[-71.05752, 42.09966], [-71.05722, 42.09887], [-71.05724, 42.09868], [-71.05735, 42.09843], [-71.05755, 42.09788], [-71.058, 42.09669], [-71.05836, 42.09563], [-71.0587, 42.09466], [-71.058998, 42.093913], [-71.05913, 42.09358], [-71.05933, 42.0932], [-71.05935, 42.09304], [-71.05959, 42.09253], [-71.05971, 42.09241], [-71.06103, 42.09225], [-71.06183, 42.09215], [-71.0645, 42.09184], [-71.06459, 42.09248], [-71.0648, 42.09325], [-71.06488, 42.09349], [-71.06608, 42.09332], [-71.06639, 42.09441], [-71.06642, 42.09474], [-71.06687, 42.09675], [-71.06759, 42.09898], [-71.06811, 42.10014], [-71.068168, 42.100424], [-71.0682, 42.10058], [-71.06688, 42.10106], [-71.063973, 42.102098], [-71.06394, 42.10211], [-71.06152, 42.10305], [-71.06005, 42.10363], [-71.05869, 42.10298], [-71.05858, 42.10277], [-71.05847, 42.10246], [-71.05797, 42.10101], [-71.05795, 42.10083], [-71.057618, 42.099983], [-71.05757, 42.09986], [-71.05752, 42.09966]]]}}, {"type": "Feature", "properties": {"area_id": 7897, "city": "Brockton", "state": "MA", "city_survey": true, "cat": "Definitely Declining", "grade": "C", "label": "C4", "res": true, "com": false, "ind": false, "holc_grade": "C"}, "geometry": {"type": "Polygon", "coordinates": [[[-71.03953, 42.09011], [-71.03984, 42.09008], [-71.04021, 42.08994], [-71.04066, 42.08974], [-71.04088, 42.08971], [-71.04101, 42.08977], [-71.04113, 42.09003], [-71.04141, 42.0903], [-71.04195, 42.09075], [-71.04243, 42.091], [-71.04283, 42.09122], [-71.04314, 42.09128], [-71.04339, 42.09147], [-71.04347, 42.09173], [-71.04348, 42.09206], [-71.04347, 42.09222], [-71.0433, 42.09234], [-71.04324, 42.09247], [-71.04343, 42.09268], [-71.04367, 42.093], [-71.04379, 42.09326], [-71.04383, 42.09361], [-71.04379, 42.09388], [-71.04399, 42.09402], [-71.04407, 42.09413], [-71.04403, 42.09424], [-71.0439, 42.09427], [-71.04385, 42.09439], [-71.04383, 42.09452], [-71.04372, 42.09457], [-71.04364, 42.09461], [-71.04374, 42.09471], [-71.04377, 42.09481], [-71.04367, 42.09492], [-71.04361, 42.09501], [-71.04379, 42.09515], [-71.04394, 42.09531], [-71.04411, 42.09538], [-71.04409, 42.09547], [-71.0439, 42.09552], [-71.04372, 42.0956], [-71.04375, 42.09571], [-71.04385, 42.0959], [-71.04399, 42.096], [-71.04407, 42.09602], [-71.04424, 42.09585], [-71.0443, 42.09577], [-71.04445, 42.09579], [-71.04461, 42.09586], [-71.04461, 42.096], [-71.04472, 42.09613], [-71.04424, 42.09678], [-71.04419, 42.09711], [-71.04406, 42.09733], [-71.04386, 42.09752], [-71.04339, 42.09784], [-71.04322, 42.09794], [-71.04307, 42.09832], [-71.04296, 42.09851], [-71.04283, 42.09869], [-71.0426, 42.09882], [-71.04228, 42.09895], [-71.042, 42.09911], [-71.04169, 42.09936], [-71.04141, 42.09964], [-71.04121, 42.09999], [-71.04106, 42.10038], [-71.04096, 42.10058], [-71.04089, 42.10113], [-71.03617, 42.1034], [-71.035701, 42.103638], [-71.0356, 42.10369], [-71.0344, 42.10422], [-71.03378, 42.10342], [-71.03324, 42.1028], [-71.03273, 42.10208], [-71.032598, 42.101853], [-71.03248, 42.10165], [-71.032, 42.10073], [-71.0316, 42.09978], [-71.03129, 42.09894], [-71.03096, 42.09829], [-71.030873, 42.097875], [-71.03087, 42.09786], [-71.03061, 42.09735], [-71.03037, 42.0969], [-71.03014, 42.0964], [-71.02984, 42.09576], [-71.02943, 42.09464], [-71.02906, 42.09362], [-71.02899, 42.09342], [-71.02873, 42.09269], [-71.02858, 42.09217], [-71.02834, 42.09153], [-71.02834, 42.09119], [-71.02889, 42.09112], [-71.03049, 42.09094], [-71.03168, 42.09078], [-71.03224, 42.09069], [-71.03294, 42.0905], [-71.03383, 42.09024], [-71.038411, 42.090144], [-71.03908, 42.09013], [-71.039394, 42.090116], [-71.03953, 42.09011]]]}}, {"type": "Feature", "properties": {"area_id": 7898, "city": "Brockton", "state": "MA", "city_survey": true, "cat": "Definitely Declining", "grade": "C", "label": "C5", "res": true, "com": false, "ind": false, "holc_grade": "C"}, "geometry": {"type": "Polygon", "coordinates": [[[-71.02534, 42.08643], [-71.02638, 42.08707], [-71.02742, 42.08774], [-71.02838, 42.08783], [-71.02839, 42.08947], [-71.028886, 42.091107], [-71.02889, 42.09112], [-71.02834, 42.09119], [-71.02834, 42.09153], [-71.02858, 42.09217], [-71.02873, 42.09269], [-71.02899, 42.09342], [-71.02906, 42.09362], [-71.02943, 42.09464], [-71.02984, 42.09576], [-71.03014, 42.0964], [-71.03037, 42.0969], [-71.03061, 42.09735], [-71.03087, 42.09786], [-71.030873, 42.097875], [-71.03096, 42.09829], [-71.03129, 42.09894], [-71.0316, 42.09978], [-71.032, 42.10073], [-71.03248, 42.10165], [-71.032598, 42.101853], [-71.03273, 42.10208], [-71.03324, 42.1028], [-71.03378, 42.10342], [-71.0344, 42.10422], [-71.03466, 42.1045], [-71.03523, 42.10522], [-71.035239, 42.105233], [-71.03583, 42.10607], [-71.03636, 42.10671], [-71.036607, 42.107066], [-71.03718, 42.10789], [-71.037341, 42.108012], [-71.03739, 42.10805], [-71.037838, 42.108486], [-71.038422, 42.109054], [-71.03849, 42.10912], [-71.03887, 42.10958], [-71.039348, 42.110224], [-71.03936, 42.11024], [-71.03986, 42.11095], [-71.04011, 42.11127], [-71.040256, 42.11148], [-71.04027, 42.1115], [-71.03598, 42.11323], [-71.03423, 42.11395], [-71.032028, 42.114731], [-71.03144, 42.11494], [-71.02906, 42.11587], [-71.02638, 42.11693], [-71.02611, 42.11665], [-71.02579, 42.11642], [-71.02548, 42.11611], [-71.02525, 42.11586], [-71.025192, 42.115805], [-71.02437, 42.11503], [-71.02333, 42.114], [-71.02348, 42.1138], [-71.02361, 42.11343], [-71.02357, 42.11313], [-71.02338, 42.11241], [-71.02299, 42.11073], [-71.02263, 42.10942], [-71.023368, 42.109038], [-71.02348, 42.10898], [-71.02497, 42.1083], [-71.02473, 42.10797], [-71.02388, 42.10688], [-71.023158, 42.105998], [-71.02261, 42.10533], [-71.02224, 42.10545], [-71.02183, 42.10495], [-71.02102, 42.10524], [-71.020518, 42.104527], [-71.01985, 42.10358], [-71.018868, 42.102098], [-71.01873, 42.10189], [-71.018205, 42.101131], [-71.0179, 42.10069], [-71.017811, 42.100491], [-71.01761, 42.10004], [-71.01726, 42.09913], [-71.01702, 42.09831], [-71.016906, 42.097541], [-71.01686, 42.09723], [-71.016801, 42.095735], [-71.016731, 42.093965], [-71.01673, 42.09395], [-71.016777, 42.093942], [-71.01938, 42.0935], [-71.01948, 42.09197], [-71.01946, 42.09096], [-71.019451, 42.089078], [-71.01945, 42.08889], [-71.01955, 42.08777], [-71.02297, 42.08767], [-71.02274, 42.08657], [-71.023687, 42.086442], [-71.02474, 42.0863], [-71.02483, 42.08633], [-71.02511, 42.08629], [-71.02534, 42.08643]]]}}, {"type": "Feature", "properties": {"area_id": 7899, "city": "Brockton", "state": "MA", "city_survey": true, "cat": "Definitely Declining", "grade": "C", "label": "C6", "res": true, "com": false, "ind": false, "holc_grade": "C"}, "geometry": {"type": "Polygon", "coordinates": [[[-70.99385, 42.09795], [-70.99553, 42.09773], [-70.99831, 42.0975], [-71.00032, 42.09733], [-71.00067, 42.09726], [-71.00261, 42.09711], [-71.0037, 42.097], [-71.00409, 42.09702], [-71.00456, 42.09694], [-71.00523, 42.09717], [-71.005266, 42.09717], [-71.00543, 42.09717], [-71.00548, 42.09717], [-71.00669, 42.09739], [-71.00774, 42.09747], [-71.00855, 42.09751], [-71.00876, 42.09757], [-71.00877, 42.09789], [-71.00867, 42.09832], [-71.00842, 42.09918], [-71.00825, 42.10027], [-71.00939, 42.10045], [-71.01174, 42.10097], [-71.013, 42.10129], [-71.0135, 42.10138], [-71.01599, 42.10214], [-71.01682, 42.10217], [-71.01697, 42.10232], [-71.0184, 42.1043], [-71.0194, 42.10562], [-71.01973, 42.10617], [-71.02024, 42.10689], [-71.02059, 42.10746], [-71.02119, 42.10827], [-71.02148, 42.10886], [-71.021745, 42.109331], [-71.02184, 42.1095], [-71.02198, 42.10969], [-71.02263, 42.10942], [-71.02299, 42.11073], [-71.02338, 42.11241], [-71.02357, 42.11313], [-71.02361, 42.11343], [-71.02348, 42.1138], [-71.02333, 42.114], [-71.02437, 42.11503], [-71.025192, 42.115805], [-71.02525, 42.11586], [-71.02548, 42.11611], [-71.02579, 42.11642], [-71.02611, 42.11665], [-71.02638, 42.11693], [-71.02558, 42.11725], [-71.025525, 42.117253], [-71.02472, 42.1173], [-71.02347, 42.1174], [-71.02243, 42.1175], [-71.02149, 42.11761], [-71.01846, 42.11791], [-71.01757, 42.118], [-71.01534, 42.11826], [-71.01294, 42.11858], [-71.01055, 42.11893], [-71.00934, 42.11904], [-71.00795, 42.1174], [-71.00691, 42.11627], [-71.0047, 42.11383], [-71.00309, 42.11201], [-71.00283, 42.11175], [-71.00223, 42.11112], [-71.001, 42.11128], [-70.99952, 42.11155], [-70.99871, 42.1116], [-70.998589, 42.111616], [-70.996226, 42.111929], [-70.99592, 42.11197], [-70.99283, 42.11237], [-70.992828, 42.112352], [-70.99274, 42.11171], [-70.99266, 42.11119], [-70.99251, 42.11063], [-70.9924, 42.11021], [-70.99215, 42.10888], [-70.99171, 42.10683], [-70.99146, 42.10584], [-70.99094, 42.10331], [-70.99059, 42.10223], [-70.99052, 42.10163], [-70.98998, 42.09969], [-70.98996, 42.09926], [-70.98986, 42.09895], [-70.989847, 42.098856], [-70.98979, 42.09844], [-70.99212, 42.09816], [-70.99385, 42.09795]]]}}, {"type": "Feature", "properties": {"area_id": 7901, "city": "Brockton", "state": "MA", "city_survey": true, "cat": "Definitely Declining", "grade": "C", "label": "C7", "res": true, "com": false, "ind": false, "holc_grade": "C"}, "geometry": {"type": "Polygon", "coordinates": [[[-70.99353, 42.07393], [-70.9937, 42.07397], [-70.993831, 42.073972], [-70.99633, 42.07402], [-70.99642, 42.07409], [-70.99719, 42.07434], [-70.99792, 42.07452], [-70.9985, 42.0747], [-71.00058, 42.07544], [-71.00229, 42.07592], [-71.00357, 42.07632], [-71.003318, 42.077248], [-71.00329, 42.07735], [-71.00338, 42.07866], [-71.00511, 42.07863], [-71.00554, 42.07858], [-71.00685, 42.07855], [-71.00698, 42.08074], [-71.00702, 42.08123], [-71.00571, 42.08212], [-71.005409, 42.08234], [-71.005303, 42.082419], [-71.00526, 42.08245], [-71.005239, 42.082475], [-71.005202, 42.082521], [-71.005, 42.08277], [-71.00493, 42.08313], [-71.00489, 42.08376], [-71.00415, 42.08382], [-71.004144, 42.083953], [-71.0041, 42.08502], [-71.00393, 42.08616], [-71.00376, 42.08749], [-71.00424, 42.08842], [-71.00457, 42.08914], [-71.00511, 42.09029], [-71.00424, 42.09036], [-71.0035, 42.0904], [-71.00228, 42.09056], [-71.00077, 42.09072], [-70.99953, 42.09082], [-70.99868, 42.09092], [-70.99711, 42.09101], [-70.99616, 42.09112], [-70.99547, 42.09122], [-70.99479, 42.09134], [-70.99359, 42.09161], [-70.99293, 42.09174], [-70.99143, 42.09205], [-70.99049, 42.09219], [-70.98955, 42.09238], [-70.98914, 42.09242], [-70.98839, 42.09263], [-70.9871, 42.09286], [-70.98634, 42.09303], [-70.98436, 42.09351], [-70.98194, 42.09417], [-70.98006, 42.09459], [-70.97863, 42.09492], [-70.97662, 42.09532], [-70.97616, 42.09539], [-70.97527, 42.09524], [-70.97526, 42.09458], [-70.97513, 42.09428], [-70.975115, 42.094268], [-70.97482, 42.09404], [-70.97476, 42.09368], [-70.97488, 42.09344], [-70.97506, 42.09324], [-70.97518, 42.09297], [-70.975261, 42.092925], [-70.97547, 42.09281], [-70.97565, 42.09268], [-70.97566, 42.09238], [-70.9755, 42.09226], [-70.975403, 42.092249], [-70.97532, 42.09224], [-70.97516, 42.09206], [-70.97514, 42.09188], [-70.9753, 42.09171], [-70.975306, 42.091697], [-70.97539, 42.0915], [-70.97534, 42.09116], [-70.975338, 42.091148], [-70.97527, 42.0908], [-70.975556, 42.090576], [-70.97559, 42.09055], [-70.97566, 42.09043], [-70.975656, 42.090381], [-70.97565, 42.09029], [-70.97553, 42.09015], [-70.9758, 42.089972], [-70.97588, 42.08992], [-70.97595, 42.08974], [-70.97594, 42.089708], [-70.97588, 42.08952], [-70.97564, 42.0892], [-70.97521, 42.08889], [-70.97519, 42.08821], [-70.97498, 42.088], [-70.97502, 42.08768], [-70.975451, 42.08751], [-70.97563, 42.08744], [-70.97614, 42.08734], [-70.97639, 42.08728], [-70.97655, 42.0872], [-70.97656, 42.08654], [-70.97639, 42.08495], [-70.9763, 42.08323], [-70.97618, 42.0826], [-70.97607, 42.08074], [-70.97594, 42.07916], [-70.97584, 42.07839], [-70.975761, 42.077466], [-70.97568, 42.07653], [-70.975691, 42.076528], [-70.97652, 42.0764], [-70.97726, 42.07622], [-70.97768, 42.07614], [-70.97838, 42.07594], [-70.97919, 42.07571], [-70.9808, 42.0753], [-70.9816, 42.07506], [-70.98266, 42.07487], [-70.98398, 42.07447], [-70.98596, 42.07401], [-70.98746, 42.0736], [-70.98846, 42.07338], [-70.99145, 42.07255], [-70.991719, 42.072723], [-70.99305, 42.07358], [-70.993286, 42.07377], [-70.99341, 42.07387], [-70.99353, 42.07393]]]}}, {"type": "Feature", "properties": {"area_id": 7902, "city": "Brockton", "state": "MA", "city_survey": true, "cat": "Definitely Declining", "grade": "C", "label": "C8", "res": true, "com": false, "ind": false, "holc_grade": "C"}, "geometry": {"type": "Polygon", "coordinates": [[[-71.00176, 42.05091], [-71.00219, 42.05141], [-71.00266, 42.05195], [-71.002905, 42.052227], [-71.0039, 42.05335], [-71.00516, 42.05462], [-71.0059, 42.05547], [-71.00465, 42.05603], [-71.0056, 42.05655], [-71.005953, 42.056728], [-71.00697, 42.05724], [-71.00738, 42.0574], [-71.00801, 42.05814], [-71.00808, 42.0584], [-71.00829, 42.05938], [-71.00861, 42.06144], [-71.00886, 42.0629], [-71.00912, 42.06438], [-71.00846, 42.06488], [-71.0086, 42.06566], [-71.00862, 42.06617], [-71.00868, 42.06628], [-71.00883, 42.06681], [-71.00897, 42.06764], [-71.00912, 42.06852], [-71.00932, 42.06929], [-71.00765, 42.06966], [-71.00632, 42.06987], [-71.00614, 42.0691], [-71.00574, 42.06786], [-71.00414, 42.06827], [-71.00277, 42.06855], [-71.0011, 42.06891], [-70.99922, 42.06948], [-70.99701, 42.07007], [-70.9966, 42.07012], [-70.99524, 42.06841], [-70.9954, 42.06784], [-70.99555, 42.06708], [-70.995572, 42.066857], [-70.99562, 42.06638], [-70.99569, 42.06592], [-70.99574, 42.06508], [-70.99577, 42.06466], [-70.99586, 42.06382], [-70.99589, 42.06284], [-70.99593, 42.06199], [-70.99594, 42.06115], [-70.996, 42.06049], [-70.99602, 42.05964], [-70.99608, 42.05873], [-70.99615, 42.05794], [-70.99617, 42.05712], [-70.99622, 42.0561], [-70.99629, 42.05522], [-70.99639, 42.0544], [-70.99647, 42.05349], [-70.99667, 42.05307], [-70.99691, 42.05236], [-70.9971, 42.05149], [-70.99729, 42.05081], [-70.99764, 42.04973], [-71.00044, 42.049632], [-71.0005, 42.04963], [-71.00176, 42.05091]]]}}, {"type": "Feature", "properties": {"area_id": 7893, "city": "Brockton", "state": "MA", "city_survey": true, "cat": "Definitely Declining", "grade": "C", "label": "C9", "res": true, "com": false, "ind": false, "holc_grade": "C"}, "geometry": {"type": "Polygon", "coordinates": [[[-71.01678, 42.04841], [-71.01684, 42.04868], [-71.01706, 42.04903], [-71.01763, 42.04982], [-71.01806, 42.05039], [-71.01836, 42.05075], [-71.01842, 42.05105], [-71.0186, 42.05126], [-71.01903, 42.05212], [-71.01926, 42.05263], [-71.01935, 42.05276], [-71.01934, 42.05294], [-71.01951, 42.05325], [-71.01957, 42.05341], [-71.01968, 42.0538], [-71.01977, 42.05403], [-71.01976, 42.05426], [-71.01824, 42.05569], [-71.0178, 42.05613], [-71.01713, 42.05673], [-71.01729, 42.05711], [-71.01752, 42.05789], [-71.0179, 42.05896], [-71.01814, 42.05962], [-71.01819, 42.05985], [-71.01817, 42.05991], [-71.01744, 42.06002], [-71.01503, 42.06048], [-71.01461, 42.05939], [-71.01432, 42.05848], [-71.01404, 42.05748], [-71.01363, 42.05762], [-71.01336, 42.05769], [-71.01294, 42.05774], [-71.0128, 42.05785], [-71.01292, 42.05793], [-71.01297, 42.05827], [-71.01329, 42.05928], [-71.01343, 42.05992], [-71.01342, 42.0606], [-71.01256, 42.0601], [-71.01204, 42.0598], [-71.01151, 42.05955], [-71.01089, 42.05926], [-71.01094, 42.05904], [-71.01091, 42.05861], [-71.01087, 42.05844], [-71.01056, 42.05793], [-71.00964, 42.05688], [-71.00888, 42.05603], [-71.00823, 42.05534], [-71.00778, 42.0549], [-71.00708, 42.05424], [-71.00849, 42.05233], [-71.00982, 42.0504], [-71.01079, 42.04901], [-71.0113, 42.04844], [-71.01277, 42.04832], [-71.01458, 42.04822], [-71.01647, 42.04809], [-71.01675, 42.04804], [-71.01678, 42.04841]]]}}, {"type": "Feature", "properties": {"area_id": 7900, "city": "Brockton", "state": "MA", "city_survey": true, "cat": "Hazardous", "grade": "D", "label": "D1", "res": true, "com": false, "ind": false, "holc_grade": "D"}, "geometry": {"type": "Polygon", "coordinates": [[[-71.00412, 42.07484], [-71.00447, 42.07343], [-71.00495, 42.07211], [-71.00603, 42.07126], [-71.00648, 42.07089], [-71.00763, 42.06982], [-71.00765, 42.06966], [-71.00932, 42.06929], [-71.00912, 42.06852], [-71.00897, 42.06764], [-71.00883, 42.06681], [-71.00868, 42.06628], [-71.00862, 42.06617], [-71.0086, 42.06566], [-71.00846, 42.06488], [-71.00912, 42.06438], [-71.00918, 42.06433], [-71.01005, 42.06431], [-71.01146, 42.06419], [-71.01294, 42.06395], [-71.01325, 42.06449], [-71.01372, 42.0654], [-71.0139, 42.06594], [-71.01402, 42.06646], [-71.01433, 42.06772], [-71.01471, 42.06904], [-71.01516, 42.07045], [-71.01551, 42.07181], [-71.01579, 42.07285], [-71.01588, 42.07344], [-71.0155, 42.07353], [-71.01441, 42.07364], [-71.0133, 42.07371], [-71.01251, 42.07529], [-71.01453, 42.07528], [-71.0145, 42.07744], [-71.01455, 42.07988], [-71.01384, 42.07973], [-71.0129, 42.07955], [-71.01219, 42.07957], [-71.01176, 42.07954], [-71.01039, 42.07937], [-71.00981, 42.07932], [-71.009758, 42.079366], [-71.00972, 42.0794], [-71.009991, 42.080013], [-71.01002, 42.08008], [-71.01035, 42.08081], [-71.00949, 42.08178], [-71.00911, 42.08179], [-71.00738, 42.08178], [-71.00614, 42.08273], [-71.00669, 42.08382], [-71.00784, 42.08386], [-71.00995, 42.08389], [-71.0136, 42.08396], [-71.01363, 42.08606], [-71.01356, 42.08634], [-71.01351, 42.08704], [-71.01335, 42.08787], [-71.01172, 42.08866], [-71.00969, 42.08994], [-71.00981, 42.09078], [-71.01002, 42.09109], [-71.01114, 42.09089], [-71.0128, 42.09073], [-71.01538, 42.09067], [-71.01543, 42.09295], [-71.015504, 42.094168], [-71.01554, 42.09477], [-71.01561, 42.0973], [-71.01571, 42.09852], [-71.01578, 42.09963], [-71.01615, 42.10002], [-71.01658, 42.10071], [-71.01681, 42.10108], [-71.01682, 42.10217], [-71.01599, 42.10214], [-71.0135, 42.10138], [-71.013, 42.10129], [-71.01174, 42.10097], [-71.00939, 42.10045], [-71.00825, 42.10027], [-71.00842, 42.09918], [-71.00867, 42.09832], [-71.00877, 42.09789], [-71.00876, 42.09757], [-71.00855, 42.09751], [-71.00774, 42.09747], [-71.00669, 42.09739], [-71.00548, 42.09717], [-71.005478, 42.097116], [-71.00547, 42.09689], [-71.00503, 42.09544], [-71.00486, 42.09491], [-71.00466, 42.09418], [-71.00538, 42.09403], [-71.00662, 42.09379], [-71.006568, 42.093541], [-71.00638, 42.09265], [-71.006201, 42.09195], [-71.006198, 42.091939], [-71.00613, 42.091542], [-71.0061976536897, 42.091936978158984], [-71.00598, 42.09109], [-71.00582, 42.09038], [-71.00566, 42.09027], [-71.00511, 42.09029], [-71.00457, 42.08914], [-71.00424, 42.08842], [-71.00376, 42.08749], [-71.00393, 42.08616], [-71.0041, 42.08502], [-71.004144, 42.083953], [-71.00415, 42.08382], [-71.00489, 42.08376], [-71.00493, 42.08313], [-71.005, 42.08277], [-71.005202, 42.082521], [-71.005239, 42.082475], [-71.00526, 42.08245], [-71.005303, 42.082419], [-71.005409, 42.08234], [-71.00571, 42.08212], [-71.00702, 42.08123], [-71.00698, 42.08074], [-71.00685, 42.07855], [-71.00554, 42.07858], [-71.00511, 42.07863], [-71.00338, 42.07866], [-71.00329, 42.07735], [-71.003318, 42.077248], [-71.00357, 42.07632], [-71.00359, 42.07626], [-71.00373, 42.07597], [-71.00412, 42.07484]]]}}, {"type": "Feature", "properties": {"area_id": 11413, "city": "Brockton", "state": "MA", "city_survey": true, "cat": "Industrial and Commercial", "grade": null, "label": "Industrial and Commercial", "res": false, "com": true, "ind": true, "holc_grade": null}, "geometry": {"type": "Polygon", "coordinates": [[[-71.020067, 42.076639], [-71.02025, 42.07747], [-71.02132, 42.07734], [-71.02195, 42.07727], [-71.022082, 42.077291], [-71.02263, 42.07738], [-71.022754, 42.078221], [-71.02278, 42.0784], [-71.02288, 42.07913], [-71.0231, 42.07983], [-71.02327, 42.08029], [-71.0234, 42.08064], [-71.0229, 42.08068], [-71.02308, 42.08384], [-71.02353, 42.08387], [-71.02379, 42.08485], [-71.02395, 42.08546], [-71.02439, 42.08559], [-71.02449, 42.08621], [-71.02474, 42.0863], [-71.023687, 42.086442], [-71.02274, 42.08657], [-71.02297, 42.08767], [-71.01955, 42.08777], [-71.01945, 42.08889], [-71.019451, 42.089078], [-71.01946, 42.09096], [-71.01948, 42.09197], [-71.01938, 42.0935], [-71.016777, 42.093942], [-71.01673, 42.09395], [-71.016731, 42.093965], [-71.016801, 42.095735], [-71.01686, 42.09723], [-71.016906, 42.097541], [-71.01702, 42.09831], [-71.01726, 42.09913], [-71.01761, 42.10004], [-71.017811, 42.100491], [-71.0179, 42.10069], [-71.018205, 42.101131], [-71.01873, 42.10189], [-71.018868, 42.102098], [-71.01985, 42.10358], [-71.020518, 42.104527], [-71.02102, 42.10524], [-71.02183, 42.10495], [-71.02224, 42.10545], [-71.02261, 42.10533], [-71.023158, 42.105998], [-71.02388, 42.10688], [-71.02473, 42.10797], [-71.02497, 42.1083], [-71.02348, 42.10898], [-71.023368, 42.109038], [-71.02263, 42.10942], [-71.02198, 42.10969], [-71.02184, 42.1095], [-71.021745, 42.109331], [-71.02148, 42.10886], [-71.02119, 42.10827], [-71.02059, 42.10746], [-71.02024, 42.10689], [-71.01973, 42.10617], [-71.0194, 42.10562], [-71.0184, 42.1043], [-71.01697, 42.10232], [-71.01682, 42.10217], [-71.01681, 42.10108], [-71.01658, 42.10071], [-71.01615, 42.10002], [-71.01578, 42.09963], [-71.01571, 42.09852], [-71.01561, 42.0973], [-71.01554, 42.09477], [-71.015504, 42.094168], [-71.01543, 42.09295], [-71.01538, 42.09067], [-71.0128, 42.09073], [-71.01114, 42.09089], [-71.01002, 42.09109], [-71.00981, 42.09078], [-71.00969, 42.08994], [-71.01172, 42.08866], [-71.01335, 42.08787], [-71.01351, 42.08704], [-71.01356, 42.08634], [-71.01363, 42.08606], [-71.0136, 42.08396], [-71.01206, 42.08393], [-71.012, 42.08211], [-71.01224, 42.08115], [-71.01035, 42.08081], [-71.01002, 42.08008], [-71.009991, 42.080013], [-71.00972, 42.0794], [-71.009758, 42.079366], [-71.00981, 42.07932], [-71.01039, 42.07937], [-71.01176, 42.07954], [-71.01219, 42.07957], [-71.0129, 42.07955], [-71.01384, 42.07973], [-71.01455, 42.07988], [-71.0145, 42.07744], [-71.01453, 42.07528], [-71.01251, 42.07529], [-71.0133, 42.07371], [-71.01441, 42.07364], [-71.0155, 42.07353], [-71.01588, 42.07344], [-71.01579, 42.07285], [-71.01551, 42.07181], [-71.01516, 42.07045], [-71.01471, 42.06904], [-71.01433, 42.06772], [-71.01402, 42.06646], [-71.0139, 42.06594], [-71.01372, 42.0654], [-71.01325, 42.06449], [-71.01294, 42.06395], [-71.01146, 42.06419], [-71.01005, 42.06431], [-71.00918, 42.06433], [-71.00912, 42.06438], [-71.00886, 42.0629], [-71.00861, 42.06144], [-71.00829, 42.05938], [-71.00808, 42.0584], [-71.00801, 42.05814], [-71.00738, 42.0574], [-71.00697, 42.05724], [-71.005953, 42.056728], [-71.0056, 42.05655], [-71.00465, 42.05603], [-71.0059, 42.05547], [-71.005923, 42.055459], [-71.00638, 42.05524], [-71.00708, 42.05424], [-71.00778, 42.0549], [-71.00823, 42.05534], [-71.00888, 42.05603], [-71.00964, 42.05688], [-71.01056, 42.05793], [-71.01087, 42.05844], [-71.01091, 42.05861], [-71.01094, 42.05904], [-71.01089, 42.05926], [-71.01151, 42.05955], [-71.01204, 42.0598], [-71.01256, 42.0601], [-71.01342, 42.0606], [-71.01342, 42.06095], [-71.0134, 42.06181], [-71.01354, 42.06232], [-71.01488, 42.06201], [-71.01523, 42.06275], [-71.0156, 42.06277], [-71.01631, 42.06447], [-71.01661, 42.06482], [-71.01715, 42.06571], [-71.01736, 42.06628], [-71.01775, 42.06749], [-71.017854, 42.067766], [-71.01838, 42.06916], [-71.01867, 42.07007], [-71.01833, 42.07018], [-71.01738, 42.07035], [-71.01704, 42.0697], [-71.01677, 42.06914], [-71.01639, 42.06826], [-71.016348, 42.068072], [-71.01625, 42.06763], [-71.01606, 42.06711], [-71.01557, 42.06587], [-71.01552, 42.06538], [-71.01519, 42.06442], [-71.01423, 42.06464], [-71.01435, 42.06506], [-71.01446, 42.06534], [-71.01463, 42.06556], [-71.01481, 42.06637], [-71.0154, 42.06816], [-71.015441, 42.068289], [-71.01589, 42.06972], [-71.01634, 42.07125], [-71.01672, 42.07267], [-71.01706, 42.07396], [-71.017084, 42.073958], [-71.01818, 42.07388], [-71.01911, 42.07375], [-71.01949, 42.07365], [-71.01963, 42.07466], [-71.020067, 42.076639]]]}}]}