{"type": "FeatureCollection", "features": [{"type": "Feature", "properties": {"area_id": 6525, "city": "Denver", "state": "CO", "city_survey": true, "cat": "Best", "grade": "A", "label": "A1", "res": true, "com": false, "ind": false, "holc_grade": "A"}, "geometry": {"type": "Polygon", "coordinates": [[[-104.91398, 39.72919], [-104.91407, 39.73853], [-104.914092, 39.740147], [-104.9141, 39.74077], [-104.91509, 39.74077], [-104.92028, 39.74073], [-104.922263, 39.740771], [-104.92462, 39.74082], [-104.92468, 39.74199], [-104.92706, 39.74199], [-104.92708, 39.7433], [-104.92833, 39.74339], [-104.92927, 39.74334], [-104.93197, 39.7433], [-104.93189, 39.74469], [-104.92908, 39.74473], [-104.9271, 39.74469], [-104.9271, 39.74701], [-104.92919, 39.74701], [-104.92923, 39.74823], [-104.92811, 39.74822], [-104.922279, 39.74817], [-104.92222, 39.74817], [-104.92224, 39.7485], [-104.91737, 39.74848], [-104.91741, 39.751075], [-104.91741, 39.75108], [-104.91697, 39.751077], [-104.9126, 39.75105], [-104.91252, 39.75105], [-104.91252, 39.751041], [-104.91246, 39.74749], [-104.90814, 39.74754], [-104.90824, 39.74097], [-104.91259, 39.74092], [-104.912584, 39.740153], [-104.9125, 39.72919], [-104.91288, 39.72921], [-104.91398, 39.72919]]]}}, {"type": "Feature", "properties": {"area_id": 6529, "city": "Denver", "state": "CO", "city_survey": true, "cat": "Best", "grade": "A", "label": "A2", "res": true, "com": false, "ind": false, "holc_grade": "A"}, "geometry": {"type": "Polygon", "coordinates": [[[-104.93384, 39.73461], [-104.93387, 39.7383], [-104.93038, 39.738336], [-104.92801, 39.73836], [-104.92795, 39.73891], [-104.92498, 39.73891], [-104.922324, 39.738813], [-104.92224, 39.73881], [-104.92221, 39.73851], [-104.92228, 39.73457], [-104.922324, 39.734571], [-104.92468, 39.73464], [-104.92649, 39.73466], [-104.93038, 39.734641], [-104.93049, 39.73464], [-104.93384, 39.73461]]]}}, {"type": "Feature", "properties": {"area_id": 6537, "city": "Denver", "state": "CO", "city_survey": true, "cat": "Best", "grade": "A", "label": "A3", "res": true, "com": false, "ind": false, "holc_grade": "A"}, "geometry": {"type": "Polygon", "coordinates": [[[-104.92799, 39.72439], [-104.92796, 39.72308], [-104.93034, 39.72308], [-104.9304, 39.72106], [-104.93272, 39.72103], [-104.93269, 39.71615], [-104.93323, 39.71615], [-104.93516, 39.71615], [-104.93516, 39.71466], [-104.93748, 39.71472], [-104.93745, 39.71624], [-104.94069, 39.71621], [-104.94065, 39.71942], [-104.94063, 39.72097], [-104.94057, 39.72554], [-104.94057, 39.725598], [-104.94056, 39.72683], [-104.94059, 39.72795], [-104.94061, 39.72918], [-104.930491, 39.7292], [-104.92505, 39.72921], [-104.922808, 39.729206], [-104.91398, 39.72919], [-104.91288, 39.72921], [-104.912815, 39.725638], [-104.91281, 39.72538], [-104.91779, 39.72552], [-104.9177, 39.72085], [-104.91961, 39.72088], [-104.9221, 39.72094], [-104.92219, 39.72552], [-104.9228, 39.72552], [-104.92695, 39.72552], [-104.92695, 39.72439], [-104.92799, 39.72439]], [[-104.93732, 39.7178], [-104.93396, 39.71782], [-104.93394, 39.721], [-104.93725, 39.721], [-104.93732, 39.7178]]]}}, {"type": "Feature", "properties": {"area_id": 6536, "city": "Denver", "state": "CO", "city_survey": true, "cat": "Best", "grade": "A", "label": "A4", "res": true, "com": false, "ind": false, "holc_grade": "A"}, "geometry": {"type": "Polygon", "coordinates": [[[-104.940701, 39.726829], [-104.94386, 39.72681], [-104.94958, 39.72691], [-104.95462, 39.72686], [-104.960164, 39.726783], [-104.96185, 39.72676], [-104.96489, 39.7268], [-104.96614, 39.72681], [-104.96621, 39.72905], [-104.96404, 39.72905], [-104.96404, 39.729101], [-104.96404, 39.73055], [-104.96019, 39.73059], [-104.960177, 39.729966], [-104.96016, 39.72913], [-104.96016, 39.72804], [-104.95835, 39.728], [-104.95369, 39.72804], [-104.94958, 39.72806], [-104.94533, 39.72797], [-104.94131, 39.72795], [-104.940696, 39.72795], [-104.94059, 39.72795], [-104.94056, 39.72683], [-104.940701, 39.726829]]]}}, {"type": "Feature", "properties": {"area_id": 6540, "city": "Denver", "state": "CO", "city_survey": true, "cat": "Best", "grade": "A", "label": "A5", "res": true, "com": false, "ind": false, "holc_grade": "A"}, "geometry": {"type": "Polygon", "coordinates": [[[-104.95937, 39.71952], [-104.959352, 39.718797], [-104.95935, 39.71871], [-104.95937, 39.71818], [-104.96342, 39.71835], [-104.96558, 39.71828], [-104.97077, 39.71833], [-104.97136, 39.71873], [-104.97224, 39.71906], [-104.97284, 39.71909], [-104.97281, 39.72037], [-104.9707, 39.72035], [-104.9706, 39.7219], [-104.96494, 39.72187], [-104.96489, 39.72542], [-104.96077, 39.72547], [-104.95958, 39.72463], [-104.95956, 39.72366], [-104.95947, 39.72066], [-104.96365, 39.72066], [-104.96353, 39.7198], [-104.959438, 39.7198], [-104.95942, 39.7198], [-104.95937, 39.71952]]]}}, {"type": "Feature", "properties": {"area_id": 6550, "city": "Denver", "state": "CO", "city_survey": true, "cat": "Best", "grade": "A", "label": "A6", "res": true, "com": false, "ind": false, "holc_grade": "A"}, "geometry": {"type": "Polygon", "coordinates": [[[-104.95289, 39.69658], [-104.952905, 39.696582], [-104.95353, 39.69667], [-104.95475, 39.6967], [-104.95567, 39.69658], [-104.95909, 39.69664], [-104.95906, 39.70068], [-104.95912, 39.7036], [-104.95917, 39.70388], [-104.94982, 39.70386], [-104.94983, 39.70562], [-104.94859, 39.70563], [-104.94842, 39.70348], [-104.94879, 39.70142], [-104.94876, 39.70013], [-104.94991, 39.70015], [-104.94991, 39.696577], [-104.94991, 39.69647], [-104.95289, 39.69658]]]}}, {"type": "Feature", "properties": {"area_id": 6526, "city": "Denver", "state": "CO", "city_survey": true, "cat": "Still Desirable", "grade": "B", "label": "B1", "res": true, "com": false, "ind": false, "holc_grade": "B"}, "geometry": {"type": "Polygon", "coordinates": [[[-104.91737, 39.74848], [-104.92224, 39.7485], [-104.92222, 39.74817], [-104.922279, 39.74817], [-104.92811, 39.74822], [-104.928141, 39.751062], [-104.9282, 39.75657], [-104.93462, 39.75645], [-104.9406, 39.75645], [-104.94081, 39.75645], [-104.9408, 39.75832], [-104.94079, 39.76186], [-104.940578, 39.76186], [-104.93715, 39.76186], [-104.93715, 39.76021], [-104.93608, 39.76019], [-104.93603, 39.75907], [-104.93386, 39.75907], [-104.93382, 39.75836], [-104.93053, 39.75836], [-104.93053, 39.75712], [-104.92932, 39.75714], [-104.92937, 39.75838], [-104.92653, 39.75838], [-104.92651, 39.75705], [-104.922289, 39.757011], [-104.92106, 39.757], [-104.92111, 39.75465], [-104.92228, 39.75469], [-104.92225, 39.75298], [-104.91747, 39.75296], [-104.91741, 39.75108], [-104.91741, 39.751075], [-104.91737, 39.74848]]]}}, {"type": "Feature", "properties": {"area_id": 6562, "city": "Denver", "state": "CO", "city_survey": true, "cat": "Still Desirable", "grade": "B", "label": "B10", "res": true, "com": false, "ind": false, "holc_grade": "B"}, "geometry": {"type": "Polygon", "coordinates": [[[-105.039325, 39.74023], [-105.03926, 39.74023], [-105.03929, 39.743953], [-105.03929, 39.74398], [-105.0359, 39.74398], [-105.035831, 39.746379], [-105.03583, 39.74641], [-105.035081, 39.746383], [-105.03387, 39.74634], [-105.03387, 39.74027], [-105.03583, 39.74027], [-105.03579, 39.73863], [-105.039312, 39.738571], [-105.04647, 39.73845], [-105.04643, 39.74027], [-105.039325, 39.74023]]]}}, {"type": "Feature", "properties": {"area_id": 6564, "city": "Denver", "state": "CO", "city_survey": true, "cat": "Still Desirable", "grade": "B", "label": "B11", "res": true, "com": false, "ind": false, "holc_grade": "B"}, "geometry": {"type": "Polygon", "coordinates": [[[-105.04394, 39.76253], [-105.04384, 39.76142], [-105.0413, 39.76138], [-105.04144, 39.75867], [-105.04277, 39.75853], [-105.04287, 39.75924], [-105.05062, 39.75924], [-105.05083, 39.75963], [-105.05269, 39.7596], [-105.05265, 39.76253], [-105.04394, 39.76253]]]}}, {"type": "Feature", "properties": {"area_id": 6567, "city": "Denver", "state": "CO", "city_survey": true, "cat": "Still Desirable", "grade": "B", "label": "B12", "res": true, "com": false, "ind": false, "holc_grade": "B"}, "geometry": {"type": "Polygon", "coordinates": [[[-105.02531, 39.7633], [-105.0257, 39.76366], [-105.02666, 39.76409], [-105.0272, 39.76395], [-105.02788, 39.76387], [-105.02852, 39.76405], [-105.02945, 39.76441], [-105.02981, 39.76477], [-105.02998, 39.76502], [-105.02995, 39.76569], [-105.039322, 39.76577], [-105.03934, 39.76577], [-105.039322, 39.767387], [-105.039317, 39.767836], [-105.039311, 39.768407], [-105.0393, 39.769432], [-105.0393, 39.76944], [-105.039229, 39.769434], [-105.03804, 39.76934], [-105.038046, 39.769466], [-105.03813, 39.77139], [-105.03935, 39.77142], [-105.03926, 39.7732], [-105.03468, 39.77312], [-105.034591, 39.77675], [-105.03459, 39.7768], [-105.03304, 39.77674], [-105.03307, 39.78025], [-105.0254, 39.78025], [-105.02531, 39.77665], [-105.02531, 39.776643], [-105.02534, 39.77303], [-105.025296, 39.771514], [-105.025266, 39.770516], [-105.02525, 39.76996], [-105.03471, 39.77023], [-105.034732, 39.769545], [-105.03477, 39.76839], [-105.02534, 39.76812], [-105.02531, 39.7633]]]}}, {"type": "Feature", "properties": {"area_id": 6527, "city": "Denver", "state": "CO", "city_survey": true, "cat": "Still Desirable", "grade": "B", "label": "B2", "res": true, "com": false, "ind": false, "holc_grade": "B"}, "geometry": {"type": "Polygon", "coordinates": [[[-104.92919, 39.74701], [-104.9271, 39.74701], [-104.9271, 39.74469], [-104.92908, 39.74473], [-104.93189, 39.74469], [-104.93197, 39.7433], [-104.9375, 39.74323], [-104.940651, 39.743298], [-104.94072, 39.7433], [-104.94072, 39.74393], [-104.940773, 39.751044], [-104.9408, 39.75457], [-104.94081, 39.75645], [-104.9406, 39.75645], [-104.93462, 39.75645], [-104.9282, 39.75657], [-104.928141, 39.751062], [-104.92811, 39.74822], [-104.92923, 39.74823], [-104.92919, 39.74701]]]}}, {"type": "Feature", "properties": {"area_id": 6528, "city": "Denver", "state": "CO", "city_survey": true, "cat": "Still Desirable", "grade": "B", "label": "B3", "res": true, "com": false, "ind": false, "holc_grade": "B"}, "geometry": {"type": "Polygon", "coordinates": [[[-104.93987, 39.73662], [-104.93987, 39.74013], [-104.9399, 39.740131], [-104.940663, 39.740163], [-104.94082, 39.74017], [-104.94072, 39.7433], [-104.940651, 39.743298], [-104.9375, 39.74323], [-104.93197, 39.7433], [-104.92927, 39.74334], [-104.92833, 39.74339], [-104.92708, 39.7433], [-104.92706, 39.74199], [-104.92468, 39.74199], [-104.92462, 39.74082], [-104.922263, 39.740771], [-104.92028, 39.74073], [-104.91509, 39.74077], [-104.9141, 39.74077], [-104.914092, 39.740147], [-104.91407, 39.73853], [-104.91602, 39.73851], [-104.92061, 39.73836], [-104.92221, 39.73851], [-104.92224, 39.73881], [-104.922324, 39.738813], [-104.92498, 39.73891], [-104.92795, 39.73891], [-104.92801, 39.73836], [-104.93038, 39.738336], [-104.93387, 39.7383], [-104.93384, 39.73461], [-104.93903, 39.73461], [-104.94061, 39.73472], [-104.940666, 39.736058], [-104.94069, 39.73662], [-104.940669, 39.73662], [-104.93987, 39.73662]]]}}, {"type": "Feature", "properties": {"area_id": 6524, "city": "Denver", "state": "CO", "city_survey": true, "cat": "Still Desirable", "grade": "B", "label": "B4", "res": true, "com": false, "ind": false, "holc_grade": "B"}, "geometry": {"type": "Polygon", "coordinates": [[[-104.89855, 39.7275], [-104.90343, 39.7274], [-104.90338, 39.72529], [-104.903485, 39.725291], [-104.91281, 39.72538], [-104.912815, 39.725638], [-104.91288, 39.72921], [-104.9125, 39.72919], [-104.912584, 39.740153], [-104.91259, 39.74092], [-104.90824, 39.74097], [-104.90814, 39.74754], [-104.90569, 39.74754], [-104.905807, 39.740153], [-104.90588, 39.73554], [-104.903458, 39.73555], [-104.8987, 39.73557], [-104.89865, 39.732871], [-104.89855, 39.7275]]]}}, {"type": "Feature", "properties": {"area_id": 6535, "city": "Denver", "state": "CO", "city_survey": true, "cat": "Still Desirable", "grade": "B", "label": "B5", "res": true, "com": false, "ind": false, "holc_grade": "B"}, "geometry": {"type": "MultiPolygon", "coordinates": [[[[-104.94056, 39.72683], [-104.94057, 39.725598], [-104.94057, 39.72554], [-104.94069, 39.72554], [-104.94795, 39.72554], [-104.960131, 39.725473], [-104.96077, 39.72547], [-104.96489, 39.72542], [-104.96489, 39.7268], [-104.96185, 39.72676], [-104.960164, 39.726783], [-104.95462, 39.72686], [-104.94958, 39.72691], [-104.94386, 39.72681], [-104.940701, 39.726829], [-104.94056, 39.72683]]], [[[-104.940696, 39.72795], [-104.94131, 39.72795], [-104.94533, 39.72797], [-104.94958, 39.72806], [-104.95369, 39.72804], [-104.95835, 39.728], [-104.96016, 39.72804], [-104.96016, 39.72913], [-104.95409, 39.72909], [-104.95409, 39.73201], [-104.95361, 39.732], [-104.953174, 39.732096], [-104.95293, 39.73215], [-104.952195, 39.732099], [-104.9512, 39.73203], [-104.94945, 39.73209], [-104.94624, 39.73206], [-104.940682, 39.731941], [-104.94064, 39.73194], [-104.94061, 39.72918], [-104.94059, 39.72795], [-104.940696, 39.72795]]]]}}, {"type": "Feature", "properties": {"area_id": 6541, "city": "Denver", "state": "CO", "city_survey": true, "cat": "Still Desirable", "grade": "B", "label": "B6", "res": true, "com": false, "ind": false, "holc_grade": "B"}, "geometry": {"type": "Polygon", "coordinates": [[[-104.94069, 39.72554], [-104.94057, 39.72554], [-104.94063, 39.72097], [-104.940702, 39.72097], [-104.94207, 39.72097], [-104.942, 39.72356], [-104.959451, 39.723659], [-104.95956, 39.72366], [-104.95958, 39.72463], [-104.96077, 39.72547], [-104.960131, 39.725473], [-104.94795, 39.72554], [-104.94069, 39.72554]]]}}, {"type": "Feature", "properties": {"area_id": 6542, "city": "Denver", "state": "CO", "city_survey": true, "cat": "Still Desirable", "grade": "B", "label": "B7", "res": true, "com": false, "ind": false, "holc_grade": "B"}, "geometry": {"type": "Polygon", "coordinates": [[[-104.97769, 39.71835], [-104.977683, 39.719826], [-104.97767, 39.72237], [-104.97507, 39.72235], [-104.97512, 39.72554], [-104.975146, 39.727279], [-104.97517, 39.72889], [-104.972935, 39.72888], [-104.97058, 39.72887], [-104.970581, 39.729088], [-104.9706, 39.73446], [-104.96882, 39.73439], [-104.96891, 39.729085], [-104.96891, 39.72908], [-104.96621, 39.72905], [-104.96614, 39.72681], [-104.96489, 39.7268], [-104.96489, 39.72542], [-104.96494, 39.72187], [-104.9706, 39.7219], [-104.9707, 39.72035], [-104.97281, 39.72037], [-104.97284, 39.71909], [-104.973166, 39.718382], [-104.97319, 39.71833], [-104.973242, 39.71833], [-104.97769, 39.71835]]]}}, {"type": "Feature", "properties": {"area_id": 6549, "city": "Denver", "state": "CO", "city_survey": true, "cat": "Still Desirable", "grade": "B", "label": "B8", "res": true, "com": false, "ind": false, "holc_grade": "B"}, "geometry": {"type": "Polygon", "coordinates": [[[-104.95585, 39.68974], [-104.95579, 39.6856], [-104.95909, 39.68565], [-104.959445, 39.685653], [-104.96025, 39.68566], [-104.96016, 39.6867], [-104.96156, 39.68673], [-104.96159, 39.68754], [-104.964, 39.68763], [-104.96418, 39.69298], [-104.9676, 39.69295], [-104.96763, 39.69465], [-104.96882, 39.6947], [-104.96867, 39.70342], [-104.96861, 39.70749], [-104.969136, 39.707494], [-104.97218, 39.70752], [-104.97223, 39.71121], [-104.97227, 39.71475], [-104.966788, 39.71475], [-104.96364, 39.71475], [-104.963589, 39.71475], [-104.959303, 39.71472], [-104.95924, 39.71472], [-104.959268, 39.711126], [-104.959269, 39.711087], [-104.9593, 39.70708], [-104.959326, 39.70654], [-104.95939, 39.7052], [-104.959342, 39.70491], [-104.95917, 39.70388], [-104.95912, 39.7036], [-104.95906, 39.70068], [-104.95909, 39.69664], [-104.95567, 39.69658], [-104.95475, 39.6967], [-104.95353, 39.69667], [-104.953526, 39.696581], [-104.95344, 39.69473], [-104.95591, 39.69479], [-104.95585, 39.68974]]]}}, {"type": "Feature", "properties": {"area_id": 6552, "city": "Denver", "state": "CO", "city_survey": true, "cat": "Still Desirable", "grade": "B", "label": "B9", "res": true, "com": false, "ind": false, "holc_grade": "B"}, "geometry": {"type": "Polygon", "coordinates": [[[-104.970946, 39.688607], [-104.97096, 39.69119], [-104.973425, 39.691224], [-104.97537, 39.69125], [-104.97528, 39.70752], [-104.973374, 39.70752], [-104.9733, 39.70752], [-104.9733, 39.70749], [-104.9734, 39.69298], [-104.96878, 39.69293], [-104.968598, 39.687453], [-104.96854, 39.68571], [-104.97093, 39.68569], [-104.970946, 39.688607]]]}}, {"type": "Feature", "properties": {"area_id": 6523, "city": "Denver", "state": "CO", "city_survey": true, "cat": "Definitely Declining", "grade": "C", "label": "C1", "res": true, "com": false, "ind": false, "holc_grade": "C"}, "geometry": {"type": "Polygon", "coordinates": [[[-104.89408, 39.73523], [-104.89415, 39.73559], [-104.8987, 39.73557], [-104.903458, 39.73555], [-104.90588, 39.73554], [-104.905807, 39.740153], [-104.90569, 39.74754], [-104.903446, 39.747534], [-104.898766, 39.747523], [-104.89382, 39.74751], [-104.893821, 39.747457], [-104.89386, 39.7457], [-104.88487, 39.74561], [-104.88487, 39.74318], [-104.88488, 39.740155], [-104.88489, 39.73726], [-104.88494, 39.73533], [-104.89408, 39.73523]]]}}, {"type": "Feature", "properties": {"area_id": 6545, "city": "Denver", "state": "CO", "city_survey": true, "cat": "Definitely Declining", "grade": "C", "label": "C10", "res": true, "com": false, "ind": false, "holc_grade": "C"}, "geometry": {"type": "MultiPolygon", "coordinates": [[[[-104.99107, 39.67668], [-104.98872, 39.67665], [-104.98878, 39.67846], [-104.98768, 39.67849], [-104.98774, 39.68037], [-104.987571, 39.68037], [-104.98694, 39.68037], [-104.98682, 39.696629], [-104.98682, 39.69664], [-104.986249, 39.696627], [-104.98283, 39.69655], [-104.982831, 39.696656], [-104.98286, 39.70035], [-104.98664, 39.70038], [-104.9867, 39.70499], [-104.98674, 39.711157], [-104.98676, 39.71421], [-104.98685, 39.72046], [-104.986904, 39.726618], [-104.98691, 39.727275], [-104.98691, 39.72733], [-104.986294, 39.727276], [-104.98622, 39.72727], [-104.98507, 39.72645], [-104.98424, 39.72597], [-104.98262, 39.72485], [-104.982521, 39.722885], [-104.9825, 39.72247], [-104.98226, 39.72209], [-104.980285, 39.720964], [-104.98026, 39.72095], [-104.98028, 39.71121], [-104.98028, 39.711117], [-104.98029, 39.70644], [-104.980264, 39.695019], [-104.98026, 39.69349], [-104.9804, 39.68027], [-104.980419, 39.678567], [-104.98042, 39.67846], [-104.98039, 39.67489], [-104.98411, 39.67489], [-104.98417, 39.67308], [-104.98524, 39.67308], [-104.98518, 39.66948], [-104.98402, 39.66945], [-104.98405, 39.67121], [-104.98054, 39.67127], [-104.980511, 39.667699], [-104.98051, 39.66752], [-104.98269, 39.6675], [-104.987573, 39.66746], [-104.99125, 39.66743], [-104.991245, 39.667674], [-104.99121, 39.66948], [-104.99107, 39.67668]]], [[[-104.99222, 39.71476], [-104.992419, 39.725669], [-104.99242, 39.7257], [-104.99153, 39.72573], [-104.99153, 39.7274], [-104.98858, 39.72728], [-104.988577, 39.725647], [-104.98855, 39.71226], [-104.98998, 39.71217], [-104.98995, 39.71122], [-104.99215, 39.71116], [-104.99222, 39.71476]]]]}}, {"type": "Feature", "properties": {"area_id": 6546, "city": "Denver", "state": "CO", "city_survey": true, "cat": "Definitely Declining", "grade": "C", "label": "C11", "res": true, "com": false, "ind": false, "holc_grade": "C"}, "geometry": {"type": "Polygon", "coordinates": [[[-104.97227, 39.71475], [-104.97223, 39.71121], [-104.973393, 39.71121], [-104.98028, 39.71121], [-104.98026, 39.72095], [-104.980285, 39.720964], [-104.98226, 39.72209], [-104.9825, 39.72247], [-104.982521, 39.722885], [-104.98262, 39.72485], [-104.98424, 39.72597], [-104.98507, 39.72645], [-104.98622, 39.72727], [-104.98227, 39.72723], [-104.98093, 39.72721], [-104.98093, 39.72564], [-104.97512, 39.72554], [-104.97507, 39.72235], [-104.97767, 39.72237], [-104.977683, 39.719826], [-104.97769, 39.71835], [-104.973242, 39.71833], [-104.97319, 39.71833], [-104.97325, 39.71475], [-104.97227, 39.71475]]]}}, {"type": "Feature", "properties": {"area_id": 6544, "city": "Denver", "state": "CO", "city_survey": true, "cat": "Definitely Declining", "grade": "C", "label": "C12", "res": true, "com": false, "ind": false, "holc_grade": "C"}, "geometry": {"type": "Polygon", "coordinates": [[[-104.96632, 39.68572], [-104.96629, 39.68388], [-104.96397, 39.68388], [-104.96399, 39.6803], [-104.973416, 39.680283], [-104.9804, 39.68027], [-104.98026, 39.69349], [-104.980264, 39.695019], [-104.98029, 39.70644], [-104.98028, 39.711117], [-104.98028, 39.71121], [-104.973393, 39.71121], [-104.97223, 39.71121], [-104.97218, 39.70752], [-104.9733, 39.70752], [-104.973374, 39.70752], [-104.97528, 39.70752], [-104.97537, 39.69125], [-104.973425, 39.691224], [-104.97096, 39.69119], [-104.970946, 39.688607], [-104.97093, 39.68569], [-104.96854, 39.68571], [-104.96632, 39.68572]]]}}, {"type": "Feature", "properties": {"area_id": 6547, "city": "Denver", "state": "CO", "city_survey": true, "cat": "Definitely Declining", "grade": "C", "label": "C13", "res": true, "com": false, "ind": false, "holc_grade": "C"}, "geometry": {"type": "Polygon", "coordinates": [[[-104.97337, 39.66761], [-104.97334, 39.67849], [-104.973431, 39.67849], [-104.98042, 39.67846], [-104.980419, 39.678567], [-104.9804, 39.68027], [-104.973416, 39.680283], [-104.96399, 39.6803], [-104.963993, 39.678508], [-104.964, 39.67498], [-104.959381, 39.674895], [-104.9591, 39.67489], [-104.95908, 39.67122], [-104.95907, 39.667592], [-104.95907, 39.66758], [-104.959379, 39.667581], [-104.97337, 39.66761]]]}}, {"type": "Feature", "properties": {"area_id": 6551, "city": "Denver", "state": "CO", "city_survey": true, "cat": "Definitely Declining", "grade": "C", "label": "C14", "res": true, "com": false, "ind": false, "holc_grade": "C"}, "geometry": {"type": "Polygon", "coordinates": [[[-104.94525, 39.67838], [-104.94514, 39.6748], [-104.94295, 39.67476], [-104.94287, 39.67118], [-104.9467, 39.6713], [-104.94817, 39.67113], [-104.95908, 39.67122], [-104.9591, 39.67489], [-104.959097, 39.678425], [-104.959091, 39.684726], [-104.95909, 39.68565], [-104.95579, 39.6856], [-104.95585, 39.68974], [-104.95591, 39.69479], [-104.95344, 39.69473], [-104.94999, 39.69461], [-104.95003, 39.68819], [-104.950063, 39.684717], [-104.95009, 39.68192], [-104.94661, 39.68127], [-104.946511, 39.678463], [-104.94651, 39.67844], [-104.94525, 39.67838]]]}}, {"type": "Feature", "properties": {"area_id": 6571, "city": "Denver", "state": "CO", "city_survey": true, "cat": "Definitely Declining", "grade": "C", "label": "C15", "res": true, "com": false, "ind": false, "holc_grade": "C"}, "geometry": {"type": "MultiPolygon", "coordinates": [[[[-104.99368, 39.65686], [-104.99352, 39.66231], [-104.993362, 39.667721], [-104.99336, 39.66778], [-104.992932, 39.667709], [-104.99125, 39.66743], [-104.987573, 39.66746], [-104.98269, 39.6675], [-104.98269, 39.66057], [-104.980807, 39.660511], [-104.97823, 39.66043], [-104.978299, 39.651261], [-104.9783, 39.65118], [-104.979719, 39.651259], [-104.9828, 39.65143], [-104.98283, 39.65329], [-104.98529, 39.65329], [-104.98533, 39.65546], [-104.98647, 39.65543], [-104.98645, 39.65624], [-104.98644, 39.65678], [-104.987589, 39.656793], [-104.99368, 39.65686]]], [[[-104.99475, 39.64399], [-104.99486, 39.64563], [-104.997, 39.64563], [-104.99689, 39.65067], [-104.99472, 39.65067], [-104.99468, 39.65306], [-104.990152, 39.652976], [-104.987663, 39.65293], [-104.9871, 39.65292], [-104.98712, 39.651358], [-104.98712, 39.65132], [-104.986951, 39.651332], [-104.98658, 39.65136], [-104.986566, 39.651293], [-104.98647, 39.65082], [-104.98387, 39.64943], [-104.98522, 39.64947], [-104.98526, 39.64579], [-104.97844, 39.64568], [-104.978502, 39.638584], [-104.97858, 39.62969], [-104.98215, 39.62977], [-104.98779, 39.62952], [-104.98758, 39.63516], [-104.987883, 39.635153], [-104.9939, 39.63501], [-104.993812, 39.642157], [-104.99379, 39.64396], [-104.99475, 39.64399]]]]}}, {"type": "Feature", "properties": {"area_id": 6561, "city": "Denver", "state": "CO", "city_survey": true, "cat": "Definitely Declining", "grade": "C", "label": "C16", "res": true, "com": false, "ind": false, "holc_grade": "C"}, "geometry": {"type": "Polygon", "coordinates": [[[-105.042364, 39.743965], [-105.03929, 39.74398], [-105.03929, 39.743953], [-105.03926, 39.74023], [-105.039325, 39.74023], [-105.04643, 39.74027], [-105.04647, 39.73845], [-105.039312, 39.738571], [-105.03579, 39.73863], [-105.03583, 39.74027], [-105.03387, 39.74027], [-105.03387, 39.74634], [-105.035081, 39.746383], [-105.03583, 39.74641], [-105.0359, 39.74901], [-105.025272, 39.748875], [-105.02491, 39.74887], [-105.02494, 39.7476], [-105.024978, 39.746362], [-105.02505, 39.74398], [-105.025218, 39.743981], [-105.02992, 39.744], [-105.02991, 39.7367], [-105.039309, 39.736656], [-105.04285, 39.73664], [-105.04285, 39.73645], [-105.053227, 39.736697], [-105.05335, 39.7367], [-105.05335, 39.740361], [-105.05335, 39.74391], [-105.053211, 39.743911], [-105.042364, 39.743965]]]}}, {"type": "Feature", "properties": {"area_id": 6563, "city": "Denver", "state": "CO", "city_survey": true, "cat": "Definitely Declining", "grade": "C", "label": "C17", "res": true, "com": false, "ind": false, "holc_grade": "C"}, "geometry": {"type": "Polygon", "coordinates": [[[-105.06225, 39.74757], [-105.06225, 39.747631], [-105.06225, 39.754804], [-105.06225, 39.75489], [-105.06043, 39.75489], [-105.0604, 39.76574], [-105.05337, 39.76577], [-105.05343, 39.754846], [-105.05344, 39.75303], [-105.053391, 39.747617], [-105.05339, 39.7475], [-105.06225, 39.74757]]]}}, {"type": "Feature", "properties": {"area_id": 6565, "city": "Denver", "state": "CO", "city_survey": true, "cat": "Definitely Declining", "grade": "C", "label": "C18", "res": true, "com": false, "ind": false, "holc_grade": "C"}, "geometry": {"type": "Polygon", "coordinates": [[[-105.04287, 39.74836], [-105.04287, 39.74853], [-105.04298, 39.75471], [-105.04651, 39.75478], [-105.04651, 39.75307], [-105.053231, 39.753031], [-105.05344, 39.75303], [-105.05343, 39.754846], [-105.05337, 39.76577], [-105.053493, 39.769334], [-105.0535, 39.76955], [-105.053242, 39.769509], [-105.05261, 39.76941], [-105.052239, 39.769333], [-105.05208, 39.7693], [-105.044966, 39.769378], [-105.0424, 39.769406], [-105.039601, 39.769437], [-105.0393, 39.76944], [-105.0393, 39.769432], [-105.039311, 39.768407], [-105.039317, 39.767836], [-105.039322, 39.767387], [-105.03934, 39.76577], [-105.039322, 39.76577], [-105.02995, 39.76569], [-105.02998, 39.76502], [-105.02981, 39.76477], [-105.02945, 39.76441], [-105.02852, 39.76405], [-105.02788, 39.76387], [-105.0272, 39.76395], [-105.02666, 39.76409], [-105.0257, 39.76366], [-105.02531, 39.7633], [-105.02529, 39.76197], [-105.02524, 39.75866], [-105.025233, 39.75866], [-105.02438, 39.75866], [-105.02438, 39.758474], [-105.02438, 39.75749], [-105.02427, 39.75606], [-105.02442, 39.75135], [-105.02492, 39.75124], [-105.02491, 39.74887], [-105.025272, 39.748875], [-105.0359, 39.74901], [-105.03583, 39.74641], [-105.03695, 39.74639], [-105.036976, 39.747578], [-105.03698, 39.74775], [-105.039306, 39.747688], [-105.04112, 39.74764], [-105.04155, 39.74778], [-105.04202, 39.74796], [-105.04287, 39.74836]], [[-105.04277, 39.75853], [-105.04144, 39.75867], [-105.0413, 39.76138], [-105.04384, 39.76142], [-105.04394, 39.76253], [-105.05265, 39.76253], [-105.05269, 39.7596], [-105.05083, 39.75963], [-105.05062, 39.75924], [-105.04287, 39.75924], [-105.04277, 39.75853]]]}}, {"type": "Feature", "properties": {"area_id": 6569, "city": "Denver", "state": "CO", "city_survey": true, "cat": "Definitely Declining", "grade": "C", "label": "C19", "res": true, "com": false, "ind": false, "holc_grade": "C"}, "geometry": {"type": "Polygon", "coordinates": [[[-105.03477, 39.76839], [-105.034732, 39.769545], [-105.03471, 39.77023], [-105.02525, 39.76996], [-105.025266, 39.770516], [-105.025296, 39.771514], [-105.02534, 39.77303], [-105.02531, 39.776643], [-105.02531, 39.77665], [-105.0254, 39.78025], [-105.025385, 39.784214], [-105.02538, 39.78563], [-105.02537, 39.78752], [-105.02536, 39.79094], [-105.02536, 39.79101], [-105.02519, 39.79101], [-105.02208, 39.79101], [-105.02213, 39.78563], [-105.01932, 39.78569], [-105.019332, 39.783575], [-105.01935, 39.78031], [-105.01429, 39.78013], [-105.014261, 39.776563], [-105.01426, 39.7765], [-105.011187, 39.776355], [-105.01108, 39.77635], [-105.01108, 39.77525], [-105.00647, 39.7751], [-105.006562, 39.769287], [-105.00662, 39.76564], [-105.0112, 39.76564], [-105.01132, 39.76564], [-105.01126, 39.76195], [-105.02524, 39.76197], [-105.02529, 39.76197], [-105.02531, 39.7633], [-105.02534, 39.76812], [-105.03477, 39.76839]]]}}, {"type": "Feature", "properties": {"area_id": 6530, "city": "Denver", "state": "CO", "city_survey": true, "cat": "Definitely Declining", "grade": "C", "label": "C2", "res": true, "com": false, "ind": false, "holc_grade": "C"}, "geometry": {"type": "Polygon", "coordinates": [[[-104.9408, 39.75832], [-104.94081, 39.75645], [-104.9408, 39.75457], [-104.94495, 39.75454], [-104.95021, 39.75448], [-104.9548, 39.75448], [-104.95967, 39.75442], [-104.95963, 39.76], [-104.95963, 39.76199], [-104.95963, 39.76346], [-104.959745, 39.767985], [-104.95975, 39.76817], [-104.959746, 39.76817], [-104.95072, 39.7682], [-104.94518, 39.76824], [-104.94509, 39.76548], [-104.94511, 39.761928], [-104.94511, 39.7619], [-104.94994, 39.7619], [-104.949941, 39.761953], [-104.94996, 39.76316], [-104.95228, 39.76322], [-104.95228, 39.761969], [-104.95228, 39.75817], [-104.94829, 39.75819], [-104.9408, 39.75832]]]}}, {"type": "Feature", "properties": {"area_id": 6570, "city": "Denver", "state": "CO", "city_survey": true, "cat": "Definitely Declining", "grade": "C", "label": "C20", "res": true, "com": false, "ind": false, "holc_grade": "C"}, "geometry": {"type": "Polygon", "coordinates": [[[-105.052239, 39.769333], [-105.05261, 39.76941], [-105.053242, 39.769509], [-105.0535, 39.76955], [-105.05345, 39.77296], [-105.06148, 39.77314], [-105.06141, 39.776607], [-105.06137, 39.77856], [-105.05334, 39.77849], [-105.05337, 39.78035], [-105.053211, 39.780346], [-105.04402, 39.78013], [-105.043976, 39.783513], [-105.04388, 39.79098], [-105.03453, 39.79109], [-105.03464, 39.78756], [-105.02537, 39.78752], [-105.02538, 39.78563], [-105.02771, 39.7856], [-105.0276, 39.78424], [-105.02889, 39.78427], [-105.02964, 39.78399], [-105.03031, 39.78374], [-105.03456, 39.78388], [-105.03456, 39.783331], [-105.03456, 39.78253], [-105.04041, 39.78263], [-105.04052, 39.78017], [-105.03307, 39.78025], [-105.03304, 39.77674], [-105.03459, 39.7768], [-105.036144, 39.776734], [-105.03927, 39.7766], [-105.03926, 39.7732], [-105.03935, 39.77142], [-105.03813, 39.77139], [-105.038046, 39.769466], [-105.03804, 39.76934], [-105.039229, 39.769434], [-105.0393, 39.76944], [-105.039601, 39.769437], [-105.0424, 39.769406], [-105.044966, 39.769378], [-105.05208, 39.7693], [-105.052239, 39.769333]]]}}, {"type": "Feature", "properties": {"area_id": 6575, "city": "Denver", "state": "CO", "city_survey": true, "cat": "Definitely Declining", "grade": "C", "label": "C3", "res": true, "com": false, "ind": false, "holc_grade": "C"}, "geometry": {"type": "Polygon", "coordinates": [[[-104.96351, 39.74955], [-104.963503, 39.750718], [-104.96346, 39.75827], [-104.96355, 39.76195], [-104.964374, 39.761993], [-104.9647, 39.76201], [-104.96472, 39.7644], [-104.96475, 39.76814], [-104.95975, 39.76817], [-104.959745, 39.767985], [-104.95963, 39.76346], [-104.95963, 39.76199], [-104.95963, 39.76], [-104.95967, 39.75442], [-104.959647, 39.750716], [-104.95964, 39.74949], [-104.959761, 39.749492], [-104.96351, 39.74955]]]}}, {"type": "Feature", "properties": {"area_id": 6574, "city": "Denver", "state": "CO", "city_survey": true, "cat": "Definitely Declining", "grade": "C", "label": "C4", "res": true, "com": false, "ind": false, "holc_grade": "C"}, "geometry": {"type": "Polygon", "coordinates": [[[-104.973387, 39.744437], [-104.97338, 39.74474], [-104.973369, 39.745141], [-104.97332, 39.74695], [-104.97219, 39.74695], [-104.96854, 39.74695], [-104.96854, 39.74698], [-104.96852, 39.7482], [-104.96352, 39.74819], [-104.96351, 39.74955], [-104.959761, 39.749492], [-104.95964, 39.74949], [-104.95969, 39.74389], [-104.95971, 39.74166], [-104.959777, 39.741659], [-104.96388, 39.74158], [-104.97079, 39.74158], [-104.973392, 39.741639], [-104.97345, 39.74164], [-104.973401, 39.743792], [-104.973387, 39.744437]]]}}, {"type": "Feature", "properties": {"area_id": 6534, "city": "Denver", "state": "CO", "city_survey": true, "cat": "Definitely Declining", "grade": "C", "label": "C5", "res": true, "com": false, "ind": false, "holc_grade": "C"}, "geometry": {"type": "Polygon", "coordinates": [[[-104.952195, 39.732099], [-104.95293, 39.73215], [-104.953174, 39.732096], [-104.95361, 39.732], [-104.95409, 39.73201], [-104.95456, 39.73203], [-104.95456, 39.73289], [-104.95965, 39.73283], [-104.959654, 39.733453], [-104.959699, 39.739993], [-104.95971, 39.74166], [-104.95969, 39.74389], [-104.95412, 39.74391], [-104.94072, 39.74393], [-104.94072, 39.7433], [-104.94082, 39.74017], [-104.940663, 39.740163], [-104.9399, 39.740131], [-104.93987, 39.74013], [-104.93987, 39.73662], [-104.940669, 39.73662], [-104.94069, 39.73662], [-104.940666, 39.736058], [-104.94061, 39.73472], [-104.94064, 39.73194], [-104.940682, 39.731941], [-104.94624, 39.73206], [-104.94945, 39.73209], [-104.9512, 39.73203], [-104.952195, 39.732099]]]}}, {"type": "Feature", "properties": {"area_id": 6533, "city": "Denver", "state": "CO", "city_survey": true, "cat": "Definitely Declining", "grade": "C", "label": "C6", "res": true, "com": false, "ind": false, "holc_grade": "C"}, "geometry": {"type": "Polygon", "coordinates": [[[-104.97984, 39.74005], [-104.97991, 39.74005], [-104.98355, 39.74007], [-104.98347, 39.74487], [-104.979881, 39.744765], [-104.97902, 39.74474], [-104.974653, 39.74474], [-104.973389, 39.74474], [-104.97338, 39.74474], [-104.973387, 39.744437], [-104.973401, 39.743792], [-104.97345, 39.74164], [-104.97356, 39.74003], [-104.97443, 39.740017], [-104.97632, 39.73999], [-104.977181, 39.740005], [-104.97984, 39.74005]]]}}, {"type": "Feature", "properties": {"area_id": 6573, "city": "Denver", "state": "CO", "city_survey": true, "cat": "Definitely Declining", "grade": "C", "label": "C7", "res": true, "com": false, "ind": false, "holc_grade": "C"}, "geometry": {"type": "Polygon", "coordinates": [[[-104.98227, 39.72723], [-104.982271, 39.727275], [-104.982352, 39.732034], [-104.98238, 39.7337], [-104.97986, 39.733641], [-104.9798, 39.73364], [-104.97984, 39.740021], [-104.97984, 39.74005], [-104.977181, 39.740005], [-104.97632, 39.73999], [-104.97443, 39.740017], [-104.97356, 39.74003], [-104.97345, 39.74164], [-104.973392, 39.741639], [-104.97079, 39.74158], [-104.96388, 39.74158], [-104.959777, 39.741659], [-104.95971, 39.74166], [-104.959699, 39.739993], [-104.959654, 39.733453], [-104.95965, 39.73283], [-104.959797, 39.732831], [-104.96405, 39.73285], [-104.96417, 39.73651], [-104.964754, 39.736516], [-104.96881, 39.73656], [-104.96882, 39.73439], [-104.9706, 39.73446], [-104.970581, 39.729088], [-104.97058, 39.72887], [-104.972935, 39.72888], [-104.97517, 39.72889], [-104.975146, 39.727279], [-104.97512, 39.72554], [-104.98093, 39.72564], [-104.98093, 39.72721], [-104.98227, 39.72723]]]}}, {"type": "Feature", "properties": {"area_id": 6543, "city": "Denver", "state": "CO", "city_survey": true, "cat": "Definitely Declining", "grade": "C", "label": "C8", "res": true, "com": false, "ind": false, "holc_grade": "C"}, "geometry": {"type": "Polygon", "coordinates": [[[-104.98622, 39.727277], [-104.986194, 39.732039], [-104.98616, 39.73837], [-104.9836, 39.73843], [-104.983551, 39.740044], [-104.98355, 39.74007], [-104.97991, 39.74005], [-104.97984, 39.74005], [-104.97984, 39.740021], [-104.9798, 39.73364], [-104.97986, 39.733641], [-104.98238, 39.7337], [-104.982352, 39.732034], [-104.982271, 39.727275], [-104.98227, 39.72723], [-104.98622, 39.72727], [-104.98622, 39.727277]]]}}, {"type": "Feature", "properties": {"area_id": 6539, "city": "Denver", "state": "CO", "city_survey": true, "cat": "Definitely Declining", "grade": "C", "label": "C9", "res": true, "com": false, "ind": false, "holc_grade": "C"}, "geometry": {"type": "Polygon", "coordinates": [[[-104.94065, 39.71942], [-104.940708, 39.71942], [-104.95623, 39.71952], [-104.95937, 39.71952], [-104.95942, 39.7198], [-104.959438, 39.7198], [-104.96353, 39.7198], [-104.96365, 39.72066], [-104.95947, 39.72066], [-104.95956, 39.72366], [-104.959451, 39.723659], [-104.942, 39.72356], [-104.94207, 39.72097], [-104.940702, 39.72097], [-104.94063, 39.72097], [-104.94065, 39.71942]]]}}, {"type": "Feature", "properties": {"area_id": 6522, "city": "Denver", "state": "CO", "city_survey": true, "cat": "Hazardous", "grade": "D", "label": "D1", "res": true, "com": false, "ind": false, "holc_grade": "D"}, "geometry": {"type": "Polygon", "coordinates": [[[-104.884659, 39.737257], [-104.88489, 39.73726], [-104.88488, 39.740155], [-104.88487, 39.74318], [-104.884652, 39.74318], [-104.87892, 39.74318], [-104.87892, 39.743781], [-104.87892, 39.74387], [-104.87628, 39.74382], [-104.87628, 39.743782], [-104.87627, 39.740211], [-104.87626, 39.73654], [-104.879965, 39.736526], [-104.88137, 39.73652], [-104.88137, 39.73721], [-104.884659, 39.737257]]]}}, {"type": "Feature", "properties": {"area_id": 6568, "city": "Denver", "state": "CO", "city_survey": true, "cat": "Hazardous", "grade": "D", "label": "D10", "res": true, "com": false, "ind": false, "holc_grade": "D"}, "geometry": {"type": "Polygon", "coordinates": [[[-105.00662, 39.76564], [-105.006562, 39.769287], [-105.00647, 39.7751], [-105.01108, 39.77525], [-105.01108, 39.77635], [-105.011187, 39.776355], [-105.01426, 39.7765], [-105.014261, 39.776563], [-105.01429, 39.78013], [-105.01935, 39.78031], [-105.019332, 39.783575], [-105.01932, 39.78569], [-105.01456, 39.78569], [-105.0145, 39.78391], [-105.01114, 39.78379], [-105.011115, 39.78347], [-105.01096, 39.7815], [-105.00644, 39.78147], [-105.00638, 39.78197], [-105.00165, 39.78206], [-105.001698, 39.783312], [-105.00171, 39.78364], [-104.997861, 39.783698], [-104.99773, 39.7837], [-104.99805, 39.76686], [-104.998208, 39.76686], [-105.00061, 39.76686], [-105.00067, 39.7632], [-105.00201, 39.76317], [-105.00204, 39.76187], [-105.00536, 39.76194], [-105.011178, 39.76195], [-105.01126, 39.76195], [-105.01132, 39.76564], [-105.0112, 39.76564], [-105.00662, 39.76564]]]}}, {"type": "Feature", "properties": {"area_id": 6555, "city": "Denver", "state": "CO", "city_survey": true, "cat": "Hazardous", "grade": "D", "label": "D11", "res": true, "com": false, "ind": false, "holc_grade": "D"}, "geometry": {"type": "Polygon", "coordinates": [[[-104.99956, 39.758482], [-104.99956, 39.76041], [-104.99723, 39.76148], [-104.99513, 39.76131], [-104.99518, 39.75846], [-104.99953, 39.75846], [-104.99956, 39.75846], [-104.99956, 39.758482]]]}}, {"type": "Feature", "properties": {"area_id": 6531, "city": "Denver", "state": "CO", "city_survey": true, "cat": "Hazardous", "grade": "D", "label": "D12", "res": true, "com": false, "ind": false, "holc_grade": "D"}, "geometry": {"type": "Polygon", "coordinates": [[[-104.973389, 39.74474], [-104.974653, 39.74474], [-104.97902, 39.74474], [-104.979881, 39.744765], [-104.98347, 39.74487], [-104.98486, 39.74491], [-104.98486, 39.74621], [-104.98671, 39.74623], [-104.986694, 39.747524], [-104.986637, 39.752165], [-104.98657, 39.75767], [-104.97957, 39.76298], [-104.97334, 39.76772], [-104.973339, 39.767732], [-104.97322, 39.7691], [-104.97098, 39.77067], [-104.96838, 39.77288], [-104.96481, 39.77288], [-104.96475, 39.76814], [-104.96472, 39.7644], [-104.96594, 39.76454], [-104.97327, 39.76448], [-104.973237, 39.762038], [-104.97319, 39.7585], [-104.973363, 39.752746], [-104.97342, 39.75085], [-104.97332, 39.74695], [-104.973369, 39.745141], [-104.97338, 39.74474], [-104.973389, 39.74474]]]}}, {"type": "Feature", "properties": {"area_id": 6532, "city": "Denver", "state": "CO", "city_survey": true, "cat": "Hazardous", "grade": "D", "label": "D13", "res": true, "com": false, "ind": false, "holc_grade": "D"}, "geometry": {"type": "Polygon", "coordinates": [[[-104.96351, 39.74955], [-104.96352, 39.74819], [-104.96852, 39.7482], [-104.96854, 39.74698], [-104.96854, 39.74695], [-104.97219, 39.74695], [-104.97332, 39.74695], [-104.97342, 39.75085], [-104.973363, 39.752746], [-104.97319, 39.7585], [-104.973237, 39.762038], [-104.97327, 39.76448], [-104.96594, 39.76454], [-104.96472, 39.7644], [-104.9647, 39.76201], [-104.964374, 39.761993], [-104.96355, 39.76195], [-104.96346, 39.75827], [-104.963503, 39.750718], [-104.96351, 39.74955]]]}}, {"type": "Feature", "properties": {"area_id": 6557, "city": "Denver", "state": "CO", "city_survey": true, "cat": "Hazardous", "grade": "D", "label": "D14", "res": true, "com": false, "ind": false, "holc_grade": "D"}, "geometry": {"type": "Polygon", "coordinates": [[[-104.97324, 39.7898], [-104.97333, 39.7889], [-104.97816, 39.78768], [-104.978, 39.78381], [-104.97969, 39.77814], [-104.97971, 39.77645], [-104.98751, 39.77657], [-104.9877, 39.78366], [-104.98956, 39.78376], [-104.98944, 39.78849], [-104.98961, 39.79102], [-104.97321, 39.79092], [-104.97324, 39.7898]]]}}, {"type": "Feature", "properties": {"area_id": 6556, "city": "Denver", "state": "CO", "city_survey": true, "cat": "Hazardous", "grade": "D", "label": "D15", "res": true, "com": false, "ind": false, "holc_grade": "D"}, "geometry": {"type": "Polygon", "coordinates": [[[-104.95834, 39.77289], [-104.95834, 39.77291], [-104.95838, 39.77641], [-104.96344, 39.77643], [-104.96352, 39.77999], [-104.97117, 39.77999], [-104.97117, 39.78197], [-104.9713, 39.78366], [-104.95454, 39.78368], [-104.95463, 39.78039], [-104.95029, 39.78035], [-104.94823, 39.78018], [-104.94635, 39.78018], [-104.946211, 39.772893], [-104.94621, 39.77285], [-104.95834, 39.77289]]]}}, {"type": "Feature", "properties": {"area_id": 6553, "city": "Denver", "state": "CO", "city_survey": true, "cat": "Hazardous", "grade": "D", "label": "D16", "res": true, "com": false, "ind": false, "holc_grade": "D"}, "geometry": {"type": "Polygon", "coordinates": [[[-104.95464, 39.79111], [-104.94985, 39.79104], [-104.94973, 39.79016], [-104.94995, 39.79013], [-104.94976, 39.78913], [-104.95085, 39.78923], [-104.95081, 39.78799], [-104.95066, 39.78754], [-104.95076, 39.78376], [-104.95454, 39.78368], [-104.95464, 39.79111]]]}}, {"type": "Feature", "properties": {"area_id": 6538, "city": "Denver", "state": "CO", "city_survey": true, "cat": "Hazardous", "grade": "D", "label": "D2", "res": true, "com": false, "ind": false, "holc_grade": "D"}, "geometry": {"type": "Polygon", "coordinates": [[[-104.94065, 39.71942], [-104.94069, 39.71621], [-104.94067, 39.71136], [-104.940694, 39.71136], [-104.94593, 39.71133], [-104.946166, 39.711493], [-104.95085, 39.71473], [-104.95095, 39.71861], [-104.95934, 39.71871], [-104.95935, 39.71871], [-104.959352, 39.718797], [-104.95937, 39.71952], [-104.95623, 39.71952], [-104.940708, 39.71942], [-104.94065, 39.71942]]]}}, {"type": "Feature", "properties": {"area_id": 6548, "city": "Denver", "state": "CO", "city_survey": true, "cat": "Hazardous", "grade": "D", "label": "D3", "res": true, "com": false, "ind": false, "holc_grade": "D"}, "geometry": {"type": "MultiPolygon", "coordinates": [[[[-104.997923, 39.675366], [-104.99796, 39.67744], [-104.9979, 39.67855], [-104.99792, 39.67953], [-104.99826, 39.68041], [-104.99817, 39.6822], [-104.99155, 39.6822], [-104.98898, 39.6912], [-104.98846, 39.6912], [-104.98859, 39.68032], [-104.98774, 39.68037], [-104.98768, 39.67849], [-104.98878, 39.67846], [-104.98872, 39.67665], [-104.99107, 39.67668], [-104.99121, 39.66948], [-104.99236, 39.66948], [-104.99236, 39.67137], [-104.99752, 39.67129], [-104.99773, 39.67289], [-104.99773, 39.67422], [-104.99792, 39.675179], [-104.997923, 39.675366]]], [[[-105.00135, 39.67502], [-105.00061, 39.67504], [-105.00055, 39.68087], [-104.99958, 39.68046], [-104.99882, 39.67996], [-104.99848, 39.67933], [-104.99848, 39.6784], [-104.99873, 39.67686], [-104.99855, 39.67608], [-104.99857, 39.67452], [-104.9983, 39.67339], [-104.99823, 39.67234], [-104.99834, 39.67129], [-105.00135, 39.67131], [-105.00135, 39.67502]]]]}}, {"type": "Feature", "properties": {"area_id": 6572, "city": "Denver", "state": "CO", "city_survey": true, "cat": "Hazardous", "grade": "D", "label": "D4", "res": true, "com": false, "ind": false, "holc_grade": "D"}, "geometry": {"type": "MultiPolygon", "coordinates": [[[[-104.98647, 39.65082], [-104.986566, 39.651293], [-104.98658, 39.65136], [-104.986951, 39.651332], [-104.98712, 39.65132], [-104.98712, 39.651358], [-104.9871, 39.65292], [-104.98708, 39.65621], [-104.98645, 39.65624], [-104.98647, 39.65543], [-104.98533, 39.65546], [-104.98529, 39.65329], [-104.98283, 39.65329], [-104.9828, 39.65143], [-104.979719, 39.651259], [-104.9783, 39.65118], [-104.9783, 39.649492], [-104.9783, 39.6494], [-104.978301, 39.6494], [-104.98387, 39.64943], [-104.98647, 39.65082]]], [[[-104.99707, 39.65686], [-104.99689, 39.66242], [-104.99352, 39.66231], [-104.99368, 39.65686], [-104.99707, 39.65686]]], [[[-104.996523, 39.642159], [-104.99629, 39.64254], [-104.99625, 39.64397], [-104.99568, 39.64497], [-104.99486, 39.64563], [-104.99475, 39.64399], [-104.99379, 39.64396], [-104.993812, 39.642157], [-104.9939, 39.63501], [-104.99718, 39.6348], [-104.99714, 39.64115], [-104.996523, 39.642159]]], [[[-105.004531, 39.64222], [-105.00057, 39.65309], [-104.99468, 39.65306], [-104.99472, 39.65067], [-104.99689, 39.65067], [-104.997, 39.64563], [-105.00016, 39.64568], [-105.00016, 39.6422], [-105.001008, 39.642188], [-105.00456, 39.64214], [-105.004531, 39.64222]]]]}}, {"type": "Feature", "properties": {"area_id": 6554, "city": "Denver", "state": "CO", "city_survey": true, "cat": "Hazardous", "grade": "D", "label": "D5", "res": true, "com": false, "ind": false, "holc_grade": "D"}, "geometry": {"type": "Polygon", "coordinates": [[[-104.99919, 39.7039], [-105.00624, 39.70396], [-105.0063, 39.70741], [-105.010991, 39.70744], [-105.01103, 39.70744], [-105.011063, 39.711189], [-105.01112, 39.71752], [-105.00883, 39.71758], [-105.00862, 39.71609], [-105.00677, 39.71609], [-105.00633, 39.71565], [-105.00624, 39.71493], [-105.001842, 39.71487], [-105.00181, 39.71487], [-105.001807, 39.714808], [-105.001642, 39.711175], [-105.00148, 39.70762], [-104.99916, 39.70747], [-104.99919, 39.7039]]]}}, {"type": "Feature", "properties": {"area_id": 6558, "city": "Denver", "state": "CO", "city_survey": true, "cat": "Hazardous", "grade": "D", "label": "D6", "res": true, "com": false, "ind": false, "holc_grade": "D"}, "geometry": {"type": "Polygon", "coordinates": [[[-104.99771, 39.71657], [-105.00253, 39.71669], [-105.00289, 39.71859], [-105.00411, 39.71862], [-105.00414, 39.72264], [-105.00173, 39.72258], [-105.003769, 39.725767], [-105.00548, 39.72844], [-105.00667, 39.7337], [-105.00289, 39.73382], [-105.00283, 39.73638], [-105.00539, 39.73647], [-105.00536, 39.73943], [-105.005932, 39.740239], [-105.00732, 39.7422], [-105.00271, 39.74428], [-104.999618, 39.740197], [-104.99834, 39.73851], [-104.997358, 39.738503], [-104.99025, 39.73845], [-104.99016, 39.73429], [-104.9882, 39.73211], [-104.9884, 39.73173], [-104.988568, 39.727578], [-104.98858, 39.72728], [-104.99153, 39.7274], [-104.99153, 39.72573], [-104.99242, 39.7257], [-104.992419, 39.725669], [-104.99222, 39.71476], [-104.99649, 39.71476], [-104.99771, 39.71657]]]}}, {"type": "Feature", "properties": {"area_id": 6559, "city": "Denver", "state": "CO", "city_survey": true, "cat": "Hazardous", "grade": "D", "label": "D7", "res": true, "com": false, "ind": false, "holc_grade": "D"}, "geometry": {"type": "Polygon", "coordinates": [[[-105.024816, 39.711169], [-105.02504, 39.725541], [-105.02516, 39.733207], [-105.0252, 39.73579], [-105.025188, 39.73579], [-105.02199, 39.73582], [-105.017014, 39.732071], [-105.01692, 39.732], [-105.0141, 39.73197], [-105.014016, 39.725631], [-105.013985, 39.723223], [-105.01392, 39.71833], [-105.02042, 39.71848], [-105.02038, 39.71312], [-105.01564, 39.71305], [-105.015564, 39.711189], [-105.01556, 39.71109], [-105.02481, 39.7108], [-105.024816, 39.711169]]]}}, {"type": "Feature", "properties": {"area_id": 6560, "city": "Denver", "state": "CO", "city_survey": true, "cat": "Hazardous", "grade": "D", "label": "D8", "res": true, "com": false, "ind": false, "holc_grade": "D"}, "geometry": {"type": "Polygon", "coordinates": [[[-105.039704, 39.710977], [-105.04333, 39.71102], [-105.043333, 39.711266], [-105.04337, 39.71491], [-105.05322, 39.71501], [-105.05308, 39.7203], [-105.05219, 39.72034], [-105.05186, 39.72055], [-105.04398, 39.72043], [-105.04389, 39.7198], [-105.039702, 39.7198], [-105.03244, 39.7198], [-105.03244, 39.72278], [-105.039717, 39.722844], [-105.0427, 39.72287], [-105.042731, 39.725714], [-105.042834, 39.735004], [-105.04285, 39.73645], [-105.04285, 39.73664], [-105.039309, 39.736656], [-105.02991, 39.7367], [-105.02992, 39.744], [-105.025218, 39.743981], [-105.02505, 39.74398], [-105.02378, 39.74397], [-105.02374, 39.74033], [-105.02521, 39.74029], [-105.025208, 39.739401], [-105.025202, 39.736574], [-105.0252, 39.73579], [-105.02516, 39.733207], [-105.02504, 39.725541], [-105.024816, 39.711169], [-105.02481, 39.7108], [-105.025091, 39.710803], [-105.039704, 39.710977]]]}}, {"type": "Feature", "properties": {"area_id": 6566, "city": "Denver", "state": "CO", "city_survey": true, "cat": "Hazardous", "grade": "D", "label": "D9", "res": true, "com": false, "ind": false, "holc_grade": "D"}, "geometry": {"type": "Polygon", "coordinates": [[[-105.01581, 39.75113], [-105.01581, 39.75034], [-105.01753, 39.75041], [-105.01781, 39.74998], [-105.01799, 39.74966], [-105.01842, 39.74956], [-105.01899, 39.74941], [-105.01899, 39.74763], [-105.02494, 39.7476], [-105.02491, 39.74887], [-105.02492, 39.75124], [-105.02442, 39.75135], [-105.02427, 39.75606], [-105.02438, 39.75749], [-105.02438, 39.758474], [-105.02438, 39.75866], [-105.025233, 39.75866], [-105.02524, 39.75866], [-105.02529, 39.76197], [-105.02524, 39.76197], [-105.01126, 39.76195], [-105.011178, 39.76195], [-105.00536, 39.76194], [-105.00536, 39.76091], [-105.00439, 39.76019], [-105.011394, 39.754861], [-105.01171, 39.75462], [-105.0111, 39.7533], [-105.01581, 39.75113]], [[-105.02368, 39.75002], [-105.02136, 39.74992], [-105.02056, 39.74983], [-105.02069, 39.75105], [-105.02215, 39.75124], [-105.02364, 39.75124], [-105.02368, 39.75002]]]}}, {"type": "Feature", "properties": {"area_id": 11170, "city": "Denver", "state": "CO", "city_survey": true, "cat": "Commercial", "grade": null, "label": "Commercial", "res": false, "com": true, "ind": false, "holc_grade": null}, "geometry": {"type": "MultiPolygon", "coordinates": [[[[-104.98858, 39.72728], [-104.988568, 39.727578], [-104.9884, 39.73173], [-104.9882, 39.73211], [-104.99016, 39.73429], [-104.99025, 39.73845], [-104.997358, 39.738503], [-104.99834, 39.73851], [-104.99962, 39.740197], [-105.00151, 39.74269], [-105.00271, 39.74428], [-105.0013, 39.7456], [-105.00124, 39.7475], [-105.00236, 39.74903], [-105.00466, 39.75062], [-105.004399, 39.750816], [-104.996947, 39.756409], [-104.9964, 39.75682], [-104.99433, 39.75833], [-104.9923, 39.75884], [-104.99056, 39.75962], [-104.98758, 39.76193], [-104.98243, 39.7657], [-104.98066, 39.76638], [-104.973576, 39.771533], [-104.97303, 39.77193], [-104.971124, 39.770906], [-104.97087, 39.77077], [-104.97098, 39.77067], [-104.97322, 39.7691], [-104.973339, 39.767732], [-104.97334, 39.76772], [-104.97957, 39.76298], [-104.98657, 39.75767], [-104.986637, 39.752165], [-104.986694, 39.747524], [-104.98671, 39.74623], [-104.987407, 39.74623], [-104.98744, 39.74623], [-104.98744, 39.74502], [-104.987409, 39.74502], [-104.98486, 39.74503], [-104.98486, 39.74491], [-104.98347, 39.74487], [-104.98355, 39.74007], [-104.986203, 39.74009], [-104.987389, 39.740099], [-104.98752, 39.7401], [-104.98753, 39.73907], [-104.987403, 39.739005], [-104.98616, 39.73837], [-104.986194, 39.732039], [-104.98622, 39.727277], [-104.98622, 39.72727], [-104.986294, 39.727276], [-104.98691, 39.72733], [-104.986909, 39.727275], [-104.986903, 39.726617], [-104.98682, 39.71844], [-104.986751, 39.711157], [-104.98673, 39.70893], [-104.98664, 39.70038], [-104.987477, 39.700329], [-104.98795, 39.7003], [-104.98792, 39.71219], [-104.98855, 39.71226], [-104.988577, 39.725647], [-104.98858, 39.72728]]], [[[-104.9887, 39.65295], [-104.98852, 39.6568], [-104.987589, 39.656791], [-104.98644, 39.65678], [-104.98645, 39.65624], [-104.98708, 39.65621], [-104.9871, 39.65292], [-104.987663, 39.652931], [-104.9887, 39.65295]]], [[[-104.98694, 39.68037], [-104.987571, 39.68037], [-104.98774, 39.68037], [-104.98859, 39.68032], [-104.98846, 39.6912], [-104.98748, 39.691206], [-104.98686, 39.69121], [-104.98694, 39.68037]]]]}}, {"type": "Feature", "properties": {"area_id": 11171, "city": "Denver", "state": "CO", "city_survey": true, "cat": "Industrial", "grade": null, "label": "Industrial", "res": false, "com": false, "ind": true, "holc_grade": null}, "geometry": {"type": "MultiPolygon", "coordinates": [[[[-105.01692, 39.732], [-105.017014, 39.732071], [-105.02199, 39.73582], [-105.025188, 39.73579], [-105.0252, 39.73579], [-105.025202, 39.736574], [-105.025208, 39.739401], [-105.02521, 39.74029], [-105.02374, 39.74033], [-105.02378, 39.74397], [-105.02505, 39.74398], [-105.024978, 39.746362], [-105.02494, 39.7476], [-105.01899, 39.74763], [-105.01899, 39.74941], [-105.01842, 39.74956], [-105.01799, 39.74966], [-105.01781, 39.74998], [-105.01753, 39.75041], [-105.01581, 39.75034], [-105.01581, 39.75113], [-105.0111, 39.7533], [-105.01171, 39.75462], [-105.011394, 39.754861], [-105.00439, 39.76019], [-105.00536, 39.76091], [-105.00536, 39.76194], [-105.00204, 39.76187], [-105.00201, 39.76317], [-105.00067, 39.7632], [-105.00061, 39.76686], [-104.998208, 39.76686], [-104.99805, 39.76686], [-104.99773, 39.7837], [-104.99692, 39.78941], [-104.99224, 39.78965], [-104.98947, 39.78719], [-104.98956, 39.78376], [-104.9877, 39.78366], [-104.98751, 39.77657], [-104.97971, 39.77645], [-104.97969, 39.77814], [-104.978, 39.78381], [-104.97816, 39.78768], [-104.97333, 39.7889], [-104.971533, 39.78913], [-104.9607, 39.79052], [-104.9713, 39.78366], [-104.97117, 39.78197], [-104.97117, 39.77999], [-104.96352, 39.77999], [-104.96344, 39.77643], [-104.95947, 39.77641], [-104.959394, 39.772893], [-104.95939, 39.7727], [-104.95947, 39.77203], [-104.959746, 39.76823], [-104.95975, 39.76817], [-104.96475, 39.76814], [-104.96481, 39.77288], [-104.96838, 39.77288], [-104.97087, 39.77077], [-104.971124, 39.770906], [-104.97303, 39.77193], [-104.973576, 39.771533], [-104.98066, 39.76638], [-104.98243, 39.7657], [-104.98758, 39.76193], [-104.99056, 39.75962], [-104.9923, 39.75884], [-104.99433, 39.75833], [-104.9964, 39.75682], [-104.996947, 39.756409], [-105.004399, 39.750816], [-105.00466, 39.75062], [-105.00236, 39.74903], [-105.00124, 39.7475], [-105.0013, 39.7456], [-105.00271, 39.74428], [-105.00732, 39.7422], [-105.005932, 39.740239], [-105.00536, 39.73943], [-105.00539, 39.73647], [-105.00514, 39.73375], [-105.00667, 39.7337], [-105.00548, 39.72844], [-105.00498, 39.72767], [-105.007618, 39.725621], [-105.01013, 39.72367], [-105.01399, 39.72357], [-105.014017, 39.725631], [-105.0141, 39.73197], [-105.01692, 39.732]], [[-104.99956, 39.75846], [-104.99953, 39.75846], [-104.99518, 39.75846], [-104.99513, 39.76131], [-104.99723, 39.76148], [-104.99956, 39.76041], [-104.99956, 39.758482], [-104.99956, 39.75846]]], [[[-104.99486, 39.70671], [-104.99547, 39.70879], [-104.99709, 39.71199], [-104.99893, 39.71394], [-104.99649, 39.71476], [-104.99222, 39.71476], [-104.99215, 39.71116], [-104.98995, 39.71122], [-104.98998, 39.71217], [-104.98855, 39.71226], [-104.98792, 39.71219], [-104.98795, 39.7003], [-104.987477, 39.700329], [-104.98664, 39.70038], [-104.98286, 39.70035], [-104.982831, 39.696656], [-104.98283, 39.69655], [-104.986249, 39.696627], [-104.98682, 39.69664], [-104.98682, 39.696629], [-104.98686, 39.69121], [-104.98748, 39.691206], [-104.98846, 39.6912], [-104.98898, 39.6912], [-104.99031, 39.69099], [-104.99145, 39.69644], [-104.991547, 39.696656], [-104.99198, 39.69762], [-104.99145, 39.69914], [-104.99469, 39.70375], [-104.99539, 39.70479], [-104.99486, 39.70671]]]]}}]}