{"type": "FeatureCollection", "features": [{"type": "Feature", "geometry": {"type": "Point", "coordinates": [-93.22055555555556, 44.87916666666667]}, "properties": {"facility_name": "NORTHWEST AIRLINES INC", "industry": null, "tri_facility_id": "55111NRTHW5101N"}}, {"type": "Feature", "geometry": {"type": "Point", "coordinates": [-93.279583, 44.98478]}, "properties": {"facility_name": "WEATHER-RITE LLC", "industry": null, "tri_facility_id": "55401WTHRR616N5"}}, {"type": "Feature", "geometry": {"type": "Point", "coordinates": [-93.28166666666667, 44.97694444444445]}, "properties": {"facility_name": "WANNER ENGINEERING INC", "industry": null, "tri_facility_id": "55403WNNRN124CH"}}, {"type": "Feature", "geometry": {"type": "Point", "coordinates": [-93.25, 44.958333]}, "properties": {"facility_name": "BYSTROM BROTHERS INC", "industry": null, "tri_facility_id": "55404BYSTR2200S"}}, {"type": "Feature", "geometry": {"type": "Point", "coordinates": [-93.292222, 44.978056]}, "properties": {"facility_name": "A & L LABORATORIES INC", "industry": null, "tri_facility_id": "55405LLBRT1001G"}}, {"type": "Feature", "geometry": {"type": "Point", "coordinates": [-93.291667, 44.963889]}, "properties": {"facility_name": "PRECISION PLATING INC", "industry": null, "tri_facility_id": "55405PRCSN230NO"}}, {"type": "Feature", "geometry": {"type": "Point", "coordinates": [-93.234167, 44.946111]}, "properties": {"facility_name": "BOKER'S INC.", "industry": null, "tri_facility_id": "55406BKRSN3104S"}}, {"type": "Feature", "geometry": {"type": "Point", "coordinates": [-93.2325, 44.954444]}, "properties": {"facility_name": "FLOUR CITY ARCHITECTURAL METALS", "industry": null, "tri_facility_id": "55406FLRCT26372"}}, {"type": "Feature", "geometry": {"type": "Point", "coordinates": [-93.216667, 44.958333]}, "properties": {"facility_name": "H & B ELEVATORS INC.", "industry": null, "tri_facility_id": "55406HNSTN26293"}}, {"type": "Feature", "geometry": {"type": "Point", "coordinates": [-93.225, 44.954167]}, "properties": {"facility_name": "HIAWATHA METALCRAFT BLDG # 2", "industry": null, "tri_facility_id": "55406HWTHM26313"}}, {"type": "Feature", "geometry": {"type": "Point", "coordinates": [-93.225, 44.954167]}, "properties": {"facility_name": "HIAWATHA METALCRAFT", "industry": null, "tri_facility_id": "55406HWTHP3119E"}}, {"type": "Feature", "geometry": {"type": "Point", "coordinates": [-93.226874, 44.932165]}, "properties": {"facility_name": "PURINA MILLS LLC", "industry": null, "tri_facility_id": "55406PRNML3901H"}}, {"type": "Feature", "geometry": {"type": "Point", "coordinates": [-93.255889, 44.9517]}, "properties": {"facility_name": "DAYTON ROGERS MANUFACTURING CO", "industry": null, "tri_facility_id": "55407DYTNR28241"}}, {"type": "Feature", "geometry": {"type": "Point", "coordinates": [-93.24557, 44.952]}, "properties": {"facility_name": "SMITH FOUNDRY CO", "industry": null, "tri_facility_id": "55407SMTHF1855E"}}, {"type": "Feature", "geometry": {"type": "Point", "coordinates": [-93.28833333333333, 44.952222222222225]}, "properties": {"facility_name": "MIRROR FACTORY INC", "industry": null, "tri_facility_id": "55408GYTST2744L"}}, {"type": "Feature", "geometry": {"type": "Point", "coordinates": [-93.276111, 44.949167]}, "properties": {"facility_name": "NICO PRODUCTS INC", "industry": null, "tri_facility_id": "55408NCPRD29291"}}, {"type": "Feature", "geometry": {"type": "Point", "coordinates": [-93.27833333333334, 45.01416666666667]}, "properties": {"facility_name": "BUILDING MATERIALS MANUFACTURING LLC", "industry": null, "tri_facility_id": "55411BLDNG50LOW"}}, {"type": "Feature", "geometry": {"type": "Point", "coordinates": [-93.267778, 45.0]}, "properties": {"facility_name": "DIAMOND VOGEL INC.", "industry": null, "tri_facility_id": "55411DMNDV2020N"}}, {"type": "Feature", "geometry": {"type": "Point", "coordinates": [-93.280278, 45.010833]}, "properties": {"facility_name": "GRAPHICS UNLIMITED INC", "industry": null, "tri_facility_id": "55411GRPHC3000S"}}, {"type": "Feature", "geometry": {"type": "Point", "coordinates": [-93.276111, 45.012222]}, "properties": {"facility_name": "JAPS/OLSON CO", "industry": null, "tri_facility_id": "55411JPSLS30NOR"}}, {"type": "Feature", "geometry": {"type": "Point", "coordinates": [-93.3, 44.9987]}, "properties": {"facility_name": "COLOPLAST MANUFACTURING US LLC", "industry": null, "tri_facility_id": "55411MNTRR1615W"}}, {"type": "Feature", "geometry": {"type": "Point", "coordinates": [-93.285833, 44.999722]}, "properties": {"facility_name": "KEMPS LLC", "industry": null, "tri_facility_id": "55411MRGLD420WE"}}, {"type": "Feature", "geometry": {"type": "Point", "coordinates": [-93.2735, 44.998]}, "properties": {"facility_name": "PIONEER METAL FINISHING", "industry": null, "tri_facility_id": "55411PNRMT1717W"}}, {"type": "Feature", "geometry": {"type": "Point", "coordinates": [-93.281667, 45.017222]}, "properties": {"facility_name": "ILLBRUCK FOAMTEC INC.", "industry": null, "tri_facility_id": "55412LLBRC3800W"}}, {"type": "Feature", "geometry": {"type": "Point", "coordinates": [-93.286389, 45.027778]}, "properties": {"facility_name": "FLAME METALS MINNEAPOLIS PLANT", "industry": null, "tri_facility_id": "55412NRTHW4056W"}}, {"type": "Feature", "geometry": {"type": "Point", "coordinates": [-93.281111, 45.025]}, "properties": {"facility_name": "FEDERAL FOAM TECHNOLOGIES INC", "industry": null, "tri_facility_id": "55412RTXND3558S"}}, {"type": "Feature", "geometry": {"type": "Point", "coordinates": [-93.212778, 45.000833]}, "properties": {"facility_name": "BUREAU OF ENGRAVING INC ELECTRONICS GROUP", "industry": null, "tri_facility_id": "55413BRFNG3311B"}}, {"type": "Feature", "geometry": {"type": "Point", "coordinates": [-93.26361111111112, 44.980000000000004]}, "properties": {"facility_name": "PARKER HANNIFIN CORP GRESEN HYDRAULICS", "industry": null, "tri_facility_id": "55413DNCRP600HO"}}, {"type": "Feature", "geometry": {"type": "Point", "coordinates": [-93.230556, 44.998611]}, "properties": {"facility_name": "DAIRY FRESH CO", "industry": null, "tri_facility_id": "55413DRYFR2112B"}}, {"type": "Feature", "geometry": {"type": "Point", "coordinates": [-93.2459, 45.000076]}, "properties": {"facility_name": "DAVIS FROST INC", "industry": null, "tri_facility_id": "55413FRSTP1209N"}}, {"type": "Feature", "geometry": {"type": "Point", "coordinates": [-93.23722222222223, 44.999722222222225]}, "properties": {"facility_name": "GENERAL MILLS OPERATIONS INC. PURITY OATS FACILITY", "industry": null, "tri_facility_id": "55413GNRLM1201J"}}, {"type": "Feature", "geometry": {"type": "Point", "coordinates": [-93.270784, 44.996386]}, "properties": {"facility_name": "GRACO INC", "industry": null, "tri_facility_id": "55413GRCNC1024S"}}, {"type": "Feature", "geometry": {"type": "Point", "coordinates": [-93.2679, 44.999]}, "properties": {"facility_name": "GRACO MINNESOTA INC - MINNEAPOLIS", "industry": null, "tri_facility_id": "55413GRCNC6011T"}}, {"type": "Feature", "geometry": {"type": "Point", "coordinates": [-93.25, 44.991667]}, "properties": {"facility_name": "ELECTRIC MACHINERY CO LLC", "industry": null, "tri_facility_id": "55413LCTRC800CE"}}, {"type": "Feature", "geometry": {"type": "Point", "coordinates": [-93.228111, 44.9952]}, "properties": {"facility_name": "LAND O'LAKES FARMLAND FEED", "industry": null, "tri_facility_id": "55413LNDLK2300N"}}, {"type": "Feature", "geometry": {"type": "Point", "coordinates": [-93.242778, 44.991667]}, "properties": {"facility_name": "MINNESOTA METAL FINISHING INC", "industry": null, "tri_facility_id": "55413MNNST909WI"}}, {"type": "Feature", "geometry": {"type": "Point", "coordinates": [-93.231575, 44.9987]}, "properties": {"facility_name": "INTERPLASTIC CORP", "industry": null, "tri_facility_id": "55413NTRPL2015N"}}, {"type": "Feature", "geometry": {"type": "Point", "coordinates": [-93.2525, 45.002778]}, "properties": {"facility_name": "PERMATITE MANUFACTURING", "industry": null, "tri_facility_id": "55413PRMTT71215"}}, {"type": "Feature", "geometry": {"type": "Point", "coordinates": [-93.23388888888888, 44.99388888888889]}, "properties": {"facility_name": "PROSPECT FOUNDRY LLC", "industry": null, "tri_facility_id": "55413PRSPC1225W"}}, {"type": "Feature", "geometry": {"type": "Point", "coordinates": [-93.256944, 44.99]}, "properties": {"facility_name": "SUPERIOR PLATING INC", "industry": null, "tri_facility_id": "55413SPRRP3151S"}}, {"type": "Feature", "geometry": {"type": "Point", "coordinates": [-93.2175, 44.9925]}, "properties": {"facility_name": "TWIN CITY CHROMIUM PLATING", "industry": null, "tri_facility_id": "55413TWNCT641NE"}}, {"type": "Feature", "geometry": {"type": "Point", "coordinates": [-93.216944, 44.989722]}, "properties": {"facility_name": "EXCEL METAL FINISHING", "industry": null, "tri_facility_id": "55413XCLMT2501N"}}, {"type": "Feature", "geometry": {"type": "Point", "coordinates": [-93.2374, 44.9663]}, "properties": {"facility_name": "GREATBATCH LTD. (D/B/A GREATBATCH MEDICAL)", "industry": null, "tri_facility_id": "55414GLBTL73024"}}, {"type": "Feature", "geometry": {"type": "Point", "coordinates": [-93.209167, 44.971944]}, "properties": {"facility_name": "H B FULLER CO", "industry": null, "tri_facility_id": "55414HBFLL520MA"}}, {"type": "Feature", "geometry": {"type": "Point", "coordinates": [-93.210882, 44.984208]}, "properties": {"facility_name": "KOHL & MADDEN PRINTING INK COR P", "industry": null, "tri_facility_id": "55414KHLMD78229"}}, {"type": "Feature", "geometry": {"type": "Point", "coordinates": [-93.201111, 44.973056]}, "properties": {"facility_name": "LIFECORE BIOMEDICAL INC", "industry": null, "tri_facility_id": "55414LFCRB31527"}}, {"type": "Feature", "geometry": {"type": "Point", "coordinates": [-93.229722, 44.979722]}, "properties": {"facility_name": "MCLAUGHLIN GORMLEY KING CO", "industry": null, "tri_facility_id": "55414MCLGH1715F"}}, {"type": "Feature", "geometry": {"type": "Point", "coordinates": [-93.220797, 44.971404]}, "properties": {"facility_name": "PECHINEY PLASTIC PACKAGING PPMM", "industry": null, "tri_facility_id": "55414MRCNN15026"}}, {"type": "Feature", "geometry": {"type": "Point", "coordinates": [-93.241819, 44.9916]}, "properties": {"facility_name": "BODYCOTE METALLURGICAL", "industry": null, "tri_facility_id": "55414MTLLR900EA"}}, {"type": "Feature", "geometry": {"type": "Point", "coordinates": [-93.247813, 44.982906]}, "properties": {"facility_name": "METAL MATIC INC", "industry": null, "tri_facility_id": "55414MTLMT6292N"}}, {"type": "Feature", "geometry": {"type": "Point", "coordinates": [-93.2125, 44.974444]}, "properties": {"facility_name": "NORTHERN STAR CO", "industry": null, "tri_facility_id": "55414NRTHR31715"}}, {"type": "Feature", "geometry": {"type": "Point", "coordinates": [-93.214444, 44.9825]}, "properties": {"facility_name": "MACTAC", "industry": null, "tri_facility_id": "55414NVRSL800KA"}}, {"type": "Feature", "geometry": {"type": "Point", "coordinates": [-93.25, 45.0]}, "properties": {"facility_name": "ADM MILLING CO", "industry": null, "tri_facility_id": "55414PLLSB335MA"}}, {"type": "Feature", "geometry": {"type": "Point", "coordinates": [-93.249444, 44.983333]}, "properties": {"facility_name": "PRIVATE LABEL CHEMICALS INC", "industry": null, "tri_facility_id": "55414PRVTL601SE"}}, {"type": "Feature", "geometry": {"type": "Point", "coordinates": [-93.218333, 44.976389]}, "properties": {"facility_name": "REICHHOLD CHEMICALS INC", "industry": null, "tri_facility_id": "55414SPNCR52525"}}, {"type": "Feature", "geometry": {"type": "Point", "coordinates": [-93.206944, 44.988889]}, "properties": {"facility_name": "TWIN CITY DIE CASTINGS CO", "industry": null, "tri_facility_id": "55414TWNCT10703"}}, {"type": "Feature", "geometry": {"type": "Point", "coordinates": [-93.261111, 44.966667]}, "properties": {"facility_name": "BUREAU OF ENGRAVING INC  GRAPHICS DIV", "industry": null, "tri_facility_id": "55415BRFNG500S4"}}, {"type": "Feature", "geometry": {"type": "Point", "coordinates": [-93.26027777777777, 44.971944444444446]}, "properties": {"facility_name": "DOUGLAS CORP", "industry": null, "tri_facility_id": "55415DGLSC62012"}}, {"type": "Feature", "geometry": {"type": "Point", "coordinates": [-93.264482, 44.976421]}, "properties": {"facility_name": "AUGSBURG FORTRESS PUBLISHING", "industry": null, "tri_facility_id": "55415GSBRG426S5"}}, {"type": "Feature", "geometry": {"type": "Point", "coordinates": [-93.256111, 44.975556]}, "properties": {"facility_name": "SAMUEL BINGHAM CO", "industry": null, "tri_facility_id": "55415SMLBN900SO"}}, {"type": "Feature", "geometry": {"type": "Point", "coordinates": [-93.253611, 44.974167]}, "properties": {"facility_name": "VALSPAR CORP", "industry": null, "tri_facility_id": "55415THVLS1101S"}}, {"type": "Feature", "geometry": {"type": "Point", "coordinates": [-93.351667, 44.938056]}, "properties": {"facility_name": "DOUGLAS CORP PLATING DIV", "industry": null, "tri_facility_id": "55416DGLSC3250X"}}, {"type": "Feature", "geometry": {"type": "Point", "coordinates": [-93.355, 44.966111]}, "properties": {"facility_name": "HONEYWELL INC", "industry": null, "tri_facility_id": "55416HNYWL1625Z"}}, {"type": "Feature", "geometry": {"type": "Point", "coordinates": [-93.345833, 44.963611]}, "properties": {"facility_name": "KAPAK CORP", "industry": null, "tri_facility_id": "55416KPKCR5305P"}}, {"type": "Feature", "geometry": {"type": "Point", "coordinates": [-93.342222, 44.943889]}, "properties": {"facility_name": "NORTHLAND ALUMINUM PRODUCTS I NC", "industry": null, "tri_facility_id": "55416NRTHL5005H"}}, {"type": "Feature", "geometry": {"type": "Point", "coordinates": [-93.345378, 44.9603]}, "properties": {"facility_name": "NESTLE HEALTHCARE NUTRITION, INC.", "industry": null, "tri_facility_id": "55416SNDZN5320W"}}, {"type": "Feature", "geometry": {"type": "Point", "coordinates": [-93.340091, 44.94071]}, "properties": {"facility_name": "SUPREME FINISHERS INC", "industry": null, "tri_facility_id": "55416SPRMF4820W"}}, {"type": "Feature", "geometry": {"type": "Point", "coordinates": [-93.266667, 45.013889]}, "properties": {"facility_name": "GRACE-LEE PRODUCTS INC", "industry": null, "tri_facility_id": "55418GRCLP25402"}}, {"type": "Feature", "geometry": {"type": "Point", "coordinates": [-93.268611, 45.015833]}, "properties": {"facility_name": "HARD CHROME INC.", "industry": null, "tri_facility_id": "55418HRDCH26312"}}, {"type": "Feature", "geometry": {"type": "Point", "coordinates": [-93.27, 45.026111]}, "properties": {"facility_name": "APPLIED COATING TECHNOLOGY INC PLANT 3", "industry": null, "tri_facility_id": "55418LCTRS3225C"}}, {"type": "Feature", "geometry": {"type": "Point", "coordinates": [-93.262125, 45.032]}, "properties": {"facility_name": "MID-CONTINENT ENGINEERING INC", "industry": null, "tri_facility_id": "55418MDCNT40535"}}, {"type": "Feature", "geometry": {"type": "Point", "coordinates": [-93.264444, 45.016667]}, "properties": {"facility_name": "MED-TEK INC", "industry": null, "tri_facility_id": "55418MDTKN26392"}}, {"type": "Feature", "geometry": {"type": "Point", "coordinates": [-93.263, 45.0167]}, "properties": {"facility_name": "AMERICAN CONVERTERS INC", "industry": null, "tri_facility_id": "55418MRCNC2705U"}}, {"type": "Feature", "geometry": {"type": "Point", "coordinates": [-93.2523, 45.0073]}, "properties": {"facility_name": "UNIVERSAL PLATING INC", "industry": null, "tri_facility_id": "55418NVRSL1900M"}}, {"type": "Feature", "geometry": {"type": "Point", "coordinates": [-93.271667, 45.005833]}, "properties": {"facility_name": "PACKAGING CORP OF AMERICA", "industry": null, "tri_facility_id": "55418PCKGN1821N"}}, {"type": "Feature", "geometry": {"type": "Point", "coordinates": [-93.275, 45.020833333333336]}, "properties": {"facility_name": "XCEL ENERGY RIVERSIDE GENERATING PLANT", "industry": null, "tri_facility_id": "55418RVRSD3100M"}}, {"type": "Feature", "geometry": {"type": "Point", "coordinates": [-93.25, 45.0]}, "properties": {"facility_name": "WHIRL-AIR-FLOW", "industry": null, "tri_facility_id": "55418WHRLR1515C"}}, {"type": "Feature", "geometry": {"type": "Point", "coordinates": [-93.258333, 45.025]}, "properties": {"facility_name": "ZALK STEEL & SUPPLY CO", "industry": null, "tri_facility_id": "55418ZLKST446ST"}}, {"type": "Feature", "geometry": {"type": "Point", "coordinates": [-93.28472222222221, 44.89277777777778]}, "properties": {"facility_name": "HOLCIM - MWR INC. MINNEAPOLIS READY MIX", "industry": null, "tri_facility_id": "55419GGRGT400W6"}}, {"type": "Feature", "geometry": {"type": "Point", "coordinates": [-93.27997, 44.894141]}, "properties": {"facility_name": "LEJEUNE STEEL CO. (118 MINNEAPOLIS)", "industry": null, "tri_facility_id": "55419LJNST118WE"}}, {"type": "Feature", "geometry": {"type": "Point", "coordinates": [-93.285763, 44.847136]}, "properties": {"facility_name": "FMS CORP", "industry": null, "tri_facility_id": "55420FMSCR8635H"}}, {"type": "Feature", "geometry": {"type": "Point", "coordinates": [-93.2856, 44.8457]}, "properties": {"facility_name": "CONSOLIDATE PRECISION PRODUCTS-MINNEAPOLIS OPERATION", "industry": null, "tri_facility_id": "55420HTCHC8701H"}}, {"type": "Feature", "geometry": {"type": "Point", "coordinates": [-93.3, 44.866667]}, "properties": {"facility_name": "SEAGATE TECH INC, MPS", "industry": null, "tri_facility_id": "55420MGNTC8001E"}}, {"type": "Feature", "geometry": {"type": "Point", "coordinates": [-93.28472222222221, 44.84805555555556]}, "properties": {"facility_name": "ONYX SPECIAL SERVICES INC", "industry": null, "tri_facility_id": "55420NYXSP405W8"}}, {"type": "Feature", "geometry": {"type": "Point", "coordinates": [-93.283692, 44.848]}, "properties": {"facility_name": "DEGUSSA CONSTRUCTION CHEMICALS OPERATIONS INC", "industry": null, "tri_facility_id": "55420RXNRD333WE"}}, {"type": "Feature", "geometry": {"type": "Point", "coordinates": [-93.275278, 45.060833]}, "properties": {"facility_name": "QUEBECOR PRINTING", "industry": null, "tri_facility_id": "55421QBCRP5101I"}}, {"type": "Feature", "geometry": {"type": "Point", "coordinates": [-93.359722, 44.993889]}, "properties": {"facility_name": "RESIDEO TECHNOLOGIES INC.", "industry": null, "tri_facility_id": "55422HNYWL1985D"}}, {"type": "Feature", "geometry": {"type": "Point", "coordinates": [-93.352778, 44.9875]}, "properties": {"facility_name": "TENNANT CO - PLANT 1", "industry": null, "tri_facility_id": "55422TNNNT701NO"}}, {"type": "Feature", "geometry": {"type": "Point", "coordinates": [-93.301933, 44.864834]}, "properties": {"facility_name": "BARREL FINISH INC", "industry": null, "tri_facility_id": "55423BRRLF7630K"}}, {"type": "Feature", "geometry": {"type": "Point", "coordinates": [-93.225, 44.855556]}, "properties": {"facility_name": "GENERAL DYNAMICS ADVANCED INFORMATION SYSTEMS HQG/D", "industry": null, "tri_facility_id": "55425CNTRL3101E"}}, {"type": "Feature", "geometry": {"type": "Point", "coordinates": [-93.235278, 44.8475]}, "properties": {"facility_name": "SKYWATER TECHNOLOGY FOUNDRY INC", "industry": null, "tri_facility_id": "55425CYPRS2401E"}}, {"type": "Feature", "geometry": {"type": "Point", "coordinates": [-93.235278, 44.8475]}, "properties": {"facility_name": "VTC INC RIVER RIDGE", "industry": null, "tri_facility_id": "55425VTCNC2401E"}}, {"type": "Feature", "geometry": {"type": "Point", "coordinates": [-93.230833, 44.853056]}, "properties": {"facility_name": "POLAR SEMICONDUCTOR LLC", "industry": null, "tri_facility_id": "55425VTCNC2800E"}}, {"type": "Feature", "geometry": {"type": "Point", "coordinates": [-93.3572, 44.9427]}, "properties": {"facility_name": "HONEYWELL ADVANCED CIRCUITS INC", "industry": null, "tri_facility_id": "55426CNTRL3965M"}}, {"type": "Feature", "geometry": {"type": "Point", "coordinates": [-93.361667, 44.959167]}, "properties": {"facility_name": "FOOD PRODUCERS INTERNATIONAL", "industry": null, "tri_facility_id": "55426FDPRD2401E"}}, {"type": "Feature", "geometry": {"type": "Point", "coordinates": [-93.368333, 44.935278]}, "properties": {"facility_name": "FLAME METALS PROCESSING CORP PLANT 1", "industry": null, "tri_facility_id": "55426FLMMT7317W"}}, {"type": "Feature", "geometry": {"type": "Point", "coordinates": [-93.366389, 44.937778]}, "properties": {"facility_name": "HARDCOAT INC", "industry": null, "tri_facility_id": "55426HRDCT7300W"}}, {"type": "Feature", "geometry": {"type": "Point", "coordinates": [-93.36055555555555, 44.93333333333333]}, "properties": {"facility_name": "LIND ELECTRONICS INC", "industry": null, "tri_facility_id": "55426LNDLC6414C"}}, {"type": "Feature", "geometry": {"type": "Point", "coordinates": [-93.366085, 44.933954]}, "properties": {"facility_name": "MAGNETIC PERIPHERALS INC", "industry": null, "tri_facility_id": "55426MGNTC6831O"}}, {"type": "Feature", "geometry": {"type": "Point", "coordinates": [-93.375833, 44.931389]}, "properties": {"facility_name": "SUPER RADIATOR COILS", "industry": null, "tri_facility_id": "55426SPRRD6714W"}}, {"type": "Feature", "geometry": {"type": "Point", "coordinates": [-93.3625, 44.986111]}, "properties": {"facility_name": "HONEYWELL INC", "industry": null, "tri_facility_id": "55427HNYWL6300O"}}, {"type": "Feature", "geometry": {"type": "Point", "coordinates": [-93.2097, 44.9917]}, "properties": {"facility_name": "HAWKINS INC. - MINNEAPOLIS", "industry": null, "tri_facility_id": "55427HWKNS3100E"}}, {"type": "Feature", "geometry": {"type": "Point", "coordinates": [-93.372692, 45.021808]}, "properties": {"facility_name": "DAKOTA GROWERS PASTA CO MINNESOTA DIV", "industry": null, "tri_facility_id": "55427NRTHM73003"}}, {"type": "Feature", "geometry": {"type": "Point", "coordinates": [-93.370176, 45.0124]}, "properties": {"facility_name": "PROCESS DISPLAYS CO", "industry": null, "tri_facility_id": "55427PRCSS71083"}}, {"type": "Feature", "geometry": {"type": "Point", "coordinates": [-93.37805555555555, 45.01638888888889]}, "properties": {"facility_name": "TRC CIRCUITS INC", "industry": null, "tri_facility_id": "55427TRCCR3300W"}}, {"type": "Feature", "geometry": {"type": "Point", "coordinates": [-93.375, 45.041667]}, "properties": {"facility_name": "NORDIC PRESS INC", "industry": null, "tri_facility_id": "55428NRDCP5017B"}}, {"type": "Feature", "geometry": {"type": "Point", "coordinates": [-93.375833, 45.038056]}, "properties": {"facility_name": "ROBINSON RUBBER PRODUCTS CO", "industry": null, "tri_facility_id": "55428RBNSN4600Q"}}, {"type": "Feature", "geometry": {"type": "Point", "coordinates": [-93.316667, 45.044444]}, "properties": {"facility_name": "HOWE CO", "industry": null, "tri_facility_id": "55430CRPMT4821X"}}, {"type": "Feature", "geometry": {"type": "Point", "coordinates": [-93.303333, 45.076944]}, "properties": {"facility_name": "HIAWATHA RUBBER CO", "industry": null, "tri_facility_id": "55430HWTHR17006"}}, {"type": "Feature", "geometry": {"type": "Point", "coordinates": [-93.3, 45.079167]}, "properties": {"facility_name": "MEDTRONIC ENERGY & COMPONENT CENTER", "industry": null, "tri_facility_id": "55430MDTRN67000"}}, {"type": "Feature", "geometry": {"type": "Point", "coordinates": [-93.301389, 45.063056]}, "properties": {"facility_name": "VISION-EASE LENS POLYCARBONATE OPS", "industry": null, "tri_facility_id": "55430PLYPT6800S"}}, {"type": "Feature", "geometry": {"type": "Point", "coordinates": [-93.30277777777778, 45.043055555555554]}, "properties": {"facility_name": "OWENS CORNING ROOFING & ASPHALT LLC", "industry": null, "tri_facility_id": "55430WNSCR19014"}}, {"type": "Feature", "geometry": {"type": "Point", "coordinates": [-93.341667, 44.866667]}, "properties": {"facility_name": "ADC TELECOMMUNICATIONS INC", "industry": null, "tri_facility_id": "55435DCTLC4900W"}}, {"type": "Feature", "geometry": {"type": "Point", "coordinates": [-93.375, 44.875]}, "properties": {"facility_name": "IDEUS INC", "industry": null, "tri_facility_id": "55435DSNCX7665W"}}, {"type": "Feature", "geometry": {"type": "Point", "coordinates": [-93.354167, 44.869444]}, "properties": {"facility_name": "FILMTEC CORP", "industry": null, "tri_facility_id": "55435FLMTC7200O"}}, {"type": "Feature", "geometry": {"type": "Point", "coordinates": [-93.35, 44.866667]}, "properties": {"facility_name": "IMPRIMIS TECH INC", "industry": null, "tri_facility_id": "55435MGNTC7490B"}}, {"type": "Feature", "geometry": {"type": "Point", "coordinates": [-93.3425, 44.860833]}, "properties": {"facility_name": "SEAGATE TECHNOLOGY", "industry": null, "tri_facility_id": "55435MGNTC7801C"}}, {"type": "Feature", "geometry": {"type": "Point", "coordinates": [-93.334167, 44.865]}, "properties": {"facility_name": "ROBERTS AUTOMATIC PRODUCTS", "industry": null, "tri_facility_id": "55435RBRTS4451W"}}, {"type": "Feature", "geometry": {"type": "Point", "coordinates": [-93.358333, 44.866667]}, "properties": {"facility_name": "SEAGATE TECH INC, OVR", "industry": null, "tri_facility_id": "55435SGTTC5300W"}}, {"type": "Feature", "geometry": {"type": "Point", "coordinates": [-93.35, 44.85]}, "properties": {"facility_name": "SEAGATE TECH INC, NSO", "industry": null, "tri_facility_id": "55437MGNTC5100W"}}, {"type": "Feature", "geometry": {"type": "Point", "coordinates": [-93.359722, 44.872222]}, "properties": {"facility_name": "THIELE ENGINEERING CO", "industry": null, "tri_facility_id": "55439THLNG7225B"}}, {"type": "Feature", "geometry": {"type": "Point", "coordinates": [-93.226667, 45.003611]}, "properties": {"facility_name": "HONEYWELL AEROSPACE - MINNEAPOLIS", "industry": null, "tri_facility_id": "55440HNYWL2600R"}}, {"type": "Feature", "geometry": {"type": "Point", "coordinates": [-93.355, 44.9375]}, "properties": {"facility_name": "MINNESOTA RUBBER", "industry": null, "tri_facility_id": "55440MNNST3630W"}}, {"type": "Feature", "geometry": {"type": "Point", "coordinates": [-93.270758, 45.001455]}, "properties": {"facility_name": "GRACE-LEE PRODUCTS INC", "industry": null, "tri_facility_id": "55443GRCLP1414M"}}, {"type": "Feature", "geometry": {"type": "Point", "coordinates": [-93.21583333333334, 44.89555555555555]}, "properties": {"facility_name": "US AIR FORCE MINNEAPOLIS-ST PAUL IAP ARS MN", "industry": null, "tri_facility_id": "55450SRFRC760MI"}}, {"type": "Feature", "geometry": {"type": "Point", "coordinates": [-93.167778, 44.949444]}, "properties": {"facility_name": "CO-OPERATIVE PLATING CO", "industry": null, "tri_facility_id": "55104CPRTV1605I"}}, {"type": "Feature", "geometry": {"type": "Point", "coordinates": [-93.174276, 44.957027]}, "properties": {"facility_name": "DELUXE BUSINESS SYSTEMS", "industry": null, "tri_facility_id": "55104DLXCR530NW"}}, {"type": "Feature", "geometry": {"type": "Point", "coordinates": [-93.17666666666668, 44.95888888888889]}, "properties": {"facility_name": "HARCROS CHEMICALS INC", "industry": null, "tri_facility_id": "55104HRCRS584NF"}}, {"type": "Feature", "geometry": {"type": "Point", "coordinates": [-93.161425, 44.9492]}, "properties": {"facility_name": "LOES ENTERPRISES INC", "industry": null, "tri_facility_id": "55104LSNTR1457I"}}, {"type": "Feature", "geometry": {"type": "Point", "coordinates": [-93.1775, 44.960833]}, "properties": {"facility_name": "MCGILL JENSEN INC", "industry": null, "tri_facility_id": "55104MCGLL655FA"}}, {"type": "Feature", "geometry": {"type": "Point", "coordinates": [-93.1818, 44.9635]}, "properties": {"facility_name": "SILGAN CONTAINERS MANUFACTURIN G CORP", "industry": null, "tri_facility_id": "55104MRCNN755NO"}}, {"type": "Feature", "geometry": {"type": "Point", "coordinates": [-93.181944, 44.968056]}, "properties": {"facility_name": "PLATING INC", "industry": null, "tri_facility_id": "55104PLTNG888NO"}}, {"type": "Feature", "geometry": {"type": "Point", "coordinates": [-93.1525, 44.954444]}, "properties": {"facility_name": "RAYVEN INC", "industry": null, "tri_facility_id": "55104RYVNN431NG"}}, {"type": "Feature", "geometry": {"type": "Point", "coordinates": [-93.176667, 44.976667]}, "properties": {"facility_name": "GENERAL FOAM OF MINNESOTA INC", "industry": null, "tri_facility_id": "55108GNRLF1800C"}}, {"type": "Feature", "geometry": {"type": "Point", "coordinates": [-93.199722, 44.974722]}, "properties": {"facility_name": "H B FULLER CO", "industry": null, "tri_facility_id": "55108HBFLL2400E"}}, {"type": "Feature", "geometry": {"type": "Point", "coordinates": [-93.154778, 44.9737]}, "properties": {"facility_name": "LITHO SPECIALTIES INC", "industry": null, "tri_facility_id": "55108LTHSP1280E"}}, {"type": "Feature", "geometry": {"type": "Point", "coordinates": [-93.204722, 44.977778]}, "properties": {"facility_name": "IVC NORTH INC (DBA TI KROMATIC INDUSTRIAL)", "industry": null, "tri_facility_id": "55108TKRMT2492D"}}, {"type": "Feature", "geometry": {"type": "Point", "coordinates": [-93.1752, 44.9815]}, "properties": {"facility_name": "ETA SYS INC MFG", "industry": null, "tri_facility_id": "55108TSYST1200E"}}, {"type": "Feature", "geometry": {"type": "Point", "coordinates": [-93.19166666666668, 44.975]}, "properties": {"facility_name": "BRENNTAG GREAT LAKES LLC", "industry": null, "tri_facility_id": "55108WRMCH2130E"}}, {"type": "Feature", "geometry": {"type": "Point", "coordinates": [-93.197225, 45.0511]}, "properties": {"facility_name": "BELL LUMBER & POLE CO.", "industry": null, "tri_facility_id": "55112BLLLM7781S"}}, {"type": "Feature", "geometry": {"type": "Point", "coordinates": [-93.192357, 45.069519]}, "properties": {"facility_name": "BASIC INDUSTRIES", "industry": null, "tri_facility_id": "55112BSCND1275O"}}, {"type": "Feature", "geometry": {"type": "Point", "coordinates": [-93.155556, 45.065833]}, "properties": {"facility_name": "BOSTON SCIENTIFIC-CRM", "industry": null, "tri_facility_id": "55112CRDCP4100H"}}, {"type": "Feature", "geometry": {"type": "Point", "coordinates": [-93.177222, 45.088056]}, "properties": {"facility_name": "US ARMY TCAAP ALLIANT AMMUNITION SYSTEMS CO LLC", "industry": null, "tri_facility_id": "55112HNYWLTWINC"}}, {"type": "Feature", "geometry": {"type": "Point", "coordinates": [-93.185556, 45.073056]}, "properties": {"facility_name": "DARLING & CO, KEM MILLING CO DIV", "industry": null, "tri_facility_id": "55112KMMLL61914"}}, {"type": "Feature", "geometry": {"type": "Point", "coordinates": [-93.197222, 45.057222]}, "properties": {"facility_name": "MICOM CORP", "industry": null, "tri_facility_id": "55112MCMCR4758T"}}, {"type": "Feature", "geometry": {"type": "Point", "coordinates": [-93.188889, 45.086667]}, "properties": {"facility_name": "E/M CORP", "industry": null, "tri_facility_id": "55112MCRPX2172O"}}, {"type": "Feature", "geometry": {"type": "Point", "coordinates": [-93.18305555555555, 45.072500000000005]}, "properties": {"facility_name": "CELESTICA, INC.", "industry": null, "tri_facility_id": "55112MNFCT4300W"}}, {"type": "Feature", "geometry": {"type": "Point", "coordinates": [-93.156389, 45.050278]}, "properties": {"facility_name": "INTERNATIONAL PAPER CO", "industry": null, "tri_facility_id": "55112NTRNT1300R"}}, {"type": "Feature", "geometry": {"type": "Point", "coordinates": [-93.155556, 45.054167]}, "properties": {"facility_name": "PHARMACIA DELTEC INC", "industry": null, "tri_facility_id": "55112PHRMC1265G"}}, {"type": "Feature", "geometry": {"type": "Point", "coordinates": [-93.16944444444445, 45.084722222222226]}, "properties": {"facility_name": "US ARMY TWIN CITIES ARMY AMMUNITION PLANT", "industry": null, "tri_facility_id": "55112SRMYT4700H"}}, {"type": "Feature", "geometry": {"type": "Point", "coordinates": [-93.187222, 45.054444]}, "properties": {"facility_name": "MACGILLIS & GIBBS CO", "industry": null, "tri_facility_id": "55112THMCG440FI"}}, {"type": "Feature", "geometry": {"type": "Point", "coordinates": [-93.190833, 45.038333]}, "properties": {"facility_name": "TREND SCIENTIFIC INC", "industry": null, "tri_facility_id": "55112TRNDS368WC"}}, {"type": "Feature", "geometry": {"type": "Point", "coordinates": [-93.18583333333333, 45.04972222222222]}, "properties": {"facility_name": "TRAN ELECTRONICS CORP", "industry": null, "tri_facility_id": "55112TRNLC822ND"}}, {"type": "Feature", "geometry": {"type": "Point", "coordinates": [-93.1902, 45.0761]}, "properties": {"facility_name": "TWIN CITIES ARMY AMMUNITION PLANT FEDERAL CARTRIDGE CO", "industry": null, "tri_facility_id": "55112TWNCTUSHWY"}}, {"type": "Feature", "geometry": {"type": "Point", "coordinates": [-93.185556, 45.066944]}, "properties": {"facility_name": "AQSEPTENCE GROUP INC", "industry": null, "tri_facility_id": "55112WHLBR1950O"}}, {"type": "Feature", "geometry": {"type": "Point", "coordinates": [-93.191389, 45.048611]}, "properties": {"facility_name": "WOLKERSTORFER CO INC", "industry": null, "tri_facility_id": "55112WLKRS348FI"}}, {"type": "Feature", "geometry": {"type": "Point", "coordinates": [-93.201111, 45.011389]}, "properties": {"facility_name": "DELUXE BUSINESS SYS", "industry": null, "tri_facility_id": "55113DLXBS2341S"}}, {"type": "Feature", "geometry": {"type": "Point", "coordinates": [-93.176389, 45.022222]}, "properties": {"facility_name": "HONEYWELL ELECTRONIC MATERIALS INC", "industry": null, "tri_facility_id": "55113DVNCC1633T"}}, {"type": "Feature", "geometry": {"type": "Point", "coordinates": [-93.18611111111112, 45.020833333333336]}, "properties": {"facility_name": "ASCENTEK INC.", "industry": null, "tri_facility_id": "55113LBRCT2420W"}}, {"type": "Feature", "geometry": {"type": "Point", "coordinates": [-93.19361111111111, 45.00277777777778]}, "properties": {"facility_name": "TESORO REFINING & MARKETING ROSEVILLE TERMINAL", "industry": null, "tri_facility_id": "55113MCLC02288W"}}, {"type": "Feature", "geometry": {"type": "Point", "coordinates": [-93.19861111111112, 45.02166666666667]}, "properties": {"facility_name": "BRENNTAG GREAT LAKES LLC", "industry": null, "tri_facility_id": "55113MLSLV2340R"}}, {"type": "Feature", "geometry": {"type": "Point", "coordinates": [-93.20611111111111, 45.01166666666666]}, "properties": {"facility_name": "UNICIRCUIT ROSEVILLE", "industry": null, "tri_facility_id": "55113MLTLY2520T"}}, {"type": "Feature", "geometry": {"type": "Point", "coordinates": [-93.1568, 45.0137]}, "properties": {"facility_name": "AT&T NCR NETWORK PRODUCTS DIV", "industry": null, "tri_facility_id": "55113NCRNT1950W"}}, {"type": "Feature", "geometry": {"type": "Point", "coordinates": [-93.207778, 45.010556]}, "properties": {"facility_name": "UNISYS CORP", "industry": null, "tri_facility_id": "55113NSYSC2276H"}}, {"type": "Feature", "geometry": {"type": "Point", "coordinates": [-93.2, 45.016667]}, "properties": {"facility_name": "DIMENSION IMAGING", "industry": null, "tri_facility_id": "55113PLXGR2269W"}}, {"type": "Feature", "geometry": {"type": "Point", "coordinates": [-93.178889, 45.021389]}, "properties": {"facility_name": "RAMSEY TECHNOLOGY INC", "industry": null, "tri_facility_id": "55113RMSYT1853W"}}, {"type": "Feature", "geometry": {"type": "Point", "coordinates": [-93.1925, 45.011667]}, "properties": {"facility_name": "ARTISTIC FINISHES INC", "industry": null, "tri_facility_id": "55113RTSTC2224T"}}, {"type": "Feature", "geometry": {"type": "Point", "coordinates": [-93.20305555555557, 45.01694444444444]}, "properties": {"facility_name": "EVOQUA WATER TECHNOLOGIES LLC", "industry": null, "tri_facility_id": "55113SFLTR2430R"}}, {"type": "Feature", "geometry": {"type": "Point", "coordinates": [-93.196642, 45.032371]}, "properties": {"facility_name": "STONE CONTAINER CORP", "industry": null, "tri_facility_id": "55113STNCN3075L"}}, {"type": "Feature", "geometry": {"type": "Point", "coordinates": [-93.2038888888889, 45.035555555555554]}, "properties": {"facility_name": "WILLAMETTE INDUSTRIES INC", "industry": null, "tri_facility_id": "55113WLLMT2425T"}}, {"type": "Feature", "geometry": {"type": "Point", "coordinates": [-93.194444, 44.969167]}, "properties": {"facility_name": "FISHER NUT CO", "industry": null, "tri_facility_id": "55114BTRCH2327W"}}, {"type": "Feature", "geometry": {"type": "Point", "coordinates": [-93.193877, 44.969567]}, "properties": {"facility_name": "DIXIE PETRO-CHEM INC", "industry": null, "tri_facility_id": "55114DXPTR976BR"}}, {"type": "Feature", "geometry": {"type": "Point", "coordinates": [-93.205556, 44.960278]}, "properties": {"facility_name": "SAMINA SCI", "industry": null, "tri_facility_id": "55114HRTZL2516W"}}, {"type": "Feature", "geometry": {"type": "Point", "coordinates": [-93.193611, 44.962778]}, "properties": {"facility_name": "TETRA PAK EQUIPUS INC", "industry": null, "tri_facility_id": "55114LQPKN2285U"}}, {"type": "Feature", "geometry": {"type": "Point", "coordinates": [-93.1915, 44.9702]}, "properties": {"facility_name": "MIXON INC", "industry": null, "tri_facility_id": "55114MXNNC2286C"}}, {"type": "Feature", "geometry": {"type": "Point", "coordinates": [-93.189722, 44.958889]}, "properties": {"facility_name": "NOR-LAKES SERVICES MIDWEST INC", "industry": null, "tri_facility_id": "55114NRLKS606VA"}}, {"type": "Feature", "geometry": {"type": "Point", "coordinates": [-93.1975, 44.962222]}, "properties": {"facility_name": "SEWALL GEAR MFG CO", "industry": null, "tri_facility_id": "55114SWLLG705RA"}}, {"type": "Feature", "geometry": {"type": "Point", "coordinates": [-93.194167, 44.960278]}, "properties": {"facility_name": "WESTROCK MN CORP", "industry": null, "tri_facility_id": "55114WLDRF2250W"}}, {"type": "Feature", "geometry": {"type": "Point", "coordinates": [-93.195833, 44.913889]}, "properties": {"facility_name": "FORD MOTOR CO. TWIN CITIES ASSEMBLY PLANT", "industry": null, "tri_facility_id": "55116FRDMT966SM"}}, {"type": "Feature", "geometry": {"type": "Point", "coordinates": [-93.196667, 44.918056]}, "properties": {"facility_name": "MULTI-CLEAN INC", "industry": null, "tri_facility_id": "55116MLTCL2277F"}}, {"type": "Feature", "geometry": {"type": "Point", "coordinates": [-93.166667, 44.9]}, "properties": {"facility_name": "LORAL DEFENSE SYS-EAGAN", "industry": null, "tri_facility_id": "55116NSYSS2751S"}}, {"type": "Feature", "geometry": {"type": "Point", "coordinates": [-93.151111, 44.907222]}, "properties": {"facility_name": "QUEBECOR PRINTING ST PAUL", "industry": null, "tri_facility_id": "55116QBCRP1999S"}}, {"type": "Feature", "geometry": {"type": "Point", "coordinates": [-93.148611, 45.068056]}, "properties": {"facility_name": "CONTROL DATA CORP, ARDEN HILLS", "industry": null, "tri_facility_id": "55126CNTRL4201N"}}, {"type": "Feature", "geometry": {"type": "Point", "coordinates": [-93.1475, 45.053889]}, "properties": {"facility_name": "PACE INDUSTRIES ST PAUL DIV", "industry": null, "tri_facility_id": "55126SNTPL3737N"}}, {"type": "Feature", "geometry": {"type": "Point", "coordinates": [-93.1667, 44.974256]}, "properties": {"facility_name": "H M SMYTH CO INC", "industry": null, "tri_facility_id": "55164HMSMY1085S"}}, {"type": "Feature", "geometry": {"type": "Point", "coordinates": [-93.204167, 45.004167]}, "properties": {"facility_name": "PAPER CALMENSON & CO", "industry": null, "tri_facility_id": "55164PPRCLHIGHW"}}, {"type": "Feature", "geometry": {"type": "Point", "coordinates": [-93.277778, 45.061667]}, "properties": {"facility_name": "ECO FINISHING", "industry": null, "tri_facility_id": "55421CFNSH5100I"}}, {"type": "Feature", "geometry": {"type": "Point", "coordinates": [-93.267778, 45.039444]}, "properties": {"facility_name": "ADVANCED FLEX INC PLANT 2", "industry": null, "tri_facility_id": "55421FZNCX3905C"}}, {"type": "Feature", "geometry": {"type": "Point", "coordinates": [-93.251667, 45.037778]}, "properties": {"facility_name": "H B FULLER CO MONARCH DIV", "industry": null, "tri_facility_id": "55421HBFLL3900J"}}, {"type": "Feature", "geometry": {"type": "Point", "coordinates": [-93.268611, 45.063056]}, "properties": {"facility_name": "H.B. FULLER CO", "industry": null, "tri_facility_id": "55421HBFLL5220M"}}, {"type": "Feature", "geometry": {"type": "Point", "coordinates": [-93.25, 45.083333333333336]}, "properties": {"facility_name": "KURT MANUFACTURING CO", "industry": null, "tri_facility_id": "55421KRTMF5280M"}}, {"type": "Feature", "geometry": {"type": "Point", "coordinates": [-93.263889, 45.037222]}, "properties": {"facility_name": "ELECTRO LABORATORIES INC", "industry": null, "tri_facility_id": "55421LCTRL37573"}}, {"type": "Feature", "geometry": {"type": "Point", "coordinates": [-93.269722, 45.066389]}, "properties": {"facility_name": "LAKELAND CHEMICAL CORP", "industry": null, "tri_facility_id": "55421LKLNC5400M"}}, {"type": "Feature", "geometry": {"type": "Point", "coordinates": [-93.249785, 45.06458]}, "properties": {"facility_name": "MEDTRONIC INC NEUROLOGICAL DIV", "industry": null, "tri_facility_id": "55421MDTRN80053"}}, {"type": "Feature", "geometry": {"type": "Point", "coordinates": [-93.27, 45.066389]}, "properties": {"facility_name": "AMERICAN CONVERTERS INC", "industry": null, "tri_facility_id": "55421MRCNC5360N"}}, {"type": "Feature", "geometry": {"type": "Point", "coordinates": [-93.275, 45.058333]}, "properties": {"facility_name": "UNITED DEFENSE LP ARMAMENT SYSTEM DIV NAVY IND RESERVE", "industry": null, "tri_facility_id": "55421NVLND4800E"}}, {"type": "Feature", "geometry": {"type": "Point", "coordinates": [-93.251389, 45.038333]}, "properties": {"facility_name": "INVEST CAST INC.", "industry": null, "tri_facility_id": "55421NVSTC71439"}}, {"type": "Feature", "geometry": {"type": "Point", "coordinates": [-93.269722, 45.053333]}, "properties": {"facility_name": "SAFETRAN SYSTEMS CORP E-M DIV", "industry": null, "tri_facility_id": "55421SFTRN4650M"}}, {"type": "Feature", "geometry": {"type": "Point", "coordinates": [-93.275833, 45.064444]}, "properties": {"facility_name": "ATLAS MFG", "industry": null, "tri_facility_id": "55421TLSMN5250I"}}, {"type": "Feature", "geometry": {"type": "Point", "coordinates": [-93.26, 45.100833333333334]}, "properties": {"facility_name": "CARTER DAY INTL INC", "industry": null, "tri_facility_id": "55432CRTRD494NO"}}, {"type": "Feature", "geometry": {"type": "Point", "coordinates": [-93.295556, 45.078333]}, "properties": {"facility_name": "LAMAUR CORP", "industry": null, "tri_facility_id": "55432DWBRN5601E"}}, {"type": "Feature", "geometry": {"type": "Point", "coordinates": [-93.266111, 45.096944]}, "properties": {"facility_name": "FLEXCON CO INC", "industry": null, "tri_facility_id": "55432FLXCN7165C"}}, {"type": "Feature", "geometry": {"type": "Point", "coordinates": [-93.26, 45.100833]}, "properties": {"facility_name": "INCERTEC", "industry": null, "tri_facility_id": "55432KWKFL50473"}}, {"type": "Feature", "geometry": {"type": "Point", "coordinates": [-93.233333, 45.083333]}, "properties": {"facility_name": "MEDTRONIC INC", "industry": null, "tri_facility_id": "55432MDTRN7000C"}}, {"type": "Feature", "geometry": {"type": "Point", "coordinates": [-93.25, 45.1]}, "properties": {"facility_name": "MINCO PRODUCTS INC", "industry": null, "tri_facility_id": "55432MNCPR7300C"}}, {"type": "Feature", "geometry": {"type": "Point", "coordinates": [-93.267778, 45.097778]}, "properties": {"facility_name": "MINNCAST INC", "industry": null, "tri_facility_id": "55432MNNCS200NE"}}, {"type": "Feature", "geometry": {"type": "Point", "coordinates": [-93.225, 45.098889]}, "properties": {"facility_name": "CUMMINS POWER GENERATION", "industry": null, "tri_facility_id": "55432NNMNF14007"}}, {"type": "Feature", "geometry": {"type": "Point", "coordinates": [-93.2681, 45.086742]}, "properties": {"facility_name": "STYLMARK INC", "industry": null, "tri_facility_id": "55432STYLM6536M"}}]}