{"type": "FeatureCollection", "features": [{"type": "Feature", "geometry": {"type": "Point", "coordinates": [-82.167778, 36.3675]}, "properties": {"facility_name": "GREAT LAKES RESEARCH CORP", "industry": null, "tri_facility_id": "37643GRTLKRESEA"}}, {"type": "Feature", "geometry": {"type": "Point", "coordinates": [-82.205, 36.329167]}, "properties": {"facility_name": "ALCOA ENGINEERED PRODUCTS", "industry": null, "tri_facility_id": "37643JRLXTSTATE"}}, {"type": "Feature", "geometry": {"type": "Point", "coordinates": [-82.2185, 36.3545]}, "properties": {"facility_name": "MAPES PIANO STRING CO", "industry": null, "tri_facility_id": "37643MPSPN408NO"}}, {"type": "Feature", "geometry": {"type": "Point", "coordinates": [-82.24472, 36.35167]}, "properties": {"facility_name": "NORTH AMERICAN RAYON CORP", "industry": null, "tri_facility_id": "37643NRTHMWESTE"}}, {"type": "Feature", "geometry": {"type": "Point", "coordinates": [-82.18305555555555, 36.362500000000004]}, "properties": {"facility_name": "STAR BUILDING SYSTEMS", "industry": null, "tri_facility_id": "37643STRBL151JU"}}, {"type": "Feature", "geometry": {"type": "Point", "coordinates": [-82.2, 36.333333333333336]}, "properties": {"facility_name": "AYM INC - TENNESSEE DISTRIBUTION CENTER", "industry": null, "tri_facility_id": "37643YMNCT100MC"}}, {"type": "Feature", "geometry": {"type": "Point", "coordinates": [-82.173889, 36.370833]}, "properties": {"facility_name": "SNAP-ON TOOLS CO", "industry": null, "tri_facility_id": "37644SNPNTSTATE"}}, {"type": "Feature", "geometry": {"type": "Point", "coordinates": [-82.1423, 36.3752]}, "properties": {"facility_name": "EAST TENNESSEE CHAIR CO INC", "industry": null, "tri_facility_id": "37644STTNNELIZA"}}]}