{"type": "FeatureCollection", "features": [{"type": "Feature", "geometry": {"type": "Point", "coordinates": [-96.683333, 34.758333]}, "properties": {"facility_name": "HOLCIM (US) INC - ADA PLANT", "industry": null, "tri_facility_id": "74820DLCMN1100W"}}, {"type": "Feature", "geometry": {"type": "Point", "coordinates": [-96.647778, 34.788611]}, "properties": {"facility_name": "FLEX-N-GATE OKLAHOMA L.L.C.", "industry": null, "tri_facility_id": "74820JPMCNONEGE"}}, {"type": "Feature", "geometry": {"type": "Point", "coordinates": [-96.64972222222222, 34.788333333333334]}, "properties": {"facility_name": "REMINGTON ARMS CO INC.", "industry": null, "tri_facility_id": "74820RMNGT1900A"}}, {"type": "Feature", "geometry": {"type": "Point", "coordinates": [-96.671944, 34.784722]}, "properties": {"facility_name": "SOLO CUP CO", "industry": null, "tri_facility_id": "74820SLCPC401NE"}}, {"type": "Feature", "geometry": {"type": "Point", "coordinates": [-96.673333, 34.781667]}, "properties": {"facility_name": "OWENS-BROCKWAY GLASS CONTAINER", "industry": null, "tri_facility_id": "74820WNSBR300EA"}}]}