{"type": "FeatureCollection", "features": [{"type": "Feature", "properties": {"area_id": 6236, "city": "Sacramento", "state": "CA", "city_survey": true, "cat": "Best", "grade": "A", "label": "A1", "res": true, "com": false, "ind": false, "holc_grade": "A"}, "geometry": {"type": "Polygon", "coordinates": [[[-121.44516, 38.5674], [-121.44645, 38.56452], [-121.44693, 38.56343], [-121.44887, 38.56391], [-121.44999, 38.56419], [-121.4494, 38.56565], [-121.44906, 38.56657], [-121.44868, 38.56739], [-121.44836, 38.56835], [-121.44898, 38.56855], [-121.44807, 38.57076], [-121.44769, 38.57067], [-121.44646, 38.5703], [-121.44501, 38.56981], [-121.44414, 38.56948], [-121.44355, 38.56934], [-121.44385, 38.56884], [-121.44412, 38.56835], [-121.44448, 38.56767], [-121.44461, 38.5673], [-121.44516, 38.5674]]]}}, {"type": "Feature", "properties": {"area_id": 6257, "city": "Sacramento", "state": "CA", "city_survey": true, "cat": "Best", "grade": "A", "label": "A2", "res": true, "com": false, "ind": false, "holc_grade": "A"}, "geometry": {"type": "Polygon", "coordinates": [[[-121.49463, 38.55233], [-121.4954, 38.55237], [-121.49606, 38.5525], [-121.49666, 38.55261], [-121.49702, 38.55265], [-121.49744, 38.55241], [-121.49768, 38.55211], [-121.49782, 38.55176], [-121.49778, 38.5515], [-121.49787, 38.5512], [-121.49746, 38.55108], [-121.49709, 38.55098], [-121.49659, 38.55084], [-121.49603, 38.55069], [-121.49555, 38.55055], [-121.49521, 38.55046], [-121.49489, 38.5504], [-121.49442, 38.55028], [-121.49438, 38.55027], [-121.49447, 38.54971], [-121.49463, 38.54938], [-121.49476, 38.54912], [-121.49489, 38.54884], [-121.49504, 38.54849], [-121.49444, 38.54837], [-121.49359, 38.54821], [-121.4927, 38.54804], [-121.49224, 38.54795], [-121.49156, 38.54778], [-121.49115, 38.54769], [-121.49032, 38.54753], [-121.48986, 38.54744], [-121.48986, 38.54743], [-121.49006, 38.54688], [-121.4903, 38.54623], [-121.49057, 38.54551], [-121.49056, 38.5455], [-121.49112, 38.5454], [-121.49157, 38.54523], [-121.49188, 38.54488], [-121.49238, 38.5444], [-121.49293, 38.54428], [-121.49428, 38.54453], [-121.49568, 38.54488], [-121.49728, 38.5452], [-121.49747, 38.54544], [-121.49735, 38.54603], [-121.49856, 38.54629], [-121.49956, 38.54648], [-121.5003, 38.54661], [-121.5012, 38.547], [-121.50191, 38.54761], [-121.50282, 38.54785], [-121.504, 38.54823], [-121.50367, 38.54904], [-121.50348, 38.54944], [-121.50327, 38.54986], [-121.50375, 38.54999], [-121.50429, 38.55014], [-121.50457, 38.55026], [-121.50492, 38.55041], [-121.50512, 38.55049], [-121.505522, 38.550733], [-121.50555, 38.55075], [-121.50534, 38.5511], [-121.50505, 38.55157], [-121.50553, 38.55163], [-121.50621, 38.55172], [-121.50581, 38.55263], [-121.50538, 38.55345], [-121.50491, 38.55429], [-121.50436, 38.55529], [-121.50384, 38.55626], [-121.50329, 38.55728], [-121.50255, 38.55722], [-121.501773, 38.557108], [-121.50165, 38.55709], [-121.50096, 38.55685], [-121.50015, 38.5567], [-121.49961, 38.557], [-121.49918, 38.55757], [-121.49889, 38.55815], [-121.49873, 38.55886], [-121.49844, 38.55938], [-121.49811, 38.55982], [-121.49746, 38.5608], [-121.49745, 38.56081], [-121.49666, 38.56064], [-121.49572, 38.56086], [-121.4953, 38.56115], [-121.49527, 38.56114], [-121.49445, 38.56091], [-121.49384, 38.5606], [-121.49335, 38.56038], [-121.49299, 38.56018], [-121.49365, 38.55888], [-121.49392, 38.55828], [-121.49416, 38.55777], [-121.49445, 38.55713], [-121.49463, 38.55662], [-121.49486, 38.55604], [-121.49401, 38.55586], [-121.49305, 38.55568], [-121.49201, 38.55552], [-121.49201, 38.55496], [-121.49218, 38.55443], [-121.49264, 38.55347], [-121.49295, 38.5528], [-121.49295, 38.55279], [-121.49386, 38.55296], [-121.49391, 38.55297], [-121.49405, 38.55271], [-121.49424, 38.55231], [-121.494251, 38.552279], [-121.49429, 38.55217], [-121.49463, 38.55233]]]}}, {"type": "Feature", "properties": {"area_id": 6259, "city": "Sacramento", "state": "CA", "city_survey": true, "cat": "Best", "grade": "A", "label": "A3", "res": true, "com": false, "ind": false, "holc_grade": "A"}, "geometry": {"type": "Polygon", "coordinates": [[[-121.49055, 38.54524], [-121.49065, 38.54514], [-121.4905, 38.54488], [-121.49058, 38.54449], [-121.49075, 38.54407], [-121.49093, 38.54384], [-121.49107, 38.54356], [-121.49118, 38.54328], [-121.49125, 38.54316], [-121.49139, 38.54276], [-121.49136, 38.54256], [-121.49167, 38.54211], [-121.49328, 38.54244], [-121.49526, 38.54283], [-121.49671, 38.54311], [-121.4982, 38.54347], [-121.49956, 38.54371], [-121.50065, 38.54399], [-121.5006, 38.54419], [-121.50039, 38.54468], [-121.50018, 38.54529], [-121.50003, 38.54577], [-121.50122, 38.54601], [-121.50241, 38.54627], [-121.50379, 38.54648], [-121.50524, 38.5467], [-121.5065, 38.54687], [-121.5064, 38.54715], [-121.50624, 38.5477], [-121.50593, 38.54767], [-121.50538, 38.54763], [-121.50524, 38.5481], [-121.5051, 38.54854], [-121.504, 38.54823], [-121.50282, 38.54785], [-121.50191, 38.54761], [-121.5012, 38.547], [-121.5003, 38.54661], [-121.49956, 38.54648], [-121.49856, 38.54629], [-121.49735, 38.54603], [-121.49747, 38.54544], [-121.49728, 38.5452], [-121.49568, 38.54488], [-121.49428, 38.54453], [-121.49293, 38.54428], [-121.49238, 38.5444], [-121.49188, 38.54488], [-121.49157, 38.54523], [-121.49112, 38.5454], [-121.49056, 38.5455], [-121.49055, 38.54524]]]}}, {"type": "Feature", "properties": {"area_id": 6263, "city": "Sacramento", "state": "CA", "city_survey": true, "cat": "Still Desirable", "grade": "B", "label": "B1", "res": true, "com": false, "ind": false, "holc_grade": "B"}, "geometry": {"type": "Polygon", "coordinates": [[[-121.45428, 38.60443], [-121.45342, 38.60443], [-121.45243, 38.60452], [-121.45168, 38.60454], [-121.45086, 38.60449], [-121.45068, 38.60477], [-121.45011, 38.60479], [-121.44961, 38.60429], [-121.44918, 38.60413], [-121.44975, 38.60276], [-121.45114, 38.60282], [-121.45193, 38.6029], [-121.45239, 38.6029], [-121.45232, 38.60148], [-121.45232, 38.60081], [-121.45367, 38.60098], [-121.4551, 38.60098], [-121.45678, 38.60103], [-121.45774, 38.60106], [-121.45784, 38.60184], [-121.45777, 38.60298], [-121.45767, 38.6034], [-121.45749, 38.60379], [-121.45763, 38.60496], [-121.45731, 38.60518], [-121.45556, 38.60513], [-121.45428, 38.60507], [-121.45428, 38.60443]], [[-121.45471, 38.6027], [-121.45517, 38.60265], [-121.45567, 38.60265], [-121.45599, 38.60276], [-121.45596, 38.6022], [-121.45506, 38.60229], [-121.45439, 38.60223], [-121.45435, 38.60251], [-121.45446, 38.60282], [-121.45471, 38.6027]]]}}, {"type": "Feature", "properties": {"area_id": 6253, "city": "Sacramento", "state": "CA", "city_survey": true, "cat": "Still Desirable", "grade": "B", "label": "B10", "res": true, "com": false, "ind": false, "holc_grade": "B"}, "geometry": {"type": "Polygon", "coordinates": [[[-121.49314, 38.55001], [-121.49339, 38.55006], [-121.49381, 38.55014], [-121.49438, 38.55027], [-121.49442, 38.55028], [-121.49489, 38.5504], [-121.49474, 38.55069], [-121.49466, 38.55091], [-121.49457, 38.5511], [-121.49444, 38.5514], [-121.49443, 38.55153], [-121.49441, 38.55168], [-121.49439, 38.55182], [-121.4943, 38.55203], [-121.49425, 38.55215], [-121.49429, 38.55217], [-121.494251, 38.552279], [-121.49424, 38.55231], [-121.49405, 38.55271], [-121.49391, 38.55297], [-121.49386, 38.55296], [-121.49295, 38.55279], [-121.49295, 38.5528], [-121.49264, 38.55347], [-121.49218, 38.55443], [-121.49201, 38.55496], [-121.49201, 38.55552], [-121.49305, 38.55568], [-121.49401, 38.55586], [-121.49486, 38.55604], [-121.49463, 38.55662], [-121.49445, 38.55713], [-121.49416, 38.55777], [-121.49392, 38.55828], [-121.49365, 38.55888], [-121.49299, 38.56018], [-121.49335, 38.56038], [-121.49384, 38.5606], [-121.49445, 38.56091], [-121.49527, 38.56114], [-121.4953, 38.56115], [-121.49572, 38.56086], [-121.49666, 38.56064], [-121.49745, 38.56081], [-121.49746, 38.5608], [-121.4975, 38.56081], [-121.49675, 38.56244], [-121.4955, 38.56213], [-121.49397, 38.56166], [-121.49265, 38.5613], [-121.49201, 38.56091], [-121.4887, 38.56012], [-121.48895, 38.55965], [-121.48908, 38.55916], [-121.48927, 38.55853], [-121.48944, 38.55789], [-121.48952, 38.55742], [-121.48963, 38.55651], [-121.48958, 38.55595], [-121.4896, 38.55511], [-121.48944, 38.55424], [-121.48979, 38.55421], [-121.49064, 38.55439], [-121.491681, 38.551818], [-121.49247, 38.54987], [-121.49314, 38.55001]]]}}, {"type": "Feature", "properties": {"area_id": 6258, "city": "Sacramento", "state": "CA", "city_survey": true, "cat": "Still Desirable", "grade": "B", "label": "B11", "res": true, "com": false, "ind": false, "holc_grade": "B"}, "geometry": {"type": "Polygon", "coordinates": [[[-121.50492, 38.55041], [-121.50457, 38.55026], [-121.50429, 38.55014], [-121.50375, 38.54999], [-121.50327, 38.54986], [-121.50348, 38.54944], [-121.50367, 38.54904], [-121.504, 38.54823], [-121.5051, 38.54854], [-121.50524, 38.5481], [-121.50538, 38.54763], [-121.50593, 38.54767], [-121.50624, 38.5477], [-121.50709, 38.54776], [-121.507116, 38.548048], [-121.50747, 38.55191], [-121.50621, 38.55172], [-121.50553, 38.55163], [-121.50505, 38.55157], [-121.50534, 38.5511], [-121.50555, 38.55075], [-121.505522, 38.550733], [-121.50512, 38.55049], [-121.50492, 38.55041]]]}}, {"type": "Feature", "properties": {"area_id": 6217, "city": "Sacramento", "state": "CA", "city_survey": true, "cat": "Still Desirable", "grade": "B", "label": "B12", "res": true, "com": false, "ind": false, "holc_grade": "B"}, "geometry": {"type": "Polygon", "coordinates": [[[-121.47569, 38.54101], [-121.475736, 38.541004], [-121.477731, 38.540747], [-121.47918, 38.54056], [-121.47895, 38.54203], [-121.47897, 38.54307], [-121.47912, 38.54415], [-121.47912, 38.54487], [-121.47912, 38.54573], [-121.47902, 38.54645], [-121.479, 38.54798], [-121.48014, 38.548], [-121.48014, 38.54651], [-121.48014, 38.54612], [-121.48021, 38.54526], [-121.48014, 38.5445], [-121.48011, 38.54387], [-121.48, 38.54296], [-121.48002, 38.5424], [-121.48011, 38.54182], [-121.48017, 38.54034], [-121.48039, 38.54029], [-121.48066, 38.54111], [-121.48079, 38.54203], [-121.48104, 38.54282], [-121.48129, 38.54344], [-121.48131, 38.54369], [-121.4815, 38.54395], [-121.48163, 38.54466], [-121.48184, 38.5453], [-121.48214, 38.54604], [-121.48229, 38.54673], [-121.48247, 38.54749], [-121.48285, 38.54823], [-121.482971, 38.549883], [-121.48302, 38.55056], [-121.48815, 38.55272], [-121.487314, 38.555595], [-121.4871, 38.55633], [-121.487085, 38.556326], [-121.4842, 38.55562], [-121.48473, 38.55459], [-121.48338, 38.55419], [-121.48363, 38.55404], [-121.48363, 38.55253], [-121.48175, 38.55249], [-121.48175, 38.55335], [-121.48195, 38.55377], [-121.48092, 38.55346], [-121.4804, 38.55439], [-121.47748, 38.55441], [-121.47664, 38.55439], [-121.47584, 38.55437], [-121.47593, 38.55199], [-121.4765, 38.55212], [-121.47653, 38.5505], [-121.475809, 38.550328], [-121.47569, 38.5503], [-121.4756, 38.54898], [-121.47562, 38.54768], [-121.47569, 38.54669], [-121.47565, 38.54602], [-121.47555, 38.54562], [-121.47553, 38.54469], [-121.4755, 38.54383], [-121.4755, 38.54335], [-121.4742, 38.54329], [-121.47417, 38.54273], [-121.4713, 38.5426], [-121.471339, 38.541212], [-121.47134, 38.54119], [-121.472021, 38.541207], [-121.47298, 38.54123], [-121.472982, 38.541189], [-121.47306, 38.53948], [-121.47536, 38.53952], [-121.47569, 38.54101]], [[-121.47771, 38.54404], [-121.4761, 38.544], [-121.476, 38.5451], [-121.47776, 38.54515], [-121.47771, 38.54404]]]}}, {"type": "Feature", "properties": {"area_id": 6222, "city": "Sacramento", "state": "CA", "city_survey": true, "cat": "Still Desirable", "grade": "B", "label": "B13", "res": true, "com": false, "ind": false, "holc_grade": "B"}, "geometry": {"type": "Polygon", "coordinates": [[[-121.45166, 38.54379], [-121.45197, 38.54379], [-121.45285, 38.54567], [-121.44632, 38.54569], [-121.44629, 38.54374], [-121.45166, 38.54379]]]}}, {"type": "Feature", "properties": {"area_id": 6214, "city": "Sacramento", "state": "CA", "city_survey": true, "cat": "Still Desirable", "grade": "B", "label": "B14", "res": true, "com": false, "ind": false, "holc_grade": "B"}, "geometry": {"type": "Polygon", "coordinates": [[[-121.48971, 38.54496], [-121.48903, 38.54506], [-121.48851, 38.545], [-121.48823, 38.54485], [-121.48855, 38.54448], [-121.48868, 38.54411], [-121.48929, 38.5424], [-121.49139, 38.54276], [-121.49125, 38.54316], [-121.49118, 38.54328], [-121.49096, 38.54323], [-121.49081, 38.54319], [-121.49048, 38.54311], [-121.49024, 38.54305], [-121.49014, 38.54332], [-121.49002, 38.54364], [-121.4899, 38.54399], [-121.49031, 38.54402], [-121.49075, 38.54407], [-121.49058, 38.54449], [-121.4905, 38.54488], [-121.49065, 38.54514], [-121.49055, 38.54524], [-121.48971, 38.54496]]]}}, {"type": "Feature", "properties": {"area_id": 6225, "city": "Sacramento", "state": "CA", "city_survey": true, "cat": "Still Desirable", "grade": "B", "label": "B15", "res": true, "com": false, "ind": false, "holc_grade": "B"}, "geometry": {"type": "Polygon", "coordinates": [[[-121.4445, 38.52928], [-121.445604, 38.531834], [-121.4459, 38.53252], [-121.44632, 38.53367], [-121.44676, 38.53413], [-121.44782, 38.53609], [-121.44879, 38.53796], [-121.44154, 38.53796], [-121.44144, 38.53567], [-121.44153, 38.53224], [-121.441532, 38.532151], [-121.44159, 38.52931], [-121.4445, 38.52928]]]}}, {"type": "Feature", "properties": {"area_id": 6212, "city": "Sacramento", "state": "CA", "city_survey": true, "cat": "Still Desirable", "grade": "B", "label": "B16", "res": true, "com": false, "ind": false, "holc_grade": "B"}, "geometry": {"type": "Polygon", "coordinates": [[[-121.50086, 38.53428], [-121.500366, 38.536507], [-121.50033, 38.53667], [-121.49898, 38.53651], [-121.49805, 38.53628], [-121.49734, 38.53617], [-121.49669, 38.53609], [-121.49391, 38.53525], [-121.493934, 38.535182], [-121.49463, 38.53322], [-121.50086, 38.53428]]]}}, {"type": "Feature", "properties": {"area_id": 6249, "city": "Sacramento", "state": "CA", "city_survey": true, "cat": "Still Desirable", "grade": "B", "label": "B2", "res": true, "com": false, "ind": false, "holc_grade": "B"}, "geometry": {"type": "Polygon", "coordinates": [[[-121.4591, 38.57357], [-121.45952, 38.57253], [-121.4621, 38.57325], [-121.46201, 38.57378], [-121.46418, 38.57421], [-121.463931, 38.574921], [-121.46391, 38.57498], [-121.46083, 38.57426], [-121.45978, 38.57647], [-121.45752, 38.57592], [-121.45718, 38.57663], [-121.46212, 38.57793], [-121.46169, 38.57907], [-121.45878, 38.57833], [-121.45777, 38.57808], [-121.45745, 38.57851], [-121.45623, 38.57814], [-121.45384, 38.57906], [-121.45303, 38.57814], [-121.4526, 38.57837], [-121.45114, 38.5767], [-121.45191, 38.5765], [-121.45248, 38.57522], [-121.45465, 38.57545], [-121.456007, 38.572775], [-121.45602, 38.57275], [-121.4591, 38.57357]]]}}, {"type": "Feature", "properties": {"area_id": 6232, "city": "Sacramento", "state": "CA", "city_survey": true, "cat": "Still Desirable", "grade": "B", "label": "B3", "res": true, "com": false, "ind": false, "holc_grade": "B"}, "geometry": {"type": "Polygon", "coordinates": [[[-121.43874, 38.56859], [-121.43758, 38.56831], [-121.4378, 38.56728], [-121.43784, 38.56715], [-121.43898, 38.56749], [-121.43976, 38.56585], [-121.44107, 38.56624], [-121.44035, 38.56785], [-121.44275, 38.56859], [-121.44366, 38.56698], [-121.44461, 38.5673], [-121.44448, 38.56767], [-121.44412, 38.56835], [-121.44385, 38.56884], [-121.44355, 38.56934], [-121.44414, 38.56948], [-121.44501, 38.56981], [-121.44646, 38.5703], [-121.44769, 38.57067], [-121.44807, 38.57076], [-121.44853, 38.57087], [-121.44924, 38.5711], [-121.449329, 38.571127], [-121.44944, 38.57116], [-121.44876, 38.57244], [-121.44706, 38.57195], [-121.44625, 38.57396], [-121.44429, 38.57344], [-121.44366, 38.57494], [-121.44385, 38.57436], [-121.44299, 38.57406], [-121.44242, 38.57375], [-121.44195, 38.57362], [-121.43961, 38.57301], [-121.43974, 38.57253], [-121.4399, 38.57246], [-121.44204, 38.57124], [-121.44119, 38.57096], [-121.44102, 38.57102], [-121.44048, 38.57094], [-121.44075, 38.57042], [-121.44107, 38.57054], [-121.44149, 38.56942], [-121.440475, 38.569079], [-121.44012, 38.56896], [-121.43874, 38.56859]]]}}, {"type": "Feature", "properties": {"area_id": 6235, "city": "Sacramento", "state": "CA", "city_survey": true, "cat": "Still Desirable", "grade": "B", "label": "B4", "res": true, "com": false, "ind": false, "holc_grade": "B"}, "geometry": {"type": "Polygon", "coordinates": [[[-121.44853, 38.57087], [-121.44807, 38.57076], [-121.44898, 38.56855], [-121.44836, 38.56835], [-121.44868, 38.56739], [-121.44906, 38.56657], [-121.4494, 38.56565], [-121.44999, 38.56419], [-121.45185, 38.56465], [-121.452365, 38.564781], [-121.45252, 38.56482], [-121.45344, 38.56506], [-121.45429, 38.56528], [-121.4547, 38.56539], [-121.45583, 38.56569], [-121.45672, 38.56592], [-121.45691, 38.56598], [-121.45764, 38.56609], [-121.4587, 38.56638], [-121.45944, 38.5666], [-121.46159, 38.56716], [-121.46132, 38.56758], [-121.46096, 38.56813], [-121.4607, 38.56879], [-121.46059, 38.56894], [-121.45897, 38.56844], [-121.45841, 38.56953], [-121.45832, 38.5695], [-121.45437, 38.56859], [-121.45395, 38.56971], [-121.45317, 38.5695], [-121.45309, 38.56964], [-121.45148, 38.56919], [-121.450421, 38.571261], [-121.45036, 38.57138], [-121.44958, 38.5712], [-121.44944, 38.57116], [-121.449329, 38.571127], [-121.44924, 38.5711], [-121.44853, 38.57087]]]}}, {"type": "Feature", "properties": {"area_id": 6237, "city": "Sacramento", "state": "CA", "city_survey": true, "cat": "Still Desirable", "grade": "B", "label": "B5", "res": true, "com": false, "ind": false, "holc_grade": "B"}, "geometry": {"type": "Polygon", "coordinates": [[[-121.44999, 38.56419], [-121.44887, 38.56391], [-121.44693, 38.56343], [-121.44645, 38.56452], [-121.44516, 38.5674], [-121.44461, 38.5673], [-121.44366, 38.56698], [-121.44383, 38.56667], [-121.44456, 38.56515], [-121.44463, 38.56499], [-121.44509, 38.56397], [-121.4455, 38.56306], [-121.44565, 38.56268], [-121.44608, 38.56152], [-121.44716, 38.56198], [-121.44832, 38.55893], [-121.44906, 38.55909], [-121.44782, 38.56217], [-121.44874, 38.5625], [-121.45233, 38.56372], [-121.452704, 38.563817], [-121.45345, 38.56401], [-121.45457, 38.56099], [-121.45889, 38.56208], [-121.45758, 38.56502], [-121.458, 38.56517], [-121.45764, 38.56609], [-121.45691, 38.56598], [-121.45672, 38.56592], [-121.45583, 38.56569], [-121.4547, 38.56539], [-121.45429, 38.56528], [-121.45344, 38.56506], [-121.45252, 38.56482], [-121.452365, 38.564781], [-121.45185, 38.56465], [-121.44999, 38.56419]]]}}, {"type": "Feature", "properties": {"area_id": 6245, "city": "Sacramento", "state": "CA", "city_survey": true, "cat": "Still Desirable", "grade": "B", "label": "B6", "res": true, "com": false, "ind": false, "holc_grade": "B"}, "geometry": {"type": "Polygon", "coordinates": [[[-121.47496, 38.56243], [-121.47694, 38.56301], [-121.47771, 38.56119], [-121.47808, 38.56031], [-121.47993, 38.56076], [-121.4811, 38.5611], [-121.48245, 38.56141], [-121.48419, 38.56188], [-121.48324, 38.56377], [-121.48257, 38.56569], [-121.47446, 38.56353], [-121.47496, 38.56243]]]}}, {"type": "Feature", "properties": {"area_id": 6247, "city": "Sacramento", "state": "CA", "city_survey": true, "cat": "Still Desirable", "grade": "B", "label": "B7", "res": true, "com": false, "ind": false, "holc_grade": "B"}, "geometry": {"type": "Polygon", "coordinates": [[[-121.45732, 38.55253], [-121.45711, 38.55108], [-121.45998, 38.55078], [-121.46043, 38.55095], [-121.46036, 38.55149], [-121.45996, 38.55294], [-121.46421, 38.55404], [-121.46511, 38.55428], [-121.46489, 38.55478], [-121.46474, 38.55517], [-121.46458, 38.55558], [-121.46446, 38.5561], [-121.46432, 38.5568], [-121.46415, 38.55753], [-121.46539, 38.55779], [-121.46695, 38.55812], [-121.46683, 38.5585], [-121.46667, 38.55899], [-121.4665, 38.55961], [-121.46738, 38.55982], [-121.46834, 38.56006], [-121.47038, 38.56056], [-121.46933, 38.56275], [-121.46569, 38.56178], [-121.46586, 38.56115], [-121.46498, 38.56095], [-121.4652, 38.56013], [-121.46279, 38.55966], [-121.46134, 38.55805], [-121.45985, 38.55637], [-121.45852, 38.55489], [-121.45648, 38.55251], [-121.45732, 38.55253]]]}}, {"type": "Feature", "properties": {"area_id": 6228, "city": "Sacramento", "state": "CA", "city_survey": true, "cat": "Still Desirable", "grade": "B", "label": "B8", "res": true, "com": false, "ind": false, "holc_grade": "B"}, "geometry": {"type": "Polygon", "coordinates": [[[-121.45765, 38.55893], [-121.45484, 38.5582], [-121.45254, 38.55752], [-121.45007, 38.55679], [-121.44299, 38.55487], [-121.44317, 38.55441], [-121.4428, 38.55426], [-121.44323, 38.5534], [-121.46037, 38.55814], [-121.46121, 38.55914], [-121.46093, 38.55985], [-121.45979, 38.55953], [-121.45765, 38.55893]]]}}, {"type": "Feature", "properties": {"area_id": 6254, "city": "Sacramento", "state": "CA", "city_survey": true, "cat": "Still Desirable", "grade": "B", "label": "B9", "res": true, "com": false, "ind": false, "holc_grade": "B"}, "geometry": {"type": "Polygon", "coordinates": [[[-121.50329, 38.55728], [-121.50384, 38.55626], [-121.50436, 38.55529], [-121.50491, 38.55429], [-121.50538, 38.55345], [-121.50581, 38.55263], [-121.50621, 38.55172], [-121.50747, 38.55191], [-121.50755, 38.55256], [-121.50758, 38.55307], [-121.50763, 38.55355], [-121.50771, 38.55406], [-121.50781, 38.55486], [-121.50778, 38.5557], [-121.50607, 38.55564], [-121.50586, 38.55603], [-121.5056, 38.55655], [-121.50524, 38.55705], [-121.50486, 38.55763], [-121.50462, 38.55811], [-121.50431, 38.5585], [-121.50362, 38.55813], [-121.50277, 38.55771], [-121.50203, 38.55765], [-121.501484, 38.557593], [-121.50146, 38.55759], [-121.50165, 38.55709], [-121.501773, 38.557108], [-121.50255, 38.55722], [-121.50329, 38.55728]]]}}, {"type": "Feature", "properties": {"area_id": 6261, "city": "Sacramento", "state": "CA", "city_survey": true, "cat": "Definitely Declining", "grade": "C", "label": "C1", "res": true, "com": false, "ind": false, "holc_grade": "C"}, "geometry": {"type": "Polygon", "coordinates": [[[-121.47624, 38.61822], [-121.47617, 38.61922], [-121.475534, 38.619236], [-121.47496, 38.61925], [-121.47367, 38.61925], [-121.47196, 38.61928], [-121.47047, 38.61931], [-121.46893, 38.61931], [-121.46897, 38.61886], [-121.46922, 38.61761], [-121.46947, 38.61594], [-121.46965, 38.6148], [-121.4699, 38.61337], [-121.47036, 38.6117], [-121.47054, 38.61064], [-121.47082, 38.60872], [-121.47086, 38.60722], [-121.475585, 38.607141], [-121.47621, 38.60713], [-121.47624, 38.61822]]]}}, {"type": "Feature", "properties": {"area_id": 6231, "city": "Sacramento", "state": "CA", "city_survey": true, "cat": "Definitely Declining", "grade": "C", "label": "C10", "res": true, "com": false, "ind": false, "holc_grade": "C"}, "geometry": {"type": "Polygon", "coordinates": [[[-121.4348, 38.56453], [-121.43822, 38.56538], [-121.43784, 38.56715], [-121.4378, 38.56728], [-121.43758, 38.56831], [-121.43874, 38.56859], [-121.44012, 38.56896], [-121.440475, 38.569079], [-121.44149, 38.56942], [-121.44107, 38.57054], [-121.44075, 38.57042], [-121.44048, 38.57094], [-121.43739, 38.57039], [-121.43514, 38.57069], [-121.43767, 38.57325], [-121.43537, 38.57339], [-121.43446, 38.57051], [-121.43377, 38.56835], [-121.434063, 38.567381], [-121.43442, 38.5662], [-121.4348, 38.56453]]]}}, {"type": "Feature", "properties": {"area_id": 6241, "city": "Sacramento", "state": "CA", "city_survey": true, "cat": "Definitely Declining", "grade": "C", "label": "C11", "res": true, "com": false, "ind": false, "holc_grade": "C"}, "geometry": {"type": "Polygon", "coordinates": [[[-121.48341, 38.57209], [-121.48381, 38.57122], [-121.48407, 38.57052], [-121.48436, 38.56982], [-121.48459, 38.56933], [-121.48675, 38.56988], [-121.48864, 38.57034], [-121.48833, 38.57133], [-121.48938, 38.57163], [-121.48969, 38.5707], [-121.49021, 38.57087], [-121.49232, 38.57139], [-121.49373, 38.5718], [-121.494133, 38.571906], [-121.49594, 38.57238], [-121.49679, 38.5726], [-121.49632, 38.57373], [-121.493636, 38.573044], [-121.49358, 38.57303], [-121.49267, 38.57508], [-121.488622, 38.574066], [-121.48852, 38.57404], [-121.48753, 38.57624], [-121.48485, 38.57562], [-121.48441, 38.57667], [-121.48295, 38.57634], [-121.48344, 38.57521], [-121.48228, 38.5749], [-121.482745, 38.573743], [-121.48308, 38.57291], [-121.48341, 38.57209]], [[-121.4859, 38.57351], [-121.48575, 38.57386], [-121.48673, 38.57411], [-121.48687, 38.57376], [-121.4859, 38.57351]]]}}, {"type": "Feature", "properties": {"area_id": 6240, "city": "Sacramento", "state": "CA", "city_survey": true, "cat": "Definitely Declining", "grade": "C", "label": "C12", "res": true, "com": false, "ind": false, "holc_grade": "C"}, "geometry": {"type": "Polygon", "coordinates": [[[-121.46915, 38.56699], [-121.46954, 38.56595], [-121.47171, 38.56655], [-121.470033, 38.57035], [-121.46975, 38.57099], [-121.47091, 38.5712], [-121.471158, 38.57065], [-121.47266, 38.56732], [-121.47337, 38.5675], [-121.47375, 38.56656], [-121.47314, 38.56635], [-121.47339, 38.56573], [-121.48073, 38.56766], [-121.47913, 38.57154], [-121.48044, 38.57196], [-121.479972, 38.573002], [-121.47922, 38.57468], [-121.4735, 38.57312], [-121.47289, 38.57414], [-121.46671, 38.57255], [-121.46698, 38.57202], [-121.4661, 38.57183], [-121.46712, 38.569573], [-121.46835, 38.56685], [-121.46915, 38.56699]], [[-121.47013, 38.57171], [-121.46977, 38.5726], [-121.47048, 38.57281], [-121.47118, 38.57298], [-121.47223, 38.57322], [-121.47255, 38.57236], [-121.47244, 38.57226], [-121.47213, 38.5722], [-121.47188, 38.57209], [-121.47173, 38.57196], [-121.47139, 38.57187], [-121.47099, 38.5718], [-121.47065, 38.57178], [-121.47051, 38.57178], [-121.47013, 38.57171]], [[-121.47639, 38.57058], [-121.47668, 38.56983], [-121.47567, 38.56951], [-121.47534, 38.57034], [-121.47639, 38.57058]]]}}, {"type": "Feature", "properties": {"area_id": 6238, "city": "Sacramento", "state": "CA", "city_survey": true, "cat": "Definitely Declining", "grade": "C", "label": "C13", "res": true, "com": false, "ind": false, "holc_grade": "C"}, "geometry": {"type": "Polygon", "coordinates": [[[-121.45317, 38.5695], [-121.45395, 38.56971], [-121.45437, 38.56859], [-121.45832, 38.5695], [-121.45841, 38.56953], [-121.45988, 38.56999], [-121.46059, 38.56894], [-121.4607, 38.56879], [-121.46096, 38.56813], [-121.46132, 38.56758], [-121.46159, 38.56716], [-121.45944, 38.5666], [-121.4587, 38.56638], [-121.45764, 38.56609], [-121.458, 38.56517], [-121.45948, 38.56556], [-121.46051, 38.56583], [-121.46085, 38.56592], [-121.46162, 38.56614], [-121.4633, 38.5666], [-121.46408, 38.56748], [-121.46378, 38.5681], [-121.46534, 38.56901], [-121.46477, 38.57023], [-121.46421, 38.57137], [-121.46378, 38.57235], [-121.46269, 38.57215], [-121.4621, 38.57325], [-121.45952, 38.57253], [-121.4591, 38.57357], [-121.45602, 38.57275], [-121.45497, 38.572494], [-121.45196, 38.57176], [-121.451998, 38.571689], [-121.45309, 38.56964], [-121.45317, 38.5695]]]}}, {"type": "Feature", "properties": {"area_id": 6230, "city": "Sacramento", "state": "CA", "city_survey": true, "cat": "Definitely Declining", "grade": "C", "label": "C14", "res": true, "com": false, "ind": false, "holc_grade": "C"}, "geometry": {"type": "Polygon", "coordinates": [[[-121.4487, 38.55824], [-121.448657, 38.558318], [-121.44832, 38.55893], [-121.44716, 38.56198], [-121.44608, 38.56152], [-121.44565, 38.56268], [-121.4455, 38.56306], [-121.44509, 38.56397], [-121.44463, 38.56499], [-121.44456, 38.56515], [-121.44383, 38.56667], [-121.44366, 38.56698], [-121.44275, 38.56859], [-121.44035, 38.56785], [-121.44107, 38.56624], [-121.43976, 38.56585], [-121.43822, 38.56538], [-121.4348, 38.56453], [-121.43442, 38.5662], [-121.43288, 38.56614], [-121.43335, 38.56444], [-121.43225, 38.56418], [-121.43181, 38.56357], [-121.43337, 38.56098], [-121.43419, 38.55951], [-121.43503, 38.55824], [-121.43623, 38.55607], [-121.44231, 38.55752], [-121.442511, 38.556629], [-121.44254, 38.5565], [-121.4487, 38.55824]], [[-121.44144, 38.56166], [-121.43938, 38.56111], [-121.4386, 38.56226], [-121.44088, 38.56303], [-121.44144, 38.56166]]]}}, {"type": "Feature", "properties": {"area_id": 6239, "city": "Sacramento", "state": "CA", "city_survey": true, "cat": "Definitely Declining", "grade": "C", "label": "C15", "res": true, "com": false, "ind": false, "holc_grade": "C"}, "geometry": {"type": "Polygon", "coordinates": [[[-121.461982, 38.561986], [-121.46163, 38.5627], [-121.4652, 38.56373], [-121.46467, 38.56505], [-121.46669, 38.5656], [-121.46644, 38.56602], [-121.46733, 38.56633], [-121.46642, 38.56838], [-121.46595, 38.5681], [-121.46473, 38.56709], [-121.46448, 38.56761], [-121.46408, 38.56748], [-121.4633, 38.5666], [-121.46162, 38.56614], [-121.46085, 38.56592], [-121.46051, 38.56583], [-121.45948, 38.56556], [-121.458, 38.56517], [-121.45758, 38.56502], [-121.45889, 38.56208], [-121.45918, 38.56125], [-121.460197, 38.561494], [-121.46201, 38.56193], [-121.461982, 38.561986]]]}}, {"type": "Feature", "properties": {"area_id": 6229, "city": "Sacramento", "state": "CA", "city_survey": true, "cat": "Definitely Declining", "grade": "C", "label": "C16", "res": true, "com": false, "ind": false, "holc_grade": "C"}, "geometry": {"type": "Polygon", "coordinates": [[[-121.44254, 38.5565], [-121.44242, 38.55561], [-121.44054, 38.55509], [-121.44041, 38.55262], [-121.44323, 38.5534], [-121.4428, 38.55426], [-121.44317, 38.55441], [-121.44299, 38.55487], [-121.45007, 38.55679], [-121.45254, 38.55752], [-121.45484, 38.5582], [-121.45765, 38.55893], [-121.45979, 38.55953], [-121.45919, 38.561221], [-121.45918, 38.56125], [-121.45889, 38.56208], [-121.45457, 38.56099], [-121.45345, 38.56401], [-121.452704, 38.563817], [-121.45233, 38.56372], [-121.45389, 38.56015], [-121.45001, 38.55899], [-121.44874, 38.5625], [-121.44782, 38.56217], [-121.44906, 38.55909], [-121.44832, 38.55893], [-121.448657, 38.558318], [-121.4487, 38.55824], [-121.44254, 38.5565]]]}}, {"type": "Feature", "properties": {"area_id": 6244, "city": "Sacramento", "state": "CA", "city_survey": true, "cat": "Definitely Declining", "grade": "C", "label": "C17", "res": true, "com": false, "ind": false, "holc_grade": "C"}, "geometry": {"type": "MultiPolygon", "coordinates": [[[[-121.49065, 38.56172], [-121.49149, 38.56197], [-121.49107, 38.56295], [-121.49025, 38.56478], [-121.48879, 38.56802], [-121.48548, 38.56708], [-121.48727, 38.56314], [-121.48778, 38.56201], [-121.48829, 38.56112], [-121.48943, 38.56139], [-121.49065, 38.56172]]], [[[-121.49419, 38.56753], [-121.49443, 38.56698], [-121.49603, 38.56737], [-121.49578, 38.56803], [-121.49502, 38.56973], [-121.49217, 38.56891], [-121.49073, 38.56858], [-121.49016, 38.56841], [-121.49054, 38.56741], [-121.49107, 38.56628], [-121.49307, 38.56676], [-121.49286, 38.56719], [-121.49419, 38.56753]]], [[[-121.49539, 38.56481], [-121.49552, 38.56433], [-121.49221, 38.56347], [-121.4927, 38.56237], [-121.49362, 38.56268], [-121.49497, 38.56307], [-121.49588, 38.56332], [-121.49662, 38.56353], [-121.49755, 38.56377], [-121.49784, 38.56308], [-121.498461, 38.563248], [-121.49906, 38.56341], [-121.50016, 38.56375], [-121.50058, 38.5639], [-121.50018, 38.56485], [-121.50002, 38.56515], [-121.49968, 38.56594], [-121.499, 38.56574], [-121.49832, 38.565572], [-121.49799, 38.56549], [-121.49687, 38.56521], [-121.49539, 38.56481]]]]}}, {"type": "Feature", "properties": {"area_id": 6246, "city": "Sacramento", "state": "CA", "city_survey": true, "cat": "Definitely Declining", "grade": "C", "label": "C18", "res": true, "com": false, "ind": false, "holc_grade": "C"}, "geometry": {"type": "MultiPolygon", "coordinates": [[[[-121.47118, 38.55634], [-121.47192, 38.55656], [-121.47221, 38.55662], [-121.47183, 38.55723], [-121.47135, 38.55833], [-121.47038, 38.56056], [-121.46834, 38.56006], [-121.46738, 38.55982], [-121.4665, 38.55961], [-121.46667, 38.55899], [-121.46683, 38.5585], [-121.46695, 38.55812], [-121.46717, 38.55764], [-121.46734, 38.55726], [-121.46745, 38.55703], [-121.46767, 38.55655], [-121.46814, 38.55552], [-121.46947, 38.55591], [-121.47035, 38.5561], [-121.47118, 38.55634]]], [[[-121.47537, 38.55762], [-121.47582, 38.55771], [-121.47525, 38.55868], [-121.47487, 38.55953], [-121.47416, 38.56098], [-121.47302, 38.5637], [-121.47085, 38.56318], [-121.47138, 38.56184], [-121.47176, 38.56104], [-121.47204, 38.56031], [-121.47244, 38.55933], [-121.4729, 38.55838], [-121.47316, 38.55768], [-121.47337, 38.55708], [-121.47437, 38.55732], [-121.47537, 38.55762]]], [[[-121.48015, 38.56572], [-121.47867, 38.56533], [-121.47744, 38.565], [-121.47596, 38.56463], [-121.4742, 38.56418], [-121.47446, 38.56353], [-121.48257, 38.56569], [-121.48324, 38.56377], [-121.48419, 38.56188], [-121.48245, 38.56141], [-121.4811, 38.5611], [-121.47993, 38.56076], [-121.47808, 38.56031], [-121.47763, 38.56026], [-121.47691, 38.56005], [-121.47656, 38.56091], [-121.47771, 38.56119], [-121.47694, 38.56301], [-121.47496, 38.56243], [-121.4753, 38.56171], [-121.47577, 38.56065], [-121.4763, 38.5595], [-121.47696, 38.55805], [-121.47834, 38.55846], [-121.47948, 38.55873], [-121.48126, 38.55926], [-121.48257, 38.55955], [-121.48423, 38.56], [-121.485506, 38.560298], [-121.48573, 38.56035], [-121.48709, 38.56059], [-121.48687, 38.56115], [-121.48604, 38.56104], [-121.4858, 38.56154], [-121.48552, 38.56219], [-121.48511, 38.56299], [-121.48476, 38.56383], [-121.4844, 38.5647], [-121.48392, 38.56578], [-121.48364, 38.5666], [-121.482851, 38.566426], [-121.48278, 38.56641], [-121.48164, 38.56608], [-121.48015, 38.56572]]]]}}, {"type": "Feature", "properties": {"area_id": 6227, "city": "Sacramento", "state": "CA", "city_survey": true, "cat": "Definitely Declining", "grade": "C", "label": "C19", "res": true, "com": false, "ind": false, "holc_grade": "C"}, "geometry": {"type": "Polygon", "coordinates": [[[-121.44041, 38.55262], [-121.44054, 38.55509], [-121.43427, 38.55335], [-121.43421, 38.55053], [-121.43421, 38.54679], [-121.44037, 38.54679], [-121.44033, 38.55027], [-121.44634, 38.55021], [-121.44634, 38.55213], [-121.44744, 38.55215], [-121.44756, 38.55377], [-121.4594, 38.55714], [-121.46037, 38.55814], [-121.44323, 38.5534], [-121.44041, 38.55262]]]}}, {"type": "Feature", "properties": {"area_id": 6262, "city": "Sacramento", "state": "CA", "city_survey": true, "cat": "Definitely Declining", "grade": "C", "label": "C2", "res": true, "com": false, "ind": false, "holc_grade": "C"}, "geometry": {"type": "Polygon", "coordinates": [[[-121.466601, 38.609402], [-121.4664, 38.60995], [-121.46619, 38.61084], [-121.46619, 38.611156], [-121.46619, 38.61234], [-121.46444, 38.61237], [-121.46148, 38.61234], [-121.45831, 38.61234], [-121.4572, 38.61237], [-121.45724, 38.61137], [-121.457783, 38.611138], [-121.45834, 38.6109], [-121.45948, 38.61025], [-121.46038, 38.60984], [-121.46127, 38.60936], [-121.46187, 38.609], [-121.46348, 38.60903], [-121.46469, 38.609], [-121.46572, 38.609], [-121.466695, 38.608972], [-121.46676, 38.60897], [-121.466601, 38.609402]]]}}, {"type": "Feature", "properties": {"area_id": 6255, "city": "Sacramento", "state": "CA", "city_survey": true, "cat": "Definitely Declining", "grade": "C", "label": "C20", "res": true, "com": false, "ind": false, "holc_grade": "C"}, "geometry": {"type": "Polygon", "coordinates": [[[-121.507266, 38.547807], [-121.50835, 38.5481], [-121.50859, 38.54871], [-121.50883, 38.54929], [-121.50904, 38.54977], [-121.50933, 38.55036], [-121.50959, 38.55092], [-121.50987, 38.55155], [-121.51021, 38.55224], [-121.51066, 38.55326], [-121.51123, 38.55443], [-121.51163, 38.55538], [-121.51197, 38.55598], [-121.51111, 38.55596], [-121.50976, 38.55587], [-121.50778, 38.5557], [-121.50781, 38.55486], [-121.50771, 38.55406], [-121.50763, 38.55355], [-121.50758, 38.55307], [-121.50755, 38.55256], [-121.50747, 38.55191], [-121.507116, 38.548048], [-121.50709, 38.54776], [-121.507266, 38.547807]]]}}, {"type": "Feature", "properties": {"area_id": 6216, "city": "Sacramento", "state": "CA", "city_survey": true, "cat": "Definitely Declining", "grade": "C", "label": "C21", "res": true, "com": false, "ind": false, "holc_grade": "C"}, "geometry": {"type": "Polygon", "coordinates": [[[-121.48072, 38.5399], [-121.481198, 38.540151], [-121.48131, 38.54021], [-121.48148, 38.54143], [-121.48182, 38.54249], [-121.48214, 38.54353], [-121.48254, 38.54496], [-121.48288, 38.54604], [-121.48304, 38.54722], [-121.48347, 38.54818], [-121.48349, 38.54945], [-121.487858, 38.551206], [-121.48834, 38.5514], [-121.48892, 38.54962], [-121.48904, 38.54924], [-121.48919, 38.54927], [-121.48977, 38.54937], [-121.49059, 38.54952], [-121.49159, 38.54971], [-121.49247, 38.54987], [-121.491681, 38.551818], [-121.49064, 38.55439], [-121.48979, 38.55421], [-121.48944, 38.55424], [-121.4896, 38.55511], [-121.48958, 38.55595], [-121.48963, 38.55651], [-121.48952, 38.55742], [-121.48944, 38.55789], [-121.48927, 38.55853], [-121.48908, 38.55916], [-121.48895, 38.55965], [-121.4887, 38.56012], [-121.485859, 38.559432], [-121.48585, 38.55943], [-121.485955, 38.559206], [-121.48693, 38.55712], [-121.486839, 38.557097], [-121.48391, 38.55636], [-121.4842, 38.55562], [-121.487085, 38.556326], [-121.4871, 38.55633], [-121.487314, 38.555595], [-121.48815, 38.55272], [-121.48302, 38.55056], [-121.482971, 38.549883], [-121.48285, 38.54823], [-121.48247, 38.54749], [-121.48229, 38.54673], [-121.48214, 38.54604], [-121.48184, 38.5453], [-121.48163, 38.54466], [-121.4815, 38.54395], [-121.48131, 38.54369], [-121.48129, 38.54344], [-121.48104, 38.54282], [-121.48079, 38.54203], [-121.48066, 38.54111], [-121.48039, 38.54029], [-121.48017, 38.54034], [-121.47918, 38.54056], [-121.479181, 38.540498], [-121.47921, 38.53773], [-121.48091, 38.53752], [-121.48072, 38.5399]]]}}, {"type": "Feature", "properties": {"area_id": 6218, "city": "Sacramento", "state": "CA", "city_survey": true, "cat": "Definitely Declining", "grade": "C", "label": "C22", "res": true, "com": false, "ind": false, "holc_grade": "C"}, "geometry": {"type": "MultiPolygon", "coordinates": [[[[-121.47025, 38.55398], [-121.46947, 38.55591], [-121.46814, 38.55552], [-121.4683, 38.55515], [-121.46755, 38.55494], [-121.46715, 38.55484], [-121.46675, 38.55473], [-121.46586, 38.55449], [-121.46511, 38.55428], [-121.46421, 38.55404], [-121.46562, 38.55086], [-121.46704, 38.5513], [-121.4664, 38.5529], [-121.47025, 38.55398]]], [[[-121.46497, 38.53957], [-121.47306, 38.53948], [-121.472982, 38.541189], [-121.47298, 38.54123], [-121.472021, 38.541207], [-121.47134, 38.54119], [-121.471339, 38.541212], [-121.4713, 38.5426], [-121.47417, 38.54273], [-121.4742, 38.54329], [-121.4755, 38.54335], [-121.4755, 38.54383], [-121.47553, 38.54469], [-121.47555, 38.54562], [-121.47565, 38.54602], [-121.47569, 38.54669], [-121.47562, 38.54768], [-121.4756, 38.54898], [-121.47569, 38.5503], [-121.475809, 38.550328], [-121.47653, 38.5505], [-121.4765, 38.55212], [-121.47593, 38.55199], [-121.47584, 38.55437], [-121.47664, 38.55439], [-121.47748, 38.55441], [-121.4804, 38.55439], [-121.48092, 38.55346], [-121.48195, 38.55377], [-121.48338, 38.55419], [-121.48473, 38.55459], [-121.4842, 38.55562], [-121.48391, 38.55636], [-121.4829, 38.55866], [-121.475819, 38.556594], [-121.47272, 38.55569], [-121.47291, 38.55508], [-121.47151, 38.55469], [-121.47234, 38.55279], [-121.47111, 38.55242], [-121.47146, 38.5514], [-121.47125, 38.55101], [-121.47127, 38.54686], [-121.46783, 38.54673], [-121.4674, 38.54777], [-121.464719, 38.547072], [-121.46471, 38.54707], [-121.464719, 38.546817], [-121.46485, 38.54313], [-121.46491, 38.5414], [-121.464917, 38.541193], [-121.46497, 38.53957]]]]}}, {"type": "Feature", "properties": {"area_id": 6221, "city": "Sacramento", "state": "CA", "city_survey": true, "cat": "Definitely Declining", "grade": "C", "label": "C23", "res": true, "com": false, "ind": false, "holc_grade": "C"}, "geometry": {"type": "Polygon", "coordinates": [[[-121.46155, 38.53941], [-121.46417, 38.53943], [-121.464237, 38.539447], [-121.46471, 38.53957], [-121.46476, 38.53957], [-121.46497, 38.53957], [-121.464917, 38.541193], [-121.46491, 38.5414], [-121.464768, 38.541397], [-121.46134, 38.54132], [-121.46136, 38.54305], [-121.464707, 38.543127], [-121.46485, 38.54313], [-121.464719, 38.546817], [-121.46471, 38.54707], [-121.464691, 38.54718], [-121.46464, 38.54747], [-121.46697, 38.55026], [-121.46604, 38.54989], [-121.46562, 38.55086], [-121.46421, 38.55404], [-121.45996, 38.55294], [-121.46036, 38.55149], [-121.46043, 38.55095], [-121.45998, 38.55078], [-121.45711, 38.55108], [-121.45732, 38.55253], [-121.45648, 38.55251], [-121.456027, 38.552495], [-121.45587, 38.55249], [-121.45611, 38.55309], [-121.45661, 38.55396], [-121.45556, 38.55415], [-121.45314, 38.55417], [-121.45304, 38.55049], [-121.45485, 38.55043], [-121.45416, 38.54885], [-121.45245, 38.54885], [-121.45245, 38.54777], [-121.45207, 38.54773], [-121.45214, 38.54731], [-121.454051, 38.547295], [-121.45461, 38.54729], [-121.454315, 38.54676], [-121.45024, 38.53944], [-121.45136, 38.53946], [-121.4521, 38.539437], [-121.455489, 38.539332], [-121.45715, 38.53928], [-121.45917, 38.53931], [-121.45949, 38.53933], [-121.46155, 38.53941]]]}}, {"type": "Feature", "properties": {"area_id": 6215, "city": "Sacramento", "state": "CA", "city_survey": true, "cat": "Definitely Declining", "grade": "C", "label": "C24", "res": true, "com": false, "ind": false, "holc_grade": "C"}, "geometry": {"type": "Polygon", "coordinates": [[[-121.48868, 38.54411], [-121.48855, 38.54448], [-121.48823, 38.54485], [-121.48851, 38.545], [-121.48903, 38.54506], [-121.48971, 38.54496], [-121.49055, 38.54524], [-121.49056, 38.5455], [-121.49057, 38.54551], [-121.4903, 38.54623], [-121.49006, 38.54688], [-121.48986, 38.54743], [-121.48986, 38.54744], [-121.48977, 38.54768], [-121.48958, 38.54819], [-121.48942, 38.54861], [-121.4893, 38.54895], [-121.48919, 38.54927], [-121.48904, 38.54924], [-121.48892, 38.54962], [-121.4876, 38.54937], [-121.48631, 38.54578], [-121.48745, 38.54383], [-121.48794, 38.54215], [-121.48929, 38.5424], [-121.48868, 38.54411]]]}}, {"type": "Feature", "properties": {"area_id": 6223, "city": "Sacramento", "state": "CA", "city_survey": true, "cat": "Definitely Declining", "grade": "C", "label": "C25", "res": true, "com": false, "ind": false, "holc_grade": "C"}, "geometry": {"type": "Polygon", "coordinates": [[[-121.43881, 38.53573], [-121.44144, 38.53567], [-121.44154, 38.53796], [-121.44879, 38.53796], [-121.44951, 38.539419], [-121.44954, 38.53948], [-121.45166, 38.54379], [-121.44629, 38.54374], [-121.44627, 38.54352], [-121.44551, 38.5435], [-121.44537, 38.53952], [-121.440825, 38.539459], [-121.43862, 38.53943], [-121.43881, 38.53573]]]}}, {"type": "Feature", "properties": {"area_id": 6213, "city": "Sacramento", "state": "CA", "city_survey": true, "cat": "Definitely Declining", "grade": "C", "label": "C26", "res": true, "com": false, "ind": false, "holc_grade": "C"}, "geometry": {"type": "Polygon", "coordinates": [[[-121.48623, 38.53562], [-121.48628, 38.53366], [-121.493746, 38.535216], [-121.49391, 38.53525], [-121.49302, 38.53816], [-121.48735, 38.53922], [-121.48469, 38.53963], [-121.48435, 38.539688], [-121.48131, 38.54021], [-121.481198, 38.540151], [-121.48072, 38.5399], [-121.48091, 38.53752], [-121.48214, 38.53737], [-121.48212, 38.53623], [-121.48325, 38.53623], [-121.48355, 38.53623], [-121.48357, 38.53568], [-121.48623, 38.53562]]]}}, {"type": "Feature", "properties": {"area_id": 6219, "city": "Sacramento", "state": "CA", "city_survey": true, "cat": "Definitely Declining", "grade": "C", "label": "C27", "res": true, "com": false, "ind": false, "holc_grade": "C"}, "geometry": {"type": "Polygon", "coordinates": [[[-121.46471, 38.530169], [-121.473049, 38.530052], [-121.47322, 38.53005], [-121.47346, 38.53097], [-121.4737, 38.53156], [-121.47377, 38.53214], [-121.47396, 38.53288], [-121.47422, 38.5342], [-121.47439, 38.53468], [-121.47498, 38.53779], [-121.47721, 38.53779], [-121.4775, 38.53909], [-121.475368, 38.539518], [-121.47536, 38.53952], [-121.47306, 38.53948], [-121.46497, 38.53957], [-121.46476, 38.53957], [-121.46471, 38.53957], [-121.464237, 38.539447], [-121.46417, 38.53943], [-121.46155, 38.53941], [-121.45949, 38.53933], [-121.45917, 38.53931], [-121.45715, 38.53928], [-121.455489, 38.539332], [-121.4521, 38.539437], [-121.45136, 38.53946], [-121.45136, 38.539431], [-121.4514, 38.53535], [-121.455465, 38.535368], [-121.45582, 38.53537], [-121.45578, 38.53429], [-121.45566, 38.5323], [-121.45692, 38.53232], [-121.45813, 38.53225], [-121.46003, 38.53227], [-121.46146, 38.53212], [-121.46412, 38.53219], [-121.4647, 38.532148], [-121.46481, 38.53214], [-121.464703, 38.531631], [-121.46457, 38.531], [-121.46464, 38.53017], [-121.46471, 38.530169]]]}}, {"type": "Feature", "properties": {"area_id": 6224, "city": "Sacramento", "state": "CA", "city_survey": true, "cat": "Definitely Declining", "grade": "C", "label": "C28", "res": true, "com": false, "ind": false, "holc_grade": "C"}, "geometry": {"type": "Polygon", "coordinates": [[[-121.45582, 38.53537], [-121.455465, 38.535368], [-121.4514, 38.53535], [-121.45136, 38.539431], [-121.45136, 38.53946], [-121.45024, 38.53944], [-121.449741, 38.539468], [-121.44954, 38.53948], [-121.44951, 38.539419], [-121.44879, 38.53796], [-121.44782, 38.53609], [-121.44676, 38.53413], [-121.44632, 38.53367], [-121.4459, 38.53252], [-121.446083, 38.532518], [-121.44938, 38.53249], [-121.45102, 38.53234], [-121.4518, 38.53218], [-121.455444, 38.532293], [-121.45566, 38.5323], [-121.45578, 38.53429], [-121.45582, 38.53537]]]}}, {"type": "Feature", "properties": {"area_id": 6226, "city": "Sacramento", "state": "CA", "city_survey": true, "cat": "Definitely Declining", "grade": "C", "label": "C29", "res": true, "com": false, "ind": false, "holc_grade": "C"}, "geometry": {"type": "Polygon", "coordinates": [[[-121.44153, 38.53224], [-121.44144, 38.53567], [-121.43881, 38.53573], [-121.43862, 38.53943], [-121.440825, 38.539459], [-121.44537, 38.53952], [-121.44551, 38.5435], [-121.44627, 38.54352], [-121.44629, 38.54374], [-121.44632, 38.54569], [-121.44039, 38.54577], [-121.440372, 38.54671], [-121.44037, 38.54679], [-121.43421, 38.54679], [-121.43421, 38.55053], [-121.42792, 38.55062], [-121.427882, 38.546858], [-121.42784, 38.54267], [-121.4279, 38.53967], [-121.42866, 38.53961], [-121.42866, 38.539586], [-121.42873, 38.53238], [-121.43226, 38.532341], [-121.434648, 38.532315], [-121.44153, 38.53224]]]}}, {"type": "Feature", "properties": {"area_id": 6266, "city": "Sacramento", "state": "CA", "city_survey": true, "cat": "Definitely Declining", "grade": "C", "label": "C3", "res": true, "com": false, "ind": false, "holc_grade": "C"}, "geometry": {"type": "Polygon", "coordinates": [[[-121.45225, 38.61053], [-121.45196, 38.6102], [-121.45503, 38.60867], [-121.45742, 38.60764], [-121.46223, 38.60538], [-121.46676, 38.60323], [-121.46701, 38.60362], [-121.46833, 38.60368], [-121.46761, 38.60555], [-121.46383, 38.60764], [-121.457239, 38.611134], [-121.45585, 38.61187], [-121.45371, 38.61307], [-121.45221, 38.61376], [-121.450685, 38.614759], [-121.4505, 38.61488], [-121.44882, 38.61477], [-121.44608, 38.61482], [-121.44505, 38.61415], [-121.445231, 38.614], [-121.44615, 38.61324], [-121.44879, 38.61117], [-121.450435, 38.611129], [-121.452, 38.61109], [-121.45225, 38.61053]]]}}, {"type": "Feature", "properties": {"area_id": 6211, "city": "Sacramento", "state": "CA", "city_survey": true, "cat": "Definitely Declining", "grade": "C", "label": "C30", "res": true, "com": false, "ind": false, "holc_grade": "C"}, "geometry": {"type": "Polygon", "coordinates": [[[-121.49559, 38.53079], [-121.50201, 38.53087], [-121.50086, 38.53428], [-121.49463, 38.53322], [-121.493934, 38.535182], [-121.49391, 38.53525], [-121.493746, 38.535216], [-121.48628, 38.53366], [-121.48628, 38.53255], [-121.48707, 38.53009], [-121.48735, 38.52878], [-121.495838, 38.528808], [-121.49648, 38.52881], [-121.49559, 38.53079]]]}}, {"type": "Feature", "properties": {"area_id": 6264, "city": "Sacramento", "state": "CA", "city_survey": true, "cat": "Definitely Declining", "grade": "C", "label": "C4", "res": true, "com": false, "ind": false, "holc_grade": "C"}, "geometry": {"type": "Polygon", "coordinates": [[[-121.44405, 38.60713], [-121.44419, 38.60633], [-121.44626, 38.60624], [-121.44815, 38.60624], [-121.44858, 38.60624], [-121.45014, 38.60624], [-121.45235, 38.60622], [-121.45403, 38.60622], [-121.4543, 38.60623], [-121.45556, 38.60627], [-121.45702, 38.60633], [-121.45817, 38.60635], [-121.45681, 38.607], [-121.45578, 38.60727], [-121.4546, 38.60791], [-121.45303, 38.60858], [-121.45189, 38.60906], [-121.45071, 38.60956], [-121.44957, 38.61009], [-121.44879, 38.61042], [-121.4479, 38.61087], [-121.447384, 38.611122], [-121.44704, 38.61129], [-121.44615, 38.61129], [-121.44615, 38.61324], [-121.445231, 38.614], [-121.44505, 38.61415], [-121.444831, 38.613989], [-121.44362, 38.6131], [-121.44376, 38.61115], [-121.44376, 38.611121], [-121.44376, 38.61006], [-121.44387, 38.60822], [-121.44405, 38.60713]]]}}, {"type": "Feature", "properties": {"area_id": 6267, "city": "Sacramento", "state": "CA", "city_survey": true, "cat": "Definitely Declining", "grade": "C", "label": "C5", "res": true, "com": false, "ind": false, "holc_grade": "C"}, "geometry": {"type": "Polygon", "coordinates": [[[-121.45588, 38.60557], [-121.45788, 38.60571], [-121.45767, 38.60549], [-121.45795, 38.60524], [-121.45998, 38.60426], [-121.45998, 38.60276], [-121.46041, 38.60282], [-121.46102, 38.60296], [-121.46145, 38.60315], [-121.4653, 38.60128], [-121.46619, 38.60259], [-121.45817, 38.60635], [-121.45702, 38.60633], [-121.45556, 38.60627], [-121.45588, 38.60557]]]}}, {"type": "Feature", "properties": {"area_id": 6265, "city": "Sacramento", "state": "CA", "city_survey": true, "cat": "Definitely Declining", "grade": "C", "label": "C6", "res": true, "com": false, "ind": false, "holc_grade": "C"}, "geometry": {"type": "Polygon", "coordinates": [[[-121.44961, 38.60429], [-121.45011, 38.60479], [-121.45068, 38.60477], [-121.45086, 38.60449], [-121.45168, 38.60454], [-121.45243, 38.60452], [-121.45342, 38.60443], [-121.45428, 38.60443], [-121.45428, 38.60507], [-121.4543, 38.60623], [-121.45403, 38.60622], [-121.45235, 38.60622], [-121.45014, 38.60624], [-121.44858, 38.60624], [-121.44815, 38.60624], [-121.44822, 38.60569], [-121.44861, 38.60541], [-121.4489, 38.60491], [-121.44918, 38.60413], [-121.44961, 38.60429]]]}}, {"type": "Feature", "properties": {"area_id": 6250, "city": "Sacramento", "state": "CA", "city_survey": true, "cat": "Definitely Declining", "grade": "C", "label": "C7", "res": true, "com": false, "ind": false, "holc_grade": "C"}, "geometry": {"type": "Polygon", "coordinates": [[[-121.464952, 38.573359], [-121.46878, 38.57424], [-121.46869, 38.57477], [-121.46988, 38.57512], [-121.47006, 38.57475], [-121.47238, 38.57531], [-121.4747, 38.57596], [-121.47672, 38.57647], [-121.47823, 38.57682], [-121.47767, 38.57814], [-121.477518, 38.578495], [-121.47731, 38.57898], [-121.47695, 38.57981], [-121.4766, 38.58072], [-121.47618, 38.58165], [-121.47571, 38.5826], [-121.475439, 38.583541], [-121.47529, 38.58406], [-121.475222, 38.584042], [-121.47413, 38.58375], [-121.4725, 38.5833], [-121.47036, 38.58274], [-121.46789, 38.58209], [-121.46704, 38.58187], [-121.46604, 38.58161], [-121.46531, 38.58142], [-121.46308, 38.58086], [-121.461819, 38.580569], [-121.46165, 38.58053], [-121.46127, 38.58148], [-121.45922, 38.58093], [-121.45764, 38.58063], [-121.45743, 38.58114], [-121.45681, 38.58104], [-121.45583, 38.5793], [-121.45454, 38.57986], [-121.45384, 38.57906], [-121.45623, 38.57814], [-121.45745, 38.57851], [-121.4571, 38.57917], [-121.4582, 38.57947], [-121.45878, 38.57833], [-121.46169, 38.57907], [-121.46212, 38.57793], [-121.45718, 38.57663], [-121.45752, 38.57592], [-121.45978, 38.57647], [-121.46083, 38.57426], [-121.46391, 38.57498], [-121.463931, 38.574921], [-121.46418, 38.57421], [-121.46465, 38.57329], [-121.464952, 38.573359]], [[-121.47203, 38.57721], [-121.47189, 38.57712], [-121.471, 38.5769], [-121.47068, 38.57768], [-121.47172, 38.57794], [-121.47203, 38.57721]]]}}, {"type": "Feature", "properties": {"area_id": 6234, "city": "Sacramento", "state": "CA", "city_survey": true, "cat": "Definitely Declining", "grade": "C", "label": "C8", "res": true, "com": false, "ind": false, "holc_grade": "C"}, "geometry": {"type": "Polygon", "coordinates": [[[-121.456007, 38.572775], [-121.45465, 38.57545], [-121.45248, 38.57522], [-121.45191, 38.5765], [-121.45114, 38.5767], [-121.45011, 38.57697], [-121.44988, 38.57674], [-121.44853, 38.57699], [-121.44955, 38.57482], [-121.45014, 38.57436], [-121.45153, 38.57166], [-121.45196, 38.57176], [-121.45497, 38.572494], [-121.45602, 38.57275], [-121.456007, 38.572775]]]}}, {"type": "Feature", "properties": {"area_id": 6233, "city": "Sacramento", "state": "CA", "city_survey": true, "cat": "Definitely Declining", "grade": "C", "label": "C9", "res": true, "com": false, "ind": false, "holc_grade": "C"}, "geometry": {"type": "Polygon", "coordinates": [[[-121.43613, 38.57598], [-121.43537, 38.57339], [-121.43767, 38.57325], [-121.43942, 38.57368], [-121.43961, 38.57301], [-121.44195, 38.57362], [-121.44242, 38.57375], [-121.44299, 38.57406], [-121.44385, 38.57436], [-121.44366, 38.57494], [-121.44568, 38.57542], [-121.44625, 38.57396], [-121.44706, 38.57195], [-121.44876, 38.57244], [-121.44944, 38.57116], [-121.44958, 38.5712], [-121.45036, 38.57138], [-121.450413, 38.571393], [-121.45153, 38.57166], [-121.45014, 38.57436], [-121.44955, 38.57482], [-121.44853, 38.57699], [-121.44988, 38.57674], [-121.45011, 38.57697], [-121.45186, 38.57876], [-121.4526, 38.57837], [-121.45303, 38.57814], [-121.45384, 38.57906], [-121.45454, 38.57986], [-121.44957, 38.58231], [-121.445328, 38.580631], [-121.43704, 38.57735], [-121.43613, 38.57598]]]}}, {"type": "Feature", "properties": {"area_id": 6260, "city": "Sacramento", "state": "CA", "city_survey": true, "cat": "Hazardous", "grade": "D", "label": "D1", "res": true, "com": false, "ind": false, "holc_grade": "D"}, "geometry": {"type": "Polygon", "coordinates": [[[-121.51469, 38.58296], [-121.51689, 38.58308], [-121.5176, 38.58317], [-121.51754, 38.58331], [-121.51748, 38.58389], [-121.51737, 38.58456], [-121.51737, 38.58526], [-121.51725, 38.58631], [-121.51716, 38.58712], [-121.5171, 38.58816], [-121.51701, 38.58881], [-121.51701, 38.58972], [-121.51692, 38.59058], [-121.51686, 38.59123], [-121.51591, 38.59123], [-121.51445, 38.59123], [-121.51273, 38.59118], [-121.51065, 38.59116], [-121.5094, 38.59111], [-121.50884, 38.59042], [-121.50848, 38.59], [-121.5078, 38.58909], [-121.50753, 38.5884], [-121.50762, 38.58775], [-121.5075, 38.58686], [-121.50756, 38.58612], [-121.50765, 38.58528], [-121.50795, 38.58424], [-121.50863, 38.58282], [-121.51469, 38.58296]]]}}, {"type": "Feature", "properties": {"area_id": 6252, "city": "Sacramento", "state": "CA", "city_survey": true, "cat": "Hazardous", "grade": "D", "label": "D2", "res": true, "com": false, "ind": false, "holc_grade": "D"}, "geometry": {"type": "Polygon", "coordinates": [[[-121.482922, 38.579937], [-121.48285, 38.58008], [-121.48412, 38.58045], [-121.48594, 38.58091], [-121.48832, 38.58155], [-121.489784, 38.58194], [-121.49095, 38.58225], [-121.49302, 38.58284], [-121.49503, 38.58341], [-121.49465, 38.5843], [-121.49429, 38.5851], [-121.49399, 38.58583], [-121.49363, 38.58671], [-121.49323, 38.58754], [-121.49307, 38.588051], [-121.49302, 38.58821], [-121.492683, 38.588112], [-121.49165, 38.58781], [-121.48994, 38.58736], [-121.487697, 38.586738], [-121.48655, 38.58642], [-121.48515, 38.58605], [-121.48389, 38.58576], [-121.48178, 38.58518], [-121.47959, 38.5846], [-121.47809, 38.58419], [-121.47881, 38.58262], [-121.47944, 38.58127], [-121.480342, 38.579248], [-121.48081, 38.5782], [-121.48345, 38.57889], [-121.482922, 38.579937]], [[-121.48037, 38.58277], [-121.48142, 38.58305], [-121.48178, 38.58223], [-121.48072, 38.58199], [-121.48037, 38.58277]], [[-121.48659, 38.58161], [-121.48642, 38.58194], [-121.48766, 38.58228], [-121.48781, 38.58195], [-121.48659, 38.58161]]]}}, {"type": "Feature", "properties": {"area_id": 6251, "city": "Sacramento", "state": "CA", "city_survey": true, "cat": "Hazardous", "grade": "D", "label": "D3", "res": true, "com": false, "ind": false, "holc_grade": "D"}, "geometry": {"type": "Polygon", "coordinates": [[[-121.45764, 38.58063], [-121.45922, 38.58093], [-121.46127, 38.58148], [-121.46165, 38.58053], [-121.461819, 38.580569], [-121.46308, 38.58086], [-121.46531, 38.58142], [-121.46604, 38.58161], [-121.4656, 38.58253], [-121.46665, 38.58281], [-121.46704, 38.58187], [-121.46789, 38.58209], [-121.47036, 38.58274], [-121.4725, 38.5833], [-121.47413, 38.58375], [-121.47374, 38.58469], [-121.47475, 38.58495], [-121.474706, 38.585054], [-121.47376, 38.58727], [-121.47231, 38.58693], [-121.47277, 38.58589], [-121.47147, 38.58556], [-121.46974, 38.58509], [-121.46838, 38.58473], [-121.46689, 38.58434], [-121.46535, 38.58393], [-121.46334, 38.58341], [-121.46107, 38.58286], [-121.45898, 38.58235], [-121.45721, 38.58188], [-121.457355, 38.581393], [-121.45743, 38.58114], [-121.45764, 38.58063]]]}}, {"type": "Feature", "properties": {"area_id": 6242, "city": "Sacramento", "state": "CA", "city_survey": true, "cat": "Hazardous", "grade": "D", "label": "D4", "res": true, "com": false, "ind": false, "holc_grade": "D"}, "geometry": {"type": "MultiPolygon", "coordinates": [[[[-121.4954, 38.57585], [-121.49632, 38.57373], [-121.49679, 38.5726], [-121.49702, 38.57199], [-121.49828, 38.57233], [-121.49896, 38.57249], [-121.49989, 38.57273], [-121.50099, 38.57298], [-121.50107, 38.573004], [-121.50204, 38.5733], [-121.50377, 38.57374], [-121.50512, 38.57411], [-121.50641, 38.57449], [-121.50752, 38.57478], [-121.50717, 38.57545], [-121.50674, 38.57649], [-121.50636, 38.57736], [-121.50588, 38.57844], [-121.505315, 38.579751], [-121.50485, 38.58083], [-121.498403, 38.579179], [-121.49571, 38.57849], [-121.49675, 38.57623], [-121.4954, 38.57585]], [[-121.49755, 38.57386], [-121.49795, 38.573], [-121.49696, 38.57281], [-121.49662, 38.57359], [-121.49755, 38.57386]], [[-121.50324, 38.57536], [-121.50419, 38.57557], [-121.50447, 38.5748], [-121.50364, 38.57452], [-121.50345, 38.57492], [-121.50324, 38.57536]]], [[[-121.51065, 38.56757], [-121.5082, 38.57315], [-121.50427, 38.57215], [-121.50666, 38.56665], [-121.5094, 38.5674], [-121.51065, 38.56757]]]]}}, {"type": "Feature", "properties": {"area_id": 6248, "city": "Sacramento", "state": "CA", "city_survey": true, "cat": "Hazardous", "grade": "D", "label": "D5", "res": true, "com": false, "ind": false, "holc_grade": "D"}, "geometry": {"type": "Polygon", "coordinates": [[[-121.42937, 38.56059], [-121.42846, 38.55951], [-121.42783, 38.55869], [-121.42715, 38.55795], [-121.4265, 38.55713], [-121.42546, 38.55578], [-121.42479, 38.55496], [-121.42375, 38.55363], [-121.42306, 38.55283], [-121.423079, 38.552788], [-121.42333, 38.55224], [-121.42439, 38.55255], [-121.42553, 38.55295], [-121.42667, 38.55335], [-121.42755, 38.55363], [-121.42821, 38.55371], [-121.42949, 38.55404], [-121.43057, 38.55435], [-121.43183, 38.55469], [-121.43272, 38.55497], [-121.43407, 38.55537], [-121.43516, 38.55572], [-121.43623, 38.55607], [-121.43503, 38.55824], [-121.43419, 38.55951], [-121.43337, 38.56098], [-121.43181, 38.56357], [-121.43065, 38.56227], [-121.43044, 38.56187], [-121.430149, 38.561556], [-121.43006, 38.56146], [-121.42937, 38.56059]]]}}, {"type": "Feature", "properties": {"area_id": 6243, "city": "Sacramento", "state": "CA", "city_survey": true, "cat": "Hazardous", "grade": "D", "label": "D6", "res": true, "com": false, "ind": false, "holc_grade": "D"}, "geometry": {"type": "MultiPolygon", "coordinates": [[[[-121.49799, 38.56549], [-121.49832, 38.565572], [-121.499, 38.56574], [-121.49968, 38.56594], [-121.50002, 38.56515], [-121.50018, 38.56485], [-121.50292, 38.56569], [-121.50234, 38.56683], [-121.50193, 38.56795], [-121.50134, 38.56922], [-121.50103, 38.56998], [-121.5024, 38.57034], [-121.50341, 38.57062], [-121.50368, 38.57006], [-121.50396, 38.56937], [-121.50425, 38.56861], [-121.50457, 38.56799], [-121.50472, 38.5675], [-121.50501, 38.56692], [-121.50522, 38.56638], [-121.50525, 38.5663], [-121.50666, 38.56665], [-121.50427, 38.57215], [-121.5012, 38.57135], [-121.50027, 38.57111], [-121.49835, 38.57061], [-121.49778, 38.57046], [-121.49655, 38.57015], [-121.495075, 38.569745], [-121.49502, 38.56973], [-121.49578, 38.56803], [-121.49603, 38.56737], [-121.49443, 38.56698], [-121.4946, 38.5666], [-121.49481, 38.56612], [-121.49497, 38.56576], [-121.49525, 38.56513], [-121.49539, 38.56481], [-121.49687, 38.56521], [-121.49799, 38.56549]], [[-121.49664, 38.56661], [-121.49628, 38.5674], [-121.49734, 38.56774], [-121.49765, 38.56683], [-121.49664, 38.56661]]], [[[-121.49539, 38.56481], [-121.49512, 38.56475], [-121.49466, 38.56465], [-121.49404, 38.56451], [-121.49386, 38.56481], [-121.49373, 38.56511], [-121.49366, 38.56525], [-121.49351, 38.56557], [-121.49341, 38.56579], [-121.49333, 38.56602], [-121.49319, 38.56641], [-121.49307, 38.56676], [-121.49107, 38.56628], [-121.49139, 38.56554], [-121.49179, 38.56454], [-121.49221, 38.56347], [-121.49552, 38.56433], [-121.49539, 38.56481]]]]}}, {"type": "Feature", "properties": {"area_id": 6256, "city": "Sacramento", "state": "CA", "city_survey": true, "cat": "Hazardous", "grade": "D", "label": "D7", "res": true, "com": false, "ind": false, "holc_grade": "D"}, "geometry": {"type": "Polygon", "coordinates": [[[-121.50795, 38.54663], [-121.50799, 38.546641], [-121.5084, 38.54676], [-121.50952, 38.54698], [-121.51025, 38.54715], [-121.5103, 38.5475], [-121.51042, 38.548], [-121.51054, 38.54828], [-121.5108, 38.54862], [-121.51111, 38.54912], [-121.51125, 38.5496], [-121.51147, 38.55014], [-121.51175, 38.55064], [-121.51204, 38.55118], [-121.51218, 38.55168], [-121.51251, 38.55222], [-121.51287, 38.55276], [-121.51301, 38.55321], [-121.51323, 38.55369], [-121.51342, 38.55425], [-121.51351, 38.5546], [-121.51361, 38.55492], [-121.5137, 38.55536], [-121.51387, 38.55583], [-121.51389, 38.55614], [-121.51197, 38.55598], [-121.51163, 38.55538], [-121.51123, 38.55443], [-121.51066, 38.55326], [-121.51021, 38.55224], [-121.50987, 38.55155], [-121.50959, 38.55092], [-121.50933, 38.55036], [-121.50904, 38.54977], [-121.50883, 38.54929], [-121.50859, 38.54871], [-121.50835, 38.5481], [-121.507266, 38.547807], [-121.50709, 38.54776], [-121.50795, 38.54663]]]}}, {"type": "Feature", "properties": {"area_id": 11145, "city": "Sacramento", "state": "CA", "city_survey": true, "cat": "Commercial", "grade": null, "label": "Commercial", "res": false, "com": true, "ind": false, "holc_grade": null}, "geometry": {"type": "MultiPolygon", "coordinates": [[[[-121.43974, 38.57253], [-121.43961, 38.57301], [-121.43942, 38.57368], [-121.43767, 38.57325], [-121.43811, 38.5722], [-121.43974, 38.57253]]], [[[-121.44625, 38.57396], [-121.44568, 38.57542], [-121.44366, 38.57494], [-121.44429, 38.57344], [-121.44625, 38.57396]]], [[[-121.4546, 38.60791], [-121.45578, 38.60727], [-121.45681, 38.607], [-121.45817, 38.60635], [-121.46619, 38.60259], [-121.46676, 38.60323], [-121.46223, 38.60538], [-121.45742, 38.60764], [-121.45503, 38.60867], [-121.45196, 38.6102], [-121.45225, 38.61053], [-121.452, 38.61109], [-121.450435, 38.611129], [-121.44879, 38.61117], [-121.44615, 38.61324], [-121.44615, 38.61129], [-121.44704, 38.61129], [-121.447384, 38.611122], [-121.4479, 38.61087], [-121.44879, 38.61042], [-121.44957, 38.61009], [-121.45071, 38.60956], [-121.45189, 38.60906], [-121.45303, 38.60858], [-121.4546, 38.60791]]], [[[-121.454051, 38.547295], [-121.45356, 38.5473], [-121.453323, 38.546755], [-121.45285, 38.54567], [-121.45197, 38.54379], [-121.45166, 38.54379], [-121.44954, 38.53948], [-121.449741, 38.539468], [-121.45024, 38.53944], [-121.454315, 38.54676], [-121.45461, 38.54729], [-121.454051, 38.547295]]], [[[-121.49675, 38.56244], [-121.4975, 38.56081], [-121.49746, 38.5608], [-121.49811, 38.55982], [-121.49844, 38.55938], [-121.49873, 38.55886], [-121.49889, 38.55815], [-121.49918, 38.55757], [-121.49961, 38.557], [-121.50015, 38.5567], [-121.50096, 38.55685], [-121.50165, 38.55709], [-121.50146, 38.55759], [-121.501484, 38.557593], [-121.5017, 38.55762], [-121.49938, 38.56151], [-121.498622, 38.563262], [-121.49861, 38.56329], [-121.49846, 38.563249], [-121.49784, 38.56308], [-121.49755, 38.56377], [-121.49497, 38.56307], [-121.4927, 38.56237], [-121.49221, 38.56347], [-121.49179, 38.56454], [-121.49139, 38.56554], [-121.49107, 38.56628], [-121.49054, 38.56741], [-121.49016, 38.56841], [-121.49073, 38.56858], [-121.49217, 38.56891], [-121.49502, 38.56973], [-121.495075, 38.569745], [-121.49655, 38.57015], [-121.49778, 38.57046], [-121.49835, 38.57061], [-121.50027, 38.57111], [-121.5012, 38.57135], [-121.50427, 38.57215], [-121.5082, 38.57315], [-121.51065, 38.56757], [-121.5094, 38.5674], [-121.50666, 38.56665], [-121.50525, 38.5663], [-121.50292, 38.56569], [-121.50018, 38.56485], [-121.50058, 38.5639], [-121.500559, 38.563785], [-121.50053, 38.56363], [-121.50225, 38.56409], [-121.50735, 38.56547], [-121.51233, 38.56666], [-121.512221, 38.566938], [-121.509031, 38.575058], [-121.50872, 38.57585], [-121.507003, 38.580199], [-121.50658, 38.58127], [-121.50514, 38.58454], [-121.501659, 38.58382], [-121.49987, 38.58345], [-121.49954, 38.5844], [-121.49896, 38.5849], [-121.49758, 38.58458], [-121.49693, 38.58598], [-121.49764, 38.5868], [-121.4963, 38.58774], [-121.49492, 38.58751], [-121.4942, 38.58907], [-121.49264, 38.58866], [-121.49124, 38.588332], [-121.49012, 38.58807], [-121.489975, 38.588521], [-121.48995, 38.5886], [-121.489763, 38.588551], [-121.487199, 38.587881], [-121.48291, 38.58676], [-121.48313, 38.5862], [-121.48178, 38.58587], [-121.48139, 38.5868], [-121.478001, 38.585946], [-121.47468, 38.58511], [-121.474705, 38.585054], [-121.47475, 38.58495], [-121.475026, 38.584494], [-121.47529, 38.58406], [-121.475439, 38.583541], [-121.47571, 38.5826], [-121.47618, 38.58165], [-121.4766, 38.58072], [-121.47695, 38.57981], [-121.47731, 38.57898], [-121.477518, 38.578495], [-121.47767, 38.57814], [-121.47823, 38.57682], [-121.47672, 38.57647], [-121.4747, 38.57596], [-121.47238, 38.57531], [-121.47006, 38.57475], [-121.47025, 38.57424], [-121.46915, 38.57393], [-121.46878, 38.57424], [-121.464952, 38.573359], [-121.46465, 38.57329], [-121.46487, 38.57277], [-121.46378, 38.57235], [-121.46421, 38.57137], [-121.46477, 38.57023], [-121.46534, 38.56901], [-121.46378, 38.5681], [-121.46408, 38.56748], [-121.46448, 38.56761], [-121.46473, 38.56709], [-121.46595, 38.5681], [-121.46642, 38.56838], [-121.46733, 38.56633], [-121.46644, 38.56602], [-121.46669, 38.5656], [-121.46467, 38.56505], [-121.4652, 38.56373], [-121.46163, 38.5627], [-121.461982, 38.561986], [-121.46201, 38.56193], [-121.460197, 38.561494], [-121.45918, 38.56125], [-121.45919, 38.561221], [-121.45979, 38.55953], [-121.46093, 38.55985], [-121.46121, 38.55914], [-121.46037, 38.55814], [-121.4594, 38.55714], [-121.45661, 38.55396], [-121.45611, 38.55309], [-121.45587, 38.55249], [-121.456027, 38.552495], [-121.45648, 38.55251], [-121.45852, 38.55489], [-121.45985, 38.55637], [-121.46134, 38.55805], [-121.46279, 38.55966], [-121.4652, 38.56013], [-121.46498, 38.56095], [-121.46586, 38.56115], [-121.46569, 38.56178], [-121.46609, 38.56189], [-121.46698, 38.56306], [-121.46888, 38.56374], [-121.46933, 38.56275], [-121.47038, 38.56056], [-121.47135, 38.55833], [-121.47183, 38.55723], [-121.47221, 38.55662], [-121.47192, 38.55656], [-121.47118, 38.55634], [-121.47035, 38.5561], [-121.46947, 38.55591], [-121.47025, 38.55398], [-121.4664, 38.5529], [-121.46704, 38.5513], [-121.46562, 38.55086], [-121.46604, 38.54989], [-121.46697, 38.55026], [-121.46464, 38.54747], [-121.464691, 38.54718], [-121.46471, 38.54707], [-121.464719, 38.547072], [-121.4674, 38.54777], [-121.46922, 38.54823], [-121.46912, 38.54845], [-121.47126, 38.54908], [-121.47125, 38.55101], [-121.47146, 38.5514], [-121.47111, 38.55242], [-121.47234, 38.55279], [-121.47151, 38.55469], [-121.47291, 38.55508], [-121.47272, 38.55569], [-121.47377, 38.556], [-121.475819, 38.556597], [-121.4829, 38.55866], [-121.48319, 38.55799], [-121.486119, 38.558814], [-121.48614, 38.55882], [-121.485941, 38.559239], [-121.48585, 38.55943], [-121.485859, 38.559432], [-121.4874, 38.5598], [-121.4887, 38.56012], [-121.49201, 38.56091], [-121.49265, 38.5613], [-121.49397, 38.56166], [-121.4955, 38.56213], [-121.49675, 38.56244]], [[-121.48044, 38.57196], [-121.47913, 38.57154], [-121.48073, 38.56766], [-121.47339, 38.56573], [-121.47314, 38.56635], [-121.47248, 38.56626], [-121.47223, 38.56719], [-121.47266, 38.56732], [-121.471158, 38.57065], [-121.47091, 38.5712], [-121.46975, 38.57099], [-121.470033, 38.57035], [-121.47171, 38.56655], [-121.46954, 38.56595], [-121.46915, 38.56699], [-121.46835, 38.56685], [-121.46712, 38.569573], [-121.4661, 38.57183], [-121.46698, 38.57202], [-121.46671, 38.57255], [-121.47289, 38.57414], [-121.4735, 38.57312], [-121.47922, 38.57468], [-121.479972, 38.573002], [-121.48044, 38.57196]], [[-121.4729, 38.55838], [-121.47244, 38.55933], [-121.47204, 38.56031], [-121.47176, 38.56104], [-121.47138, 38.56184], [-121.47085, 38.56318], [-121.47302, 38.5637], [-121.47416, 38.56098], [-121.47487, 38.55953], [-121.47525, 38.55868], [-121.47582, 38.55771], [-121.47537, 38.55762], [-121.47437, 38.55732], [-121.47337, 38.55708], [-121.47316, 38.55768], [-121.4729, 38.55838]], [[-121.47696, 38.55805], [-121.4763, 38.5595], [-121.47577, 38.56065], [-121.4753, 38.56171], [-121.47496, 38.56243], [-121.47446, 38.56353], [-121.4742, 38.56418], [-121.47596, 38.56463], [-121.47744, 38.565], [-121.47867, 38.56533], [-121.48015, 38.56572], [-121.48164, 38.56608], [-121.48278, 38.56641], [-121.482851, 38.566426], [-121.48364, 38.5666], [-121.48392, 38.56578], [-121.4844, 38.5647], [-121.48476, 38.56383], [-121.48511, 38.56299], [-121.48552, 38.56219], [-121.4858, 38.56154], [-121.48604, 38.56104], [-121.48687, 38.56115], [-121.48709, 38.56059], [-121.48573, 38.56035], [-121.485506, 38.560298], [-121.48423, 38.56], [-121.48257, 38.55955], [-121.48126, 38.55926], [-121.47948, 38.55873], [-121.47834, 38.55846], [-121.47696, 38.55805]], [[-121.49302, 38.58821], [-121.493088, 38.588049], [-121.49503, 38.58341], [-121.49302, 38.58284], [-121.49095, 38.58225], [-121.489784, 38.58194], [-121.48832, 38.58155], [-121.48594, 38.58091], [-121.48412, 38.58045], [-121.48285, 38.58008], [-121.482922, 38.579937], [-121.48345, 38.57889], [-121.48081, 38.5782], [-121.480342, 38.579248], [-121.47944, 38.58127], [-121.47881, 38.58262], [-121.47809, 38.58419], [-121.47959, 38.5846], [-121.48178, 38.58518], [-121.48389, 38.58576], [-121.48512, 38.58604], [-121.48515, 38.58605], [-121.48655, 38.58642], [-121.487697, 38.586738], [-121.48994, 38.58736], [-121.4901, 38.5874], [-121.49165, 38.58781], [-121.492683, 38.588112], [-121.49302, 38.58821]], [[-121.49989, 38.57273], [-121.49896, 38.57249], [-121.49828, 38.57233], [-121.49702, 38.57199], [-121.49679, 38.5726], [-121.49594, 38.57238], [-121.494133, 38.571906], [-121.49373, 38.5718], [-121.49232, 38.57139], [-121.49021, 38.57087], [-121.48969, 38.5707], [-121.48864, 38.57034], [-121.48675, 38.56988], [-121.48459, 38.56933], [-121.48436, 38.56982], [-121.48407, 38.57052], [-121.48381, 38.57122], [-121.48341, 38.57209], [-121.48308, 38.57291], [-121.482745, 38.573743], [-121.48228, 38.5749], [-121.4818, 38.5759], [-121.48301, 38.57621], [-121.48295, 38.57634], [-121.48441, 38.57667], [-121.48485, 38.57562], [-121.48753, 38.57624], [-121.49571, 38.57849], [-121.498403, 38.579179], [-121.50485, 38.58083], [-121.505315, 38.579751], [-121.50588, 38.57844], [-121.50636, 38.57736], [-121.50674, 38.57649], [-121.50717, 38.57545], [-121.50752, 38.57478], [-121.50641, 38.57449], [-121.50512, 38.57411], [-121.50377, 38.57374], [-121.50204, 38.5733], [-121.50107, 38.573004], [-121.50099, 38.57298], [-121.49989, 38.57273]], [[-121.49149, 38.56197], [-121.49065, 38.56172], [-121.48943, 38.56139], [-121.48829, 38.56112], [-121.48778, 38.56201], [-121.48727, 38.56314], [-121.48548, 38.56708], [-121.48879, 38.56802], [-121.49025, 38.56478], [-121.49107, 38.56295], [-121.49149, 38.56197]]], [[[-121.49274, 38.5751], [-121.49267, 38.57508], [-121.49358, 38.57303], [-121.493636, 38.573044], [-121.49632, 38.57373], [-121.4954, 38.57585], [-121.49274, 38.5751]]], [[[-121.49497, 38.56576], [-121.49481, 38.56612], [-121.4946, 38.5666], [-121.49443, 38.56698], [-121.49419, 38.56753], [-121.49286, 38.56719], [-121.49307, 38.56676], [-121.49319, 38.56641], [-121.49333, 38.56602], [-121.49341, 38.56579], [-121.49351, 38.56557], [-121.49366, 38.56525], [-121.49373, 38.56511], [-121.49386, 38.56481], [-121.49404, 38.56451], [-121.49466, 38.56465], [-121.49512, 38.56475], [-121.49539, 38.56481], [-121.49525, 38.56513], [-121.49497, 38.56576]]], [[[-121.50478, 38.55884], [-121.50431, 38.5585], [-121.50462, 38.55811], [-121.50486, 38.55763], [-121.50524, 38.55705], [-121.5056, 38.55655], [-121.50586, 38.55603], [-121.50607, 38.55564], [-121.50778, 38.5557], [-121.50976, 38.55587], [-121.51111, 38.55596], [-121.51046, 38.56333], [-121.50459, 38.55925], [-121.50478, 38.55884]]], [[[-121.50927, 38.54633], [-121.508584, 38.544848], [-121.50715, 38.54175], [-121.506197, 38.538909], [-121.50601, 38.53835], [-121.506462, 38.538553], [-121.51152, 38.54082], [-121.511432, 38.541007], [-121.50961, 38.54488], [-121.50927, 38.54633]]]]}}, {"type": "Feature", "properties": {"area_id": 11144, "city": "Sacramento", "state": "CA", "city_survey": true, "cat": "Industrial", "grade": null, "label": "Industrial", "res": false, "com": false, "ind": true, "holc_grade": null}, "geometry": {"type": "MultiPolygon", "coordinates": [[[[-121.44242, 38.55561], [-121.44254, 38.5565], [-121.442511, 38.556629], [-121.44231, 38.55752], [-121.43623, 38.55607], [-121.43516, 38.55572], [-121.43407, 38.55537], [-121.43272, 38.55497], [-121.43183, 38.55469], [-121.43057, 38.55435], [-121.42949, 38.55404], [-121.42821, 38.55371], [-121.42755, 38.55363], [-121.42667, 38.55335], [-121.42553, 38.55295], [-121.42439, 38.55255], [-121.42333, 38.55224], [-121.423512, 38.551429], [-121.42371, 38.55055], [-121.42783, 38.55176], [-121.43427, 38.55335], [-121.44054, 38.55509], [-121.44242, 38.55561]]], [[[-121.43335, 38.56444], [-121.43288, 38.56614], [-121.43442, 38.5662], [-121.434063, 38.567381], [-121.43377, 38.56835], [-121.43446, 38.57051], [-121.43537, 38.57339], [-121.43613, 38.57598], [-121.43704, 38.57735], [-121.445328, 38.580631], [-121.44957, 38.58231], [-121.45454, 38.57986], [-121.45583, 38.5793], [-121.45681, 38.58104], [-121.45743, 38.58114], [-121.457356, 38.581393], [-121.45733, 38.58148], [-121.454039, 38.58227], [-121.45358, 38.58238], [-121.452191, 38.583282], [-121.45101, 38.58405], [-121.45001, 38.58414], [-121.44983, 38.584096], [-121.44895, 38.58388], [-121.441883, 38.580702], [-121.43732, 38.57865], [-121.43546, 38.57722], [-121.43406, 38.57527], [-121.431972, 38.567308], [-121.431689, 38.566232], [-121.430672, 38.562355], [-121.43065, 38.56227], [-121.43181, 38.56357], [-121.43225, 38.56418], [-121.43335, 38.56444]]], [[[-121.50507, 38.58651], [-121.50518, 38.58944], [-121.50607, 38.5912], [-121.50664, 38.59304], [-121.50747, 38.59353], [-121.50752, 38.59545], [-121.50735, 38.59616], [-121.50632, 38.59791], [-121.50455, 38.59938], [-121.50052, 38.60095], [-121.49769, 38.6015], [-121.49383, 38.60182], [-121.487, 38.6011], [-121.48486, 38.60068], [-121.48343, 38.60001], [-121.482345, 38.599645], [-121.47891, 38.59849], [-121.478232, 38.597271], [-121.47757, 38.59608], [-121.47522, 38.59362], [-121.47342, 38.5921], [-121.46885, 38.58993], [-121.46699, 38.5887], [-121.46582, 38.58852], [-121.464895, 38.58902], [-121.46436, 38.58931], [-121.46027, 38.58995], [-121.45959, 38.58904], [-121.45593, 38.59045], [-121.457252, 38.589292], [-121.46219, 38.58497], [-121.46279, 38.58328], [-121.46334, 38.58341], [-121.46535, 38.58393], [-121.46689, 38.58434], [-121.46838, 38.58473], [-121.46974, 38.58509], [-121.47147, 38.58556], [-121.47277, 38.58589], [-121.47231, 38.58693], [-121.47376, 38.58727], [-121.47468, 38.58511], [-121.478001, 38.585946], [-121.48139, 38.5868], [-121.48262, 38.58714], [-121.48291, 38.58676], [-121.487199, 38.587881], [-121.489763, 38.588551], [-121.48995, 38.5886], [-121.489975, 38.588521], [-121.49012, 38.58807], [-121.49124, 38.588332], [-121.49264, 38.58866], [-121.4942, 38.58907], [-121.49492, 38.58751], [-121.4963, 38.58774], [-121.49764, 38.5868], [-121.49693, 38.58598], [-121.49758, 38.58458], [-121.49896, 38.5849], [-121.49954, 38.5844], [-121.49987, 38.58345], [-121.501659, 38.58382], [-121.50514, 38.58454], [-121.505092, 38.585897], [-121.50507, 38.58651]]], [[[-121.48254, 38.54496], [-121.48214, 38.54353], [-121.48182, 38.54249], [-121.48148, 38.54143], [-121.48131, 38.54021], [-121.48435, 38.539688], [-121.48469, 38.53963], [-121.48599, 38.54286], [-121.48631, 38.54578], [-121.4876, 38.54937], [-121.48892, 38.54962], [-121.48834, 38.5514], [-121.487858, 38.551206], [-121.48349, 38.54945], [-121.48347, 38.54818], [-121.48304, 38.54722], [-121.48288, 38.54604], [-121.48254, 38.54496]]], [[[-121.51046, 38.56333], [-121.51111, 38.55596], [-121.51197, 38.55598], [-121.51389, 38.55614], [-121.51541, 38.56005], [-121.51742, 38.56171], [-121.51899, 38.56316], [-121.51939, 38.56412], [-121.51939, 38.56591], [-121.517442, 38.568348], [-121.51716, 38.5687], [-121.51521, 38.57051], [-121.51341, 38.57154], [-121.51061, 38.57429], [-121.509138, 38.575505], [-121.50872, 38.57585], [-121.509031, 38.575058], [-121.512221, 38.566938], [-121.51233, 38.56666], [-121.50735, 38.56547], [-121.50225, 38.56409], [-121.50459, 38.55925], [-121.51046, 38.56333]]]]}}]}