{"type": "FeatureCollection", "features": [{"type": "Feature", "geometry": {"type": "Point", "coordinates": [-122.55888888888889, 47.27583333333333]}, "properties": {"facility_name": "GLACIER NORTHWEST INC. TACOMA NARROWS PLANT", "industry": null, "tri_facility_id": "98335GLCRN2214T"}}, {"type": "Feature", "geometry": {"type": "Point", "coordinates": [-122.3361, 47.2147]}, "properties": {"facility_name": "ACCURATE PLASTICS INC", "industry": null, "tri_facility_id": "98371CCRTP46097"}}, {"type": "Feature", "geometry": {"type": "Point", "coordinates": [-122.584722, 47.185556]}, "properties": {"facility_name": "ABITIBI CONSOLIDATED SALES CORP", "industry": null, "tri_facility_id": "98388BSCSC4302C"}}, {"type": "Feature", "geometry": {"type": "Point", "coordinates": [-122.443056, 47.253056]}, "properties": {"facility_name": "TACOMA RUBBER STAMP CO", "industry": null, "tri_facility_id": "98402TCMRB919MA"}}, {"type": "Feature", "geometry": {"type": "Point", "coordinates": [-122.4809, 47.2076]}, "properties": {"facility_name": "FLEX-A-LITE CONS", "industry": null, "tri_facility_id": "98409FLXLT4540S"}}, {"type": "Feature", "geometry": {"type": "Point", "coordinates": [-122.4866, 47.206]}, "properties": {"facility_name": "GENERAL PLASTICS MANUFACTURING CO", "industry": null, "tri_facility_id": "98409GNRLP4910B"}}, {"type": "Feature", "geometry": {"type": "Point", "coordinates": [-122.479722, 47.228889]}, "properties": {"facility_name": "NALLEY FINE FOODS", "industry": null, "tri_facility_id": "98409NLLYS3303S"}}, {"type": "Feature", "geometry": {"type": "Point", "coordinates": [-122.464652, 47.23065]}, "properties": {"facility_name": "NORTHWEST ETCH", "industry": null, "tri_facility_id": "98409NWTCH2601S"}}, {"type": "Feature", "geometry": {"type": "Point", "coordinates": [-122.473889, 47.230833]}, "properties": {"facility_name": "PARKER PAINT MANUFACTURING CO INC", "industry": null, "tri_facility_id": "98409PRKRP3302S"}}, {"type": "Feature", "geometry": {"type": "Point", "coordinates": [-122.48222222222222, 47.221944444444446]}, "properties": {"facility_name": "REGENCY THERMOGRAPHERS", "industry": null, "tri_facility_id": "98409RGNCY3801S"}}, {"type": "Feature", "geometry": {"type": "Point", "coordinates": [-122.458611, 47.233333]}, "properties": {"facility_name": "BRADKEN ENERGY", "industry": null, "tri_facility_id": "98409TLSFN3021S"}}, {"type": "Feature", "geometry": {"type": "Point", "coordinates": [-122.484433, 47.195663]}, "properties": {"facility_name": "ZUMAR IND", "industry": null, "tri_facility_id": "98409ZMRND6709S"}}, {"type": "Feature", "geometry": {"type": "Point", "coordinates": [-122.38972222222223, 47.271388888888886]}, "properties": {"facility_name": "BURLINGTON ENVIRONMENTAL LLC", "industry": null, "tri_facility_id": "98421BRLNG1701E"}}, {"type": "Feature", "geometry": {"type": "Point", "coordinates": [-122.402778, 47.280556]}, "properties": {"facility_name": "PIONEER AMERICAS LLC TACOMA TERMINAL", "industry": null, "tri_facility_id": "98421CCDNT605AL"}}, {"type": "Feature", "geometry": {"type": "Point", "coordinates": [-122.408333, 47.255556]}, "properties": {"facility_name": "STELLA-JONES CORP", "industry": null, "tri_facility_id": "98421CSCDP1640E"}}, {"type": "Feature", "geometry": {"type": "Point", "coordinates": [-122.391944, 47.27]}, "properties": {"facility_name": "GEORGIA-PACIFIC GYPSUM LLC", "industry": null, "tri_facility_id": "98421DMTRN1240A"}}, {"type": "Feature", "geometry": {"type": "Point", "coordinates": [-122.416667, 47.25]}, "properties": {"facility_name": "DARLING-DELAWARE CO INC", "industry": null, "tri_facility_id": "98421DRLNG2041M"}}, {"type": "Feature", "geometry": {"type": "Point", "coordinates": [-122.376944, 47.260556]}, "properties": {"facility_name": "ARCLIN SURFACES LLC", "industry": null, "tri_facility_id": "98421DYNVR2144M"}}, {"type": "Feature", "geometry": {"type": "Point", "coordinates": [-122.36166666666666, 47.26166666666666]}, "properties": {"facility_name": "GLACIER NORTHWEST INC TACOMA PLANT", "industry": null, "tri_facility_id": "98421GLCRN3601T"}}, {"type": "Feature", "geometry": {"type": "Point", "coordinates": [-122.391667, 47.261667]}, "properties": {"facility_name": "PROFESSIONAL COATINGS INC", "industry": null, "tri_facility_id": "98421GRRDC2148P"}}, {"type": "Feature", "geometry": {"type": "Point", "coordinates": [-122.4054, 47.2599]}, "properties": {"facility_name": "HYGRADE FOOD PRODUCTS CORP", "industry": null, "tri_facility_id": "98421HYGRD1636E"}}, {"type": "Feature", "geometry": {"type": "Point", "coordinates": [-122.4263888888889, 47.24277777777778]}, "properties": {"facility_name": "CARAUSTAR TACOMA PAPERBOARD", "industry": null, "tri_facility_id": "98421JFFRS817E2"}}, {"type": "Feature", "geometry": {"type": "Point", "coordinates": [-122.38333333333334, 47.266666666666666]}, "properties": {"facility_name": "PHOENIX ENVIRONMENTAL SERVICES INC", "industry": null, "tri_facility_id": "98421JLDRL2212P"}}, {"type": "Feature", "geometry": {"type": "Point", "coordinates": [-122.370833, 47.261389]}, "properties": {"facility_name": "KAISER ALUMINUM TACOMA WORKS", "industry": null, "tri_facility_id": "98421KSRLM3400T"}}, {"type": "Feature", "geometry": {"type": "Point", "coordinates": [-122.386389, 47.274444]}, "properties": {"facility_name": "LAND O'LAKES INC, FEED PLANT", "industry": null, "tri_facility_id": "98421LNDLK1801T"}}, {"type": "Feature", "geometry": {"type": "Point", "coordinates": [-122.395, 47.261667]}, "properties": {"facility_name": "LIANGA PACIFIC INC", "industry": null, "tri_facility_id": "98421LNGPC2120P"}}, {"type": "Feature", "geometry": {"type": "Point", "coordinates": [-122.36166666666666, 47.25972222222222]}, "properties": {"facility_name": "LOUISIANA-PACIFIC TACOMA STUDMILL", "industry": null, "tri_facility_id": "98421LPTCM3701T"}}, {"type": "Feature", "geometry": {"type": "Point", "coordinates": [-122.408333, 47.265833]}, "properties": {"facility_name": "RAVEN INDUSTRIES INC", "industry": null, "tri_facility_id": "98421NRCRP1144T"}}, {"type": "Feature", "geometry": {"type": "Point", "coordinates": [-122.376944, 47.260556]}, "properties": {"facility_name": "DYNO OVERLAYS INC", "industry": null, "tri_facility_id": "98421NRSNN3320L"}}, {"type": "Feature", "geometry": {"type": "Point", "coordinates": [-122.409444, 47.279444]}, "properties": {"facility_name": "NORTHCOAST YACHTS INC", "industry": null, "tri_facility_id": "98421NRTHC401AL"}}, {"type": "Feature", "geometry": {"type": "Point", "coordinates": [-122.433333, 47.258333]}, "properties": {"facility_name": "PUGET SOUND PLYWOOD INC", "industry": null, "tri_facility_id": "98421PGTSN230EA"}}, {"type": "Feature", "geometry": {"type": "Point", "coordinates": [-122.372222, 47.269444]}, "properties": {"facility_name": "ELF ATOCHEM NA INC TACOMA PLANT", "industry": null, "tri_facility_id": "98421PNNWL2901T"}}, {"type": "Feature", "geometry": {"type": "Point", "coordinates": [-122.3875, 47.270833333333336]}, "properties": {"facility_name": "PQ CORP TACOMA", "industry": null, "tri_facility_id": "98421PQCRP1202T"}}, {"type": "Feature", "geometry": {"type": "Point", "coordinates": [-122.386944, 47.267778]}, "properties": {"facility_name": "REICHHOLD CHEMICALS INC", "industry": null, "tri_facility_id": "98421RCHLD2340T"}}, {"type": "Feature", "geometry": {"type": "Point", "coordinates": [-122.40722222222223, 47.263333333333335]}, "properties": {"facility_name": "AIR LIQUIDE AMERICA CORP", "industry": null, "tri_facility_id": "98421RLQDM1451T"}}, {"type": "Feature", "geometry": {"type": "Point", "coordinates": [-122.40416666666667, 47.25555555555555]}, "properties": {"facility_name": "USG SEATAC PLANT", "industry": null, "tri_facility_id": "98421SGSTC2102M"}}, {"type": "Feature", "geometry": {"type": "Point", "coordinates": [-122.396389, 47.255]}, "properties": {"facility_name": "US OIL & REFINING CO", "industry": null, "tri_facility_id": "98421SLRFN3001M"}}, {"type": "Feature", "geometry": {"type": "Point", "coordinates": [-122.426944, 47.2675]}, "properties": {"facility_name": "WESTROCK TACOMA MILL", "industry": null, "tri_facility_id": "98421SMPSN801PO"}}, {"type": "Feature", "geometry": {"type": "Point", "coordinates": [-122.42166666666667, 47.25805555555556]}, "properties": {"facility_name": "INTERFOR U.S. INC.", "industry": null, "tri_facility_id": "98421SMPSN901E1"}}, {"type": "Feature", "geometry": {"type": "Point", "coordinates": [-122.4054, 47.2599]}, "properties": {"facility_name": "TACOMA FIXTURE CO", "industry": null, "tri_facility_id": "98421TCMFX1815E"}}, {"type": "Feature", "geometry": {"type": "Point", "coordinates": [-122.401667, 47.259167]}, "properties": {"facility_name": "PIONEER AMERICAS LLC (DBA OLIN CHLOR ALKALI PRODUCTS)", "industry": null, "tri_facility_id": "98421THDLC2001T"}}, {"type": "Feature", "geometry": {"type": "Point", "coordinates": [-122.4, 47.25]}, "properties": {"facility_name": "THERMAFIBER LLC", "industry": null, "tri_facility_id": "98421THRMF2301T"}}, {"type": "Feature", "geometry": {"type": "Point", "coordinates": [-122.42722222222223, 47.25083333333333]}, "properties": {"facility_name": "TEMTCO STEEL - WASHINGTON DIV", "industry": null, "tri_facility_id": "98421TMTCS459E1"}}, {"type": "Feature", "geometry": {"type": "Point", "coordinates": [-122.381944, 47.268056]}, "properties": {"facility_name": "WESTERN TURNINGS, CORP", "industry": null, "tri_facility_id": "98421WSTRN2150T"}}, {"type": "Feature", "geometry": {"type": "Point", "coordinates": [-122.37583333333333, 47.272777777777776]}, "properties": {"facility_name": "BUSBY MARINE & TANK INC", "industry": null, "tri_facility_id": "98422CTNKQ1840M"}}, {"type": "Feature", "geometry": {"type": "Point", "coordinates": [-122.375, 47.258333]}, "properties": {"facility_name": "JCI JONES CHEMICALS INC", "industry": null, "tri_facility_id": "98422JNSCH1919M"}}, {"type": "Feature", "geometry": {"type": "Point", "coordinates": [-122.335, 47.2598]}, "properties": {"facility_name": "AMERICAN REINFORCED PLASTICS INC", "industry": null, "tri_facility_id": "98422MRCNR8209P"}}, {"type": "Feature", "geometry": {"type": "Point", "coordinates": [-122.33611111111111, 47.23027777777778]}, "properties": {"facility_name": "MILGARD MANUFACTURING LLC TACOMA PULTRUSION", "industry": null, "tri_facility_id": "98424MLGRD29357"}}, {"type": "Feature", "geometry": {"type": "Point", "coordinates": [-122.351111, 47.243611]}, "properties": {"facility_name": "PACIFIC COAST SHOWCASE INC", "industry": null, "tri_facility_id": "98424PCFCC3400D"}}, {"type": "Feature", "geometry": {"type": "Point", "coordinates": [-122.33638888888889, 47.21527777777778]}, "properties": {"facility_name": "PREMIER BUILDING SYSTEMS", "industry": null, "tri_facility_id": "98424PRMRB4697T"}}, {"type": "Feature", "geometry": {"type": "Point", "coordinates": [-122.36722222222221, 47.24444444444445]}, "properties": {"facility_name": "RAINIER BALLISTICS LLC", "industry": null, "tri_facility_id": "98424RNRBL45001"}}, {"type": "Feature", "geometry": {"type": "Point", "coordinates": [-122.5553, 47.1601]}, "properties": {"facility_name": "U.S. DOD USAF MCCHORD AFB", "industry": null, "tri_facility_id": "98438SDDRF555AS"}}, {"type": "Feature", "geometry": {"type": "Point", "coordinates": [-122.46666666666667, 47.15833333333333]}, "properties": {"facility_name": "DURHAM MOLDING CORP", "industry": null, "tri_facility_id": "98444DRHMC24181"}}, {"type": "Feature", "geometry": {"type": "Point", "coordinates": [-122.466667, 47.150833]}, "properties": {"facility_name": "WESTMARK PRODS INC", "industry": null, "tri_facility_id": "98444WSTMR11721"}}, {"type": "Feature", "geometry": {"type": "Point", "coordinates": [-122.505, 47.21555555555556]}, "properties": {"facility_name": "FORTERRA PIPE & PRECAST - TACOMA", "industry": null, "tri_facility_id": "98466HNSNP461SR"}}, {"type": "Feature", "geometry": {"type": "Point", "coordinates": [-122.441944, 47.258889]}, "properties": {"facility_name": "PACE INDUSTRIES PUGET DIV", "industry": null, "tri_facility_id": "98466PCNDS2101M"}}, {"type": "Feature", "geometry": {"type": "Point", "coordinates": [-122.495, 47.17388888888889]}, "properties": {"facility_name": "FOAMEX LP KENT", "industry": null, "tri_facility_id": "98498FMXLP45009"}}, {"type": "Feature", "geometry": {"type": "Point", "coordinates": [-122.46805555555555, 47.16]}, "properties": {"facility_name": "MONIERLIFETILE LLC.", "industry": null, "tri_facility_id": "98499MNRLF10920"}}, {"type": "Feature", "geometry": {"type": "Point", "coordinates": [-122.5, 47.25]}, "properties": {"facility_name": "SPECIALTY PRODUCTS INC", "industry": null, "tri_facility_id": "98499SPCLT24101"}}, {"type": "Feature", "geometry": {"type": "Point", "coordinates": [-122.493056, 47.176389]}, "properties": {"facility_name": "XYTEC INC", "industry": null, "tri_facility_id": "98499XYTCN93504"}}]}