{"type": "FeatureCollection", "features": [{"type": "Feature", "geometry": {"type": "Point", "coordinates": [-92.663389, 33.2162]}, "properties": {"facility_name": "CONAGRA POULTRY", "industry": null, "tri_facility_id": "71730CNGRB295FE"}}, {"type": "Feature", "geometry": {"type": "Point", "coordinates": [-92.663389, 33.2162]}, "properties": {"facility_name": "PPC EL DORADO PROCESSING PLANT", "industry": null, "tri_facility_id": "71730CNGRBSOUTH"}}, {"type": "Feature", "geometry": {"type": "Point", "coordinates": [-92.6917, 33.2005]}, "properties": {"facility_name": "ZENECA SPECIALTY INKS", "industry": null, "tri_facility_id": "71730CNVRT1709W"}}, {"type": "Feature", "geometry": {"type": "Point", "coordinates": [-92.616667, 33.2]}, "properties": {"facility_name": "COOPER STANDARD AUTOMOTIVE INC", "industry": null, "tri_facility_id": "71730CPRNDPRESC"}}, {"type": "Feature", "geometry": {"type": "Point", "coordinates": [-92.70666666666666, 33.176944444444445]}, "properties": {"facility_name": "ROSEBURG FOREST PRODUCTS - EL DORADO MDF", "industry": null, "tri_facility_id": "71730DLTNF757DE"}}, {"type": "Feature", "geometry": {"type": "Point", "coordinates": [-92.601944, 33.184722]}, "properties": {"facility_name": "LYCUS LTD", "industry": null, "tri_facility_id": "71730GRRSN181CO"}}, {"type": "Feature", "geometry": {"type": "Point", "coordinates": [-92.6652, 33.2233]}, "properties": {"facility_name": "LSB CHEMICAL L.L.C", "industry": null, "tri_facility_id": "71730LDRDC4500N"}}, {"type": "Feature", "geometry": {"type": "Point", "coordinates": [-92.68, 33.1958]}, "properties": {"facility_name": "LION OIL CO", "industry": null, "tri_facility_id": "71730LNLRF1000M"}}, {"type": "Feature", "geometry": {"type": "Point", "coordinates": [-92.633333, 33.206667]}, "properties": {"facility_name": "NEXANS AMERCABLE INC.", "industry": null, "tri_facility_id": "71730MRCBL1200B"}}, {"type": "Feature", "geometry": {"type": "Point", "coordinates": [-92.62472222222222, 33.208333333333336]}, "properties": {"facility_name": "CLEAN HARBORS EL DORADO LLC", "industry": null, "tri_facility_id": "71730NVRNM309AM"}}, {"type": "Feature", "geometry": {"type": "Point", "coordinates": [-92.61666666666666, 33.25]}, "properties": {"facility_name": "PACIFIC MDF PRODUCTS INC", "industry": null, "tri_facility_id": "71730PCFCM135LO"}}, {"type": "Feature", "geometry": {"type": "Point", "coordinates": [-92.609444, 33.197778]}, "properties": {"facility_name": "PRESCOLITE INC.", "industry": null, "tri_facility_id": "71730PRSCL216MI"}}, {"type": "Feature", "geometry": {"type": "Point", "coordinates": [-92.60944444444443, 33.19777777777777]}, "properties": {"facility_name": "PRESCOLITE INC PARTS PLANT", "industry": null, "tri_facility_id": "71730PRSCL483IN"}}, {"type": "Feature", "geometry": {"type": "Point", "coordinates": [-92.6138, 33.2011]}, "properties": {"facility_name": "COLUMBIAN CHEMICALS CO", "industry": null, "tri_facility_id": "71731CLMBNINDUS"}}, {"type": "Feature", "geometry": {"type": "Point", "coordinates": [-92.72777777777777, 33.18138888888889]}, "properties": {"facility_name": "PILGRIM'S PRIDE CORP EL DORADO FEED MILL", "industry": null, "tri_facility_id": "71731CNGRP653SM"}}, {"type": "Feature", "geometry": {"type": "Point", "coordinates": [-92.7, 33.179167]}, "properties": {"facility_name": "LANXESS - CENTRAL", "industry": null, "tri_facility_id": "71731GRTLKHIGHW"}}, {"type": "Feature", "geometry": {"type": "Point", "coordinates": [-92.63, 33.2017]}, "properties": {"facility_name": "ENSCO INC EL DORADO FACILITY", "industry": null, "tri_facility_id": "71731NSCNC310AM"}}, {"type": "Feature", "geometry": {"type": "Point", "coordinates": [-92.616389, 33.200833]}, "properties": {"facility_name": "PRESCOLITE/MOLDCAST ASSEMBLY PLANT", "industry": null, "tri_facility_id": "71731PRSCLINDUS"}}]}