{"type": "FeatureCollection", "features": [{"type": "Feature", "geometry": {"type": "Point", "coordinates": [-105.11, 40.161111]}, "properties": {"facility_name": "ACCURATE PLASTICS INC", "industry": null, "tri_facility_id": "80501CCRTP105GA"}}, {"type": "Feature", "geometry": {"type": "Point", "coordinates": [-105.122572, 40.147528]}, "properties": {"facility_name": "C-LINE CCC (DBA CENTERLINE CIRCUITS INC)", "industry": null, "tri_facility_id": "80501CNTRL1820I"}}, {"type": "Feature", "geometry": {"type": "Point", "coordinates": [-105.12051, 40.143472]}, "properties": {"facility_name": "CENTURY DATA AMCODYNE DIV", "industry": null, "tri_facility_id": "80501CNTRY1301S"}}, {"type": "Feature", "geometry": {"type": "Point", "coordinates": [-105.113333, 40.148056]}, "properties": {"facility_name": "HUVEPHARMA,INC", "industry": null, "tri_facility_id": "80501DRSSL1301I"}}, {"type": "Feature", "geometry": {"type": "Point", "coordinates": [-105.128611, 40.139444]}, "properties": {"facility_name": "ADVANCED FORMING TECH INC", "industry": null, "tri_facility_id": "80501DVNCD2150M"}}, {"type": "Feature", "geometry": {"type": "Point", "coordinates": [-105.110556, 40.158889]}, "properties": {"facility_name": "DOVATRON MANUFACTURING W", "industry": null, "tri_facility_id": "80501DVTRN1198B"}}, {"type": "Feature", "geometry": {"type": "Point", "coordinates": [-105.12694444444443, 40.1475]}, "properties": {"facility_name": "LAFARGE WEST INC", "industry": null, "tri_facility_id": "80501LFRGW9736N"}}, {"type": "Feature", "geometry": {"type": "Point", "coordinates": [-105.101389, 40.161111]}, "properties": {"facility_name": "CONAGRA FOODS", "industry": null, "tri_facility_id": "80501LNGMN150MA"}}, {"type": "Feature", "geometry": {"type": "Point", "coordinates": [-105.123333, 40.141389]}, "properties": {"facility_name": "MATHESON TRIGAS LONGMONT CO BRANCH", "industry": null, "tri_facility_id": "80501MNSCR1861L"}}, {"type": "Feature", "geometry": {"type": "Point", "coordinates": [-105.119167, 40.154167]}, "properties": {"facility_name": "MAXTOR COLORADO CORP", "industry": null, "tri_facility_id": "80501MNSCR345SF"}}, {"type": "Feature", "geometry": {"type": "Point", "coordinates": [-105.123333, 40.133889]}, "properties": {"facility_name": "MAXTOR COLORADO CORP", "industry": null, "tri_facility_id": "80501MXTRC1851L"}}, {"type": "Feature", "geometry": {"type": "Point", "coordinates": [-105.119444, 40.136944]}, "properties": {"facility_name": "PACKAGING RESOURCES COLORADO LLC", "industry": null, "tri_facility_id": "80501PCKGN1800P"}}, {"type": "Feature", "geometry": {"type": "Point", "coordinates": [-105.1375, 40.141667]}, "properties": {"facility_name": "STORAGE TECH CORP", "industry": null, "tri_facility_id": "80501STRGT2345C"}}, {"type": "Feature", "geometry": {"type": "Point", "coordinates": [-105.113333, 40.170556]}, "properties": {"facility_name": "AVEDON ENGINEERING INC", "industry": null, "tri_facility_id": "80501VDNNG711SL"}}, {"type": "Feature", "geometry": {"type": "Point", "coordinates": [-105.13444444444445, 40.140277777777776]}, "properties": {"facility_name": "SHELDAHL INC", "industry": null, "tri_facility_id": "80503SHLDH1285S"}}, {"type": "Feature", "geometry": {"type": "Point", "coordinates": [-105.0923, 40.161047]}, "properties": {"facility_name": "WESTERN FOUNDRIES INC", "industry": null, "tri_facility_id": "80521WSTRN100MA"}}]}