{"type": "FeatureCollection", "features": [{"type": "Feature", "geometry": {"type": "Point", "coordinates": [-71.241722, 42.5027]}, "properties": {"facility_name": "BASF CORP INFORMATION SYSTEMS", "industry": null, "tri_facility_id": "01730BSFCR35CRO"}}, {"type": "Feature", "geometry": {"type": "Point", "coordinates": [-71.273889, 42.483611]}, "properties": {"facility_name": "GEORGE L MEADE FOUNDRY CO", "industry": null, "tri_facility_id": "01730GRGLM24SOU"}}, {"type": "Feature", "geometry": {"type": "Point", "coordinates": [-71.266944, 42.481667]}, "properties": {"facility_name": "ANIKA THERAPEUTICS", "industry": null, "tri_facility_id": "01730MLLPR32WIG"}}, {"type": "Feature", "geometry": {"type": "Point", "coordinates": [-71.270556, 42.483056]}, "properties": {"facility_name": "PERCEPTIVE BIOSYSTEMS BIOSEARCH", "industry": null, "tri_facility_id": "01730MLLPR75WIG"}}, {"type": "Feature", "geometry": {"type": "Point", "coordinates": [-71.270556, 42.483056]}, "properties": {"facility_name": "EMD MILLIPORE CORP", "industry": null, "tri_facility_id": "01730MLLPR80ASH"}}, {"type": "Feature", "geometry": {"type": "Point", "coordinates": [-71.27055555555556, 42.48305555555556]}, "properties": {"facility_name": "ENTEGRIS INC", "industry": null, "tri_facility_id": "01730MYKRL8ASHB"}}, {"type": "Feature", "geometry": {"type": "Point", "coordinates": [-71.29, 42.474722]}, "properties": {"facility_name": "RAYTHEON CO MISSILE SYS DIV", "industry": null, "tri_facility_id": "01730RYTHNHARTW"}}, {"type": "Feature", "geometry": {"type": "Point", "coordinates": [-71.2825, 42.45472222222222]}, "properties": {"facility_name": "U.S. AIR FORCE HANSCOM AFB", "industry": null, "tri_facility_id": "01731SRFRC66SPT"}}, {"type": "Feature", "geometry": {"type": "Point", "coordinates": [-71.14222222222223, 42.52305555555555]}, "properties": {"facility_name": "CONNOISSEURS PRODUCTS CORP", "industry": null, "tri_facility_id": "01801CNNSS17PRE"}}, {"type": "Feature", "geometry": {"type": "Point", "coordinates": [-71.142778, 42.511667]}, "properties": {"facility_name": "CONTINENTAL CHEMICAL & COATINGS", "industry": null, "tri_facility_id": "01801CNTNN181NE"}}, {"type": "Feature", "geometry": {"type": "Point", "coordinates": [-71.141389, 42.500833]}, "properties": {"facility_name": "EG & G ENERGY MEASUREMENTS INC", "industry": null, "tri_facility_id": "01801GGMNC19WHE"}}, {"type": "Feature", "geometry": {"type": "Point", "coordinates": [-71.1475, 42.5102]}, "properties": {"facility_name": "LKM INDUSTRIES", "industry": null, "tri_facility_id": "01801LCKMN44SIX"}}, {"type": "Feature", "geometry": {"type": "Point", "coordinates": [-71.165278, 42.490833]}, "properties": {"facility_name": "SKYWORKS SOLUTIONS INC", "industry": null, "tri_facility_id": "01801LPHND20SYL"}}, {"type": "Feature", "geometry": {"type": "Point", "coordinates": [-71.143611, 42.512778]}, "properties": {"facility_name": "MORTON INTERNATIONAL INC WOC", "industry": null, "tri_facility_id": "01801MRTNT185NE"}}, {"type": "Feature", "geometry": {"type": "Point", "coordinates": [-71.1438888888889, 42.50611111111111]}, "properties": {"facility_name": "INSULTAB INC", "industry": null, "tri_facility_id": "01801NSLTB45IND"}}, {"type": "Feature", "geometry": {"type": "Point", "coordinates": [-71.14666666666668, 42.519999999999996]}, "properties": {"facility_name": "NEXUS CUSTOM ELECTRONICS CORP.", "industry": null, "tri_facility_id": "01801NXSCS317NE"}}, {"type": "Feature", "geometry": {"type": "Point", "coordinates": [-71.14833333333334, 42.49638888888889]}, "properties": {"facility_name": "L3HARRIS SECURITY & DETECTION SYSTEMS INC", "industry": null, "tri_facility_id": "01801SCRTY10COM"}}, {"type": "Feature", "geometry": {"type": "Point", "coordinates": [-71.145833, 42.458333]}, "properties": {"facility_name": "SAMUEL BINGHAM CO", "industry": null, "tri_facility_id": "01801SMLBN5CONN"}}, {"type": "Feature", "geometry": {"type": "Point", "coordinates": [-71.152222, 42.483889]}, "properties": {"facility_name": "WINFIELD BROOKS CO INC", "industry": null, "tri_facility_id": "01801WNFLDCONNA"}}, {"type": "Feature", "geometry": {"type": "Point", "coordinates": [-71.236111, 42.483333]}, "properties": {"facility_name": "GE CO AEROSPACE AUTOMATED SYS", "industry": null, "tri_facility_id": "01803GNRLL163BE"}}, {"type": "Feature", "geometry": {"type": "Point", "coordinates": [-71.216667, 42.483333]}, "properties": {"facility_name": "ALTO-TRONICS CORP", "industry": null, "tri_facility_id": "01803LTTRN71THI"}}, {"type": "Feature", "geometry": {"type": "Point", "coordinates": [-71.224167, 42.486389]}, "properties": {"facility_name": "M/A-COM INC", "industry": null, "tri_facility_id": "01803MCMNC52SEC"}}, {"type": "Feature", "geometry": {"type": "Point", "coordinates": [-71.220833, 42.481944]}, "properties": {"facility_name": "M/A-COM INC", "industry": null, "tri_facility_id": "01803MCMNCSOUTH"}}, {"type": "Feature", "geometry": {"type": "Point", "coordinates": [-71.228333, 42.489722]}, "properties": {"facility_name": "SEMICON COMPONENTS INC", "industry": null, "tri_facility_id": "01803SMCNC1011N"}}, {"type": "Feature", "geometry": {"type": "Point", "coordinates": [-71.23027777777779, 42.49277777777778]}, "properties": {"facility_name": "QSA GLOBAL INC", "industry": null, "tri_facility_id": "01803TCHQS40NAV"}}, {"type": "Feature", "geometry": {"type": "Point", "coordinates": [-71.196759, 42.479525]}, "properties": {"facility_name": "VARIAN, VACUUM PRODS DIV", "industry": null, "tri_facility_id": "01803VRNVC78BLA"}}, {"type": "Feature", "geometry": {"type": "Point", "coordinates": [-71.21527777777779, 42.47638888888889]}, "properties": {"facility_name": "AGGREGATE INDUSTRIES NORTHEAST REGION INC", "industry": null, "tri_facility_id": "01803WKFLDWHEEL"}}, {"type": "Feature", "geometry": {"type": "Point", "coordinates": [-71.25555555555556, 42.52472222222222]}, "properties": {"facility_name": "AMERICAN SCIENCE & ENGINEERING", "industry": null, "tri_facility_id": "01821MRCNS829MI"}}, {"type": "Feature", "geometry": {"type": "Point", "coordinates": [-71.1568, 42.5007]}, "properties": {"facility_name": "CARLTON PROCESSING INC", "industry": null, "tri_facility_id": "01867CRLTN25WAL"}}, {"type": "Feature", "geometry": {"type": "Point", "coordinates": [-71.14500000000001, 42.526944444444446]}, "properties": {"facility_name": "CHEMGENES CORP", "industry": null, "tri_facility_id": "01887CHMGN33IND"}}, {"type": "Feature", "geometry": {"type": "Point", "coordinates": [-71.157778, 42.526944]}, "properties": {"facility_name": "SANMINA-SCI CORP", "industry": null, "tri_facility_id": "01887LTRNNONEJE"}}, {"type": "Feature", "geometry": {"type": "Point", "coordinates": [-71.141944, 42.505]}, "properties": {"facility_name": "MADICO INC", "industry": null, "tri_facility_id": "01888MDCNC64IND"}}, {"type": "Feature", "geometry": {"type": "Point", "coordinates": [-71.14166666666668, 42.391666666666666]}, "properties": {"facility_name": "ECKEL INDUSTRIES INC", "industry": null, "tri_facility_id": "02138CKLND115FA"}}, {"type": "Feature", "geometry": {"type": "Point", "coordinates": [-71.153611, 42.395]}, "properties": {"facility_name": "ADVANCED MAGNETICS INC", "industry": null, "tri_facility_id": "02138DVNCD61MOO"}}, {"type": "Feature", "geometry": {"type": "Point", "coordinates": [-71.15166666666667, 42.391666666666666]}, "properties": {"facility_name": "HYPERION CATALYSIS INC", "industry": null, "tri_facility_id": "02138HYPRN38SMI"}}, {"type": "Feature", "geometry": {"type": "Point", "coordinates": [-71.14972222222222, 42.39]}, "properties": {"facility_name": "E INK CORP", "industry": null, "tri_facility_id": "02138NKCRP733CN"}}, {"type": "Feature", "geometry": {"type": "Point", "coordinates": [-71.150556, 42.400833]}, "properties": {"facility_name": "GENETICS INSTITUTE", "industry": null, "tri_facility_id": "02140GNTCS87CAM"}}, {"type": "Feature", "geometry": {"type": "Point", "coordinates": [-71.148056, 42.395278]}, "properties": {"facility_name": "DODGE CO", "industry": null, "tri_facility_id": "02140THDDG165CA"}}, {"type": "Feature", "geometry": {"type": "Point", "coordinates": [-71.2, 42.383333]}, "properties": {"facility_name": "BECTON DICKINSON & CO ACUTECARE", "industry": null, "tri_facility_id": "02154BCTND411WA"}}, {"type": "Feature", "geometry": {"type": "Point", "coordinates": [-71.264475, 42.38492]}, "properties": {"facility_name": "CFC INC", "industry": null, "tri_facility_id": "02154CFCNC179BE"}}, {"type": "Feature", "geometry": {"type": "Point", "coordinates": [-71.236111, 42.375]}, "properties": {"facility_name": "ACTON METAL PROCESSING CORP", "industry": null, "tri_facility_id": "02154CTNMT47ATH"}}, {"type": "Feature", "geometry": {"type": "Point", "coordinates": [-71.196389, 42.385278]}, "properties": {"facility_name": "LIGHT METAL PLATERS INC", "industry": null, "tri_facility_id": "02154LGHTM70CLE"}}, {"type": "Feature", "geometry": {"type": "Point", "coordinates": [-71.204167, 42.370833]}, "properties": {"facility_name": "ODELL CO", "industry": null, "tri_facility_id": "02172DLLCM60ACT"}}, {"type": "Feature", "geometry": {"type": "Point", "coordinates": [-71.154444, 42.37]}, "properties": {"facility_name": "GE IONICS", "industry": null, "tri_facility_id": "02172NCSNC65GRO"}}, {"type": "Feature", "geometry": {"type": "Point", "coordinates": [-71.211389, 42.375]}, "properties": {"facility_name": "MICRO USPD INC", "industry": null, "tri_facility_id": "02172NTRDC580PL"}}, {"type": "Feature", "geometry": {"type": "Point", "coordinates": [-71.2575, 42.433611]}, "properties": {"facility_name": "BAE SYSTEMS - INFORMATION & EL ECTRONIC SYSTEMS INTEGRATION", "industry": null, "tri_facility_id": "02173HNYWL2FORB"}}, {"type": "Feature", "geometry": {"type": "Point", "coordinates": [-71.24888888888889, 42.42472222222222]}, "properties": {"facility_name": "PHARM-ECO LABORATORIES INC", "industry": null, "tri_facility_id": "02173PHRMC128SP"}}, {"type": "Feature", "geometry": {"type": "Point", "coordinates": [-71.244056, 42.4321]}, "properties": {"facility_name": "RAYTHEON CO RESEARCH DIV", "industry": null, "tri_facility_id": "02173RYTHN131SP"}}, {"type": "Feature", "geometry": {"type": "Point", "coordinates": [-71.263056, 42.472222]}, "properties": {"facility_name": "ITEK OPTICAL SYSTEMS", "industry": null, "tri_facility_id": "02173TKPTC10MAG"}}, {"type": "Feature", "geometry": {"type": "Point", "coordinates": [-71.263218, 42.464667]}, "properties": {"facility_name": "VARIAN VACUUM TECHNOLOGIES", "industry": null, "tri_facility_id": "02173VRNVC121HA"}}, {"type": "Feature", "geometry": {"type": "Point", "coordinates": [-71.177778, 42.396111]}, "properties": {"facility_name": "PURECOAT NORTH LLC", "industry": null, "tri_facility_id": "02178CMBRD39HIT"}}, {"type": "Feature", "geometry": {"type": "Point", "coordinates": [-71.264426, 42.389748]}, "properties": {"facility_name": "CTI-CRYOGENICS", "industry": null, "tri_facility_id": "02254CTCRY266SE"}}, {"type": "Feature", "geometry": {"type": "Point", "coordinates": [-71.258333, 42.394722]}, "properties": {"facility_name": "HEWLETT-PACKARD CO", "industry": null, "tri_facility_id": "02254HWLTT175WY"}}, {"type": "Feature", "geometry": {"type": "Point", "coordinates": [-71.258333, 42.391667]}, "properties": {"facility_name": "TYCO ELECTRONICS CORP", "industry": null, "tri_facility_id": "02254MCMNC140FO"}}, {"type": "Feature", "geometry": {"type": "Point", "coordinates": [-71.264444, 42.376389]}, "properties": {"facility_name": "POLAROID CORP", "industry": null, "tri_facility_id": "02254PLRDC1265M"}}, {"type": "Feature", "geometry": {"type": "Point", "coordinates": [-71.274167, 42.403333]}, "properties": {"facility_name": "POLAROID CORP", "industry": null, "tri_facility_id": "02254PLRDC868WI"}}, {"type": "Feature", "geometry": {"type": "Point", "coordinates": [-71.2181, 42.3752]}, "properties": {"facility_name": "RAYTHEON CO, ELECTRONIC COMPONENTS OPS", "industry": null, "tri_facility_id": "02254RYTHN190WI"}}, {"type": "Feature", "geometry": {"type": "Point", "coordinates": [-71.2125, 42.370556]}, "properties": {"facility_name": "RAYTHEON CO EQUIPMENT DIV MANUFACTURING", "industry": null, "tri_facility_id": "02254RYTHN20SEY"}}, {"type": "Feature", "geometry": {"type": "Point", "coordinates": [-71.215248, 42.370838]}, "properties": {"facility_name": "RAYTHEON CO RAYTRAN FACILITY MPTD", "industry": null, "tri_facility_id": "02254RYTHN28SEY"}}, {"type": "Feature", "geometry": {"type": "Point", "coordinates": [-71.216667, 42.372222]}, "properties": {"facility_name": "STANDARD-THOMSON CORPROATION", "industry": null, "tri_facility_id": "02254STNDR152GR"}}, {"type": "Feature", "geometry": {"type": "Point", "coordinates": [-71.266389, 42.376389]}, "properties": {"facility_name": "EASTERN REPRODUCTION CORP", "industry": null, "tri_facility_id": "02254STRNR1250M"}}, {"type": "Feature", "geometry": {"type": "Point", "coordinates": [-71.25722222222223, 42.471944444444446]}, "properties": {"facility_name": "GENZYME CORP", "industry": null, "tri_facility_id": "02421FCLNC4MAGU"}}, {"type": "Feature", "geometry": {"type": "Point", "coordinates": [-71.26916666666666, 42.376666666666665]}, "properties": {"facility_name": "TYCO ELECTRONICS CORP", "industry": null, "tri_facility_id": "02451MPNC01370M"}}]}