{"type": "FeatureCollection", "features": [{"type": "Feature", "properties": {"tract_id": "20061000100", "name": "Census Tract 1", "pct_white_2020": 33.9, "pct_black_2020": 31.2, "pct_hispanic_2020": 19.3, "pct_asian_2020": 4.6, "population_2020": 2355}, "geometry": {"type": "Polygon", "coordinates": [[[-96.83145, 39.04057], [-96.83145, 39.04047], [-96.83145, 39.03973], [-96.83145, 39.03961], [-96.83143, 39.0392], [-96.83142, 39.03888], [-96.83142, 39.03869], [-96.83143, 39.03765], [-96.83143, 39.03711], [-96.83143, 39.03659], [-96.83143, 39.03607], [-96.83143, 39.03555], [-96.83143, 39.03501], [-96.83143, 39.03451], [-96.83143, 39.0335], [-96.83143, 39.03298], [-96.83143, 39.03244], [-96.83143, 39.03193], [-96.83143, 39.03141], [-96.83143, 39.03086], [-96.83144, 39.03034], [-96.83072, 39.03034], [-96.82946, 39.03036], [-96.82947, 39.02982], [-96.82947, 39.0293], [-96.82947, 39.02877], [-96.82948, 39.02823], [-96.82858, 39.02825], [-96.82755, 39.02826], [-96.82577, 39.02825], [-96.82545, 39.02825], [-96.82512, 39.02825], [-96.82486, 39.02825], [-96.82468, 39.02825], [-96.82445, 39.02824], [-96.82431, 39.02823], [-96.82334, 39.02824], [-96.81838, 39.02823], [-96.81839, 39.0277], [-96.81841, 39.02738], [-96.81798, 39.02711], [-96.81652, 39.02623], [-96.81654, 39.02536], [-96.81655, 39.02491], [-96.81653, 39.02417], [-96.81652, 39.02384], [-96.81652, 39.02382], [-96.81651, 39.0233], [-96.8165, 39.02308], [-96.81649, 39.0227], [-96.81651, 39.02202], [-96.81639, 39.02195], [-96.81633, 39.02189], [-96.81626, 39.02182], [-96.81628, 39.02174], [-96.81629, 39.02167], [-96.81633, 39.0216], [-96.8164, 39.02153], [-96.81647, 39.02149], [-96.81638, 39.02123], [-96.81614, 39.02064], [-96.81603, 39.02037], [-96.81384, 39.02218], [-96.81352, 39.02244], [-96.81245, 39.0233], [-96.81199, 39.02364], [-96.81165, 39.02386], [-96.81128, 39.02406], [-96.81076, 39.02431], [-96.81018, 39.02456], [-96.80967, 39.02475], [-96.80909, 39.02491], [-96.80861, 39.02503], [-96.80803, 39.02516], [-96.80747, 39.02527], [-96.80641, 39.02548], [-96.80583, 39.0256], [-96.80578, 39.02561], [-96.80577, 39.02561], [-96.80574, 39.02561], [-96.80571, 39.02562], [-96.80555, 39.02565], [-96.80524, 39.02571], [-96.80524, 39.02597], [-96.80525, 39.02647], [-96.80526, 39.02657], [-96.80506, 39.02707], [-96.80504, 39.02712], [-96.80496, 39.02734], [-96.80475, 39.02786], [-96.80458, 39.02821], [-96.80446, 39.02847], [-96.80447, 39.02858], [-96.80443, 39.02884], [-96.80439, 39.02914], [-96.80423, 39.02973], [-96.80417, 39.02994], [-96.80379, 39.0313], [-96.80366, 39.03175], [-96.80362, 39.03201], [-96.80351, 39.03279], [-96.80343, 39.03336], [-96.80341, 39.03352], [-96.80339, 39.03364], [-96.80333, 39.03408], [-96.80329, 39.03442], [-96.80334, 39.03518], [-96.80339, 39.03598], [-96.80338, 39.03613], [-96.8034, 39.03692], [-96.8035, 39.03726], [-96.80369, 39.03797], [-96.8037, 39.03807], [-96.80368, 39.03828], [-96.8042, 39.03887], [-96.80437, 39.03906], [-96.80545, 39.04029], [-96.8056, 39.04074], [-96.8056, 39.04076], [-96.80567, 39.04083], [-96.8058, 39.04138], [-96.80598, 39.0421], [-96.80611, 39.04292], [-96.80622, 39.04359], [-96.80671, 39.04421], [-96.80669, 39.04444], [-96.80725, 39.04534], [-96.80728, 39.04552], [-96.8074, 39.04614], [-96.80693, 39.04664], [-96.8064, 39.04686], [-96.80637, 39.04689], [-96.80603, 39.04708], [-96.80595, 39.04712], [-96.80557, 39.04724], [-96.80525, 39.0473], [-96.80503, 39.04735], [-96.80494, 39.04738], [-96.8047, 39.04748], [-96.80427, 39.04771], [-96.80417, 39.04775], [-96.80402, 39.0478], [-96.80368, 39.04792], [-96.80356, 39.04797], [-96.80317, 39.04816], [-96.80294, 39.04833], [-96.80274, 39.04848], [-96.80239, 39.04866], [-96.80183, 39.04892], [-96.80172, 39.04896], [-96.8012, 39.04957], [-96.8003, 39.05099], [-96.79963, 39.05284], [-96.79946, 39.05328], [-96.79925, 39.05381], [-96.7994, 39.0544], [-96.79931, 39.05547], [-96.79964, 39.05643], [-96.8005, 39.05751], [-96.80075, 39.05808], [-96.80082, 39.05822], [-96.80101, 39.05862], [-96.80103, 39.05869], [-96.80111, 39.05889], [-96.80125, 39.05904], [-96.80131, 39.05914], [-96.80138, 39.05923], [-96.80131, 39.05927], [-96.80081, 39.05939], [-96.80086, 39.05958], [-96.80089, 39.05972], [-96.80133, 39.06028], [-96.8017, 39.06018], [-96.80184, 39.06012], [-96.80216, 39.06014], [-96.80245, 39.06035], [-96.8027, 39.06052], [-96.80325, 39.06095], [-96.8036, 39.06136], [-96.80417, 39.06191], [-96.80644, 39.06331], [-96.80903, 39.06491], [-96.80934, 39.06555], [-96.81062, 39.06642], [-96.81165, 39.06719], [-96.81257, 39.06759], [-96.81384, 39.06779], [-96.81397, 39.06776], [-96.81444, 39.06766], [-96.81473, 39.06753], [-96.81502, 39.06735], [-96.8152, 39.06715], [-96.81553, 39.06633], [-96.81588, 39.06582], [-96.81601, 39.06552], [-96.81611, 39.06517], [-96.81612, 39.06482], [-96.81626, 39.06444], [-96.81633, 39.06435], [-96.8165, 39.06413], [-96.81655, 39.06404], [-96.81688, 39.06315], [-96.8174, 39.06224], [-96.81778, 39.06021], [-96.81813, 39.05947], [-96.81825, 39.05866], [-96.81839, 39.05752], [-96.81854, 39.05631], [-96.81865, 39.05569], [-96.8187, 39.05572], [-96.81879, 39.05513], [-96.81882, 39.05492], [-96.81883, 39.05482], [-96.81902, 39.05464], [-96.81905, 39.05458], [-96.81936, 39.05328], [-96.81951, 39.05229], [-96.81953, 39.05136], [-96.81961, 39.05086], [-96.81983, 39.0501], [-96.81994, 39.04986], [-96.82068, 39.04829], [-96.82093, 39.04803], [-96.82153, 39.04769], [-96.8221, 39.04726], [-96.8224, 39.04698], [-96.82259, 39.04666], [-96.82282, 39.04604], [-96.82318, 39.04562], [-96.82381, 39.045], [-96.82436, 39.04459], [-96.8244, 39.04454], [-96.82445, 39.04452], [-96.82503, 39.04408], [-96.82623, 39.0436], [-96.82697, 39.04339], [-96.8278, 39.0433], [-96.82872, 39.04341], [-96.82926, 39.04342], [-96.8293, 39.04321], [-96.82932, 39.04315], [-96.82932, 39.04314], [-96.82933, 39.04312], [-96.82933, 39.0431], [-96.82935, 39.04306], [-96.82941, 39.04286], [-96.82947, 39.04257], [-96.82949, 39.0424], [-96.82949, 39.04225], [-96.82948, 39.04162], [-96.82961, 39.04159], [-96.82997, 39.04159], [-96.83046, 39.04159], [-96.83052, 39.04159], [-96.83142, 39.04159], [-96.83143, 39.04112], [-96.83145, 39.04064], [-96.83145, 39.04057]]]}}, {"type": "Feature", "properties": {"tract_id": "20061000500", "name": "Census Tract 5", "pct_white_2020": 62.1, "pct_black_2020": 18.2, "pct_hispanic_2020": 10.1, "pct_asian_2020": 0.4, "population_2020": 2276}, "geometry": {"type": "Polygon", "coordinates": [[[-96.84101, 39.03034], [-96.84101, 39.02983], [-96.841, 39.02929], [-96.84099, 39.02877], [-96.84098, 39.02825], [-96.84088, 39.02825], [-96.84089, 39.02773], [-96.8409, 39.02725], [-96.84094, 39.02721], [-96.84098, 39.02717], [-96.84101, 39.02712], [-96.84101, 39.02669], [-96.84101, 39.02615], [-96.83908, 39.02615], [-96.83907, 39.02563], [-96.83907, 39.02522], [-96.83907, 39.02509], [-96.83908, 39.02458], [-96.83909, 39.02406], [-96.8391, 39.02353], [-96.83908, 39.02301], [-96.83908, 39.02249], [-96.83908, 39.02196], [-96.83907, 39.02144], [-96.83907, 39.02091], [-96.83907, 39.02039], [-96.83907, 39.01987], [-96.83893, 39.01987], [-96.83716, 39.01988], [-96.83716, 39.01937], [-96.83716, 39.01885], [-96.83716, 39.01834], [-96.83715, 39.01781], [-96.83715, 39.01728], [-96.83714, 39.01675], [-96.83714, 39.01622], [-96.83713, 39.0157], [-96.83656, 39.01569], [-96.8352, 39.0157], [-96.83516, 39.01471], [-96.83509, 39.01296], [-96.83506, 39.01229], [-96.83506, 39.0121], [-96.83503, 39.01153], [-96.83502, 39.01109], [-96.83502, 39.01068], [-96.83503, 39.0104], [-96.83503, 39.01033], [-96.83501, 39.01019], [-96.83498, 39.01006], [-96.83484, 39.00993], [-96.83493, 39.00977], [-96.83498, 39.00963], [-96.83502, 39.00946], [-96.83502, 39.00896], [-96.83503, 39.00864], [-96.8351, 39.00864], [-96.83518, 39.00861], [-96.83524, 39.00856], [-96.8353, 39.00847], [-96.83531, 39.00839], [-96.8353, 39.00831], [-96.83526, 39.00823], [-96.83517, 39.00819], [-96.83511, 39.00817], [-96.83504, 39.00817], [-96.83503, 39.00792], [-96.83503, 39.00787], [-96.83503, 39.00757], [-96.83483, 39.00767], [-96.83329, 39.00844], [-96.83252, 39.00881], [-96.83192, 39.00911], [-96.83132, 39.00942], [-96.83096, 39.0096], [-96.82971, 39.01023], [-96.82781, 39.01118], [-96.82663, 39.01178], [-96.82605, 39.0121], [-96.82561, 39.01238], [-96.82506, 39.01279], [-96.8246, 39.01318], [-96.8237, 39.01391], [-96.82089, 39.0163], [-96.81941, 39.0175], [-96.81814, 39.01858], [-96.81603, 39.02037], [-96.81614, 39.02064], [-96.81638, 39.02123], [-96.81647, 39.02149], [-96.8164, 39.02153], [-96.81633, 39.0216], [-96.81629, 39.02167], [-96.81628, 39.02174], [-96.81626, 39.02182], [-96.81633, 39.02189], [-96.81639, 39.02195], [-96.81651, 39.02202], [-96.81649, 39.0227], [-96.8165, 39.02308], [-96.81651, 39.0233], [-96.81652, 39.02382], [-96.81652, 39.02384], [-96.81653, 39.02417], [-96.81655, 39.02491], [-96.81654, 39.02536], [-96.81652, 39.02623], [-96.81798, 39.02711], [-96.81841, 39.02738], [-96.81839, 39.0277], [-96.81838, 39.02823], [-96.82334, 39.02824], [-96.82431, 39.02823], [-96.82445, 39.02824], [-96.82468, 39.02825], [-96.82486, 39.02825], [-96.82512, 39.02825], [-96.82545, 39.02825], [-96.82577, 39.02825], [-96.82755, 39.02826], [-96.82858, 39.02825], [-96.82948, 39.02823], [-96.82947, 39.02877], [-96.82947, 39.0293], [-96.82947, 39.02982], [-96.82946, 39.03036], [-96.83072, 39.03034], [-96.83144, 39.03034], [-96.83336, 39.03035], [-96.83527, 39.03035], [-96.8372, 39.03036], [-96.83911, 39.03034], [-96.84101, 39.03034]]]}}, {"type": "Feature", "properties": {"tract_id": "20061000200", "name": "Census Tract 2", "pct_white_2020": 40.0, "pct_black_2020": 25.4, "pct_hispanic_2020": 14.9, "pct_asian_2020": 3.6, "population_2020": 2825}, "geometry": {"type": "Polygon", "coordinates": [[[-96.84976, 39.04087], [-96.84994, 39.04068], [-96.84957, 39.04046], [-96.84935, 39.04023], [-96.84933, 39.0402], [-96.84926, 39.04011], [-96.84916, 39.03991], [-96.84911, 39.03944], [-96.8491, 39.0394], [-96.84908, 39.03825], [-96.84908, 39.03787], [-96.84907, 39.03763], [-96.84906, 39.03713], [-96.84906, 39.03697], [-96.84907, 39.03656], [-96.84909, 39.03459], [-96.84911, 39.03352], [-96.84789, 39.03352], [-96.84759, 39.03352], [-96.84733, 39.03351], [-96.84699, 39.03351], [-96.84699, 39.03401], [-96.84695, 39.03403], [-96.84689, 39.03411], [-96.84667, 39.03442], [-96.84661, 39.03451], [-96.84654, 39.03457], [-96.84644, 39.0346], [-96.84467, 39.03458], [-96.84448, 39.03458], [-96.84292, 39.03456], [-96.84127, 39.03455], [-96.84101, 39.03455], [-96.84013, 39.03456], [-96.83912, 39.03456], [-96.83913, 39.03405], [-96.83913, 39.0335], [-96.83913, 39.03298], [-96.83912, 39.03246], [-96.83912, 39.03193], [-96.83911, 39.0314], [-96.83911, 39.03087], [-96.83911, 39.03034], [-96.8372, 39.03036], [-96.83527, 39.03035], [-96.83336, 39.03035], [-96.83144, 39.03034], [-96.83143, 39.03086], [-96.83143, 39.03141], [-96.83143, 39.03193], [-96.83143, 39.03244], [-96.83143, 39.03298], [-96.83143, 39.0335], [-96.83143, 39.03451], [-96.83143, 39.03501], [-96.83143, 39.03555], [-96.83143, 39.03607], [-96.83143, 39.03659], [-96.83143, 39.03711], [-96.83143, 39.03765], [-96.83142, 39.03869], [-96.83142, 39.03888], [-96.83143, 39.0392], [-96.83145, 39.03961], [-96.83145, 39.03973], [-96.83145, 39.04047], [-96.83145, 39.04057], [-96.83145, 39.04064], [-96.83143, 39.04112], [-96.83142, 39.04159], [-96.83052, 39.04159], [-96.83046, 39.04159], [-96.82997, 39.04159], [-96.82961, 39.04159], [-96.82948, 39.04162], [-96.82949, 39.04225], [-96.82949, 39.0424], [-96.82947, 39.04257], [-96.82941, 39.04286], [-96.82935, 39.04306], [-96.82933, 39.0431], [-96.82933, 39.04312], [-96.82961, 39.04328], [-96.82989, 39.04338], [-96.82996, 39.04345], [-96.83019, 39.04368], [-96.83023, 39.0437], [-96.83045, 39.04382], [-96.83048, 39.04388], [-96.83055, 39.04399], [-96.83063, 39.04408], [-96.83129, 39.04487], [-96.83171, 39.04535], [-96.83216, 39.04573], [-96.83236, 39.04587], [-96.83278, 39.04606], [-96.83319, 39.04623], [-96.834, 39.04627], [-96.83413, 39.04633], [-96.83424, 39.04642], [-96.8348, 39.04703], [-96.83523, 39.04754], [-96.8355, 39.04773], [-96.83574, 39.04789], [-96.83582, 39.04802], [-96.83596, 39.04831], [-96.8362, 39.04879], [-96.83624, 39.04885], [-96.83632, 39.04902], [-96.83642, 39.04933], [-96.83645, 39.04945], [-96.83649, 39.04942], [-96.83653, 39.0494], [-96.83662, 39.04933], [-96.83671, 39.04927], [-96.83675, 39.04915], [-96.83677, 39.04913], [-96.83683, 39.04905], [-96.83712, 39.04883], [-96.83729, 39.04878], [-96.83741, 39.04876], [-96.8376, 39.04872], [-96.83795, 39.0486], [-96.83804, 39.04854], [-96.83812, 39.04848], [-96.83814, 39.0485], [-96.83835, 39.04841], [-96.83854, 39.04836], [-96.83872, 39.04827], [-96.83887, 39.04817], [-96.83911, 39.04805], [-96.83932, 39.04794], [-96.83936, 39.04793], [-96.83942, 39.04791], [-96.83959, 39.04787], [-96.83991, 39.04832], [-96.83995, 39.04837], [-96.84026, 39.04869], [-96.84062, 39.04898], [-96.84125, 39.0494], [-96.8417, 39.04966], [-96.84219, 39.04995], [-96.84225, 39.04999], [-96.84372, 39.05087], [-96.84387, 39.05072], [-96.84399, 39.0506], [-96.84402, 39.05058], [-96.84409, 39.05053], [-96.84413, 39.0505], [-96.84508, 39.04988], [-96.8455, 39.04961], [-96.84595, 39.04932], [-96.84678, 39.04877], [-96.84724, 39.04847], [-96.84775, 39.04814], [-96.84787, 39.04806], [-96.8485, 39.04765], [-96.84859, 39.04759], [-96.84866, 39.04754], [-96.84872, 39.04751], [-96.84884, 39.04747], [-96.84904, 39.04744], [-96.84911, 39.04744], [-96.8491, 39.04669], [-96.8491, 39.04637], [-96.84911, 39.04595], [-96.84912, 39.04518], [-96.84913, 39.04439], [-96.84916, 39.04335], [-96.84916, 39.04312], [-96.84916, 39.04238], [-96.84916, 39.04189], [-96.84916, 39.04162], [-96.84921, 39.04149], [-96.84939, 39.04129], [-96.84976, 39.04087]]]}}, {"type": "Feature", "properties": {"tract_id": "20061000700", "name": "Census Tract 7", "pct_white_2020": 67.3, "pct_black_2020": 13.1, "pct_hispanic_2020": 10.7, "pct_asian_2020": 0.9, "population_2020": 2450}, "geometry": {"type": "Polygon", "coordinates": [[[-96.86144, 38.99931], [-96.86126, 38.99897], [-96.86114, 38.9987], [-96.86093, 38.99839], [-96.86079, 38.99812], [-96.86058, 38.99776], [-96.86037, 38.99733], [-96.86016, 38.99709], [-96.85974, 38.99651], [-96.8594, 38.99601], [-96.85915, 38.99565], [-96.85912, 38.99561], [-96.85868, 38.99499], [-96.85795, 38.99388], [-96.85764, 38.99331], [-96.85731, 38.99257], [-96.85714, 38.99197], [-96.85691, 38.99073], [-96.85689, 38.99058], [-96.85691, 38.98869], [-96.85699, 38.98636], [-96.857, 38.98608], [-96.85701, 38.98574], [-96.85702, 38.98525], [-96.85705, 38.98371], [-96.85709, 38.98143], [-96.85709, 38.98037], [-96.85711, 38.97935], [-96.85711, 38.9792], [-96.85711, 38.97896], [-96.85711, 38.97861], [-96.85717, 38.97708], [-96.85724, 38.97483], [-96.85734, 38.97035], [-96.85735, 38.96961], [-96.85739, 38.96716], [-96.85737, 38.96663], [-96.85736, 38.96639], [-96.85734, 38.96608], [-96.85729, 38.96571], [-96.85707, 38.96482], [-96.85633, 38.96209], [-96.85614, 38.96133], [-96.85607, 38.96077], [-96.85606, 38.96053], [-96.85605, 38.96019], [-96.85608, 38.95983], [-96.85613, 38.95951], [-96.85618, 38.95927], [-96.85628, 38.95895], [-96.85635, 38.95877], [-96.85655, 38.95826], [-96.85707, 38.9572], [-96.85718, 38.95697], [-96.85761, 38.95593], [-96.85777, 38.95539], [-96.85791, 38.95491], [-96.85807, 38.95428], [-96.85814, 38.95393], [-96.8582, 38.95349], [-96.85828, 38.95284], [-96.85833, 38.95225], [-96.85834, 38.95134], [-96.85832, 38.95087], [-96.85827, 38.95025], [-96.85814, 38.94945], [-96.85809, 38.94919], [-96.85806, 38.94911], [-96.85805, 38.94903], [-96.85796, 38.94863], [-96.85768, 38.94772], [-96.85756, 38.94733], [-96.85745, 38.94705], [-96.85735, 38.94681], [-96.85685, 38.94576], [-96.85669, 38.94541], [-96.85666, 38.94533], [-96.85631, 38.94473], [-96.8556, 38.94354], [-96.85445, 38.94165], [-96.85411, 38.94105], [-96.85382, 38.94047], [-96.85362, 38.93998], [-96.85339, 38.93925], [-96.8533, 38.93881], [-96.85325, 38.93839], [-96.85323, 38.93791], [-96.85322, 38.93404], [-96.85328, 38.92681], [-96.85318, 38.91969], [-96.85311, 38.91162], [-96.85313, 38.90779], [-96.85313, 38.90757], [-96.85312, 38.90621], [-96.85312, 38.90341], [-96.85311, 38.90156], [-96.85312, 38.89953], [-96.85312, 38.89945], [-96.85311, 38.89778], [-96.85311, 38.89776], [-96.85309, 38.89422], [-96.85309, 38.89346], [-96.8531, 38.89142], [-96.85309, 38.89131], [-96.85308, 38.88942], [-96.85308, 38.88741], [-96.85306, 38.88572], [-96.85306, 38.8846], [-96.85305, 38.88241], [-96.85306, 38.87841], [-96.85305, 38.8764], [-96.85304, 38.87501], [-96.85302, 38.86996], [-96.85035, 38.86998], [-96.84803, 38.86996], [-96.84706, 38.86995], [-96.8456, 38.86997], [-96.84411, 38.86998], [-96.84196, 38.86999], [-96.83441, 38.8699], [-96.83011, 38.86991], [-96.82864, 38.86993], [-96.82604, 38.86991], [-96.82522, 38.8699], [-96.82452, 38.8699], [-96.82324, 38.86991], [-96.82223, 38.86991], [-96.82102, 38.86991], [-96.81897, 38.86989], [-96.81778, 38.8699], [-96.81669, 38.86987], [-96.81591, 38.86989], [-96.81533, 38.86991], [-96.81341, 38.86989], [-96.81284, 38.86987], [-96.81251, 38.8699], [-96.81012, 38.86989], [-96.80882, 38.86988], [-96.80746, 38.86988], [-96.80709, 38.86988], [-96.80655, 38.86989], [-96.80458, 38.86993], [-96.80315, 38.86991], [-96.80201, 38.86993], [-96.8006, 38.86992], [-96.80049, 38.86992], [-96.80033, 38.86992], [-96.8001, 38.86992], [-96.79791, 38.87001], [-96.79372, 38.87002], [-96.78969, 38.86992], [-96.78685, 38.86993], [-96.78674, 38.86993], [-96.78381, 38.8699], [-96.78261, 38.86989], [-96.77838, 38.86991], [-96.7771, 38.86993], [-96.77296, 38.86996], [-96.77156, 38.86999], [-96.76988, 38.87], [-96.76883, 38.87002], [-96.7678, 38.87005], [-96.76609, 38.87004], [-96.765, 38.87003], [-96.76081, 38.87011], [-96.76062, 38.8701], [-96.75924, 38.87008], [-96.75666, 38.87007], [-96.75323, 38.87009], [-96.75137, 38.87008], [-96.75, 38.87007], [-96.74851, 38.87009], [-96.74456, 38.87011], [-96.74312, 38.87012], [-96.74285, 38.87012], [-96.74258, 38.87012], [-96.74207, 38.87011], [-96.74182, 38.87012], [-96.7384, 38.87013], [-96.73625, 38.87017], [-96.73435, 38.87018], [-96.73142, 38.87016], [-96.73015, 38.87018], [-96.72969, 38.87018], [-96.72882, 38.87019], [-96.72697, 38.87017], [-96.72542, 38.8702], [-96.72377, 38.87022], [-96.72353, 38.87022], [-96.72328, 38.87023], [-96.72225, 38.87024], [-96.72012, 38.87024], [-96.71926, 38.87024], [-96.71913, 38.87024], [-96.7185, 38.87024], [-96.71613, 38.87022], [-96.71466, 38.87023], [-96.71421, 38.87024], [-96.7113, 38.87027], [-96.70765, 38.87029], [-96.70582, 38.87027], [-96.70543, 38.87026], [-96.70493, 38.87033], [-96.70279, 38.87033], [-96.68699, 38.87032], [-96.68433, 38.87032], [-96.68143, 38.87033], [-96.67072, 38.87035], [-96.66814, 38.87035], [-96.66221, 38.87033], [-96.65738, 38.87031], [-96.65715, 38.87031], [-96.65532, 38.87029], [-96.65512, 38.87029], [-96.65487, 38.87028], [-96.64958, 38.87016], [-96.64837, 38.87017], [-96.6465, 38.87018], [-96.64541, 38.87017], [-96.63748, 38.87019], [-96.63606, 38.8702], [-96.63547, 38.8702], [-96.6352, 38.8702], [-96.63464, 38.8702], [-96.63103, 38.87022], [-96.63042, 38.87023], [-96.62703, 38.87023], [-96.62534, 38.87023], [-96.625, 38.87024], [-96.62211, 38.87023], [-96.62136, 38.87023], [-96.61963, 38.87025], [-96.61568, 38.87025], [-96.6125, 38.87026], [-96.60857, 38.87026], [-96.60507, 38.87025], [-96.60076, 38.87025], [-96.59389, 38.87024], [-96.59313, 38.87024], [-96.59054, 38.87022], [-96.58755, 38.87021], [-96.58562, 38.87018], [-96.58548, 38.87018], [-96.58445, 38.87017], [-96.58372, 38.87017], [-96.57994, 38.87016], [-96.57709, 38.87014], [-96.57613, 38.87013], [-96.57592, 38.87013], [-96.57218, 38.87008], [-96.56895, 38.87006], [-96.56682, 38.87005], [-96.56293, 38.87004], [-96.55747, 38.87001], [-96.55531, 38.86999], [-96.5532, 38.86997], [-96.5527, 38.86997], [-96.55189, 38.86996], [-96.55039, 38.86996], [-96.5497, 38.86995], [-96.54769, 38.86993], [-96.54733, 38.86993], [-96.54438, 38.86989], [-96.53883, 38.86984], [-96.53742, 38.86984], [-96.53418, 38.86981], [-96.52962, 38.86978], [-96.52438, 38.86976], [-96.52217, 38.86973], [-96.52019, 38.86974], [-96.52018, 38.86988], [-96.51978, 38.86984], [-96.5194, 38.86979], [-96.51857, 38.86979], [-96.51797, 38.86981], [-96.51356, 38.86982], [-96.51327, 38.86982], [-96.51324, 38.86982], [-96.51314, 38.86981], [-96.51283, 38.86981], [-96.51099, 38.86979], [-96.50273, 38.86971], [-96.50156, 38.8697], [-96.50155, 38.8704], [-96.50155, 38.87049], [-96.50172, 38.875], [-96.50172, 38.87685], [-96.50172, 38.87891], [-96.50171, 38.88611], [-96.50168, 38.91286], [-96.50168, 38.91332], [-96.50168, 38.91542], [-96.50168, 38.91574], [-96.50168, 38.91704], [-96.50168, 38.91706], [-96.50168, 38.91708], [-96.50168, 38.91711], [-96.50168, 38.91717], [-96.50168, 38.91727], [-96.50168, 38.91744], [-96.50168, 38.91775], [-96.50168, 38.91789], [-96.50168, 38.91793], [-96.50167, 38.91795], [-96.50167, 38.91797], [-96.50167, 38.91804], [-96.50167, 38.91827], [-96.50166, 38.92607], [-96.50166, 38.92652], [-96.50166, 38.92751], [-96.50166, 38.92768], [-96.50166, 38.93202], [-96.50166, 38.93211], [-96.50165, 38.94326], [-96.50165, 38.94372], [-96.50165, 38.94374], [-96.50165, 38.94382], [-96.50165, 38.94551], [-96.50163, 38.95641], [-96.50163, 38.95705], [-96.50163, 38.96225], [-96.50162, 38.97143], [-96.50161, 38.97238], [-96.50161, 38.97241], [-96.50161, 38.97242], [-96.50161, 38.97243], [-96.50161, 38.97251], [-96.5016, 38.97271], [-96.5016, 38.97308], [-96.50159, 38.97364], [-96.50155, 38.97806], [-96.50146, 38.98591], [-96.50143, 38.98802], [-96.50143, 38.98841], [-96.50141, 38.98934], [-96.5014, 38.9902], [-96.50137, 38.99297], [-96.5013, 38.99891], [-96.50128, 39.0], [-96.50122, 39.00417], [-96.50122, 39.00419], [-96.50122, 39.00426], [-96.50122, 39.01021], [-96.50122, 39.01024], [-96.50122, 39.01027], [-96.50122, 39.01033], [-96.50122, 39.01042], [-96.50122, 39.01057], [-96.50122, 39.01073], [-96.50122, 39.01088], [-96.50122, 39.01098], [-96.50122, 39.01104], [-96.50122, 39.01108], [-96.50122, 39.01198], [-96.50121, 39.0149], [-96.50121, 39.01498], [-96.50121, 39.01555], [-96.50121, 39.01563], [-96.50117, 39.02001], [-96.50117, 39.02696], [-96.50117, 39.02926], [-96.50117, 39.02993], [-96.50117, 39.04349], [-96.50117, 39.04367], [-96.50111, 39.05257], [-96.50106, 39.05807], [-96.50105, 39.06004], [-96.50102, 39.06386], [-96.50101, 39.06535], [-96.50101, 39.06654], [-96.501, 39.06681], [-96.501, 39.06687], [-96.50099, 39.06809], [-96.50098, 39.06942], [-96.50098, 39.06969], [-96.50096, 39.07268], [-96.51271, 39.0728], [-96.51967, 39.07287], [-96.51993, 39.07287], [-96.5318, 39.07292], [-96.53818, 39.07295], [-96.53848, 39.07295], [-96.54857, 39.07304], [-96.55546, 39.07309], [-96.56022, 39.07313], [-96.56784, 39.0732], [-96.57272, 39.07324], [-96.57806, 39.07328], [-96.58018, 39.0733], [-96.58196, 39.07331], [-96.58415, 39.07333], [-96.58542, 39.07333], [-96.58602, 39.07334], [-96.59146, 39.07339], [-96.59594, 39.07342], [-96.59624, 39.07343], [-96.59853, 39.07341], [-96.59905, 39.07341], [-96.5999, 39.07341], [-96.60117, 39.0734], [-96.60201, 39.0734], [-96.60289, 39.07339], [-96.6037, 39.07339], [-96.60473, 39.07339], [-96.60607, 39.07338], [-96.60638, 39.07338], [-96.60702, 39.07337], [-96.60825, 39.07337], [-96.60895, 39.07337], [-96.60962, 39.07336], [-96.61078, 39.07336], [-96.61156, 39.07335], [-96.61226, 39.07335], [-96.61314, 39.07335], [-96.61395, 39.07334], [-96.61483, 39.07334], [-96.61531, 39.07333], [-96.61573, 39.07333], [-96.61643, 39.07332], [-96.61692, 39.07331], [-96.61749, 39.0733], [-96.6182, 39.07329], [-96.61897, 39.07328], [-96.61953, 39.07327], [-96.62031, 39.07326], [-96.62108, 39.07325], [-96.62157, 39.07325], [-96.62221, 39.07324], [-96.6227, 39.07323], [-96.62305, 39.07323], [-96.62348, 39.07322], [-96.62369, 39.07322], [-96.62418, 39.07321], [-96.62474, 39.0732], [-96.62531, 39.0732], [-96.6258, 39.07319], [-96.62636, 39.07318], [-96.62686, 39.07317], [-96.62749, 39.07317], [-96.62805, 39.07316], [-96.62847, 39.07315], [-96.62904, 39.07314], [-96.62974, 39.07313], [-96.63024, 39.07313], [-96.63045, 39.07312], [-96.63129, 39.07311], [-96.632, 39.0731], [-96.63263, 39.07309], [-96.63318, 39.07309], [-96.63386, 39.07309], [-96.63579, 39.0731], [-96.63644, 39.07311], [-96.63989, 39.07313], [-96.64892, 39.07318], [-96.64898, 39.07318], [-96.64905, 39.07318], [-96.65629, 39.07318], [-96.65648, 39.07318], [-96.66037, 39.07316], [-96.67045, 39.07314], [-96.6761, 39.07312], [-96.67948, 39.07311], [-96.68193, 39.07311], [-96.68216, 39.07311], [-96.68798, 39.07309], [-96.69266, 39.07309], [-96.69789, 39.07308], [-96.70168, 39.07308], [-96.7021, 39.07308], [-96.70612, 39.07308], [-96.70612, 39.07333], [-96.70616, 39.07887], [-96.70616, 39.07937], [-96.70617, 39.08068], [-96.70617, 39.08139], [-96.70617, 39.08174], [-96.70624, 39.08311], [-96.70623, 39.08319], [-96.70622, 39.08335], [-96.70622, 39.08343], [-96.70621, 39.08365], [-96.70621, 39.08483], [-96.7062, 39.08519], [-96.7062, 39.08551], [-96.70619, 39.08579], [-96.70619, 39.08594], [-96.70619, 39.086], [-96.7062, 39.08629], [-96.7062, 39.08631], [-96.7062, 39.08669], [-96.7062, 39.0871], [-96.70621, 39.08773], [-96.70622, 39.08839], [-96.70623, 39.08934], [-96.70624, 39.08992], [-96.70625, 39.09071], [-96.70625, 39.09079], [-96.70625, 39.09094], [-96.70626, 39.09116], [-96.70626, 39.0914], [-96.70626, 39.09157], [-96.70655, 39.09138], [-96.70698, 39.0912], [-96.70717, 39.0911], [-96.70729, 39.09105], [-96.70771, 39.09086], [-96.70823, 39.09072], [-96.70853, 39.09065], [-96.70881, 39.0906], [-96.70976, 39.09041], [-96.71066, 39.09026], [-96.71144, 39.09015], [-96.71185, 39.0901], [-96.71245, 39.09003], [-96.71338, 39.09004], [-96.7135, 39.09004], [-96.71356, 39.09005], [-96.71374, 39.09007], [-96.71388, 39.09009], [-96.71404, 39.09013], [-96.71412, 39.09015], [-96.71419, 39.09018], [-96.71425, 39.09022], [-96.71431, 39.09027], [-96.71435, 39.09028], [-96.71443, 39.0903], [-96.7145, 39.09032], [-96.7149, 39.0904], [-96.71502, 39.09043], [-96.7152, 39.09046], [-96.71527, 39.09048], [-96.71544, 39.09051], [-96.71622, 39.09065], [-96.71629, 39.09067], [-96.71645, 39.0907], [-96.71674, 39.09075], [-96.7168, 39.09075], [-96.71694, 39.09077], [-96.71699, 39.09079], [-96.71716, 39.09081], [-96.71727, 39.09082], [-96.7175, 39.09087], [-96.71779, 39.09093], [-96.71793, 39.09096], [-96.71797, 39.09097], [-96.71807, 39.09099], [-96.7182, 39.09102], [-96.71833, 39.09104], [-96.71845, 39.09107], [-96.71856, 39.09109], [-96.71869, 39.09111], [-96.71893, 39.09117], [-96.71903, 39.0912], [-96.71911, 39.09122], [-96.7192, 39.09125], [-96.71928, 39.09127], [-96.71934, 39.09128], [-96.71941, 39.0913], [-96.71954, 39.09133], [-96.71971, 39.09136], [-96.71986, 39.09138], [-96.71997, 39.09141], [-96.72014, 39.0914], [-96.72078, 39.09149], [-96.72191, 39.09138], [-96.7221, 39.09134], [-96.72231, 39.09129], [-96.72235, 39.09128], [-96.72243, 39.09126], [-96.72254, 39.09122], [-96.72265, 39.09119], [-96.7227, 39.09118], [-96.72281, 39.09114], [-96.72288, 39.09112], [-96.723, 39.09107], [-96.72322, 39.09098], [-96.72336, 39.09093], [-96.72347, 39.09089], [-96.72374, 39.09075], [-96.72378, 39.09073], [-96.72387, 39.09069], [-96.72402, 39.09062], [-96.72422, 39.09052], [-96.7243, 39.09047], [-96.72439, 39.09043], [-96.72469, 39.09027], [-96.72489, 39.09017], [-96.72496, 39.09012], [-96.72499, 39.09011], [-96.72506, 39.09007], [-96.72508, 39.09005], [-96.72513, 39.09002], [-96.72523, 39.08997], [-96.72528, 39.08995], [-96.72551, 39.08982], [-96.72556, 39.08979], [-96.72577, 39.08966], [-96.72581, 39.08963], [-96.7259, 39.08957], [-96.72596, 39.08953], [-96.72605, 39.08947], [-96.72609, 39.08944], [-96.72618, 39.08939], [-96.72633, 39.0893], [-96.72647, 39.0892], [-96.72661, 39.0891], [-96.72666, 39.08907], [-96.72692, 39.08889], [-96.72697, 39.08886], [-96.72707, 39.0888], [-96.7272, 39.08872], [-96.72724, 39.0887], [-96.72732, 39.08864], [-96.72736, 39.08861], [-96.72745, 39.08856], [-96.72749, 39.08853], [-96.72762, 39.08844], [-96.7277, 39.08839], [-96.72774, 39.08837], [-96.72787, 39.08828], [-96.72797, 39.08819], [-96.72805, 39.08812], [-96.72809, 39.08808], [-96.72814, 39.08803], [-96.7282, 39.08799], [-96.72824, 39.08795], [-96.72828, 39.08791], [-96.72832, 39.08787], [-96.7284, 39.08779], [-96.72847, 39.08774], [-96.7286, 39.08761], [-96.7287, 39.08747], [-96.72874, 39.08741], [-96.72888, 39.08719], [-96.72891, 39.08715], [-96.72897, 39.08706], [-96.72909, 39.08688], [-96.72919, 39.08675], [-96.72935, 39.08652], [-96.72945, 39.08638], [-96.72955, 39.08625], [-96.72965, 39.08612], [-96.72969, 39.08608], [-96.72981, 39.08592], [-96.72999, 39.08568], [-96.73008, 39.08557], [-96.73015, 39.08549], [-96.73026, 39.08538], [-96.73038, 39.08525], [-96.73051, 39.08511], [-96.73059, 39.08502], [-96.73071, 39.0849], [-96.73085, 39.08475], [-96.73093, 39.08466], [-96.73114, 39.08444], [-96.73126, 39.08431], [-96.73138, 39.08418], [-96.73147, 39.08411], [-96.73152, 39.08407], [-96.73153, 39.08406], [-96.73179, 39.08373], [-96.73189, 39.08361], [-96.73195, 39.08347], [-96.73201, 39.08335], [-96.73206, 39.08323], [-96.73226, 39.08309], [-96.73237, 39.08302], [-96.73291, 39.08263], [-96.73299, 39.08258], [-96.73381, 39.08167], [-96.7343, 39.08121], [-96.73443, 39.08109], [-96.73464, 39.08077], [-96.73548, 39.08017], [-96.73577, 39.08], [-96.73606, 39.07996], [-96.73631, 39.07999], [-96.73645, 39.08002], [-96.73668, 39.08013], [-96.7372, 39.08035], [-96.73742, 39.08047], [-96.73762, 39.08056], [-96.73786, 39.08069], [-96.73794, 39.08073], [-96.73815, 39.08092], [-96.73876, 39.08144], [-96.73919, 39.08182], [-96.73959, 39.08206], [-96.74035, 39.08223], [-96.74077, 39.08222], [-96.74093, 39.08219], [-96.7414, 39.0821], [-96.74144, 39.08208], [-96.74152, 39.08206], [-96.74157, 39.08205], [-96.74162, 39.08204], [-96.74168, 39.08202], [-96.74173, 39.08201], [-96.74178, 39.082], [-96.74231, 39.08199], [-96.74255, 39.08198], [-96.74277, 39.08197], [-96.74319, 39.08196], [-96.74346, 39.08196], [-96.74345, 39.08312], [-96.74345, 39.08362], [-96.74345, 39.08483], [-96.74344, 39.08615], [-96.74344, 39.08724], [-96.74344, 39.08766], [-96.75195, 39.08775], [-96.75505, 39.08779], [-96.75613, 39.0878], [-96.75637, 39.08766], [-96.75667, 39.0875], [-96.75684, 39.08739], [-96.75702, 39.08728], [-96.75561, 39.085], [-96.75519, 39.08433], [-96.75548, 39.08384], [-96.75735, 39.08415], [-96.75823, 39.08421], [-96.75908, 39.08409], [-96.76112, 39.08273], [-96.76247, 39.08147], [-96.76272, 39.08123], [-96.76259, 39.07873], [-96.76285, 39.07757], [-96.76329, 39.07561], [-96.76328, 39.07559], [-96.76337, 39.07518], [-96.76336, 39.07516], [-96.76337, 39.07513], [-96.7634, 39.0751], [-96.76455, 39.07238], [-96.76513, 39.07096], [-96.76526, 39.07068], [-96.76545, 39.07015], [-96.76637, 39.06745], [-96.76592, 39.06726], [-96.76566, 39.06714], [-96.76529, 39.06694], [-96.75926, 39.06397], [-96.7557, 39.0623], [-96.75561, 39.06228], [-96.75532, 39.0622], [-96.75498, 39.06206], [-96.75368, 39.0614], [-96.7529, 39.06102], [-96.75254, 39.06085], [-96.75156, 39.06039], [-96.75091, 39.06009], [-96.75019, 39.05968], [-96.75002, 39.05958], [-96.74944, 39.05928], [-96.74927, 39.0592], [-96.7474, 39.05812], [-96.74711, 39.05795], [-96.7479, 39.05756], [-96.74879, 39.05709], [-96.74921, 39.05683], [-96.74961, 39.05659], [-96.74996, 39.05635], [-96.75051, 39.05596], [-96.75127, 39.05538], [-96.75199, 39.0548], [-96.75253, 39.05431], [-96.75326, 39.05355], [-96.75643, 39.04987], [-96.75765, 39.04849], [-96.76123, 39.04433], [-96.76249, 39.04291], [-96.76317, 39.04207], [-96.76379, 39.04139], [-96.76404, 39.04112], [-96.76571, 39.03939], [-96.76573, 39.03937], [-96.7659, 39.03923], [-96.76657, 39.03864], [-96.76673, 39.0385], [-96.76749, 39.03785], [-96.76791, 39.03754], [-96.76883, 39.03688], [-96.76905, 39.03671], [-96.76957, 39.03671], [-96.77003, 39.03672], [-96.77023, 39.03677], [-96.7703, 39.03678], [-96.77034, 39.03678], [-96.77043, 39.03679], [-96.77064, 39.03678], [-96.77346, 39.0368], [-96.77512, 39.03685], [-96.77547, 39.03686], [-96.77557, 39.03686], [-96.77571, 39.03685], [-96.77587, 39.03683], [-96.77606, 39.03678], [-96.77618, 39.03675], [-96.77624, 39.03671], [-96.77638, 39.03663], [-96.77658, 39.03648], [-96.77667, 39.03638], [-96.77688, 39.03607], [-96.77699, 39.03584], [-96.7772, 39.03527], [-96.77732, 39.03506], [-96.77739, 39.03494], [-96.77747, 39.03486], [-96.77749, 39.035], [-96.77754, 39.03508], [-96.77771, 39.03517], [-96.77779, 39.03523], [-96.77785, 39.03529], [-96.77812, 39.0354], [-96.7784, 39.03543], [-96.77839, 39.03557], [-96.77844, 39.0358], [-96.77851, 39.03607], [-96.77846, 39.03707], [-96.77824, 39.03754], [-96.77818, 39.0377], [-96.77807, 39.03808], [-96.77803, 39.03812], [-96.77799, 39.03818], [-96.77799, 39.03821], [-96.77754, 39.03842], [-96.77731, 39.03874], [-96.77731, 39.03903], [-96.77777, 39.04069], [-96.77813, 39.04129], [-96.77869, 39.04201], [-96.7789, 39.04331], [-96.77862, 39.04425], [-96.77778, 39.04524], [-96.77675, 39.04632], [-96.77694, 39.04733], [-96.77715, 39.04863], [-96.77744, 39.04994], [-96.77812, 39.05092], [-96.7787, 39.05131], [-96.77955, 39.0513], [-96.78144, 39.05238], [-96.78225, 39.05288], [-96.78359, 39.05339], [-96.7854, 39.05376], [-96.78765, 39.05342], [-96.7896, 39.05287], [-96.79061, 39.05245], [-96.79153, 39.05182], [-96.79205, 39.05136], [-96.79353, 39.05046], [-96.79514, 39.05022], [-96.79672, 39.05051], [-96.79836, 39.05152], [-96.79918, 39.0527], [-96.79924, 39.05284], [-96.79946, 39.05328], [-96.79963, 39.05284], [-96.8003, 39.05099], [-96.8012, 39.04957], [-96.80172, 39.04896], [-96.80183, 39.04892], [-96.80239, 39.04866], [-96.80274, 39.04848], [-96.80294, 39.04833], [-96.80317, 39.04816], [-96.80356, 39.04797], [-96.80368, 39.04792], [-96.80402, 39.0478], [-96.80417, 39.04775], [-96.80427, 39.04771], [-96.8047, 39.04748], [-96.80494, 39.04738], [-96.80503, 39.04735], [-96.80525, 39.0473], [-96.80557, 39.04724], [-96.80595, 39.04712], [-96.80603, 39.04708], [-96.80637, 39.04689], [-96.8064, 39.04686], [-96.80693, 39.04664], [-96.8074, 39.04614], [-96.80728, 39.04552], [-96.80725, 39.04534], [-96.80669, 39.04444], [-96.80671, 39.04421], [-96.80622, 39.04359], [-96.80611, 39.04292], [-96.80598, 39.0421], [-96.8058, 39.04138], [-96.80567, 39.04083], [-96.8056, 39.04076], [-96.8056, 39.04074], [-96.80545, 39.04029], [-96.80437, 39.03906], [-96.8042, 39.03887], [-96.80368, 39.03828], [-96.8037, 39.03807], [-96.80369, 39.03797], [-96.8035, 39.03726], [-96.8034, 39.03692], [-96.80338, 39.03613], [-96.80339, 39.03598], [-96.80334, 39.03518], [-96.80329, 39.03442], [-96.80333, 39.03408], [-96.80339, 39.03364], [-96.80341, 39.03352], [-96.80343, 39.03336], [-96.80351, 39.03279], [-96.80362, 39.03201], [-96.80366, 39.03175], [-96.80379, 39.0313], [-96.80417, 39.02994], [-96.80423, 39.02973], [-96.80439, 39.02914], [-96.80443, 39.02884], [-96.80447, 39.02858], [-96.80446, 39.02847], [-96.80458, 39.02821], [-96.80475, 39.02786], [-96.80496, 39.02734], [-96.80504, 39.02712], [-96.80506, 39.02707], [-96.80526, 39.02657], [-96.80525, 39.02647], [-96.80524, 39.02597], [-96.80524, 39.02571], [-96.80555, 39.02565], [-96.80571, 39.02562], [-96.80574, 39.02561], [-96.80577, 39.02561], [-96.80578, 39.02561], [-96.80583, 39.0256], [-96.80641, 39.02548], [-96.80747, 39.02527], [-96.80803, 39.02516], [-96.80861, 39.02503], [-96.80909, 39.02491], [-96.80967, 39.02475], [-96.81018, 39.02456], [-96.81076, 39.02431], [-96.81128, 39.02406], [-96.81165, 39.02386], [-96.81199, 39.02364], [-96.81245, 39.0233], [-96.81352, 39.02244], [-96.81384, 39.02218], [-96.81603, 39.02037], [-96.81814, 39.01858], [-96.81941, 39.0175], [-96.82089, 39.0163], [-96.8237, 39.01391], [-96.8246, 39.01318], [-96.82506, 39.01279], [-96.82561, 39.01238], [-96.82605, 39.0121], [-96.82663, 39.01178], [-96.82781, 39.01118], [-96.82971, 39.01023], [-96.83096, 39.0096], [-96.83132, 39.00942], [-96.83192, 39.00911], [-96.83252, 39.00881], [-96.83329, 39.00844], [-96.83483, 39.00767], [-96.83503, 39.00757], [-96.83667, 39.00672], [-96.83726, 39.00643], [-96.83769, 39.00622], [-96.83898, 39.00559], [-96.8419, 39.00415], [-96.84522, 39.00246], [-96.84616, 39.00199], [-96.84779, 39.00118], [-96.84927, 39.00045], [-96.84993, 39.00014], [-96.85043, 38.99996], [-96.85052, 38.99994], [-96.85142, 38.99967], [-96.85228, 38.99947], [-96.85304, 38.99935], [-96.85364, 38.9993], [-96.85425, 38.99927], [-96.85545, 38.99927], [-96.858, 38.99927], [-96.8582, 38.99927], [-96.8593, 38.99929], [-96.85953, 38.9993], [-96.86114, 38.99933], [-96.86144, 38.99931]]]}}, {"type": "Feature", "properties": {"tract_id": "20061000300", "name": "Census Tract 3", "pct_white_2020": 57.0, "pct_black_2020": 9.5, "pct_hispanic_2020": 18.2, "pct_asian_2020": 1.1, "population_2020": 4905}, "geometry": {"type": "Polygon", "coordinates": [[[-96.86949, 39.04691], [-96.86948, 39.04597], [-96.86939, 39.04531], [-96.86933, 39.04487], [-96.86926, 39.04454], [-96.8689, 39.04303], [-96.86842, 39.04121], [-96.86795, 39.03942], [-96.86736, 39.0372], [-96.86657, 39.03419], [-96.86625, 39.033], [-96.86585, 39.03153], [-96.86565, 39.03083], [-96.86546, 39.03006], [-96.86545, 39.03001], [-96.86527, 39.02935], [-96.86503, 39.02848], [-96.86479, 39.02751], [-96.86471, 39.02718], [-96.86455, 39.0266], [-96.86453, 39.02653], [-96.86452, 39.02649], [-96.86445, 39.0262], [-96.86442, 39.02608], [-96.86409, 39.0248], [-96.86384, 39.02384], [-96.8636, 39.02299], [-96.86355, 39.02282], [-96.86351, 39.02266], [-96.86334, 39.02209], [-96.86321, 39.02156], [-96.86309, 39.0211], [-96.86297, 39.02046], [-96.86287, 39.0198], [-96.86284, 39.0192], [-96.86217, 39.0192], [-96.86073, 39.01921], [-96.86068, 39.01921], [-96.86016, 39.01919], [-96.85978, 39.01917], [-96.8597, 39.01917], [-96.85945, 39.01918], [-96.85922, 39.0192], [-96.85895, 39.01926], [-96.85861, 39.01935], [-96.85838, 39.01948], [-96.8583, 39.01955], [-96.85815, 39.01967], [-96.85808, 39.01975], [-96.85732, 39.02071], [-96.85721, 39.0208], [-96.8571, 39.02088], [-96.85698, 39.02098], [-96.85641, 39.02126], [-96.85631, 39.02132], [-96.85588, 39.02154], [-96.85558, 39.0217], [-96.85508, 39.02193], [-96.85424, 39.02235], [-96.85389, 39.02252], [-96.85368, 39.02258], [-96.85327, 39.02276], [-96.85272, 39.02303], [-96.85236, 39.02326], [-96.85196, 39.02355], [-96.85184, 39.02367], [-96.85173, 39.02378], [-96.85146, 39.02407], [-96.85083, 39.02472], [-96.85025, 39.02532], [-96.84963, 39.02602], [-96.8495, 39.02611], [-96.84941, 39.02616], [-96.84931, 39.02619], [-96.84919, 39.0262], [-96.84919, 39.02599], [-96.84919, 39.02544], [-96.84903, 39.02543], [-96.84894, 39.02539], [-96.8489, 39.02536], [-96.84884, 39.02533], [-96.84882, 39.02531], [-96.84872, 39.02525], [-96.84865, 39.02518], [-96.8486, 39.02506], [-96.84859, 39.0249], [-96.84858, 39.02473], [-96.84854, 39.02463], [-96.84849, 39.02458], [-96.84831, 39.02455], [-96.84804, 39.02455], [-96.84705, 39.02459], [-96.84703, 39.02499], [-96.84653, 39.02504], [-96.84646, 39.0251], [-96.84643, 39.02513], [-96.84638, 39.02515], [-96.84634, 39.02515], [-96.84617, 39.02511], [-96.84597, 39.02503], [-96.84594, 39.02497], [-96.84577, 39.02507], [-96.84564, 39.02514], [-96.84548, 39.02519], [-96.845, 39.02527], [-96.84491, 39.02543], [-96.84482, 39.02561], [-96.8448, 39.02588], [-96.8448, 39.02615], [-96.84402, 39.02614], [-96.84293, 39.02614], [-96.84101, 39.02615], [-96.84101, 39.02669], [-96.84101, 39.02712], [-96.84098, 39.02717], [-96.84094, 39.02721], [-96.8409, 39.02725], [-96.84089, 39.02773], [-96.84088, 39.02825], [-96.84098, 39.02825], [-96.84099, 39.02877], [-96.841, 39.02929], [-96.84101, 39.02983], [-96.84101, 39.03034], [-96.83911, 39.03034], [-96.83911, 39.03087], [-96.83911, 39.0314], [-96.83912, 39.03193], [-96.83912, 39.03246], [-96.83913, 39.03298], [-96.83913, 39.0335], [-96.83913, 39.03405], [-96.83912, 39.03456], [-96.84013, 39.03456], [-96.84101, 39.03455], [-96.84127, 39.03455], [-96.84292, 39.03456], [-96.84448, 39.03458], [-96.84467, 39.03458], [-96.84644, 39.0346], [-96.84654, 39.03457], [-96.84661, 39.03451], [-96.84667, 39.03442], [-96.84689, 39.03411], [-96.84695, 39.03403], [-96.84699, 39.03401], [-96.84699, 39.03351], [-96.84733, 39.03351], [-96.84759, 39.03352], [-96.84789, 39.03352], [-96.84911, 39.03352], [-96.84909, 39.03459], [-96.84907, 39.03656], [-96.84906, 39.03697], [-96.84906, 39.03713], [-96.84907, 39.03763], [-96.84908, 39.03787], [-96.84908, 39.03825], [-96.8491, 39.0394], [-96.84911, 39.03944], [-96.84916, 39.03991], [-96.84926, 39.04011], [-96.84933, 39.0402], [-96.84935, 39.04023], [-96.84957, 39.04046], [-96.84994, 39.04068], [-96.84976, 39.04087], [-96.84939, 39.04129], [-96.84921, 39.04149], [-96.84916, 39.04162], [-96.84916, 39.04189], [-96.84916, 39.04238], [-96.84916, 39.04312], [-96.84916, 39.04335], [-96.84913, 39.04439], [-96.84912, 39.04518], [-96.84911, 39.04595], [-96.8491, 39.04637], [-96.8491, 39.04669], [-96.84911, 39.04744], [-96.84904, 39.04744], [-96.84884, 39.04747], [-96.84872, 39.04751], [-96.84866, 39.04754], [-96.84859, 39.04759], [-96.8485, 39.04765], [-96.84787, 39.04806], [-96.84775, 39.04814], [-96.84724, 39.04847], [-96.84678, 39.04877], [-96.84595, 39.04932], [-96.8455, 39.04961], [-96.84508, 39.04988], [-96.84413, 39.0505], [-96.84409, 39.05053], [-96.84402, 39.05058], [-96.84399, 39.0506], [-96.84387, 39.05072], [-96.84372, 39.05087], [-96.84225, 39.04999], [-96.84219, 39.04995], [-96.8417, 39.04966], [-96.84125, 39.0494], [-96.84062, 39.04898], [-96.84026, 39.04869], [-96.83995, 39.04837], [-96.83991, 39.04832], [-96.83959, 39.04787], [-96.83942, 39.04791], [-96.83936, 39.04793], [-96.83932, 39.04794], [-96.83911, 39.04805], [-96.83887, 39.04817], [-96.83872, 39.04827], [-96.83854, 39.04836], [-96.83835, 39.04841], [-96.83814, 39.0485], [-96.83812, 39.04848], [-96.83804, 39.04854], [-96.83795, 39.0486], [-96.8376, 39.04872], [-96.83741, 39.04876], [-96.83729, 39.04878], [-96.83712, 39.04883], [-96.83683, 39.04905], [-96.83677, 39.04913], [-96.83675, 39.04915], [-96.83671, 39.04927], [-96.83662, 39.04933], [-96.83653, 39.0494], [-96.83649, 39.04942], [-96.83645, 39.04945], [-96.83635, 39.04948], [-96.8362, 39.04954], [-96.83663, 39.05013], [-96.8367, 39.05044], [-96.83665, 39.05076], [-96.83644, 39.05131], [-96.83625, 39.05182], [-96.83623, 39.05242], [-96.83604, 39.05286], [-96.83602, 39.05332], [-96.83616, 39.0537], [-96.83648, 39.054], [-96.83664, 39.05434], [-96.83678, 39.05449], [-96.83719, 39.05483], [-96.83752, 39.05521], [-96.83824, 39.05572], [-96.83865, 39.05595], [-96.83977, 39.056], [-96.84008, 39.05597], [-96.84069, 39.05591], [-96.84136, 39.05576], [-96.84192, 39.05581], [-96.84298, 39.05608], [-96.84332, 39.05617], [-96.84364, 39.05632], [-96.84396, 39.05634], [-96.8449, 39.05667], [-96.84521, 39.05687], [-96.84524, 39.05688], [-96.84554, 39.05706], [-96.84623, 39.05867], [-96.84644, 39.05977], [-96.8468, 39.06072], [-96.8478, 39.06152], [-96.84824, 39.06185], [-96.84995, 39.06226], [-96.85246, 39.06258], [-96.85413, 39.06362], [-96.8546, 39.06435], [-96.85524, 39.0649], [-96.85578, 39.06523], [-96.85628, 39.06611], [-96.85678, 39.06724], [-96.85709, 39.06801], [-96.85761, 39.06859], [-96.85819, 39.06893], [-96.85866, 39.06902], [-96.85891, 39.06906], [-96.85948, 39.06903], [-96.86035, 39.06898], [-96.86139, 39.06903], [-96.86267, 39.06944], [-96.86453, 39.07009], [-96.8656, 39.07062], [-96.86649, 39.07084], [-96.8669, 39.071], [-96.867, 39.07102], [-96.86701, 39.07085], [-96.86704, 39.0706], [-96.86706, 39.07044], [-96.86725, 39.06854], [-96.86745, 39.06675], [-96.86755, 39.06587], [-96.86761, 39.0652], [-96.86773, 39.06419], [-96.86776, 39.06392], [-96.86778, 39.06381], [-96.8678, 39.06363], [-96.86783, 39.06319], [-96.8679, 39.06253], [-96.868, 39.06168], [-96.86807, 39.06091], [-96.86839, 39.058], [-96.86859, 39.05613], [-96.86866, 39.05545], [-96.86884, 39.05377], [-96.8691, 39.05144], [-96.86929, 39.04966], [-96.86943, 39.04824], [-96.86949, 39.04691]]]}}, {"type": "Feature", "properties": {"tract_id": "20061000602", "name": "Census Tract 6.02", "pct_white_2020": 63.7, "pct_black_2020": 13.4, "pct_hispanic_2020": 11.3, "pct_asian_2020": 3.3, "population_2020": 3070}, "geometry": {"type": "Polygon", "coordinates": [[[-96.82396, 39.08811], [-96.82389, 39.08806], [-96.82383, 39.08802], [-96.82376, 39.08798], [-96.82374, 39.08797], [-96.82352, 39.08783], [-96.82338, 39.08776], [-96.82229, 39.08723], [-96.82248, 39.08686], [-96.8225, 39.0868], [-96.8226, 39.08649], [-96.82264, 39.08597], [-96.82265, 39.08541], [-96.82262, 39.08518], [-96.82253, 39.08472], [-96.82236, 39.0842], [-96.82229, 39.08384], [-96.82209, 39.08134], [-96.82202, 39.08022], [-96.82197, 39.07994], [-96.8219, 39.07984], [-96.82129, 39.07893], [-96.82123, 39.07883], [-96.82105, 39.07854], [-96.82075, 39.07805], [-96.82059, 39.07779], [-96.82013, 39.07711], [-96.81996, 39.07693], [-96.81895, 39.07691], [-96.81867, 39.07689], [-96.81833, 39.07678], [-96.81774, 39.07658], [-96.8171, 39.07638], [-96.81648, 39.07624], [-96.81486, 39.0757], [-96.81438, 39.07551], [-96.81315, 39.07496], [-96.8125, 39.07466], [-96.81196, 39.07445], [-96.81166, 39.07438], [-96.81136, 39.07429], [-96.81086, 39.07406], [-96.80989, 39.07353], [-96.80967, 39.07341], [-96.80929, 39.07316], [-96.80922, 39.0731], [-96.80871, 39.07265], [-96.80854, 39.07252], [-96.80836, 39.07241], [-96.80811, 39.07227], [-96.80768, 39.072], [-96.80751, 39.07181], [-96.80742, 39.07176], [-96.80733, 39.07174], [-96.80721, 39.07173], [-96.80709, 39.07176], [-96.80664, 39.07193], [-96.80632, 39.07207], [-96.80607, 39.07212], [-96.80595, 39.07217], [-96.80587, 39.07223], [-96.80581, 39.07232], [-96.80577, 39.07243], [-96.80572, 39.07252], [-96.80562, 39.07261], [-96.8056, 39.07266], [-96.80548, 39.0727], [-96.80537, 39.07269], [-96.8053, 39.07264], [-96.80513, 39.07256], [-96.80472, 39.07224], [-96.80449, 39.07206], [-96.80428, 39.07186], [-96.8041, 39.07163], [-96.80394, 39.07139], [-96.80388, 39.07131], [-96.80388, 39.07125], [-96.80387, 39.07117], [-96.80381, 39.07104], [-96.80375, 39.07087], [-96.80369, 39.07076], [-96.80357, 39.0706], [-96.80346, 39.07046], [-96.80341, 39.07038], [-96.80336, 39.07027], [-96.80335, 39.07017], [-96.80335, 39.06989], [-96.80338, 39.06973], [-96.80338, 39.06965], [-96.80343, 39.06953], [-96.80348, 39.06945], [-96.80354, 39.06942], [-96.80395, 39.06941], [-96.80452, 39.06943], [-96.80485, 39.06945], [-96.80542, 39.06951], [-96.80598, 39.06963], [-96.80628, 39.06971], [-96.80692, 39.06988], [-96.80741, 39.07003], [-96.808, 39.07023], [-96.80817, 39.07025], [-96.80832, 39.07026], [-96.80842, 39.07023], [-96.80808, 39.07007], [-96.80758, 39.0697], [-96.80667, 39.06907], [-96.80557, 39.06825], [-96.8054, 39.06808], [-96.80528, 39.06794], [-96.80522, 39.06781], [-96.80521, 39.06764], [-96.80525, 39.06749], [-96.8053, 39.06744], [-96.80536, 39.06738], [-96.80554, 39.06721], [-96.80565, 39.06712], [-96.80577, 39.06703], [-96.80582, 39.06693], [-96.80588, 39.06681], [-96.80575, 39.06675], [-96.80496, 39.0665], [-96.80399, 39.06615], [-96.80359, 39.06601], [-96.80208, 39.06551], [-96.80179, 39.0654], [-96.80067, 39.06514], [-96.8004, 39.06507], [-96.79979, 39.06491], [-96.79845, 39.06454], [-96.79867, 39.06442], [-96.79896, 39.06425], [-96.79928, 39.06405], [-96.79988, 39.06375], [-96.80079, 39.06321], [-96.80166, 39.06251], [-96.80226, 39.06188], [-96.80255, 39.06158], [-96.80293, 39.06126], [-96.80295, 39.06124], [-96.80305, 39.06115], [-96.80315, 39.06106], [-96.80325, 39.06095], [-96.8027, 39.06052], [-96.80245, 39.06035], [-96.80216, 39.06014], [-96.80184, 39.06012], [-96.8017, 39.06018], [-96.80133, 39.06028], [-96.80089, 39.05972], [-96.80086, 39.05958], [-96.80081, 39.05939], [-96.80131, 39.05927], [-96.80138, 39.05923], [-96.80131, 39.05914], [-96.80125, 39.05904], [-96.80111, 39.05889], [-96.80103, 39.05869], [-96.80101, 39.05862], [-96.80082, 39.05822], [-96.80075, 39.05808], [-96.8005, 39.05751], [-96.79964, 39.05643], [-96.79931, 39.05547], [-96.7994, 39.0544], [-96.79925, 39.05381], [-96.79946, 39.05328], [-96.79924, 39.05284], [-96.79918, 39.0527], [-96.79836, 39.05152], [-96.79672, 39.05051], [-96.79514, 39.05022], [-96.79353, 39.05046], [-96.79205, 39.05136], [-96.79153, 39.05182], [-96.79061, 39.05245], [-96.7896, 39.05287], [-96.78765, 39.05342], [-96.7854, 39.05376], [-96.78359, 39.05339], [-96.78225, 39.05288], [-96.78144, 39.05238], [-96.77955, 39.0513], [-96.7787, 39.05131], [-96.77812, 39.05092], [-96.77744, 39.04994], [-96.77715, 39.04863], [-96.77694, 39.04733], [-96.77675, 39.04632], [-96.77778, 39.04524], [-96.77862, 39.04425], [-96.7789, 39.04331], [-96.77869, 39.04201], [-96.77813, 39.04129], [-96.77777, 39.04069], [-96.77731, 39.03903], [-96.77731, 39.03874], [-96.77754, 39.03842], [-96.77799, 39.03821], [-96.77799, 39.03818], [-96.77803, 39.03812], [-96.77807, 39.03808], [-96.77818, 39.0377], [-96.77824, 39.03754], [-96.77846, 39.03707], [-96.77851, 39.03607], [-96.77844, 39.0358], [-96.77839, 39.03557], [-96.7784, 39.03543], [-96.77812, 39.0354], [-96.77785, 39.03529], [-96.77779, 39.03523], [-96.77771, 39.03517], [-96.77754, 39.03508], [-96.77749, 39.035], [-96.77747, 39.03486], [-96.77739, 39.03494], [-96.77732, 39.03506], [-96.7772, 39.03527], [-96.77699, 39.03584], [-96.77688, 39.03607], [-96.77667, 39.03638], [-96.77658, 39.03648], [-96.77638, 39.03663], [-96.77624, 39.03671], [-96.77618, 39.03675], [-96.77606, 39.03678], [-96.77587, 39.03683], [-96.77571, 39.03685], [-96.77557, 39.03686], [-96.77547, 39.03686], [-96.77512, 39.03685], [-96.77346, 39.0368], [-96.77064, 39.03678], [-96.77043, 39.03679], [-96.77034, 39.03678], [-96.7703, 39.03678], [-96.77023, 39.03677], [-96.77003, 39.03672], [-96.76957, 39.03671], [-96.76905, 39.03671], [-96.76883, 39.03688], [-96.76791, 39.03754], [-96.76749, 39.03785], [-96.76673, 39.0385], [-96.76657, 39.03864], [-96.7659, 39.03923], [-96.76573, 39.03937], [-96.76571, 39.03939], [-96.76404, 39.04112], [-96.76379, 39.04139], [-96.76317, 39.04207], [-96.76249, 39.04291], [-96.76123, 39.04433], [-96.75765, 39.04849], [-96.75643, 39.04987], [-96.75326, 39.05355], [-96.75253, 39.05431], [-96.75199, 39.0548], [-96.75127, 39.05538], [-96.75051, 39.05596], [-96.74996, 39.05635], [-96.74961, 39.05659], [-96.74921, 39.05683], [-96.74879, 39.05709], [-96.7479, 39.05756], [-96.74711, 39.05795], [-96.7474, 39.05812], [-96.74927, 39.0592], [-96.74944, 39.05928], [-96.75002, 39.05958], [-96.75019, 39.05968], [-96.75091, 39.06009], [-96.75156, 39.06039], [-96.75254, 39.06085], [-96.7529, 39.06102], [-96.75368, 39.0614], [-96.75498, 39.06206], [-96.75532, 39.0622], [-96.75561, 39.06228], [-96.7557, 39.0623], [-96.75926, 39.06397], [-96.76529, 39.06694], [-96.76566, 39.06714], [-96.76592, 39.06726], [-96.76637, 39.06745], [-96.76545, 39.07015], [-96.76526, 39.07068], [-96.76513, 39.07096], [-96.76455, 39.07238], [-96.7634, 39.0751], [-96.76337, 39.07513], [-96.76336, 39.07516], [-96.76337, 39.07518], [-96.76328, 39.07559], [-96.76329, 39.07561], [-96.76285, 39.07757], [-96.76259, 39.07873], [-96.76272, 39.08123], [-96.76247, 39.08147], [-96.76112, 39.08273], [-96.75908, 39.08409], [-96.75823, 39.08421], [-96.75735, 39.08415], [-96.75548, 39.08384], [-96.75519, 39.08433], [-96.75561, 39.085], [-96.75702, 39.08728], [-96.75684, 39.08739], [-96.75667, 39.0875], [-96.75637, 39.08766], [-96.75613, 39.0878], [-96.75619, 39.0878], [-96.75625, 39.0878], [-96.75671, 39.0878], [-96.75754, 39.08781], [-96.7579, 39.08782], [-96.75839, 39.08782], [-96.75883, 39.08783], [-96.76135, 39.08786], [-96.76273, 39.08785], [-96.77439, 39.08782], [-96.77506, 39.08782], [-96.77654, 39.08782], [-96.77661, 39.08781], [-96.77664, 39.08783], [-96.77664, 39.08781], [-96.77682, 39.08781], [-96.7771, 39.08781], [-96.77735, 39.08781], [-96.77809, 39.08781], [-96.77886, 39.08781], [-96.77897, 39.08781], [-96.77909, 39.08781], [-96.77964, 39.0878], [-96.7801, 39.0878], [-96.7824, 39.0878], [-96.78367, 39.08781], [-96.78475, 39.08782], [-96.78622, 39.08783], [-96.79748, 39.08789], [-96.79847, 39.08789], [-96.80227, 39.08793], [-96.80349, 39.08794], [-96.80461, 39.08796], [-96.80496, 39.08797], [-96.80524, 39.08797], [-96.80593, 39.08798], [-96.80653, 39.08798], [-96.80869, 39.08801], [-96.81092, 39.08804], [-96.81108, 39.08805], [-96.81204, 39.08806], [-96.81228, 39.08806], [-96.81253, 39.08806], [-96.81313, 39.08807], [-96.81363, 39.08807], [-96.81399, 39.08808], [-96.81585, 39.08809], [-96.81605, 39.08809], [-96.81654, 39.08809], [-96.8176, 39.08809], [-96.81851, 39.0881], [-96.82052, 39.0881], [-96.82113, 39.08811], [-96.82127, 39.08811], [-96.82204, 39.08811], [-96.82274, 39.08811], [-96.82294, 39.08811], [-96.8236, 39.08811], [-96.82396, 39.08811]]]}}, {"type": "Feature", "properties": {"tract_id": "20061000801", "name": "Census Tract 8.01", "pct_white_2020": 44.7, "pct_black_2020": 30.4, "pct_hispanic_2020": 17.9, "pct_asian_2020": 3.3, "population_2020": 2389}, "geometry": {"type": "Polygon", "coordinates": [[[-96.8912, 39.03016], [-96.89123, 39.02949], [-96.89118, 39.02707], [-96.89119, 39.02494], [-96.89119, 39.0247], [-96.89117, 39.02298], [-96.89117, 39.02258], [-96.89117, 39.02197], [-96.89117, 39.02179], [-96.89116, 39.02123], [-96.89116, 39.02101], [-96.89116, 39.01986], [-96.89113, 39.01696], [-96.89111, 39.01559], [-96.88845, 39.0156], [-96.88656, 39.01561], [-96.88638, 39.01561], [-96.8859, 39.01561], [-96.88528, 39.0156], [-96.88437, 39.0156], [-96.88394, 39.0156], [-96.88356, 39.0156], [-96.8825, 39.01559], [-96.8824, 39.01559], [-96.88138, 39.0156], [-96.8812, 39.0156], [-96.88015, 39.0156], [-96.87952, 39.0156], [-96.87888, 39.0156], [-96.87839, 39.0156], [-96.8783, 39.0156], [-96.8781, 39.0156], [-96.87789, 39.0156], [-96.87756, 39.01559], [-96.87715, 39.01559], [-96.87639, 39.01558], [-96.87522, 39.01558], [-96.87479, 39.01557], [-96.87438, 39.01557], [-96.87385, 39.01558], [-96.87313, 39.01558], [-96.87265, 39.01558], [-96.87243, 39.01558], [-96.87189, 39.01558], [-96.87138, 39.01564], [-96.87073, 39.01566], [-96.86988, 39.01564], [-96.86917, 39.01562], [-96.86874, 39.01561], [-96.86838, 39.01556], [-96.86804, 39.01546], [-96.86761, 39.01542], [-96.86749, 39.0154], [-96.867, 39.01542], [-96.86684, 39.01542], [-96.86674, 39.01543], [-96.8665, 39.01543], [-96.86625, 39.01543], [-96.86584, 39.01543], [-96.86529, 39.01543], [-96.86467, 39.01543], [-96.86412, 39.01543], [-96.86401, 39.01543], [-96.86397, 39.01543], [-96.86355, 39.01548], [-96.86346, 39.01549], [-96.86307, 39.01551], [-96.86281, 39.01553], [-96.86282, 39.0167], [-96.86281, 39.01731], [-96.86278, 39.01792], [-96.8628, 39.01858], [-96.86284, 39.0192], [-96.86287, 39.0198], [-96.86297, 39.02046], [-96.86309, 39.0211], [-96.86321, 39.02156], [-96.86334, 39.02209], [-96.86351, 39.02266], [-96.86355, 39.02282], [-96.8636, 39.02299], [-96.86384, 39.02384], [-96.86409, 39.0248], [-96.86442, 39.02608], [-96.86445, 39.0262], [-96.86452, 39.02649], [-96.86453, 39.02653], [-96.86455, 39.0266], [-96.86471, 39.02718], [-96.86479, 39.02751], [-96.86503, 39.02848], [-96.86527, 39.02935], [-96.86545, 39.03001], [-96.86546, 39.03006], [-96.86565, 39.03083], [-96.86585, 39.03153], [-96.86625, 39.033], [-96.86657, 39.03419], [-96.86736, 39.0372], [-96.86795, 39.03942], [-96.86842, 39.04121], [-96.8689, 39.04303], [-96.86926, 39.04454], [-96.86982, 39.04455], [-96.8701, 39.04455], [-96.87326, 39.04456], [-96.8735, 39.04456], [-96.87486, 39.04458], [-96.87652, 39.04459], [-96.87671, 39.04459], [-96.87713, 39.04459], [-96.87861, 39.0446], [-96.87917, 39.0446], [-96.88024, 39.04461], [-96.88143, 39.04461], [-96.88257, 39.04462], [-96.88272, 39.04462], [-96.88365, 39.04462], [-96.88502, 39.04462], [-96.88596, 39.04462], [-96.88847, 39.04465], [-96.88848, 39.04452], [-96.8886, 39.04384], [-96.8889, 39.04237], [-96.88983, 39.03746], [-96.89105, 39.03106], [-96.8912, 39.03016]]]}}, {"type": "Feature", "properties": {"tract_id": "20061000402", "name": "Census Tract 4.02", "pct_white_2020": 69.8, "pct_black_2020": 2.7, "pct_hispanic_2020": 17.5, "pct_asian_2020": 3.4, "population_2020": 2199}, "geometry": {"type": "Polygon", "coordinates": [[[-96.84967, 39.02315], [-96.84968, 39.02306], [-96.84967, 39.02284], [-96.84963, 39.02269], [-96.8496, 39.02262], [-96.84954, 39.02239], [-96.8495, 39.02221], [-96.84942, 39.02186], [-96.8494, 39.02078], [-96.84934, 39.02001], [-96.84927, 39.01949], [-96.84921, 39.01933], [-96.8492, 39.01931], [-96.84911, 39.01918], [-96.84898, 39.01902], [-96.84887, 39.01882], [-96.84881, 39.01856], [-96.84883, 39.01782], [-96.84881, 39.01702], [-96.84881, 39.01657], [-96.8488, 39.01631], [-96.84877, 39.01564], [-96.84882, 39.01539], [-96.84699, 39.01536], [-96.84649, 39.01535], [-96.8459, 39.01534], [-96.84489, 39.01534], [-96.8443, 39.01533], [-96.84238, 39.01532], [-96.84116, 39.01531], [-96.84101, 39.01531], [-96.84069, 39.01534], [-96.84057, 39.01538], [-96.8404, 39.01542], [-96.84021, 39.01552], [-96.84017, 39.01554], [-96.83989, 39.01565], [-96.83956, 39.0157], [-96.83904, 39.01571], [-96.83876, 39.01572], [-96.83713, 39.0157], [-96.83714, 39.01622], [-96.83714, 39.01675], [-96.83715, 39.01728], [-96.83715, 39.01781], [-96.83716, 39.01834], [-96.83716, 39.01885], [-96.83716, 39.01937], [-96.83716, 39.01988], [-96.83893, 39.01987], [-96.83907, 39.01987], [-96.83907, 39.02039], [-96.83907, 39.02091], [-96.83907, 39.02144], [-96.83908, 39.02196], [-96.83908, 39.02249], [-96.83908, 39.02301], [-96.8391, 39.02353], [-96.83909, 39.02406], [-96.83908, 39.02458], [-96.83907, 39.02509], [-96.83907, 39.02522], [-96.83907, 39.02563], [-96.83908, 39.02615], [-96.84101, 39.02615], [-96.84293, 39.02614], [-96.84402, 39.02614], [-96.8448, 39.02615], [-96.8448, 39.02588], [-96.84482, 39.02561], [-96.84491, 39.02543], [-96.845, 39.02527], [-96.84548, 39.02519], [-96.84564, 39.02514], [-96.84577, 39.02507], [-96.84594, 39.02497], [-96.84597, 39.02503], [-96.84617, 39.02511], [-96.84634, 39.02515], [-96.84638, 39.02515], [-96.84643, 39.02513], [-96.84646, 39.0251], [-96.84653, 39.02504], [-96.84703, 39.02499], [-96.84705, 39.02459], [-96.84804, 39.02455], [-96.84831, 39.02455], [-96.84849, 39.02458], [-96.84854, 39.02463], [-96.84858, 39.02473], [-96.84859, 39.0249], [-96.8486, 39.02506], [-96.84865, 39.02518], [-96.84872, 39.02525], [-96.84882, 39.02531], [-96.84884, 39.02533], [-96.8489, 39.02536], [-96.84894, 39.02539], [-96.84903, 39.02543], [-96.84919, 39.02544], [-96.8492, 39.02536], [-96.8492, 39.02485], [-96.8492, 39.02474], [-96.84923, 39.02437], [-96.84923, 39.02433], [-96.8493, 39.02398], [-96.84962, 39.02344], [-96.84967, 39.02325], [-96.84967, 39.02315]]]}}, {"type": "Feature", "properties": {"tract_id": "20061000401", "name": "Census Tract 4.01", "pct_white_2020": 58.0, "pct_black_2020": 14.5, "pct_hispanic_2020": 16.3, "pct_asian_2020": 2.9, "population_2020": 3655}, "geometry": {"type": "Polygon", "coordinates": [[[-96.86371, 39.00466], [-96.86369, 39.00421], [-96.86363, 39.00367], [-96.8636, 39.00355], [-96.86348, 39.00314], [-96.8631, 39.0022], [-96.86234, 39.00087], [-96.86228, 39.00077], [-96.86189, 39.00012], [-96.86181, 39.0], [-96.86157, 38.99955], [-96.86144, 38.99931], [-96.86114, 38.99933], [-96.85953, 38.9993], [-96.8593, 38.99929], [-96.8582, 38.99927], [-96.858, 38.99927], [-96.85545, 38.99927], [-96.85425, 38.99927], [-96.85364, 38.9993], [-96.85304, 38.99935], [-96.85228, 38.99947], [-96.85142, 38.99967], [-96.85052, 38.99994], [-96.85043, 38.99996], [-96.84993, 39.00014], [-96.84927, 39.00045], [-96.84779, 39.00118], [-96.84616, 39.00199], [-96.84522, 39.00246], [-96.8419, 39.00415], [-96.83898, 39.00559], [-96.83769, 39.00622], [-96.83726, 39.00643], [-96.83667, 39.00672], [-96.83503, 39.00757], [-96.83503, 39.00787], [-96.83503, 39.00792], [-96.83504, 39.00817], [-96.83511, 39.00817], [-96.83517, 39.00819], [-96.83526, 39.00823], [-96.8353, 39.00831], [-96.83531, 39.00839], [-96.8353, 39.00847], [-96.83524, 39.00856], [-96.83518, 39.00861], [-96.8351, 39.00864], [-96.83503, 39.00864], [-96.83502, 39.00896], [-96.83502, 39.00946], [-96.83498, 39.00963], [-96.83493, 39.00977], [-96.83484, 39.00993], [-96.83498, 39.01006], [-96.83501, 39.01019], [-96.83503, 39.01033], [-96.83503, 39.0104], [-96.83502, 39.01068], [-96.83502, 39.01109], [-96.83503, 39.01153], [-96.83506, 39.0121], [-96.83506, 39.01229], [-96.83509, 39.01296], [-96.83516, 39.01471], [-96.8352, 39.0157], [-96.83656, 39.01569], [-96.83713, 39.0157], [-96.83876, 39.01572], [-96.83904, 39.01571], [-96.83956, 39.0157], [-96.83989, 39.01565], [-96.84017, 39.01554], [-96.84021, 39.01552], [-96.8404, 39.01542], [-96.84057, 39.01538], [-96.84069, 39.01534], [-96.84101, 39.01531], [-96.84116, 39.01531], [-96.84238, 39.01532], [-96.8443, 39.01533], [-96.84489, 39.01534], [-96.8459, 39.01534], [-96.84649, 39.01535], [-96.84699, 39.01536], [-96.84882, 39.01539], [-96.84877, 39.01564], [-96.8488, 39.01631], [-96.84881, 39.01657], [-96.84881, 39.01702], [-96.84883, 39.01782], [-96.84881, 39.01856], [-96.84887, 39.01882], [-96.84898, 39.01902], [-96.84911, 39.01918], [-96.8492, 39.01931], [-96.84921, 39.01933], [-96.84927, 39.01949], [-96.84934, 39.02001], [-96.8494, 39.02078], [-96.84942, 39.02186], [-96.8495, 39.02221], [-96.84954, 39.02239], [-96.8496, 39.02262], [-96.84963, 39.02269], [-96.84967, 39.02284], [-96.84968, 39.02306], [-96.84967, 39.02315], [-96.84967, 39.02325], [-96.84962, 39.02344], [-96.8493, 39.02398], [-96.84923, 39.02433], [-96.84923, 39.02437], [-96.8492, 39.02474], [-96.8492, 39.02485], [-96.8492, 39.02536], [-96.84919, 39.02544], [-96.84919, 39.02599], [-96.84919, 39.0262], [-96.84931, 39.02619], [-96.84941, 39.02616], [-96.8495, 39.02611], [-96.84963, 39.02602], [-96.85025, 39.02532], [-96.85083, 39.02472], [-96.85146, 39.02407], [-96.85173, 39.02378], [-96.85184, 39.02367], [-96.85196, 39.02355], [-96.85236, 39.02326], [-96.85272, 39.02303], [-96.85327, 39.02276], [-96.85368, 39.02258], [-96.85389, 39.02252], [-96.85424, 39.02235], [-96.85508, 39.02193], [-96.85558, 39.0217], [-96.85588, 39.02154], [-96.85631, 39.02132], [-96.85641, 39.02126], [-96.85698, 39.02098], [-96.8571, 39.02088], [-96.85721, 39.0208], [-96.85732, 39.02071], [-96.85808, 39.01975], [-96.85815, 39.01967], [-96.8583, 39.01955], [-96.85838, 39.01948], [-96.85861, 39.01935], [-96.85895, 39.01926], [-96.85922, 39.0192], [-96.85945, 39.01918], [-96.8597, 39.01917], [-96.85978, 39.01917], [-96.86016, 39.01919], [-96.86068, 39.01921], [-96.86073, 39.01921], [-96.86217, 39.0192], [-96.86284, 39.0192], [-96.8628, 39.01858], [-96.86278, 39.01792], [-96.86281, 39.01731], [-96.86282, 39.0167], [-96.86281, 39.01553], [-96.86281, 39.01516], [-96.86279, 39.01334], [-96.86277, 39.01174], [-96.86277, 39.01157], [-96.86293, 39.01019], [-96.86309, 39.00908], [-96.86319, 39.00831], [-96.86322, 39.00817], [-96.86331, 39.00756], [-96.86359, 39.00565], [-96.86368, 39.00506], [-96.86371, 39.00466]]]}}, {"type": "Feature", "properties": {"tract_id": "20061000802", "name": "Census Tract 8.02", "pct_white_2020": 56.2, "pct_black_2020": 13.1, "pct_hispanic_2020": 15.7, "pct_asian_2020": 3.7, "population_2020": 4402}, "geometry": {"type": "Polygon", "coordinates": [[[-96.96367, 38.98129], [-96.96369, 38.98125], [-96.96367, 38.98058], [-96.96366, 38.98033], [-96.96366, 38.98021], [-96.9636, 38.97805], [-96.96357, 38.97506], [-96.96352, 38.9746], [-96.96351, 38.97457], [-96.9635, 38.97452], [-96.96344, 38.97424], [-96.96335, 38.97343], [-96.96335, 38.97339], [-96.96349, 38.96515], [-96.96349, 38.9651], [-96.96348, 38.96501], [-96.96347, 38.96492], [-96.96347, 38.9649], [-96.96315, 38.96496], [-96.9627, 38.96505], [-96.9621, 38.96517], [-96.96029, 38.96572], [-96.95767, 38.96678], [-96.95753, 38.96685], [-96.95653, 38.96737], [-96.95649, 38.96739], [-96.95574, 38.96785], [-96.95524, 38.96815], [-96.95519, 38.96819], [-96.95492, 38.96837], [-96.9546, 38.96854], [-96.9533, 38.96921], [-96.95247, 38.96971], [-96.95237, 38.96978], [-96.95226, 38.96984], [-96.95189, 38.9701], [-96.95169, 38.97028], [-96.95121, 38.97053], [-96.95086, 38.9708], [-96.95053, 38.97105], [-96.95046, 38.97114], [-96.95039, 38.97127], [-96.95035, 38.97146], [-96.9503, 38.97167], [-96.95024, 38.97191], [-96.95013, 38.97204], [-96.95008, 38.97235], [-96.95012, 38.97254], [-96.95015, 38.97296], [-96.95038, 38.97321], [-96.95129, 38.97383], [-96.95132, 38.97403], [-96.95133, 38.97422], [-96.95134, 38.97433], [-96.95134, 38.97444], [-96.95137, 38.97496], [-96.95132, 38.97569], [-96.95119, 38.97591], [-96.95086, 38.97646], [-96.95061, 38.97675], [-96.95006, 38.97689], [-96.94965, 38.97695], [-96.94906, 38.97697], [-96.94777, 38.97685], [-96.94689, 38.97644], [-96.94665, 38.97602], [-96.94623, 38.97485], [-96.94645, 38.97426], [-96.94706, 38.97366], [-96.94744, 38.97358], [-96.94794, 38.97314], [-96.94803, 38.97306], [-96.94805, 38.97302], [-96.94811, 38.97278], [-96.94821, 38.97247], [-96.94865, 38.97227], [-96.9488, 38.97185], [-96.94876, 38.97157], [-96.94858, 38.97124], [-96.94813, 38.97086], [-96.94793, 38.97074], [-96.94763, 38.9706], [-96.94734, 38.97057], [-96.94694, 38.97067], [-96.94681, 38.97069], [-96.94612, 38.97097], [-96.94588, 38.97105], [-96.94552, 38.97128], [-96.94542, 38.97139], [-96.94531, 38.97148], [-96.94521, 38.97163], [-96.9452, 38.97172], [-96.94513, 38.97194], [-96.94512, 38.97212], [-96.94483, 38.97229], [-96.94468, 38.97244], [-96.94371, 38.97334], [-96.9429, 38.97409], [-96.94269, 38.97428], [-96.94261, 38.9744], [-96.94159, 38.97552], [-96.94119, 38.9762], [-96.94112, 38.97623], [-96.94092, 38.97634], [-96.94085, 38.97636], [-96.94068, 38.9764], [-96.94037, 38.97646], [-96.94001, 38.97664], [-96.93973, 38.97672], [-96.93937, 38.97677], [-96.93908, 38.97662], [-96.9388, 38.97643], [-96.93862, 38.97625], [-96.93842, 38.97613], [-96.93813, 38.9756], [-96.93797, 38.97485], [-96.93791, 38.97452], [-96.93783, 38.97413], [-96.9376, 38.97341], [-96.93755, 38.97335], [-96.93727, 38.97303], [-96.93697, 38.97277], [-96.93676, 38.97259], [-96.93668, 38.97248], [-96.93637, 38.97247], [-96.93607, 38.97246], [-96.93597, 38.97246], [-96.9359, 38.97246], [-96.93579, 38.97245], [-96.93574, 38.97245], [-96.93565, 38.97252], [-96.93558, 38.97255], [-96.9355, 38.97258], [-96.93486, 38.97281], [-96.93418, 38.97283], [-96.93401, 38.97281], [-96.93358, 38.97277], [-96.93283, 38.97286], [-96.93279, 38.9729], [-96.93264, 38.97304], [-96.9325, 38.97318], [-96.93229, 38.97337], [-96.93161, 38.97399], [-96.93123, 38.97462], [-96.9312, 38.97477], [-96.93107, 38.97545], [-96.9313, 38.9761], [-96.93183, 38.9764], [-96.93272, 38.97644], [-96.93365, 38.9762], [-96.9343, 38.97608], [-96.93504, 38.97618], [-96.93529, 38.9767], [-96.9352, 38.97729], [-96.93442, 38.9782], [-96.9339, 38.97834], [-96.93385, 38.97854], [-96.93348, 38.97855], [-96.93343, 38.97855], [-96.9328, 38.97848], [-96.93228, 38.97841], [-96.93153, 38.97837], [-96.93141, 38.97836], [-96.93125, 38.97835], [-96.93104, 38.97834], [-96.93039, 38.97844], [-96.92883, 38.97852], [-96.92839, 38.97854], [-96.92827, 38.97854], [-96.9277, 38.97857], [-96.92747, 38.97858], [-96.92724, 38.97858], [-96.92711, 38.97863], [-96.92621, 38.97894], [-96.92621, 38.97888], [-96.92621, 38.97885], [-96.9262, 38.97869], [-96.92616, 38.97505], [-96.92615, 38.97452], [-96.92618, 38.97452], [-96.92642, 38.97442], [-96.92657, 38.97432], [-96.92669, 38.97424], [-96.92694, 38.97408], [-96.92736, 38.97398], [-96.92756, 38.9738], [-96.92767, 38.97375], [-96.92779, 38.9737], [-96.9279, 38.97366], [-96.92802, 38.97361], [-96.92813, 38.97354], [-96.92795, 38.97236], [-96.92791, 38.97223], [-96.92798, 38.97144], [-96.92788, 38.97093], [-96.92782, 38.97092], [-96.92721, 38.97057], [-96.92653, 38.9703], [-96.92628, 38.97019], [-96.92628, 38.97], [-96.92626, 38.9672], [-96.92628, 38.96527], [-96.9263, 38.96471], [-96.92632, 38.96414], [-96.92635, 38.96003], [-96.92639, 38.95787], [-96.92639, 38.95781], [-96.92639, 38.95762], [-96.92639, 38.95754], [-96.92638, 38.95634], [-96.92638, 38.95612], [-96.92643, 38.94919], [-96.92643, 38.94804], [-96.92647, 38.94306], [-96.92646, 38.94105], [-96.92645, 38.94], [-96.92648, 38.93842], [-96.9265, 38.93751], [-96.92648, 38.93591], [-96.92648, 38.93553], [-96.92647, 38.93442], [-96.9265, 38.93241], [-96.9265, 38.92852], [-96.9265, 38.927], [-96.9265, 38.92655], [-96.92651, 38.92451], [-96.92649, 38.92248], [-96.92649, 38.92045], [-96.92651, 38.91845], [-96.92653, 38.91761], [-96.92654, 38.91656], [-96.92655, 38.91472], [-96.92656, 38.91394], [-96.92658, 38.91327], [-96.92659, 38.91287], [-96.92658, 38.9109], [-96.92659, 38.90894], [-96.92654, 38.90595], [-96.92655, 38.90522], [-96.92655, 38.90493], [-96.92659, 38.90399], [-96.92647, 38.9038], [-96.92643, 38.90374], [-96.92642, 38.90373], [-96.92646, 38.9027], [-96.92659, 38.90245], [-96.92656, 38.9011], [-96.92659, 38.89973], [-96.92659, 38.89947], [-96.92657, 38.8987], [-96.92656, 38.89837], [-96.92658, 38.8982], [-96.92659, 38.89674], [-96.92654, 38.89543], [-96.92654, 38.89454], [-96.92661, 38.89388], [-96.92661, 38.89326], [-96.92666, 38.89313], [-96.92669, 38.89308], [-96.92678, 38.89304], [-96.9268, 38.89269], [-96.92684, 38.89226], [-96.92679, 38.89225], [-96.92672, 38.89221], [-96.92661, 38.89209], [-96.92657, 38.89197], [-96.92659, 38.89074], [-96.92661, 38.88938], [-96.92664, 38.88916], [-96.92674, 38.88907], [-96.9268, 38.88904], [-96.92678, 38.88809], [-96.92664, 38.88726], [-96.92665, 38.88714], [-96.92659, 38.88677], [-96.92658, 38.88547], [-96.9266, 38.88486], [-96.92658, 38.88472], [-96.92662, 38.8827], [-96.92668, 38.87711], [-96.92667, 38.8768], [-96.92665, 38.87613], [-96.92656, 38.87555], [-96.92646, 38.87529], [-96.9265, 38.87523], [-96.9266, 38.87504], [-96.92665, 38.87494], [-96.92663, 38.87447], [-96.92664, 38.87407], [-96.92665, 38.87348], [-96.92668, 38.87227], [-96.92669, 38.87137], [-96.92671, 38.87046], [-96.92671, 38.87035], [-96.92249, 38.8704], [-96.92166, 38.8704], [-96.92142, 38.87039], [-96.92138, 38.87039], [-96.92133, 38.87039], [-96.91985, 38.87034], [-96.91976, 38.87034], [-96.91967, 38.87034], [-96.91956, 38.87033], [-96.91724, 38.87032], [-96.91716, 38.87032], [-96.91707, 38.87032], [-96.91697, 38.87032], [-96.90532, 38.87028], [-96.90283, 38.87025], [-96.90259, 38.87025], [-96.90205, 38.87025], [-96.9019, 38.87025], [-96.90176, 38.87025], [-96.89898, 38.87026], [-96.89888, 38.87025], [-96.89835, 38.87015], [-96.89739, 38.86997], [-96.89704, 38.87], [-96.89684, 38.87001], [-96.89667, 38.87002], [-96.89597, 38.87004], [-96.89535, 38.8701], [-96.89497, 38.87013], [-96.89472, 38.87009], [-96.89469, 38.87004], [-96.89452, 38.87023], [-96.89448, 38.87025], [-96.8935, 38.87028], [-96.89311, 38.87028], [-96.89272, 38.87027], [-96.89257, 38.87022], [-96.89192, 38.87016], [-96.8918, 38.87014], [-96.89168, 38.87011], [-96.89126, 38.87005], [-96.89036, 38.87007], [-96.89024, 38.87007], [-96.89007, 38.87007], [-96.8874, 38.87008], [-96.88729, 38.87008], [-96.88711, 38.87008], [-96.88707, 38.87008], [-96.88703, 38.87008], [-96.88698, 38.87008], [-96.8869, 38.87008], [-96.88677, 38.87008], [-96.88673, 38.87008], [-96.88506, 38.87008], [-96.87931, 38.87002], [-96.87135, 38.87002], [-96.86913, 38.86999], [-96.86127, 38.86999], [-96.85488, 38.86992], [-96.85302, 38.86996], [-96.85304, 38.87501], [-96.85305, 38.8764], [-96.85306, 38.87841], [-96.85305, 38.88241], [-96.85306, 38.8846], [-96.85306, 38.88572], [-96.85308, 38.88741], [-96.85308, 38.88942], [-96.85309, 38.89131], [-96.8531, 38.89142], [-96.85309, 38.89346], [-96.85309, 38.89422], [-96.85311, 38.89776], [-96.85311, 38.89778], [-96.85312, 38.89945], [-96.85312, 38.89953], [-96.85311, 38.90156], [-96.85312, 38.90341], [-96.85312, 38.90621], [-96.85313, 38.90757], [-96.85313, 38.90779], [-96.85311, 38.91162], [-96.85318, 38.91969], [-96.85328, 38.92681], [-96.85322, 38.93404], [-96.85323, 38.93791], [-96.85325, 38.93839], [-96.8533, 38.93881], [-96.85339, 38.93925], [-96.85362, 38.93998], [-96.85382, 38.94047], [-96.85411, 38.94105], [-96.85445, 38.94165], [-96.8556, 38.94354], [-96.85631, 38.94473], [-96.85666, 38.94533], [-96.85669, 38.94541], [-96.85685, 38.94576], [-96.85735, 38.94681], [-96.85745, 38.94705], [-96.85756, 38.94733], [-96.85768, 38.94772], [-96.85796, 38.94863], [-96.85805, 38.94903], [-96.85806, 38.94911], [-96.85809, 38.94919], [-96.85814, 38.94945], [-96.85827, 38.95025], [-96.85832, 38.95087], [-96.85834, 38.95134], [-96.85833, 38.95225], [-96.85828, 38.95284], [-96.8582, 38.95349], [-96.85814, 38.95393], [-96.85807, 38.95428], [-96.85791, 38.95491], [-96.85777, 38.95539], [-96.85761, 38.95593], [-96.85718, 38.95697], [-96.85707, 38.9572], [-96.85655, 38.95826], [-96.85635, 38.95877], [-96.85628, 38.95895], [-96.85618, 38.95927], [-96.85613, 38.95951], [-96.85608, 38.95983], [-96.85605, 38.96019], [-96.85606, 38.96053], [-96.85607, 38.96077], [-96.85614, 38.96133], [-96.85633, 38.96209], [-96.85707, 38.96482], [-96.85729, 38.96571], [-96.85734, 38.96608], [-96.85736, 38.96639], [-96.85737, 38.96663], [-96.85739, 38.96716], [-96.85735, 38.96961], [-96.85734, 38.97035], [-96.85724, 38.97483], [-96.85717, 38.97708], [-96.85711, 38.97861], [-96.85711, 38.97896], [-96.85711, 38.9792], [-96.85711, 38.97935], [-96.85709, 38.98037], [-96.85709, 38.98143], [-96.85705, 38.98371], [-96.85702, 38.98525], [-96.85701, 38.98574], [-96.857, 38.98608], [-96.85699, 38.98636], [-96.85691, 38.98869], [-96.85689, 38.99058], [-96.85691, 38.99073], [-96.85714, 38.99197], [-96.85731, 38.99257], [-96.85764, 38.99331], [-96.85795, 38.99388], [-96.85868, 38.99499], [-96.85912, 38.99561], [-96.85915, 38.99565], [-96.8594, 38.99601], [-96.85974, 38.99651], [-96.86016, 38.99709], [-96.86037, 38.99733], [-96.86058, 38.99776], [-96.86079, 38.99812], [-96.86093, 38.99839], [-96.86114, 38.9987], [-96.86126, 38.99897], [-96.86144, 38.99931], [-96.86157, 38.99955], [-96.86181, 39.0], [-96.86189, 39.00012], [-96.86228, 39.00077], [-96.86234, 39.00087], [-96.8631, 39.0022], [-96.86348, 39.00314], [-96.8636, 39.00355], [-96.86363, 39.00367], [-96.86369, 39.00421], [-96.86371, 39.00466], [-96.86368, 39.00506], [-96.86359, 39.00565], [-96.86331, 39.00756], [-96.86322, 39.00817], [-96.86319, 39.00831], [-96.86309, 39.00908], [-96.86293, 39.01019], [-96.86277, 39.01157], [-96.86277, 39.01174], [-96.86279, 39.01334], [-96.86281, 39.01516], [-96.86281, 39.01553], [-96.86307, 39.01551], [-96.86346, 39.01549], [-96.86355, 39.01548], [-96.86397, 39.01543], [-96.86401, 39.01543], [-96.86412, 39.01543], [-96.86467, 39.01543], [-96.86529, 39.01543], [-96.86584, 39.01543], [-96.86625, 39.01543], [-96.8665, 39.01543], [-96.86674, 39.01543], [-96.86684, 39.01542], [-96.867, 39.01542], [-96.86749, 39.0154], [-96.86761, 39.01542], [-96.86804, 39.01546], [-96.86838, 39.01556], [-96.86874, 39.01561], [-96.86917, 39.01562], [-96.86988, 39.01564], [-96.87073, 39.01566], [-96.87138, 39.01564], [-96.87189, 39.01558], [-96.87243, 39.01558], [-96.87265, 39.01558], [-96.87313, 39.01558], [-96.87385, 39.01558], [-96.87438, 39.01557], [-96.87479, 39.01557], [-96.87522, 39.01558], [-96.87639, 39.01558], [-96.87715, 39.01559], [-96.87756, 39.01559], [-96.87789, 39.0156], [-96.8781, 39.0156], [-96.8783, 39.0156], [-96.87839, 39.0156], [-96.87888, 39.0156], [-96.87952, 39.0156], [-96.88015, 39.0156], [-96.8812, 39.0156], [-96.88138, 39.0156], [-96.8824, 39.01559], [-96.8825, 39.01559], [-96.88356, 39.0156], [-96.88394, 39.0156], [-96.88437, 39.0156], [-96.88528, 39.0156], [-96.8859, 39.01561], [-96.88638, 39.01561], [-96.88656, 39.01561], [-96.88845, 39.0156], [-96.89111, 39.01559], [-96.89113, 39.01696], [-96.89116, 39.01986], [-96.89116, 39.02101], [-96.89116, 39.02123], [-96.89117, 39.02179], [-96.89117, 39.02197], [-96.89117, 39.02258], [-96.89117, 39.02298], [-96.89119, 39.0247], [-96.89119, 39.02494], [-96.89118, 39.02707], [-96.89123, 39.02949], [-96.8912, 39.03016], [-96.89105, 39.03106], [-96.88983, 39.03746], [-96.8889, 39.04237], [-96.8886, 39.04384], [-96.88848, 39.04452], [-96.88847, 39.04465], [-96.88596, 39.04462], [-96.88502, 39.04462], [-96.88365, 39.04462], [-96.88272, 39.04462], [-96.88257, 39.04462], [-96.88143, 39.04461], [-96.88024, 39.04461], [-96.87917, 39.0446], [-96.87861, 39.0446], [-96.87713, 39.04459], [-96.87671, 39.04459], [-96.87652, 39.04459], [-96.87486, 39.04458], [-96.8735, 39.04456], [-96.87326, 39.04456], [-96.8701, 39.04455], [-96.86982, 39.04455], [-96.86926, 39.04454], [-96.86933, 39.04487], [-96.86939, 39.04531], [-96.86948, 39.04597], [-96.86949, 39.04691], [-96.86943, 39.04824], [-96.86929, 39.04966], [-96.8691, 39.05144], [-96.86884, 39.05377], [-96.86866, 39.05545], [-96.86859, 39.05613], [-96.86839, 39.058], [-96.86807, 39.06091], [-96.868, 39.06168], [-96.8679, 39.06253], [-96.86783, 39.06319], [-96.8678, 39.06363], [-96.86778, 39.06381], [-96.86776, 39.06392], [-96.86773, 39.06419], [-96.86761, 39.0652], [-96.86755, 39.06587], [-96.86745, 39.06675], [-96.86725, 39.06854], [-96.86706, 39.07044], [-96.86704, 39.0706], [-96.86701, 39.07085], [-96.867, 39.07102], [-96.86695, 39.07144], [-96.86692, 39.07176], [-96.86669, 39.07393], [-96.86666, 39.07414], [-96.8664, 39.07666], [-96.86637, 39.07693], [-96.86633, 39.07731], [-96.86619, 39.07866], [-96.86608, 39.0797], [-96.86602, 39.08017], [-96.86597, 39.08065], [-96.86581, 39.08207], [-96.86576, 39.08253], [-96.86562, 39.08389], [-96.86541, 39.08575], [-96.86522, 39.08763], [-96.86501, 39.08939], [-96.86481, 39.0917], [-96.86481, 39.09212], [-96.86445, 39.09218], [-96.86428, 39.09222], [-96.86407, 39.09229], [-96.86396, 39.09235], [-96.86383, 39.09246], [-96.86378, 39.09252], [-96.86361, 39.09276], [-96.86342, 39.09305], [-96.86322, 39.09334], [-96.86259, 39.09422], [-96.86216, 39.09469], [-96.86142, 39.09547], [-96.86076, 39.09605], [-96.86035, 39.09637], [-96.86027, 39.09644], [-96.86022, 39.09648], [-96.85933, 39.09716], [-96.85824, 39.09795], [-96.85664, 39.09912], [-96.85598, 39.09961], [-96.85512, 39.10023], [-96.85464, 39.10058], [-96.85444, 39.10073], [-96.85366, 39.10132], [-96.85254, 39.10213], [-96.85161, 39.10281], [-96.85097, 39.10327], [-96.8508, 39.1034], [-96.85056, 39.10357], [-96.84962, 39.10428], [-96.84915, 39.10463], [-96.84909, 39.10467], [-96.84793, 39.10565], [-96.84747, 39.10609], [-96.84704, 39.10651], [-96.84667, 39.10689], [-96.84637, 39.10675], [-96.84614, 39.10705], [-96.84592, 39.10733], [-96.84572, 39.10759], [-96.84548, 39.10792], [-96.84529, 39.10817], [-96.84515, 39.10835], [-96.845, 39.10855], [-96.84484, 39.10876], [-96.84465, 39.10901], [-96.84455, 39.10915], [-96.84438, 39.10936], [-96.84427, 39.1095], [-96.84415, 39.10968], [-96.84404, 39.10982], [-96.84392, 39.10998], [-96.84385, 39.11007], [-96.84373, 39.11022], [-96.84362, 39.11037], [-96.84347, 39.11057], [-96.84338, 39.11069], [-96.84327, 39.11084], [-96.84319, 39.11093], [-96.8431, 39.11106], [-96.84303, 39.11115], [-96.84293, 39.11128], [-96.84285, 39.11139], [-96.84277, 39.11149], [-96.84269, 39.1116], [-96.84261, 39.11171], [-96.84248, 39.11187], [-96.8424, 39.11199], [-96.84225, 39.11219], [-96.84212, 39.11235], [-96.84202, 39.11249], [-96.84192, 39.11262], [-96.84174, 39.11286], [-96.84164, 39.11298], [-96.84156, 39.11308], [-96.84146, 39.11322], [-96.84135, 39.11337], [-96.84122, 39.11354], [-96.8411, 39.11369], [-96.841, 39.11383], [-96.84078, 39.11411], [-96.84064, 39.11431], [-96.84051, 39.11448], [-96.84037, 39.11465], [-96.84028, 39.11477], [-96.83998, 39.11517], [-96.83977, 39.11546], [-96.83972, 39.11551], [-96.83967, 39.11558], [-96.83962, 39.11565], [-96.83957, 39.11572], [-96.83949, 39.11582], [-96.83762, 39.11681], [-96.83267, 39.11942], [-96.83224, 39.11965], [-96.83224, 39.1211], [-96.83224, 39.12669], [-96.83224, 39.12672], [-96.83219, 39.12709], [-96.83205, 39.12812], [-96.83168, 39.12941], [-96.83126, 39.13111], [-96.8312, 39.13154], [-96.83115, 39.13185], [-96.83114, 39.13195], [-96.83113, 39.13205], [-96.83111, 39.13213], [-96.83106, 39.13271], [-96.83097, 39.13549], [-96.83097, 39.13814], [-96.83098, 39.13923], [-96.83195, 39.13925], [-96.83313, 39.13927], [-96.83556, 39.13924], [-96.83649, 39.13925], [-96.83964, 39.1393], [-96.84004, 39.13929], [-96.8403, 39.13926], [-96.84042, 39.13925], [-96.84044, 39.13924], [-96.84067, 39.13921], [-96.84126, 39.13917], [-96.84603, 39.13926], [-96.84606, 39.13926], [-96.84967, 39.13928], [-96.84968, 39.14075], [-96.84967, 39.14201], [-96.84974, 39.14534], [-96.84977, 39.14622], [-96.84977, 39.14648], [-96.84978, 39.14678], [-96.84979, 39.14728], [-96.8498, 39.14761], [-96.84981, 39.14802], [-96.84979, 39.14824], [-96.84981, 39.14906], [-96.84985, 39.14958], [-96.84986, 39.14962], [-96.84988, 39.15017], [-96.84989, 39.15143], [-96.84989, 39.15145], [-96.84985, 39.15295], [-96.84985, 39.15387], [-96.84985, 39.15401], [-96.84984, 39.15527], [-96.84983, 39.158], [-96.84982, 39.15858], [-96.8498, 39.16109], [-96.84976, 39.162], [-96.84974, 39.16244], [-96.84964, 39.16437], [-96.8496, 39.16603], [-96.84956, 39.16841], [-96.84959, 39.17131], [-96.8496, 39.17459], [-96.84961, 39.17561], [-96.84961, 39.17596], [-96.84962, 39.17652], [-96.84965, 39.18134], [-96.84967, 39.18238], [-96.84975, 39.18336], [-96.84975, 39.18404], [-96.84975, 39.18428], [-96.84974, 39.18486], [-96.84977, 39.18651], [-96.84981, 39.18713], [-96.84983, 39.18763], [-96.84989, 39.18952], [-96.84988, 39.18969], [-96.84987, 39.19007], [-96.84985, 39.19036], [-96.84986, 39.19037], [-96.84981, 39.191], [-96.84975, 39.19179], [-96.84975, 39.19181], [-96.84974, 39.19318], [-96.84979, 39.19513], [-96.84979, 39.19686], [-96.84979, 39.19687], [-96.8498, 39.20055], [-96.8498, 39.20091], [-96.8498, 39.20149], [-96.84979, 39.20152], [-96.84978, 39.20163], [-96.84978, 39.20165], [-96.84981, 39.20276], [-96.84982, 39.20327], [-96.84986, 39.20789], [-96.84985, 39.2079], [-96.84988, 39.20911], [-96.84988, 39.20942], [-96.84984, 39.21233], [-96.84986, 39.21555], [-96.84988, 39.21854], [-96.84988, 39.21901], [-96.85192, 39.21902], [-96.85394, 39.21904], [-96.85939, 39.21909], [-96.86501, 39.21916], [-96.86612, 39.21917], [-96.8679, 39.2192], [-96.87128, 39.21923], [-96.87131, 39.21923], [-96.87166, 39.21923], [-96.87203, 39.21923], [-96.87596, 39.21924], [-96.87714, 39.21925], [-96.87836, 39.21926], [-96.88122, 39.21928], [-96.8859, 39.21935], [-96.88722, 39.21936], [-96.88725, 39.21936], [-96.88826, 39.21937], [-96.88865, 39.21937], [-96.89596, 39.21937], [-96.89642, 39.21937], [-96.89721, 39.21937], [-96.89764, 39.21937], [-96.89959, 39.21936], [-96.89961, 39.21936], [-96.90013, 39.21936], [-96.90062, 39.21936], [-96.90191, 39.21935], [-96.90282, 39.21936], [-96.9031, 39.21937], [-96.90326, 39.21938], [-96.90336, 39.2194], [-96.9039, 39.21941], [-96.90554, 39.21942], [-96.90568, 39.21942], [-96.90583, 39.21942], [-96.90626, 39.21943], [-96.90681, 39.21943], [-96.90723, 39.21944], [-96.9077, 39.21944], [-96.90825, 39.21945], [-96.90848, 39.21945], [-96.90907, 39.21946], [-96.90984, 39.21947], [-96.91043, 39.21948], [-96.91051, 39.21948], [-96.91077, 39.21948], [-96.91119, 39.21949], [-96.91157, 39.21949], [-96.91199, 39.2195], [-96.91259, 39.21951], [-96.91284, 39.21951], [-96.91335, 39.21952], [-96.91379, 39.21952], [-96.91409, 39.21953], [-96.9143, 39.21953], [-96.91464, 39.21954], [-96.91523, 39.21954], [-96.91591, 39.21955], [-96.91659, 39.21956], [-96.91748, 39.21957], [-96.91871, 39.21959], [-96.92004, 39.21961], [-96.92135, 39.21962], [-96.92407, 39.21966], [-96.92425, 39.21966], [-96.92742, 39.21973], [-96.92883, 39.21976], [-96.92946, 39.21978], [-96.93305, 39.21986], [-96.93355, 39.21986], [-96.93409, 39.21986], [-96.93421, 39.21982], [-96.93459, 39.21974], [-96.93667, 39.21981], [-96.93908, 39.21989], [-96.94131, 39.21996], [-96.94133, 39.21996], [-96.94304, 39.22002], [-96.94318, 39.22003], [-96.94324, 39.22003], [-96.94485, 39.22007], [-96.94527, 39.22009], [-96.94547, 39.2201], [-96.94571, 39.22011], [-96.94594, 39.22012], [-96.94598, 39.22012], [-96.94702, 39.22015], [-96.94705, 39.22015], [-96.94788, 39.22016], [-96.95054, 39.22006], [-96.95249, 39.22001], [-96.9542, 39.22001], [-96.95657, 39.22003], [-96.96139, 39.22007], [-96.96169, 39.22008], [-96.96161, 39.21691], [-96.96145, 39.21054], [-96.96141, 39.21005], [-96.96138, 39.20976], [-96.96133, 39.20923], [-96.96128, 39.20863], [-96.96125, 39.20828], [-96.96119, 39.20769], [-96.96111, 39.20239], [-96.96103, 39.1971], [-96.96102, 39.19644], [-96.96101, 39.19577], [-96.96092, 39.19035], [-96.96084, 39.18493], [-96.96084, 39.18471], [-96.96085, 39.18184], [-96.96085, 39.18177], [-96.96086, 39.17645], [-96.96087, 39.17641], [-96.96087, 39.17591], [-96.96087, 39.17573], [-96.96094, 39.17012], [-96.96094, 39.16999], [-96.96096, 39.16864], [-96.96097, 39.16847], [-96.961, 39.16631], [-96.961, 39.16607], [-96.96107, 39.16132], [-96.96107, 39.16127], [-96.96115, 39.16024], [-96.96115, 39.1602], [-96.96114, 39.16004], [-96.96112, 39.15971], [-96.96115, 39.15768], [-96.96115, 39.15719], [-96.96122, 39.15112], [-96.96122, 39.1508], [-96.96122, 39.15065], [-96.96123, 39.15017], [-96.96123, 39.14974], [-96.96127, 39.14682], [-96.96127, 39.14463], [-96.96128, 39.14384], [-96.96129, 39.14378], [-96.96131, 39.1437], [-96.96131, 39.14349], [-96.96133, 39.14127], [-96.96134, 39.13974], [-96.96138, 39.13233], [-96.96318, 39.1323], [-96.96318, 39.13224], [-96.96319, 39.13086], [-96.96316, 39.13001], [-96.96318, 39.12965], [-96.96317, 39.12902], [-96.96317, 39.12873], [-96.96317, 39.12852], [-96.96316, 39.12828], [-96.96316, 39.12823], [-96.96309, 39.12507], [-96.96309, 39.12502], [-96.96309, 39.12497], [-96.96306, 39.12155], [-96.96304, 39.12096], [-96.96301, 39.11965], [-96.96301, 39.11946], [-96.96301, 39.11804], [-96.96301, 39.11783], [-96.96298, 39.11578], [-96.96295, 39.11074], [-96.96294, 39.10954], [-96.96295, 39.10753], [-96.96293, 39.10668], [-96.9629, 39.10534], [-96.963, 39.10492], [-96.96318, 39.10453], [-96.96309, 39.10437], [-96.96308, 39.10393], [-96.96307, 39.10325], [-96.96302, 39.10304], [-96.96299, 39.10276], [-96.96295, 39.10251], [-96.96294, 39.10022], [-96.96293, 39.09919], [-96.96296, 39.09831], [-96.96296, 39.09795], [-96.96311, 39.09165], [-96.96313, 39.09063], [-96.96314, 39.08961], [-96.96314, 39.08952], [-96.96317, 39.08766], [-96.96297, 39.08691], [-96.96287, 39.08654], [-96.96288, 39.08628], [-96.96287, 39.08607], [-96.96287, 39.08585], [-96.96285, 39.08526], [-96.96287, 39.08059], [-96.96288, 39.07905], [-96.96292, 39.07719], [-96.96293, 39.07659], [-96.9629, 39.07568], [-96.96289, 39.07525], [-96.96289, 39.07456], [-96.96289, 39.07434], [-96.96289, 39.07421], [-96.96289, 39.07383], [-96.96291, 39.07223], [-96.9629, 39.07043], [-96.9629, 39.06848], [-96.96291, 39.06758], [-96.96292, 39.0672], [-96.96292, 39.06485], [-96.96294, 39.06307], [-96.96296, 39.0598], [-96.96296, 39.05509], [-96.96295, 39.05451], [-96.96294, 39.0543], [-96.9629, 39.05417], [-96.96289, 39.05391], [-96.96294, 39.05235], [-96.96295, 39.05186], [-96.96294, 39.05156], [-96.96294, 39.05155], [-96.96294, 39.05117], [-96.96294, 39.05101], [-96.96296, 39.05053], [-96.96296, 39.05006], [-96.96296, 39.0499], [-96.963, 39.04888], [-96.963, 39.04887], [-96.963, 39.04863], [-96.96304, 39.04666], [-96.96303, 39.04526], [-96.96303, 39.0451], [-96.96305, 39.04077], [-96.96308, 39.03933], [-96.96308, 39.03918], [-96.96309, 39.03897], [-96.96311, 39.03804], [-96.96312, 39.03616], [-96.96312, 39.03604], [-96.96315, 39.03488], [-96.96315, 39.03172], [-96.96316, 39.03086], [-96.96321, 39.02604], [-96.96319, 39.02496], [-96.9632, 39.02366], [-96.96319, 39.02283], [-96.96318, 39.02203], [-96.96318, 39.02054], [-96.96322, 39.01823], [-96.96324, 39.01677], [-96.96324, 39.01621], [-96.96326, 39.01464], [-96.96326, 39.01313], [-96.96328, 39.01179], [-96.96328, 39.01031], [-96.96329, 39.0093], [-96.96331, 39.00742], [-96.96333, 39.00685], [-96.96343, 39.00169], [-96.96344, 39.0], [-96.96344, 38.9996], [-96.96345, 38.99801], [-96.96345, 38.99529], [-96.96346, 38.99445], [-96.96346, 38.9942], [-96.96348, 38.99255], [-96.96348, 38.99144], [-96.96352, 38.98932], [-96.96353, 38.98844], [-96.96354, 38.98788], [-96.96356, 38.98737], [-96.96357, 38.98721], [-96.96357, 38.98711], [-96.96354, 38.98619], [-96.96355, 38.98611], [-96.96355, 38.98604], [-96.96355, 38.98541], [-96.96355, 38.98491], [-96.96353, 38.98196], [-96.96356, 38.98171], [-96.96361, 38.98149], [-96.96367, 38.98129]]]}}, {"type": "Feature", "properties": {"tract_id": "20061000601", "name": "Census Tract 6.01", "pct_white_2020": 54.0, "pct_black_2020": 13.5, "pct_hispanic_2020": 24.1, "pct_asian_2020": 4.9, "population_2020": 5721}, "geometry": {"type": "Polygon", "coordinates": [[[-96.86695, 39.07144], [-96.867, 39.07102], [-96.8669, 39.071], [-96.86649, 39.07084], [-96.8656, 39.07062], [-96.86453, 39.07009], [-96.86267, 39.06944], [-96.86139, 39.06903], [-96.86035, 39.06898], [-96.85948, 39.06903], [-96.85891, 39.06906], [-96.85866, 39.06902], [-96.85819, 39.06893], [-96.85761, 39.06859], [-96.85709, 39.06801], [-96.85678, 39.06724], [-96.85628, 39.06611], [-96.85578, 39.06523], [-96.85524, 39.0649], [-96.8546, 39.06435], [-96.85413, 39.06362], [-96.85246, 39.06258], [-96.84995, 39.06226], [-96.84824, 39.06185], [-96.8478, 39.06152], [-96.8468, 39.06072], [-96.84644, 39.05977], [-96.84623, 39.05867], [-96.84554, 39.05706], [-96.84524, 39.05688], [-96.84521, 39.05687], [-96.8449, 39.05667], [-96.84396, 39.05634], [-96.84364, 39.05632], [-96.84332, 39.05617], [-96.84298, 39.05608], [-96.84192, 39.05581], [-96.84136, 39.05576], [-96.84069, 39.05591], [-96.84008, 39.05597], [-96.83977, 39.056], [-96.83865, 39.05595], [-96.83824, 39.05572], [-96.83752, 39.05521], [-96.83719, 39.05483], [-96.83678, 39.05449], [-96.83664, 39.05434], [-96.83648, 39.054], [-96.83616, 39.0537], [-96.83602, 39.05332], [-96.83604, 39.05286], [-96.83623, 39.05242], [-96.83625, 39.05182], [-96.83644, 39.05131], [-96.83665, 39.05076], [-96.8367, 39.05044], [-96.83663, 39.05013], [-96.8362, 39.04954], [-96.83635, 39.04948], [-96.83645, 39.04945], [-96.83642, 39.04933], [-96.83632, 39.04902], [-96.83624, 39.04885], [-96.8362, 39.04879], [-96.83596, 39.04831], [-96.83582, 39.04802], [-96.83574, 39.04789], [-96.8355, 39.04773], [-96.83523, 39.04754], [-96.8348, 39.04703], [-96.83424, 39.04642], [-96.83413, 39.04633], [-96.834, 39.04627], [-96.83319, 39.04623], [-96.83278, 39.04606], [-96.83236, 39.04587], [-96.83216, 39.04573], [-96.83171, 39.04535], [-96.83129, 39.04487], [-96.83063, 39.04408], [-96.83055, 39.04399], [-96.83048, 39.04388], [-96.83045, 39.04382], [-96.83023, 39.0437], [-96.83019, 39.04368], [-96.82996, 39.04345], [-96.82989, 39.04338], [-96.82961, 39.04328], [-96.82933, 39.04312], [-96.82932, 39.04314], [-96.82932, 39.04315], [-96.8293, 39.04321], [-96.82926, 39.04342], [-96.82872, 39.04341], [-96.8278, 39.0433], [-96.82697, 39.04339], [-96.82623, 39.0436], [-96.82503, 39.04408], [-96.82445, 39.04452], [-96.8244, 39.04454], [-96.82436, 39.04459], [-96.82381, 39.045], [-96.82318, 39.04562], [-96.82282, 39.04604], [-96.82259, 39.04666], [-96.8224, 39.04698], [-96.8221, 39.04726], [-96.82153, 39.04769], [-96.82093, 39.04803], [-96.82068, 39.04829], [-96.81994, 39.04986], [-96.81983, 39.0501], [-96.81961, 39.05086], [-96.81953, 39.05136], [-96.81951, 39.05229], [-96.81936, 39.05328], [-96.81905, 39.05458], [-96.81902, 39.05464], [-96.81883, 39.05482], [-96.81882, 39.05492], [-96.81879, 39.05513], [-96.8187, 39.05572], [-96.81865, 39.05569], [-96.81854, 39.05631], [-96.81839, 39.05752], [-96.81825, 39.05866], [-96.81813, 39.05947], [-96.81778, 39.06021], [-96.8174, 39.06224], [-96.81688, 39.06315], [-96.81655, 39.06404], [-96.8165, 39.06413], [-96.81633, 39.06435], [-96.81626, 39.06444], [-96.81612, 39.06482], [-96.81611, 39.06517], [-96.81601, 39.06552], [-96.81588, 39.06582], [-96.81553, 39.06633], [-96.8152, 39.06715], [-96.81502, 39.06735], [-96.81473, 39.06753], [-96.81444, 39.06766], [-96.81397, 39.06776], [-96.81384, 39.06779], [-96.81257, 39.06759], [-96.81165, 39.06719], [-96.81062, 39.06642], [-96.80934, 39.06555], [-96.80903, 39.06491], [-96.80644, 39.06331], [-96.80417, 39.06191], [-96.8036, 39.06136], [-96.80325, 39.06095], [-96.80315, 39.06106], [-96.80305, 39.06115], [-96.80295, 39.06124], [-96.80293, 39.06126], [-96.80255, 39.06158], [-96.80226, 39.06188], [-96.80166, 39.06251], [-96.80079, 39.06321], [-96.79988, 39.06375], [-96.79928, 39.06405], [-96.79896, 39.06425], [-96.79867, 39.06442], [-96.79845, 39.06454], [-96.79979, 39.06491], [-96.8004, 39.06507], [-96.80067, 39.06514], [-96.80179, 39.0654], [-96.80208, 39.06551], [-96.80359, 39.06601], [-96.80399, 39.06615], [-96.80496, 39.0665], [-96.80575, 39.06675], [-96.80588, 39.06681], [-96.80582, 39.06693], [-96.80577, 39.06703], [-96.80565, 39.06712], [-96.80554, 39.06721], [-96.80536, 39.06738], [-96.8053, 39.06744], [-96.80525, 39.06749], [-96.80521, 39.06764], [-96.80522, 39.06781], [-96.80528, 39.06794], [-96.8054, 39.06808], [-96.80557, 39.06825], [-96.80667, 39.06907], [-96.80758, 39.0697], [-96.80808, 39.07007], [-96.80842, 39.07023], [-96.80832, 39.07026], [-96.80817, 39.07025], [-96.808, 39.07023], [-96.80741, 39.07003], [-96.80692, 39.06988], [-96.80628, 39.06971], [-96.80598, 39.06963], [-96.80542, 39.06951], [-96.80485, 39.06945], [-96.80452, 39.06943], [-96.80395, 39.06941], [-96.80354, 39.06942], [-96.80348, 39.06945], [-96.80343, 39.06953], [-96.80338, 39.06965], [-96.80338, 39.06973], [-96.80335, 39.06989], [-96.80335, 39.07017], [-96.80336, 39.07027], [-96.80341, 39.07038], [-96.80346, 39.07046], [-96.80357, 39.0706], [-96.80369, 39.07076], [-96.80375, 39.07087], [-96.80381, 39.07104], [-96.80387, 39.07117], [-96.80388, 39.07125], [-96.80388, 39.07131], [-96.80394, 39.07139], [-96.8041, 39.07163], [-96.80428, 39.07186], [-96.80449, 39.07206], [-96.80472, 39.07224], [-96.80513, 39.07256], [-96.8053, 39.07264], [-96.80537, 39.07269], [-96.80548, 39.0727], [-96.8056, 39.07266], [-96.80562, 39.07261], [-96.80572, 39.07252], [-96.80577, 39.07243], [-96.80581, 39.07232], [-96.80587, 39.07223], [-96.80595, 39.07217], [-96.80607, 39.07212], [-96.80632, 39.07207], [-96.80664, 39.07193], [-96.80709, 39.07176], [-96.80721, 39.07173], [-96.80733, 39.07174], [-96.80742, 39.07176], [-96.80751, 39.07181], [-96.80768, 39.072], [-96.80811, 39.07227], [-96.80836, 39.07241], [-96.80854, 39.07252], [-96.80871, 39.07265], [-96.80922, 39.0731], [-96.80929, 39.07316], [-96.80967, 39.07341], [-96.80989, 39.07353], [-96.81086, 39.07406], [-96.81136, 39.07429], [-96.81166, 39.07438], [-96.81196, 39.07445], [-96.8125, 39.07466], [-96.81315, 39.07496], [-96.81438, 39.07551], [-96.81486, 39.0757], [-96.81648, 39.07624], [-96.8171, 39.07638], [-96.81774, 39.07658], [-96.81833, 39.07678], [-96.81867, 39.07689], [-96.81895, 39.07691], [-96.81996, 39.07693], [-96.82013, 39.07711], [-96.82059, 39.07779], [-96.82075, 39.07805], [-96.82105, 39.07854], [-96.82123, 39.07883], [-96.82129, 39.07893], [-96.8219, 39.07984], [-96.82197, 39.07994], [-96.82202, 39.08022], [-96.82209, 39.08134], [-96.82229, 39.08384], [-96.82236, 39.0842], [-96.82253, 39.08472], [-96.82262, 39.08518], [-96.82265, 39.08541], [-96.82264, 39.08597], [-96.8226, 39.08649], [-96.8225, 39.0868], [-96.82248, 39.08686], [-96.82229, 39.08723], [-96.82338, 39.08776], [-96.82352, 39.08783], [-96.82374, 39.08797], [-96.82376, 39.08798], [-96.82383, 39.08802], [-96.82389, 39.08806], [-96.82396, 39.08811], [-96.82493, 39.08812], [-96.82645, 39.08812], [-96.83159, 39.08814], [-96.8324, 39.08814], [-96.83321, 39.08814], [-96.83494, 39.08814], [-96.83732, 39.08815], [-96.83754, 39.08815], [-96.83966, 39.08815], [-96.84915, 39.08817], [-96.84967, 39.08817], [-96.85141, 39.08818], [-96.85139, 39.08944], [-96.85136, 39.09235], [-96.85134, 39.09397], [-96.85134, 39.09441], [-96.85133, 39.095], [-96.85132, 39.09632], [-96.85131, 39.09748], [-96.85129, 39.09812], [-96.85129, 39.09863], [-96.85128, 39.09967], [-96.85127, 39.10074], [-96.85098, 39.10104], [-96.8508, 39.10123], [-96.85028, 39.10177], [-96.84651, 39.10655], [-96.84637, 39.10675], [-96.84667, 39.10689], [-96.84704, 39.10651], [-96.84747, 39.10609], [-96.84793, 39.10565], [-96.84909, 39.10467], [-96.84915, 39.10463], [-96.84962, 39.10428], [-96.85056, 39.10357], [-96.8508, 39.1034], [-96.85097, 39.10327], [-96.85161, 39.10281], [-96.85254, 39.10213], [-96.85366, 39.10132], [-96.85444, 39.10073], [-96.85464, 39.10058], [-96.85512, 39.10023], [-96.85598, 39.09961], [-96.85664, 39.09912], [-96.85824, 39.09795], [-96.85933, 39.09716], [-96.86022, 39.09648], [-96.86027, 39.09644], [-96.86035, 39.09637], [-96.86076, 39.09605], [-96.86142, 39.09547], [-96.86216, 39.09469], [-96.86259, 39.09422], [-96.86322, 39.09334], [-96.86342, 39.09305], [-96.86361, 39.09276], [-96.86378, 39.09252], [-96.86383, 39.09246], [-96.86396, 39.09235], [-96.86407, 39.09229], [-96.86428, 39.09222], [-96.86445, 39.09218], [-96.86481, 39.09212], [-96.86481, 39.0917], [-96.86501, 39.08939], [-96.86522, 39.08763], [-96.86541, 39.08575], [-96.86562, 39.08389], [-96.86576, 39.08253], [-96.86581, 39.08207], [-96.86597, 39.08065], [-96.86602, 39.08017], [-96.86608, 39.0797], [-96.86619, 39.07866], [-96.86633, 39.07731], [-96.86637, 39.07693], [-96.8664, 39.07666], [-96.86666, 39.07414], [-96.86669, 39.07393], [-96.86692, 39.07176], [-96.86695, 39.07144]]]}}]}