{"type": "FeatureCollection", "features": [{"type": "Feature", "geometry": {"type": "Point", "coordinates": [-96.82194444444444, 39.032777777777774]}, "properties": {"facility_name": "ALCOA FUJIKURA LTD", "industry": null, "tri_facility_id": "66441LCFJK1002N"}}, {"type": "Feature", "geometry": {"type": "Point", "coordinates": [-96.86416666666666, 39.01694444444444]}, "properties": {"facility_name": "SMITHFIELD MEATS", "industry": null, "tri_facility_id": "66441RMRSW1920L"}}, {"type": "Feature", "geometry": {"type": "Point", "coordinates": [-96.783333, 39.066667]}, "properties": {"facility_name": "US ARMY FORT RILEY-GARRISON", "industry": null, "tri_facility_id": "66442SDDSRAFZNE"}}]}