{"type": "FeatureCollection", "features": [{"type": "Feature", "properties": {"area_id": 9231, "city": "Huntington", "state": "WV", "city_survey": true, "cat": "Best", "grade": "A", "label": "A1", "res": true, "com": false, "ind": false, "holc_grade": "A"}, "geometry": {"type": "Polygon", "coordinates": [[[-82.46958, 38.41054], [-82.470436, 38.412616], [-82.47066, 38.41316], [-82.46363, 38.41505], [-82.46335, 38.414473], [-82.46239, 38.41249], [-82.46958, 38.41054]]]}}, {"type": "Feature", "properties": {"area_id": 9235, "city": "Huntington", "state": "WV", "city_survey": true, "cat": "Best", "grade": "A", "label": "A2", "res": true, "com": false, "ind": false, "holc_grade": "A"}, "geometry": {"type": "Polygon", "coordinates": [[[-82.44586, 38.40599], [-82.4473, 38.40608], [-82.44875, 38.40659], [-82.44969, 38.40658], [-82.45036, 38.40671], [-82.45062, 38.40631], [-82.45127, 38.40637], [-82.45203, 38.40634], [-82.45335, 38.40613], [-82.45471, 38.40634], [-82.45532, 38.40624], [-82.4561, 38.4058], [-82.45597, 38.40556], [-82.45514, 38.40575], [-82.45506, 38.40551], [-82.45631, 38.40521], [-82.4574, 38.405], [-82.4577, 38.40473], [-82.45766, 38.40414], [-82.45739, 38.4036], [-82.45762, 38.40309], [-82.45825, 38.4025], [-82.45902, 38.40232], [-82.45996, 38.4022], [-82.461, 38.40194], [-82.46104, 38.40262], [-82.4607, 38.40298], [-82.46059, 38.40344], [-82.46069, 38.40389], [-82.46095, 38.40407], [-82.46199, 38.40397], [-82.46345, 38.40375], [-82.46349, 38.40423], [-82.46341, 38.40511], [-82.4652, 38.40467], [-82.46582, 38.4044], [-82.46671, 38.40417], [-82.4671, 38.40416], [-82.46732, 38.40484], [-82.46702, 38.40492], [-82.46686, 38.40523], [-82.46495, 38.4053], [-82.46407, 38.40567], [-82.46328, 38.40568], [-82.463621, 38.406334], [-82.46364, 38.40637], [-82.46035, 38.40705], [-82.46115, 38.40907], [-82.45482, 38.41089], [-82.45555, 38.41204], [-82.44719, 38.41355], [-82.447008, 38.412805], [-82.44682, 38.41204], [-82.4464, 38.41049], [-82.445315, 38.406459], [-82.44521, 38.40607], [-82.44586, 38.40599]]]}}, {"type": "Feature", "properties": {"area_id": 9238, "city": "Huntington", "state": "WV", "city_survey": true, "cat": "Best", "grade": "A", "label": "A3", "res": true, "com": false, "ind": false, "holc_grade": "A"}, "geometry": {"type": "Polygon", "coordinates": [[[-82.4289, 38.40472], [-82.428923, 38.404681], [-82.429093, 38.404385], [-82.42917, 38.40425], [-82.43001, 38.40388], [-82.43127, 38.40375], [-82.43235, 38.40383], [-82.43272, 38.40412], [-82.43285, 38.40553], [-82.43287, 38.40599], [-82.43301, 38.40635], [-82.43479, 38.40727], [-82.435201, 38.409174], [-82.43522, 38.40926], [-82.43524, 38.409256], [-82.437421, 38.408871], [-82.44196, 38.40807], [-82.44155, 38.40651], [-82.44238, 38.40662], [-82.44363, 38.40644], [-82.44521, 38.40607], [-82.445315, 38.406459], [-82.4464, 38.41049], [-82.446998, 38.412807], [-82.44719, 38.41355], [-82.4456, 38.41383], [-82.44423, 38.41398], [-82.443819, 38.414056], [-82.4382, 38.4151], [-82.436911, 38.415342], [-82.43516, 38.41567], [-82.434, 38.41163], [-82.43204, 38.41199], [-82.43202, 38.41192], [-82.43158, 38.41027], [-82.42958, 38.41062], [-82.42917, 38.40963], [-82.42879, 38.40907], [-82.42834, 38.40911], [-82.42817, 38.40771], [-82.42826, 38.40742], [-82.428455, 38.406791], [-82.42857, 38.40642], [-82.42899, 38.40604], [-82.4289, 38.40472]]]}}, {"type": "Feature", "properties": {"area_id": 9237, "city": "Huntington", "state": "WV", "city_survey": true, "cat": "Best", "grade": "A", "label": "A4", "res": true, "com": false, "ind": false, "holc_grade": "A"}, "geometry": {"type": "Polygon", "coordinates": [[[-82.44114, 38.40646], [-82.44026, 38.40599], [-82.43923, 38.40577], [-82.43856, 38.40547], [-82.43791, 38.40501], [-82.43734, 38.40487], [-82.43677, 38.40486], [-82.43656, 38.40472], [-82.43797, 38.40432], [-82.43971, 38.40442], [-82.43984, 38.40425], [-82.43883, 38.40395], [-82.43781, 38.40372], [-82.43752, 38.40326], [-82.43845, 38.40263], [-82.43881, 38.40196], [-82.43924, 38.40145], [-82.43976, 38.40173], [-82.44066, 38.40187], [-82.44182, 38.40171], [-82.44277, 38.40228], [-82.4435, 38.40219], [-82.44367, 38.40181], [-82.44314, 38.40136], [-82.44309, 38.40055], [-82.44342, 38.39991], [-82.44391, 38.39982], [-82.44422, 38.4002], [-82.44431, 38.40084], [-82.44466, 38.40098], [-82.44505, 38.39957], [-82.44487, 38.39863], [-82.44587, 38.39847], [-82.44727, 38.39788], [-82.44827, 38.39796], [-82.44888, 38.3979], [-82.44835, 38.39875], [-82.44887, 38.39959], [-82.44883, 38.40046], [-82.44761, 38.40249], [-82.44716, 38.40462], [-82.44692, 38.40589], [-82.4473, 38.40608], [-82.44586, 38.40599], [-82.44521, 38.40607], [-82.44363, 38.40644], [-82.44238, 38.40662], [-82.44155, 38.40651], [-82.44114, 38.40646]]]}}, {"type": "Feature", "properties": {"area_id": 9251, "city": "Huntington", "state": "WV", "city_survey": true, "cat": "Best", "grade": "A", "label": "A5", "res": true, "com": false, "ind": false, "holc_grade": "A"}, "geometry": {"type": "Polygon", "coordinates": [[[-82.4059, 38.40025], [-82.40444, 38.40001], [-82.40382, 38.40006], [-82.40237, 38.39962], [-82.40134, 38.39946], [-82.40074, 38.39977], [-82.40002, 38.40031], [-82.39905, 38.40103], [-82.3982, 38.40137], [-82.39749, 38.40123], [-82.39863, 38.3999], [-82.39865, 38.39927], [-82.39851, 38.39829], [-82.39911, 38.39817], [-82.39888, 38.39754], [-82.40052, 38.39713], [-82.40127, 38.39674], [-82.40219, 38.39645], [-82.40216, 38.3963], [-82.40322, 38.39561], [-82.40387, 38.39514], [-82.40459, 38.39539], [-82.40502, 38.39503], [-82.40618, 38.39517], [-82.40662, 38.39529], [-82.4073, 38.39558], [-82.40768, 38.39602], [-82.40772, 38.39726], [-82.4075, 38.39872], [-82.40715, 38.39954], [-82.40673, 38.39996], [-82.40652, 38.40038], [-82.41405, 38.40176], [-82.41558, 38.40203], [-82.41606, 38.4019], [-82.41755, 38.40205], [-82.41928, 38.40222], [-82.4206, 38.40248], [-82.42192, 38.40297], [-82.42228, 38.40482], [-82.422388, 38.405952], [-82.42241, 38.40618], [-82.41612, 38.40627], [-82.414515, 38.406251], [-82.412423, 38.406226], [-82.41236, 38.406225], [-82.41106, 38.40621], [-82.41153, 38.40883], [-82.411486, 38.409688], [-82.41148, 38.40981], [-82.40834, 38.4081], [-82.40773, 38.40757], [-82.40711, 38.40701], [-82.407108, 38.407], [-82.40659, 38.40401], [-82.40605, 38.4008], [-82.4059, 38.40025]]]}}, {"type": "Feature", "properties": {"area_id": 9253, "city": "Huntington", "state": "WV", "city_survey": true, "cat": "Best", "grade": "A", "label": "A6", "res": true, "com": false, "ind": false, "holc_grade": "A"}, "geometry": {"type": "Polygon", "coordinates": [[[-82.401, 38.40475], [-82.40221, 38.40523], [-82.40301, 38.40568], [-82.40346, 38.40624], [-82.40297, 38.40625], [-82.40213, 38.40751], [-82.40148, 38.40804], [-82.40099, 38.40813], [-82.40085, 38.40759], [-82.39975, 38.4076], [-82.39877, 38.40782], [-82.39796, 38.40796], [-82.39659, 38.40788], [-82.39608, 38.40852], [-82.39552, 38.40929], [-82.39394, 38.41036], [-82.3937, 38.4097], [-82.39327, 38.40976], [-82.39479, 38.40795], [-82.39512, 38.40812], [-82.39546, 38.407], [-82.39585, 38.40669], [-82.39691, 38.40668], [-82.39799, 38.40686], [-82.39913, 38.40616], [-82.39936, 38.40597], [-82.39924, 38.40519], [-82.39898, 38.40449], [-82.401, 38.40475]]]}}, {"type": "Feature", "properties": {"area_id": 9250, "city": "Huntington", "state": "WV", "city_survey": true, "cat": "Best", "grade": "A", "label": "A7", "res": true, "com": false, "ind": false, "holc_grade": "A"}, "geometry": {"type": "Polygon", "coordinates": [[[-82.40939, 38.42733], [-82.409543, 38.427923], [-82.41002, 38.42977], [-82.40332, 38.43099], [-82.402757, 38.429102], [-82.40261, 38.42861], [-82.40939, 38.42733]]]}}, {"type": "Feature", "properties": {"area_id": 9248, "city": "Huntington", "state": "WV", "city_survey": true, "cat": "Best", "grade": "A", "label": "A8", "res": true, "com": false, "ind": false, "holc_grade": "A"}, "geometry": {"type": "Polygon", "coordinates": [[[-82.39971, 38.43506], [-82.39767, 38.43466], [-82.3945, 38.43341], [-82.39314, 38.4328], [-82.39226, 38.432], [-82.39198, 38.43099], [-82.39344, 38.43135], [-82.39366, 38.43102], [-82.39781, 38.43072], [-82.39939, 38.43044], [-82.39972, 38.43145], [-82.39941, 38.43156], [-82.39953, 38.43183], [-82.4002, 38.43185], [-82.40137, 38.432], [-82.39971, 38.43506]]]}}, {"type": "Feature", "properties": {"area_id": 9227, "city": "Huntington", "state": "WV", "city_survey": true, "cat": "Still Desirable", "grade": "B", "label": "B1", "res": true, "com": false, "ind": false, "holc_grade": "B"}, "geometry": {"type": "Polygon", "coordinates": [[[-82.5072, 38.40023], [-82.51366, 38.39833], [-82.51401, 38.3991], [-82.50847, 38.40077], [-82.50889, 38.4014], [-82.509023, 38.401596], [-82.50921, 38.40187], [-82.5094, 38.40224], [-82.5101, 38.4021], [-82.51083, 38.40229], [-82.5108, 38.40262], [-82.50851, 38.40347], [-82.50917, 38.40568], [-82.50777, 38.40618], [-82.50816, 38.40678], [-82.5055, 38.40769], [-82.5046, 38.40787], [-82.503781, 38.408122], [-82.50294, 38.40838], [-82.50251, 38.40777], [-82.50072, 38.40666], [-82.500789, 38.40632], [-82.500808, 38.406227], [-82.50086, 38.40597], [-82.50177, 38.40576], [-82.50213, 38.405667], [-82.50239, 38.4056], [-82.502305, 38.405399], [-82.50143, 38.40334], [-82.50758, 38.40127], [-82.5072, 38.40023]]]}}, {"type": "Feature", "properties": {"area_id": 9252, "city": "Huntington", "state": "WV", "city_survey": true, "cat": "Still Desirable", "grade": "B", "label": "B10", "res": true, "com": false, "ind": false, "holc_grade": "B"}, "geometry": {"type": "Polygon", "coordinates": [[[-82.39749, 38.40123], [-82.3982, 38.40137], [-82.39905, 38.40103], [-82.40002, 38.40031], [-82.40074, 38.39977], [-82.40134, 38.39946], [-82.40237, 38.39962], [-82.40382, 38.40006], [-82.40444, 38.40001], [-82.4059, 38.40025], [-82.40605, 38.4008], [-82.40659, 38.40401], [-82.407108, 38.407], [-82.40711, 38.40701], [-82.407046, 38.406985], [-82.40589, 38.40654], [-82.405426, 38.406467], [-82.40437, 38.4063], [-82.40346, 38.40624], [-82.40301, 38.40568], [-82.40221, 38.40523], [-82.401, 38.40475], [-82.39898, 38.40449], [-82.39895, 38.40398], [-82.39739, 38.40321], [-82.396686, 38.402867], [-82.39659, 38.40282], [-82.396817, 38.402419], [-82.397312, 38.401545], [-82.39749, 38.40123]]]}}, {"type": "Feature", "properties": {"area_id": 9223, "city": "Huntington", "state": "WV", "city_survey": true, "cat": "Still Desirable", "grade": "B", "label": "B2", "res": true, "com": false, "ind": false, "holc_grade": "B"}, "geometry": {"type": "Polygon", "coordinates": [[[-82.51564, 38.38172], [-82.51507, 38.3817], [-82.51467, 38.38107], [-82.51437, 38.38062], [-82.51383, 38.38096], [-82.51352, 38.38102], [-82.51311, 38.38078], [-82.51303, 38.3804], [-82.51305, 38.38001], [-82.51278, 38.37983], [-82.51212, 38.37997], [-82.51139, 38.38019], [-82.51101, 38.38073], [-82.51009, 38.38009], [-82.50954, 38.38009], [-82.50919, 38.38046], [-82.50878, 38.38064], [-82.50828, 38.38051], [-82.50793, 38.38068], [-82.50692, 38.38125], [-82.5066, 38.38183], [-82.5058, 38.38218], [-82.50548, 38.38265], [-82.50428, 38.38165], [-82.50558, 38.38061], [-82.50634, 38.37956], [-82.50653, 38.37876], [-82.50752, 38.37761], [-82.50774, 38.375], [-82.50978, 38.37584], [-82.51019, 38.37557], [-82.51385, 38.37627], [-82.51433, 38.37744], [-82.51757, 38.37986], [-82.51674, 38.38243], [-82.51611, 38.3833], [-82.51564, 38.38172]]]}}, {"type": "Feature", "properties": {"area_id": 9232, "city": "Huntington", "state": "WV", "city_survey": true, "cat": "Still Desirable", "grade": "B", "label": "B3", "res": true, "com": false, "ind": false, "holc_grade": "B"}, "geometry": {"type": "Polygon", "coordinates": [[[-82.456839, 38.415687], [-82.45744, 38.41779], [-82.457411, 38.417795], [-82.45412, 38.41836], [-82.44743, 38.41958], [-82.44706, 38.41868], [-82.44631, 38.41889], [-82.44529, 38.41545], [-82.44767, 38.41517], [-82.456183, 38.413527], [-82.45622, 38.41352], [-82.456839, 38.415687]]]}}, {"type": "Feature", "properties": {"area_id": 9233, "city": "Huntington", "state": "WV", "city_survey": true, "cat": "Still Desirable", "grade": "B", "label": "B4", "res": true, "com": false, "ind": false, "holc_grade": "B"}, "geometry": {"type": "Polygon", "coordinates": [[[-82.461858, 38.410991], [-82.45889, 38.41175], [-82.45852, 38.41214], [-82.45575, 38.41269], [-82.44732, 38.41414], [-82.44573, 38.41442], [-82.4456, 38.41383], [-82.44719, 38.41355], [-82.45555, 38.41204], [-82.45482, 38.41089], [-82.46115, 38.40907], [-82.461212, 38.409227], [-82.4619, 38.41098], [-82.461858, 38.410991]]]}}, {"type": "Feature", "properties": {"area_id": 9244, "city": "Huntington", "state": "WV", "city_survey": true, "cat": "Still Desirable", "grade": "B", "label": "B5", "res": true, "com": false, "ind": false, "holc_grade": "B"}, "geometry": {"type": "Polygon", "coordinates": [[[-82.43969, 38.41818], [-82.43983, 38.41887], [-82.44006, 38.42038], [-82.43962, 38.42059], [-82.43986, 38.42122], [-82.438682, 38.421457], [-82.43688, 38.42182], [-82.431776, 38.422643], [-82.43167, 38.42266], [-82.42789, 38.42332], [-82.42774, 38.42272], [-82.42619, 38.4229], [-82.42571, 38.4211], [-82.42658, 38.42101], [-82.42675, 38.42049], [-82.43042, 38.4199], [-82.430983, 38.419791], [-82.437846, 38.418462], [-82.43822, 38.41839], [-82.43969, 38.41818]]]}}, {"type": "Feature", "properties": {"area_id": 9240, "city": "Huntington", "state": "WV", "city_survey": true, "cat": "Still Desirable", "grade": "B", "label": "B6", "res": true, "com": false, "ind": false, "holc_grade": "B"}, "geometry": {"type": "Polygon", "coordinates": [[[-82.42328, 38.40295], [-82.42412, 38.40374], [-82.42521, 38.404], [-82.42698, 38.40437], [-82.4278, 38.40447], [-82.427879, 38.404488], [-82.4289, 38.40472], [-82.42899, 38.40604], [-82.42857, 38.40642], [-82.428455, 38.406791], [-82.42826, 38.40742], [-82.427951, 38.407428], [-82.42712, 38.40745], [-82.42406, 38.4077], [-82.423774, 38.405639], [-82.42364, 38.40467], [-82.42328, 38.40295]]]}}, {"type": "Feature", "properties": {"area_id": 9241, "city": "Huntington", "state": "WV", "city_survey": true, "cat": "Still Desirable", "grade": "B", "label": "B7", "res": true, "com": false, "ind": false, "holc_grade": "B"}, "geometry": {"type": "Polygon", "coordinates": [[[-82.42222, 38.39774], [-82.42334, 38.39726], [-82.42477, 38.39631], [-82.42512, 38.39607], [-82.42502, 38.39516], [-82.42533, 38.39362], [-82.42897, 38.39223], [-82.42944, 38.393], [-82.43037, 38.39315], [-82.43116, 38.39374], [-82.43169, 38.3956], [-82.43108, 38.39577], [-82.43157, 38.39686], [-82.43088, 38.39708], [-82.43017, 38.39756], [-82.4294, 38.39831], [-82.42923, 38.3987], [-82.42776, 38.39961], [-82.42787, 38.40013], [-82.42839, 38.40059], [-82.42877, 38.40126], [-82.42947, 38.4016], [-82.43063, 38.40262], [-82.43111, 38.40264], [-82.43153, 38.4021], [-82.43169, 38.40169], [-82.43212, 38.40166], [-82.43222, 38.402], [-82.43189, 38.40255], [-82.43235, 38.40383], [-82.43127, 38.40375], [-82.43001, 38.40388], [-82.42917, 38.40425], [-82.429093, 38.404385], [-82.428923, 38.404681], [-82.4289, 38.40472], [-82.427879, 38.404488], [-82.4278, 38.40447], [-82.42698, 38.40437], [-82.42521, 38.404], [-82.42412, 38.40374], [-82.42328, 38.40295], [-82.42208, 38.40215], [-82.41807, 38.39837], [-82.419318, 38.397226], [-82.41975, 38.39683], [-82.42109, 38.39746], [-82.42222, 38.39774]]]}}, {"type": "Feature", "properties": {"area_id": 9245, "city": "Huntington", "state": "WV", "city_survey": true, "cat": "Still Desirable", "grade": "B", "label": "B8", "res": true, "com": false, "ind": false, "holc_grade": "B"}, "geometry": {"type": "Polygon", "coordinates": [[[-82.41399, 38.41145], [-82.415702, 38.412023], [-82.41596, 38.41211], [-82.417125, 38.411759], [-82.41722, 38.41173], [-82.41801, 38.41198], [-82.41821, 38.41256], [-82.41899, 38.41317], [-82.41985, 38.4134], [-82.419959, 38.413799], [-82.42113, 38.41807], [-82.42042, 38.41817], [-82.414214, 38.419063], [-82.41264, 38.41929], [-82.412201, 38.417423], [-82.41198, 38.41648], [-82.41542, 38.41603], [-82.41529, 38.41573], [-82.41587, 38.41561], [-82.41567, 38.41462], [-82.41563, 38.41433], [-82.41512, 38.41405], [-82.414004, 38.411483], [-82.41399, 38.41145]]]}}, {"type": "Feature", "properties": {"area_id": 9249, "city": "Huntington", "state": "WV", "city_survey": true, "cat": "Still Desirable", "grade": "B", "label": "B9", "res": true, "com": false, "ind": false, "holc_grade": "B"}, "geometry": {"type": "Polygon", "coordinates": [[[-82.39565, 38.42982], [-82.39928, 38.4293], [-82.39855, 38.42664], [-82.40544, 38.4253], [-82.41195, 38.42406], [-82.41261, 38.42672], [-82.412802, 38.427342], [-82.41357, 38.42983], [-82.40608, 38.43109], [-82.40137, 38.432], [-82.4002, 38.43185], [-82.39953, 38.43183], [-82.39941, 38.43156], [-82.39972, 38.43145], [-82.39939, 38.43044], [-82.39781, 38.43072], [-82.39366, 38.43102], [-82.39344, 38.43135], [-82.39198, 38.43099], [-82.391756, 38.43023], [-82.3917, 38.43004], [-82.39565, 38.42982]], [[-82.40939, 38.42733], [-82.40261, 38.42861], [-82.402757, 38.429102], [-82.40332, 38.43099], [-82.41002, 38.42977], [-82.409543, 38.427923], [-82.40939, 38.42733]]]}}, {"type": "Feature", "properties": {"area_id": 9226, "city": "Huntington", "state": "WV", "city_survey": true, "cat": "Definitely Declining", "grade": "C", "label": "C1", "res": true, "com": false, "ind": false, "holc_grade": "C"}, "geometry": {"type": "Polygon", "coordinates": [[[-82.51452, 38.39649], [-82.51811, 38.39626], [-82.52819, 38.39599], [-82.528541, 38.397012], [-82.530007, 38.401288], [-82.53007, 38.40147], [-82.528451, 38.401803], [-82.52034, 38.40347], [-82.51738, 38.40394], [-82.51487, 38.40441], [-82.50816, 38.40678], [-82.50777, 38.40618], [-82.50917, 38.40568], [-82.50851, 38.40347], [-82.5108, 38.40262], [-82.51083, 38.40229], [-82.5101, 38.4021], [-82.5094, 38.40224], [-82.50921, 38.40187], [-82.509023, 38.401596], [-82.50889, 38.4014], [-82.50847, 38.40077], [-82.51401, 38.3991], [-82.51366, 38.39833], [-82.5072, 38.40023], [-82.50758, 38.40127], [-82.50143, 38.40334], [-82.502305, 38.405399], [-82.50239, 38.4056], [-82.50213, 38.405667], [-82.50177, 38.40576], [-82.50076, 38.40374], [-82.49882, 38.40465], [-82.4985, 38.40431], [-82.49819, 38.40379], [-82.49831, 38.40339], [-82.49831, 38.40291], [-82.49809, 38.40253], [-82.49768, 38.40211], [-82.49713, 38.40181], [-82.49608, 38.40162], [-82.49595, 38.40192], [-82.49506, 38.4023], [-82.49486, 38.402315], [-82.494, 38.40238], [-82.49331, 38.40302], [-82.49278, 38.4034], [-82.49221, 38.40375], [-82.49158, 38.40396], [-82.49137, 38.40473], [-82.49078, 38.40366], [-82.48987, 38.40336], [-82.48895, 38.4035], [-82.48836, 38.40332], [-82.48755, 38.40326], [-82.48706, 38.40206], [-82.48893, 38.40178], [-82.48875, 38.40123], [-82.49072, 38.40087], [-82.492131, 38.400599], [-82.50269, 38.39857], [-82.51073, 38.39699], [-82.51452, 38.39649]]]}}, {"type": "Feature", "properties": {"area_id": 9246, "city": "Huntington", "state": "WV", "city_survey": true, "cat": "Definitely Declining", "grade": "C", "label": "C10", "res": true, "com": false, "ind": false, "holc_grade": "C"}, "geometry": {"type": "Polygon", "coordinates": [[[-82.41799, 38.42004], [-82.416783, 38.42022], [-82.41302, 38.42078], [-82.413001, 38.420705], [-82.41264, 38.41929], [-82.414214, 38.419063], [-82.42042, 38.41817], [-82.420731, 38.419395], [-82.42146, 38.42227], [-82.42213, 38.42518], [-82.41784, 38.42575], [-82.418002, 38.426451], [-82.41806, 38.4267], [-82.4166, 38.42683], [-82.41665, 38.42702], [-82.41764, 38.43099], [-82.41379, 38.43156], [-82.41055, 38.43204], [-82.41072, 38.43282], [-82.40761, 38.43322], [-82.40798, 38.43512], [-82.40317, 38.43588], [-82.39967, 38.43512], [-82.39971, 38.43506], [-82.40137, 38.432], [-82.40608, 38.43109], [-82.41357, 38.42983], [-82.412802, 38.427342], [-82.41261, 38.42672], [-82.41195, 38.42406], [-82.41253, 38.42392], [-82.41262, 38.42456], [-82.4154, 38.42408], [-82.41513, 38.42318], [-82.41868, 38.42261], [-82.418131, 38.420566], [-82.41799, 38.42004]]]}}, {"type": "Feature", "properties": {"area_id": 9254, "city": "Huntington", "state": "WV", "city_survey": true, "cat": "Definitely Declining", "grade": "C", "label": "C11", "res": true, "com": false, "ind": false, "holc_grade": "C"}, "geometry": {"type": "Polygon", "coordinates": [[[-82.4013, 38.4091], [-82.40278, 38.40779], [-82.40365, 38.40675], [-82.40437, 38.4063], [-82.405426, 38.406467], [-82.40589, 38.40654], [-82.407046, 38.406985], [-82.40711, 38.40701], [-82.40773, 38.40757], [-82.40834, 38.4081], [-82.41148, 38.40981], [-82.41224, 38.41036], [-82.412408, 38.412065], [-82.41245, 38.41249], [-82.41206, 38.41282], [-82.41215, 38.4138], [-82.41201, 38.41417], [-82.411653, 38.414392], [-82.41148, 38.4145], [-82.411599, 38.414872], [-82.41173, 38.41528], [-82.41198, 38.41648], [-82.412201, 38.417423], [-82.41264, 38.41929], [-82.413001, 38.420705], [-82.41302, 38.42078], [-82.40119, 38.42301], [-82.40192, 38.42598], [-82.39855, 38.42664], [-82.39928, 38.4293], [-82.39565, 38.42982], [-82.3917, 38.43004], [-82.391624, 38.421998], [-82.39162, 38.42158], [-82.395674, 38.423627], [-82.3958, 38.42369], [-82.395765, 38.423631], [-82.39257, 38.41816], [-82.392, 38.41602], [-82.39143, 38.41445], [-82.390631, 38.413476], [-82.39033, 38.41311], [-82.392262, 38.412415], [-82.39272, 38.41225], [-82.393038, 38.411796], [-82.39314, 38.41165], [-82.394118, 38.411312], [-82.39485, 38.41106], [-82.39595, 38.41031], [-82.39754, 38.40996], [-82.3986, 38.40969], [-82.40024, 38.4096], [-82.401194, 38.40915], [-82.4013, 38.4091]], [[-82.39703, 38.41956], [-82.39783, 38.4187], [-82.39852, 38.41797], [-82.39893, 38.41753], [-82.39939, 38.41713], [-82.39942, 38.41652], [-82.399, 38.41617], [-82.39534, 38.4163], [-82.39507, 38.41695], [-82.39461, 38.41651], [-82.39417, 38.41621], [-82.39384, 38.41648], [-82.39387, 38.41725], [-82.39401, 38.41768], [-82.39409, 38.41893], [-82.39468, 38.41933], [-82.39492, 38.42046], [-82.39521, 38.42092], [-82.39534, 38.42133], [-82.39563, 38.42189], [-82.39621, 38.42215], [-82.39684, 38.42222], [-82.39694, 38.42199], [-82.39656, 38.42168], [-82.39622, 38.42118], [-82.39656, 38.42045], [-82.39703, 38.41956]], [[-82.40225, 38.42189], [-82.40312, 38.42163], [-82.40392, 38.42123], [-82.40458, 38.42078], [-82.4037, 38.42025], [-82.40241, 38.42079], [-82.40129, 38.42077], [-82.4013, 38.42183], [-82.40225, 38.42189]]]}}, {"type": "Feature", "properties": {"area_id": 9255, "city": "Huntington", "state": "WV", "city_survey": true, "cat": "Definitely Declining", "grade": "C", "label": "C12", "res": true, "com": false, "ind": false, "holc_grade": "C"}, "geometry": {"type": "Polygon", "coordinates": [[[-82.390274, 38.42097], [-82.39098, 38.42135], [-82.390982, 38.421586], [-82.391, 38.42395], [-82.391, 38.425875], [-82.391, 38.4277], [-82.39105, 38.43147], [-82.39073, 38.43162], [-82.38976, 38.43156], [-82.38801, 38.43139], [-82.38554, 38.43126], [-82.38454, 38.43137], [-82.38354, 38.43118], [-82.38248, 38.43105], [-82.38083, 38.43128], [-82.37711, 38.43174], [-82.37607, 38.43191], [-82.37446, 38.43225], [-82.37395, 38.43231], [-82.37274, 38.4324], [-82.37155, 38.4281], [-82.37305, 38.42728], [-82.37395, 38.42725], [-82.37536, 38.42676], [-82.3768, 38.42615], [-82.37809, 38.4262], [-82.37906, 38.42568], [-82.37939, 38.4268], [-82.38106, 38.42668], [-82.38092, 38.42499], [-82.38029, 38.4219], [-82.38202, 38.42144], [-82.38211, 38.42097], [-82.38189, 38.42064], [-82.38143, 38.42061], [-82.38117, 38.42036], [-82.38151, 38.41975], [-82.38151, 38.41893], [-82.38121, 38.41825], [-82.38017, 38.41771], [-82.38017, 38.41712], [-82.38049, 38.4169], [-82.38143, 38.41693], [-82.38192, 38.41695], [-82.3843, 38.41777], [-82.3855, 38.41842], [-82.388125, 38.419821], [-82.38934, 38.42047], [-82.38981, 38.42072], [-82.390274, 38.42097]]]}}, {"type": "Feature", "properties": {"area_id": 9259, "city": "Huntington", "state": "WV", "city_survey": true, "cat": "Definitely Declining", "grade": "C", "label": "C13", "res": true, "com": false, "ind": false, "holc_grade": "C"}, "geometry": {"type": "Polygon", "coordinates": [[[-82.388691, 38.398811], [-82.38857, 38.40044], [-82.38996, 38.4007], [-82.38988, 38.40141], [-82.39085, 38.40163], [-82.39156, 38.40238], [-82.39124, 38.40634], [-82.39068, 38.40632], [-82.39059, 38.40569], [-82.39022, 38.40504], [-82.38988, 38.40489], [-82.38993, 38.40359], [-82.38911, 38.40152], [-82.38869, 38.40114], [-82.38801, 38.40173], [-82.38813, 38.40274], [-82.38813, 38.40314], [-82.38694, 38.40346], [-82.38648, 38.40198], [-82.38634, 38.40382], [-82.38624, 38.40622], [-82.38605, 38.40679], [-82.38643, 38.40734], [-82.38702, 38.40738], [-82.38743, 38.40685], [-82.38804, 38.40683], [-82.38891, 38.40687], [-82.38993, 38.407], [-82.39042, 38.40702], [-82.39066, 38.40692], [-82.39089, 38.40782], [-82.39066, 38.40881], [-82.39009, 38.40931], [-82.38978, 38.41012], [-82.38943, 38.41101], [-82.3892, 38.41161], [-82.38964, 38.41223], [-82.38838, 38.41168], [-82.38721, 38.41145], [-82.38495, 38.41086], [-82.384901, 38.411297], [-82.38488, 38.41149], [-82.38002, 38.41105], [-82.37993, 38.40314], [-82.38121, 38.40243], [-82.38153, 38.402], [-82.38175, 38.4015], [-82.3826, 38.40143], [-82.38306, 38.40205], [-82.38374, 38.40226], [-82.38471, 38.402], [-82.386701, 38.401647], [-82.38685, 38.40162], [-82.386854, 38.401597], [-82.38707, 38.40034], [-82.38728, 38.39981], [-82.387674, 38.398866], [-82.3883, 38.39737], [-82.38872, 38.39842], [-82.388691, 38.398811]]]}}, {"type": "Feature", "properties": {"area_id": 9258, "city": "Huntington", "state": "WV", "city_survey": true, "cat": "Definitely Declining", "grade": "C", "label": "C14", "res": true, "com": false, "ind": false, "holc_grade": "C"}, "geometry": {"type": "Polygon", "coordinates": [[[-82.36242, 38.40723], [-82.36167, 38.4072], [-82.36074, 38.40503], [-82.35959, 38.40535], [-82.35967, 38.40505], [-82.35963, 38.40467], [-82.35918, 38.40443], [-82.3587, 38.40463], [-82.35881, 38.40516], [-82.35825, 38.40508], [-82.35793, 38.40524], [-82.35768, 38.40513], [-82.35773, 38.40431], [-82.3573, 38.4041], [-82.35705, 38.40367], [-82.35705, 38.40323], [-82.3581, 38.40281], [-82.3585, 38.40245], [-82.359, 38.40253], [-82.35908, 38.40097], [-82.3603, 38.40143], [-82.36089, 38.40125], [-82.36155, 38.40176], [-82.36206, 38.40184], [-82.36282, 38.40203], [-82.3641, 38.4019], [-82.365383, 38.404893], [-82.3656, 38.4054], [-82.36608, 38.40497], [-82.36683, 38.40484], [-82.36727, 38.40436], [-82.3679, 38.40374], [-82.36806, 38.40315], [-82.36874, 38.40362], [-82.368755, 38.40365], [-82.36927, 38.40467], [-82.36969, 38.40556], [-82.36965, 38.40651], [-82.36996, 38.40743], [-82.37056, 38.40791], [-82.37174, 38.41127], [-82.36783, 38.41172], [-82.36507, 38.41243], [-82.36292, 38.4128], [-82.35841, 38.41343], [-82.35662, 38.41356], [-82.35502, 38.41366], [-82.35416, 38.41147], [-82.35522, 38.41112], [-82.35595, 38.41142], [-82.35688, 38.41138], [-82.35814, 38.41129], [-82.35765, 38.40992], [-82.35936, 38.40985], [-82.3597, 38.41088], [-82.36037, 38.41178], [-82.36108, 38.41189], [-82.36226, 38.4116], [-82.36302, 38.41108], [-82.36372, 38.41036], [-82.36487, 38.40963], [-82.363942, 38.407479], [-82.36358, 38.40664], [-82.36242, 38.40723]]]}}, {"type": "Feature", "properties": {"area_id": 9257, "city": "Huntington", "state": "WV", "city_survey": true, "cat": "Definitely Declining", "grade": "C", "label": "C15", "res": true, "com": false, "ind": false, "holc_grade": "C"}, "geometry": {"type": "Polygon", "coordinates": [[[-82.372131, 38.41174], [-82.37395, 38.41164], [-82.37621, 38.41164], [-82.37755, 38.41166], [-82.37925, 38.41159], [-82.38202, 38.41164], [-82.381481, 38.416474], [-82.38143, 38.41693], [-82.38049, 38.4169], [-82.38007, 38.41674], [-82.36863, 38.41733], [-82.36859, 38.41796], [-82.36885, 38.41857], [-82.36851, 38.42182], [-82.36764, 38.42169], [-82.36713, 38.42144], [-82.36662, 38.4212], [-82.36596, 38.42135], [-82.36557, 38.42125], [-82.36621, 38.41804], [-82.36803, 38.41796], [-82.36803, 38.41747], [-82.3631, 38.41789], [-82.35817, 38.4183], [-82.356984, 38.418398], [-82.3537, 38.41867], [-82.351299, 38.418923], [-82.34981, 38.41908], [-82.348078, 38.419234], [-82.344742, 38.41953], [-82.34418, 38.41958], [-82.344082, 38.418484], [-82.344065, 38.418297], [-82.34403, 38.4179], [-82.346589, 38.417026], [-82.3469, 38.41692], [-82.34717, 38.41681], [-82.347546, 38.416658], [-82.347607, 38.416633], [-82.34833, 38.41634], [-82.349563, 38.415875], [-82.35008, 38.41568], [-82.350116, 38.41566], [-82.3518, 38.41471], [-82.351894, 38.414682], [-82.35326, 38.41427], [-82.3595, 38.41383], [-82.36237, 38.4133], [-82.362668, 38.413278], [-82.362978, 38.413255], [-82.36373, 38.4132], [-82.363864, 38.413155], [-82.364057, 38.413089], [-82.364241, 38.413027], [-82.36506, 38.41275], [-82.36623, 38.41248], [-82.366906, 38.412449], [-82.3671, 38.41244], [-82.367312, 38.412404], [-82.367478, 38.412376], [-82.369, 38.41212], [-82.372008, 38.411755], [-82.37213, 38.41174], [-82.372131, 38.41174]]]}}, {"type": "Feature", "properties": {"area_id": 9260, "city": "Huntington", "state": "WV", "city_survey": true, "cat": "Definitely Declining", "grade": "C", "label": "C16", "res": true, "com": false, "ind": false, "holc_grade": "C"}, "geometry": {"type": "Polygon", "coordinates": [[[-82.36161, 38.43505], [-82.36142, 38.43389], [-82.36104, 38.43347], [-82.35417, 38.43603], [-82.35041, 38.43127], [-82.35038, 38.42931], [-82.34931, 38.42794], [-82.36423, 38.42527], [-82.36563, 38.43011], [-82.36476, 38.43059], [-82.36567, 38.43187], [-82.36609, 38.43151], [-82.36673, 38.43401], [-82.36161, 38.43505]]]}}, {"type": "Feature", "properties": {"area_id": 9225, "city": "Huntington", "state": "WV", "city_survey": true, "cat": "Definitely Declining", "grade": "C", "label": "C2", "res": true, "com": false, "ind": false, "holc_grade": "C"}, "geometry": {"type": "Polygon", "coordinates": [[[-82.51051, 38.38946], [-82.51032, 38.38831], [-82.5108, 38.38736], [-82.51138, 38.38807], [-82.51213, 38.38694], [-82.51302, 38.38644], [-82.51429, 38.38657], [-82.51429, 38.38781], [-82.51391, 38.38868], [-82.51649, 38.38903], [-82.51655, 38.38806], [-82.51814, 38.38856], [-82.51922, 38.38839], [-82.51989, 38.38878], [-82.52015, 38.39013], [-82.51773, 38.39507], [-82.517857, 38.395466], [-82.51811, 38.39626], [-82.51452, 38.39649], [-82.5141, 38.395899], [-82.51089, 38.39138], [-82.51051, 38.38946]]]}}, {"type": "Feature", "properties": {"area_id": 9224, "city": "Huntington", "state": "WV", "city_survey": true, "cat": "Definitely Declining", "grade": "C", "label": "C3", "res": true, "com": false, "ind": false, "holc_grade": "C"}, "geometry": {"type": "Polygon", "coordinates": [[[-82.49652, 38.39589], [-82.49617, 38.39409], [-82.4962, 38.3934], [-82.49566, 38.39145], [-82.49613, 38.39098], [-82.49599, 38.38981], [-82.49461, 38.38903], [-82.49528, 38.38789], [-82.49642, 38.38779], [-82.49706, 38.38699], [-82.49925, 38.38652], [-82.4996, 38.38704], [-82.49951, 38.38761], [-82.49884, 38.38841], [-82.49928, 38.38923], [-82.49966, 38.38991], [-82.49992, 38.391], [-82.50027, 38.39192], [-82.50094, 38.39262], [-82.50186, 38.39295], [-82.50297, 38.39305], [-82.50374, 38.39367], [-82.50428, 38.39407], [-82.50523, 38.39499], [-82.50224, 38.39596], [-82.5016, 38.39719], [-82.501084, 38.397503], [-82.50023, 38.39802], [-82.49938, 38.39853], [-82.49823, 38.39923], [-82.4969, 38.39903], [-82.49798, 38.39853], [-82.497879, 38.398148], [-82.49726, 38.39581], [-82.49652, 38.39589]]]}}, {"type": "Feature", "properties": {"area_id": 9228, "city": "Huntington", "state": "WV", "city_survey": true, "cat": "Definitely Declining", "grade": "C", "label": "C4", "res": true, "com": false, "ind": false, "holc_grade": "C"}, "geometry": {"type": "Polygon", "coordinates": [[[-82.478, 38.40543], [-82.478538, 38.405219], [-82.480868, 38.404306], [-82.48129, 38.40414], [-82.48205, 38.40545], [-82.48512, 38.4047], [-82.48566, 38.40578], [-82.48855, 38.40507], [-82.48919, 38.40604], [-82.49096, 38.40566], [-82.49155, 38.40688], [-82.49517, 38.40606], [-82.49542, 38.40677], [-82.49719, 38.40605], [-82.49762, 38.40689], [-82.49836, 38.40655], [-82.50043, 38.4073], [-82.50071, 38.40795], [-82.49701, 38.4092], [-82.49742, 38.40989], [-82.49193, 38.4115], [-82.49178, 38.41129], [-82.48724, 38.41271], [-82.48742, 38.41303], [-82.484976, 38.413711], [-82.48279, 38.41432], [-82.48236, 38.41349], [-82.482346, 38.413464], [-82.48158, 38.41201], [-82.481516, 38.41202], [-82.48109, 38.41209], [-82.480864, 38.411603], [-82.478, 38.40543]]]}}, {"type": "Feature", "properties": {"area_id": 9230, "city": "Huntington", "state": "WV", "city_survey": true, "cat": "Definitely Declining", "grade": "C", "label": "C5", "res": true, "com": false, "ind": false, "holc_grade": "C"}, "geometry": {"type": "Polygon", "coordinates": [[[-82.476313, 38.406016], [-82.47775, 38.40923], [-82.479041, 38.412086], [-82.47926, 38.41257], [-82.47853, 38.41279], [-82.47882, 38.41337], [-82.48025, 38.41301], [-82.48069, 38.41394], [-82.47206, 38.41625], [-82.47171, 38.41568], [-82.45784, 38.41897], [-82.45834, 38.42087], [-82.45498, 38.42148], [-82.454602, 38.420108], [-82.45412, 38.41836], [-82.457411, 38.417795], [-82.45744, 38.41779], [-82.456839, 38.415687], [-82.45622, 38.41352], [-82.456183, 38.413527], [-82.44767, 38.41517], [-82.447589, 38.414933], [-82.44732, 38.41414], [-82.45575, 38.41269], [-82.45852, 38.41214], [-82.45889, 38.41175], [-82.461858, 38.410991], [-82.4619, 38.41098], [-82.4621, 38.41139], [-82.462208, 38.411363], [-82.46648, 38.41029], [-82.466236, 38.409684], [-82.46621, 38.40962], [-82.467924, 38.409007], [-82.473858, 38.406887], [-82.47631, 38.40601], [-82.476313, 38.406016]], [[-82.46958, 38.41054], [-82.46239, 38.41249], [-82.46335, 38.414473], [-82.46363, 38.41505], [-82.47066, 38.41316], [-82.470436, 38.412616], [-82.46958, 38.41054]]]}}, {"type": "Feature", "properties": {"area_id": 9236, "city": "Huntington", "state": "WV", "city_survey": true, "cat": "Definitely Declining", "grade": "C", "label": "C6", "res": true, "com": false, "ind": false, "holc_grade": "C"}, "geometry": {"type": "Polygon", "coordinates": [[[-82.46671, 38.40417], [-82.46582, 38.4044], [-82.4652, 38.40467], [-82.46341, 38.40511], [-82.46349, 38.40423], [-82.46345, 38.40375], [-82.46199, 38.40397], [-82.46095, 38.40407], [-82.46069, 38.40389], [-82.46059, 38.40344], [-82.4607, 38.40298], [-82.46104, 38.40262], [-82.461, 38.40194], [-82.46274, 38.40145], [-82.46438, 38.40174], [-82.46475, 38.40131], [-82.46467, 38.40058], [-82.46404, 38.40058], [-82.46416, 38.39994], [-82.46817, 38.39972], [-82.46872, 38.39889], [-82.47136, 38.3987], [-82.47244, 38.39967], [-82.47281, 38.40002], [-82.4733, 38.39988], [-82.47482, 38.40182], [-82.47812, 38.40265], [-82.47806, 38.40332], [-82.47833, 38.40385], [-82.47303, 38.40514], [-82.47226, 38.40374], [-82.47163, 38.40351], [-82.47077, 38.40351], [-82.46965, 38.40336], [-82.46858, 38.40361], [-82.46739, 38.40385], [-82.4671, 38.40416], [-82.46671, 38.40417]]]}}, {"type": "Feature", "properties": {"area_id": 9234, "city": "Huntington", "state": "WV", "city_survey": true, "cat": "Definitely Declining", "grade": "C", "label": "C7", "res": true, "com": false, "ind": false, "holc_grade": "C"}, "geometry": {"type": "Polygon", "coordinates": [[[-82.464426, 38.408219], [-82.46115, 38.40907], [-82.46035, 38.40705], [-82.46364, 38.40637], [-82.463863, 38.406844], [-82.4645, 38.4082], [-82.464426, 38.408219]]]}}, {"type": "Feature", "properties": {"area_id": 9243, "city": "Huntington", "state": "WV", "city_survey": true, "cat": "Definitely Declining", "grade": "C", "label": "C8", "res": true, "com": false, "ind": false, "holc_grade": "C"}, "geometry": {"type": "Polygon", "coordinates": [[[-82.437366, 38.416824], [-82.43914, 38.4165], [-82.43946, 38.41744], [-82.441, 38.41723], [-82.44143, 38.41863], [-82.43983, 38.41887], [-82.43969, 38.41818], [-82.43822, 38.41839], [-82.437846, 38.418462], [-82.430983, 38.419791], [-82.43042, 38.4199], [-82.42675, 38.42049], [-82.42658, 38.42101], [-82.42571, 38.4211], [-82.42619, 38.4229], [-82.42774, 38.42272], [-82.42789, 38.42332], [-82.42818, 38.42448], [-82.42853, 38.42451], [-82.42866, 38.42491], [-82.43202, 38.42446], [-82.43167, 38.42266], [-82.431776, 38.422643], [-82.43688, 38.42182], [-82.43722, 38.42296], [-82.438996, 38.422601], [-82.43999, 38.4224], [-82.44016, 38.42311], [-82.43926, 38.42325], [-82.439274, 38.42338], [-82.4394, 38.42458], [-82.43701, 38.42498], [-82.43046, 38.42608], [-82.42776, 38.42641], [-82.423666, 38.426974], [-82.41839, 38.4277], [-82.41825, 38.42693], [-82.423478, 38.426299], [-82.42521, 38.42609], [-82.42512, 38.42558], [-82.4267, 38.42538], [-82.42658, 38.42478], [-82.42412, 38.42504], [-82.42271, 38.4193], [-82.42339, 38.41922], [-82.42699, 38.41872], [-82.430514, 38.418076], [-82.431824, 38.417837], [-82.433828, 38.417471], [-82.433968, 38.417445], [-82.437316, 38.416833], [-82.437366, 38.416824]]]}}, {"type": "Feature", "properties": {"area_id": 9239, "city": "Huntington", "state": "WV", "city_survey": true, "cat": "Definitely Declining", "grade": "C", "label": "C9", "res": true, "com": false, "ind": false, "holc_grade": "C"}, "geometry": {"type": "Polygon", "coordinates": [[[-82.42364, 38.40467], [-82.423774, 38.405639], [-82.42406, 38.4077], [-82.42712, 38.40745], [-82.427951, 38.407428], [-82.42826, 38.40742], [-82.42817, 38.40771], [-82.42834, 38.40911], [-82.42879, 38.40907], [-82.42917, 38.40963], [-82.42958, 38.41062], [-82.43013, 38.41228], [-82.43202, 38.41192], [-82.43204, 38.41199], [-82.434, 38.41163], [-82.43516, 38.41567], [-82.436911, 38.415342], [-82.4382, 38.4151], [-82.443819, 38.414056], [-82.44423, 38.41398], [-82.4456, 38.41383], [-82.44573, 38.41442], [-82.443999, 38.414741], [-82.4405, 38.41539], [-82.437098, 38.416013], [-82.43438, 38.41651], [-82.43362, 38.4139], [-82.43295, 38.41401], [-82.43251, 38.41348], [-82.43055, 38.41385], [-82.43035, 38.41301], [-82.42941, 38.41318], [-82.42875, 38.41075], [-82.428576, 38.410772], [-82.42772, 38.41088], [-82.42802, 38.41225], [-82.42879, 38.41489], [-82.42627, 38.41533], [-82.4225, 38.41585], [-82.422567, 38.416104], [-82.423302, 38.418888], [-82.42339, 38.41922], [-82.42271, 38.4193], [-82.422645, 38.419038], [-82.42237, 38.41793], [-82.421169, 38.418066], [-82.42113, 38.41807], [-82.419959, 38.413799], [-82.41985, 38.4134], [-82.41945, 38.41196], [-82.41777, 38.40718], [-82.41188, 38.40725], [-82.412218, 38.410168], [-82.41224, 38.41036], [-82.41148, 38.40981], [-82.411486, 38.409688], [-82.41153, 38.40883], [-82.41106, 38.40621], [-82.41236, 38.406225], [-82.412423, 38.406226], [-82.414515, 38.406251], [-82.41612, 38.40627], [-82.42241, 38.40618], [-82.422388, 38.405952], [-82.42228, 38.40482], [-82.42192, 38.40297], [-82.42328, 38.40295], [-82.42364, 38.40467]], [[-82.42624, 38.40947], [-82.42636, 38.40977], [-82.42676, 38.40965], [-82.42694, 38.41052], [-82.42824, 38.41031], [-82.42752, 38.40771], [-82.42427, 38.40813], [-82.42436, 38.40978], [-82.42624, 38.40947]]]}}, {"type": "Feature", "properties": {"area_id": 9229, "city": "Huntington", "state": "WV", "city_survey": true, "cat": "Hazardous", "grade": "D", "label": "D1", "res": true, "com": false, "ind": false, "holc_grade": "D"}, "geometry": {"type": "Polygon", "coordinates": [[[-82.45784, 38.41897], [-82.47171, 38.41568], [-82.47206, 38.41625], [-82.48069, 38.41394], [-82.48236, 38.41349], [-82.48279, 38.41432], [-82.47012, 38.4178], [-82.4704, 38.41887], [-82.46592, 38.41959], [-82.46461, 38.41981], [-82.46344, 38.42006], [-82.45851, 38.42148], [-82.45834, 38.42087], [-82.45784, 38.41897]]]}}, {"type": "Feature", "properties": {"area_id": 9242, "city": "Huntington", "state": "WV", "city_survey": true, "cat": "Hazardous", "grade": "D", "label": "D2", "res": true, "com": false, "ind": false, "holc_grade": "D"}, "geometry": {"type": "Polygon", "coordinates": [[[-82.42883, 38.415014], [-82.42957, 38.41733], [-82.43148, 38.41701], [-82.43055, 38.41385], [-82.43251, 38.41348], [-82.43295, 38.41401], [-82.43362, 38.4139], [-82.43438, 38.41651], [-82.437098, 38.416013], [-82.4405, 38.41539], [-82.440684, 38.416183], [-82.44069, 38.41621], [-82.43914, 38.4165], [-82.437366, 38.416824], [-82.437316, 38.416833], [-82.433968, 38.417445], [-82.433828, 38.417471], [-82.431824, 38.417837], [-82.430514, 38.418076], [-82.42699, 38.41872], [-82.42339, 38.41922], [-82.423302, 38.418888], [-82.422567, 38.416104], [-82.4225, 38.41585], [-82.42627, 38.41533], [-82.42879, 38.41489], [-82.42883, 38.415014]]]}}, {"type": "Feature", "properties": {"area_id": 9247, "city": "Huntington", "state": "WV", "city_survey": true, "cat": "Hazardous", "grade": "D", "label": "D3", "res": true, "com": false, "ind": false, "holc_grade": "D"}, "geometry": {"type": "Polygon", "coordinates": [[[-82.41764, 38.43099], [-82.41793, 38.4321], [-82.41429, 38.43389], [-82.41379, 38.43156], [-82.41764, 38.43099]]]}}, {"type": "Feature", "properties": {"area_id": 9256, "city": "Huntington", "state": "WV", "city_survey": true, "cat": "Hazardous", "grade": "D", "label": "D4", "res": true, "com": false, "ind": false, "holc_grade": "D"}, "geometry": {"type": "Polygon", "coordinates": [[[-82.389875, 38.417503], [-82.38981, 38.42072], [-82.38934, 38.42047], [-82.388125, 38.419821], [-82.3855, 38.41842], [-82.385669, 38.418258], [-82.38623, 38.41772], [-82.38671, 38.41744], [-82.38713, 38.41753], [-82.38778, 38.41781], [-82.38842, 38.41791], [-82.38917, 38.41772], [-82.389797, 38.417322], [-82.38988, 38.41727], [-82.389875, 38.417503]]]}}, {"type": "Feature", "properties": {"area_id": 11339, "city": "Huntington", "state": "WV", "city_survey": true, "cat": "Commercial", "grade": null, "label": "Commercial", "res": false, "com": true, "ind": false, "holc_grade": null}, "geometry": {"type": "MultiPolygon", "coordinates": [[[[-82.422645, 38.419038], [-82.42271, 38.4193], [-82.42412, 38.42504], [-82.42658, 38.42478], [-82.4267, 38.42538], [-82.42512, 38.42558], [-82.42521, 38.42609], [-82.423478, 38.426299], [-82.41825, 38.42693], [-82.41806, 38.4267], [-82.418002, 38.426451], [-82.41784, 38.42575], [-82.42213, 38.42518], [-82.42146, 38.42227], [-82.42076, 38.41953], [-82.420726, 38.419396], [-82.42042, 38.41817], [-82.42113, 38.41807], [-82.421169, 38.418066], [-82.42237, 38.41793], [-82.422645, 38.419038]]], [[[-82.42875, 38.41075], [-82.42941, 38.41318], [-82.43035, 38.41301], [-82.43055, 38.41385], [-82.43148, 38.41701], [-82.42957, 38.41733], [-82.42883, 38.415014], [-82.42879, 38.41489], [-82.42802, 38.41225], [-82.42772, 38.41088], [-82.428576, 38.410772], [-82.42875, 38.41075]]], [[[-82.44529, 38.41545], [-82.44631, 38.41889], [-82.44706, 38.41868], [-82.44743, 38.41958], [-82.45412, 38.41836], [-82.454602, 38.420108], [-82.45498, 38.42148], [-82.453415, 38.421791], [-82.45141, 38.42219], [-82.450686, 38.422334], [-82.450497, 38.422372], [-82.4394, 38.42458], [-82.439274, 38.42338], [-82.43926, 38.42325], [-82.44016, 38.42311], [-82.43999, 38.4224], [-82.438996, 38.422601], [-82.43722, 38.42296], [-82.43688, 38.42182], [-82.438682, 38.421457], [-82.43986, 38.42122], [-82.43962, 38.42059], [-82.44006, 38.42038], [-82.43983, 38.41887], [-82.44143, 38.41863], [-82.441, 38.41723], [-82.43946, 38.41744], [-82.43914, 38.4165], [-82.44069, 38.41621], [-82.440684, 38.416183], [-82.4405, 38.41539], [-82.443999, 38.414741], [-82.44573, 38.41442], [-82.44732, 38.41414], [-82.447589, 38.414933], [-82.44767, 38.41517], [-82.44529, 38.41545]]], [[[-82.48109, 38.41209], [-82.481516, 38.41202], [-82.48158, 38.41201], [-82.482346, 38.413464], [-82.48236, 38.41349], [-82.48069, 38.41394], [-82.48025, 38.41301], [-82.47882, 38.41337], [-82.47853, 38.41279], [-82.47926, 38.41257], [-82.479041, 38.412086], [-82.47775, 38.40923], [-82.476313, 38.406016], [-82.47631, 38.40601], [-82.476835, 38.40583], [-82.478, 38.40543], [-82.480864, 38.411603], [-82.48109, 38.41209]]]]}}, {"type": "Feature", "properties": {"area_id": 11340, "city": "Huntington", "state": "WV", "city_survey": true, "cat": "Industrial", "grade": null, "label": "Industrial", "res": false, "com": false, "ind": true, "holc_grade": null}, "geometry": {"type": "MultiPolygon", "coordinates": [[[[-82.38988, 38.41727], [-82.389797, 38.417322], [-82.38917, 38.41772], [-82.38842, 38.41791], [-82.38778, 38.41781], [-82.38713, 38.41753], [-82.38671, 38.41744], [-82.38623, 38.41772], [-82.385669, 38.418258], [-82.3855, 38.41842], [-82.3843, 38.41777], [-82.38224, 38.41706], [-82.382323, 38.416646], [-82.3832, 38.41228], [-82.38693, 38.41284], [-82.38823, 38.41392], [-82.38833, 38.414034], [-82.388515, 38.414244], [-82.38982, 38.41573], [-82.38988, 38.41727]]], [[[-82.4154, 38.42408], [-82.41262, 38.42456], [-82.41253, 38.42392], [-82.41195, 38.42406], [-82.40544, 38.4253], [-82.40192, 38.42598], [-82.40119, 38.42301], [-82.41032, 38.42129], [-82.41302, 38.42078], [-82.416783, 38.42022], [-82.41799, 38.42004], [-82.418131, 38.420566], [-82.41868, 38.42261], [-82.41513, 38.42318], [-82.4154, 38.42408]]], [[[-82.40612, 38.43634], [-82.40317, 38.43588], [-82.40798, 38.43512], [-82.40761, 38.43322], [-82.41072, 38.43282], [-82.41055, 38.43204], [-82.41379, 38.43156], [-82.41429, 38.43389], [-82.41136, 38.43533], [-82.41009, 38.43554], [-82.40858, 38.43617], [-82.40612, 38.43634]]], [[[-82.45074, 38.423122], [-82.45037, 38.4232], [-82.4408, 38.4257], [-82.4347, 38.42724], [-82.43141, 38.42817], [-82.42909, 38.42888], [-82.42452, 38.42993], [-82.424519, 38.42993], [-82.42078, 38.4311], [-82.41793, 38.4321], [-82.41764, 38.43099], [-82.41665, 38.42702], [-82.4166, 38.42683], [-82.41806, 38.4267], [-82.41825, 38.42693], [-82.41839, 38.4277], [-82.423666, 38.426974], [-82.42776, 38.42641], [-82.43046, 38.42608], [-82.43701, 38.42498], [-82.4394, 38.42458], [-82.450497, 38.422372], [-82.450686, 38.422334], [-82.45141, 38.42219], [-82.453415, 38.421791], [-82.45498, 38.42148], [-82.45834, 38.42087], [-82.45851, 38.42148], [-82.45074, 38.423122]]], [[[-82.46553, 38.40599], [-82.473648, 38.40696], [-82.47365, 38.40696], [-82.46793, 38.409005], [-82.46621, 38.40962], [-82.466236, 38.409684], [-82.46648, 38.41029], [-82.462208, 38.411363], [-82.4621, 38.41139], [-82.4619, 38.41098], [-82.461212, 38.409227], [-82.46115, 38.40907], [-82.464426, 38.408219], [-82.4645, 38.4082], [-82.463863, 38.406844], [-82.46364, 38.40637], [-82.46365, 38.406368], [-82.46553, 38.40599]]], [[[-82.49742, 38.40989], [-82.49701, 38.4092], [-82.50071, 38.40795], [-82.50129, 38.40779], [-82.50174, 38.40793], [-82.50251, 38.40777], [-82.50294, 38.40838], [-82.50267, 38.40891], [-82.49874, 38.40991], [-82.49253, 38.41235], [-82.48951, 38.4135], [-82.485505, 38.414888], [-82.48342, 38.41561], [-82.4729, 38.41863], [-82.4704, 38.41887], [-82.47012, 38.4178], [-82.48279, 38.41432], [-82.484976, 38.413711], [-82.48742, 38.41303], [-82.48724, 38.41271], [-82.49178, 38.41129], [-82.49193, 38.4115], [-82.49742, 38.40989]]]]}}]}