{"type": "FeatureCollection", "features": [{"type": "Feature", "geometry": {"type": "Point", "coordinates": [-82.447222, 38.418056]}, "properties": {"facility_name": "RAYBO CHEMICAL CO", "industry": null, "tri_facility_id": "25504RYBCH514JA"}}, {"type": "Feature", "geometry": {"type": "Point", "coordinates": [-82.5, 38.416666666666664]}, "properties": {"facility_name": "BEK ENGINEERING CO (DBA LEVEL 1 FASTENERS)", "industry": null, "tri_facility_id": "25701BKNGN3THIR"}}, {"type": "Feature", "geometry": {"type": "Point", "coordinates": [-82.463056, 38.376389]}, "properties": {"facility_name": "OWENS-BROCKWAY GLASS CONTAINER INC", "industry": null, "tri_facility_id": "25701WNSLL8THAV"}}, {"type": "Feature", "geometry": {"type": "Point", "coordinates": [-82.451944, 38.389444]}, "properties": {"facility_name": "XCEL-PREMET INC", "industry": null, "tri_facility_id": "25701XCLPR2140P"}}, {"type": "Feature", "geometry": {"type": "Point", "coordinates": [-82.377556, 38.4262]}, "properties": {"facility_name": "D & E INDUSTRIES INC", "industry": null, "tri_facility_id": "25702DNSTRKYLEL"}}, {"type": "Feature", "geometry": {"type": "Point", "coordinates": [-82.465278, 38.411667]}, "properties": {"facility_name": "J H FLETCHER & CO", "industry": null, "tri_facility_id": "25702JHFLT707WE"}}, {"type": "Feature", "geometry": {"type": "Point", "coordinates": [-82.30833333333334, 38.459722222222226]}, "properties": {"facility_name": "ALCON RESEARCH LTD.", "industry": null, "tri_facility_id": "25702LCNLB6065K"}}, {"type": "Feature", "geometry": {"type": "Point", "coordinates": [-82.420556, 38.428056]}, "properties": {"facility_name": "AMERICAN MEDICAL INDL SUPPLY INC", "industry": null, "tri_facility_id": "25703MRCNM22122"}}, {"type": "Feature", "geometry": {"type": "Point", "coordinates": [-82.41388888888889, 38.43055555555555]}, "properties": {"facility_name": "RUBBERLITE INC", "industry": null, "tri_facility_id": "25703RBRLT2501G"}}, {"type": "Feature", "geometry": {"type": "Point", "coordinates": [-82.427222, 38.426944]}, "properties": {"facility_name": "SWVA INC", "industry": null, "tri_facility_id": "25703STLFW17THS"}}, {"type": "Feature", "geometry": {"type": "Point", "coordinates": [-82.377556, 38.4262]}, "properties": {"facility_name": "TRANSFAB INC", "industry": null, "tri_facility_id": "25703TRNSFKYLEL"}}, {"type": "Feature", "geometry": {"type": "Point", "coordinates": [-82.447222, 38.418056]}, "properties": {"facility_name": "COLUMBIA PAINT CORP", "industry": null, "tri_facility_id": "25704CLMBP641JA"}}, {"type": "Feature", "geometry": {"type": "Point", "coordinates": [-82.48, 38.415]}, "properties": {"facility_name": "FUCHS LUBRICANTS CO HUNTINGTON", "industry": null, "tri_facility_id": "25704CNTRY12013"}}, {"type": "Feature", "geometry": {"type": "Point", "coordinates": [-82.465278, 38.411389]}, "properties": {"facility_name": "HUNTINGTON PLATING INC", "industry": null, "tri_facility_id": "25704HNTNG625MO"}}, {"type": "Feature", "geometry": {"type": "Point", "coordinates": [-82.480597, 38.407606]}, "properties": {"facility_name": "BOTTLING GROUP LLC PEPSI BOTTLING GROUP", "industry": null, "tri_facility_id": "25704PPSCL1531M"}}, {"type": "Feature", "geometry": {"type": "Point", "coordinates": [-82.375, 38.416667]}, "properties": {"facility_name": "J.H. FLETCHER & CO.", "industry": null, "tri_facility_id": "25705JHFLT402HI"}}, {"type": "Feature", "geometry": {"type": "Point", "coordinates": [-82.418389, 38.4262]}, "properties": {"facility_name": "ACF HUNTINGTON INC.", "industry": null, "tri_facility_id": "25710CFNDS2300T"}}, {"type": "Feature", "geometry": {"type": "Point", "coordinates": [-82.443889, 38.419444]}, "properties": {"facility_name": "HUNTINGTON PUBLISHING CO", "industry": null, "tri_facility_id": "25710HNTNG9465T"}}, {"type": "Feature", "geometry": {"type": "Point", "coordinates": [-82.355111, 38.4164]}, "properties": {"facility_name": "THISTLE PROCESSING LLC", "industry": null, "tri_facility_id": "25720NCLLYRIVER"}}, {"type": "Feature", "geometry": {"type": "Point", "coordinates": [-82.416111, 38.432778]}, "properties": {"facility_name": "FLINT GROUP PRINTING SYSTEMS US LLC", "industry": null, "tri_facility_id": "25722BSFCR24THS"}}, {"type": "Feature", "geometry": {"type": "Point", "coordinates": [-82.558333, 38.397222]}, "properties": {"facility_name": "KANAWHA RIVER TERMINALS INC", "industry": null, "tri_facility_id": "25507KNWHRMAINS"}}, {"type": "Feature", "geometry": {"type": "Point", "coordinates": [-82.558611, 38.391667]}, "properties": {"facility_name": "AMERICAN NATIONAL RUBBER", "industry": null, "tri_facility_id": "25507MRCNNMAINH"}}, {"type": "Feature", "geometry": {"type": "Point", "coordinates": [-82.5658, 38.3501]}, "properties": {"facility_name": "WILLERT HOME PRODUCTS", "industry": null, "tri_facility_id": "25530KNVCH21STB"}}]}